BEGIN GSE2.0
MSG_TYPE DATA
MSG_ID 30-JUN-1109:29:55  FRA_NDC
E-MAIL
DATA_TYPE BULLETIN
Reviewed Bulletin (REB) # P2011-025  from French NDC for regional phases     PERIOD 22 JUN 2011 TO 28 JUN 2011 P R., J-P S
EVENT     260619
    Date      Time       Latitude Longitude    Depth    Ndef Nsta Gap    Mag1  N    Mag2  N    Mag3  N   Author         ID
       rms   OT_Error      Smajor Sminor Az        Err   mdist  Mdist     Err        Err        Err      Quality

2011/06/22 00:58:35.9     43.0728    -.6395      2.0      19    3 169             Md 1.1  3              js067245    260619

      0.28   +-  0.10       2.1    1.3  176.42 +-  0.0    0.18   0.72              +-0.2                 m i ke

PYRENEES
Sta     Dist  EvAz     Phase      Date       Time     TRes  Azim  AzRes  Slow  SRes Def   SNR       Amp   Per   Mag1   Mag2       ID
ETSF  000.18 161.3 m E Pg      2011/06/22 00:58:39.1  -0.6                          T                                        4711743
ETSF  000.18 161.3 m E Sg      2011/06/22 00:58:41.8  -0.5                          T                3.4  .20        Md 1.4  4711744
SJPF  000.43 275.6 m E Pg      2011/06/22 00:58:43.4  -0.8                          T                                        4712023
SJPF  000.43 275.6 m E Sg      2011/06/22 00:58:49.5  -0.4                          T                 .9  .27        Md 1.0  4712024
EPF   000.72 093.1 m E Pg      2011/06/22 00:58:49.5   0.0                          T                                        4711741
EPF   000.72 093.1 m E Sg      2011/06/22 00:58:59.0   0.1                          T                 .5  .32        Md 1.0  4711742

.
EVENT     260679
    Date      Time       Latitude Longitude    Depth    Ndef Nsta Gap    Mag1  N    Mag2  N    Mag3  N   Author         ID
       rms   OT_Error      Smajor Sminor Az        Err   mdist  Mdist     Err        Err        Err      Quality

2011/06/22 04:17:51.3     50.9936    6.7019     19.3      25    4 133  Ml 2.3  3                         js067245    260679

      0.33   +-  0.10       2.5    1.5  148.00 +-  0.8    0.05   2.61   +-0.3                            m i ke

GERMANY
Sta     Dist  EvAz     Phase      Date       Time     TRes  Azim  AzRes  Slow  SRes Def   SNR       Amp   Per   Mag1   Mag2       ID
RUP   001.31 169.8 m E Pn      2011/06/22 04:18:13.0   0.0                          T                                        4711755
RUP   001.31 169.8 m E Sn      2011/06/22 04:18:29.0   0.0                          T                                        4711756
GIVF  001.49 234.1 m E Pn      2011/06/22 04:18:15.1  -0.3                          T                                        4711761
GIVF  001.49 234.1 m E Pg      2011/06/22 04:18:18.6  -0.7                          T                                        4711760
GIVF  001.49 234.1 m E Sg      2011/06/22 04:18:38.7  -0.1                          T                9.8  .34 Ml 2.5         4711762
BAIF  001.85 240.5 m E Pn      2011/06/22 04:18:20.2  -0.1                          T                                        4711758
BAIF  001.85 240.5 m E Pg      2011/06/22 04:18:25.6  -0.2                          T                                        4711757
BAIF  001.85 240.5 m E Sg      2011/06/22 04:18:48.4  -1.2                          T                8.6  .33 Ml 2.6         4711759
CDF   002.61 171.6 m E Sn      2011/06/22 04:19:00.6   0.6                          T                                        4711754
CDF   002.61 171.6 m E Sg      2011/06/22 04:19:13.5  -0.1                          T                 .9  .27 Ml 2.0         4711753

.
EVENT     260678
    Date      Time       Latitude Longitude    Depth    Ndef Nsta Gap    Mag1  N    Mag2  N    Mag3  N   Author         ID
       rms   OT_Error      Smajor Sminor Az        Err   mdist  Mdist     Err        Err        Err      Quality

2011/06/22 05:35:13.6     45.8659    7.4862      6.0 f    13    5 091  Ml 1.7  3  Md 1.7  2              js067245    260678

      0.15   +-  0.05       1.2     .9  118.53 +-  0.0    0.22   1.48   +-0.1      +-0.1                 m i ke

NORTHERN ITALY
Sta     Dist  EvAz     Phase      Date       Time     TRes  Azim  AzRes  Slow  SRes Def   SNR       Amp   Per   Mag1   Mag2       ID
LPL   000.63 236.8 m E Pg      2011/06/22 05:35:25.9  -0.1                          T                                        4711763
LPL   000.63 236.8 m E Sg      2011/06/22 05:35:34.5   0.2                          T                2.6  .25        Md 1.7  4711766
LPG   000.63 234.7 m E Pg      2011/06/22 05:35:26.0  -0.1                          T                                        4711764
LPG   000.63 234.7 m E Sg      2011/06/22 05:35:34.3  -0.1                          T                3.1  .16        Md 1.6  4711765
CABF  001.22 308.0 m E Pg      2011/06/22 05:35:36.7   0.1                          T                                        4711769
CABF  001.22 308.0 m E Sg      2011/06/22 05:35:52.3  -0.2                          T                1.1  .20 Ml 1.6         4711770
MBDF  001.25 204.1 m E Pg      2011/06/22 05:35:37.1  -0.1                          T                                        4711772
MBDF  001.25 204.1 m E Sg      2011/06/22 05:35:53.4   0.1                          T                2.2  .28 Ml 1.8         4711768
ORIF  001.48 230.6 m E Pg      2011/06/22 05:35:41.0  -0.3                          T                                        4711771
ORIF  001.48 230.6 m E Sg      2011/06/22 05:36:00.6   0.3                          T                1.2  .21 Ml 1.8         4711773

.
EVENT     260627
    Date      Time       Latitude Longitude    Depth    Ndef Nsta Gap    Mag1  N    Mag2  N    Mag3  N   Author         ID
       rms   OT_Error      Smajor Sminor Az        Err   mdist  Mdist     Err        Err        Err      Quality

2011/06/22 06:32:47.8     42.8124   -1.1050      2.0      37    3 093  Ml 1.6  1  Md 1.5  2              js067245    260627

      0.25   +-  0.05       1.0     .8   43.41 +-  0.0    0.09   1.08   +-         +-0.0                 m i ke

PYRENEES
Sta     Dist  EvAz     Phase      Date       Time     TRes  Azim  AzRes  Slow  SRes Def   SNR       Amp   Per   Mag1   Mag2       ID
SJPF  000.31 343.7 m E Pg      2011/06/22 06:32:53.6  -0.3                          T                                        4711778
SJPF  000.31 343.7 m E Sg      2011/06/22 06:32:57.9  -0.2                          T               11.8  .26        Md 1.5  4711779
ETSF  000.41 077.7 m E Pg      2011/06/22 06:32:56.1   0.3                          T                                        4711776
ETSF  000.41 077.7 m E Sg      2011/06/22 06:33:01.4   0.2                          T                4.5  .20        Md 1.5  4711777
EPF   001.08 077.9 m E Pg      2011/06/22 06:33:08.2   0.1                          T                                        4711774
EPF   001.08 077.9 m E Sg      2011/06/22 06:33:22.3   0.2                          T                1.0  .18 Ml 1.6         4711775

.
EVENT     260628
    Date      Time       Latitude Longitude    Depth    Ndef Nsta Gap    Mag1  N    Mag2  N    Mag3  N   Author         ID
       rms   OT_Error      Smajor Sminor Az        Err   mdist  Mdist     Err        Err        Err      Quality

2011/06/22 08:33:19.0     42.9022    -.9194      2.0      28    3 089  Ml 1.7  1  Md 1.7  2              js067245    260628

      0.31   +-  0.05       1.1     .9  121.67 +-  0.0    0.14   0.93   +-         +-0.1                 m i ke

PYRENEES
Sta     Dist  EvAz     Phase      Date       Time     TRes  Azim  AzRes  Slow  SRes Def   SNR       Amp   Per   Mag1   Mag2       ID
ETSF  000.26 090.7 m E Pg      2011/06/22 08:33:24.0  -0.3                          T                                        4711782
ETSF  000.26 090.7 m E Sg      2011/06/22 08:33:27.8  -0.1                          T                9.9  .28        Md 1.7  4711783
SJPF  000.31 313.4 m E Pg      2011/06/22 08:33:24.3  -0.7                          T                                        4711784
SJPF  000.31 313.4 m E Sg      2011/06/22 08:33:28.4  -0.7                          T               12.9  .26        Md 1.8  4711785
EPF   000.93 081.7 m E Pg      2011/06/22 08:33:36.8   0.2                          T                                        4711780
EPF   000.93 081.7 m E Sg      2011/06/22 08:33:48.4  -0.3                          T                1.7  .20 Ml 1.7         4711781

.
EVENT     260663
    Date      Time       Latitude Longitude    Depth    Ndef Nsta Gap    Mag1  N    Mag2  N    Mag3  N   Author         ID
       rms   OT_Error      Smajor Sminor Az        Err   mdist  Mdist     Err        Err        Err      Quality

2011/06/22 10:13:24.0     42.8335   -1.1374      2.0      20    3 092  Ml 1.2  1  Md 1.2  2              js067245    260663

      0.18   +-  0.04       1.0     .7    4.54 +-  0.0    0.07   1.10   +-         +-0.1                 m i ke

PYRENEES
Sta     Dist  EvAz     Phase      Date       Time     TRes  Azim  AzRes  Slow  SRes Def   SNR       Amp   Per   Mag1   Mag2       ID
SJPF  000.29 347.1 m E Pg      2011/06/22 10:13:29.9   0.3                          T                                        4711790
SJPF  000.29 347.1 m E Sg      2011/06/22 10:13:33.4  -0.1                          T                4.9  .29        Md 1.3  4711791
ETSF  000.43 081.1 m E Pg      2011/06/22 10:13:32.3   0.0                          T                                        4711788
ETSF  000.43 081.1 m E Sg      2011/06/22 10:13:37.8  -0.2                          T                1.7  .26        Md 1.1  4711789
EPF   001.10 079.2 m E Pg      2011/06/22 10:13:44.5  -0.2                          T                                        4711786
EPF   001.10 079.2 m E Sg      2011/06/22 10:13:59.0   0.0                          T                 .6  .26 Ml 1.2         4711787

.
EVENT     260631
    Date      Time       Latitude Longitude    Depth    Ndef Nsta Gap    Mag1  N    Mag2  N    Mag3  N   Author         ID
       rms   OT_Error      Smajor Sminor Az        Err   mdist  Mdist     Err        Err        Err      Quality

2011/06/22 10:44:21.5     51.4997    6.5299      1.0 f    46   17 098  Ml 3.0 11  Md 3.0  2              js067245    260631

      0.65   +-  0.10       2.0    1.6  139.72 +-  0.0    0.33   5.70   +-0.5      +-0.4                 m i sr

GERMANY
Sta     Dist  EvAz     Phase      Date       Time     TRes  Azim  AzRes  Slow  SRes Def   SNR       Amp   Per   Mag1   Mag2       ID
GIVF  001.77 218.4 m E Pn      2011/06/22 10:44:51.4  -0.1                          T                                        4711842
GIVF  001.77 218.4 m E Sg      2011/06/22 10:45:17.1  -0.1                          T               82.2  .26 Ml 3.7 Md 2.8  4711819
RUP   001.83 169.2 m E Pn      2011/06/22 10:44:52.4   0.0                          T                                        4711839
RUP   001.83 169.2 m E P       2011/06/22 10:44:54.6   0.1                          T                                        4711840
RUP   001.83 169.2 m E Sg      2011/06/22 10:45:19.2  -0.1                          T                                Md 3.3  4711817
BAIF  002.06 226.5 m E Pn      2011/06/22 10:44:55.4  -0.1                          T                                        4711841
BAIF  002.06 226.5 m E Sg      2011/06/22 10:45:26.4   0.0                          T               21.2  .27 Ml 3.1         4711818
LANF  002.65 161.5 m E Pn      2011/06/22 10:45:03.3  -0.2                          T                                        4711837
LANF  002.65 161.5 m E Pg      2011/06/22 10:45:10.7   0.0                          T                                        4711838
LANF  002.65 161.5 m E Sg      2011/06/22 10:45:44.8   0.0                          T               14.7  .42 Ml 2.9         4711816
CDF   003.13 170.9 m E Pn      2011/06/22 10:45:10.1   0.0                          T                                        4711835
CDF   003.13 170.9 m E Pg      2011/06/22 10:45:20.0   0.4                          T                                        4711836
CDF   003.13 170.9 m E Sg      2011/06/22 10:46:00.1   0.3                          T               12.2  .50 Ml 3.0         4711815
MEZF  003.15 198.2 m E Pn      2011/06/22 10:45:10.1  -0.1  24.8  7.7               T                                        4711833
MEZF  003.15 198.2 m E Sg      2011/06/22 10:45:59.9  -0.3                          T               12.8  .31 Ml 3.1         4711813
PAGF  002.99 190.3 m E P       2011/06/22 10:45:10.7  -0.3                          T                                        4711834
PAGF  002.99 190.3 m E Sg      2011/06/22 10:45:55.5   0.0                          T                 .9  .40 Ml 1.8         4711814
LOR   004.58 203.4 m E Pn      2011/06/22 10:45:29.7  -0.1  35.3  13.9              T                                        4711844
LOR   004.58 203.4 m E Sn      2011/06/22 10:46:20.9   0.3                          T                                        4711823
LOR   004.58 203.4 m E Sg      2011/06/22 10:46:45.0   0.0                          T                9.1  .36 Ml 3.2         4711821
SSF   004.86 205.2 m E Pn      2011/06/22 10:45:33.6   0.0                          T                                        4711843
SSF   004.86 205.2 m E Sn      2011/06/22 10:46:27.7   0.5                          T                                        4711822
SSF   004.86 205.2 m E Sg      2011/06/22 10:46:54.0   0.2                          T                4.3  .31 Ml 3.1         4711820
AVF   005.15 205.1 m E Pn      2011/06/22 10:45:37.2  -0.3                          T                                        4711832
SMF   005.17 201.0 m E Pn      2011/06/22 10:45:37.6  -0.2                          T                                        4711831
HYF   004.94 212.5 m E P       2011/06/22 10:45:38.4  -0.2                          T                                        4711830
FLN   005.28 241.5 m E Pn      2011/06/22 10:45:39.5   0.3                          T                                        4711828
FLN   005.28 241.5 m E Sn      2011/06/22 10:46:37.0  -0.1                          T                                        4711824
BGF   005.51 207.5 m E Pn      2011/06/22 10:45:42.2  -0.1                          T                                        4711829
GRR   005.70 239.7 m E Pn      2011/06/22 10:45:44.8  -0.1                          T                                        4711827
GRR   005.70 239.7 m E Sn      2011/06/22 10:46:47.1   0.0                          T                8.3  .22 Ml 3.5         4711826
HINF  003.69 176.6 m E Sg      2011/06/22 10:46:17.1  -0.2                          T                3.5  .26 Ml 2.7         4711812
LDF   005.18 238.4 m E Sn      2011/06/22 10:46:34.8   0.0                          T                3.3  .33 Ml 2.9         4711825

.
EVENT     260660
    Date      Time       Latitude Longitude    Depth    Ndef Nsta Gap    Mag1  N    Mag2  N    Mag3  N   Author         ID
       rms   OT_Error      Smajor Sminor Az        Err   mdist  Mdist     Err        Err        Err      Quality

2011/06/22 18:38:08.5     47.4310    6.0077     25.0      14    7 144  Ml 1.5  4  Md 1.5  2              js067245    260660

      0.17   +-  0.07       1.5    1.2   80.43 +-  0.0    0.62   1.30   +-0.3      +-0.1                 m i ke

FRANCE
Sta     Dist  EvAz     Phase      Date       Time     TRes  Azim  AzRes  Slow  SRes Def   SNR       Amp   Per   Mag1   Mag2       ID
HAU   000.62 021.7 m E Pg      2011/06/22 18:38:21.2   0.3                          T                                        4712059
HAU   000.62 021.7 m E Sg      2011/06/22 18:38:29.5   0.0                          T                6.7  .26        Md 1.6  4712060
HINF  000.69 055.7 m E Pg      2011/06/22 18:38:22.3   0.1                          T                                        4712057
HINF  000.69 055.7 m E Sg      2011/06/22 18:38:31.7   0.1                          T                2.7  .22        Md 1.4  4712058
CABF  000.82 176.2 m E Pg      2011/06/22 18:38:24.5  -0.1                          T                                        4712055
CABF  000.82 176.2 m E Sg      2011/06/22 18:38:35.8   0.2                          T                1.9  .28                4712056
SFTF  001.01 320.2 m E Pg      2011/06/22 18:38:27.8  -0.1                          T                                        4712053
SFTF  001.01 320.2 m E Sg      2011/06/22 18:38:41.0  -0.3                          T                2.7  .34 Ml 1.7         4712054
PAGF  001.14 350.5 m E Pg      2011/06/22 18:38:30.3   0.1                          T                                        4712049
PAGF  001.14 350.5 m E Sg      2011/06/22 18:38:45.2  -0.1                          T                 .5  .30 Ml 1.1         4712050
MEZF  001.25 329.4 m E Pg      2011/06/22 18:38:32.3   0.2                          T                                        4712051
MEZF  001.25 329.4 m E Sg      2011/06/22 18:38:48.6   0.1                          T                2.0  .34 Ml 1.7         4712052
CDF   001.30 040.5 m E Pg      2011/06/22 18:38:32.9  -0.3                          T                                        4712047
CDF   001.30 040.5 m E Sg      2011/06/22 18:38:50.2  -0.1                          T                 .7  .29 Ml 1.4         4712048

.
