EVENT     279748
    Date      Time       Latitude Longitude    Depth    Ndef Nsta Gap    Mag1  N    Mag2  N    Mag3  N   Author         ID
       rms   OT_Error      Smajor Sminor Az        Err   mdist  Mdist     Err        Err        Err      Quality

2012/07/18 10:37:20.0     49.8661    8.4102     10.0      32    9 058  Ml 2.5  7  Md 2.5  2              bulletin    279848
                                                                                                         _ldg
      0.41   +-  0.07       1.4    1.2   93.11 +-  0.0    0.16   2.77   +-0.2      +-0.1                 m i ke

GERMANY
Sta     Dist  EvAz     Phase      Date       Time     TRes  Azim  AzRes  Slow  SRes Def   SNR       Amp   Per   Mag1   Mag2       ID
LANF  000.97 204.2 m E Pn      2012/07/18 10:37:38.1   0.0                          T                                        5029653
LANF  000.97 204.2 m E Sg      2012/07/18 10:37:51.5   0.6                          T               19.2  .21 Ml 2.8 Md 2.5  5029643
CDF   001.63 207.5 m E Pn      2012/07/18 10:37:46.8  -0.4                          T                                        5029652
CDF   001.63 207.5 m E Sn      2012/07/18 10:38:06.9  -0.2                          T                                        5029651
CDF   001.63 207.5 m E Sg      2012/07/18 10:38:12.0   0.4                          T                4.8  .18 Ml 2.6 Md 2.4  5029644
PAGF  002.20 234.3 m E Pn      2012/07/18 10:37:55.0   0.3                          T                                        5036066
PAGF  002.20 234.3 m E Sn      2012/07/18 10:38:20.7   0.4                          T               11.1  .61 Ml 2.5         5036065
THEF  002.28 225.0 m E Pn      2012/07/18 10:37:55.7  -0.3                          T                                        5029638
THEF  002.28 225.0 m E Sn      2012/07/18 10:38:21.8  -0.6                          T                                        5029639
THEF  002.28 225.0 m E Sg      2012/07/18 10:38:31.2  -0.6                          T                4.9  .27 Ml 2.5         5029640
HAU   002.31 216.9 m E Pn      2012/07/18 10:37:55.8  -0.5                          T                                        5029646
HAU   002.31 216.9 m E Sn      2012/07/18 10:38:22.4  -0.7                          T                3.6  .21 Ml 2.3         5029648
HAU   002.31 216.9 m E Sg      2012/07/18 10:38:32.0  -0.5                          T                                        5029642
HINF  002.29 207.2 m E Pn      2012/07/18 10:37:55.9  -0.3                          T                                        5029647
HINF  002.29 207.2 m E Sn      2012/07/18 10:38:21.9  -0.9                          T                4.9  .29 Ml 2.5         5029649
HINF  002.29 207.2 m E Sg      2012/07/18 10:38:31.8  -0.4                          T                                        5029641
GIVF  002.33 277.2 m E Pn      2012/07/18 10:37:56.9   0.4                          T                                        5036063
GIVF  002.33 277.2 m E Sn      2012/07/18 10:38:23.3  -0.2                          T                2.0  .19 Ml 2.3         5036062
MEZF  002.59 239.5 m E Pn      2012/07/18 10:38:00.2   0.0                          T                                        5036064
SFTF  002.77 234.4 m E Pn      2012/07/18 10:38:02.3  -0.3                          T                                        5029645

.
EVENT     279776
    Date      Time       Latitude Longitude    Depth    Ndef Nsta Gap    Mag1  N    Mag2  N    Mag3  N   Author         ID
       rms   OT_Error      Smajor Sminor Az        Err   mdist  Mdist     Err        Err        Err      Quality

2012/07/18 13:38:13.8     41.9530    9.6569      5.0 f    13    5 340  Ml 2.3  3  Md 2.1  1              bulletin    279876
                                                                                                         _ldg
      0.99   +-  0.42       9.2    6.8   61.67 +-  0.0    0.77   4.04   +-0.1      +-                    m i ke

CORSICA, FRANCE
Sta     Dist  EvAz     Phase      Date       Time     TRes  Azim  AzRes  Slow  SRes Def   SNR       Amp   Per   Mag1   Mag2       ID
PGF   000.77 320.8 m E Pg      2012/07/18 13:38:28.6   0.1                          T                                        5030388
PGF   000.77 320.8 m E Sg      2012/07/18 13:38:38.0  -0.5                          T                                        5030392
PGF   000.77 320.8 m E Sn      2012/07/18 13:38:41.3   0.1                          T               13.4  .30        Md 2.1  5030393
SBF   002.51 320.2 m E Pn      2012/07/18 13:38:53.0  -0.5                          T                                        5030400
SBF   002.51 320.2 m E Sn      2012/07/18 13:39:22.9   0.2                          T                2.9  .26 Ml 2.4         5030396
LMR   002.70 301.8 m E Pn      2012/07/18 13:38:55.5  -0.5                          T                                        5030399
LMR   002.70 301.8 m E Sn      2012/07/18 13:39:27.6   0.4                          T                1.1  .21 Ml 2.1         5030395
FRF   002.74 306.9 m E Pn      2012/07/18 13:38:57.0   0.4                          T                                        5030398
FRF   002.74 306.9 m E Sn      2012/07/18 13:39:28.2   0.1                          T                2.2  .29 Ml 2.3         5030394
ORIF  004.04 318.4 m E Pn      2012/07/18 13:39:14.7   0.3                          T                                        5030397

.
EVENT     279756
    Date      Time       Latitude Longitude    Depth    Ndef Nsta Gap    Mag1  N    Mag2  N    Mag3  N   Author         ID
       rms   OT_Error      Smajor Sminor Az        Err   mdist  Mdist     Err        Err        Err      Quality

2012/07/18 22:16:53.3     45.6017    6.8744      3.0 f    24    5 109  Ml 1.5  3  Md 1.5  3              bulletin    279856
                                                                                                         _ldg
      0.22   +-  0.05       1.2     .7  115.57 +-  0.0    0.12   1.78   +-0.1      +-0.3                 m i ke

FRANCE
Sta     Dist  EvAz     Phase      Date       Time     TRes  Azim  AzRes  Slow  SRes Def   SNR       Amp   Per   Mag1   Mag2       ID
LPL   000.13 229.5 m E Pg      2012/07/18 22:16:56.5   0.1                          T                                        5029799
LPL   000.13 229.5 m E Sg      2012/07/18 22:16:58.3  -0.1                          T               13.7  .28        Md 1.5  5029795
LPG   000.14 219.8 m E Pg      2012/07/18 22:16:56.6   0.0                          T                                        5029798
LPG   000.14 219.8 m E Sg      2012/07/18 22:16:58.5  -0.1                          T               30.2  .20        Md 1.2  5029796
MBDF  000.88 184.8 m E Pg      2012/07/18 22:17:10.0   0.0                          T                                        5029797
MBDF  000.88 184.8 m E Sg      2012/07/18 22:17:21.3  -0.1                          T                1.4  .21 Ml 1.6 Md 1.8  5029802
ORIF  000.98 226.1 m E Pg      2012/07/18 22:17:11.3  -0.4                          T                                        5029801
ORIF  000.98 226.1 m E Sg      2012/07/18 22:17:24.4  -0.1                          T                1.3  .27 Ml 1.5         5029800
ORIF  000.98 226.1 m E Sn      2012/07/18 22:17:25.7  -0.3                          T                                        5029803
SBF   001.78 166.9 m E Pn      2012/07/18 22:17:23.5   0.2                          T                                        5036080

.
EVENT     279757
    Date      Time       Latitude Longitude    Depth    Ndef Nsta Gap    Mag1  N    Mag2  N    Mag3  N   Author         ID
       rms   OT_Error      Smajor Sminor Az        Err   mdist  Mdist     Err        Err        Err      Quality

2012/07/19 00:20:13.4     44.5141    6.7249      2.0      39    9 052  Ml 1.7  5  Md 1.9  4              bulletin    279857
                                                                                                         _ldg
      0.27   +-  0.04        .8     .6   62.76 +-  0.0    0.07   1.50   +-0.1      +-0.1                 m i ke

FRANCE
Sta     Dist  EvAz     Phase      Date       Time     TRes  Azim  AzRes  Slow  SRes Def   SNR       Amp   Per   Mag1   Mag2       ID
MBDF  000.22 008.9 m E Pg      2012/07/19 00:20:17.6  -0.3                          T                                        5029829
MBDF  000.22 008.9 m E Sg      2012/07/19 00:20:21.0   0.1                          T                4.2  .18        Md 1.9  5029840
ORIF  000.73 304.2 m E Pg      2012/07/19 00:20:26.2  -1.0                          T                                        5029828
ORIF  000.73 304.2 m E Sg      2012/07/19 00:20:36.5  -0.2                          T                1.7  .26        Md 1.8  5029839
SBF   000.83 141.6 m E Pg      2012/07/19 00:20:29.1   0.0                          T                                        5029824
SBF   000.83 141.6 m E Sg      2012/07/19 00:20:40.1   0.3                          T                2.9  .31        Md 1.8  5029835
FRF   000.95 183.4 m E Pg      2012/07/19 00:20:31.3   0.0                          T                                        5029826
FRF   000.95 183.4 m E Sg      2012/07/19 00:20:43.7   0.0                          T                1.9  .20 Ml 1.8         5029842
SMRF  000.99 237.3 m E Pg      2012/07/19 00:20:32.1   0.2                          T                                        5029827
SMRF  000.99 237.3 m E Sg      2012/07/19 00:20:44.9   0.1                          T                1.5  .22 Ml 1.6         5029838
LPG   000.98 001.1 m E Pg      2012/07/19 00:20:32.2   0.0                          T                                        5029837
LPG   000.98 001.1 m E Sg      2012/07/19 00:20:45.5   0.5                          T                1.9  .24 Ml 1.7         5029833
LPL   001.00 000.3 m E Pg      2012/07/19 00:20:32.4  -0.1                          T                                        5029836
LPL   001.00 000.3 m E Sg      2012/07/19 00:20:45.2  -0.3                          T                                        5029832
LMR   001.19 187.6 m E Pn      2012/07/19 00:20:35.6   0.2                          T                                        5029825
LMR   001.19 187.6 m E Sg      2012/07/19 00:20:51.3   0.3                          T                1.3  .20 Ml 1.7         5029834
VIVF  001.50 283.9 m E Pn      2012/07/19 00:20:39.9   0.1                          T                                        5029831
VIVF  001.50 283.9 m E Pg      2012/07/19 00:20:41.5   0.0                          T                                        5036081
VIVF  001.50 283.9 m E Sn      2012/07/19 00:20:58.9   0.2                          T                                        5029830
VIVF  001.50 283.9 m E Sg      2012/07/19 00:21:01.0   0.1                          T                 .8  .21 Ml 1.6         5029841

.
EVENT     279758
    Date      Time       Latitude Longitude    Depth    Ndef Nsta Gap    Mag1  N    Mag2  N    Mag3  N   Author         ID
       rms   OT_Error      Smajor Sminor Az        Err   mdist  Mdist     Err        Err        Err      Quality

2012/07/19 00:28:25.3     44.5293    7.2487     10.0      35   10 104  Ml 1.4  8  Md 1.6  1              bulletin    279858
                                                                                                         _ldg
      0.30   +-  0.05       1.3     .8   65.12 +-  0.0    0.11   2.35   +-0.2      +-                    m i ke

NORTHERN ITALY
Sta     Dist  EvAz     Phase      Date       Time     TRes  Azim  AzRes  Slow  SRes Def   SNR       Amp   Per   Mag1   Mag2       ID
MBDF  000.39 300.3 m E Pg      2012/07/19 00:28:33.2  -0.1                          T                                        5029851
MBDF  000.39 300.3 m E Sg      2012/07/19 00:28:38.5  -0.1                          T                5.3  .19        Md 1.6  5029850
SBF   000.68 168.5 m E Pg      2012/07/19 00:28:38.0  -0.3                          T                                        5029852
SBF   000.68 168.5 m E Sg      2012/07/19 00:28:47.2  -0.1                          T                 .6  .18                5029853
LPG   001.03 340.2 m E Pn      2012/07/19 00:28:44.5  -0.1                          T                                        5036090
LPG   001.03 340.2 m E Sn      2012/07/19 00:28:58.3   0.1                          T                  1  .19 Ml 1.5         5036089
ORIF  001.05 292.2 m E Pn      2012/07/19 00:28:44.8   0.2                          T                                        5029849
ORIF  001.05 292.2 m E Sn      2012/07/19 00:28:58.3  -0.2                          T                 .9  .28 Ml 1.3         5029844
LPL   001.05 339.8 m E Pn      2012/07/19 00:28:44.8   0.0                          T                                        5036088
LPL   001.05 339.8 m E Sn      2012/07/19 00:28:58.6   0.0                          T                 .6  .30 Ml 1.2         5036087
FRF   001.06 204.4 m E Pn      2012/07/19 00:28:45.2   0.5                          T                                        5029848
FRF   001.06 204.4 m E Sn      2012/07/19 00:28:58.7   0.2                          T                  1  .18 Ml 1.6         5029847
LMR   001.31 204.3 m E Pg      2012/07/19 00:28:50.0   0.2                          T                                        5029845
LMR   001.31 204.3 m E Sn      2012/07/19 00:29:04.8   0.4                          T                                        5029846
LMR   001.31 204.3 m E Sg      2012/07/19 00:29:06.1  -0.6                          T                1.4  .21 Ml 1.8         5029843
SMRF  001.32 245.9 m E Pg      2012/07/19 00:28:50.5   0.4                          T                                        5036092
SMRF  001.32 245.9 m E Sg      2012/07/19 00:29:07.2  -0.1                          T                 .4  .24 Ml 1.2         5036091
VIVF  001.87 281.0 m E Pn      2012/07/19 00:28:55.6   0.0                          T                                        5036086
VIVF  001.87 281.0 m E Sn      2012/07/19 00:29:17.8   0.0                          T                 .2  .18 Ml 1.3         5036085
PGF   002.35 146.7 m E Pn      2012/07/19 00:29:02.4   0.0                          T                                        5036084

.
EVENT     279759
    Date      Time       Latitude Longitude    Depth    Ndef Nsta Gap    Mag1  N    Mag2  N    Mag3  N   Author         ID
       rms   OT_Error      Smajor Sminor Az        Err   mdist  Mdist     Err        Err        Err      Quality

2012/07/19 01:37:01.6     48.1925   -3.2507      7.0 f    12    5 185  Ml 1.9  2  Md 1.6  4              bulletin    279859
                                                                                                         _ldg
      0.60   +-  0.14       2.5    1.7    3.14 +-  0.0    0.14   2.12   +-0.0      +-0.1                 m i ke

FRANCE
Sta     Dist  EvAz     Phase      Date       Time     TRes  Azim  AzRes  Slow  SRes Def   SNR       Amp   Per   Mag1   Mag2       ID
ROSF  000.14 354.0 m E Pg      2012/07/19 01:37:04.8  -0.1                          T                                        5029862
ROSF  000.14 354.0 m E Sg      2012/07/19 01:37:07.0  -0.1                          T                9.7  .16        Md 1.6  5029859
QUIF  000.28 168.3 m E Pg      2012/07/19 01:37:07.5   0.3                          T                                        5029861
QUIF  000.28 168.3 m E Sg      2012/07/19 01:37:11.5   0.3                          T               14.9  .26        Md 1.7  5029858
SGMF  000.47 082.2 m E Pg      2012/07/19 01:37:10.7   0.1                          T                                        5029860
SGMF  000.47 082.2 m E Sg      2012/07/19 01:37:17.0   0.1                          T                4.6  .24        Md 1.8  5029867
GRR   001.61 082.1 m E Pg      2012/07/19 01:37:31.1  -0.5                          T                                        5029863
GRR   001.61 082.1 m E Sn      2012/07/19 01:37:49.1   0.6                          T                                        5029866
GRR   001.61 082.1 m E Sg      2012/07/19 01:37:51.6  -0.8                          T                1.5  .18 Ml 1.9         5029865
LDF   002.12 077.9 m E Sg      2012/07/19 01:38:07.1  -1.3                          T                1.1  .24 Ml 1.8         5029864

.
