BEGIN GSE2.0
MSG_TYPE DATA
MSG_ID 25-FEB-1112:27:11  FRA_NDC
E-MAIL
DATA_TYPE BULLETIN
Reviewed Bulletin (REB) # P2011-007  from French NDC for regional phases     PERIOD 16 FEB 2011 TO 22 FEB 2011 C M., J-P S
EVENT     256051
    Date      Time       Latitude Longitude    Depth    Ndef Nsta Gap    Mag1  N    Mag2  N    Mag3  N   Author         ID
       rms   OT_Error      Smajor Sminor Az        Err   mdist  Mdist     Err        Err        Err      Quality

2011/02/16 07:23:18.1     46.2398   -3.8785      3.0 f    37   13 249  Ml 2.6 18                         js067245    256071

      0.28   +-  0.10       2.0     .9   65.38 +-  0.0    1.75   5.42   +-0.2                            m i ke

BAY OF BISCAY
Sta     Dist  EvAz     Phase      Date       Time     TRes  Azim  AzRes  Slow  SRes Def   SNR       Amp   Per   Mag1   Mag2       ID
QUIF  001.75 015.9 m E Pn      2011/02/16 07:23:47.3  -0.1                          T                                        4649665
QUIF  001.75 015.9 m E Sn      2011/02/16 07:24:09.0   0.0                          T                                        4649630
QUIF  001.75 015.9 m E Sg      2011/02/16 07:24:12.9  -0.1                          T                4.5  .15 Ml 2.6         4652990
ROSF  002.14 010.9 m E Pn      2011/02/16 07:23:53.0   0.2                          T                                        4649666
ROSF  002.14 010.9 m E Sn      2011/02/16 07:24:18.3   0.0                          T                                        4649628
ROSF  002.14 010.9 m E Sg      2011/02/16 07:24:25.3   0.0                          T                3.7  .26 Ml 2.4         4652992
SGMF  002.21 023.6 m E Pn      2011/02/16 07:23:53.7  -0.1                          T                                        4649664
SGMF  002.21 023.6 m E Sn      2011/02/16 07:24:19.5  -0.5                          T                                        4649629
SGMF  002.21 023.6 m E Sg      2011/02/16 07:24:27.2  -0.2                          T                3.9  .28 Ml 2.4         4652991
MFF   002.61 080.7 m E Pn      2011/02/16 07:23:59.1  -0.2                          T                                        4649634
MFF   002.61 080.7 m E Sn      2011/02/16 07:24:29.2  -0.3                          T                3.4  .28 Ml 2.6         4649633
GRR   002.97 042.6 m E Pn      2011/02/16 07:24:04.4   0.2                          T                                        4649655
GRR   002.97 042.6 m E Sn      2011/02/16 07:24:38.4   0.1                          T                2.9  .27 Ml 2.3         4649632
FLN   003.42 041.1 m E Pn      2011/02/16 07:24:10.2  -0.1 219.9  -3.8              T                                        4649653
FLN   003.42 041.1 m E Sn      2011/02/16 07:24:48.8   0.0                          T                4.8  .36 Ml 2.5         4649648
LDF   003.47 045.9 m E Pn      2011/02/16 07:24:11.0   0.0                          T                                        4649654
LDF   003.47 045.9 m E Sn      2011/02/16 07:24:50.3   0.1                          T                3.8  .27 Ml 2.7         4649649
LFF   003.49 110.2 m E Pn      2011/02/16 07:24:11.4   0.1                          T                                        4649651
LFF   003.49 110.2 m E Sn      2011/02/16 07:24:50.7   0.0                          T                7.0  .27 Ml 2.8         4649663
RJF   003.89 102.0 m E Pn      2011/02/16 07:24:16.9   0.2                          T                                        4649652
RJF   003.89 102.0 m E Sn      2011/02/16 07:25:00.3   0.1                          T                5.5  .31 Ml 2.5         4649631
TCF   004.22 087.2 m E Pn      2011/02/16 07:24:20.9  -0.4                          T                                        4649658
TCF   004.22 087.2 m E Sn      2011/02/16 07:25:08.3   0.1                          T                3.8  .39 Ml 2.7         4649659
CAF   004.37 105.3 m E Pn      2011/02/16 07:24:23.2  -0.2                          T                                        4649650
CAF   004.37 105.3 m E Sn      2011/02/16 07:25:11.7  -0.1                          T                 .9  .26 Ml 2.3         4649662
BGF   004.66 083.7 m E Pn      2011/02/16 07:24:27.3   0.0                          T                                        4649657
BGF   004.66 083.7 m E Sn      2011/02/16 07:25:19.0   0.3                          T                7.9  .54 Ml 3.0         4649660
LOR   005.42 076.3 m E Pn      2011/02/16 07:24:37.8   0.3                          T                                        4649646
LOR   005.42 076.3 m E Sn      2011/02/16 07:25:36.8   0.1                          T                2.0  .45 Ml 2.6         4649647

.
EVENT     256088
    Date      Time       Latitude Longitude    Depth    Ndef Nsta Gap    Mag1  N    Mag2  N    Mag3  N   Author         ID
       rms   OT_Error      Smajor Sminor Az        Err   mdist  Mdist     Err        Err        Err      Quality

2011/02/16 12:57:58.6     46.6153    2.1203      3.0 f    61   22 089  Ml 2.7 22  Md 2.7  3              js067245    256108

      0.58   +-  0.05       1.3     .9  142.40 +-  0.0    0.33   3.80   +-0.3      +-0.0                 m i ke

FRANCE
Sta     Dist  EvAz     Phase      Date       Time     TRes  Azim  AzRes  Slow  SRes Def   SNR       Amp   Per   Mag1   Mag2       ID
TCF   000.33 169.2 m E Pg      2011/02/16 12:58:04.6  -0.5                          T                                        4650349
TCF   000.33 169.2 m E Sg      2011/02/16 12:58:07.9  -1.7                          T               28.2  .20        Md 2.7  4650344
BGF   000.50 096.3 m E Pg      2011/02/16 12:58:08.0  -0.2                          T                                        4650352
BGF   000.50 096.3 m E Sg      2011/02/16 12:58:14.0  -0.9                          T               86.6  .32        Md 2.7  4650345
HYF   000.74 028.4 m E Pn      2011/02/16 12:58:14.4   0.0                          T                                        4652999
HYF   000.74 028.4 m E Sg      2011/02/16 12:58:20.6  -1.7                          T                                        4650394
HYF   000.74 028.4 m E Sn      2011/02/16 12:58:26.0   0.5                          T                                        4650393
AVF   000.87 077.9 m E Pg      2011/02/16 12:58:14.9   0.0                          T                                        4653001
AVF   000.87 077.9 m E P       2011/02/16 12:58:16.8   0.1                          T                                        4653002
AVF   000.87 077.9 m E Sg      2011/02/16 12:58:25.8  -0.3                          T               25.3  .22 Ml 2.8         4650343
AVF   000.87 077.9 m E Sn      2011/02/16 12:58:28.5   0.1                          T               13.7  .24 Ml 2.5         4650350
SSF   001.05 064.4 m E Pg      2011/02/16 12:58:18.6   0.3                          T                                        4653003
SSF   001.05 064.4 m E P       2011/02/16 12:58:20.1   0.0                          T                                        4650348
SSF   001.05 064.4 m E Sn      2011/02/16 12:58:32.9   0.0                          T               35.4  .28 Ml 3.0         4650384
SMF   001.19 087.9 m E Pn      2011/02/16 12:58:20.5   0.1                          T                                        4653000
SMF   001.19 087.9 m E P       2011/02/16 12:58:21.6  -0.4                          T                                        4650346
SMF   001.19 087.9 m E Sg      2011/02/16 12:58:35.5  -0.6                          T               15.4  .22 Ml 2.7         4650342
RJF   001.38 198.0 m E Pn      2011/02/16 12:58:23.2   0.2                          T                                        4650391
RJF   001.38 198.0 m E Pg      2011/02/16 12:58:24.6   0.3                          T                                        4652997
RJF   001.38 198.0 m E Sg      2011/02/16 12:58:41.7  -0.4                          T               30.6  .24 Ml 2.8         4650382
LOR   001.36 060.6 m E Pg      2011/02/16 12:58:24.0   0.0 239.8  -2.1              T                                        4653006
LOR   001.36 060.6 m E P       2011/02/16 12:58:24.6   0.1                          T                                        4650347
LOR   001.36 060.6 m E Sg      2011/02/16 12:58:41.7   0.2 228.6  -13.3             T               32.1  .26 Ml 3.1         4650385
MFF   001.56 270.3 m E Pn      2011/02/16 12:58:25.1  -0.4                          T                                        4650387
MFF   001.56 270.3 m E Pg      2011/02/16 12:58:27.9   0.2                          T                                        4650392
MFF   001.56 270.3 m E Sg      2011/02/16 12:58:49.0   1.2                          T               10.6  .26 Ml 2.9         4650383
CAF   001.69 181.3 m E Pn      2011/02/16 12:58:27.4   0.1                          T                                        4650386
CAF   001.69 181.3 m E Pg      2011/02/16 12:58:30.1   0.0                          T                                        4650390
CAF   001.69 181.3 m E Sn      2011/02/16 12:58:48.0  -0.2                          T                                        4653004
CAF   001.69 181.3 m E Sg      2011/02/16 12:58:51.5  -0.3                          T               17.3  .24 Ml 3.0         4650381
LFF   001.93 210.4 m E Pn      2011/02/16 12:58:30.5   0.0                          T                                        4650388
LFF   001.93 210.4 m E Pg      2011/02/16 12:58:34.3  -0.2                          T                                        4650389
LFF   001.93 210.4 m E Sg      2011/02/16 12:58:59.2  -0.3                          T               12.6  .42 Ml 2.5         4650374
VIVF  002.51 133.6 m E Pn      2011/02/16 12:58:38.4   0.0                          T                                        4650380
VIVF  002.51 133.6 m E Sn      2011/02/16 12:59:07.9   0.2                          T                4.0  .39 Ml 2.3         4650375
SFTF  002.54 050.2 m E Pn      2011/02/16 12:58:38.5  -0.3                          T                                        4650366
SFTF  002.54 050.2 m E Sn      2011/02/16 12:59:08.7   0.2                          T               10.7  .61 Ml 2.6         4650364
MEZF  002.74 045.4 m E Pn      2011/02/16 12:58:40.1  -1.4                          T                                        4650365
MEZF  002.74 045.4 m E Sn      2011/02/16 12:59:13.4   0.2                          T               16.6  .47 Ml 2.9         4650363
PAGF  003.12 050.2 m E Pn      2011/02/16 12:58:45.1  -1.6                          T                                        4650367
PAGF  003.12 050.2 m E Sn      2011/02/16 12:59:22.6   0.3                          T                1.6  .36 Ml 2.1         4650362
THEF  003.09 057.1 m E Pn      2011/02/16 12:58:46.1  -0.2                          T                                        4650368
THEF  003.09 057.1 m E Sn      2011/02/16 12:59:21.6   0.1                          T                2.7  .29 Ml 2.4         4650373
HAU   003.20 062.7 m E Pn      2011/02/16 12:58:47.8   0.0                          T                                        4650369
HAU   003.20 062.7 m E Sn      2011/02/16 12:59:24.2   0.1                          T                3.8  .21 Ml 2.5         4650372
MTLF  003.27 178.8 m E Pn      2011/02/16 12:58:48.8   0.0                          T                                        4650379
MTLF  003.27 178.8 m E Sn      2011/02/16 12:59:26.0  -0.1                          T               10.1  .64 Ml 2.7         4650376
CABF  002.73 088.6 m E Pg      2011/02/16 12:58:49.3  -0.1                          T                                        4650360
CABF  002.73 088.6 m E Sg      2011/02/16 12:59:24.5   0.0                          T                 .9  .19 Ml 2.0         4650361
HINF  003.44 067.8 m E Pn      2011/02/16 12:58:51.3   0.1                          T                                        4650370
HINF  003.44 067.8 m E Sn      2011/02/16 12:59:30.3   0.2                          T                5.6  .39 Ml 2.7         4650371
SGMF  003.57 299.0 m E P       2011/02/16 12:58:55.9  -0.2                          T                                        4653005
EPF   003.80 200.1 m E Pn      2011/02/16 12:58:56.1   0.0                          T                                        4650378
EPF   003.80 200.1 m E Sn      2011/02/16 12:59:38.6   0.0                          T                4.6  .20 Ml 3.0         4650377

.
EVENT     256089
    Date      Time       Latitude Longitude    Depth    Ndef Nsta Gap    Mag1  N    Mag2  N    Mag3  N   Author         ID
       rms   OT_Error      Smajor Sminor Az        Err   mdist  Mdist     Err        Err        Err      Quality

2011/02/16 13:52:40.8     43.0928   -1.0443      2.0      16    7 136  Ml 2.1  6  Md 2.1  3              js067245    256109

      0.18   +-  0.05       1.1     .8   19.71 +-  0.0    0.07   2.90   +-0.2      +-0.0                 m i ke

PYRENEES
Sta     Dist  EvAz     Phase      Date       Time     TRes  Azim  AzRes  Slow  SRes Def   SNR       Amp   Per   Mag1   Mag2       ID
SJPF  000.13 278.9 m E Pg      2011/02/16 13:52:43.7   0.0                          T                                        4650409
SJPF  000.13 278.9 m E Sg      2011/02/16 13:52:45.3  -0.4                          T               76.9  .22        Md 2.1  4650407
ETSF  000.41 118.4 m E Pg      2011/02/16 13:52:48.5  -0.2                          T                                        4650408
ETSF  000.41 118.4 m E Sg      2011/02/16 13:52:53.8  -0.3                          T               38.2  .26        Md 2.0  4650406
EPF   001.02 093.1 m E Pg      2011/02/16 13:52:59.8  -0.1                          T                                        4650404
EPF   001.02 093.1 m E Sg      2011/02/16 13:53:13.3   0.1                          T                4.5  .20 Ml 2.2 Md 2.0  4650405
LFF   002.25 034.3 m E Pn      2011/02/16 13:53:17.3   0.1                          T                                        4650403
LFF   002.25 034.3 m E Sg      2011/02/16 13:53:51.7   0.1                          T                5.1  .38 Ml 2.2         4650398
MTLF  002.40 082.9 m E Pn      2011/02/16 13:53:19.5   0.2                          T                                        4650400
MTLF  002.40 082.9 m E Sn      2011/02/16 13:53:47.2  -0.3                          T               10.9  .77 Ml 2.4         4650399
CAF   002.90 049.7 m E Pn      2011/02/16 13:53:26.0  -0.1                          T                                        4650401
CAF   002.90 049.7 m E Sg      2011/02/16 13:54:11.7  -0.1                          T                 .9  .24 Ml 2.0         4650396
RJF   002.88 038.9 m E Pn      2011/02/16 13:53:26.1   0.3                          T                                        4650402
RJF   002.88 038.9 m E Sg      2011/02/16 13:54:11.1  -0.1                          T                3.0  .33 Ml 2.0         4650397

.
EVENT     256130
    Date      Time       Latitude Longitude    Depth    Ndef Nsta Gap    Mag1  N    Mag2  N    Mag3  N   Author         ID
       rms   OT_Error      Smajor Sminor Az        Err   mdist  Mdist     Err        Err        Err      Quality

2011/02/16 15:25:24.6     47.9846    7.7613     13.3       8    4 070  Ml 1.5  2  Md 1.4  1              js067245    256150

      0.35   +-  0.09       2.0    1.4    4.00 +-  1.1    0.11   1.21   +-0.4      +-                    m i ke

SWITZERLAND
Sta     Dist  EvAz     Phase      Date       Time     TRes  Azim  AzRes  Slow  SRes Def   SNR       Amp   Per   Mag1   Mag2       ID
CDF   000.54 323.0 m E Pg      2011/02/16 15:25:35.4   0.2                          T                                        4653012
CDF   000.54 323.0 m E Sg      2011/02/16 15:25:41.6  -0.8                          T                1.9  .23        Md 1.4  4653013
HINF  000.63 255.0 m E Pg      2011/02/16 15:25:37.1   0.2                          T                                        4653010
HINF  000.63 255.0 m E Sg      2011/02/16 15:25:44.8  -0.5                          T                 .9  .20                4653011
HAU   000.95 271.8 m E Pg      2011/02/16 15:25:42.7   0.1                          T                                        4653008
HAU   000.95 271.8 m E Sg      2011/02/16 15:25:54.6  -0.4                          T                1.3  .25 Ml 1.3         4653009
THEF  001.21 282.3 m E Sg      2011/02/16 15:26:03.2   0.1                          T                1.6  .20 Ml 1.8         4653007

.
