EVENT     291234
    Date      Time       Latitude Longitude    Depth    Ndef Nsta Gap    Mag1  N    Mag2  N    Mag3  N   Author         ID
       rms   OT_Error      Smajor Sminor Az        Err   mdist  Mdist     Err        Err        Err      Quality

2013/01/30 22:00:37.2     42.9942    -.2582      2.0      53   13 075  Ml 2.2  9  Md 2.1  3              bulletin    291334
                                                                                                         _ldg
      0.33   +-  0.04        .9     .7    3.75 +-  0.0    0.23   4.74   +-0.2      +-0.0                 m i ke

PYRENEES
Sta     Dist  EvAz     Phase      Date       Time     TRes  Azim  AzRes  Slow  SRes Def   SNR       Amp   Per   Mag1   Mag2       ID
ETSF  000.24 246.7 m E Pg      2013/01/30 22:00:42.1   0.1                          T                                        5183592
ETSF  000.24 246.7 m E Sg      2013/01/30 22:00:45.1  -0.2                          T               43.5  .16        Md 2.1  5183591
EPF   000.44 085.1 m E Pg      2013/01/30 22:00:45.9   0.2                          T                                        5183590
EPF   000.44 085.1 m E Sg      2013/01/30 22:00:51.7   0.2                          T               19.2  .19        Md 2.0  5183589
SJPF  000.72 279.9 m E Pg      2013/01/30 22:00:51.0   0.2                          T                                        5183588
SJPF  000.72 279.9 m E Sg      2013/01/30 22:01:00.4   0.2                          T                6.9  .24        Md 2.1  5183587
MTLF  001.84 078.3 m E Pn      2013/01/30 22:01:07.9  -0.2                          T                                        5183608
MTLF  001.84 078.3 m E Pg      2013/01/30 22:01:11.8   0.3                          T                                        5183607
MTLF  001.84 078.3 m E Sn      2013/01/30 22:01:30.8   0.2                          T                                        5183606
MTLF  001.84 078.3 m E Sg      2013/01/30 22:01:35.3   0.0                          T                2.5  .22 Ml 2.2         5183605
LFF   002.07 020.0 m E Pn      2013/01/30 22:01:10.9  -0.3                          T                                        5183600
LFF   002.07 020.0 m E Pg      2013/01/30 22:01:15.6  -0.1                          T                                        5183599
LFF   002.07 020.0 m E Sn      2013/01/30 22:01:36.0  -0.1                          T                                        5183598
LFF   002.07 020.0 m E Sg      2013/01/30 22:01:42.7   0.3                          T                7.8  .29 Ml 2.5         5183597
CAF   002.56 040.2 m E Pn      2013/01/30 22:01:17.8  -0.1                          T                                        5183604
CAF   002.56 040.2 m E Pg      2013/01/30 22:01:24.8   0.1                          T                                        5183603
CAF   002.56 040.2 m E Sn      2013/01/30 22:01:48.4   0.7                          T                                        5183602
CAF   002.56 040.2 m E Sg      2013/01/30 22:01:57.8   0.3                          T                 .7  .19 Ml 1.9         5183601
RJF   002.64 028.3 m E Pn      2013/01/30 22:01:18.8  -0.1                          T                                        5183596
RJF   002.64 028.3 m E Pg      2013/01/30 22:01:26.5   0.3                          T                                        5183595
RJF   002.64 028.3 m E Sn      2013/01/30 22:01:50.0   0.3                          T                                        5183594
RJF   002.64 028.3 m E Sg      2013/01/30 22:01:59.6  -0.5                          T                1.2  .15 Ml 1.9         5183593
LASF  003.18 068.7 m E Pn      2013/01/30 22:01:26.3   0.0                          T                                        5183620
LASF  003.18 068.7 m E Pg      2013/01/30 22:01:36.1   0.0                          T                                        5183619
LASF  003.18 068.7 m E Sg      2013/01/30 22:02:17.4   0.4                          T                 .6  .19 Ml 2.0         5183618
MFF   003.61 001.2 m E Pn      2013/01/30 22:01:32.3   0.2                          T                                        5183615
MFF   003.61 001.2 m E Pg      2013/01/30 22:01:43.7  -0.3                          T                                        5183614
MFF   003.61 001.2 m E Sn      2013/01/30 22:02:13.2   0.4                          T                                        5183613
MFF   003.61 001.2 m E Sg      2013/01/30 22:02:30.0  -0.3                          T                1.0  .25 Ml 2.4         5183612
BGF   004.19 030.7 m E Pn      2013/01/30 22:01:39.8  -0.3                          T                                        5183617
BGF   004.19 030.7 m E Sg      2013/01/30 22:02:49.5   0.9                          T                  1  .23 Ml 2.3         5183616
AVF   004.58 032.8 m E Pn      2013/01/30 22:01:45.2  -0.2                          T                                        5183611
SMF   004.67 037.2 m E Pn      2013/01/30 22:01:47.0   0.4                          T                                        5183610
HYF   004.74 024.6 m E Pn      2013/01/30 22:01:47.1  -0.4                          T                                        5183609

.
EVENT     291236
    Date      Time       Latitude Longitude    Depth    Ndef Nsta Gap    Mag1  N    Mag2  N    Mag3  N   Author         ID
       rms   OT_Error      Smajor Sminor Az        Err   mdist  Mdist     Err        Err        Err      Quality

2013/01/30 23:36:45.8     42.7342    2.0442     13.0 f    43    7 067  Ml 1.5  6  Md 1.8  1              bulletin    291336
                                                                                                         _ldg
      0.29   +-  0.04        .8     .7   68.18 +-  0.0    0.18   2.43   +-0.2      +-                    m i ke

PYRENEES
Sta     Dist  EvAz     Phase      Date       Time     TRes  Azim  AzRes  Slow  SRes Def   SNR       Amp   Per   Mag1   Mag2       ID
MTLF  000.62 011.8 m E Pg      2013/01/30 23:36:57.6  -0.1                          T                                        5195340
MTLF  000.62 011.8 m E P       2013/01/30 23:36:58.9   0.0                          T                                        5195341
MTLF  000.62 011.8 m E Sg      2013/01/30 23:37:05.9  -0.1                          T                                        5183790
MTLF  000.62 011.8 m E Sn      2013/01/30 23:37:08.1   0.1                          T                3.3  .17        Md 1.8  5183789
EPF   001.29 283.9 m E Pn      2013/01/30 23:37:08.0   0.0                          T                                        5183805
EPF   001.29 283.9 m E Pg      2013/01/30 23:37:10.3   0.4                          T                                        5195342
EPF   001.29 283.9 m E Sg      2013/01/30 23:37:26.8   0.1                          T                 .7  .19 Ml 1.5         5183804
LASF  001.88 043.9 m E Pn      2013/01/30 23:37:16.2   0.2                          T                                        5183807
LASF  001.88 043.9 m E Pg      2013/01/30 23:37:21.1   0.2                          T                                        5183806
LASF  001.88 043.9 m E Sg      2013/01/30 23:37:44.4  -0.8                          T                 .7  .21 Ml 1.7         5183808
ETSF  001.92 275.8 m E Pn      2013/01/30 23:37:16.3  -0.3                          T                                        5183803
ETSF  001.92 275.8 m E Pg      2013/01/30 23:37:21.3  -0.4                          T                                        5183802
ETSF  001.92 275.8 m E Sn      2013/01/30 23:37:39.2   0.0                          T                                        5183801
ETSF  001.92 275.8 m E Sg      2013/01/30 23:37:46.5   0.0                          T                 .3  .17 Ml 1.4         5183800
CAF   002.19 000.4 m E Pn      2013/01/30 23:37:20.3   0.1                          T                                        5183799
CAF   002.19 000.4 m E Pg      2013/01/30 23:37:26.4  -0.1                          T                                        5183798
CAF   002.19 000.4 m E Sn      2013/01/30 23:37:45.5   0.0                          T                                        5183797
CAF   002.19 000.4 m E Sg      2013/01/30 23:37:54.4  -0.4                          T                 .4  .19 Ml 1.6         5183796
LFF   002.40 337.3 m E Pn      2013/01/30 23:37:22.9   0.0                          T                                        5183795
LFF   002.40 337.3 m E Pg      2013/01/30 23:37:30.3   0.0                          T                                        5183794
LFF   002.40 337.3 m E Sg      2013/01/30 23:38:01.2   0.0                          T                1.5  .28 Ml 1.8         5183793
SJPF  002.43 280.1 m E Sn      2013/01/30 23:37:51.5   0.2                          T                 .1  .17 Ml 1.1         5183791

.
EVENT     291235
    Date      Time       Latitude Longitude    Depth    Ndef Nsta Gap    Mag1  N    Mag2  N    Mag3  N   Author         ID
       rms   OT_Error      Smajor Sminor Az        Err   mdist  Mdist     Err        Err        Err      Quality

2013/01/30 23:42:01.4     44.1718   10.4930     13.0 f   120   33 066  Ml 3.2 32  Md 3.3  2              bulletin    291335
                                                                                                         _ldg
      0.92   +-  0.11       2.6    2.4   30.26 +-  0.0    0.07   8.57   +-0.4      +-0.0                 m i ke

NORTHERN ITALY
Sta     Dist  EvAz     Phase      Date       Time     TRes  Azim  AzRes  Slow  SRes Def   SNR       Amp   Per   Mag1   Mag2       ID
PGF   001.95 214.4 m E Pn      2013/01/30 23:42:32.8   0.2                          T   001.0                                5183659
PGF   001.95 214.4 m E Pg      2013/01/30 23:42:38.1   0.2                          T                                        5193025
PGF   001.95 214.4 m E Sn      2013/01/30 23:42:56.0   0.4                          T   001.0       57.4  .32 Ml 3.7 Md 3.3  5183660
SBF   002.23 263.1 m E Pn      2013/01/30 23:42:36.8   0.5                          T   001.0                                5183661
SBF   002.23 263.1 m E Sn      2013/01/30 23:43:02.3   0.3                          T   001.0      112.6  .48 Ml 3.6 Md 3.3  5183662
MBDF  002.72 283.1 m E Pn      2013/01/30 23:42:43.3   0.1                          T   001.0                                5183632
MBDF  002.72 283.1 m E Sn      2013/01/30 23:43:14.5   0.5                          T                                        5183764
MBDF  002.72 283.1 m E Sg      2013/01/30 23:43:27.2   0.1                          T               54.1  .50 Ml 3.4         5183763
FRF   002.85 258.9 m E Pn      2013/01/30 23:42:45.2   0.5                          T   001.0                                5183648
FRF   002.85 258.9 m E Pg      2013/01/30 23:42:54.4   0.2                          T                                        5193024
FRF   002.85 258.9 m E Sn      2013/01/30 23:43:16.8   0.0                          T   001.0       13.6  .25 Ml 3.2         5183649
FRF   002.85 258.9 m E Sg      2013/01/30 23:43:31.2   0.4                          T                                        5193023
LPG   002.97 297.8 m E Pn      2013/01/30 23:42:46.7   0.0                          T   001.0                                5183657
LPG   002.97 297.8 m E P       2013/01/30 23:42:49.6  -0.2                          T                                        5193020
LPG   002.97 297.8 m E Sn      2013/01/30 23:43:20.3   0.2                          T                                        5183767
LPG   002.97 297.8 m E Sg      2013/01/30 23:43:35.4   0.2                          T               15.0  .38 Ml 3.0         5183766
LPL   002.99 298.0 m E Pn      2013/01/30 23:42:47.1   0.1                          T   001.0                                5183658
LPL   002.99 298.0 m E P       2013/01/30 23:42:50.0   0.0                          T                                        5193021
LPL   002.99 298.0 m E Sn      2013/01/30 23:43:21.1   0.5                          T               19.5  .41 Ml 3.1         5183765
LMR   003.01 255.2 m E Pn      2013/01/30 23:42:47.1   0.3                          T   001.0                                5183653
LMR   003.01 255.2 m E Sn      2013/01/30 23:43:20.8   0.3                          T   001.0       11.7  .25 Ml 3.1         5183654
LMR   003.01 255.2 m E Sg      2013/01/30 23:43:36.2   0.5                          T                                        5193022
ORIF  003.38 284.4 m E P       2013/01/30 23:42:55.2  -0.2                          T   001.0                                5183635
ORIF  003.38 284.4 m E Sn      2013/01/30 23:43:30.1   0.5                          T   001.0       26.2  .50 Ml 3.2         5183636
SMRF  003.55 268.5 m E P       2013/01/30 23:42:56.4  -1.2                          T   001.0                                5183640
SMRF  003.55 268.5 m E Sn      2013/01/30 23:43:33.7   0.1                          T   001.0       14.9  .32 Ml 3.2         5183641
VIVF  004.22 281.4 m E Pn      2013/01/30 23:43:03.4   0.0                          T   001.0                                5183638
VIVF  004.22 281.4 m E Pg      2013/01/30 23:43:19.6   0.1                          T                                        5193019
VIVF  004.22 281.4 m E Sn      2013/01/30 23:43:50.3   0.7                          T   001.0        2.5  .27 Ml 2.7         5183639
CABF  003.95 309.7 m E P       2013/01/30 23:43:03.6   0.3                          T   001.0                                5183629
CABF  003.95 309.7 m E Sn      2013/01/30 23:43:43.0  -0.2                          T   001.0      110.1 1.37 Ml 3.5         5183630
HINF  004.44 326.5 m E P       2013/01/30 23:43:08.9  -1.4                          T   001.0                                5183631
HINF  004.44 326.5 m E Sn      2013/01/30 23:43:55.1   0.2                          T               40.8  .45 Ml 3.7         5183752
LASF  004.78 271.2 m E Pn      2013/01/30 23:43:12.3   1.3                          T   001.0                                5183652
LASF  004.78 271.2 m E Sn      2013/01/30 23:44:03.5   0.5                          T                6.9  .51 Ml 3.0         5183762
CDF   004.79 333.4 m E P       2013/01/30 23:43:13.4  -1.9                          T   001.0                                5183647
CDF   004.79 333.4 m E Sn      2013/01/30 23:44:04.2   0.9                          T               10.8  .29 Ml 3.5         5183746
HAU   004.80 324.5 m E P       2013/01/30 23:43:13.8  -1.5                          T   001.0                                5183650
HAU   004.80 324.5 m E Sn      2013/01/30 23:44:03.3  -0.1                          T   001.0       50.9  .32 Ml 3.8         5183651
LANF  005.15 339.9 m E P       2013/01/30 23:43:17.8  -2.6                          T                                        5184601
LANF  005.15 339.9 m E S       2013/01/30 23:44:16.0  -4.7                          T                                        5184600
THEF  005.12 324.0 m E P       2013/01/30 23:43:18.6  -1.3                          T                                        5184602
SMF   005.30 300.2 m E P       2013/01/30 23:43:21.5  -0.9                          T   001.0                                5183663
SMF   005.30 300.2 m E Sn      2013/01/30 23:44:15.5   0.1                          T   001.0       15.3  .46 Ml 3.5         5183664
SFTF  005.53 318.7 m E P       2013/01/30 23:43:24.2  -1.5 138.7  3.9               T                                        5183751
SFTF  005.53 318.7 m E Sn      2013/01/30 23:44:21.2   0.2                          T               10.1  .40 Ml 3.4         5183750
PAGF  005.49 324.7 m E P       2013/01/30 23:43:24.3  -0.7 144.4  3.2               T                                        5183748
PAGF  005.49 324.7 m E Sn      2013/01/30 23:44:19.6  -0.2                          T                3.9  .21 Ml 3.3         5183747
LOR   005.58 306.0 m E P       2013/01/30 23:43:24.9  -1.5 125.7  4.4               T   001.0                                5183655
LOR   005.58 306.0 m E Sn      2013/01/30 23:44:22.1  -0.1                          T   001.0       10.6  .37 Ml 3.5         5183656
SSF   005.69 303.0 m E P       2013/01/30 23:43:26.5  -1.4                          T   001.0                                5183665
SSF   005.69 303.0 m E Sn      2013/01/30 23:44:24.8   0.1                          T   001.0        8.0  .43 Ml 3.4         5183666
AVF   005.66 300.0 m E P       2013/01/30 23:43:26.7  -0.8                          T   001.0                                5183643
AVF   005.66 300.0 m E Sn      2013/01/30 23:44:24.3   0.3                          T   001.0        6.1  .52 Ml 3.1         5183644
MEZF  005.74 320.9 m E P       2013/01/30 23:43:27.4  -1.1 140.1  3.1               T   001.0                                5183633
MEZF  005.74 320.9 m E Sn      2013/01/30 23:44:26.0   0.1                          T                5.2  .33 Ml 3.2         5183749
MTLF  006.05 265.0 m E Pn      2013/01/30 23:43:28.7   0.4                          T   001.0                                5183634
MTLF  006.05 265.0 m E Sn      2013/01/30 23:44:33.9   0.6                          T                  1  .26 Ml 2.7         5183761
BGF   005.89 296.6 m E P       2013/01/30 23:43:30.0  -0.7                          T   001.0                                5183645
BGF   005.89 296.6 m E Sn      2013/01/30 23:44:29.9   0.4                          T                5.7  .28 Ml 3.4         5183756
CAF   006.07 280.1 m E P       2013/01/30 23:43:31.1  -2.1                          T   001.0                                5183646
TCF   006.22 292.8 m E P       2013/01/30 23:43:35.0  -0.4                          T   001.0                                5183628
TCF   006.22 292.8 m E Sn      2013/01/30 23:44:37.7   0.2                          T                 .8  .20 Ml 2.8         5183753
EPF   007.46 264.7 m E Pn      2013/01/30 23:43:47.8   0.3                          T                                        5183760
EPF   007.46 264.7 m E Sn      2013/01/30 23:45:07.8   0.7                          T                 .5  .31 Ml 2.5         5183759
BAIF  007.28 326.2 m E Pn      2013/01/30 23:43:48.7   3.6                          T                                        5183745
ETSF  008.13 264.8 m E Pn      2013/01/30 23:43:57.0   0.2                          T                                        5183758
ETSF  008.13 264.8 m E Sn      2013/01/30 23:45:26.6   3.5                          T                 .1  .15 Ml 2.3         5183757
HYF   006.31 302.1 m E Sn      2013/01/30 23:44:39.7   0.2                          T                                        5183754
LDF   008.57 304.8 m E Sn      2013/01/30 23:45:37.6   4.2                          T                 .4  .24 Ml 2.6         5183775

.
