EVENT     291568
    Date      Time       Latitude Longitude    Depth    Ndef Nsta Gap    Mag1  N    Mag2  N    Mag3  N   Author         ID
       rms   OT_Error      Smajor Sminor Az        Err   mdist  Mdist     Err        Err        Err      Quality

2013/02/06 01:56:53.3     48.3654   -1.9459      2.0      19    6 158  Ml 2.1  7  Md 1.8  2              bulletin    291668
                                                                                                         _ldg
      0.35   +-  0.08       2.1    1.1  178.01 +-  0.0    0.73   2.15   +-0.1      +-0.2                 m i ke

FRANCE
Sta     Dist  EvAz     Phase      Date       Time     TRes  Azim  AzRes  Slow  SRes Def   SNR       Amp   Per   Mag1   Mag2       ID
GRR   000.73 087.8 m E Pg      2013/02/06 01:57:07.1   0.1                          T                                        5189623
GRR   000.73 087.8 m E Sg      2013/02/06 01:57:15.9  -0.5                          T                7.3  .15        Md 1.9  5189622
ROSF  000.89 268.6 m E Pg      2013/02/06 01:57:10.3   0.4                          T                                        5189624
ROSF  000.89 268.6 m E Sg      2013/02/06 01:57:20.9  -0.6                          T                5.1  .21 Ml 2.2 Md 1.6  5189618
QUIF  000.93 241.7 m E Pg      2013/02/06 01:57:10.7   0.0                          T                                        5189625
QUIF  000.93 241.7 m E Sg      2013/02/06 01:57:22.4  -0.5                          T                5.0  .22 Ml 2.1         5189617
FLN   001.05 067.2 m E Pg      2013/02/06 01:57:12.8  -0.2 249.4  1.1               T                                        5189621
FLN   001.05 067.2 m E Sg      2013/02/06 01:57:26.3  -0.3                          T                3.5  .18 Ml 2.0         5189620
LDF   001.23 078.7 m E Pg      2013/02/06 01:57:16.5   0.1                          T                                        5189626
LDF   001.23 078.7 m E Sg      2013/02/06 01:57:32.1  -0.3                          T                4.5  .20 Ml 2.2         5189619
MFF   002.15 144.6 m E Pn      2013/02/06 01:57:28.4   0.1                          T                                        5189630
MFF   002.15 144.6 m E Pg      2013/02/06 01:57:33.4   0.3                          T                                        5189629
MFF   002.15 144.6 m E Sn      2013/02/06 01:57:53.5  -0.4                          T                                        5189628
MFF   002.15 144.6 m E Sg      2013/02/06 01:58:00.0  -0.7                          T                 .7  .23 Ml 1.9         5189627

.
EVENT     291567
    Date      Time       Latitude Longitude    Depth    Ndef Nsta Gap    Mag1  N    Mag2  N    Mag3  N   Author         ID
       rms   OT_Error      Smajor Sminor Az        Err   mdist  Mdist     Err        Err        Err      Quality

2013/02/06 02:58:51.5     44.6838    6.8030      5.0 f    30    7 067  Ml 1.8  2  Md 1.8  5              bulletin    291667
                                                                                                         _ldg
      0.27   +-  0.04       1.1     .7   57.47 +-  0.0    0.05   1.37   +-0.1      +-0.1                 m i ke

FRANCE
Sta     Dist  EvAz     Phase      Date       Time     TRes  Azim  AzRes  Slow  SRes Def   SNR       Amp   Per   Mag1   Mag2       ID
MBDF  000.05 332.4 m E Pg      2013/02/06 02:58:53.1  -0.3                          T                                        5189378
MBDF  000.05 332.4 m E Sg      2013/02/06 02:58:54.9   0.4                          T                                Md 1.9  5189377
ORIF  000.70 290.0 m E Pg      2013/02/06 02:59:04.7  -0.1                          T                                        5189376
ORIF  000.70 290.0 m E Sg      2013/02/06 02:59:13.2  -0.8                          T                                Md 1.7  5189375
LPL   000.83 356.6 m E Pg      2013/02/06 02:59:07.7   0.2                          T                                        5189374
LPL   000.83 356.6 m E Sg      2013/02/06 02:59:18.3  -0.1                          T                                Md 1.8  5189385
LPG   000.81 357.4 m E Pg      2013/02/06 02:59:07.8   0.6                          T                                        5189373
LPG   000.81 357.4 m E Sg      2013/02/06 02:59:18.0   0.2                          T                                Md 1.7  5189372
SBF   000.94 150.8 m E Pg      2013/02/06 02:59:09.5   0.3                          T                                        5189380
SBF   000.94 150.8 m E Sg      2013/02/06 02:59:21.8   0.4                          T                                Md 2.0  5189379
SMRF  001.13 231.7 m E Pg      2013/02/06 02:59:12.6  -0.1                          T                                        5189384
SMRF  001.13 231.7 m E Sg      2013/02/06 02:59:27.2  -0.2                          T                1.5  .21 Ml 1.7         5189383
LMR   001.37 189.0 m E Pg      2013/02/06 02:59:17.4   0.4                          T                                        5189382
LMR   001.37 189.0 m E Sn      2013/02/06 02:59:33.7   0.7                          T                1.1  .16 Ml 1.8         5189381

.
EVENT     291569
    Date      Time       Latitude Longitude    Depth    Ndef Nsta Gap    Mag1  N    Mag2  N    Mag3  N   Author         ID
       rms   OT_Error      Smajor Sminor Az        Err   mdist  Mdist     Err        Err        Err      Quality

2013/02/06 04:58:26.0     43.1297   -1.0296     16.0 f    18    4 159  Ml 1.4  3  Md 1.5  2              bulletin    291669
                                                                                                         _ldg
      0.26   +-  0.07       2.3    1.0  178.77 +-  0.0    0.14   2.38   +-0.4      +-0.1                 m i ke

PYRENEES
Sta     Dist  EvAz     Phase      Date       Time     TRes  Azim  AzRes  Slow  SRes Def   SNR       Amp   Per   Mag1   Mag2       ID
SJPF  000.14 263.5 m E Pg      2013/02/06 04:58:30.2   0.1                          T                                        5189609
SJPF  000.14 263.5 m E Sg      2013/02/06 04:58:33.5   0.6                          T                4.3  .16        Md 1.4  5189608
ETSF  000.42 123.6 m E Pg      2013/02/06 04:58:34.2  -0.4                          T                                        5189607
ETSF  000.42 123.6 m E Sg      2013/02/06 04:58:40.1  -0.2                          T                3.1  .18        Md 1.5  5189606
EPF   001.01 095.2 m E Pn      2013/02/06 04:58:44.0  -0.1                          T                                        5189612
EPF   001.01 095.2 m E Pg      2013/02/06 04:58:45.1  -0.1                          T                                        5189611
EPF   001.01 095.2 m E Sg      2013/02/06 04:58:58.3  -0.1                          T                 .2  .19 Ml  .9         5189610
MTLF  002.38 083.8 m E Pn      2013/02/06 04:59:03.1   0.4                          T                                        5189614
MTLF  002.38 083.8 m E Sg      2013/02/06 04:59:41.1   0.1                          T                 .4  .20 Ml 1.6         5189613

.
EVENT     291591
    Date      Time       Latitude Longitude    Depth    Ndef Nsta Gap    Mag1  N    Mag2  N    Mag3  N   Author         ID
       rms   OT_Error      Smajor Sminor Az        Err   mdist  Mdist     Err        Err        Err      Quality

2013/02/06 10:24:06.5     44.4655    6.6695      2.0      34    9 065  Ml 1.5  6  Md 1.5  1              bulletin    291691
                                                                                                         _ldg
      0.30   +-  0.03        .7     .5   47.67 +-  0.0    0.10   2.56   +-0.2      +-                    m i ke

FRANCE
Sta     Dist  EvAz     Phase      Date       Time     TRes  Azim  AzRes  Slow  SRes Def   SNR       Amp   Per   Mag1   Mag2       ID
MBDF  000.27 015.5 m E Pg      2013/02/06 10:24:12.0  -0.1                          T                                        5189581
MBDF  000.27 015.5 m E Sg      2013/02/06 10:24:15.6  -0.1                          T                3.9  .20        Md 1.5  5189580
ORIF  000.72 309.1 m E Pg      2013/02/06 10:24:20.4   0.1                          T                                        5189579
ORIF  000.72 309.1 m E Sg      2013/02/06 10:24:29.6  -0.1                          T                1.4  .24                5189578
SBF   000.82 137.3 m E Pg      2013/02/06 10:24:21.9  -0.1                          T                                        5189750
SBF   000.82 137.3 m E Sg      2013/02/06 10:24:32.4  -0.2                          T                1.3  .17                5189749
SMRF  000.93 238.5 m E Pg      2013/02/06 10:24:24.0   0.0                          T                                        5189754
SMRF  000.93 238.5 m E Sg      2013/02/06 10:24:36.2   0.2                          T                2.1  .27 Ml 1.7         5189753
LPG   001.03 003.2 m E Pg      2013/02/06 10:24:26.4   0.1                          T                                        5189756
LPG   001.03 003.2 m E Sg      2013/02/06 10:24:39.8   0.1                          T                 .8  .22 Ml 1.4         5189755
LPL   001.05 002.4 m E Pg      2013/02/06 10:24:26.6   0.1                          T                                        5189758
LPL   001.05 002.4 m E Sg      2013/02/06 10:24:40.3   0.1                          T                1.2  .18 Ml 1.7         5189757
LMR   001.14 185.9 m E Pg      2013/02/06 10:24:27.9   0.1                          T                                        5189752
LMR   001.14 185.9 m E Sg      2013/02/06 10:24:42.6   0.1                          T                 .6  .15 Ml 1.5         5189751
VIVF  001.48 286.0 m E Pn      2013/02/06 10:24:32.3  -0.2                          T                                        5189746
VIVF  001.48 286.0 m E Sn      2013/02/06 10:24:51.1  -0.1                          T                 .3  .18 Ml 1.3         5189745
PGF   002.56 137.7 m E Pn      2013/02/06 10:24:47.5   0.2                          T                                        5189748
PGF   002.56 137.7 m E Sn      2013/02/06 10:25:17.3   0.1                          T                 .2  .15 Ml 1.8         5189747

.
EVENT     291631
    Date      Time       Latitude Longitude    Depth    Ndef Nsta Gap    Mag1  N    Mag2  N    Mag3  N   Author         ID
       rms   OT_Error      Smajor Sminor Az        Err   mdist  Mdist     Err        Err        Err      Quality

2013/02/06 12:31:50.9     42.7470    2.2646      3.0 f    59   19 088  Ml 2.5 18  Md 2.6  2              bulletin    291731
                                                                                                         _ldg
      0.25   +-  0.04        .8     .6  146.40 +-  0.0    0.11   5.99   +-0.3      +-0.2                 m i ke

PYRENEES
Sta     Dist  EvAz     Phase      Date       Time     TRes  Azim  AzRes  Slow  SRes Def   SNR       Amp   Per   Mag1   Mag2       ID
MTLF  000.59 356.7 m E P       2013/02/06 12:32:03.3  -0.2                          T                                        5189589
MTLF  000.59 356.7 m E Pn      2013/02/06 12:32:04.8   0.1                          T                                        5189596
MTLF  000.59 356.7 m E Sg      2013/02/06 12:32:10.5   0.5                          T                                Md 2.4  5189584
MTLF  000.59 356.7 m E Sn      2013/02/06 12:32:14.6   0.3                          T               40.7  .18        Md 2.7  5189595
EPF   001.44 282.0 m E Pg      2013/02/06 12:32:17.7  -0.1                          T                                        5189588
EPF   001.44 282.0 m E Sg      2013/02/06 12:32:36.4  -0.1                          T               10.2  .19 Ml 2.7         5189585
LASF  001.76 040.6 m E Pn      2013/02/06 12:32:20.6   0.0                          T                                        5189583
LASF  001.76 040.6 m E Pg      2013/02/06 12:32:23.6  -0.1                          T                                        5189582
LASF  001.76 040.6 m E Sn      2013/02/06 12:32:41.9  -0.4                          T                                        5197716
LASF  001.76 040.6 m E Sg      2013/02/06 12:32:46.3  -0.2                          T               13.4  .23 Ml 2.9         5189594
ETSF  002.08 275.1 m E Pn      2013/02/06 12:32:25.0   0.0                          T                                        5196204
ETSF  002.08 275.1 m E Pg      2013/02/06 12:32:29.6  -0.1                          T                                        5189587
ETSF  002.08 275.1 m E Sn      2013/02/06 12:32:50.0   0.0                          T                                        5197717
ETSF  002.08 275.1 m E Sg      2013/02/06 12:32:56.9   0.4                          T                8.6  .22 Ml 2.8         5189586
CAF   002.18 356.3 m E Pn      2013/02/06 12:32:26.2  -0.1                          T                                        5196199
CAF   002.18 356.3 m E Pg      2013/02/06 12:32:31.2  -0.2                          T                                        5189593
CAF   002.18 356.3 m E Sg      2013/02/06 12:32:59.6   0.1                          T                6.7  .18 Ml 2.8         5189592
RJF   002.61 348.3 m E Pn      2013/02/06 12:32:32.0  -0.2                          T                                        5196201
RJF   002.61 348.3 m E Pg      2013/02/06 12:32:39.4   0.0                          T                                        5196200
RJF   002.61 348.3 m E Sn      2013/02/06 12:33:02.5   0.0                          T                                        5196202
RJF   002.61 348.3 m E Sg      2013/02/06 12:33:13.1   0.1                          T                5.1  .18 Ml 2.5         5189601
VIVF  002.74 038.8 m E Pn      2013/02/06 12:32:34.0   0.2                          T                                        5189603
VIVF  002.74 038.8 m E Pg      2013/02/06 12:32:41.9   0.3                          T                                        5189598
VIVF  002.74 038.8 m E Sg      2013/02/06 12:33:16.8   0.0                          T                4.7  .24 Ml 2.7         5189597
SJPF  002.59 279.3 m E Pg      2013/02/06 12:32:38.9   0.0                          T                                        5196197
SJPF  002.59 279.3 m E Sn      2013/02/06 12:33:01.9  -0.1                          T                                        5196196
SJPF  002.59 279.3 m E Sg      2013/02/06 12:33:11.9  -0.3                          T                 .9  .17 Ml 2.0         5196195
LMR   003.17 077.9 m E Pn      2013/02/06 12:32:40.6   1.0                          T                                        5196255
LMR   003.17 077.9 m E Pg      2013/02/06 12:32:49.8   0.3                          T                                        5196254
LMR   003.17 077.9 m E Sn      2013/02/06 12:33:15.6  -0.1                          T                                        5196253
LMR   003.17 077.9 m E Sg      2013/02/06 12:33:30.8   0.6                          T                 .6  .22 Ml 1.9         5196252
TCF   003.54 359.4 m E Pn      2013/02/06 12:32:45.1   0.3                          T                                        5196271
TCF   003.54 359.4 m E Pg      2013/02/06 12:32:56.2  -0.2                          T                                        5196270
TCF   003.54 359.4 m E Sg      2013/02/06 12:33:41.9   0.0                          T                1.9  .17 Ml 2.6         5189600
BGF   003.83 006.0 m E Pn      2013/02/06 12:32:48.8   0.1                          T                                        5196229
BGF   003.83 006.0 m E Sg      2013/02/06 12:33:51.0   0.0                          T                6.5  .32 Ml 2.9         5196227
SMF   004.06 015.5 m E Pn      2013/02/06 12:32:51.8   0.0                          T                                        5196188
SMF   004.06 015.5 m E Sg      2013/02/06 12:33:57.9  -0.1                          T                 .8  .20 Ml 2.3         5196186
AVF   004.12 010.5 m E Pn      2013/02/06 12:32:52.9   0.3                          T                                        5197718
AVF   004.12 010.5 m E Sg      2013/02/06 12:33:59.4  -0.5                          T                1.0  .21 Ml 2.4         5189599
LOR   004.66 013.5 m E Pn      2013/02/06 12:33:00.6   0.6                          T                                        5196265
LOR   004.66 013.5 m E Pg      2013/02/06 12:33:17.2   0.1                          T                                        5196264
LOR   004.66 013.5 m E Sn      2013/02/06 12:33:51.4   0.0                          T                                        5196263
LOR   004.66 013.5 m E Sg      2013/02/06 12:34:16.7  -0.1                          T                 .6  .19 Ml 2.3         5196262
CABF  004.73 033.9 m E Pn      2013/02/06 12:33:00.7  -0.4                          T                                        5196192
CABF  004.73 033.9 m E Pg      2013/02/06 12:33:18.3  -0.2                          T                                        5196191
CABF  004.73 033.9 m E Sn      2013/02/06 12:33:53.4   0.3                          T                                        5196190
CABF  004.73 033.9 m E Sg      2013/02/06 12:34:18.8  -0.2                          T                 .7  .23 Ml 2.3         5196189
LFF   002.45 333.8 m E Sg      2013/02/06 12:33:08.0   0.1                          T               14.4  .29 Ml 2.8         5189602
MFF   004.22 336.8 m E Pg      2013/02/06 12:33:08.8  -0.1                          T                                        5196223
MFF   004.22 336.8 m E Sg      2013/02/06 12:34:03.0  -0.1                          T                1.6  .22 Ml 2.7         5196222
HAU   005.99 027.3 m E Pn      2013/02/06 12:33:18.2   0.0                          T                                        5196261
HAU   005.99 027.3 m E Pg      2013/02/06 12:33:41.6  -0.1                          T                                        5196260
HAU   005.99 027.3 m E Sg      2013/02/06 12:34:59.4   1.0                          T                1.2  .23 Ml 2.6         5196259
SSF   004.40 011.1 m E Sn      2013/02/06 12:33:45.1  -0.2                          T                                        5196267
SSF   004.40 011.1 m E Sg      2013/02/06 12:34:08.9   0.1                          T                 .6  .18 Ml 2.4         5196266

.
