EVENT     266479
    Date      Time       Latitude Longitude    Depth    Ndef Nsta Gap    Mag1  N    Mag2  N    Mag3  N   Author         ID
       rms   OT_Error      Smajor Sminor Az        Err   mdist  Mdist     Err        Err        Err      Quality

2011/11/20 03:24:23.3     47.4413   12.8747      2.0      62   20 051  Ml 2.7 11                         js067245    266499

      0.37   +-  0.06       1.6    1.1   24.60 +-  0.0    0.48   7.40   +-0.3                            m i ke

AUSTRIA
Sta     Dist  EvAz     Phase      Date       Time     TRes  Azim  AzRes  Slow  SRes Def   SNR       Amp   Per   Mag1   Mag2       ID
LANF  003.72 296.3 m E Pn      2011/11/20 03:25:19.7  -0.1                          T                                        4790239
LANF  003.72 296.3 m E Pg      2011/11/20 03:25:31.7  -0.5                          T                                        4790238
LANF  003.72 296.3 m E Sg      2011/11/20 03:26:20.1   0.1                          T                6.0  .24 Ml 3.0         4789112
CDF   003.89 286.5 m E Pn      2011/11/20 03:25:22.0  -0.2                          T                                        4789120
CDF   003.89 286.5 m E Pg      2011/11/20 03:25:35.5   0.1                          T                                        4790237
CDF   003.89 286.5 m E Sg      2011/11/20 03:26:25.4   0.1                          T                8.7  .48 Ml 3.0         4789116
HINF  004.09 277.5 m E Pn      2011/11/20 03:25:24.7  -0.1                          T                                        4789115
HINF  004.09 277.5 m E Sn      2011/11/20 03:26:09.9  -0.5                          T                3.3  .32 Ml 2.7         4790234
HAU   004.44 279.7 m E Pn      2011/11/20 03:25:29.8   0.2                          T                                        4789108
HAU   004.44 279.7 m E P       2011/11/20 03:25:34.0   0.6                          T                                        4789107
HAU   004.44 279.7 m E Sg      2011/11/20 03:26:42.5   0.1                          T                9.0  .49 Ml 2.8         4789109
LPL   004.66 247.8 m E Pn      2011/11/20 03:25:32.5  -0.3                          T                                        4790222
LPL   004.66 247.8 m E P       2011/11/20 03:25:36.3  -0.3                          T                                        4789111
LPG   004.66 247.6 m E Pn      2011/11/20 03:25:32.6  -0.3                          T                                        4790223
LPG   004.66 247.6 m E P       2011/11/20 03:25:36.4  -0.3                          T                                        4790224
RUP   004.47 302.5 m E P       2011/11/20 03:25:33.2  -0.6                          T                                        4790212
RUP   004.47 302.5 m E Sn      2011/11/20 03:26:19.7   0.1                          T                                        4790213
CABF  004.72 262.3 m E Pn      2011/11/20 03:25:33.3  -0.1                          T                                        4790214
CABF  004.72 262.3 m E P       2011/11/20 03:25:37.1  -0.2                          T                                        4789114
CABF  004.72 262.3 m E Sn      2011/11/20 03:26:25.2  -0.2                          T                                        4790233
PAGF  004.93 285.7 m E Pn      2011/11/20 03:25:36.9   0.7                          T                                        4789118
PAGF  004.93 285.7 m E Pg      2011/11/20 03:25:54.5   0.1                          T                                        4789119
PAGF  004.93 285.7 m E Sg      2011/11/20 03:26:57.8   0.2                          T                1.6  .41 Ml 2.5         4789117
MBDF  005.04 239.6 m E Pn      2011/11/20 03:25:38.3   0.5                          T                                        4790219
MBDF  005.04 239.6 m E P       2011/11/20 03:25:41.7  -0.3                          T                                        4789113
SBF   005.23 228.8 m E Pn      2011/11/20 03:25:39.8  -0.5                          T                                        4790227
ORIF  005.47 245.1 m E Pn      2011/11/20 03:25:44.2   0.5                          T                                        4790220
ORIF  005.47 245.1 m E P       2011/11/20 03:25:48.1   0.1                          T                                        4790221
ORIF  005.47 245.1 m E Sn      2011/11/20 03:26:43.1  -0.4                          T                1.6  .34 Ml 2.6         4790228
FRF   005.85 230.7 m E P       2011/11/20 03:25:52.0  -1.1                          T                                        4790225
LOR   006.13 271.7 m E Pn      2011/11/20 03:25:52.6   0.0                          T                                        4790210
LOR   006.13 271.7 m E Sn      2011/11/20 03:26:58.8  -0.3                          T                 .7  .34 Ml 2.5         4790235
VIVF  006.26 248.6 m E Pn      2011/11/20 03:25:54.4   0.0                          T                                        4790218
VIVF  006.26 248.6 m E Sn      2011/11/20 03:27:02.2   0.0                          T                 .5  .24 Ml 2.5         4790229
LMR   006.08 229.8 m E P       2011/11/20 03:25:56.1  -0.3                          T                                        4790226
SMF   006.23 266.0 m E P       2011/11/20 03:25:58.4  -0.2                          T                                        4790215
SMF   006.23 266.0 m E Sn      2011/11/20 03:27:01.2  -0.2                          T                1.1  .29 Ml 2.7         4790232
AVF   006.53 267.8 m E P       2011/11/20 03:26:02.4  -0.4                          T                                        4789110
TCF   007.40 265.0 m E Pn      2011/11/20 03:26:10.4   0.5                          T                                        4790211
TCF   007.40 265.0 m E Sn      2011/11/20 03:27:29.5  -0.1                          T                 .3  .25 Ml 2.5         4790236
BGF   006.92 266.3 m E Sn      2011/11/20 03:27:18.1   0.2                          T                3.9  .33 Ml 3.3         4790231

.
EVENT     266480
    Date      Time       Latitude Longitude    Depth    Ndef Nsta Gap    Mag1  N    Mag2  N    Mag3  N   Author         ID
       rms   OT_Error      Smajor Sminor Az        Err   mdist  Mdist     Err        Err        Err      Quality

2011/11/20 03:27:56.2     47.4243   12.8397      2.0      45   13 067  Ml 2.4  9  Md 3.3  1              js067245    266500

      0.56   +-  0.09       1.9    1.7  161.99 +-  0.0    0.31   7.38   +-0.3      +-                    m i ke

AUSTRIA
Sta     Dist  EvAz     Phase      Date       Time     TRes  Azim  AzRes  Slow  SRes Def   SNR       Amp   Per   Mag1   Mag2       ID
CDF   003.87 286.8 m E Pn      2011/11/20 03:28:54.7  -0.1                          T                                        4790254
CDF   003.87 286.8 m E Sg      2011/11/20 03:29:57.2  -0.3                          T                3.9  .39 Ml 2.7         4789313
HINF  004.07 277.7 m E Pn      2011/11/20 03:28:57.5   0.1                          T                                        4789319
HINF  004.07 277.7 m E Pg      2011/11/20 03:29:11.2  -0.3                          T                                        4790255
HINF  004.07 277.7 m E Sn      2011/11/20 03:29:41.7  -1.1                          T                1.6  .18 Ml 2.6 Md 3.3  4789316
HINF  004.07 277.7 m E Sg      2011/11/20 03:30:03.6  -0.1                          T                2.0  .25 Ml 2.6         4790256
HAU   004.42 279.9 m E Pn      2011/11/20 03:29:01.9  -0.3                          T                                        4789318
HAU   004.42 279.9 m E Sg      2011/11/20 03:30:15.5   0.8                          T                7.1  .48 Ml 2.7         4790257
RUP   004.46 302.8 m E Pn      2011/11/20 03:29:02.1  -0.7                          T                                        4789314
RUP   004.46 302.8 m E Sn      2011/11/20 03:29:51.3  -1.0                          T                                        4789315
THEF  004.68 282.4 m E Pn      2011/11/20 03:29:05.3  -0.5                          T                                        4789317
LPG   004.63 247.6 m E P       2011/11/20 03:29:09.1  -0.1                          T                                        4790249
LPL   004.63 247.9 m E P       2011/11/20 03:29:09.1   0.0                          T                                        4790250
LPL   004.63 247.9 m E Sn      2011/11/20 03:29:56.3  -0.1                          T                 .6  .31 Ml 2.1         4790248
CABF  004.69 262.5 m E P       2011/11/20 03:29:09.8  -0.1                          T                                        4790253
CABF  004.69 262.5 m E Sn      2011/11/20 03:29:57.2  -0.5                          T                 .5  .22 Ml 2.1         4789310
MBDF  005.01 239.6 m E P       2011/11/20 03:29:14.9   0.5                          T                                        4790252
MBDF  005.01 239.6 m E Sn      2011/11/20 03:30:05.6   0.1                          T                 .4  .21 Ml 2.1         4790247
ORIF  005.44 245.1 m E P       2011/11/20 03:29:19.5  -1.0                          T                                        4790251
PAGF  004.91 285.9 m E Pg      2011/11/20 03:29:27.0   0.0                          T                                        4789312
PAGF  004.91 285.9 m E Sg      2011/11/20 03:30:29.9   0.0                          T                1.6  .57 Ml 2.3         4789311
LANF  003.71 296.7 m E Sn      2011/11/20 03:29:40.3   6.1                          T                                        4790246
TCF   007.38 265.0 m E Sn      2011/11/20 03:31:02.1   0.2                          T                 .3  .23 Ml 2.5         4790245

.
EVENT     266481
    Date      Time       Latitude Longitude    Depth    Ndef Nsta Gap    Mag1  N    Mag2  N    Mag3  N   Author         ID
       rms   OT_Error      Smajor Sminor Az        Err   mdist  Mdist     Err        Err        Err      Quality

2011/11/20 09:27:25.2     44.3791    7.4525      7.0 f    22    8 205  Ml 1.9  6  Md 2.0  4              js067245    266501

      0.57   +-  0.21       4.8    1.8   80.67 +-  0.0    0.52   1.41   +-0.4      +-0.2                 m i ke

NORTHERN ITALY
Sta     Dist  EvAz     Phase      Date       Time     TRes  Azim  AzRes  Slow  SRes Def   SNR       Amp   Per   Mag1   Mag2       ID
SBF   000.52 181.4 m E Pg      2011/11/20 09:27:35.0  -0.2                          T                                        4789177
SBF   000.52 181.4 m E Sg      2011/11/20 09:27:41.6  -0.5                          T                7.4  .18        Md 1.8  4789175
MBDF  000.60 305.8 m E Pg      2011/11/20 09:27:36.7  -0.1                          T                                        4789180
MBDF  000.60 305.8 m E P       2011/11/20 09:27:37.9  -0.3                          T                                        4789174
MBDF  000.60 305.8 m E Pn      2011/11/20 09:27:39.3   0.5                          T                                        4789170
MBDF  000.60 305.8 m E Sg      2011/11/20 09:27:45.0   0.2                          T                6.1  .20        Md 1.8  4789181
FRF   001.00 215.7 m E Pg      2011/11/20 09:27:43.7  -0.4                          T                                        4789179
FRF   001.00 215.7 m E Pn      2011/11/20 09:27:44.9   0.7                          T                                        4789166
FRF   001.00 215.7 m E Sg      2011/11/20 09:27:56.5  -0.7                          T                                Md 2.2  4789173
FRF   001.00 215.7 m E Sn      2011/11/20 09:27:58.7   1.0                          T                8.3  .18 Ml 2.5         4789164
LPG   001.22 336.2 m E Pg      2011/11/20 09:27:48.2  -0.3                          T                                        4789168
LPG   001.22 336.2 m E P       2011/11/20 09:27:49.5   0.3                          T                                        4789282
LPG   001.22 336.2 m E Sg      2011/11/20 09:28:04.4   0.0                          T                  1  .22 Ml 1.6         4789167
LMR   001.25 213.5 m E Pg      2011/11/20 09:27:48.3  -0.2                          T                                        4789178
LMR   001.25 213.5 m E P       2011/11/20 09:27:49.5   0.3                          T                                        4789172
LMR   001.25 213.5 m E Sg      2011/11/20 09:28:04.4  -0.3                          T                4.5  .18 Ml 2.3 Md 2.1  4789176
ORIF  001.25 296.2 m E Pg      2011/11/20 09:27:48.5  -0.2                          T                                        4789171
ORIF  001.25 296.2 m E Sg      2011/11/20 09:28:05.2   0.4                          T                1.2  .23 Ml 1.6         4789169
LPL   001.25 336.0 m E Sg      2011/11/20 09:28:04.9  -0.1                          T                1.0  .24 Ml 1.5         4789283
SMRF  001.41 254.0 m E Sn      2011/11/20 09:28:08.8   1.3                          T                3.3  .31 Ml 2.0         4789165

.
EVENT     266485
    Date      Time       Latitude Longitude    Depth    Ndef Nsta Gap    Mag1  N    Mag2  N    Mag3  N   Author         ID
       rms   OT_Error      Smajor Sminor Az        Err   mdist  Mdist     Err        Err        Err      Quality

2011/11/20 15:53:50.4     43.1470    -.7063      2.0      17    4 166  Ml 1.8  1  Md 1.8  2              js067245    266505

      0.28   +-  0.10       2.2    1.0    4.06 +-  0.0    0.06   2.15   +-         +-0.1                 m i ke

PYRENEES
Sta     Dist  EvAz     Phase      Date       Time     TRes  Azim  AzRes  Slow  SRes Def   SNR       Amp   Per   Mag1   Mag2       ID
ETSF  000.27 156.5 m E Pg      2011/11/20 15:53:55.2  -0.7                          T                                        4789198
ETSF  000.27 156.5 m E Sg      2011/11/20 15:53:58.6  -0.9                          T               14.1  .26        Md 1.9  4789193
SJPF  000.38 265.1 m E Pg      2011/11/20 15:53:57.7  -0.1                          T                                        4789197
SJPF  000.38 265.1 m E Sg      2011/11/20 15:54:02.9   0.1                          T                7.9  .22        Md 1.7  4789195
EPF   000.78 098.3 m E Pg      2011/11/20 15:54:05.4   0.3                          T                                        4789196
EPF   000.78 098.3 m E Sg      2011/11/20 15:54:15.2   0.0                          T                2.6  .30                4789194
MTLF  002.15 083.8 m E Sg      2011/11/20 15:54:57.5  -0.4                          T                1.1  .28 Ml 1.8         4789200

.
EVENT     266486
    Date      Time       Latitude Longitude    Depth    Ndef Nsta Gap    Mag1  N    Mag2  N    Mag3  N   Author         ID
       rms   OT_Error      Smajor Sminor Az        Err   mdist  Mdist     Err        Err        Err      Quality

2011/11/20 17:28:40.7     42.9160     .5713      2.0      11    4 126  Ml 1.4  2  Md 1.3  1              js067245    266506

      0.17   +-  0.06       1.9     .9   12.30 +-  0.0    0.20   1.33   +-0.3      +-                    m i ke

PYRENEES
Sta     Dist  EvAz     Phase      Date       Time     TRes  Azim  AzRes  Slow  SRes Def   SNR       Amp   Per   Mag1   Mag2       ID
EPF   000.20 304.0 m E Pg      2011/11/20 17:28:44.7  -0.2                          T                                        4789205
EPF   000.20 304.0 m E Sg      2011/11/20 17:28:47.6  -0.1                          T               15.9  .22        Md 1.3  4789204
ETSF  000.83 269.2 m E Pg      2011/11/20 17:28:56.6   0.2                          T                                        4790259
ETSF  000.83 269.2 m E Sg      2011/11/20 17:29:07.1  -0.2                          T                 .4  .26                4790262
MTLF  001.28 070.0 m E Pg      2011/11/20 17:29:04.7   0.1                          T                                        4790260
MTLF  001.28 070.0 m E Sg      2011/11/20 17:29:21.1   0.0                          T                1.2  .24 Ml 1.6         4790261
SJPF  001.33 279.1 m E Sg      2011/11/20 17:29:22.9   0.1                          T                 .5  .28 Ml 1.2         4790258

.
EVENT     266589
    Date      Time       Latitude Longitude    Depth    Ndef Nsta Gap    Mag1  N    Mag2  N    Mag3  N   Author         ID
       rms   OT_Error      Smajor Sminor Az        Err   mdist  Mdist     Err        Err        Err      Quality

2011/11/20 19:20:36.8     42.8186   -1.2620      2.0      20    3 065  Ml 1.0  1  Md 1.1  2              js067245    266609

      0.23   +-  0.06       1.5     .9  167.43 +-  0.0    0.03   1.20   +-         +-0.0                 m i ke

PYRENEES
Sta     Dist  EvAz     Phase      Date       Time     TRes  Azim  AzRes  Slow  SRes Def   SNR       Amp   Per   Mag1   Mag2       ID
SJPF  000.30 005.3 m E Pg      2011/11/20 19:20:42.7   0.0                          T                                        4790272
SJPF  000.30 005.3 m E Sg      2011/11/20 19:20:46.6   0.0                          T                1.5  .24        Md 1.1  4790273
ETSF  000.52 081.0 m E Pg      2011/11/20 19:20:47.0   0.1                          T                                        4790270
ETSF  000.52 081.0 m E Sg      2011/11/20 19:20:54.0   0.2                          T                 .4  .21        Md 1.1  4790271
EPF   001.20 079.3 m E Sg      2011/11/20 19:21:14.7   0.0                          T                 .2  .20 Ml 1           4790269

.
