BEGIN GSE2.0
MSG_TYPE DATA
MSG_ID 28-MAR-1209:07:35  FRA_NDC
E-MAIL
DATA_TYPE BULLETIN
Reviewed Bulletin (REB) # P2012-011  from French NDC for regional phases     PERIOD 14 MAR 2012 TO 20 MAR 2012 S M., J-P S
EVENT     271841
    Date      Time       Latitude Longitude    Depth    Ndef Nsta Gap    Mag1  N    Mag2  N    Mag3  N   Author         ID
       rms   OT_Error      Smajor Sminor Az        Err   mdist  Mdist     Err        Err        Err      Quality

2012/03/14 02:39:11.5     41.1348   12.6938     44.8      30    5 176                                    js067245    271861

                                               +-         0.54   6.26                                    m i ke

SOUTHERN ITALY
Sta     Dist  EvAz     Phase      Date       Time     TRes  Azim  AzRes  Slow  SRes Def   SNR       Amp   Per   Mag1   Mag2       ID
PGF   003.10 298.3 m E Pn      2012/03/14 02:39:58.6   1.1                          T                                        4877953
PGF   003.10 298.3 m E Sn      2012/03/14 02:40:32.7   0.9                          T                5.6  .32                4877952
ORIF  006.26 309.4 m E P       2012/03/14 02:40:43.0  -0.8                          T                                        4877945
SBF   004.75 306.8 m E Sn      2012/03/14 02:41:11.4   0.6                          T                1.6  .26                4877951
FRF   005.09 300.4 m E Sn      2012/03/14 02:41:18.3  -0.6                          T                 .7  .30                4877949
LMR   005.09 297.6 m E Sn      2012/03/14 02:41:19.1   0.3                          T                 .6  .20                4877950

.
EVENT     271842
    Date      Time       Latitude Longitude    Depth    Ndef Nsta Gap    Mag1  N    Mag2  N    Mag3  N   Author         ID
       rms   OT_Error      Smajor Sminor Az        Err   mdist  Mdist     Err        Err        Err      Quality

2012/03/14 05:18:02.4     41.7731   -1.7690     10.0      18    3 081  Ml 1.8  3  Md 2.0  1              js067245    271862

      0.58   +-  0.15       3.5    2.4   99.67 +-  0.0    0.97   2.12   +-0.2      +-                    m i ke

SPAIN
Sta     Dist  EvAz     Phase      Date       Time     TRes  Azim  AzRes  Slow  SRes Def   SNR       Amp   Per   Mag1   Mag2       ID
SJPF  001.40 016.6 m E Pg      2012/03/14 05:18:29.3   0.7                          T                                        4878019
SJPF  001.40 016.6 m E Sg      2012/03/14 05:18:46.8   0.2                          T                2.9  .24 Ml 2.1 Md 2.0  4878018
EPF   002.00 050.5 m E Pg      2012/03/14 05:18:39.2  -0.6                          T                                        4878015
EPF   002.00 050.5 m E Sg      2012/03/14 05:19:05.7   0.1                          T                1.0  .28 Ml 1.8         4878016
ETSF  001.44 038.2 m E Sg      2012/03/14 05:18:48.4   0.5                          T                1.3  .32 Ml 1.6         4878017

.
EVENT     271843
    Date      Time       Latitude Longitude    Depth    Ndef Nsta Gap    Mag1  N    Mag2  N    Mag3  N   Author         ID
       rms   OT_Error      Smajor Sminor Az        Err   mdist  Mdist     Err        Err        Err      Quality

2012/03/14 06:14:13.5     43.2768    -.6843      2.0       6    3 220             Md 1.5  2              js067245    271863

      0.65   +-  0.62      16.4    6.9    1.30 +-  0.0    0.39   0.79              +-0.0                 m i ke

PYRENEES
Sta     Dist  EvAz     Phase      Date       Time     TRes  Azim  AzRes  Slow  SRes Def   SNR       Amp   Per   Mag1   Mag2       ID
ETSF  000.39 166.3 m E Pg      2012/03/14 06:14:21.6   0.5                          T                                        4871178
ETSF  000.39 166.3 m E Sg      2012/03/14 06:14:25.3  -0.9                          T                7.9  .24        Md 1.5  4871177
SJPF  000.43 247.7 m E Pg      2012/03/14 06:14:21.9   0.2                          T                                        4871175
SJPF  000.43 247.7 m E Sg      2012/03/14 06:14:26.0  -1.4                          T                3.3  .24        Md 1.5  4871176
EPF   000.79 107.8 m E Pg      2012/03/14 06:14:28.1  -0.3                          T                                        4871180
EPF   000.79 107.8 m E Sg      2012/03/14 06:14:38.7   0.0                          T                 .4  .24                4881660

.
EVENT     271844
    Date      Time       Latitude Longitude    Depth    Ndef Nsta Gap    Mag1  N    Mag2  N    Mag3  N   Author         ID
       rms   OT_Error      Smajor Sminor Az        Err   mdist  Mdist     Err        Err        Err      Quality

2012/03/14 07:03:37.5     44.4919    6.6666      6.0 f   163   39 030  Ml 3.3 39  Md 3.3  3              js067245    271864

      0.95   +-  0.06       1.4    1.2   60.10 +-  0.0    0.09   6.52   +-0.3      +-0.1                 m i ke

FRANCE
Sta     Dist  EvAz     Phase      Date       Time     TRes  Azim  AzRes  Slow  SRes Def   SNR       Amp   Per   Mag1   Mag2       ID
MBDF  000.25 017.6 m E Pg      2012/03/14 07:03:42.5  -0.2                          T   001.0                                4870710
MBDF  000.25 017.6 m E Sg      2012/03/14 07:03:45.7  -0.4                          T             1171.0  .42        Md 3.4  4870875
ORIF  000.70 307.5 m E Pg      2012/03/14 07:03:50.9  -0.1                          T   001.0                                4870713
ORIF  000.70 307.5 m E Sg      2012/03/14 07:04:00.4   0.2                          T   001.0      531.3  .30                4870714
SBF   000.84 138.4 m E Pg      2012/03/14 07:03:53.5   0.1                          T   001.0                                4870689
SBF   000.84 138.4 m E Sg      2012/03/14 07:04:04.0  -0.3                          T   001.0      449.0  .30        Md 3.3  4870690
FRF   000.93 180.9 m E Pn      2012/03/14 07:03:55.5   0.0                          T   001.0                                4870670
FRF   000.93 180.9 m E Sg      2012/03/14 07:04:07.1   0.0                          T   001.0      465.5  .24 Ml 4.1         4870671
SMRF  000.94 237.1 m E Pn      2012/03/14 07:03:56.3   0.6                          T   001.0                                4870698
SMRF  000.94 237.1 m E Sg      2012/03/14 07:04:07.5   0.1                          T   001.0                                4870699
SMRF  000.94 237.1 m E Sn      2012/03/14 07:04:08.8   0.2                          T              146.8  .26 Ml 3.5         4881686
LPG   001.01 003.4 m E Pg      2012/03/14 07:03:56.4  -0.4                          T   001.0                                4870683
LPG   001.01 003.4 m E P       2012/03/14 07:03:58.2  -0.3                          T                                        4870873
LPG   001.01 003.4 m E Sg      2012/03/14 07:04:09.8  -0.1                          T   001.0      151.0  .37 Ml 3.4         4870684
LPL   001.03 002.6 m E Pg      2012/03/14 07:03:56.7  -0.3                          T   001.0                                4870685
LPL   001.03 002.6 m E Sg      2012/03/14 07:04:10.4   0.0                          T   001.0      123.0  .30 Ml 3.4         4870686
LMR   001.16 185.7 m E Pg      2012/03/14 07:03:59.5   0.3                          T   001.0                                4870678
LMR   001.16 185.7 m E P       2012/03/14 07:04:00.3  -0.1                          T                                        4870874
LMR   001.16 185.7 m E Sg      2012/03/14 07:04:14.4   0.1                          T   001.0      433.0  .24 Ml 4.2         4870679
VIVF  001.47 285.1 m E Pg      2012/03/14 07:04:04.8  -0.2                          T   001.0                                4870695
VIVF  001.47 285.1 m E Sn      2012/03/14 07:04:21.1  -0.2                          T   001.0      160.5  .32 Ml 3.7         4870697
VIVF  001.47 285.1 m E Sg      2012/03/14 07:04:24.1   0.2                          T              162.9  .32 Ml 3.7         4870700
LASF  002.06 259.3 m E P       2012/03/14 07:04:12.8  -0.4                          T   001.0                                4870674
LASF  002.06 259.3 m E Pg      2012/03/14 07:04:16.1   0.3                          T                                        4881685
LASF  002.06 259.3 m E Sn      2012/03/14 07:04:35.7   0.3                          T   001.0       21.3  .26 Ml 3.1         4870675
CABF  002.16 349.3 m E P       2012/03/14 07:04:15.4   0.7                          T   001.0                                4870705
CABF  002.16 349.3 m E Sg      2012/03/14 07:04:44.7  -0.8                          T              106.2  .70 Ml 3.4 Md 3.3  4870897
PGF   002.58 138.1 m E Pn      2012/03/14 07:04:19.2   1.1                          T   001.0                                4870687
PGF   002.58 138.1 m E Sn      2012/03/14 07:04:47.9   0.0                          T   001.0       26.5  .28 Ml 3.5         4870688
SMF   002.93 318.3 m E P       2012/03/14 07:04:25.4  -0.2                          T                                        4870881
SMF   002.93 318.3 m E Sn      2012/03/14 07:04:56.2   0.0                          T   001.0       24.8  .24 Ml 3.4         4870692
SMF   002.93 318.3 m E Sg      2012/03/14 07:05:10.0   0.6                          T               29.4  .28 Ml 3.4         4870896
AVF   003.27 315.9 m E P       2012/03/14 07:04:30.4  -0.1                          T   001.0                                4870660
AVF   003.27 315.9 m E Sn      2012/03/14 07:05:04.2   0.0                          T   001.0                                4870661
AVF   003.27 315.9 m E Sg      2012/03/14 07:05:20.6   0.5                          T   001.0       49.8  .51 Ml 3.5         4870662
CAF   003.31 279.1 m E P       2012/03/14 07:04:30.5  -0.6                          T   001.0                                4870665
CAF   003.31 279.1 m E Sn      2012/03/14 07:05:04.7  -0.6                          T   001.0       14.7  .32 Ml 3.2         4870666
HINF  003.33 002.2 m E P       2012/03/14 07:04:30.6  -0.8                          T   001.0                                4870707
HINF  003.33 002.2 m E Sn      2012/03/14 07:05:05.7   0.0                          T   001.0                                4870708
HINF  003.33 002.2 m E Sg      2012/03/14 07:05:22.6   0.6                          T   001.0       18.5  .46 Ml 3.1         4870709
MTLF  003.41 251.9 m E P       2012/03/14 07:04:31.7  -0.8                          T   001.0                                4870711
MTLF  003.41 251.9 m E Pg      2012/03/14 07:05:07.9  27.1                          T                6.1  .28 Ml 2.9         4881684
MTLF  003.41 251.9 m E Sg      2012/03/14 07:05:24.7   0.1                          T   001.0        9.5  .46 Ml 2.8         4870712
SSF   003.39 320.4 m E P       2012/03/14 07:04:32.1  -0.1                          T   001.0                                4870693
SSF   003.39 320.4 m E Sn      2012/03/14 07:05:07.6   0.4                          T                                        4881681
SSF   003.39 320.4 m E Sg      2012/03/14 07:05:24.4   0.6                          T   001.0       28.3  .50 Ml 3.4         4870696
BGF   003.39 308.9 m E P       2012/03/14 07:04:32.2   0.0                          T                                        4870883
BGF   003.39 308.9 m E Sg      2012/03/14 07:05:23.4  -0.3                          T   001.0       63.6  .43 Ml 3.7         4870664
LOR   003.40 325.8 m E P       2012/03/14 07:04:32.2  -0.2 143.7  -0.1              T   001.0                                4870680
LOR   003.40 325.8 m E Sn      2012/03/14 07:05:07.2  -0.2 149.2  5.4               T   001.0                                4870681
LOR   003.40 325.8 m E Sg      2012/03/14 07:05:24.3   0.2 151.3  7.6               T   001.0       22.4  .32 Ml 3.4         4870682
HAU   003.52 356.5 m E P       2012/03/14 07:04:33.5  -0.6                          T   001.0                                4870672
HAU   003.52 356.5 m E Sn      2012/03/14 07:05:10.2  -0.1                          T   001.0       21.0  .32 Ml 3.1         4870673
HAU   003.52 356.5 m E Sg      2012/03/14 07:05:27.8  -0.2                          T               17.9  .40 Ml 3.0         4881683
TCF   003.62 301.3 m E P       2012/03/14 07:04:35.1  -0.4                          T   001.0                                4870703
TCF   003.62 301.3 m E Sn      2012/03/14 07:05:12.8   0.1                          T   001.0       16.1  .44 Ml 3.2         4870704
TCF   003.62 301.3 m E Sg      2012/03/14 07:05:31.9   0.9                          T               16.5  .44 Ml 3.2         4870904
RJF   003.75 284.3 m E P       2012/03/14 07:04:37.2  -0.1                          T   001.0                                4870658
RJF   003.75 284.3 m E Sg      2012/03/14 07:05:35.8   0.8                          T   001.0       19.3  .52 Ml 2.8         4870659
THEF  003.77 353.1 m E P       2012/03/14 07:04:37.3  -0.3                          T                                        4870880
THEF  003.77 353.1 m E Sg      2012/03/14 07:05:35.4  -0.2                          T               16.4  .33 Ml 3.3         4870898
CDF   003.94 005.9 m E P       2012/03/14 07:04:38.4  -1.8                          T                                        4870877
CDF   003.94 005.9 m E Sn      2012/03/14 07:05:20.2  -0.3                          T                3.6  .24 Ml 2.9         4881682
CDF   003.94 005.9 m E Sg      2012/03/14 07:05:41.1  -0.2                          T               12.7  .60 Ml 3.1         4870902
SFTF  003.88 343.7 m E P       2012/03/14 07:04:38.6  -0.5 154.6  -7.9              T                                        4870879
SFTF  003.88 343.7 m E Sg      2012/03/14 07:05:39.8   0.6                          T               20.7  .35 Ml 3.4         4870899
HYF   003.95 316.1 m E P       2012/03/14 07:04:40.3   0.1                          T                                        4870882
HYF   003.95 316.1 m E Sg      2012/03/14 07:05:41.6   0.2                          T                                        4870895
PAGF  004.12 351.3 m E P       2012/03/14 07:04:42.1  -0.4 166.9  -3.7              T                                        4870878
MEZF  004.16 345.0 m E P       2012/03/14 07:04:43.4   0.2                          T                                        4870901
MEZF  004.16 345.0 m E Sg      2012/03/14 07:05:48.4   0.4 169.4  5.5               T               28.0  .52 Ml 3.4         4870900
LFF   004.25 278.1 m E P       2012/03/14 07:04:43.6  -0.7                          T                                        4870892
LFF   004.25 278.1 m E Sn      2012/03/14 07:05:27.4  -0.3                          T   001.0       22.2  .64 Ml 3.1         4870677
LFF   004.25 278.1 m E Sg      2012/03/14 07:05:51.4   0.8                          T               21.7  .46 Ml 3.2         4870893
LANF  004.56 009.5 m E P       2012/03/14 07:04:44.7  -4.1                          T                                        4881688
EPF   004.81 254.5 m E P       2012/03/14 07:04:50.8  -1.6                          T   001.0                                4870668
EPF   004.81 254.5 m E Sg      2012/03/14 07:06:08.7   0.4                          T                9.7  .60 Ml 3.0         4870889
MFF   005.23 296.2 m E P       2012/03/14 07:04:57.5  -0.8                          T                                        4881687
ETSF  005.48 255.6 m E P       2012/03/14 07:05:02.1   0.3                          T                                        4870890
ETSF  005.48 255.6 m E Sg      2012/03/14 07:06:29.1   0.1                          T   001.0        4.3  .51 Ml 2.9         4870706
SJPF  005.88 259.2 m E P       2012/03/14 07:05:03.3  -4.1                          T                                        4870891
GIVF  005.75 348.1 m E P       2012/03/14 07:05:04.9  -0.8                          T                                        4881689
BAIF  005.82 344.2 m E P       2012/03/14 07:05:05.7  -0.8                          T                                        4870876
BAIF  005.82 344.2 m E Sn      2012/03/14 07:06:04.6  -0.5                          T               11.1  .72 Ml 3.2         4870903
LDF   006.22 313.6 m E P       2012/03/14 07:05:11.3  -1.0                          T   001.0                                4870676
FLN   006.52 313.5 m E P       2012/03/14 07:05:15.2  -1.2 139.1  10.8              T   001.0                                4870669

.
EVENT     271846
    Date      Time       Latitude Longitude    Depth    Ndef Nsta Gap    Mag1  N    Mag2  N    Mag3  N   Author         ID
       rms   OT_Error      Smajor Sminor Az        Err   mdist  Mdist     Err        Err        Err      Quality

2012/03/14 07:20:04.1     44.5249    6.7134      2.0      29    8 049  Ml 1.5  3  Md 1.6  1              js067245    271866

      0.60   +-  0.11       2.4    1.7   63.79 +-  0.0    0.08   1.49   +-0.4      +-                    m i ke

FRANCE
Sta     Dist  EvAz     Phase      Date       Time     TRes  Azim  AzRes  Slow  SRes Def   SNR       Amp   Per   Mag1   Mag2       ID
MBDF  000.21 011.6 m E Pg      2012/03/14 07:20:09.0   0.6                          T                                        4878169
MBDF  000.21 011.6 m E Sg      2012/03/14 07:20:12.4   1.1                          T                3.1  .21        Md 1.6  4878168
ORIF  000.71 303.8 m E Pg      2012/03/14 07:20:17.0  -0.7                          T                                        4878167
ORIF  000.71 303.8 m E Sg      2012/03/14 07:20:25.5  -1.5                          T                7.6  .60                4878166
FRF   000.97 182.9 m E Pg      2012/03/14 07:20:22.4   0.2                          T                                        4881694
FRF   000.97 182.9 m E Sg      2012/03/14 07:20:35.4   0.6                          T                2.8  .27 Ml 1.8         4881692
LPG   000.97 001.6 m E Pg      2012/03/14 07:20:23.0   0.3                          T                                        4881696
LPL   000.99 000.8 m E Pg      2012/03/14 07:20:23.4   0.4                          T                                        4881697
LPL   000.99 000.8 m E Sg      2012/03/14 07:20:36.2   0.4                          T                 .5  .30 Ml 1.0         4881690
SMRF  000.98 236.5 m E Pn      2012/03/14 07:20:23.6   0.3                          T                                        4881695
LMR   001.20 187.1 m E Pg      2012/03/14 07:20:27.2   0.6                          T                                        4881693
LMR   001.20 187.1 m E Sg      2012/03/14 07:20:43.0   0.9                          T                  1  .25 Ml 1.5         4881691
VIVF  001.49 283.5 m E Pg      2012/03/14 07:20:31.2  -0.8                          T                                        4881698

.
