EVENT     259536
    Date      Time       Latitude Longitude    Depth    Ndef Nsta Gap    Mag1  N    Mag2  N    Mag3  N   Author         ID
       rms   OT_Error      Smajor Sminor Az        Err   mdist  Mdist     Err        Err        Err      Quality

2011/05/22 10:33:54.3     42.9277   -1.3160      2.0       6    3 287  Ml 1.1  1  Md 1.0  2              js067245    259536

      0.24   +-  0.51      10.2    3.8   52.31 +-  0.0    0.20   1.22   +-         +-0.1                 m i ke

PYRENEES
Sta     Dist  EvAz     Phase      Date       Time     TRes  Azim  AzRes  Slow  SRes Def   SNR       Amp   Per   Mag1   Mag2       ID
SJPF  000.20 019.8 m E Pg      2011/05/22 10:33:58.5   0.2                          T                                        4698753
SJPF  000.20 019.8 m E Sg      2011/05/22 10:34:00.5  -0.5                          T               10.2  .26        Md 1.1  4698754
ETSF  000.56 092.7 m E Pg      2011/05/22 10:34:04.9   0.0                          T                                        4698751
ETSF  000.56 092.7 m E Sg      2011/05/22 10:34:12.6   0.3                          T                 .6  .26        Md 1.0  4698752
EPF   001.22 084.6 m E Pg      2011/05/22 10:34:16.9  -0.2                          T                                        4698749
EPF   001.22 084.6 m E Sg      2011/05/22 10:34:33.1   0.2                          T                 .3  .20 Ml 1.1         4698750

.
EVENT     259538
    Date      Time       Latitude Longitude    Depth    Ndef Nsta Gap    Mag1  N    Mag2  N    Mag3  N   Author         ID
       rms   OT_Error      Smajor Sminor Az        Err   mdist  Mdist     Err        Err        Err      Quality

2011/05/22 13:06:37.6     38.3383   -8.1237      2.0     117    7 061  Ml 2.9  3                         js067245    259538

      1.23   +-  0.14       2.8    2.3   68.51 +-  0.0    0.21  11.02   +-0.2                            m i ke

PORTUGAL
Sta     Dist  EvAz     Phase      Date       Time     TRes  Azim  AzRes  Slow  SRes Def   SNR       Amp   Per   Mag1   Mag2       ID
SJPF  007.08 045.5 m E Pn      2011/05/22 13:08:20.6   0.7                          T                                        4698765
SJPF  007.08 045.5 m E Sn      2011/05/22 13:09:36.0  -0.3                          T                1.3  .32 Ml 2.9         4698761
ETSF  007.34 049.2 m E Pn      2011/05/22 13:08:24.0   0.7                          T                                        4698764
ETSF  007.34 049.2 m E Sn      2011/05/22 13:09:41.8  -0.5                          T                 .8  .32 Ml 2.7         4698760
EPF   007.96 051.2 m E Pn      2011/05/22 13:08:32.3   0.6                          T                                        4698763
EPF   007.96 051.2 m E Sn      2011/05/22 13:09:57.0  -0.1                          T                1.9  .41 Ml 3.1         4698762
QUIF  010.23 019.1 m E Pn      2011/05/22 13:09:02.4  -0.3                          T                                        4698768
ROSF  010.60 017.9 m E Pn      2011/05/22 13:09:06.6  -1.1                          T                                        4698766
SGMF  010.71 020.4 m E Pn      2011/05/22 13:09:08.7  -0.4                          T                                        4698767
TCF   011.02 040.6 m E Pn      2011/05/22 13:09:13.3  -0.1                          T                                        4698769

.
EVENT     259539
    Date      Time       Latitude Longitude    Depth    Ndef Nsta Gap    Mag1  N    Mag2  N    Mag3  N   Author         ID
       rms   OT_Error      Smajor Sminor Az        Err   mdist  Mdist     Err        Err        Err      Quality

2011/05/22 14:45:13.3     43.0244   -1.2648      2.0     146   29 039  Ml 3.4 28  Md 3.2  2              js067245    259539

      0.80   +-  0.05       1.4    1.1  149.84 +-  0.0    0.09   8.03   +-0.3      +-0.1                 m i ke

PYRENEES
Sta     Dist  EvAz     Phase      Date       Time     TRes  Azim  AzRes  Slow  SRes Def   SNR       Amp   Per   Mag1   Mag2       ID
SJPF  000.09 018.2 m E Pg      2011/05/22 14:45:16.0   0.6                          T                                        4698813
SJPF  000.09 018.2 m E Sg      2011/05/22 14:45:17.8   1.0                          T   001.0     6641.4  .24        Md 3.2  4694279
ETSF  000.53 103.4 m E Pg      2011/05/22 14:45:22.4  -1.1                          T                                        4698812
ETSF  000.53 103.4 m E Sg      2011/05/22 14:45:29.7  -0.9                          T   001.0      434.1  .28        Md 3.1  4694272
EPF   001.18 089.2 m E Pn      2011/05/22 14:45:34.4  -0.8                          T   001.0                                4694252
EPF   001.18 089.2 m E Sg      2011/05/22 14:45:50.4  -0.2                          T   001.0      191.3  .24 Ml 3.8         4694253
LFF   002.40 036.4 m E Pn      2011/05/22 14:45:51.4  -0.3                          T   001.0                                4694261
LFF   002.40 036.4 m E Sn      2011/05/22 14:46:19.3  -0.7                          T                                        4698797
LFF   002.40 036.4 m E Sg      2011/05/22 14:46:28.7   0.0                          T   001.0       56.1  .24 Ml 3.5         4694262
MTLF  002.57 081.7 m E Pn      2011/05/22 14:45:54.5   0.5                          T   001.0                                4694273
MTLF  002.57 081.7 m E Pg      2011/05/22 14:45:57.1  -3.8                          T                                        4698811
MTLF  002.57 081.7 m E Sn      2011/05/22 14:46:24.2   0.2                          T               27.6  .24 Ml 3.4         4698795
RJF   003.03 040.3 m E Pn      2011/05/22 14:45:59.9  -0.5                          T   001.0                                4694244
RJF   003.03 040.3 m E Sn      2011/05/22 14:46:34.9  -0.2                          T   001.0       53.8  .24 Ml 3.5         4694245
CAF   003.06 050.5 m E Pn      2011/05/22 14:46:00.9   0.1                          T   001.0                                4694250
CAF   003.06 050.5 m E P       2011/05/22 14:46:03.4  -0.4                          T                                        4698796
CAF   003.06 050.5 m E Sn      2011/05/22 14:46:35.6  -0.4                          T   001.0       23.6  .24 Ml 3.4         4694251
MFF   003.67 012.2 m E Pn      2011/05/22 14:46:09.0   0.0                          T   001.0                                4694267
MFF   003.67 012.2 m E Sn      2011/05/22 14:46:50.1  -0.1                          T               12.8  .22 Ml 3.5         4698798
LASF  003.87 072.5 m E Pn      2011/05/22 14:46:11.7  -0.1                          T   001.0                                4694258
LASF  003.87 072.5 m E Sn      2011/05/22 14:46:54.1  -1.1                          T               14.4  .30 Ml 3.3         4698794
TCF   004.10 036.0 m E Pn      2011/05/22 14:46:14.5  -0.4                          T   001.0                                4694270
TCF   004.10 036.0 m E Sn      2011/05/22 14:46:59.8  -0.8                          T   001.0         15  .28 Ml 3.4         4694271
BGF   004.59 038.2 m E Pn      2011/05/22 14:46:21.0  -0.5                          T   001.0                                4694248
BGF   004.59 038.2 m E Sn      2011/05/22 14:47:11.8  -0.4                          T               56.9  .32 Ml 4.0         4698803
BGF   004.59 038.2 m E Sg      2011/05/22 14:47:36.8  -0.2                          T   001.0       53.9  .36 Ml 4.0         4694249
VIVF  004.66 064.8 m E Pn      2011/05/22 14:46:22.0   0.4                          T   001.0                                4694280
VIVF  004.66 064.8 m E Sn      2011/05/22 14:47:13.4  -0.7                          T   001.0                                4694281
VIVF  004.66 064.8 m E Sg      2011/05/22 14:47:39.3  -0.1                          T   001.0        8.4  .36 Ml 3.2         4694282
AVF   004.99 039.5 m E Pn      2011/05/22 14:46:26.9  -0.1                          T   001.0                                4694246
AVF   004.99 039.5 m E Sn      2011/05/22 14:47:21.2  -0.7                          T   001.0       11.6  .44 Ml 3.3         4694247
HYF   005.06 031.7 m E Pn      2011/05/22 14:46:27.8  -0.3                          T                                        4698807
SMRF  005.07 076.8 m E Pn      2011/05/22 14:46:28.1  -0.1                          T                                        4698810
SMRF  005.07 076.8 m E Sn      2011/05/22 14:47:24.2   0.4                          T   001.0        3.3  .32 Ml 2.9         4694283
QUIF  005.07 345.4 m E Pn      2011/05/22 14:46:28.3   0.2                          T   001.0                                4694275
QUIF  005.07 345.4 m E Sn      2011/05/22 14:47:23.5  -0.3                          T   001.0       10.6  .24 Ml 3.5         4694276
GRR   005.37 002.9 m E Pn      2011/05/22 14:46:31.0  -1.2                          T   001.0                                4694256
GRR   005.37 002.9 m E Sn      2011/05/22 14:47:30.5  -0.5                          T   001.0        5.6  .28 Ml 3.1         4694257
SGMF  005.31 350.6 m E Pn      2011/05/22 14:46:31.5   0.2                          T   001.0                                4694278
SSF   005.26 038.3 m E Pn      2011/05/22 14:46:31.5   0.7                          T   001.0                                4694269
SSF   005.26 038.3 m E Sn      2011/05/22 14:47:28.7   0.3                          T                8.1  .36 Ml 3.4         4698805
SGMF  005.31 350.6 m E Sn      2011/05/22 14:47:29.7   0.3                          T                4.9  .28 Ml 3.2         4698800
ROSF  005.50 345.9 m E Pn      2011/05/22 14:46:34.1   0.2                          T   001.0                                4694277
ROSF  005.50 345.9 m E Sn      2011/05/22 14:47:33.5  -0.4                          T                4.8  .15 Ml 3.5         4698801
ORIF  005.49 067.4 m E Pn      2011/05/22 14:46:35.1   1.1                          T   001.0                                4694274
ORIF  005.49 067.4 m E Sn      2011/05/22 14:47:33.9  -0.1                          T                3.8  .41 Ml 3.0         4698793
LOR   005.58 038.7 m E Pn      2011/05/22 14:46:35.6   0.5 223.0  0.6               T   001.0                                4694265
LOR   005.58 038.7 m E Sn      2011/05/22 14:47:36.4   0.4                          T                4.0  .24 Ml 3.2         4698806
LDF   005.63 007.8 m E Pn      2011/05/22 14:46:36.1   0.4                          T   001.0                                4694259
LDF   005.63 007.8 m E Sn      2011/05/22 14:47:35.8  -1.3                          T   001.0        3.8  .24 Ml 3.2         4694260
LMR   005.69 084.2 m E Pn      2011/05/22 14:46:37.0   0.4                          T   001.0                                4694263
LMR   005.69 084.2 m E Sn      2011/05/22 14:47:39.8   1.1                          T   001.0        3.9  .48 Ml 3.0         4694264
FLN   005.77 005.2 m E Pn      2011/05/22 14:46:38.1   0.5 186.0  0.3               T   001.0                                4694254
FLN   005.77 005.2 m E Sn      2011/05/22 14:47:40.7   0.4                          T                2.4  .17 Ml 3.1         4698799
FRF   005.80 082.0 m E Pn      2011/05/22 14:46:38.8   0.8                          T   001.0                                4694255
LPL   006.26 063.8 m E Pn      2011/05/22 14:46:44.6   0.1                          T                                        4698809
LPL   006.26 063.8 m E Sg      2011/05/22 14:48:26.9  -2.5                          T   001.0        4.2  .64 Ml 3.0         4694266
PGF   007.57 090.1 m E Pn      2011/05/22 14:47:03.2   0.9                          T   001.0                                4694268
PGF   007.57 090.1 m E Sn      2011/05/22 14:48:23.5   0.0                          T                5.2  .42 Ml 3.7         4698792
SMF   005.13 043.3 m E Sn      2011/05/22 14:47:25.4   0.2                          T                6.2  .34 Ml 3.2         4698804

.
EVENT     259545
    Date      Time       Latitude Longitude    Depth    Ndef Nsta Gap    Mag1  N    Mag2  N    Mag3  N   Author         ID
       rms   OT_Error      Smajor Sminor Az        Err   mdist  Mdist     Err        Err        Err      Quality

2011/05/22 15:46:46.7     44.6519    9.4275      2.0      38   19 082  Ml 2.7 17                         js067245    259545

      0.53   +-  0.20       4.0    3.0   95.53 +-  0.0    1.31   5.33   +-0.2                            m i ke

NORTHERN ITALY
Sta     Dist  EvAz     Phase      Date       Time     TRes  Azim  AzRes  Slow  SRes Def   SNR       Amp   Per   Mag1   Mag2       ID
SBF   001.63 241.8 m E Pn      2011/05/22 15:47:14.3  -0.5                          T   001.0                                4694495
SBF   001.63 241.8 m E Sn      2011/05/22 15:47:35.4   0.3                          T               31.5  .36 Ml 3.0         4698828
MBDF  001.90 273.2 m E Pn      2011/05/22 15:47:18.9   0.4                          T   001.0                                4694501
MBDF  001.90 273.2 m E Sn      2011/05/22 15:47:41.6   0.1                          T               11.7  .42 Ml 2.6         4698832
PGF   002.13 188.6 m E Pn      2011/05/22 15:47:19.9  -1.6                          T   001.0                                4694493
PGF   002.13 188.6 m E Sn      2011/05/22 15:47:46.7  -0.3                          T   001.0        1.7  .25 Ml 2.3         4694494
LPG   002.08 295.0 m E Pn      2011/05/22 15:47:20.4  -0.7                          T   001.0                                4694491
LPG   002.08 295.0 m E Sn      2011/05/22 15:47:46.7   0.7                          T                9.0  .42 Ml 2.5         4698830
LPL   002.10 295.3 m E Pn      2011/05/22 15:47:20.9  -0.4                          T   001.0                                4694492
LPL   002.10 295.3 m E Sn      2011/05/22 15:47:46.9   0.5                          T               15.7  .42 Ml 2.8         4698831
FRF   002.28 242.4 m E Pn      2011/05/22 15:47:22.9  -0.6                          T   001.0                                4694485
FRF   002.28 242.4 m E Sn      2011/05/22 15:47:50.2  -0.3                          T   001.0        9.8  .40 Ml 2.7         4694486
LMR   002.48 239.0 m E Pn      2011/05/22 15:47:25.9  -0.4                          T   001.0                                4694487
LMR   002.48 239.0 m E Sn      2011/05/22 15:47:54.8  -0.6                          T   001.0          7  .44 Ml 2.5         4694488
ORIF  002.54 277.3 m E Pn      2011/05/22 15:47:27.4   0.2                          T   001.0                                4694502
ORIF  002.54 277.3 m E Sn      2011/05/22 15:47:56.9   0.0                          T   001.0         12  .40 Ml 2.8         4694503
SMRF  002.85 257.6 m E Pn      2011/05/22 15:47:31.6   0.3                          T   001.0                                4694506
SMRF  002.85 257.6 m E Sn      2011/05/22 15:48:04.7   0.6                          T                5.3  .42 Ml 2.5         4698829
CABF  003.05 311.1 m E Pn      2011/05/22 15:47:34.4   0.2                          T   001.0                                4694498
CABF  003.05 311.1 m E Sn      2011/05/22 15:48:08.6  -0.5                          T   001.0        8.7  .60 Ml 2.6         4694499
VIVF  003.39 275.1 m E Pn      2011/05/22 15:47:39.4   0.7                          T   001.0                                4694504
VIVF  003.39 275.1 m E Sn      2011/05/22 15:48:17.2   0.1                          T   001.0        3.2  .48 Ml 2.3         4694505
HINF  003.63 331.5 m E Pn      2011/05/22 15:47:42.0   0.0                          T   001.0                                4694500
HINF  003.63 331.5 m E Sn      2011/05/22 15:48:22.9  -0.1                          T                4.3  .34 Ml 2.7         4698833
HAU   003.98 328.6 m E Pn      2011/05/22 15:47:46.4  -0.2                          T                                        4698817
HAU   003.98 328.6 m E Sn      2011/05/22 15:48:31.3   0.3                          T                9.9  .40 Ml 2.8         4698834
CDF   004.04 339.2 m E Pn      2011/05/22 15:47:46.5  -1.1                          T   001.0                                4694483
CDF   004.04 339.2 m E Sn      2011/05/22 15:48:32.7  -0.1                          T   001.0        4.7  .48 Ml 2.8         4694484
SMF   004.40 298.9 m E Pn      2011/05/22 15:47:52.5   0.2                          T   001.0                                4694496
LOR   004.68 305.9 m E Pn      2011/05/22 15:47:55.5  -0.7                          T   001.0                                4694489
LOR   004.68 305.9 m E Sn      2011/05/22 15:48:47.7  -0.2                          T   001.0        2.3  .24 Ml 2.8         4694490
AVF   004.76 298.8 m E Pn      2011/05/22 15:47:57.5   0.2                          T   001.0                                4694481
BGF   005.00 294.7 m E Pn      2011/05/22 15:48:01.0   0.6                          T                                        4698835
BGF   005.00 294.7 m E Sg      2011/05/22 15:49:22.9  -0.2                          T   001.0        4.5  .20 Ml 3.2         4694482
TCF   005.33 290.4 m E Sn      2011/05/22 15:49:04.9   1.3                          T   001.0        1.8  .32 Ml 2.7         4694497

.
