EVENT     286209
    Date      Time       Latitude Longitude    Depth    Ndef Nsta Gap    Mag1  N    Mag2  N    Mag3  N   Author         ID
       rms   OT_Error      Smajor Sminor Az        Err   mdist  Mdist     Err        Err        Err      Quality

2012/10/26 18:23:55.4     50.3697    7.3858     11.0 f    47   12 041  Ml 2.3 11  Md 2.5  1              bulletin    286309
                                                                                                         _ldg
      0.57   +-  0.08       1.5    1.5  125.40 +-  0.0    0.17   5.37   +-0.2      +-                    m i ke

GERMANY
Sta     Dist  EvAz     Phase      Date       Time     TRes  Azim  AzRes  Slow  SRes Def   SNR       Amp   Per   Mag1   Mag2       ID
GIVF  001.67 261.7 m E Pg      2012/10/26 18:24:26.1  -0.4                          T                                        5109034
GIVF  001.67 261.7 m E Sn      2012/10/26 18:24:43.5   0.5                          T               10.4  .26 Ml 2.7 Md 2.5  5109030
PAGF  002.12 211.4 m E Pn      2012/10/26 18:24:29.5   0.5  26.8  -3.4              T                                        5109027
PAGF  002.12 211.4 m E Pg      2012/10/26 18:24:35.1   0.3                          T                                        5109026
PAGF  002.12 211.4 m E Sg      2012/10/26 18:25:02.3   0.3                          T                2.6  .23 Ml 2.3         5109025
CDF   001.96 182.1 m E Pg      2012/10/26 18:24:31.2  -0.8                          T                                        5109033
CDF   001.96 182.1 m E Sn      2012/10/26 18:24:50.5   0.4                          T                                        5109029
CDF   001.96 182.1 m E Sg      2012/10/26 18:24:57.6   0.3                          T                1.6  .20 Ml 2.2         5109028
MEZF  002.41 220.1 m E Pn      2012/10/26 18:24:33.4   0.4                          T                                        5109021
MEZF  002.41 220.1 m E Pg      2012/10/26 18:24:40.4   0.3  40.1  1.8               T                                        5109020
MEZF  002.41 220.1 m E Sn      2012/10/26 18:25:01.3   0.5                          T                1.3  .19 Ml 2.1         5109019
BAIF  002.07 262.6 m E Pg      2012/10/26 18:24:34.0   0.2                          T                                        5109032
BAIF  002.07 262.6 m E Sn      2012/10/26 18:24:53.2   0.8                          T                7.1  .36 Ml 2.5         5109031
HINF  002.58 188.0 m E Pn      2012/10/26 18:24:35.7   0.3                          T                                        5109024
HINF  002.58 188.0 m E Pg      2012/10/26 18:24:42.7  -0.6                          T                                        5117125
HINF  002.58 188.0 m E Sn      2012/10/26 18:25:05.2   0.3                          T                                        5109023
HINF  002.58 188.0 m E Sg      2012/10/26 18:25:16.5   0.0                          T                2.5  .26 Ml 2.3         5109022
LOR   003.88 218.2 m E Pn      2012/10/26 18:24:53.4   0.3                          T                                        5109018
LOR   003.88 218.2 m E Sn      2012/10/26 18:25:36.2   0.3                          T                 .5  .18 Ml 2.1         5109017
LOR   003.88 218.2 m E Sg      2012/10/26 18:25:56.6  -0.5                          T                1.5  .37 Ml 2.3         5117121
SSF   004.19 219.3 m E Pn      2012/10/26 18:24:57.7   0.5                          T                                        5109016
SSF   004.19 219.3 m E Sn      2012/10/26 18:25:43.5   0.3                          T                 .5  .21 Ml 2.1         5109015
AVF   004.47 218.3 m E P       2012/10/26 18:25:04.9   0.0                          T                                        5117124
LDF   005.21 252.9 m E Pn      2012/10/26 18:25:11.0   0.0                          T                                        5117123
FLN   005.37 255.6 m E Pn      2012/10/26 18:25:12.9  -0.3                          T                                        5117122
SFTF  002.66 216.2 m E Sg      2012/10/26 18:25:18.7  -0.1                          T                3.2  .28 Ml 2.4         5117126

.
EVENT     286210
    Date      Time       Latitude Longitude    Depth    Ndef Nsta Gap    Mag1  N    Mag2  N    Mag3  N   Author         ID
       rms   OT_Error      Smajor Sminor Az        Err   mdist  Mdist     Err        Err        Err      Quality

2012/10/26 18:24:22.9     50.3671    7.3857     10.0       9    3 054  Ml 2.0  3                         bulletin    286310
                                                                                                         _ldg
      0.27   +-  0.06       1.3    1.0  151.62 +-  0.0    0.16   2.06   +-0.2                            m i ke

GERMANY
Sta     Dist  EvAz     Phase      Date       Time     TRes  Azim  AzRes  Slow  SRes Def   SNR       Amp   Per   Mag1   Mag2       ID
GIVF  001.67 261.8 m E Sn      2012/10/26 18:25:11.0   0.4                          T                2.4  .18 Ml 2.2         5109013
CDF   001.96 182.1 m E Sn      2012/10/26 18:25:17.8   0.0                          T                 .8  .26 Ml 1.8         5109012
BAIF  002.06 262.6 m E Sn      2012/10/26 18:25:20.5   0.4                          T                                        5109011
BAIF  002.06 262.6 m E Sg      2012/10/26 18:25:28.2   0.3                          T                 .7  .18 Ml 1.8         5109014

.
EVENT     285908
    Date      Time       Latitude Longitude    Depth    Ndef Nsta Gap    Mag1  N    Mag2  N    Mag3  N   Author         ID
       rms   OT_Error      Smajor Sminor Az        Err   mdist  Mdist     Err        Err        Err      Quality

2012/10/26 20:21:56.3     43.0247    -.3276      2.0      10    5 144  Ml 1.6  2  Md 1.5  3              bulletin    286008
                                                                                                         _ldg
      0.26   +-  0.09       3.7    1.5  165.86 +-  0.0    0.21   2.06   +-0.2      +-0.2                 m i ke

PYRENEES
Sta     Dist  EvAz     Phase      Date       Time     TRes  Azim  AzRes  Slow  SRes Def   SNR       Amp   Per   Mag1   Mag2       ID
ETSF  000.21 233.5 m E Pg      2012/10/26 20:22:00.7   0.0                          T                                        5105160
ETSF  000.21 233.5 m E Sg      2012/10/26 20:22:04.1   0.5                          T                9.2  .29        Md 1.7  5105159
EPF   000.49 089.1 m E Pg      2012/10/26 20:22:05.9   0.1                          T                                        5105157
EPF   000.49 089.1 m E Sg      2012/10/26 20:22:13.6   1.4                          T                2.0  .23        Md 1.3  5105158
SJPF  000.66 278.0 m E Pg      2012/10/26 20:22:08.6  -0.3                          T                                        5105155
SJPF  000.66 278.0 m E Sg      2012/10/26 20:22:17.7   0.1                          T                1.5  .21        Md 1.3  5105154
MTLF  001.89 079.5 m E Pn      2012/10/26 20:22:27.8   0.0                          T                                        5105156
MTLF  001.89 079.5 m E Sg      2012/10/26 20:22:55.4  -0.4                          T                 .4  .20 Ml 1.5         5105163
LFF   002.06 021.6 m E Sg      2012/10/26 20:23:01.8   0.6                          T                1.3  .23 Ml 1.8         5105162

.
EVENT     285909
    Date      Time       Latitude Longitude    Depth    Ndef Nsta Gap    Mag1  N    Mag2  N    Mag3  N   Author         ID
       rms   OT_Error      Smajor Sminor Az        Err   mdist  Mdist     Err        Err        Err      Quality

2012/10/26 23:34:57.8     45.7477    7.0735      5.0 f    58   15 051  Ml 2.4 16  Md 2.3  4              bulletin    286009
                                                                                                         _ldg
      0.35   +-  0.04        .9     .8  102.44 +-  0.0    0.04   3.05   +-0.3      +-0.2                 m i ke

NORTHERN ITALY
Sta     Dist  EvAz     Phase      Date       Time     TRes  Azim  AzRes  Slow  SRes Def   SNR       Amp   Per   Mag1   Mag2       ID
LPL   000.33 226.1 m E Pg      2012/10/26 23:35:04.3  -0.3                          T                                        5105183
LPL   000.33 226.1 m E Sg      2012/10/26 23:35:08.7  -0.4                          T               40.5  .24        Md 2.4  5105181
LPG   000.34 222.2 m E Pg      2012/10/26 23:35:04.4  -0.3                          T                                        5105182
LPG   000.34 222.2 m E Sg      2012/10/26 23:35:08.6  -0.7                          T               47.7  .18        Md 2.6  5105180
MBDF  001.04 191.9 m E Pg      2012/10/26 23:35:17.5   0.0                          T                                        5105178
MBDF  001.04 191.9 m E Sg      2012/10/26 23:35:30.8  -0.3                          T               12.4  .31 Ml 2.4 Md 2.0  5105175
CABF  001.10 321.9 m E Pg      2012/10/26 23:35:18.7   0.2                          T                                        5105173
CABF  001.10 321.9 m E P       2012/10/26 23:35:20.4   0.3                          T                                        5117148
CABF  001.10 321.9 m E Sg      2012/10/26 23:35:33.5   0.6                          T               25.0  .20 Ml 3.0         5105164
ORIF  001.18 225.8 m E Pg      2012/10/26 23:35:19.9  -0.1                          T                                        5105179
ORIF  001.18 225.8 m E Sg      2012/10/26 23:35:35.2  -0.2                          T               19.0  .28 Ml 2.7 Md 2.2  5105176
VIVF  001.91 243.1 m E Pn      2012/10/26 23:35:29.6   0.2                          T                                        5105177
VIVF  001.91 243.1 m E Pg      2012/10/26 23:35:33.5   0.1                          T                                        5117145
VIVF  001.91 243.1 m E Sg      2012/10/26 23:35:58.2   0.1                          T                6.3  .26 Ml 2.6         5105174
HINF  002.08 355.9 m E Pg      2012/10/26 23:35:36.2  -0.3                          T                                        5105172
HINF  002.08 355.9 m E Sn      2012/10/26 23:35:56.6   0.3                          T                1.6  .27 Ml 2.0         5105165
HINF  002.08 355.9 m E Sg      2012/10/26 23:36:03.4   0.3                          T                6.2  .31 Ml 2.5         5117154
FRF   002.21 188.1 m E Pg      2012/10/26 23:35:38.5  -0.3                          T                                        5117144
FRF   002.21 188.1 m E Sg      2012/10/26 23:36:06.9  -0.3                          T                5.1  .36 Ml 2.4         5117159
CDF   002.67 002.9 m E Pn      2012/10/26 23:35:40.2   0.5                          T                                        5105167
CDF   002.67 002.9 m E Pg      2012/10/26 23:35:48.0   0.5                          T                                        5117150
CDF   002.67 002.9 m E Sn      2012/10/26 23:36:10.7   0.2                          T                 .8  .29 Ml 1.9         5105166
CDF   002.67 002.9 m E Sg      2012/10/26 23:36:22.1   0.4                          T                1.4  .29 Ml 2.1         5117152
LOR   002.69 305.6 m E Pn      2012/10/26 23:35:40.6   0.7                          T                                        5105171
LOR   002.69 305.6 m E Pg      2012/10/26 23:35:47.4  -0.3                          T                                        5117149
LOR   002.69 305.6 m E Sn      2012/10/26 23:36:11.0   0.0                          T                1.5  .25 Ml 2.2         5105170
LOR   002.69 305.6 m E Sg      2012/10/26 23:36:22.6   0.3                          T                3.7  .23 Ml 2.6         5117151
SMF   002.42 293.0 m E Pg      2012/10/26 23:35:42.8   0.1                          T                                        5117146
SMF   002.42 293.0 m E Sn      2012/10/26 23:36:04.2  -0.2                          T                                        5117157
SMF   002.42 293.0 m E Sg      2012/10/26 23:36:13.7  -0.1                          T                4.6  .29 Ml 2.5         5117158
SSF   002.80 299.3 m E P       2012/10/26 23:35:44.5   0.4                          T                                        5105169
SSF   002.80 299.3 m E Sn      2012/10/26 23:36:13.7   0.3                          T                1.1  .23 Ml 2.1         5105168
AVF   002.78 293.3 m E Pg      2012/10/26 23:35:49.2  -0.1                          T                                        5117147
AVF   002.78 293.3 m E Sg      2012/10/26 23:36:25.4   0.3                          T                3.0  .25 Ml 2.5         5117155
SFTF  002.83 331.2 m E Sg      2012/10/26 23:36:26.9   0.4                          T                3.4  .27 Ml 2.5         5117153
BGF   003.05 286.9 m E Sg      2012/10/26 23:36:33.7   0.3                          T                7.5  .35 Ml 2.8         5117156

.
EVENT     285911
    Date      Time       Latitude Longitude    Depth    Ndef Nsta Gap    Mag1  N    Mag2  N    Mag3  N   Author         ID
       rms   OT_Error      Smajor Sminor Az        Err   mdist  Mdist     Err        Err        Err      Quality

2012/10/27 17:33:28.2     43.5127    -.0061      2.0       7    4 209  Ml 1.9  2  Md 1.7  2              bulletin    286011
                                                                                                         _ldg
      0.18   +-  0.19       4.3    1.7  161.87 +-  0.0    0.54   1.63   +-0.0      +-0.2                 m i ke

PYRENEES
Sta     Dist  EvAz     Phase      Date       Time     TRes  Azim  AzRes  Slow  SRes Def   SNR       Amp   Per   Mag1   Mag2       ID
EPF   000.54 152.2 m E Pg      2012/10/27 17:33:38.4  -0.3                          T                                        5105193
EPF   000.54 152.2 m E Sg      2012/10/27 17:33:46.1   0.3                          T               14.4  .18        Md 1.8  5105192
ETSF  000.74 213.6 m E Pg      2012/10/27 17:33:42.2   0.0                          T                                        5105187
ETSF  000.74 213.6 m E Sg      2012/10/27 17:33:52.0   0.2                          T                4.0  .21        Md 1.5  5105186
MTLF  001.63 095.3 m E Pg      2012/10/27 17:33:58.6   0.0                          T                                        5117161
MTLF  001.63 095.3 m E Sg      2012/10/27 17:34:19.8   0.2                          T                1.5  .22 Ml 1.9         5117162
SJPF  000.98 246.2 m E Sg      2012/10/27 17:33:59.1   0.0                          T                3.4  .29 Ml 1.9         5117160

.
EVENT     285977
    Date      Time       Latitude Longitude    Depth    Ndef Nsta Gap    Mag1  N    Mag2  N    Mag3  N   Author         ID
       rms   OT_Error      Smajor Sminor Az        Err   mdist  Mdist     Err        Err        Err      Quality

2012/10/28 04:30:20.0     43.0923   -1.4566      2.0      23    5 080  Ml 1.8  3  Md 1.9  2              bulletin    286077
                                                                                                         _ldg
      0.40   +-  0.09       1.7    1.6   27.97 +-  0.0    0.13   3.08   +-0.3      +-0.1                 m i ke

PYRENEES
Sta     Dist  EvAz     Phase      Date       Time     TRes  Azim  AzRes  Slow  SRes Def   SNR       Amp   Per   Mag1   Mag2       ID
SJPF  000.17 082.9 m E Pg      2012/10/28 04:30:23.8   0.3                          T                                        5105875
SJPF  000.17 082.9 m E Sg      2012/10/28 04:30:26.7   0.8                          T               66.9  .21        Md 2.0  5105874
ETSF  000.69 106.1 m E Pg      2012/10/28 04:30:32.5  -0.5                          T                                        5105873
ETSF  000.69 106.1 m E Sg      2012/10/28 04:30:42.4   0.4                          T                3.3  .17        Md 1.8  5105872
EPF   001.32 092.1 m E Pg      2012/10/28 04:30:44.5  -0.1                          T                                        5105881
EPF   001.32 092.1 m E Sg      2012/10/28 04:31:01.6  -0.1                          T                2.6  .19 Ml 2.1         5105880
MTLF  002.70 083.5 m E Pn      2012/10/28 04:31:02.8   0.3                          T                                        5105879
MTLF  002.70 083.5 m E Sn      2012/10/28 04:31:33.7  -0.1                          T                 .6  .25 Ml 1.7         5105878
RJF   003.08 043.0 m E Pn      2012/10/28 04:31:07.3  -0.4                          T                                        5105877
RJF   003.08 043.0 m E Sn      2012/10/28 04:31:42.8   0.0                          T                 .6  .19 Ml 1.6         5105876

.
EVENT     285912
    Date      Time       Latitude Longitude    Depth    Ndef Nsta Gap    Mag1  N    Mag2  N    Mag3  N   Author         ID
       rms   OT_Error      Smajor Sminor Az        Err   mdist  Mdist     Err        Err        Err      Quality

2012/10/28 04:47:26.2     42.0761    9.2265      2.0      12    5 322  Ml 2.8  4  Md 2.4  1              bulletin    286012
                                                                                                         _ldg
      0.52   +-  0.35       6.0    4.5  123.50 +-  0.0    0.50   3.20   +-0.2      +-                    m i ke

CORSICA, FRANCE
Sta     Dist  EvAz     Phase      Date       Time     TRes  Azim  AzRes  Slow  SRes Def   SNR       Amp   Per   Mag1   Mag2       ID
PGF   000.50 340.4 m E Pg      2012/10/28 04:47:36.2   0.2                          T                                        5105200
PGF   000.50 340.4 m E Sg      2012/10/28 04:47:42.6   0.0                          T              123.9  .22        Md 2.4  5105199
SBF   002.22 324.2 m E Pn      2012/10/28 04:48:02.1  -0.2                          T                                        5105198
SBF   002.22 324.2 m E Sn      2012/10/28 04:48:28.4  -0.3                          T               15.1  .26 Ml 3.0         5105195
LMR   002.36 303.0 m E Pn      2012/10/28 04:48:04.3   0.1                          T                                        5105197
LMR   002.36 303.0 m E Sn      2012/10/28 04:48:31.2  -0.8                          T                5.4  .21 Ml 2.7         5105194
FRF   002.41 308.9 m E Pn      2012/10/28 04:48:04.8   0.0                          T                                        5105196
FRF   002.41 308.9 m E Sn      2012/10/28 04:48:33.1  -0.1                          T                4.9  .26 Ml 2.6         5105205
MBDF  003.20 326.8 m E Pn      2012/10/28 04:48:17.2   1.4                          T                                        5105203
MBDF  003.20 326.8 m E Sn      2012/10/28 04:48:51.9  -0.3                          T               19.0  .74 Ml 2.9         5105204

.
