EVENT     266482
    Date      Time       Latitude Longitude    Depth    Ndef Nsta Gap    Mag1  N    Mag2  N    Mag3  N   Author         ID
       rms   OT_Error      Smajor Sminor Az        Err   mdist  Mdist     Err        Err        Err      Quality

2011/11/20 20:40:18.5     48.3722    9.0046     10.0      35   12 057  Ml 2.2  9  Md 2.4  2              js067245    266502

      0.61   +-  0.08       1.6    1.3  125.02 +-  0.0    0.16   4.55   +-0.3      +-0.2                 m i ke

GERMANY
Sta     Dist  EvAz     Phase      Date       Time     TRes  Azim  AzRes  Slow  SRes Def   SNR       Amp   Per   Mag1   Mag2       ID
LANF  001.00 307.9 m E Pg      2011/11/20 20:40:37.5   0.1                          T                                        4789226
LANF  001.00 307.9 m E Sg      2011/11/20 20:40:50.8   0.4                          T                9.6  .17 Ml 2.6 Md 2.5  4789236
CDF   001.15 272.6 m E Pg      2011/11/20 20:40:39.9  -0.4                          T                                        4789242
CDF   001.15 272.6 m E Sg      2011/11/20 20:40:55.2   0.0                          T                4.6  .16 Ml 2.5 Md 2.3  4789229
HINF  001.55 249.7 m E Pn      2011/11/20 20:40:43.9  -0.6                          T                                        4789239
HINF  001.55 249.7 m E Sg      2011/11/20 20:41:07.2  -0.2                          T                2.7  .20 Ml 2.2         4789238
HAU   001.82 259.3 m E Pg      2011/11/20 20:40:52.3  -0.1                          T                                        4789240
HAU   001.82 259.3 m E Sg      2011/11/20 20:41:16.2   0.4                          T                2.9  .28 Ml 2.0         4789228
PAGF  002.19 276.0 m E Pn      2011/11/20 20:40:53.1  -0.2                          T                                        4789241
PAGF  002.19 276.0 m E Pg      2011/11/20 20:40:59.6   0.4 100.1  6.6               T                                        4790298
PAGF  002.19 276.0 m E Sg      2011/11/20 20:41:27.8   0.4                          T                 .4  .21 Ml 1.5         4789234
RUP   001.85 316.9 m E Pg      2011/11/20 20:40:53.2   0.2                          T                                        4789224
RUP   001.85 316.9 m E Sg      2011/11/20 20:41:16.8   0.0                          T                                        4789235
THEF  002.02 267.0 m E Pg      2011/11/20 20:40:56.3   0.3                          T                                        4789230
THEF  002.02 267.0 m E Sg      2011/11/20 20:41:22.4   0.4                          T                3.4  .27 Ml 2.3         4789237
SFTF  002.65 267.9 m E Pg      2011/11/20 20:41:08.0   0.3                          T                                        4789225
SFTF  002.65 267.9 m E Sg      2011/11/20 20:41:42.2   0.3                          T                3.6  .26 Ml 2.5         4790297
LOR   003.64 254.2 m E Pn      2011/11/20 20:41:26.4  13.4  72.0  1.5               T                                        4789227
LOR   003.64 254.2 m E Sg      2011/11/20 20:42:12.9   0.3                          T                 .8  .22 Ml 2.1         4789223
SMF   003.90 245.6 m E Pg      2011/11/20 20:41:31.1   0.3                          T                                        4789232
CABF  002.65 229.4 m E Sg      2011/11/20 20:41:41.9   0.1                          T                1.0  .23 Ml 2.0         4789233
BGF   004.55 248.8 m E Pg      2011/11/20 20:41:43.3   0.5                          T                                        4789231

.
EVENT     266667
    Date      Time       Latitude Longitude    Depth    Ndef Nsta Gap    Mag1  N    Mag2  N    Mag3  N   Author         ID
       rms   OT_Error      Smajor Sminor Az        Err   mdist  Mdist     Err        Err        Err      Quality

2011/11/20 20:44:53.0     48.3731    9.0091     10.0      33   10 092  Ml 1.7  9  Md 2.2  2              js067245    266687

      0.71   +-  0.07       1.4    1.2  142.56 +-  0.0    0.16   3.64   +-0.4      +-0.2                 m i ke

GERMANY
Sta     Dist  EvAz     Phase      Date       Time     TRes  Azim  AzRes  Slow  SRes Def   SNR       Amp   Per   Mag1   Mag2       ID
LANF  001.00 307.8 m E Pg      2011/11/20 20:45:12.3   0.4                          T                                        4790439
LANF  001.00 307.8 m E Sg      2011/11/20 20:45:25.1   0.1                          T                3.7  .21 Ml 2.1 Md 2.4  4790423
CDF   001.16 272.6 m E Pg      2011/11/20 20:45:14.6  -0.2                          T                                        4790438
CDF   001.16 272.6 m E Sg      2011/11/20 20:45:29.5  -0.3                          T                1.7  .18 Ml 2.0 Md 2.0  4790424
HINF  001.55 249.7 m E Pn      2011/11/20 20:45:18.6  -0.5                          T                                        4790432
HINF  001.55 249.7 m E Pg      2011/11/20 20:45:22.0   0.0                          T                                        4790431
HINF  001.55 249.7 m E Sg      2011/11/20 20:45:41.9  -0.1                          T                1.3  .26 Ml 1.8         4790429
HAU   001.82 259.3 m E Pg      2011/11/20 20:45:27.2   0.2                          T                                        4790433
HAU   001.82 259.3 m E Sg      2011/11/20 20:45:50.9   0.5                          T                1.2  .26 Ml 1.6         4790428
PAGF  002.19 276.0 m E Pn      2011/11/20 20:45:27.7  -0.1                          T                                        4790437
PAGF  002.19 276.0 m E Pg      2011/11/20 20:45:34.4   0.6  94.0  0.5               T                                        4790436
PAGF  002.19 276.0 m E Sg      2011/11/20 20:46:02.6   0.6  92.1  -1.4              T                 .1  .24 Ml 1           4790425
RUP   001.85 316.8 m E Pg      2011/11/20 20:45:27.9   0.4                          T                                        4790440
THEF  002.02 267.0 m E Pg      2011/11/20 20:45:31.0   0.4                          T                                        4790434
THEF  002.02 267.0 m E Sg      2011/11/20 20:45:57.0   0.4                          T                 .8  .21 Ml 1.8         4790427
SFTF  002.66 267.9 m E Pg      2011/11/20 20:45:42.7   0.3                          T                                        4790435
SFTF  002.66 267.9 m E Sg      2011/11/20 20:46:17.0   0.5  96.7  11.8              T                2.1  .29 Ml 2.2         4790426
LOR   003.64 254.2 m E Pn      2011/11/20 20:46:01.1  13.6  73.4  2.9               T                                        4790441
LOR   003.64 254.2 m E Sg      2011/11/20 20:46:47.7   0.4  81.2  10.7              T                 .3  .20 Ml 1.8         4790422
CABF  002.65 229.4 m E Sg      2011/11/20 20:46:16.7   0.2                          T                 .3  .23 Ml 1.5         4790430

.
EVENT     266483
    Date      Time       Latitude Longitude    Depth    Ndef Nsta Gap    Mag1  N    Mag2  N    Mag3  N   Author         ID
       rms   OT_Error      Smajor Sminor Az        Err   mdist  Mdist     Err        Err        Err      Quality

2011/11/20 21:09:46.8     44.3399    7.2662     10.0 f    15    8 182  Ml 1.3  6  Md 1.3  2              js067245    266503

      0.22   +-  0.11       2.6    1.2   79.33 +-  0.0    0.49   1.27   +-0.2      +-0.0                 m i ke

NORTHERN ITALY
Sta     Dist  EvAz     Phase      Date       Time     TRes  Azim  AzRes  Slow  SRes Def   SNR       Amp   Per   Mag1   Mag2       ID
SBF   000.49 165.6 m E Pg      2011/11/20 21:09:56.4   0.1                          T                                        4789284
SBF   000.49 165.6 m E Sg      2011/11/20 21:10:02.8  -0.1                          T                1.2  .20        Md 1.4  4789291
MBDF  000.52 317.7 m E Pg      2011/11/20 21:09:57.0   0.0                          T                                        4789293
MBDF  000.52 317.7 m E Sg      2011/11/20 21:10:03.7  -0.3                          T                4.2  .31        Md 1.3  4789298
FRF   000.90 210.1 m E Pg      2011/11/20 21:10:03.4  -0.3                          T                                        4789296
FRF   000.90 210.1 m E Sg      2011/11/20 21:10:15.4  -0.1                          T                 .4  .18 Ml 1.2         4789297
ORIF  001.15 300.8 m E Pg      2011/11/20 21:10:08.1  -0.3                          T                                        4789285
ORIF  001.15 300.8 m E Sg      2011/11/20 21:10:23.4   0.2                          T                 .8  .28 Ml 1.3         4789289
LMR   001.15 208.8 m E Pg      2011/11/20 21:10:08.5   0.2                          T                                        4789290
LMR   001.15 208.8 m E Sg      2011/11/20 21:10:22.8  -0.3                          T                 .8  .21 Ml 1.5         4789295
LPL   001.24 342.3 m E Pg      2011/11/20 21:10:10.3   0.1                          T                                        4789286
LPL   001.24 342.3 m E Sg      2011/11/20 21:10:26.3   0.0                          T                 .6  .30 Ml 1.2         4789288
SMRF  001.27 253.9 m E Pg      2011/11/20 21:10:11.0   0.4                          T                                        4789292
SMRF  001.27 253.9 m E Sg      2011/11/20 21:10:27.1   0.0                          T                1.1  .22 Ml 1.6         4789294
LPG   001.21 342.6 m E Sg      2011/11/20 21:10:25.7   0.1                          T                 .3  .21 Ml 1.1         4789287

.
EVENT     266484
    Date      Time       Latitude Longitude    Depth    Ndef Nsta Gap    Mag1  N    Mag2  N    Mag3  N   Author         ID
       rms   OT_Error      Smajor Sminor Az        Err   mdist  Mdist     Err        Err        Err      Quality

2011/11/20 22:42:09.5     49.9263    8.3090     10.0 f    11    4 053  Ml 1.8  3  Md 2.0  2              js067245    266504

      0.41   +-  0.08       1.6    1.4  126.58 +-  0.0    0.24   2.32   +-0.0      +-0.1                 m i ke

GERMANY
Sta     Dist  EvAz     Phase      Date       Time     TRes  Azim  AzRes  Slow  SRes Def   SNR       Amp   Per   Mag1   Mag2       ID
RUP   000.84 254.9 m E Pg      2011/11/20 22:42:25.8   0.3                          T                                        4789304
RUP   000.84 254.9 m E Sg      2011/11/20 22:42:36.5   0.1                          T                                Md 2.1  4789305
CDF   001.66 204.5 m E Pn      2011/11/20 22:42:38.2   1.0                          T                                        4789301
CDF   001.66 204.5 m E Pg      2011/11/20 22:42:40.8   0.2                          T                                        4789302
CDF   001.66 204.5 m E Sg      2011/11/20 22:43:01.0  -1.1                          T                  1  .27 Ml 1.8 Md 1.9  4789303
LANF  001.00 199.3 m E Sg      2011/11/20 22:42:41.8   0.3                          T                2.2  .22 Ml 1.8         4789300
HINF  002.32 205.0 m E Sg      2011/11/20 22:43:22.2  -0.4                          T                 .7  .24 Ml 1.7         4789299

.
EVENT     266487
    Date      Time       Latitude Longitude    Depth    Ndef Nsta Gap    Mag1  N    Mag2  N    Mag3  N   Author         ID
       rms   OT_Error      Smajor Sminor Az        Err   mdist  Mdist     Err        Err        Err      Quality

2011/11/21 04:48:01.9     49.1753    8.1046      3.0 f    41   14 039  Ml 2.2 10                         js067245    266507

      0.50   +-  0.06       1.2    1.0  116.67 +-  0.0    0.02   3.82   +-0.3                            m i ke

GERMANY
Sta     Dist  EvAz     Phase      Date       Time     TRes  Azim  AzRes  Slow  SRes Def   SNR       Amp   Per   Mag1   Mag2       ID
LANF  000.28 225.4 m E Pg      2011/11/21 04:48:07.6   0.2                          T                                        4788953
LANF  000.28 225.4 m E Sg      2011/11/21 04:48:11.4   0.2                          T               13.7  .16                4788954
RUP   000.86 308.1 m E Pg      2011/11/21 04:48:18.3   0.1                          T                                        4788978
RUP   000.86 308.1 m E Sg      2011/11/21 04:48:29.4   0.0                          T                                        4788952
CDF   000.94 216.0 m E Pg      2011/11/21 04:48:19.5  -0.2                          T                                        4788977
CDF   000.94 216.0 m E Pn      2011/11/21 04:48:20.0  -0.5                          T                                        4788951
CDF   000.94 216.0 m E Sg      2011/11/21 04:48:32.0   0.1                          T                5.5  .20 Ml 2.3         4788950
HINF  001.59 211.9 m E Pn      2011/11/21 04:48:28.4  -1.0                          T                                        4788970
HINF  001.59 211.9 m E Pg      2011/11/21 04:48:31.8   0.1                          T                                        4788969
HINF  001.59 211.9 m E Sg      2011/11/21 04:48:52.0  -0.2                          T                4.7  .23 Ml 2.4         4788966
HAU   001.65 225.5 m E Pn      2011/11/21 04:48:29.4  -0.7                          T                                        4788972
HAU   001.65 225.5 m E Pg      2011/11/21 04:48:32.8   0.1                          T                                        4788971
HAU   001.65 225.5 m E Sn      2011/11/21 04:48:50.1  -0.5                          T                                        4788965
HAU   001.65 225.5 m E Sg      2011/11/21 04:48:53.8  -0.3                          T                5.1  .18 Ml 2.3         4788964
THEF  001.69 236.7 m E Pg      2011/11/21 04:48:33.6   0.2                          T                                        4788973
THEF  001.69 236.7 m E Sn      2011/11/21 04:48:50.8  -0.7                          T                                        4788963
THEF  001.69 236.7 m E Sg      2011/11/21 04:48:55.2   0.0                          T                8.5  .24 Ml 2.7         4788962
PAGF  001.69 249.3 m E Pg      2011/11/21 04:48:33.6   0.2  72.9  5.3               T                                        4788976
PAGF  001.69 249.3 m E Sn      2011/11/21 04:48:51.0  -0.5                          T                                        4788957
PAGF  001.69 249.3 m E Sg      2011/11/21 04:48:55.3   0.1                          T                1.9  .33 Ml 1.9         4788956
MEZF  002.13 252.7 m E Pg      2011/11/21 04:48:41.5   0.1                          T                                        4788975
MEZF  002.13 252.7 m E Sn      2011/11/21 04:49:01.5  -0.4                          T                                        4788959
MEZF  002.13 252.7 m E Sg      2011/11/21 04:49:08.6  -0.1                          T                1.9  .25 Ml 2.1         4788958
SFTF  002.25 245.6 m E Pg      2011/11/21 04:48:43.7   0.0                          T                                        4788974
SFTF  002.25 245.6 m E Sn      2011/11/21 04:49:04.4  -0.5                          T                                        4788961
SFTF  002.25 245.6 m E Sg      2011/11/21 04:49:12.7   0.0                          T                2.1  .22 Ml 2.3         4788960
BAIF  002.68 290.7 m E Pg      2011/11/21 04:48:51.8   0.2                          T                                        4788979
LOR   003.42 237.7 m E Pn      2011/11/21 04:48:53.8  -0.4  51.7  -2.8              T                                        4788981
LOR   003.42 237.7 m E Sg      2011/11/21 04:49:49.3   0.0                          T                1.7  .26 Ml 2.3         4788980
SSF   003.74 237.3 m E Pg      2011/11/21 04:49:11.1   0.1                          T                                        4788955
CABF  002.90 208.6 m E Sg      2011/11/21 04:49:33.3   0.1                          T                 .5  .23 Ml 1.8         4788967
SMF   003.82 230.2 m E Sg      2011/11/21 04:50:01.9   0.1                          T                  1  .21 Ml 2.3         4788968

.
EVENT     266488
    Date      Time       Latitude Longitude    Depth    Ndef Nsta Gap    Mag1  N    Mag2  N    Mag3  N   Author         ID
       rms   OT_Error      Smajor Sminor Az        Err   mdist  Mdist     Err        Err        Err      Quality

2011/11/21 04:48:20.2     49.2015    8.0911      3.0 f    31   12 068  Ml 2.4 10  Md 2.3  1              js067245    266508

      0.44   +-  0.05       1.1     .8  119.90 +-  0.0    0.03   3.83   +-0.3      +-                    m i ke

GERMANY
Sta     Dist  EvAz     Phase      Date       Time     TRes  Azim  AzRes  Slow  SRes Def   SNR       Amp   Per   Mag1   Mag2       ID
LANF  000.29 220.5 m E Pg      2011/11/21 04:48:25.8  -0.1                          T                                        4789023
LANF  000.29 220.5 m E Sg      2011/11/21 04:48:29.7  -0.2                          T               29.7  .24        Md 2.3  4789024
RUP   000.84 307.0 m E Pg      2011/11/21 04:48:36.1   0.1                          T                                        4789019
RUP   000.84 307.0 m E Pn      2011/11/21 04:48:37.4   0.0                          T                                        4789020
RUP   000.84 307.0 m E Sg      2011/11/21 04:48:47.0   0.0                          T                                        4789022
RUP   000.84 307.0 m E Sn      2011/11/21 04:48:49.6   0.1                          T                                        4789021
CDF   000.96 214.6 m E Pg      2011/11/21 04:48:38.2   0.0                          T                                        4789014
CDF   000.96 214.6 m E Sg      2011/11/21 04:48:50.6   0.0                          T                                        4789015
CDF   000.96 214.6 m E Sn      2011/11/21 04:48:52.3   0.0                          T                8.4  .21 Ml 2.5         4789016
HINF  001.61 211.2 m E Pg      2011/11/21 04:48:50.3   0.1                          T                                        4789009
HINF  001.61 211.2 m E Sg      2011/11/21 04:49:11.2   0.1                          T                6.9  .26 Ml 2.5         4789006
HAU   001.66 224.7 m E Pg      2011/11/21 04:48:51.0  -0.2                          T                                        4789010
HAU   001.66 224.7 m E Sg      2011/11/21 04:49:12.7   0.0                          T                9.7  .28 Ml 2.4         4789005
PAGF  001.69 248.4 m E Pg      2011/11/21 04:48:51.6   0.0                          T                                        4789013
PAGF  001.69 248.4 m E Sg      2011/11/21 04:49:13.3  -0.1  68.4  1.8               T                2.4  .34 Ml 2.0         4789000
THEF  001.70 235.7 m E Pg      2011/11/21 04:48:51.8   0.0                          T                                        4789011
THEF  001.70 235.7 m E Sg      2011/11/21 04:49:13.6  -0.1                          T                7.8  .21 Ml 2.7         4789004
MEZF  002.13 251.9 m E Pg      2011/11/21 04:48:59.6   0.0  68.3  -1.4              T                                        4789012
MEZF  002.13 251.9 m E Sg      2011/11/21 04:49:27.1   0.1                          T                1.4  .19 Ml 2.1         4789001
SFTF  002.25 244.9 m E Pg      2011/11/21 04:49:01.9  -0.1                          T                                        4789003
SFTF  002.25 244.9 m E Sg      2011/11/21 04:49:30.9  -0.1  58.2  -4.4              T                3.3  .24 Ml 2.4         4789002
LOR   003.43 237.2 m E Pn      2011/11/21 04:49:12.4  -0.1  56.2  2.1               T                                        4789018
LOR   003.43 237.2 m E Sg      2011/11/21 04:50:07.6   0.0  54.1  0.0               T                2.0  .22 Ml 2.5         4789017
CABF  002.92 208.2 m E Sg      2011/11/21 04:49:52.1   0.2                          T                1.0  .32 Ml 1.9         4789007
SMF   003.83 229.8 m E Sg      2011/11/21 04:50:20.4   0.0                          T                1.7  .21 Ml 2.5         4789008

.
