EVENT     292801
    Date      Time       Latitude Longitude    Depth    Ndef Nsta Gap    Mag1  N    Mag2  N    Mag3  N   Author         ID
       rms   OT_Error      Smajor Sminor Az        Err   mdist  Mdist     Err        Err        Err      Quality

2013/02/27 13:59:32.1     43.4652   -1.6659     25.0       6    3 328  Ml 1.8  2  Md 1.8  2              bulletin    292901
                                                                                                         _ldg
      0.31   +-  0.66      12.1   10.9  178.35 +-  0.0    0.48   1.53   +-0.2      +-0.1                 m i ke

PYRENEES
Sta     Dist  EvAz     Phase      Date       Time     TRes  Azim  AzRes  Slow  SRes Def   SNR       Amp   Per   Mag1   Mag2       ID
SJPF  000.48 137.4 m E Pg      2013/02/27 13:59:42.2   0.1                          T                                        5211622
SJPF  000.48 137.4 m E Sg      2013/02/27 13:59:49.3   0.3                          T               10.5  .39        Md 1.9  5211621
ETSF  000.99 124.6 m E Pg      2013/02/27 13:59:48.5  -2.6                          T                                        5211620
ETSF  000.99 124.6 m E Sg      2013/02/27 14:00:03.7  -0.6                          T                1.8  .24 Ml 1.7 Md 1.8  5211619
EPF   001.53 105.8 m E Pg      2013/02/27 14:00:00.8  -0.1                          T                                        5213396
EPF   001.53 105.8 m E Sg      2013/02/27 14:00:21.3   0.5                          T                2.5  .27 Ml 2.0         5211617

.
EVENT     292804
    Date      Time       Latitude Longitude    Depth    Ndef Nsta Gap    Mag1  N    Mag2  N    Mag3  N   Author         ID
       rms   OT_Error      Smajor Sminor Az        Err   mdist  Mdist     Err        Err        Err      Quality

2013/02/27 15:41:15.9     42.7333   -1.7685      2.0      23    5 156  Ml 2.2  4  Md 2.3  2              bulletin    292904
                                                                                                         _ldg
      0.61   +-  0.20       3.9    2.8   13.17 +-  0.0    0.14   3.53   +-0.3      +-0.2                 m i ke

PYRENEES
Sta     Dist  EvAz     Phase      Date       Time     TRes  Azim  AzRes  Slow  SRes Def   SNR       Amp   Per   Mag1   Mag2       ID
SJPF  000.55 046.2 m E Pg      2013/02/27 15:41:26.2  -0.3                          T                                Md 2.4  5211725
SJPF  000.55 046.2 m E Sg      2013/02/27 15:41:33.3  -0.4                          T               27.0  .35                5211724
ETSF  000.91 079.1 m E Pg      2013/02/27 15:41:32.9  -0.2                          T                                        5211723
ETSF  000.91 079.1 m E Sn      2013/02/27 15:41:47.1   0.1                          T                7.5  .28 Ml 2.2 Md 2.2  5211722
EPF   001.58 078.4 m E Pg      2013/02/27 15:41:45.8   0.4                          T                                        5211721
EPF   001.58 078.4 m E Sg      2013/02/27 15:42:06.7   0.9                          T                6.3  .23 Ml 2.5         5211720
RJF   003.50 041.5 m E Pn      2013/02/27 15:42:09.6   0.2                          T                                        5211729
RJF   003.50 041.5 m E Sn      2013/02/27 15:42:48.9   0.1                          T                 .8  .18 Ml 1.9         5211728
CAF   003.53 050.4 m E Pn      2013/02/27 15:42:10.2   0.3                          T                                        5211727
CAF   003.53 050.4 m E Sn      2013/02/27 15:42:49.1  -0.7                          T                1.4  .30 Ml 2.2         5211726

.
EVENT     292805
    Date      Time       Latitude Longitude    Depth    Ndef Nsta Gap    Mag1  N    Mag2  N    Mag3  N   Author         ID
       rms   OT_Error      Smajor Sminor Az        Err   mdist  Mdist     Err        Err        Err      Quality

2013/02/27 17:01:44.4     42.7049   -1.7562      2.0      17    3 158  Ml 1.6  2  Md 1.7  2              bulletin    292905
                                                                                                         _ldg
      0.56   +-  0.20       3.7    2.8    8.77 +-  0.0    0.15   1.58   +-0.1      +-0.2                 m i ke

PYRENEES
Sta     Dist  EvAz     Phase      Date       Time     TRes  Azim  AzRes  Slow  SRes Def   SNR       Amp   Per   Mag1   Mag2       ID
SJPF  000.56 043.5 m E Pg      2013/02/27 17:01:55.1   0.0                          T                                        5211735
SJPF  000.56 043.5 m E Sg      2013/02/27 17:02:02.4  -0.1                          T                2.7  .26        Md 1.8  5211734
ETSF  000.90 077.2 m E Pg      2013/02/27 17:02:01.5   0.1                          T                                        5211733
ETSF  000.90 077.2 m E Sg      2013/02/27 17:02:16.5   3.4                          T                2.1  .31 Ml 1.6 Md 1.5  5211732
EPF   001.58 077.4 m E Pg      2013/02/27 17:02:13.7   0.0                          T                                        5213397
EPF   001.58 077.4 m E Sg      2013/02/27 17:02:34.3   0.2                          T                 .6  .21 Ml 1.5         5211730

.
EVENT     292806
    Date      Time       Latitude Longitude    Depth    Ndef Nsta Gap    Mag1  N    Mag2  N    Mag3  N   Author         ID
       rms   OT_Error      Smajor Sminor Az        Err   mdist  Mdist     Err        Err        Err      Quality

2013/02/27 17:43:28.4     37.0773  -12.9605     30.0 f    48    3 298  Ml 3.4  3  Md 3.9  3              bulletin    292906
                                                                                                         _ldg
      0.94   +-  0.48       9.3    7.7   71.85 +-  0.0    3.30  11.79   +-0.2      +-0.1                 m i ke

NORTH ATLANTIC OCEAN
Sta     Dist  EvAz     Phase      Date       Time     TRes  Azim  AzRes  Slow  SRes Def   SNR       Amp   Per   Mag1   Mag2       ID
SJPF  010.82 052.5 m E Pn      2013/02/27 17:45:59.6   0.7                          T                                        5211741
SJPF  010.82 052.5 m E Sn      2013/02/27 17:47:54.5   2.5                          T                1.7  .56 Ml 3.3 Md 3.9  5211774
ETSF  011.14 054.7 m E Pn      2013/02/27 17:46:04.4   1.0                          T                                        5211740
ETSF  011.14 054.7 m E Sn      2013/02/27 17:48:00.9   1.0                          T                 .6  .26 Ml 3.2 Md 3.8  5211775
EPF   011.79 055.6 m E Pn      2013/02/27 17:46:13.4   1.2                          T                                        5211739
EPF   011.79 055.6 m E Sn      2013/02/27 17:48:17.7   2.3                          T                1.5  .37 Ml 3.6 Md 3.9  5211773

.
EVENT     292807
    Date      Time       Latitude Longitude    Depth    Ndef Nsta Gap    Mag1  N    Mag2  N    Mag3  N   Author         ID
       rms   OT_Error      Smajor Sminor Az        Err   mdist  Mdist     Err        Err        Err      Quality

2013/02/27 21:21:30.7     44.5515    7.2627     13.0 f    31    7 126  Ml 1.6  5                         bulletin    292907
                                                                                                         _ldg
      0.27   +-  0.05       1.2     .8   66.21 +-  0.0    0.05   1.34   +-0.2                            m i ke

NORTHERN ITALY
Sta     Dist  EvAz     Phase      Date       Time     TRes  Azim  AzRes  Slow  SRes Def   SNR       Amp   Per   Mag1   Mag2       ID
MBDF  000.39 296.7 m E Pg      2013/02/27 21:21:38.9   0.2                          T                                        5211779
MBDF  000.39 296.7 m E Sg      2013/02/27 21:21:44.2   0.0                          T                6.1  .32                5211778
LPG   001.01 339.2 m E Pg      2013/02/27 21:21:50.0  -0.2                          T                                        5211785
LPG   001.01 339.2 m E Sg      2013/02/27 21:22:02.8  -0.6                          T                 .7  .28 Ml 1.2         5211786
LPL   001.04 338.9 m E Pg      2013/02/27 21:21:50.6   0.0                          T                                        5211788
LPL   001.04 338.9 m E Sg      2013/02/27 21:22:03.4  -0.6                          T                                        5211787
ORIF  001.05 290.9 m E Pg      2013/02/27 21:21:50.7   0.1                          T                                        5211790
ORIF  001.05 290.9 m E Sg      2013/02/27 21:22:04.4   0.0                          T                2.0  .48 Ml 1.5         5211789
FRF   001.09 204.4 m E Pg      2013/02/27 21:21:51.4   0.2                          T                                        5211777
FRF   001.09 204.4 m E Sg      2013/02/27 21:22:05.7   0.4                          T                1.5  .20 Ml 1.8         5211776
LMR   001.33 204.4 m E Pg      2013/02/27 21:21:55.4  -0.3                          T                                        5213418
LMR   001.33 204.4 m E Sg      2013/02/27 21:22:13.3   0.3                          T                 .9  .20 Ml 1.7         5211781
SMRF  001.34 245.2 m E Pg      2013/02/27 21:21:56.1   0.2                          T                                        5211782
SMRF  001.34 245.2 m E Sn      2013/02/27 21:22:10.4   0.2                          T                                        5213419
SMRF  001.34 245.2 m E Sg      2013/02/27 21:22:13.8   0.5                          T                1.4  .23 Ml 1.7         5211783

.
EVENT     292808
    Date      Time       Latitude Longitude    Depth    Ndef Nsta Gap    Mag1  N    Mag2  N    Mag3  N   Author         ID
       rms   OT_Error      Smajor Sminor Az        Err   mdist  Mdist     Err        Err        Err      Quality

2013/02/27 21:48:53.2     42.7362   -1.7353      2.0      51    7 086  Ml 2.1  6  Md 2.3  2              bulletin    292908
                                                                                                         _ldg
      0.55   +-  0.09       1.8    1.4  158.96 +-  0.0    0.12   4.25   +-0.3      +-0.0                 m i ke

PYRENEES
Sta     Dist  EvAz     Phase      Date       Time     TRes  Azim  AzRes  Slow  SRes Def   SNR       Amp   Per   Mag1   Mag2       ID
SJPF  000.53 044.7 m E Pg      2013/02/27 21:49:03.3   0.0                          T                                        5211797
SJPF  000.53 044.7 m E Sg      2013/02/27 21:49:10.4   0.1                          T               10.0  .18        Md 2.3  5211796
ETSF  000.88 079.0 m E Pg      2013/02/27 21:49:09.8   0.0                          T                                        5211794
ETSF  000.88 079.0 m E Sg      2013/02/27 21:49:21.3   0.0                          T                6.8  .30 Ml 2.1 Md 2.3  5211795
EPF   001.55 078.4 m E Pg      2013/02/27 21:49:21.8  -0.4                          T                                        5211793
EPF   001.55 078.4 m E Sg      2013/02/27 21:49:42.4   0.1                          T                6.5  .20 Ml 2.6         5211792
LFF   002.84 038.3 m E P       2013/02/27 21:49:40.2  -0.2                          T                                        5211849
LFF   002.84 038.3 m E Sn      2013/02/27 21:50:10.2  -0.2                          T                                        5213422
LFF   002.84 038.3 m E Sg      2013/02/27 21:50:23.0   0.7                          T                1.6  .33 Ml 1.9         5213421
RJF   003.48 041.3 m E Pn      2013/02/27 21:49:47.6   1.3                          T                                        5211850
RJF   003.48 041.3 m E Sn      2013/02/27 21:50:25.6  -0.1                          T                  1  .25 Ml 1.8         5213423
CAF   003.51 050.2 m E Pn      2013/02/27 21:49:47.7   0.8                          T                                        5211848
CAF   003.51 050.2 m E Sn      2013/02/27 21:50:26.7   0.1                          T                2.4  .33 Ml 2.4         5213424
MTLF  002.96 076.9 m E Sg      2013/02/27 21:50:26.0  -0.1                          T                 .4  .17 Ml 1.8         5213420

.
EVENT     292820
    Date      Time       Latitude Longitude    Depth    Ndef Nsta Gap    Mag1  N    Mag2  N    Mag3  N   Author         ID
       rms   OT_Error      Smajor Sminor Az        Err   mdist  Mdist     Err        Err        Err      Quality

2013/02/27 22:39:56.0     42.7200   -1.7296      2.0      20    3 105  Ml 1.6  2  Md 1.7  2              bulletin    292920
                                                                                                         _ldg
      0.67   +-  0.19       3.4    2.9  147.50 +-  0.0    0.12   1.91   +-0.3      +-0.2                 m i ke

PYRENEES
Sta     Dist  EvAz     Phase      Date       Time     TRes  Azim  AzRes  Slow  SRes Def   SNR       Amp   Per   Mag1   Mag2       ID
SJPF  000.54 043.1 m E Pg      2013/02/27 22:40:06.0  -0.3                          T                                        5212276
SJPF  000.54 043.1 m E Sg      2013/02/27 22:40:13.4   0.0                          T                3.6  .29        Md 1.8  5212274
ETSF  000.88 077.9 m E Pg      2013/02/27 22:40:12.6   0.0                          T                                        5212275
ETSF  000.88 077.9 m E Sg      2013/02/27 22:40:24.3   0.2                          T                 .8  .18 Ml 1.4 Md 1.5  5212273
EPF   001.55 077.8 m E Pg      2013/02/27 22:40:24.5  -0.5                          T                                        5213425
EPF   001.55 077.8 m E Sg      2013/02/27 22:40:45.0   0.0                          T                1.5  .27 Ml 1.8         5212271

.
EVENT     292809
    Date      Time       Latitude Longitude    Depth    Ndef Nsta Gap    Mag1  N    Mag2  N    Mag3  N   Author         ID
       rms   OT_Error      Smajor Sminor Az        Err   mdist  Mdist     Err        Err        Err      Quality

2013/02/27 23:00:37.1     46.4265   10.0033      5.0 f    52   13 070  Ml 2.6 10                         bulletin    292909
                                                                                                         _ldg
      0.91   +-  0.12       2.8    2.1  167.85 +-  0.0    0.02   5.31   +-0.1                            m i ke

NORTHERN ITALY
Sta     Dist  EvAz     Phase      Date       Time     TRes  Azim  AzRes  Slow  SRes Def   SNR       Amp   Per   Mag1   Mag2       ID
LPG   002.45 248.9 m E P       2013/02/27 23:01:19.2   0.4                          T                                        5211873
LPG   002.45 248.9 m E Pg      2013/02/27 23:01:23.1   0.2                          T                                        5213436
LPG   002.45 248.9 m E Sn      2013/02/27 23:01:45.1   0.3                          T               10.8  .52 Ml 2.6         5211898
LPG   002.45 248.9 m E Sg      2013/02/27 23:01:54.9   0.4                          T               10.8  .48 Ml 2.7         5211899
LPL   002.46 249.4 m E P       2013/02/27 23:01:19.2   0.4                          T                                        5211874
LPL   002.46 249.4 m E Pg      2013/02/27 23:01:23.2   0.3                          T                                        5213437
LPL   002.46 249.4 m E Sn      2013/02/27 23:01:44.3  -0.6                          T                                        5211897
LPL   002.46 249.4 m E Sg      2013/02/27 23:01:54.8   0.3                          T                8.3  .48 Ml 2.5         5211896
CDF   002.72 318.0 m E Pn      2013/02/27 23:01:20.0   0.3                          T                                        5211886
CDF   002.72 318.0 m E Pg      2013/02/27 23:01:27.6   0.1                          T                                        5213442
CDF   002.72 318.0 m E Sg      2013/02/27 23:02:03.0   0.5                          T                7.8  .52 Ml 2.6         5211887
HINF  002.56 304.0 m E P       2013/02/27 23:01:20.3   0.2                          T                                        5211885
HINF  002.56 304.0 m E Pg      2013/02/27 23:01:25.1   0.4                          T                                        5213439
HINF  002.56 304.0 m E Sg      2013/02/27 23:01:58.0   0.4                          T               10.3  .48 Ml 2.7         5211888
CABF  002.71 275.3 m E Pn      2013/02/27 23:01:20.3   0.8                          T                                        5211878
CABF  002.71 275.3 m E Sn      2013/02/27 23:01:52.1   1.3                          T                                        5211890
CABF  002.71 275.3 m E Sg      2013/02/27 23:02:02.5   0.2                          T                8.1  .48 Ml 2.6         5211889
MBDF  002.84 234.3 m E Pn      2013/02/27 23:01:22.2   0.9                          T                                        5211876
MBDF  002.84 234.3 m E Pg      2013/02/27 23:01:30.1   0.2                          T                                        5213438
MBDF  002.84 234.3 m E Sn      2013/02/27 23:01:54.2   0.3                          T                                        5211893
MBDF  002.84 234.3 m E Sg      2013/02/27 23:02:07.1   0.8                          T                6.7  .62 Ml 2.4         5211894
HAU   002.95 303.7 m E Pn      2013/02/27 23:01:23.1   0.4                          T                                        5211884
HAU   002.95 303.7 m E Sn      2013/02/27 23:01:56.6   0.2                          T                9.3  .50 Ml 2.5         5213441
HAU   002.95 303.7 m E Sg      2013/02/27 23:02:09.9   0.2                          T                7.0  .44 Ml 2.4         5213440
ORIF  003.26 243.9 m E Pn      2013/02/27 23:01:27.1   0.1                          T                                        5211875
ORIF  003.26 243.9 m E Sn      2013/02/27 23:02:04.4   0.4                          T                                        5213435
ORIF  003.26 243.9 m E Sg      2013/02/27 23:02:19.4  -0.1                          T                6.9  .56 Ml 2.6         5211895
SBF   003.14 216.2 m E Pn      2013/02/27 23:01:27.6   2.2                          T                                        5211872
SBF   003.14 216.2 m E Sn      2013/02/27 23:02:03.1   2.1                          T                                        5211892
PAGF  003.60 307.8 m E Pn      2013/02/27 23:01:33.6   2.1 121.1  -3.5              T                                        5211880
MEZF  003.95 303.5 m E Pn      2013/02/27 23:01:36.3   0.0 125.6  5.8               T                                        5211879
LOR   004.30 283.5 m E P       2013/02/27 23:01:44.4  -0.4 108.0  9.0               T                                        5211882
BAIF  005.31 315.3 m E Pn      2013/02/27 23:01:55.1   0.3                          T                                        5211883

.
