EVENT     263123
    Date      Time       Latitude Longitude    Depth    Ndef Nsta Gap    Mag1  N    Mag2  N    Mag3  N   Author         ID
       rms   OT_Error      Smajor Sminor Az        Err   mdist  Mdist     Err        Err        Err      Quality

2011/08/26 06:15:45.5     50.2257   12.5141     10.0      52   14 047  Ml 3.4 14                         js067245    263123

      2.56   +-  0.36       9.0    6.3  138.05 +-  0.0    0.04   7.41   +-0.2                            m i ke

GERMANY
Sta     Dist  EvAz     Phase      Date       Time     TRes  Azim  AzRes  Slow  SRes Def   SNR       Amp   Per   Mag1   Mag2       ID
CDF   003.88 244.1 m E Pn      2011/08/26 06:16:44.3   1.0                          T                                        4741865
CDF   003.88 244.1 m E Pg      2011/08/26 06:16:57.2  -0.2                          T                                        4741869
CDF   003.88 244.1 m E Sg      2011/08/26 06:17:47.0  -0.1                          T               29.9  .42 Ml 3.6         4741881
RUP   003.56 263.6 m E Pg      2011/08/26 06:16:51.0  -0.5                          T                                        4741868
RUP   003.56 263.6 m E Sg      2011/08/26 06:17:35.7  -1.5                          T                                        4741882
HAU   004.62 243.6 m E Pg      2011/08/26 06:17:10.0  -0.9                          T                                        4741871
HAU   004.62 243.6 m E Sg      2011/08/26 06:18:10.0  -0.2                          T               25.6  .36 Ml 3.4         4741878
LOR   006.44 246.0 m E Pn      2011/08/26 06:17:17.9  -0.2                          T                                        4741863
LOR   006.44 246.0 m E Pg      2011/08/26 06:17:44.1  -0.4                          T                                        4741866
LOR   006.44 246.0 m E Sg      2011/08/26 06:19:07.9   0.8                          T                8.1  .43 Ml 3.5         4741885
SSF   006.76 245.5 m E Pn      2011/08/26 06:17:22.6   0.2                          T                                        4741864
SSF   006.76 245.5 m E Pg      2011/08/26 06:17:50.1  -0.2                          T                                        4741867
SSF   006.76 245.5 m E Sg      2011/08/26 06:19:16.4  -0.4                          T                4.6  .39 Ml 3.4         4741884
CABF  005.60 232.2 m E Pg      2011/08/26 06:17:28.8  -0.4                          T                                        4741870
CABF  005.60 232.2 m E Sg      2011/08/26 06:18:42.0   1.1                          T               16.1  .62 Ml 3.4         4741876
SMF   006.79 241.5 m E Pg      2011/08/26 06:17:50.7  -0.3                          T                                        4741872
SMF   006.79 241.5 m E Sg      2011/08/26 06:19:17.6  -0.4                          T               10.6  .53 Ml 3.5         4741874
HINF  004.44 239.3 m E Sg      2011/08/26 06:18:04.7   0.1                          T               29.9  .37 Ml 3.7         4741877
PAGF  004.74 251.9 m E Sg      2011/08/26 06:18:12.9  -1.0                          T                9.7  .73 Ml 2.9         4741862
GIVF  004.95 271.5 m E Sg      2011/08/26 06:18:18.3  -2.1                          T                9.9  .34 Ml 3.3         4741883
MEZF  005.17 253.4 m E Sg      2011/08/26 06:18:26.8  -0.6                          T               12.5  .42 Ml 3.4         4741880
SFTF  005.30 250.4 m E Sg      2011/08/26 06:18:30.6  -0.8                          T                9.0  .42 Ml 3.3         4741879
AVF   006.99 244.0 m E Sg      2011/08/26 06:19:23.8  -0.3                          T                7.2  .60 Ml 3.3         4741875
BGF   007.41 244.0 m E Sg      2011/08/26 06:19:37.6   0.4                          T               15.6  .49 Ml 3.8         4741873

.
EVENT     263259
    Date      Time       Latitude Longitude    Depth    Ndef Nsta Gap    Mag1  N    Mag2  N    Mag3  N   Author         ID
       rms   OT_Error      Smajor Sminor Az        Err   mdist  Mdist     Err        Err        Err      Quality

2011/08/26 06:54:06.0     50.2378   12.4586     10.0 f    39   12 110  Ml 3.6 10                         js067245    263259

      0.40   +-  0.08       1.9    1.2  130.18 +-  0.0    0.01   7.90   +-0.2                            m i ke

GERMANY
Sta     Dist  EvAz     Phase      Date       Time     TRes  Azim  AzRes  Slow  SRes Def   SNR       Amp   Per   Mag1   Mag2       ID
CDF   003.85 243.7 m E Pn      2011/08/26 06:55:04.2   0.8                          T                                        4741980
CDF   003.85 243.7 m E Pg      2011/08/26 06:55:17.4  -0.1                          T                                        4741979
CDF   003.85 243.7 m E Sg      2011/08/26 06:56:07.2   0.3                          T                                        4741978
PAGF  004.71 251.6 m E Pn      2011/08/26 06:55:16.0   1.0                          T                                        4741976
PAGF  004.71 251.6 m E Sg      2011/08/26 06:56:33.1  -0.4                          T               15.1  .74 Ml 3.1         4741977
HAU   004.59 243.2 m E Pg      2011/08/26 06:55:30.3  -0.7                          T                                        4741975
HAU   004.59 243.2 m E Sg      2011/08/26 06:56:28.8  -1.1                          T               56.1  .53 Ml 3.6         4741974
LOR   006.42 245.7 m E Pn      2011/08/26 06:55:38.0  -0.3                          T                                        4741990
LOR   006.42 245.7 m E Pg      2011/08/26 06:56:05.3   0.7                          T                                        4741989
LOR   006.42 245.7 m E Sg      2011/08/26 06:57:27.7   0.9                          T               11.5  .51 Ml 3.5         4741988
MEZF  005.14 253.1 m E Pg      2011/08/26 06:55:40.5  -0.6                          T                                        4741970
SSF   006.73 245.2 m E Pn      2011/08/26 06:55:42.3  -0.2                          T                                        4741987
SSF   006.73 245.2 m E Pg      2011/08/26 06:56:09.9  -0.4                          T                                        4741986
SSF   006.73 245.2 m E Sg      2011/08/26 06:57:36.4  -0.1                          T               10.9  .44 Ml 3.7         4741985
CABF  005.58 231.9 m E Pg      2011/08/26 06:55:49.6   0.3                          T                                        4741969
CABF  005.58 231.9 m E Sg      2011/08/26 06:57:02.5   1.6                          T               41.6  .76 Ml 3.7         4741971
SMF   006.77 241.2 m E Pg      2011/08/26 06:56:10.9   0.0                          T                                        4741972
HINF  004.41 238.8 m E Sg      2011/08/26 06:56:24.7   0.3                          T               29.3  .41 Ml 3.6         4741973
TCF   007.90 243.9 m E Pg      2011/08/26 06:56:33.3   1.5                          T                                        4741984
TCF   007.90 243.9 m E Sg      2011/08/26 06:58:14.5   1.4                          T               11.6  .63 Ml 3.7         4741983
GIVF  004.91 271.3 m E Sg      2011/08/26 06:56:37.4  -2.3                          T               67.5  .68 Ml 3.8         4741982
BAIF  005.31 271.2 m E Sg      2011/08/26 06:56:50.6  -1.6                          T               20.4  .48 Ml 3.6         4741981

.
EVENT     263196
    Date      Time       Latitude Longitude    Depth    Ndef Nsta Gap    Mag1  N    Mag2  N    Mag3  N   Author         ID
       rms   OT_Error      Smajor Sminor Az        Err   mdist  Mdist     Err        Err        Err      Quality

2011/08/26 09:30:39.7     47.8213    5.8918       .0 f    11    7 114  Ml 2.5  4  Md 2.3  2              js067245    263196

      6.08   +-  0.54      10.7    8.6  114.57 +-  0.0    0.36   1.48   +-0.1      +-0.1                 m i km

FRANCE
Sta     Dist  EvAz     Phase      Date       Time     TRes  Azim  AzRes  Slow  SRes Def   SNR       Amp   Per   Mag1   Mag2       ID
HAU   000.36 058.8 m E Pg      2011/08/26 09:30:46.8  -0.1                          T                                        4753053
HAU   000.36 058.8 m E Sg      2011/08/26 09:30:52.6   0.6                          T               49.3  .56        Md 2.2  4753054
THEF  000.41 009.5 m E Pg      2011/08/26 09:30:48.0   0.1                          T                                        4753051
THEF  000.41 009.5 m E Sg      2011/08/26 09:30:54.1   0.5                          T              115.7  .63        Md 2.3  4753052
CDF   001.10 057.0 m E Pg      2011/08/26 09:31:00.5  -0.2                          T                                        4753046
CDF   001.10 057.0 m E Sg      2011/08/26 09:31:15.8   0.6                          T               16.9  .64 Ml 2.4         4753047
SFTF  000.69 304.1 m E Sg      2011/08/26 09:31:01.8  -0.4 132.7  9.2               T               32.1  .54                4753050
CABF  001.22 173.6 m E Pg      2011/08/26 09:31:02.9   0.0                          T                                        4753048
CABF  001.22 173.6 m E Sg      2011/08/26 09:31:18.8  -0.1                          T               25.2  .56 Ml 2.6         4753049
MEZF  000.88 320.8 m E Sg      2011/08/26 09:31:08.2  -0.1  65.7  -74.4             T               28.4  .64 Ml 2.4         4753056
LOR   001.48 248.9 m E Sg      2011/08/26 09:31:26.8  -0.2  71.9  4.6               T               12.8  .49 Ml 2.5         4753055

.
EVENT     263264
    Date      Time       Latitude Longitude    Depth    Ndef Nsta Gap    Mag1  N    Mag2  N    Mag3  N   Author         ID
       rms   OT_Error      Smajor Sminor Az        Err   mdist  Mdist     Err        Err        Err      Quality

2011/08/26 15:27:25.0     50.2484   12.4539     10.0 f    38   14 109  Ml 3.1 15                         js067245    263264

      0.44   +-  0.08       1.7    1.1  131.68 +-  0.0    0.02   7.67   +-0.3                            m i ke

GERMANY
Sta     Dist  EvAz     Phase      Date       Time     TRes  Azim  AzRes  Slow  SRes Def   SNR       Amp   Per   Mag1   Mag2       ID
HAU   004.59 243.1 m E Pn      2011/08/26 15:28:33.7   1.1                          T                                        4742006
HAU   004.59 243.1 m E Pg      2011/08/26 15:28:50.8   0.8                          T                                        4742010
HAU   004.59 243.1 m E Sg      2011/08/26 15:29:48.5  -0.5                          T                8.7  .26 Ml 3.1         4742018
HINF  004.42 238.7 m E Pg      2011/08/26 15:28:47.4   0.6                          T                                        4742011
HINF  004.42 238.7 m E Sg      2011/08/26 15:29:42.9  -0.5                          T               20.1  .42 Ml 3.4         4742017
GIVF  004.91 271.2 m E Pg      2011/08/26 15:28:55.5  -0.2                          T                                        4742007
SFTF  005.27 250.0 m E Pg      2011/08/26 15:29:02.2  -0.2                          T                                        4742009
SFTF  005.27 250.0 m E Sg      2011/08/26 15:30:09.3  -0.7                          T                5.9  .28 Ml 3.3         4742019
CDF   003.85 243.5 m E Sg      2011/08/26 15:29:25.3  -0.6                          T               19.1  .37 Ml 3.4         4742022
SMF   006.77 241.1 m E Pg      2011/08/26 15:29:30.6   0.5                          T                                        4742005
SMF   006.77 241.1 m E Sg      2011/08/26 15:30:56.7  -0.1                          T                7.3  .40 Ml 3.5         4742014
PAGF  004.71 251.5 m E Sg      2011/08/26 15:29:52.1  -0.5                          T                1.2  .29 Ml 2.4         4742008
MEZF  005.14 253.0 m E Sg      2011/08/26 15:30:07.6   1.6                          T                7.6  .41 Ml 3.2         4742020
BAIF  005.31 271.1 m E Sg      2011/08/26 15:30:10.2  -0.9                          T                2.1  .17 Ml 3.0         4742021
CABF  005.58 231.8 m E Sg      2011/08/26 15:30:23.1   3.2                          T                2.4  .27 Ml 3.0         4742016
LOR   006.42 245.6 m E Sg      2011/08/26 15:30:47.1   1.3                          T                7.8  .45 Ml 3.4         4742024
SSF   006.73 245.1 m E Sg      2011/08/26 15:30:56.6   1.0                          T                3.6  .36 Ml 3.3         4742023
AVF   006.96 243.7 m E Sg      2011/08/26 15:31:02.4  -0.5                          T                2.3  .45 Ml 2.9         4742015
BGF   007.38 243.7 m E Sg      2011/08/26 15:31:13.7  -2.2                          T                4.2  .32 Ml 3.4         4742013

.
EVENT     263213
    Date      Time       Latitude Longitude    Depth    Ndef Nsta Gap    Mag1  N    Mag2  N    Mag3  N   Author         ID
       rms   OT_Error      Smajor Sminor Az        Err   mdist  Mdist     Err        Err        Err      Quality

2011/08/26 18:18:14.7     42.9959     .1828      5.0 f    42    6 082  Ml 1.9  5  Md 2.1  2              js067245    263213

      0.88   +-  0.13       3.7    1.9  178.12 +-  0.0    0.12   2.36   +-0.2      +-0.0                 m i ke

PYRENEES
Sta     Dist  EvAz     Phase      Date       Time     TRes  Azim  AzRes  Slow  SRes Def   SNR       Amp   Per   Mag1   Mag2       ID
EPF   000.12 073.4 m E Pg      2011/08/26 18:18:17.6   0.1                          T                                        4742036
EPF   000.12 073.4 m E Sg      2011/08/26 18:18:19.5   0.1                          T               69.4  .22        Md 2.1  4742033
ETSF  000.55 260.1 m E Pg      2011/08/26 18:18:25.6   0.2                          T                                        4742035
ETSF  000.55 260.1 m E Sg      2011/08/26 18:18:33.2   0.6                          T               11.0  .20        Md 2.1  4742032
SJPF  001.04 277.0 m E Pg      2011/08/26 18:18:35.0   0.9                          T                                        4742029
SJPF  001.04 277.0 m E Sg      2011/08/26 18:18:48.2   0.6                          T                1.8  .26 Ml 1.7         4742030
MTLF  001.53 076.3 m E Pg      2011/08/26 18:18:43.0  -0.2                          T                                        4742034
MTLF  001.53 076.3 m E Sg      2011/08/26 18:19:02.8  -0.1                          T                2.3  .22 Ml 2.1         4742031
LFF   001.98 011.5 m E Sg      2011/08/26 18:19:18.6   1.5                          T                 .6  .15 Ml 1.6         4742027
CAF   002.36 034.5 m E Sg      2011/08/26 18:19:29.8   0.9                          T                 .5  .19 Ml 1.7         4742028

.
EVENT     263269
    Date      Time       Latitude Longitude    Depth    Ndef Nsta Gap    Mag1  N    Mag2  N    Mag3  N   Author         ID
       rms   OT_Error      Smajor Sminor Az        Err   mdist  Mdist     Err        Err        Err      Quality

2011/08/27 00:58:01.3     42.0483    7.6834     15.0 f    18    8 227  Ml 2.2  8                         js067245    263269

      1.46   +-  0.35       9.4    4.2    4.69 +-  0.0    1.10   4.23   +-0.4                            m i ke

WESTERN MEDITERRANEAN SEA
Sta     Dist  EvAz     Phase      Date       Time     TRes  Azim  AzRes  Slow  SRes Def   SNR       Amp   Per   Mag1   Mag2       ID
PGF   001.10 062.5 m E Pn      2011/08/27 00:58:20.7   0.0                          T                                        4742048
PGF   001.10 062.5 m E Sn      2011/08/27 00:58:34.8   0.1                          T                9.0  .20 Ml 2.8         4742043
LMR   001.55 326.4 m E Pn      2011/08/27 00:58:25.9  -0.8                          T                                        4742047
LMR   001.55 326.4 m E Sn      2011/08/27 00:58:43.5  -1.8                          T                2.9  .18 Ml 2.3         4742044
FRF   001.69 333.6 m E Pn      2011/08/27 00:58:27.9  -0.8                          T                                        4742046
FRF   001.69 333.6 m E Sn      2011/08/27 00:58:47.3  -1.5                          T                1.3  .18 Ml 2.0         4742045
SBF   001.82 354.3 m E Pn      2011/08/27 00:58:31.2   0.7                          T                                        4742041
SBF   001.82 354.3 m E Sn      2011/08/27 00:58:51.1  -0.9                          T                1.3  .18 Ml 2.0         4742042
SMRF  002.47 322.0 m E Pn      2011/08/27 00:58:39.7   0.3                          T                                        4742039
SMRF  002.47 322.0 m E Sn      2011/08/27 00:59:07.7   0.3                          T                 .7  .22 Ml 1.8         4742040
LASF  003.46 307.1 m E Pn      2011/08/27 00:58:52.3  -0.5                          T                                        4742037
LASF  003.46 307.1 m E Sn      2011/08/27 00:59:30.5  -0.5                          T                 .5  .15 Ml 2.1         4753066
VIVF  003.56 323.0 m E P       2011/08/27 00:58:57.6   0.1                          T                                        4753069
MTLF  004.23 289.6 m E Pn      2011/08/27 00:59:03.3   0.0                          T                                        4753071
MTLF  004.23 289.6 m E Sn      2011/08/27 00:59:50.1   0.7                          T                 .3  .23 Ml 1.8         4753070

.
