EVENT     292111
    Date      Time       Latitude Longitude    Depth    Ndef Nsta Gap    Mag1  N    Mag2  N    Mag3  N   Author         ID
       rms   OT_Error      Smajor Sminor Az        Err   mdist  Mdist     Err        Err        Err      Quality

2013/02/14 19:05:44.9     44.5067    6.6759      2.0      33    7 069  Ml 1.6  4  Md 1.4  2              bulletin    292211
                                                                                                         _ldg
      0.47   +-  0.09       1.9    1.4   80.79 +-  0.0    0.10   1.18   +-0.4      +-0.2                 m i ke

FRANCE
Sta     Dist  EvAz     Phase      Date       Time     TRes  Azim  AzRes  Slow  SRes Def   SNR       Amp   Per   Mag1   Mag2       ID
MBDF  000.23 017.2 m E Pg      2013/02/14 19:05:49.6  -0.1                          T                                        5197414
MBDF  000.23 017.2 m E Sg      2013/02/14 19:05:53.1   0.3                          T               12.8  .34        Md 1.5  5197413
ORIF  000.70 306.2 m E Pg      2013/02/14 19:05:57.9  -0.4                          T                                        5197412
ORIF  000.70 306.2 m E Sg      2013/02/14 19:06:07.1  -0.4                          T                2.3  .21                5197411
SBF   000.84 139.4 m E Pg      2013/02/14 19:06:01.2   0.3                          T                                        5197405
SBF   000.84 139.4 m E Sg      2013/02/14 19:06:12.2   0.3                          T                3.5  .22        Md 1.3  5197404
FRF   000.95 181.3 m E Pg      2013/02/14 19:06:02.8   0.2                          T                                        5197410
FRF   000.95 181.3 m E Sg      2013/02/14 19:06:15.1   0.1                          T                4.0  .24 Ml 2.1         5197403
SMRF  000.95 236.5 m E Pg      2013/02/14 19:06:03.7   0.8                          T                                        5197409
SMRF  000.95 236.5 m E Sg      2013/02/14 19:06:14.9  -0.4                          T                1.1  .24 Ml 1.4         5197402
LPL   001.01 002.3 m E Pg      2013/02/14 19:06:04.2   0.0                          T                                        5197408
LPL   001.01 002.3 m E Sg      2013/02/14 19:06:17.8   0.5                          T                 .4  .18 Ml 1.2         5197401
LMR   001.18 185.9 m E Pg      2013/02/14 19:06:06.9  -0.1                          T                                        5197407
LMR   001.18 185.9 m E Sg      2013/02/14 19:06:22.3   0.1                          T                1.6  .18 Ml 1.9         5197406

.
EVENT     292112
    Date      Time       Latitude Longitude    Depth    Ndef Nsta Gap    Mag1  N    Mag2  N    Mag3  N   Author         ID
       rms   OT_Error      Smajor Sminor Az        Err   mdist  Mdist     Err        Err        Err      Quality

2013/02/14 19:08:33.7     46.0343    2.9272      2.0      42   15 075  Ml 2.0 11  Md 2.0  3              bulletin    292212
                                                                                                         _ldg
      0.48   +-  0.03        .8     .5  130.50 +-  0.0    0.13   2.86   +-0.2      +-0.1                 m i ke

FRANCE
Sta     Dist  EvAz     Phase      Date       Time     TRes  Azim  AzRes  Slow  SRes Def   SNR       Amp   Per   Mag1   Mag2       ID
BGF   000.53 353.9 m E Pg      2013/02/14 19:08:43.7   0.0                          T                                        5197446
BGF   000.53 353.9 m E Sg      2013/02/14 19:08:50.8   0.1                          T               12.7  .30        Md 2.0  5197445
TCF   000.56 297.2 m E Pg      2013/02/14 19:08:44.4   0.1                          T                                        5197440
TCF   000.56 297.2 m E Sg      2013/02/14 19:08:51.8   0.1                          T                2.5  .19        Md 1.9  5197439
AVF   000.81 021.1 m E Pg      2013/02/14 19:08:48.8  -0.1                          T                                        5201432
AVF   000.81 021.1 m E Pn      2013/02/14 19:08:50.1  -0.4                          T                                        5197450
AVF   000.81 021.1 m E Sg      2013/02/14 19:08:59.4  -0.1                          T                2.3  .21                5197449
SMF   000.88 045.7 m E Pg      2013/02/14 19:08:50.3   0.1                          T                                        5197448
SMF   000.88 045.7 m E Sg      2013/02/14 19:09:01.5  -0.1                          T                4.2  .26 Ml 2.0         5197447
SSF   001.10 021.0 m E Pg      2013/02/14 19:08:54.2  -0.1                          T                                        5197454
SSF   001.10 021.0 m E Sg      2013/02/14 19:09:08.5  -0.1                          T                5.6  .38 Ml 2.1         5197453
RJF   001.23 234.1 m E Pg      2013/02/14 19:08:56.7   0.0                          T                                        5197444
RJF   001.23 234.1 m E Sg      2013/02/14 19:09:11.8  -0.7                          T                3.4  .23 Ml 1.8         5197443
HYF   001.25 351.0 m E Pg      2013/02/14 19:08:56.9  -0.1                          T                                        5197420
HYF   001.25 351.0 m E Sg      2013/02/14 19:09:13.2   0.0                          T                                        5197419
CAF   001.26 209.0 m E Pg      2013/02/14 19:08:57.4   0.1                          T                                        5197442
CAF   001.26 209.0 m E Sg      2013/02/14 19:09:13.5  -0.2                          T                2.4  .14 Ml 2.2         5197441
LOR   001.39 027.1 m E Pg      2013/02/14 19:08:59.6  -0.1 206.3  -1.5              T                                        5197452
LOR   001.39 027.1 m E Sg      2013/02/14 19:09:17.3  -0.3 198.2  -9.7              T                1.4  .20 Ml 1.9         5197451
VIVF  001.70 133.2 m E Pn      2013/02/14 19:09:02.5  -0.1                          T                                        5197425
VIVF  001.70 133.2 m E Sn      2013/02/14 19:09:24.0   0.3                          T                                        5197424
VIVF  001.70 133.2 m E Sg      2013/02/14 19:09:27.3   0.0                          T                 .6  .18 Ml 1.6         5197423
LFF   001.89 235.3 m E Pn      2013/02/14 19:09:05.3   0.1                          T                                        5197429
LFF   001.89 235.3 m E Pg      2013/02/14 19:09:08.6  -0.2                          T                                        5197426
LFF   001.89 235.3 m E Sn      2013/02/14 19:09:28.1   0.0                          T                                        5197428
LFF   001.89 235.3 m E Sg      2013/02/14 19:09:33.2   0.1                          T                5.3  .34 Ml 2.2         5197427
MFF   002.20 286.0 m E Pn      2013/02/14 19:09:09.7   0.2                          T                                        5197438
MFF   002.20 286.0 m E Sn      2013/02/14 19:09:35.8   0.1                          T                                        5197437
MFF   002.20 286.0 m E Sg      2013/02/14 19:09:42.8  -0.2                          T                1.2  .19 Ml 2.2         5197436
ORIF  002.36 117.2 m E Pn      2013/02/14 19:09:11.8   0.1                          T                                        5197422
ORIF  002.36 117.2 m E Sn      2013/02/14 19:09:39.4  -0.1                          T                 .8  .26 Ml 1.8         5197421
SFTF  002.61 032.8 m E Pn      2013/02/14 19:09:14.9   0.0                          T                                        5197433
SFTF  002.61 032.8 m E Pg      2013/02/14 19:09:22.3   0.3                          T                                        5197432
SFTF  002.61 032.8 m E Sn      2013/02/14 19:09:45.0  -0.3                          T                                        5197431
SFTF  002.61 032.8 m E Sg      2013/02/14 19:09:55.6   0.1 217.9  3.5               T                  1  .17 Ml 2.1         5197430
MEZF  002.86 029.6 m E Pn      2013/02/14 19:09:18.7   0.3                          T                                        5197435
MEZF  002.86 029.6 m E Sg      2013/02/14 19:10:03.5   0.0                          T                 .9  .20 Ml 2.1         5197434

.
EVENT     292113
    Date      Time       Latitude Longitude    Depth    Ndef Nsta Gap    Mag1  N    Mag2  N    Mag3  N   Author         ID
       rms   OT_Error      Smajor Sminor Az        Err   mdist  Mdist     Err        Err        Err      Quality

2013/02/14 19:43:54.5     44.5190    6.6822      2.0      32    8 069  Ml 1.4  5  Md 1.5  3              bulletin    292213
                                                                                                         _ldg
      0.35   +-  0.05       1.2     .9   64.17 +-  0.0    0.10   1.19   +-0.2      +-0.1                 m i ke

FRANCE
Sta     Dist  EvAz     Phase      Date       Time     TRes  Azim  AzRes  Slow  SRes Def   SNR       Amp   Per   Mag1   Mag2       ID
MBDF  000.22 017.0 m E Pg      2013/02/14 19:43:59.1   0.1                          T                                        5197483
MBDF  000.22 017.0 m E Sg      2013/02/14 19:44:02.2   0.1                          T                3.1  .20        Md 1.6  5197482
ORIF  000.70 305.2 m E Pg      2013/02/14 19:44:07.6  -0.3                          T                                        5197484
ORIF  000.70 305.2 m E Sg      2013/02/14 19:44:15.3  -1.7                          T                2.1  .27        Md 1.6  5197481
SBF   000.85 140.2 m E Pg      2013/02/14 19:44:10.7   0.1                          T                                        5197470
SBF   000.85 140.2 m E Sg      2013/02/14 19:44:21.8   0.1                          T                2.2  .22        Md 1.4  5197469
FRF   000.96 181.5 m E Pg      2013/02/14 19:44:12.8   0.2                          T                                        5197480
FRF   000.96 181.5 m E Sg      2013/02/14 19:44:25.2   0.2                          T                1.9  .22 Ml 1.8         5197477
SMRF  000.96 236.1 m E Pg      2013/02/14 19:44:12.8   0.1                          T                                        5197476
SMRF  000.96 236.1 m E Sg      2013/02/14 19:44:25.3   0.1                          T                  1  .25 Ml 1.4         5197475
LPG   000.98 002.8 m E Pg      2013/02/14 19:44:13.5   0.2                          T                                        5197474
LPG   000.98 002.8 m E Sg      2013/02/14 19:44:26.1   0.1                          T                 .5  .19 Ml 1.3         5197473
LPL   001.00 002.0 m E Pg      2013/02/14 19:44:13.8   0.3                          T                                        5197472
LPL   001.00 002.0 m E Sg      2013/02/14 19:44:26.6   0.1                          T                 .5  .21 Ml 1.2         5197471
LMR   001.19 186.1 m E Pg      2013/02/14 19:44:17.1   0.3                          T                                        5197479
LMR   001.19 186.1 m E Sg      2013/02/14 19:44:32.8   0.6                          T                 .5  .17 Ml 1.4         5197478

.
EVENT     292114
    Date      Time       Latitude Longitude    Depth    Ndef Nsta Gap    Mag1  N    Mag2  N    Mag3  N   Author         ID
       rms   OT_Error      Smajor Sminor Az        Err   mdist  Mdist     Err        Err        Err      Quality

2013/02/15 00:53:30.4     43.0911    -.2127      2.0      13    7 108  Ml 1.8  5  Md 2.0  2              bulletin    292214
                                                                                                         _ldg
      0.37   +-  0.08       2.4    1.3  174.44 +-  0.0    0.13   2.54   +-0.3      +-0.0                 m i ke

PYRENEES
Sta     Dist  EvAz     Phase      Date       Time     TRes  Azim  AzRes  Slow  SRes Def   SNR       Amp   Per   Mag1   Mag2       ID
ETSF  000.32 233.0 m E Pg      2013/02/15 00:53:36.6  -0.1                          T                                        5197488
ETSF  000.32 233.0 m E Sg      2013/02/15 00:53:40.6  -0.3                          T               35.3  .26        Md 2.0  5197486
EPF   000.41 098.3 m E Pg      2013/02/15 00:53:38.7   0.4                          T                                        5197487
EPF   000.41 098.3 m E Sg      2013/02/15 00:53:44.4   0.6                          T               10.6  .26        Md 2.0  5197485
SJPF  000.74 272.1 m E Pg      2013/02/15 00:53:43.9  -0.5                          T                                        5197490
SJPF  000.74 272.1 m E Sg      2013/02/15 00:53:54.1   0.0                          T                3.3  .24                5197489
LFF   001.97 020.1 m E Pn      2013/02/15 00:54:02.7  -0.3                          T                                        5197495
LFF   001.97 020.1 m E Sn      2013/02/15 00:54:26.1  -0.8                          T                5.7  .38 Ml 2.2         5197494
MTLF  001.79 081.2 m E Sn      2013/02/15 00:54:22.9   0.3                          T                 .9  .28 Ml 1.6         5197491
CAF   002.46 041.1 m E Sg      2013/02/15 00:54:48.2   0.4                          T                1.1  .25 Ml 1.9         5201434
RJF   002.54 028.7 m E Sg      2013/02/15 00:54:50.0  -0.1                          T                 .7  .19 Ml 1.6         5201433

.
EVENT     292116
    Date      Time       Latitude Longitude    Depth    Ndef Nsta Gap    Mag1  N    Mag2  N    Mag3  N   Author         ID
       rms   OT_Error      Smajor Sminor Az        Err   mdist  Mdist     Err        Err        Err      Quality

2013/02/15 08:33:01.7     43.1791    5.9930       .0 f    25   10 138  Ml 2.6  2  Md 2.2  2              bulletin    292216
                                                                                                         _ldg
      0.85   +-  0.36       7.7    4.6   27.62 +-  0.0    0.40   5.07   +-0.2      +-0.1                 m i km

NEAR SOUTH COAST OF FRANCE
Sta     Dist  EvAz     Phase      Date       Time     TRes  Azim  AzRes  Slow  SRes Def   SNR       Amp   Per   Mag1   Mag2       ID
LMR   000.41 067.5 m E Pg      2013/02/15 08:33:09.0  -0.8                          T                                        5197663
LMR   000.41 067.5 m E Sg      2013/02/15 08:33:14.9  -0.5                          T               15.4  .24        Md 2.1  5197658
FRF   000.61 051.1 m E Pg      2013/02/15 08:33:12.5  -1.1                          T                                        5197662
FRF   000.61 051.1 m E Sg      2013/02/15 08:33:20.6  -1.1                          T                9.1  .30        Md 2.2  5197657
SMRF  000.85 339.3 m E Pg      2013/02/15 08:33:17.8  -0.2                          T                                        5197661
SMRF  000.85 339.3 m E Sg      2013/02/15 08:33:28.6  -0.8                          T               21.9  .48                5197656
SBF   001.25 056.4 m E Pn      2013/02/15 08:33:25.0  -0.1                          T                                        5197660
SBF   001.25 056.4 m E Sn      2013/02/15 08:33:41.4  -0.3                          T               19.1  .28 Ml 2.8         5197670
ORIF  001.74 357.4 m E Pn      2013/02/15 08:33:30.9  -0.8                          T                                        5197665
ORIF  001.74 357.4 m E Sn      2013/02/15 08:33:52.9  -0.6                          T               25.4 1.20 Ml 2.5         5197666
LASF  001.79 300.8 m E Pn      2013/02/15 08:33:31.3  -1.0                          T                                        5197668
VIVF  001.93 330.9 m E Pn      2013/02/15 08:33:33.8  -0.4                          T                                        5197667
VIVF  001.93 330.9 m E Sn      2013/02/15 08:33:56.4  -1.5                          T                                        5197664
PGF   002.30 104.9 m E Pn      2013/02/15 08:33:38.9  -0.5                          T                                        5197659
PGF   002.30 104.9 m E Sn      2013/02/15 08:34:05.2  -1.6                          T                                        5197671
LPG   002.38 012.9 m E Pn      2013/02/15 08:33:41.8   1.1                          T                                        5197669
SFTF  005.07 352.8 m E Pn      2013/02/15 08:34:17.4   0.4                          T                                        5197739

.
