EVENT     293914
    Date      Time       Latitude Longitude    Depth    Ndef Nsta Gap    Mag1  N    Mag2  N    Mag3  N   Author         ID
       rms   OT_Error      Smajor Sminor Az        Err   mdist  Mdist     Err        Err        Err      Quality

2013/03/14 20:00:58.7     44.4525    9.9312      9.0 f   104   23 037  Ml 2.9 20                         bulletin    294014
                                                                                                         _ldg
      0.64   +-  0.06       1.7    1.2   30.85 +-  0.0    0.08   5.63   +-0.3                            m i ke

NORTHERN ITALY
Sta     Dist  EvAz     Phase      Date       Time     TRes  Azim  AzRes  Slow  SRes Def   SNR       Amp   Per   Mag1   Mag2       ID
SBF   001.89 252.7 m E Pn      2013/03/14 20:01:30.1   0.6                          T                                        5224753
SBF   001.89 252.7 m E Sn      2013/03/14 20:01:52.1   0.0                          T               41.2  .32 Ml 3.3         5225464
PGF   002.02 199.9 m E Pn      2013/03/14 20:01:31.7   0.3                          T                                        5224754
PGF   002.02 199.9 m E Sn      2013/03/14 20:01:55.3   0.1                          T                                        5224755
MBDF  002.27 278.0 m E P       2013/03/14 20:01:36.3  -1.0                          T                                        5225469
MBDF  002.27 278.0 m E Pg      2013/03/14 20:01:41.1  -0.1                          T                                        5224747
MBDF  002.27 278.0 m E Sn      2013/03/14 20:02:01.3   0.0                          T               13.3  .49 Ml 2.7         5225462
MBDF  002.27 278.0 m E Sg      2013/03/14 20:02:10.2  -0.2                          T               43.5  .62 Ml 3.1         5225463
FRF   002.53 250.5 m E Pn      2013/03/14 20:01:38.8   0.7                          T                                        5224751
FRF   002.53 250.5 m E Sn      2013/03/14 20:02:07.7   0.4                          T               11.7  .20 Ml 3.1         5224757
LPG   002.49 296.0 m E P       2013/03/14 20:01:40.3  -0.3                          T                                        5225466
LPG   002.49 296.0 m E Pg      2013/03/14 20:01:44.4  -0.8                          T                                        5224750
LPG   002.49 296.0 m E Sn      2013/03/14 20:02:06.2  -0.4                          T                4.9  .27 Ml 2.6         5224771
LPL   002.51 296.2 m E P       2013/03/14 20:01:40.8   0.1                          T                                        5225467
LPL   002.51 296.2 m E Pg      2013/03/14 20:01:45.0  -0.5                          T                                        5224749
LPL   002.51 296.2 m E Sn      2013/03/14 20:02:06.7  -0.3                          T               13.0  .38 Ml 2.9         5224770
LMR   002.71 246.9 m E Pn      2013/03/14 20:01:41.0   0.4                          T                                        5224752
LMR   002.71 246.9 m E Sn      2013/03/14 20:02:11.9   0.3                          T               10.5  .20 Ml 3.1         5224756
SMRF  003.17 262.9 m E Pn      2013/03/14 20:01:46.9   0.0                          T                                        5225465
SMRF  003.17 262.9 m E Sn      2013/03/14 20:02:22.6   0.0                          T                8.7  .36 Ml 2.8         5224758
ORIF  002.93 280.6 m E P       2013/03/14 20:01:47.5   0.9                          T                                        5225468
ORIF  002.93 280.6 m E Sn      2013/03/14 20:02:16.8  -0.1                          T               12.2  .40 Ml 2.9         5224759
CABF  003.46 310.0 m E P       2013/03/14 20:01:53.8  -0.3                          T                                        5225476
CABF  003.46 310.0 m E Sn      2013/03/14 20:02:29.0  -0.5                          T                2.8  .28 Ml 2.5         5224769
VIVF  003.77 278.0 m E P       2013/03/14 20:01:58.4  -0.2                          T                                        5225470
VIVF  003.77 278.0 m E Sn      2013/03/14 20:02:36.9  -0.1                          T                2.1  .25 Ml 2.5         5224760
HINF  003.99 328.6 m E P       2013/03/14 20:02:01.2  -0.4                          T                                        5225477
HINF  003.99 328.6 m E Sn      2013/03/14 20:02:41.8  -0.4                          T               10.8  .36 Ml 3.1         5224763
LASF  004.38 267.2 m E Pn      2013/03/14 20:02:02.8  -0.6                          T                                        5225471
LASF  004.38 267.2 m E Sn      2013/03/14 20:02:51.4  -0.1                          T                2.8  .31 Ml 2.7         5225461
CDF   004.37 336.1 m E Pn      2013/03/14 20:02:04.6   1.4                          T                                        5224736
CDF   004.37 336.1 m E Sn      2013/03/14 20:02:50.9  -0.3                          T                3.5  .27 Ml 3.0         5224766
HAU   004.34 326.3 m E P       2013/03/14 20:02:05.5  -1.0                          T                                        5225478
HAU   004.34 326.3 m E Sn      2013/03/14 20:02:50.2  -0.3                          T               14.1  .33 Ml 3.1         5224764
SFTF  005.06 319.7 m E Pn      2013/03/14 20:02:12.2  -0.4                          T                                        5224738
SFTF  005.06 319.7 m E P       2013/03/14 20:02:15.5  -1.2 136.6  0.4               T                                        5225479
SMF   004.81 299.3 m E P       2013/03/14 20:02:12.6  -0.5                          T                                        5225474
SMF   004.81 299.3 m E Sn      2013/03/14 20:03:01.4  -0.3                          T                4.5  .41 Ml 2.9         5224762
AVF   005.17 299.2 m E Pn      2013/03/14 20:02:13.8  -0.4                          T                                        5224742
AVF   005.17 299.2 m E P       2013/03/14 20:02:17.7  -0.6                          T                                        5225475
LOR   005.09 305.7 m E P       2013/03/14 20:02:15.7  -1.5 124.2  2.8               T                                        5225482
LOR   005.09 305.7 m E Sn      2013/03/14 20:03:08.4  -0.1 124.0  2.6               T                4.8  .37 Ml 3.0         5224768
PAGF  005.03 326.2 m E P       2013/03/14 20:02:15.8  -0.5                          T                                        5225480
PAGF  005.03 326.2 m E Sn      2013/03/14 20:03:06.9   0.0 155.1  11.9              T                                        5224765
SSF   005.20 302.4 m E P       2013/03/14 20:02:18.3  -0.4                          T                                        5225481
SSF   005.20 302.4 m E Sn      2013/03/14 20:03:10.7  -0.3                          T                                        5224767
BGF   005.41 295.4 m E P       2013/03/14 20:02:20.4  -1.2                          T                                        5225473
BGF   005.41 295.4 m E Sn      2013/03/14 20:03:15.9  -0.1                          T                8.2  .30 Ml 3.4         5224761
CAF   005.63 277.6 m E Pn      2013/03/14 20:02:21.0   0.6                          T                                        5224745
CAF   005.63 277.6 m E P       2013/03/14 20:02:24.8   0.0                          T                                        5225472

.
EVENT     293939
    Date      Time       Latitude Longitude    Depth    Ndef Nsta Gap    Mag1  N    Mag2  N    Mag3  N   Author         ID
       rms   OT_Error      Smajor Sminor Az        Err   mdist  Mdist     Err        Err        Err      Quality

2013/03/14 21:24:53.7     42.7189   -1.7394      2.0      13    3 109  Ml 1.2  2  Md 1.3  1              bulletin    294039
                                                                                                         _ldg
      0.36   +-  0.15       3.2    2.1  176.62 +-  0.0    0.13   1.91   +-0.0      +-                    m i ke

PYRENEES
Sta     Dist  EvAz     Phase      Date       Time     TRes  Azim  AzRes  Slow  SRes Def   SNR       Amp   Per   Mag1   Mag2       ID
SJPF  000.55 043.6 m E Pg      2013/03/14 21:25:04.1   0.0                          T                                        5225134
SJPF  000.55 043.6 m E Sg      2013/03/14 21:25:11.3   0.0                          T                 .9  .17        Md 1.3  5225135
ETSF  000.89 077.9 m E Pg      2013/03/14 21:25:10.6   0.2                          T                                        5225132
ETSF  000.89 077.9 m E Sg      2013/03/14 21:25:21.7  -0.3                          T                 .6  .21 Ml 1.2         5225133
EPF   001.56 077.8 m E Pg      2013/03/14 21:25:22.8   0.0                          T                                        5225137
EPF   001.56 077.8 m E Sn      2013/03/14 21:25:40.2  -0.2                          T                 .3  .24 Ml 1.2         5225136

.
EVENT     293915
    Date      Time       Latitude Longitude    Depth    Ndef Nsta Gap    Mag1  N    Mag2  N    Mag3  N   Author         ID
       rms   OT_Error      Smajor Sminor Az        Err   mdist  Mdist     Err        Err        Err      Quality

2013/03/14 22:01:05.5     43.9275    8.5546      4.0 f    51    9 167  Ml 2.0  3  Md 2.0  1              bulletin    294015
                                                                                                         _ldg
      0.62   +-  0.13       2.1    1.8   70.81 +-  0.0    0.30   2.16   +-0.1      +-                    m i ke

CORSICA, FRANCE
Sta     Dist  EvAz     Phase      Date       Time     TRes  Azim  AzRes  Slow  SRes Def   SNR       Amp   Per   Mag1   Mag2       ID
SBF   000.81 265.8 m E Pg      2013/03/14 22:01:21.2   0.3                          T                                        5224777
SBF   000.81 265.8 m E Sg      2013/03/14 22:01:31.0  -0.5                          T               26.3  .24        Md 2.0  5224776
PGF   001.42 166.6 m E Pn      2013/03/14 22:01:30.1  -0.4                          T                                        5225177
PGF   001.42 166.6 m E Sn      2013/03/14 22:01:47.9  -0.6                          T                                        5225176
FRF   001.43 255.8 m E Pn      2013/03/14 22:01:31.1   0.6                          T                                        5225179
FRF   001.43 255.8 m E Pg      2013/03/14 22:01:32.4   0.2                          T                                        5224773
FRF   001.43 255.8 m E Sn      2013/03/14 22:01:49.0   0.3                          T                                        5225178
FRF   001.43 255.8 m E Sg      2013/03/14 22:01:50.9   0.2                          T                1.7  .17 Ml 2.1         5224772
LMR   001.60 248.9 m E Pn      2013/03/14 22:01:32.2  -0.7                          T                                        5224779
LMR   001.60 248.9 m E Sn      2013/03/14 22:01:52.1  -0.6                          T                1.2  .21 Ml 1.9         5224778
LMR   001.60 248.9 m E Sg      2013/03/14 22:01:56.3   0.3                          T                                        5225220
MBDF  001.51 302.6 m E Pn      2013/03/14 22:01:32.3   0.5                          T                                        5224775
MBDF  001.51 302.6 m E Sn      2013/03/14 22:01:50.9   0.1                          T                3.5  .33 Ml 2.1         5224774
LPG   002.03 321.3 m E Pn      2013/03/14 22:01:39.6   0.5                          T                                        5225215
LPG   002.03 321.3 m E Pg      2013/03/14 22:01:43.5  -0.1                          T                                        5225214
LPG   002.03 321.3 m E Sn      2013/03/14 22:02:03.0  -0.4                          T                                        5225213
LPG   002.03 321.3 m E Sg      2013/03/14 22:02:09.6  -0.1                          T                                        5225212
LPL   002.05 321.4 m E Pn      2013/03/14 22:01:39.6   0.3                          T                                        5225207
LPL   002.05 321.4 m E Pg      2013/03/14 22:01:43.8  -0.1                          T                                        5225206
LPL   002.05 321.4 m E Sn      2013/03/14 22:02:04.3   0.5                          T                                        5225205
LPL   002.05 321.4 m E Sg      2013/03/14 22:02:10.6   0.3                          T                                        5225204
SMRF  002.15 272.3 m E Pn      2013/03/14 22:01:40.8   0.3                          T                                        5225219
SMRF  002.15 272.3 m E Pg      2013/03/14 22:01:44.8  -0.7                          T                                        5225218
SMRF  002.15 272.3 m E Sn      2013/03/14 22:02:06.7   0.7                          T                                        5225217
SMRF  002.15 272.3 m E Sg      2013/03/14 22:02:13.5   0.2                          T                                        5225216
ORIF  002.16 298.3 m E Pn      2013/03/14 22:01:41.0   0.5                          T                                        5225209
ORIF  002.16 298.3 m E Pg      2013/03/14 22:01:45.1  -0.6                          T                                        5225211
ORIF  002.16 298.3 m E Sn      2013/03/14 22:02:06.7   0.5                          T                                        5225210
ORIF  002.16 298.3 m E Sg      2013/03/14 22:02:13.6   0.1                          T                                        5225208

.
EVENT     293916
    Date      Time       Latitude Longitude    Depth    Ndef Nsta Gap    Mag1  N    Mag2  N    Mag3  N   Author         ID
       rms   OT_Error      Smajor Sminor Az        Err   mdist  Mdist     Err        Err        Err      Quality

2013/03/15 02:06:11.7     46.1539    2.7852     17.0 f    31   12 077  Ml 2.0 10  Md 2.0  4              bulletin    294016
                                                                                                         _ldg
      0.56   +-  0.05       1.4     .9  130.11 +-  0.0    0.03   2.08   +-0.2      +-0.1                 m i ke

FRANCE
Sta     Dist  EvAz     Phase      Date       Time     TRes  Azim  AzRes  Slow  SRes Def   SNR       Amp   Per   Mag1   Mag2       ID
BGF   000.41 006.0 m E Pg      2013/03/15 02:06:20.2   0.2                          T                                        5224785
BGF   000.41 006.0 m E Sg      2013/03/15 02:06:25.6  -0.1                          T               15.1  .25        Md 1.9  5224784
TCF   000.42 288.8 m E Pg      2013/03/15 02:06:20.3   0.0                          T                                        5224791
TCF   000.42 288.8 m E Sg      2013/03/15 02:06:26.0  -0.2                          T                7.9  .15        Md 2.0  5224790
AVF   000.75 031.4 m E Pg      2013/03/15 02:06:26.1   0.1                          T                                        5224789
AVF   000.75 031.4 m E P       2013/03/15 02:06:27.1   0.1                          T                                        5225511
AVF   000.75 031.4 m E Sg      2013/03/15 02:06:35.7  -0.3                          T                5.3  .28        Md 2.1  5224788
SMF   000.88 055.7 m E Pg      2013/03/15 02:06:28.7   0.2                          T                                        5224787
SMF   000.88 055.7 m E Sg      2013/03/15 02:06:40.7   0.6                          T                2.4  .18 Ml 1.9         5224786
SSF   001.04 028.4 m E Pg      2013/03/15 02:06:31.3   0.0                          T                                        5224795
SSF   001.04 028.4 m E Sg      2013/03/15 02:06:44.4  -0.5                          T                3.9  .21 Ml 2.2         5224793
HYF   001.12 354.9 m E Pg      2013/03/15 02:06:33.1   0.2                          T                                        5225334
HYF   001.12 354.9 m E Sg      2013/03/15 02:06:47.7   0.2                          T                                        5225333
CAF   001.33 202.7 m E Pn      2013/03/15 02:06:34.1   0.1                          T                                        5225228
CAF   001.33 202.7 m E Pg      2013/03/15 02:06:36.9   0.2                          T                                        5225512
CAF   001.33 202.7 m E Sg      2013/03/15 02:06:53.6  -0.4                          T                2.7  .20 Ml 2.1         5225227
RJF   001.23 226.7 m E Pg      2013/03/15 02:06:35.2   0.3                          T                                        5224783
RJF   001.23 226.7 m E Sg      2013/03/15 02:06:50.6  -0.3                          T                4.6  .19 Ml 2.0         5224782
LOR   001.34 033.1 m E Pg      2013/03/15 02:06:36.8  -0.1 213.1  -0.8              T                                        5224794
LOR   001.34 033.1 m E Sg      2013/03/15 02:06:53.7  -0.6 216.0  2.1               T                2.8  .21 Ml 2.1         5224792
MFF   002.08 283.5 m E Pn      2013/03/15 02:06:44.4   0.3                          T                                        5225226
MFF   002.08 283.5 m E Pg      2013/03/15 02:06:50.1  -0.4                          T                                        5225225
MFF   002.08 283.5 m E Sn      2013/03/15 02:07:08.5   0.4                          T                 .6  .23 Ml 1.8         5225224
MFF   002.08 283.5 m E Sg      2013/03/15 02:07:17.1  -0.1                          T                 .9  .19 Ml 2.1         5225223
VIVF  001.86 133.7 m E Pg      2013/03/15 02:06:46.0  -0.4                          T                                        5225232
VIVF  001.86 133.7 m E Sg      2013/03/15 02:07:10.0  -0.4                          T                 .8  .18 Ml 1.8         5225231
LFF   001.88 230.5 m E Pg      2013/03/15 02:06:46.6  -0.2                          T                                        5225230
LFF   001.88 230.5 m E Sg      2013/03/15 02:07:11.1   0.0                          T                3.2  .34 Ml 2.0         5225229

.
EVENT     293917
    Date      Time       Latitude Longitude    Depth    Ndef Nsta Gap    Mag1  N    Mag2  N    Mag3  N   Author         ID
       rms   OT_Error      Smajor Sminor Az        Err   mdist  Mdist     Err        Err        Err      Quality

2013/03/15 04:40:39.4     42.8966    -.0035     15.0       6    3 208  Ml 1.1  1  Md 1.2  2              bulletin    294017
                                                                                                         _ldg
      0.17   +-  0.24      12.9    1.8  170.56 +-  0.0    0.29   0.92   +-         +-0.0                 m i ke

PYRENEES
Sta     Dist  EvAz     Phase      Date       Time     TRes  Azim  AzRes  Slow  SRes Def   SNR       Amp   Per   Mag1   Mag2       ID
EPF   000.29 062.0 m E Pg      2013/03/15 04:40:45.5  -0.1                          T                                        5224799
EPF   000.29 062.0 m E Sg      2013/03/15 04:40:50.1   0.3                          T                4.8  .23        Md 1.2  5224798
ETSF  000.41 270.5 m E Pg      2013/03/15 04:40:47.9   0.1                          T                                        5224797
ETSF  000.41 270.5 m E Sg      2013/03/15 04:40:53.4   0.0                          T                4.3  .19        Md 1.2  5224796
SJPF  000.92 284.0 m E Pg      2013/03/15 04:40:56.8  -0.2                          T                                        5225360
SJPF  000.92 284.0 m E Sg      2013/03/15 04:41:09.3   0.2                          T                 .4  .20 Ml 1.1         5225359

.
