EVENT     280067
    Date      Time       Latitude Longitude    Depth    Ndef Nsta Gap    Mag1  N    Mag2  N    Mag3  N   Author         ID
       rms   OT_Error      Smajor Sminor Az        Err   mdist  Mdist     Err        Err        Err      Quality

2012/07/21 14:16:05.4     45.1617    7.1434      2.0      27    6 073  Ml 1.5  3  Md 1.7  3              bulletin    280167
                                                                                                         _ldg
      0.36   +-  0.08       1.7    1.3  113.19 +-  0.0    0.08   1.88   +-0.2      +-0.1                 m i ke

NORTHERN ITALY
Sta     Dist  EvAz     Phase      Date       Time     TRes  Azim  AzRes  Slow  SRes Def   SNR       Amp   Per   Mag1   Mag2       ID
LPG   000.44 320.7 m E Pg      2012/07/21 14:16:13.8  -0.3                          T                                        5032610
LPG   000.44 320.7 m E Sg      2012/07/21 14:16:20.1   0.2                          T                1.7  .16        Md 1.7  5032606
LPL   000.46 320.9 m E Pg      2012/07/21 14:16:14.9   0.4                          T                                        5032611
LPL   000.46 320.9 m E Sg      2012/07/21 14:16:20.5   0.0                          T                3.7  .34        Md 1.7  5032607
MBDF  000.51 211.4 m E Pg      2012/07/21 14:16:15.1  -0.2                          T                                        5032609
MBDF  000.51 211.4 m E Sg      2012/07/21 14:16:22.2   0.2                          T                3.2  .26        Md 1.6  5032608
ORIF  000.93 255.2 m E Pg      2012/07/21 14:16:22.8  -0.1                          T                                        5036921
ORIF  000.93 255.2 m E Sg      2012/07/21 14:16:35.3   0.3                          T                2.2  .33 Ml 1.6         5036920
FRF   001.64 192.7 m E Pn      2012/07/21 14:16:33.4  -0.1                          T                                        5036919
FRF   001.64 192.7 m E Pg      2012/07/21 14:16:36.9   1.0                          T                                        5036925
FRF   001.64 192.7 m E Sg      2012/07/21 14:16:56.4  -0.6                          T                 .7  .23 Ml 1.6         5036924
LMR   001.88 194.2 m E Pn      2012/07/21 14:16:36.6  -0.2                          T                                        5036923
LMR   001.88 194.2 m E Sg      2012/07/21 14:17:04.5  -0.1                          T                                        5036922

.
EVENT     279862
    Date      Time       Latitude Longitude    Depth    Ndef Nsta Gap    Mag1  N    Mag2  N    Mag3  N   Author         ID
       rms   OT_Error      Smajor Sminor Az        Err   mdist  Mdist     Err        Err        Err      Quality

2012/07/21 20:16:24.3     44.8332   11.5062      2.0      55   21 127  Ml 2.7 20                         bulletin    279962
                                                                                                         _ldg
      0.78   +-  0.20       4.1    3.1   76.06 +-  0.0    0.19   8.26   +-0.2                            m i ke

NORTHERN ITALY
Sta     Dist  EvAz     Phase      Date       Time     TRes  Azim  AzRes  Slow  SRes Def   SNR       Amp   Per   Mag1   Mag2       ID
PGF   002.92 219.4 m E Pn      2012/07/21 20:17:09.4  -0.6                          T                                        5037749
PGF   002.92 219.4 m E P       2012/07/21 20:17:12.6  -0.2                          T                                        5038321
PGF   002.92 219.4 m E Sn      2012/07/21 20:17:42.9  -0.7                          T                2.9  .29 Ml 2.6         5037725
SBF   003.08 253.1 m E Pn      2012/07/21 20:17:12.4   0.3                          T                                        5037750
SBF   003.08 253.1 m E Sn      2012/07/21 20:17:46.4  -0.9                          T               13.6  .48 Ml 2.9         5037726
MBDF  003.37 269.9 m E Pn      2012/07/21 20:17:16.2   0.0                          T                                        5037746
MBDF  003.37 269.9 m E Pg      2012/07/21 20:17:27.2   0.2                          T                                        5038318
MBDF  003.37 269.9 m E Sn      2012/07/21 20:17:53.7  -0.8                          T                8.7  .67 Ml 2.6         5037733
LPL   003.44 283.1 m E Pn      2012/07/21 20:17:17.1  -0.1                          T                                        5037731
LPL   003.44 283.1 m E P       2012/07/21 20:17:20.8   0.3                          T                                        5038320
LPL   003.44 283.1 m E Sn      2012/07/21 20:17:55.6  -0.7                          T                3.5  .42 Ml 2.4         5037732
LPG   003.43 282.8 m E Pn      2012/07/21 20:17:17.6   0.4                          T                                        5037747
LPG   003.43 282.8 m E Sn      2012/07/21 20:17:55.2  -0.7                          T                3.7  .48 Ml 2.4         5037730
FRF   003.72 251.7 m E Pn      2012/07/21 20:17:20.6  -0.1                          T                                        5037729
FRF   003.72 251.7 m E Sn      2012/07/21 20:18:02.7   0.2                          T                2.4  .22 Ml 2.7         5037728
LMR   003.90 249.1 m E Pn      2012/07/21 20:17:23.3   0.1                          T                                        5037751
LMR   003.90 249.1 m E Sn      2012/07/21 20:18:06.3  -0.6                          T                3.0  .29 Ml 2.7         5037727
ORIF  004.00 273.2 m E Pn      2012/07/21 20:17:24.2  -0.5                          T                                        5037722
ORIF  004.00 273.2 m E P       2012/07/21 20:17:27.4  -0.7                          T                                        5038319
ORIF  004.00 273.2 m E Sn      2012/07/21 20:18:07.9  -1.5                          T                8.9  .77 Ml 2.7         5037721
CABF  004.19 297.0 m E Pn      2012/07/21 20:17:28.1   0.9                          T                                        5037717
CABF  004.19 297.0 m E Sn      2012/07/21 20:18:13.5  -0.5                          T               17.2 1.10 Ml 2.9         5037716
HINF  004.39 314.4 m E Pn      2012/07/21 20:17:31.3   1.4                          T                                        5037741
HINF  004.39 314.4 m E Sn      2012/07/21 20:18:18.8   0.1                          T                1.8  .35 Ml 2.4         5037736
SMRF  004.34 260.7 m E P       2012/07/21 20:17:33.0   0.1                          T                                        5037748
CDF   004.62 322.4 m E Pn      2012/07/21 20:17:33.8   0.8                          T                                        5037740
CDF   004.62 322.4 m E Sn      2012/07/21 20:18:24.1   0.0                          T                3.2  .50 Ml 2.7         5037737
VIVF  004.86 272.7 m E Pn      2012/07/21 20:17:35.8  -0.6                          T                                        5037745
VIVF  004.86 272.7 m E Sn      2012/07/21 20:18:28.8  -1.0                          T                 .9  .32 Ml 2.3         5037734
HAU   004.77 313.5 m E Pn      2012/07/21 20:17:36.0   0.8                          T                                        5038324
HAU   004.77 313.5 m E Sn      2012/07/21 20:18:27.8   0.1                          T                4.5  .46 Ml 2.6         5038323
LASF  005.53 264.8 m E Pn      2012/07/21 20:17:45.0  -0.4                          T                                        5037724
LASF  005.53 264.8 m E Sn      2012/07/21 20:18:44.7  -1.1                          T                 .9  .30 Ml 2.4         5037723
SMF   005.66 291.4 m E Pn      2012/07/21 20:17:47.2  -0.1                          T                                        5037744
SMF   005.66 291.4 m E Sn      2012/07/21 20:18:48.5  -0.5                          T                1.6  .20 Ml 2.9         5037735
LOR   005.85 297.3 m E Pn      2012/07/21 20:17:50.6   0.8 110.4  -1.4              T                                        5037739
LOR   005.85 297.3 m E Sn      2012/07/21 20:18:54.2   0.7                          T                1.6  .29 Ml 2.8         5037738
SSF   006.01 294.6 m E Pn      2012/07/21 20:17:51.6  -0.3                          T                                        5037742
AVF   006.03 291.8 m E Pn      2012/07/21 20:17:53.0   0.9                          T                                        5037743
EPF   008.26 261.3 m E Pn      2012/07/21 20:18:23.8   1.2                          T                                        5037718
TCF   006.69 285.8 m E Sn      2012/07/21 20:19:14.1   0.6                          T                 .7  .38 Ml 2.5         5038322

.
EVENT     280080
    Date      Time       Latitude Longitude    Depth    Ndef Nsta Gap    Mag1  N    Mag2  N    Mag3  N   Author         ID
       rms   OT_Error      Smajor Sminor Az        Err   mdist  Mdist     Err        Err        Err      Quality

2012/07/21 23:08:45.3     44.4084    6.8446      2.0      33    8 061  Ml 1.4  7  Md 1.5  2              bulletin    280180
                                                                                                         _ldg
      1.06   +-  0.09       2.1    1.5   63.06 +-  0.0    0.08   1.11   +-0.1      +-0.0                 m i ke

FRANCE
Sta     Dist  EvAz     Phase      Date       Time     TRes  Azim  AzRes  Slow  SRes Def   SNR       Amp   Per   Mag1   Mag2       ID
MBDF  000.32 350.7 m E Pg      2012/07/21 23:08:52.0   0.2                          T                                        5032674
MBDF  000.32 350.7 m E Sg      2012/07/21 23:08:56.1  -0.1                          T                2.9  .25        Md 1.5  5032669
SBF   000.69 141.8 m E Pg      2012/07/21 23:08:58.5   0.0                          T                                        5037233
SBF   000.69 141.8 m E Sg      2012/07/21 23:09:07.7   0.1                          T                 .9  .21                5037232
ORIF  000.86 306.9 m E Pg      2012/07/21 23:09:01.2  -0.4                          T                                        5032673
ORIF  000.86 306.9 m E Sg      2012/07/21 23:09:13.2   0.5                          T                  1  .28 Ml 1.3 Md 1.5  5032670
FRF   000.86 189.6 m E Pg      2012/07/21 23:09:01.7   0.2                          T                                        5032672
FRF   000.86 189.6 m E P       2012/07/21 23:09:03.8   0.4                          T                                        5037234
FRF   000.86 189.6 m E Sg      2012/07/21 23:09:13.2   0.5                          T                1.1  .20 Ml 1.6         5032666
SMRF  001.01 245.1 m E Pn      2012/07/21 23:09:05.0   0.1                          T                                        5037238
SMRF  001.01 245.1 m E Sg      2012/07/21 23:09:18.0   0.5                          T                1.0  .26 Ml 1.4         5037237
LMR   001.10 192.8 m E Pg      2012/07/21 23:09:05.6  -0.3                          T                                        5032671
LMR   001.10 192.8 m E Sg      2012/07/21 23:09:20.3   0.0                          T                 .9  .19 Ml 1.5         5032665
LPG   001.09 356.6 m E Pn      2012/07/21 23:09:06.5   0.1                          T                                        5032668
LPG   001.09 356.6 m E Sg      2012/07/21 23:09:20.5   0.2                          T                 .8  .25 Ml 1.3         5032667
LPL   001.11 355.9 m E P       2012/07/21 23:09:08.4   0.2                          T                                        5037236
LPL   001.11 355.9 m E Sg      2012/07/21 23:09:20.6  -0.2                          T                1.9  .62 Ml 1.3         5037235

.
EVENT     280069
    Date      Time       Latitude Longitude    Depth    Ndef Nsta Gap    Mag1  N    Mag2  N    Mag3  N   Author         ID
       rms   OT_Error      Smajor Sminor Az        Err   mdist  Mdist     Err        Err        Err      Quality

2012/07/22 00:34:54.5     48.2068    7.7797     10.0      22    7 048  Ml 1.6  3  Md 1.8  3              bulletin    280169
                                                                                                         _ldg
      0.32   +-  0.04        .9     .7   29.06 +-  0.0    0.21   1.97   +-0.2      +-0.1                 m i ke

FRANCE
Sta     Dist  EvAz     Phase      Date       Time     TRes  Azim  AzRes  Slow  SRes Def   SNR       Amp   Per   Mag1   Mag2       ID
CDF   000.39 301.6 m E Pg      2012/07/22 00:35:02.2  -0.1                          T                                        5032680
CDF   000.39 301.6 m E Sg      2012/07/22 00:35:07.6  -0.1                          T                1.3  .16        Md 1.7  5032681
HINF  000.73 238.2 m E Pg      2012/07/22 00:35:08.6   0.1                          T                                        5032679
HINF  000.73 238.2 m E Sg      2012/07/22 00:35:18.0  -0.1                          T                2.0  .18        Md 1.8  5032678
HAU   000.98 258.7 m E Pg      2012/07/22 00:35:13.0   0.1                          T                                        5032683
HAU   000.98 258.7 m E Sg      2012/07/22 00:35:25.6  -0.1                          T                2.2  .24 Ml 1.6 Md 1.9  5032682
THEF  001.19 271.7 m E Pg      2012/07/22 00:35:16.4  -0.5                          T                                        5037246
THEF  001.19 271.7 m E Sg      2012/07/22 00:35:32.2  -0.2                          T                                        5037247
PAGF  001.41 285.0 m E Pn      2012/07/22 00:35:18.7   0.1                          T                                        5032677
PAGF  001.41 285.0 m E Pg      2012/07/22 00:35:21.2   0.3                          T                                        5032676
PAGF  001.41 285.0 m E Sg      2012/07/22 00:35:39.5   0.3                          T                1.6  .25 Ml 1.8         5032675
LANF  000.77 001.2 m E Sg      2012/07/22 00:35:19.6   0.2                          T                1.9  .24                5037245
CABF  001.97 216.4 m E Pn      2012/07/22 00:35:26.0  -0.3                          T                                        5032686
CABF  001.97 216.4 m E Pg      2012/07/22 00:35:31.2   0.0                          T                                        5032685
CABF  001.97 216.4 m E Sg      2012/07/22 00:35:56.5  -0.1                          T                 .6  .34 Ml 1.5         5032684

.
EVENT     280070
    Date      Time       Latitude Longitude    Depth    Ndef Nsta Gap    Mag1  N    Mag2  N    Mag3  N   Author         ID
       rms   OT_Error      Smajor Sminor Az        Err   mdist  Mdist     Err        Err        Err      Quality

2012/07/22 00:35:00.1     43.0288    -.6815      2.0       6    3 167             Md 1.2  3              bulletin    280170
                                                                                                         _ldg
      0.18   +-  0.10       4.0    1.7   17.36 +-  0.0    0.16   0.75              +-0.3                 m i ke

PYRENEES
Sta     Dist  EvAz     Phase      Date       Time     TRes  Azim  AzRes  Slow  SRes Def   SNR       Amp   Per   Mag1   Mag2       ID
ETSF  000.16 145.4 m E Pg      2012/07/22 00:35:03.5   0.0                          T                                        5032694
ETSF  000.16 145.4 m E Sg      2012/07/22 00:35:05.7   0.0                          T                2.8  .16        Md 1.6  5032690
SJPF  000.41 282.2 m E Pg      2012/07/22 00:35:07.8  -0.1                          T                                        5032693
SJPF  000.41 282.2 m E Sg      2012/07/22 00:35:13.7   0.3                          T                 .9  .23        Md 1.0  5032689
EPF   000.75 089.5 m E Pg      2012/07/22 00:35:14.4   0.1                          T                                        5032692
EPF   000.75 089.5 m E Sg      2012/07/22 00:35:23.8  -0.3                          T                 .9  .30        Md 1.1  5032691

.
EVENT     279864
    Date      Time       Latitude Longitude    Depth    Ndef Nsta Gap    Mag1  N    Mag2  N    Mag3  N   Author         ID
       rms   OT_Error      Smajor Sminor Az        Err   mdist  Mdist     Err        Err        Err      Quality

2012/07/22 04:39:26.3     42.9153     .1648      2.0      10    4 194  Ml 1.6  3  Md 1.7  2              bulletin    279964
                                                                                                         _ldg
      0.84   +-  0.18       8.1    1.6  170.56 +-  0.0    0.17   1.56   +-0.4      +-0.0                 m i ke

PYRENEES
Sta     Dist  EvAz     Phase      Date       Time     TRes  Azim  AzRes  Slow  SRes Def   SNR       Amp   Per   Mag1   Mag2       ID
EPF   000.17 048.2 m E Pg      2012/07/22 04:39:30.1   0.1                          T                                        5031052
EPF   000.17 048.2 m E Sg      2012/07/22 04:39:32.6   0.2                          T               11.5  .20        Md 1.7  5031048
ETSF  000.53 268.4 m E Pg      2012/07/22 04:39:36.8   0.2                          T                                        5031051
ETSF  000.53 268.4 m E Sg      2012/07/22 04:39:43.8   0.2                          T                2.8  .25        Md 1.7  5031047
SJPF  001.04 281.5 m E Pg      2012/07/22 04:39:45.7  -0.2                          T                                        5032696
SJPF  001.04 281.5 m E Sg      2012/07/22 04:39:58.7  -0.6                          T                 .7  .24 Ml 1.3         5032695
MTLF  001.56 073.5 m E Pg      2012/07/22 04:39:55.7   0.2                          T                                        5031050
MTLF  001.56 073.5 m E Sg      2012/07/22 04:40:15.5  -0.1                          T                 .7  .22 Ml 1.6         5032697

.
