EVENT     258711
    Date      Time       Latitude Longitude    Depth    Ndef Nsta Gap    Mag1  N    Mag2  N    Mag3  N   Author         ID
       rms   OT_Error      Smajor Sminor Az        Err   mdist  Mdist     Err        Err        Err      Quality

2011/04/28 00:49:19.7     42.6981     .1470      2.0      45   10 068  Ml 2.5  9  Md 2.5  3              js067245    258711

      0.54   +-  0.09       1.6    1.6  110.22 +-  0.0    0.36   4.33   +-0.2      +-0.0                 m i ke

PYRENEES
Sta     Dist  EvAz     Phase      Date       Time     TRes  Azim  AzRes  Slow  SRes Def   SNR       Amp   Per   Mag1   Mag2       ID
EPF   000.36 023.1 m E Pg      2011/04/28 00:49:26.3  -0.4                          T                                        4680933
EPF   000.36 023.1 m E Sg      2011/04/28 00:49:31.3  -0.3                          T               48.8  .28        Md 2.5  4680926
ETSF  000.56 291.3 m E Pg      2011/04/28 00:49:29.0  -1.4                          T                                        4680932
ETSF  000.56 291.3 m E Sg      2011/04/28 00:49:36.1  -1.6                          T               39.5  .40        Md 2.5  4680925
SJPF  001.09 292.8 m E Pn      2011/04/28 00:49:39.4  -0.9                          T                                        4680929
SJPF  001.09 292.8 m E Pg      2011/04/28 00:49:40.2   0.1                          T                                        4681228
SJPF  001.09 292.8 m E P       2011/04/28 00:49:42.3   0.4                          T                                        4680930
SJPF  001.09 292.8 m E Sg      2011/04/28 00:49:54.0  -0.3                          T               18.4  .34 Ml 2.6 Md 2.5  4680924
MTLF  001.65 066.4 m E Pg      2011/04/28 00:49:50.2  -0.2                          T                                        4680931
MTLF  001.65 066.4 m E Sg      2011/04/28 00:50:11.8   0.1                          T                6.1  .30 Ml 2.4         4681229
LFF   002.28 010.6 m E P       2011/04/28 00:49:58.9   0.0                          T                                        4680928
LFF   002.28 010.6 m E Sg      2011/04/28 00:50:31.6   0.2                          T                6.8  .32 Ml 2.4         4680994
CAF   002.62 031.3 m E Pn      2011/04/28 00:50:01.2  -0.1                          T                                        4681227
CAF   002.62 031.3 m E P       2011/04/28 00:50:03.9   0.1                          T                                        4680927
CAF   002.62 031.3 m E Pg      2011/04/28 00:50:08.1  -0.3                          T                                        4681231
CAF   002.62 031.3 m E Sn      2011/04/28 00:50:31.9   0.1                          T                4.8  .44 Ml 2.4         4680922
RJF   002.79 020.3 m E P       2011/04/28 00:50:06.1   0.0                          T                                        4680920
RJF   002.79 020.3 m E Pg      2011/04/28 00:50:11.5   0.1                          T                                        4681230
RJF   002.79 020.3 m E Sn      2011/04/28 00:50:35.6  -0.1                          T                4.5  .37 Ml 2.1         4680921
LASF  003.03 061.7 m E Pn      2011/04/28 00:50:06.9   0.0                          T                                        4680993
LASF  003.03 061.7 m E Pg      2011/04/28 00:50:16.1   0.2                          T                                        4680992
LASF  003.03 061.7 m E Sg      2011/04/28 00:50:54.9  -0.1                          T                5.0  .56 Ml 2.4         4680991
VIVF  003.92 055.1 m E Pn      2011/04/28 00:50:19.0   0.0                          T                                        4680989
VIVF  003.92 055.1 m E Sg      2011/04/28 00:51:22.4  -0.3                          T                1.2  .25 Ml 2.3         4680990
BGF   004.31 025.6 m E Pn      2011/04/28 00:50:24.4   0.2                          T                                        4680987
BGF   004.31 025.6 m E Sn      2011/04/28 00:51:12.3   0.2                          T                                        4680983
BGF   004.31 025.6 m E Sg      2011/04/28 00:51:34.7  -0.1                          T                6.2  .42 Ml 2.9         4680986

.
EVENT     258713
    Date      Time       Latitude Longitude    Depth    Ndef Nsta Gap    Mag1  N    Mag2  N    Mag3  N   Author         ID
       rms   OT_Error      Smajor Sminor Az        Err   mdist  Mdist     Err        Err        Err      Quality

2011/04/28 05:35:38.0     43.1689    5.0652     10.0 f    57   20 168  Ml 2.4 22  Md 2.5  3              js067245    258713

      1.08   +-  0.13       2.9    1.7  174.61 +-  0.0    0.72   5.05   +-0.3      +-0.1                 m i ke

NEAR SOUTH COAST OF FRANCE
Sta     Dist  EvAz     Phase      Date       Time     TRes  Azim  AzRes  Slow  SRes Def   SNR       Amp   Per   Mag1   Mag2       ID
SMRF  000.89 024.5 m E Pg      2011/04/28 05:35:55.4   0.6                          T                                        4681058
SMRF  000.89 024.5 m E Sg      2011/04/28 05:36:06.2  -0.2                          T               38.5  .32 Ml 2.8 Md 2.5  4681054
LMR   001.07 080.6 m E Pn      2011/04/28 05:35:57.4   0.0                          T                                        4681056
LMR   001.07 080.6 m E Pg      2011/04/28 05:35:57.9  -0.1                          T                                        4681242
LMR   001.07 080.6 m E Sg      2011/04/28 05:36:11.0  -0.9                          T               48.8  .32 Ml 3.0 Md 2.7  4681053
LASF  001.26 316.4 m E Pn      2011/04/28 05:36:01.1   1.0                          T                                        4681057
LASF  001.26 316.4 m E Sn      2011/04/28 05:36:16.9   0.8                          T               10.5  .22 Ml 2.6 Md 2.5  4681052
VIVF  001.71 350.6 m E Pn      2011/04/28 05:36:06.4   0.2                          T                                        4681020
VIVF  001.71 350.6 m E Pg      2011/04/28 05:36:09.7  -0.2                          T                                        4681055
VIVF  001.71 350.6 m E Sg      2011/04/28 05:36:31.8  -0.2                          T                4.6  .24 Ml 2.4         4681029
ORIF  001.84 018.3 m E Pn      2011/04/28 05:36:08.6   0.4                          T                                        4681022
ORIF  001.84 018.3 m E Pg      2011/04/28 05:36:12.2  -0.3                          T                                        4681047
ORIF  001.84 018.3 m E Sg      2011/04/28 05:36:36.3   0.0                          T                1.7  .27 Ml 2.0         4681027
MBDF  001.99 037.8 m E Pn      2011/04/28 05:36:10.4   0.3                          T                                        4681021
MBDF  001.99 037.8 m E Pg      2011/04/28 05:36:14.4  -0.7                          T                                        4681046
MBDF  001.99 037.8 m E Sg      2011/04/28 05:36:40.5  -0.3                          T                4.9  .34 Ml 2.4         4681028
MTLF  002.09 275.7 m E Pn      2011/04/28 05:36:11.3   0.0                          T                                        4681019
MTLF  002.09 275.7 m E Pg      2011/04/28 05:36:15.6  -1.2                          T                                        4681045
MTLF  002.09 275.7 m E Sg      2011/04/28 05:36:42.5  -1.2                          T                5.9  .42 Ml 2.4         4681030
SBF   001.86 067.3 m E Pg      2011/04/28 05:36:11.7  -1.0                          T                                        4681050
SBF   001.86 067.3 m E Sg      2011/04/28 05:36:34.6  -2.1                          T               19.4  .28 Ml 3.0         4681051
LPG   002.62 026.9 m E Pn      2011/04/28 05:36:19.2   0.2                          T                                        4681024
LPG   002.62 026.9 m E Pg      2011/04/28 05:36:26.2  -0.8                          T                                        4681049
LPG   002.62 026.9 m E Sg      2011/04/28 05:37:00.8  -0.1                          T                1.3  .36 Ml 1.9         4681025
LPL   002.63 026.4 m E Pn      2011/04/28 05:36:19.5   0.5                          T                                        4681023
LPL   002.63 026.4 m E Pg      2011/04/28 05:36:26.8  -0.4                          T                                        4681048
LPL   002.63 026.4 m E Sg      2011/04/28 05:37:01.0  -0.1                          T                1.8  .39 Ml 2.0         4681026
CAF   002.79 310.1 m E Pn      2011/04/28 05:36:20.9   0.0                          T                                        4681041
CAF   002.79 310.1 m E Sg      2011/04/28 05:37:05.0  -0.6                          T                1.5  .24 Ml 2.2         4681032
PGF   002.96 100.8 m E Pn      2011/04/28 05:36:23.2  -0.1                          T                                        4681044
PGF   002.96 100.8 m E Sn      2011/04/28 05:36:57.3   0.6                          T                1.4  .19 Ml 2.5         4681043
RJF   003.33 311.2 m E Pn      2011/04/28 05:36:28.5   0.2                          T                                        4681039
RJF   003.33 311.2 m E Sg      2011/04/28 05:37:21.7  -0.6                          T                2.5  .36 Ml 2.0         4681034
EPF   003.46 269.3 m E Pn      2011/04/28 05:36:29.9  -0.2                          T                                        4681042
EPF   003.46 269.3 m E Sg      2011/04/28 05:37:25.4  -1.3                          T                2.4  .35 Ml 2.4         4681031
CABF  003.52 011.6 m E Pn      2011/04/28 05:36:31.4   0.4                          T                                        4681018
CABF  003.52 011.6 m E Sn      2011/04/28 05:37:11.2   1.1                          T                  1  .22 Ml 2.2         4681014
LFF   003.59 301.1 m E Pn      2011/04/28 05:36:31.8   0.1                          T                                        4681040
LFF   003.59 301.1 m E Sg      2011/04/28 05:37:29.7  -0.7                          T                3.2  .30 Ml 2.4         4681033
SMF   003.58 346.4 m E Pn      2011/04/28 05:36:32.0   0.3                          T                                        4681016
SMF   003.58 346.4 m E Sn      2011/04/28 05:37:12.6   1.0                          T                1.0  .22 Ml 2.2         4681012
BGF   003.74 335.8 m E Pn      2011/04/28 05:36:33.9   0.1                          T                                        4681015
BGF   003.74 335.8 m E Sn      2011/04/28 05:37:16.4   1.1                          T                3.1  .33 Ml 2.6         4681011
AVF   003.82 342.0 m E Pn      2011/04/28 05:36:35.1   0.2                          T                                        4681017
AVF   003.82 342.0 m E Sn      2011/04/28 05:37:18.3   1.1                          T                 .9  .33 Ml 2.0         4681013
MFF   005.05 314.6 m E Pn      2011/04/28 05:36:51.8   0.1                          T                                        4681038
MFF   005.05 314.6 m E Sn      2011/04/28 05:37:47.5   0.9                          T                1.2  .32 Ml 2.6         4681035

.
EVENT     258741
    Date      Time       Latitude Longitude    Depth    Ndef Nsta Gap    Mag1  N    Mag2  N    Mag3  N   Author         ID
       rms   OT_Error      Smajor Sminor Az        Err   mdist  Mdist     Err        Err        Err      Quality

2011/04/28 20:14:39.6     44.6670   10.0888     10.0 f   123   30 032  Ml 3.1 25                         js067245    258741

      1.22   +-  0.09       2.5    2.0   20.75 +-  0.0    0.19   7.24   +-0.3                            m i ke

NORTHERN ITALY
Sta     Dist  EvAz     Phase      Date       Time     TRes  Azim  AzRes  Slow  SRes Def   SNR       Amp   Per   Mag1   Mag2       ID
SBF   002.07 248.1 m E Pn      2011/04/28 20:15:12.1  -0.6                          T   001.0                                4681578
SBF   002.07 248.1 m E Sn      2011/04/28 20:15:37.5   0.5                          T   001.0       62.6  .32 Ml 3.5         4681579
PGF   002.26 200.9 m E Pn      2011/04/28 20:15:14.2  -1.2                          T   001.0                                4681576
PGF   002.26 200.9 m E Sn      2011/04/28 20:15:40.5  -1.2                          T   001.0       17.4  .24 Ml 3.4         4681577
MBDF  002.37 272.6 m E Pn      2011/04/28 20:15:17.4   0.5                          T   001.0                                4681587
MBDF  002.37 272.6 m E Sn      2011/04/28 20:15:45.2   0.9                          T                                        4681663
MBDF  002.37 272.6 m E Sg      2011/04/28 20:15:54.0  -0.2                          T               79.2  .61 Ml 3.4         4681664
LPG   002.51 290.5 m E Pn      2011/04/28 20:15:18.9  -0.1                          T   001.0                                4681573
LPG   002.51 290.5 m E Sn      2011/04/28 20:15:47.8   0.1                          T                                        4681668
LPG   002.51 290.5 m E Sg      2011/04/28 20:15:58.8   0.1                          T   001.0       41.5  .72 Ml 3.1         4681574
LPL   002.52 290.8 m E Pn      2011/04/28 20:15:19.4   0.3                          T   001.0                                4681575
LPL   002.52 290.8 m E Sn      2011/04/28 20:15:48.9   0.8                          T                                        4681666
LPL   002.52 290.8 m E Sg      2011/04/28 20:15:59.1  -0.1                          T               33.0  .40 Ml 3.2         4681667
FRF   002.71 247.2 m E Pn      2011/04/28 20:15:21.4   0.0                          T   001.0                                4681565
FRF   002.71 247.2 m E Sn      2011/04/28 20:15:53.3   0.9                          T                                        4681669
FRF   002.71 247.2 m E Sg      2011/04/28 20:16:04.5  -0.3                          T   001.0       14.6  .36 Ml 3.0         4681566
LMR   002.91 244.0 m E Pn      2011/04/28 20:15:23.0  -1.1                          T                                        4681671
LMR   002.91 244.0 m E Sn      2011/04/28 20:15:56.7  -0.3                          T               36.1  .42 Ml 3.4         4681670
ORIF  003.01 276.3 m E Pn      2011/04/28 20:15:26.4   0.9                          T   001.0                                4681589
ORIF  003.01 276.3 m E Sn      2011/04/28 20:16:00.7   1.2                          T               28.8  .48 Ml 3.2         4681665
SMRF  003.31 259.5 m E Pn      2011/04/28 20:15:30.4   0.8                          T   001.0                                4681592
SMRF  003.31 259.5 m E Sn      2011/04/28 20:16:07.1   0.4                          T   001.0         21  .56 Ml 3.1         4681593
CABF  003.41 306.1 m E Pn      2011/04/28 20:15:31.8   0.7                          T   001.0                                4681584
CABF  003.41 306.1 m E Sn      2011/04/28 20:16:10.0   0.8                          T   001.0       18.2  .52 Ml 3.1         4681585
HINF  003.87 325.7 m E Pn      2011/04/28 20:15:36.9  -0.4                          T   001.0                                4681586
HINF  003.87 325.7 m E Sn      2011/04/28 20:16:20.6   0.6                          T               13.1  .36 Ml 3.2         4681658
VIVF  003.86 274.7 m E Pn      2011/04/28 20:15:37.5   0.4                          T   001.0                                4681590
VIVF  003.86 274.7 m E Sn      2011/04/28 20:16:21.6   1.8                          T   001.0        7.5  .44 Ml 2.9         4681591
CDF   004.22 333.6 m E Pn      2011/04/28 20:15:40.0  -1.1                          T   001.0                                4681564
CDF   004.22 333.6 m E Sn      2011/04/28 20:16:28.9   0.5                          T                8.6  .26 Ml 3.3         4681656
HAU   004.23 323.5 m E Pn      2011/04/28 20:15:42.0  -0.1                          T   001.0                                4681567
HAU   004.23 323.5 m E Sn      2011/04/28 20:16:29.1   0.5                          T               15.1  .30 Ml 3.2         4681657
LASF  004.51 264.6 m E Pn      2011/04/28 20:15:46.5   0.6                          T   001.0                                4681568
LASF  004.51 264.6 m E Sn      2011/04/28 20:16:36.1   0.8                          T   001.0                                4681569
LASF  004.51 264.6 m E Sg      2011/04/28 20:17:00.7  -0.1                          T   001.0        3.8  .52 Ml 2.6         4681570
SMF   004.81 296.5 m E Pn      2011/04/28 20:15:50.5   0.6                          T   001.0                                4681580
SMF   004.81 296.5 m E Sn      2011/04/28 20:16:43.4   1.0                          T                6.5  .38 Ml 3.1         4681659
PAGF  004.92 323.8 m E Pn      2011/04/28 20:15:51.9   0.5 145.9  5.2               T                                        4681677
PAGF  004.92 323.8 m E Sn      2011/04/28 20:16:45.8   0.8                          T                2.2  .53 Ml 2.5         4681655
SFTF  004.97 317.2 m E Pn      2011/04/28 20:15:52.6   0.4 131.0  -2.5              T                                        4681675
LOR   005.06 303.1 m E Pn      2011/04/28 20:15:53.7   0.2 124.6  5.9               T   001.0                                4681571
LOR   005.06 303.1 m E Sn      2011/04/28 20:16:49.5   1.0                          T   001.0       10.1  .44 Ml 3.3         4681572
AVF   005.17 296.6 m E Pn      2011/04/28 20:15:55.0   0.1                          T   001.0                                4681561
SSF   005.18 299.8 m E Pn      2011/04/28 20:15:55.0  -0.1                          T   001.0                                4681581
SSF   005.18 299.8 m E Sn      2011/04/28 20:16:52.1   0.7                          T                3.6  .31 Ml 3.1         4681654
SSF   005.18 299.8 m E Sg      2011/04/28 20:17:21.4  -0.5                          T   001.0        3.1  .52 Ml 2.8         4681582
MEZF  005.17 319.6 m E Pn      2011/04/28 20:15:55.6   0.7 139.2  3.2               T                                        4681676
BGF   005.42 293.0 m E Pn      2011/04/28 20:15:58.5   0.2                          T   001.0                                4681562
BGF   005.42 293.0 m E Sn      2011/04/28 20:16:57.9   0.9                          T               13.6  .40 Ml 3.5         4681660
RUP   005.44 338.8 m E Pn      2011/04/28 20:15:59.0   0.4                          T                                        4681678
CAF   005.72 275.4 m E Pn      2011/04/28 20:16:03.0   0.6                          T   001.0                                4681563
TCF   005.77 289.1 m E Pn      2011/04/28 20:16:03.6   0.4                          T                                        4681680
TCF   005.77 289.1 m E Sn      2011/04/28 20:17:06.3   0.8                          T   001.0        3.6  .36 Ml 3.1         4681583
MTLF  005.83 259.6 m E Pn      2011/04/28 20:16:04.0   0.1                          T   001.0                                4681588
MTLF  005.83 259.6 m E Sn      2011/04/28 20:17:08.1   1.2                          T                3.3  .53 Ml 2.9         4681662
RJF   006.11 279.0 m E Pn      2011/04/28 20:16:08.6   0.8                          T                                        4681673
GIVF  006.51 328.6 m E Pn      2011/04/28 20:16:13.3   0.2                          T                                        4681679
EPF   007.24 260.3 m E Pn      2011/04/28 20:16:23.3   0.2                          T                                        4681672

.
