EVENT     263494
    Date      Time       Latitude Longitude    Depth    Ndef Nsta Gap    Mag1  N    Mag2  N    Mag3  N   Author         ID
       rms   OT_Error      Smajor Sminor Az        Err   mdist  Mdist     Err        Err        Err      Quality

2011/09/05 00:14:00.0     43.9188   -6.8195     10.0 f    59   13 148  Ml 2.7  6                         js067245    263494

      1.38   +-  0.24       5.8    3.2  137.40 +-  0.0    0.64   8.29   +-0.1                            m i ke

SPAIN
Sta     Dist  EvAz     Phase      Date       Time     TRes  Azim  AzRes  Slow  SRes Def   SNR       Amp   Per   Mag1   Mag2       ID
SJPF  004.15 099.3 m E Pn      2011/09/05 00:15:00.9  -0.5                          T                                        4757013
SJPF  004.15 099.3 m E Sn      2011/09/05 00:15:45.7  -1.3                          T                2.3  .26 Ml 2.6         4757003
QUIF  004.74 031.2 m E Pn      2011/09/05 00:15:08.7  -0.7                          T                                        4757009
ETSF  004.67 100.4 m E Pn      2011/09/05 00:15:09.5   0.9                          T                                        4757014
ETSF  004.67 100.4 m E Sn      2011/09/05 00:16:01.3   1.7                          T                1.3  .20 Ml 2.6         4757002
EPF   005.29 097.2 m E Pn      2011/09/05 00:15:16.5  -0.5                          T                                        4757015
EPF   005.29 097.2 m E Sn      2011/09/05 00:16:16.6   2.4                          T                1.3  .24 Ml 2.7         4757001
MFF   005.42 058.0 m E Pn      2011/09/05 00:15:17.7  -1.0                          T                                        4757011
RJF   006.11 074.0 m E Pn      2011/09/05 00:15:27.4  -0.7                          T                                        4757010
RJF   006.11 074.0 m E Sn      2011/09/05 00:16:31.7  -2.2                          T                4.9  .48 Ml 2.8         4757004
CAF   006.44 077.9 m E Pn      2011/09/05 00:15:31.4  -1.2                          T                                        4757012
MTLF  006.58 091.9 m E Pn      2011/09/05 00:15:34.2  -0.4                          T                                        4757016
MTLF  006.58 091.9 m E Sn      2011/09/05 00:16:43.1  -2.1                          T                 .7  .26 Ml 2.6         4757022
TCF   006.81 066.5 m E Pn      2011/09/05 00:15:37.7   0.0                          T                                        4757007
TCF   006.81 066.5 m E Sn      2011/09/05 00:16:46.8  -4.0                          T                1.9  .44 Ml 2.9         4757005
BGF   007.32 065.5 m E Pn      2011/09/05 00:15:44.7   0.2                          T                                        4757008
LASF  007.70 085.1 m E Pn      2011/09/05 00:15:48.6  -1.2                          T                                        4757017
LOR   008.20 062.2 m E Pn      2011/09/05 00:15:56.5  -0.1 240.2  -9.6              T                                        4757006
VIVF  008.29 079.5 m E Pn      2011/09/05 00:15:56.8  -0.9                          T                                        4757018

.
EVENT     263495
    Date      Time       Latitude Longitude    Depth    Ndef Nsta Gap    Mag1  N    Mag2  N    Mag3  N   Author         ID
       rms   OT_Error      Smajor Sminor Az        Err   mdist  Mdist     Err        Err        Err      Quality

2011/09/05 00:27:00.4     42.9519   -1.5408      2.0      15    3 175  Ml 1.1  1  Md 1.5  2              js067245    263495

      0.28   +-  0.12       2.0    1.6   97.07 +-  0.0    0.18   1.38   +-         +-0.1                 m i ke

PYRENEES
Sta     Dist  EvAz     Phase      Date       Time     TRes  Azim  AzRes  Slow  SRes Def   SNR       Amp   Per   Mag1   Mag2       ID
SJPF  000.28 055.0 m E Pg      2011/09/05 00:27:05.8  -0.1                          T                                        4757036
SJPF  000.28 055.0 m E Sg      2011/09/05 00:27:09.6  -0.1                          T                1.8  .23        Md 1.6  4757037
ETSF  000.72 093.9 m E Pg      2011/09/05 00:27:14.1   0.0                          T                                        4757034
ETSF  000.72 093.9 m E Sg      2011/09/05 00:27:23.7   0.2                          T                 .5  .21        Md 1.4  4757035
EPF   001.38 086.1 m E Pg      2011/09/05 00:27:26.2   0.0                          T                                        4757032
EPF   001.38 086.1 m E Sg      2011/09/05 00:27:44.1   0.1                          T                 .3  .24 Ml 1.1         4757033

.
EVENT     263474
    Date      Time       Latitude Longitude    Depth    Ndef Nsta Gap    Mag1  N    Mag2  N    Mag3  N   Author         ID
       rms   OT_Error      Smajor Sminor Az        Err   mdist  Mdist     Err        Err        Err      Quality

2011/09/05 02:45:40.6     46.9486   11.2787     10.0 f    38   10 089  Ml 2.5  5                         js067245    263474

      0.92   +-  0.25       6.2    3.7   30.33 +-  0.0    0.22   6.74   +-0.2                            m i ke

NORTHERN ITALY
Sta     Dist  EvAz     Phase      Date       Time     TRes  Azim  AzRes  Slow  SRes Def   SNR       Amp   Per   Mag1   Mag2       ID
CDF   003.08 299.9 m E Pn      2011/09/05 02:46:27.6   0.0                          T                                        4757063
CDF   003.08 299.9 m E Pg      2011/09/05 02:46:38.0   0.2                          T                                        4757062
CDF   003.08 299.9 m E Sn      2011/09/05 02:47:02.5   0.4                          T                4.5  .29 Ml 2.7         4757048
CDF   003.08 299.9 m E Sg      2011/09/05 02:47:17.6   0.3                          T                3.8  .29 Ml 2.7         4757047
HINF  003.13 287.7 m E Pn      2011/09/05 02:46:28.3   0.1                          T                                        4757060
HINF  003.13 287.7 m E Sg      2011/09/05 02:47:18.8  -0.1                          T                2.7  .23 Ml 2.5         4757050
HAU   003.51 289.3 m E Pn      2011/09/05 02:46:34.0   0.6                          T                                        4757061
HAU   003.51 289.3 m E Sg      2011/09/05 02:47:30.1  -0.6                          T                7.2  .42 Ml 2.6         4757049
CABF  003.58 266.5 m E Pn      2011/09/05 02:46:35.0   0.6                          T                                        4757058
CABF  003.58 266.5 m E Pg      2011/09/05 02:46:46.9  -0.2                          T                                        4757059
LPG   003.46 246.9 m E P       2011/09/05 02:46:36.1  -0.2                          T                                        4757053
LPG   003.46 246.9 m E Sg      2011/09/05 02:47:28.9  -0.7                          T                1.3  .32 Ml 2.1         4757052
LPL   003.47 247.2 m E P       2011/09/05 02:46:36.5   0.2                          T                                        4757054
ORIF  004.28 243.6 m E P       2011/09/05 02:46:47.5  -0.1                          T                                        4757051
SMF   005.12 269.3 m E Pn      2011/09/05 02:46:54.8  -0.4                          T                                        4757057
BGF   005.81 269.2 m E Pn      2011/09/05 02:47:05.7   1.0                          T                                        4757056
CAF   006.74 255.9 m E Pn      2011/09/05 02:47:19.3   2.0                          T                                        4757055

.
EVENT     263475
    Date      Time       Latitude Longitude    Depth    Ndef Nsta Gap    Mag1  N    Mag2  N    Mag3  N   Author         ID
       rms   OT_Error      Smajor Sminor Az        Err   mdist  Mdist     Err        Err        Err      Quality

2011/09/05 03:20:39.1     50.2557   12.4430     10.0      40   11 109  Ml 3.4 10                         js067245    263475

      0.71   +-  0.10       2.3    1.5  119.95 +-  0.0    0.02   7.67   +-0.2                            m i ke

GERMANY
Sta     Dist  EvAz     Phase      Date       Time     TRes  Azim  AzRes  Slow  SRes Def   SNR       Amp   Per   Mag1   Mag2       ID
RUP   003.52 263.0 m E Pn      2011/09/05 03:21:30.5  -1.5                          T                                        4757091
RUP   003.52 263.0 m E Pg      2011/09/05 03:21:44.7   0.3                          T                                        4757090
RUP   003.52 263.0 m E Sg      2011/09/05 03:22:28.9  -0.6                          T                                        4757069
CDF   003.85 243.3 m E Pn      2011/09/05 03:21:35.8  -0.8                          T                                        4757089
CDF   003.85 243.3 m E Pg      2011/09/05 03:21:50.1  -0.4                          T                                        4757088
CDF   003.85 243.3 m E Sg      2011/09/05 03:22:39.7  -0.3                          T               61.5  .68 Ml 3.7         4757070
HINF  004.41 238.6 m E Pn      2011/09/05 03:21:43.9  -0.3                          T                                        4757084
HINF  004.41 238.6 m E Pg      2011/09/05 03:22:00.6  -0.3                          T                                        4757083
HINF  004.41 238.6 m E Sg      2011/09/05 03:22:56.0  -1.5                          T               25.2  .41 Ml 3.5         4757073
HAU   004.59 243.0 m E Pn      2011/09/05 03:21:46.5  -0.1                          T                                        4757086
HAU   004.59 243.0 m E Pg      2011/09/05 03:22:05.0   0.9                          T                                        4757085
HAU   004.59 243.0 m E Sg      2011/09/05 03:23:02.4  -0.7                          T               19.5  .33 Ml 3.3         4757072
PAGF  004.70 251.4 m E Pg      2011/09/05 03:22:06.1   0.0  74.3  8.0               T                                        4757087
PAGF  004.70 251.4 m E Sg      2011/09/05 03:23:06.7   0.1                          T               10.3  .66 Ml 3.0         4757071
LPG   006.11 221.0 m E Pn      2011/09/05 03:22:08.5   1.0                          T                                        4757079
LPG   006.11 221.0 m E Pg      2011/09/05 03:22:33.2   0.8                          T                                        4757078
LPG   006.11 221.0 m E Sg      2011/09/05 03:23:51.3   0.7                          T               17.8  .90 Ml 3.4         4757077
CABF  005.58 231.7 m E Pg      2011/09/05 03:22:22.8   0.3                          T                                        4757082
CABF  005.58 231.7 m E Sg      2011/09/05 03:23:33.5  -0.6                          T               26.8  .76 Ml 3.5         4757074
LPL   006.10 221.2 m E Pg      2011/09/05 03:22:32.4   0.2                          T                                        4757080
LOR   006.41 245.5 m E Pg      2011/09/05 03:22:37.6  -0.1  52.2  -6.8              T                                        4757092
LOR   006.41 245.5 m E Sg      2011/09/05 03:23:59.6  -0.2                          T                7.2  .47 Ml 3.4         4757067
SMF   006.77 241.0 m E Pg      2011/09/05 03:22:44.2   0.0                          T                                        4757081
SMF   006.77 241.0 m E Sg      2011/09/05 03:24:09.7  -1.1                          T               10.0  .53 Ml 3.5         4757075
GIVF  004.90 271.1 m E Sg      2011/09/05 03:23:09.8  -2.8                          T               27.8  .56 Ml 3.5         4757068

.
EVENT     263476
    Date      Time       Latitude Longitude    Depth    Ndef Nsta Gap    Mag1  N    Mag2  N    Mag3  N   Author         ID
       rms   OT_Error      Smajor Sminor Az        Err   mdist  Mdist     Err        Err        Err      Quality

2011/09/05 03:25:50.5     50.3631   12.3235     10.0      33   17 309  Ml 3.7 17                         js067245    263476

      0.74   +-  0.33       5.2    4.4  151.99 +-  0.0    3.46   7.65   +-0.2                            m i ke

GERMANY
Sta     Dist  EvAz     Phase      Date       Time     TRes  Azim  AzRes  Slow  SRes Def   SNR       Amp   Per   Mag1   Mag2       ID
RUP   003.46 261.0 m E Pn      2011/09/05 03:26:42.6   0.0                          T                                        4757124
RUP   003.46 261.0 m E Pg      2011/09/05 03:26:55.2   0.6                          T                                        4757123
RUP   003.46 261.0 m E Sg      2011/09/05 03:27:39.3   0.3                          T                                        4757099
CDF   003.83 241.3 m E Pn      2011/09/05 03:26:47.8   0.1                          T                                        4757122
CDF   003.83 241.3 m E Pg      2011/09/05 03:27:01.6   0.1                          T                                        4757121
CDF   003.83 241.3 m E Sg      2011/09/05 03:27:50.5  -0.3                          T               84.6  .44 Ml 4.0         4757100
HINF  004.41 236.8 m E Pn      2011/09/05 03:26:55.6   0.2                          T                                        4757118
HINF  004.41 236.8 m E Pg      2011/09/05 03:27:11.6  -0.5                          T                                        4757117
HINF  004.41 236.8 m E Sg      2011/09/05 03:28:07.7  -0.9                          T               56.0  .39 Ml 3.9         4757105
HAU   004.57 241.2 m E Pg      2011/09/05 03:27:14.9  -0.3                          T                                        4757119
HAU   004.57 241.2 m E Sg      2011/09/05 03:28:14.2   0.4                          T               64.9  .40 Ml 3.8         4757104
PAGF  004.67 249.7 m E Pg      2011/09/05 03:27:17.2   0.3  56.6  -8.1              T                                        4757120
PAGF  004.67 249.7 m E Sg      2011/09/05 03:28:16.7  -0.1                          T               24.4  .70 Ml 3.3         4757101
GIVF  004.82 269.8 m E Pg      2011/09/05 03:27:21.2   1.5                          T                                        4757125
GIVF  004.82 269.8 m E Sg      2011/09/05 03:28:21.5   0.0                          T               55.2  .53 Ml 3.8         4757097
LOR   006.39 244.3 m E Pn      2011/09/05 03:27:21.3  -1.1                          T                                        4757128
LOR   006.39 244.3 m E Pg      2011/09/05 03:27:48.8   0.2  56.4  -1.5              T                                        4757127
LOR   006.39 244.3 m E Sg      2011/09/05 03:29:09.9  -0.6                          T               16.4  .44 Ml 3.7         4757095
CABF  005.59 230.2 m E Pg      2011/09/05 03:27:33.4  -0.6                          T                                        4757116
CABF  005.59 230.2 m E Sg      2011/09/05 03:28:45.2  -0.5                          T               60.6  .75 Ml 3.9         4757106
LPL   006.13 219.9 m E Pg      2011/09/05 03:27:43.9  -0.2                          T                                        4757114
LPL   006.13 219.9 m E Sg      2011/09/05 03:29:03.9   1.2                          T               14.1  .72 Ml 3.4         4757111
LPG   006.14 219.7 m E Pg      2011/09/05 03:27:45.0   0.7                          T                                        4757113
LPG   006.14 219.7 m E Sg      2011/09/05 03:29:03.8   0.7                          T               23.7  .76 Ml 3.6         4757112
SMF   006.75 239.8 m E Pg      2011/09/05 03:27:54.3  -0.9                          T                                        4757115
SMF   006.75 239.8 m E Sg      2011/09/05 03:29:21.4  -0.4                          T               28.3  .56 Ml 3.9         4757107
SSF   006.70 243.9 m E Pg      2011/09/05 03:27:55.6   1.2                          T                                        4757126
SSF   006.70 243.9 m E Sg      2011/09/05 03:29:20.3   0.1                          T               26.3  .70 Ml 3.9         4757096
MEZF  005.10 251.4 m E Sg      2011/09/05 03:28:30.2   0.1                          T               56.8  .72 Ml 3.8         4757102
SFTF  005.23 248.4 m E Sg      2011/09/05 03:28:34.0  -0.4                          T               30.1  .44 Ml 3.8         4757103
BAIF  005.22 269.8 m E Sg      2011/09/05 03:28:34.2   0.2                          T               20.2  .49 Ml 3.5         4757098
ORIF  006.97 221.1 m E Sg      2011/09/05 03:29:28.2  -0.4                          T               13.0  .64 Ml 3.6         4757110
VIVF  007.55 226.1 m E Sg      2011/09/05 03:29:47.5   0.7                          T                6.9  .45 Ml 3.5         4757109

.
EVENT     263617
    Date      Time       Latitude Longitude    Depth    Ndef Nsta Gap    Mag1  N    Mag2  N    Mag3  N   Author         ID
       rms   OT_Error      Smajor Sminor Az        Err   mdist  Mdist     Err        Err        Err      Quality

2011/09/05 10:11:02.7     46.0804    3.1184       .0 f    19    8 066  Ml 1.9  1  Md 1.8  2              js067245    263617

      0.32   +-  0.07       1.5    1.3  115.33 +-  0.0    0.03   1.37   +-         +-0.1                 m i km

FRANCE
Sta     Dist  EvAz     Phase      Date       Time     TRes  Azim  AzRes  Slow  SRes Def   SNR       Amp   Per   Mag1   Mag2       ID
BGF   000.51 338.6 m E Pg      2011/09/05 10:11:12.9   0.1                          T                                        4757132
BGF   000.51 338.6 m E Pn      2011/09/05 10:11:15.5  -1.7                          T                                        4757139
BGF   000.51 338.6 m E Sg      2011/09/05 10:11:19.3  -0.4                          T                                        4757141
BGF   000.51 338.6 m E Sn      2011/09/05 10:11:24.6 -11.2                          T               11.2  .38        Md 1.7  4757140
TCF   000.66 288.5 m E Pg      2011/09/05 10:11:16.2   0.6                          T                                        4757133
TCF   000.66 288.5 m E Sg      2011/09/05 10:11:24.0  -0.4                          T                                        4757135
TCF   000.66 288.5 m E Sn      2011/09/05 10:11:28.5  -0.1                          T                2.6  .13                4757134
AVF   000.73 012.8 m E Pg      2011/09/05 10:11:16.7   0.0                          T                                        4757142
AVF   000.73 012.8 m E Pn      2011/09/05 10:11:18.7  -0.1                          T                                        4757143
AVF   000.73 012.8 m E Sg      2011/09/05 10:11:26.6   0.2                          T                                        4757144
AVF   000.73 012.8 m E Sn      2011/09/05 10:11:30.1   0.0                          T               10.8  .18                4757145
SMF   000.75 041.3 m E Pg      2011/09/05 10:11:16.9  -0.3                          T                                        4757146
SMF   000.75 041.3 m E Pn      2011/09/05 10:11:18.8  -0.4                          T                                        4757147
SMF   000.75 041.3 m E Sg      2011/09/05 10:11:27.3   0.1                          T               16.6  .62                4757148
SSF   001.02 015.1 m E Pg      2011/09/05 10:11:22.3   0.2                          T                                        4757137
SSF   001.02 015.1 m E Sn      2011/09/05 10:11:37.0   0.0                          T                2.5  .24 Ml 1.9         4757138
LOR   001.29 023.0 m E Pg      2011/09/05 10:11:27.3   0.1                          T                                        4757136
RJF   001.36 235.9 m E Pg      2011/09/05 10:11:28.3  -0.1                          T                                        4757131
CAF   001.37 213.1 m E Pg      2011/09/05 10:11:28.6   0.0                          T                                        4757130

.
