EVENT     283153
    Date      Time       Latitude Longitude    Depth    Ndef Nsta Gap    Mag1  N    Mag2  N    Mag3  N   Author         ID
       rms   OT_Error      Smajor Sminor Az        Err   mdist  Mdist     Err        Err        Err      Quality

2012/09/12 03:15:55.8     44.3356   10.3913     56.7      50   11 061  Ml 2.4  8                         bulletin    283253
                                                                                                         _ldg
      0.55   +-  0.15       2.5    2.1   30.75 +-  1.5    0.08   5.75   +-0.3                            m i ke

NORTHERN ITALY
Sta     Dist  EvAz     Phase      Date       Time     TRes  Azim  AzRes  Slow  SRes Def   SNR       Amp   Per   Mag1   Mag2       ID
PGF   002.05 210.1 m E Pn      2012/09/12 03:16:28.4   0.0                          T                                        5068634
PGF   002.05 210.1 m E Sn      2012/09/12 03:16:52.5   0.0                          T                5.8  .24 Ml 2.8         5068633
SBF   002.18 258.5 m E P       2012/09/12 03:16:31.1   0.2                          T                                        5070161
SBF   002.18 258.5 m E Sn      2012/09/12 03:16:55.5   0.2                          T                5.3  .28 Ml 2.5         5068632
MBDF  002.62 279.9 m E P       2012/09/12 03:16:37.0  -0.1                          T                                        5068628
MBDF  002.62 279.9 m E Sn      2012/09/12 03:17:06.2   0.7                          T                1.5  .30 Ml 2.0         5068627
FRF   002.81 255.3 m E Pn      2012/09/12 03:16:38.9   0.6                          T                                        5068639
FRF   002.81 255.3 m E Sn      2012/09/12 03:17:10.3   0.5                          T                2.5  .20 Ml 2.5         5068638
LPL   002.85 295.7 m E P       2012/09/12 03:16:40.1  -0.5                          T                                        5070163
LPL   002.85 295.7 m E Sn      2012/09/12 03:17:11.1  -0.1                          T                1.2  .29 Ml 2.0         5070160
LMR   002.98 251.7 m E Pn      2012/09/12 03:16:41.0   0.5                          T                                        5068637
LMR   002.98 251.7 m E Sn      2012/09/12 03:17:13.9   0.1                          T                2.8  .22 Ml 2.5         5068636
ORIF  003.27 281.8 m E P       2012/09/12 03:16:46.9   0.6                          T                                        5070164
SMRF  003.48 265.8 m E P       2012/09/12 03:16:49.3   0.1                          T                                        5070162
SMRF  003.48 265.8 m E Sn      2012/09/12 03:17:25.7   0.1                          T                 .7  .26 Ml 1.9         5070159
CDF   004.61 333.2 m E Pn      2012/09/12 03:17:02.2  -0.3                          T                                        5070156
SMF   005.15 298.9 m E Pn      2012/09/12 03:17:09.2  -0.5                          T                                        5070157
BGF   005.75 295.4 m E Pn      2012/09/12 03:17:17.7  -0.1                          T                                        5070158

.
EVENT     283133
    Date      Time       Latitude Longitude    Depth    Ndef Nsta Gap    Mag1  N    Mag2  N    Mag3  N   Author         ID
       rms   OT_Error      Smajor Sminor Az        Err   mdist  Mdist     Err        Err        Err      Quality

2012/09/12 05:56:26.8     42.9792   -1.1896      2.0      18    5 090  Ml 2.0  2  Md 2.1  2              bulletin    283233
                                                                                                         _ldg
      0.23   +-  0.04        .9     .7  141.09 +-  0.0    0.12   3.05   +-0.2      +-0.1                 m i ke

PYRENEES
Sta     Dist  EvAz     Phase      Date       Time     TRes  Azim  AzRes  Slow  SRes Def   SNR       Amp   Per   Mag1   Mag2       ID
SJPF  000.14 349.1 m E Pg      2012/09/12 05:56:29.8   0.1                          T                                        5068444
SJPF  000.14 349.1 m E Sg      2012/09/12 05:56:31.7   0.1                          T               50.4  .24        Md 2.2  5068443
ETSF  000.47 099.7 m E Pg      2012/09/12 05:56:35.3  -0.6                          T                                        5068442
ETSF  000.47 099.7 m E Sg      2012/09/12 05:56:41.2  -0.9                          T                6.2  .33        Md 2.0  5068441
EPF   001.12 086.9 m E Pg      2012/09/12 05:56:48.0   0.2                          T                                        5070167
EPF   001.12 086.9 m E Sg      2012/09/12 05:57:02.4   0.0                          T                2.5  .22 Ml 1.9         5070168
LFF   002.40 034.8 m E Pn      2012/09/12 05:57:05.2  -0.1                          T                                        5070165
CAF   003.05 049.3 m E Sn      2012/09/12 05:57:49.1   0.0                          T                 .7  .13 Ml 2.1         5070166

.
EVENT     283152
    Date      Time       Latitude Longitude    Depth    Ndef Nsta Gap    Mag1  N    Mag2  N    Mag3  N   Author         ID
       rms   OT_Error      Smajor Sminor Az        Err   mdist  Mdist     Err        Err        Err      Quality

2012/09/12 07:25:52.2     42.8124    2.0367      6.0 f    29    9 116  Ml 2.5  7  Md 2.7  1              bulletin    283252
                                                                                                         _ldg
      1.20   +-  0.09       1.8    1.4  177.91 +-  0.0    0.11   2.79   +-0.2      +-                    m i ke

PYRENEES
Sta     Dist  EvAz     Phase      Date       Time     TRes  Azim  AzRes  Slow  SRes Def   SNR       Amp   Per   Mag1   Mag2       ID
MTLF  000.54 014.0 m E Pg      2012/09/12 07:26:02.7   0.1                          T                                        5070190
MTLF  000.54 014.0 m E P       2012/09/12 07:26:03.8   0.0                          T                                        5070191
MTLF  000.54 014.0 m E Pn      2012/09/12 07:26:05.0   0.1                          T                                        5068626
MTLF  000.54 014.0 m E Sg      2012/09/12 07:26:09.8   0.0                          T                                        5070192
MTLF  000.54 014.0 m E Sn      2012/09/12 07:26:14.0   0.2                          T               10.9  .20        Md 2.7  5068619
EPF   001.27 280.5 m E Pn      2012/09/12 07:26:14.9   0.1                          T                                        5068625
EPF   001.27 280.5 m E Pg      2012/09/12 07:26:16.0   0.1                          T                                        5070193
EPF   001.27 280.5 m E Sg      2012/09/12 07:26:32.0  -0.3                          T                9.8  .20 Ml 2.6         5068620
LASF  001.83 045.8 m E Pn      2012/09/12 07:26:21.8  -0.7                          T                                        5068624
LASF  001.83 045.8 m E Pg      2012/09/12 07:26:26.3   0.0                          T                                        5070178
LASF  001.83 045.8 m E Sg      2012/09/12 07:26:50.4   0.6                          T                6.1  .24 Ml 2.6         5068618
ETSF  001.91 273.5 m E Pn      2012/09/12 07:26:23.7   0.1                          T                                        5068623
ETSF  001.91 273.5 m E Pg      2012/09/12 07:26:27.6  -0.2                          T                                        5070194
ETSF  001.91 273.5 m E Sg      2012/09/12 07:26:52.4   0.0                          T                3.4  .24 Ml 2.3         5068621
CAF   002.11 000.5 m E Pn      2012/09/12 07:26:26.4   0.1                          T                                        5068616
CAF   002.11 000.5 m E Pg      2012/09/12 07:26:31.5   0.1                          T                                        5070196
CAF   002.11 000.5 m E Sg      2012/09/12 07:26:58.5  -0.2                          T                3.9  .26 Ml 2.4         5068615
LFF   002.32 336.7 m E Pn      2012/09/12 07:26:29.2   0.1                          T                                        5070197
LFF   002.32 336.7 m E Sg      2012/09/12 07:27:05.3   0.1                          T               14.8  .44 Ml 2.6         5070189
SJPF  002.41 278.3 m E Pg      2012/09/12 07:26:36.5  -0.5                          T                                        5070195
RJF   002.52 351.6 m E Pg      2012/09/12 07:26:38.7  -0.2                          T                                        5070186
RJF   002.52 351.6 m E Sn      2012/09/12 07:27:00.9  -0.1                          T                                        5070188
RJF   002.52 351.6 m E Sg      2012/09/12 07:27:11.2  -0.1                          T                2.6  .18 Ml 2.2         5070187
VIVF  002.79 042.1 m E Pn      2012/09/12 07:26:43.8   8.2                          T                                        5068622
VIVF  002.79 042.1 m E Sg      2012/09/12 07:27:20.2   0.2                          T                4.0  .24 Ml 2.6         5068617

.
EVENT     283248
    Date      Time       Latitude Longitude    Depth    Ndef Nsta Gap    Mag1  N    Mag2  N    Mag3  N   Author         ID
       rms   OT_Error      Smajor Sminor Az        Err   mdist  Mdist     Err        Err        Err      Quality

2012/09/12 15:00:46.2     47.9441    5.8236       .0 f    16    9 072  Ml 2.2  4  Md 2.0  3              bulletin    283348
                                                                                                         _ldg
      0.48   +-  0.07       1.5    1.2  171.30 +-  0.0    0.36   1.87   +-0.1      +-0.1                 m i km

FRANCE
Sta     Dist  EvAz     Phase      Date       Time     TRes  Azim  AzRes  Slow  SRes Def   SNR       Amp   Per   Mag1   Mag2       ID
HAU   000.36 079.9 m E Pg      2012/09/12 15:00:53.4   0.0                          T                                        5069053
HAU   000.36 079.9 m E Sg      2012/09/12 15:00:59.2   0.8                          T               55.9  .86        Md 2.1  5069052
SFTF  000.59 296.7 m E Pg      2012/09/12 15:00:57.7   0.1 118.0  2.0               T                                        5070231
SFTF  000.59 296.7 m E Sg      2012/09/12 15:01:05.8   0.3                          T                7.0  .29                5070232
PAGF  000.61 353.9 m E Pg      2012/09/12 15:00:58.0  -0.1                          T                                        5070227
PAGF  000.61 353.9 m E Sg      2012/09/12 15:01:06.3   0.0 168.5  -5.3              T               12.6  .41                5070228
HINF  000.70 100.0 m E Pg      2012/09/12 15:01:00.8   1.0                          T                                        5069051
HINF  000.70 100.0 m E Sg      2012/09/12 15:01:09.5   0.3                          T               19.4  .33        Md 1.9  5069050
CDF   001.08 063.7 m E Pg      2012/09/12 15:01:06.6  -0.2                          T                                        5069049
CDF   001.08 063.7 m E Sn      2012/09/12 15:01:22.1  -0.1                          T                8.5  .36 Ml 2.3         5069048
CABF  001.35 172.2 m E Pn      2012/09/12 15:01:10.6  -0.2                          T                                        5069062
CABF  001.35 172.2 m E Sn      2012/09/12 15:01:28.7   0.2                          T                6.2  .42 Ml 2.1         5069060
LOR   001.49 243.8 m E Pn      2012/09/12 15:01:12.8   0.1                          T                                        5070229
LOR   001.49 243.8 m E Sn      2012/09/12 15:01:31.5  -0.4                          T                1.5  .15 Ml 2.0         5070230
MEZF  000.76 317.5 m E Sn      2012/09/12 15:01:14.5   0.2                          T               11.4  .38        Md 2.1  5069058
SMF   001.87 226.8 m E Sg      2012/09/12 15:01:45.9   0.3                          T                6.1  .54 Ml 2.2         5070226

.
EVENT     283250
    Date      Time       Latitude Longitude    Depth    Ndef Nsta Gap    Mag1  N    Mag2  N    Mag3  N   Author         ID
       rms   OT_Error      Smajor Sminor Az        Err   mdist  Mdist     Err        Err        Err      Quality

2012/09/12 16:32:12.2     45.7620    7.0021       .0 f    12    7 191  Ml 2.1  5  Md 2.2  2              bulletin    283350
                                                                                                         _ldg
      0.23   +-  0.16       3.8    1.4   91.73 +-  0.0    0.31   2.06   +-0.2      +-0.0                 m i km

NORTHERN ITALY
Sta     Dist  EvAz     Phase      Date       Time     TRes  Azim  AzRes  Slow  SRes Def   SNR       Amp   Per   Mag1   Mag2       ID
LPL   000.31 217.7 m E Pg      2012/09/12 16:32:18.5  -0.2                          T                                        5069065
LPL   000.31 217.7 m E Sg      2012/09/12 16:32:22.6  -0.4                          T               14.5  .49        Md 2.2  5069064
LPG   000.32 213.7 m E Pg      2012/09/12 16:32:18.7  -0.2                          T                                        5069067
LPG   000.32 213.7 m E Sg      2012/09/12 16:32:23.4   0.0                          T               49.0  .74        Md 2.2  5069066
CABF  001.06 323.5 m E Pg      2012/09/12 16:32:32.3  -0.1                          T                                        5069063
CABF  001.06 323.5 m E Sg      2012/09/12 16:32:46.7   0.3                          T                4.3  .35 Ml 1.9         5069068
MBDF  001.05 189.0 m E Pg      2012/09/12 16:32:32.5   0.3                          T                                        5070233
MBDF  001.05 189.0 m E Sg      2012/09/12 16:32:46.0  -0.1                          T                8.9  .66 Ml 2.0         5070234
ORIF  001.16 223.6 m E Pg      2012/09/12 16:32:34.3   0.1                          T                                        5070250
ORIF  001.16 223.6 m E Sg      2012/09/12 16:32:49.8   0.5                          T               15.9  .58 Ml 2.3         5069069
VIVF  001.88 242.0 m E Sg      2012/09/12 16:33:12.0   0.2                          T                3.4  .41 Ml 2.1         5070251
HINF  002.06 357.2 m E Sg      2012/09/12 16:33:17.4   0.0                          T                2.2  .36 Ml 2.0         5070252

.
EVENT     283251
    Date      Time       Latitude Longitude    Depth    Ndef Nsta Gap    Mag1  N    Mag2  N    Mag3  N   Author         ID
       rms   OT_Error      Smajor Sminor Az        Err   mdist  Mdist     Err        Err        Err      Quality

2012/09/12 17:57:36.3     45.2044    6.1041      2.0      10    5 163  Ml 1.2  2  Md 1.5  2              bulletin    283351
                                                                                                         _ldg
      0.17   +-  0.08       2.1    1.4  145.97 +-  0.0    0.54   1.69   +-0.1      +-0.0                 m i ke

FRANCE
Sta     Dist  EvAz     Phase      Date       Time     TRes  Azim  AzRes  Slow  SRes Def   SNR       Amp   Per   Mag1   Mag2       ID
LPG   000.54 057.0 m E Pg      2012/09/12 17:57:46.7  -0.3                          T                                        5069075
LPG   000.54 057.0 m E Sg      2012/09/12 17:57:54.2   0.1                          T                4.0  .22        Md 1.5  5069074
LPL   000.54 054.6 m E Pg      2012/09/12 17:57:47.2   0.2                          T                                        5069073
LPL   000.54 054.6 m E Sg      2012/09/12 17:57:54.2   0.1                          T                5.1  .28        Md 1.6  5069072
MBDF  000.67 135.0 m E Pg      2012/09/12 17:57:49.1  -0.1                          T                                        5069071
MBDF  000.67 135.0 m E Sg      2012/09/12 17:57:58.0  -0.1                          T                1.1  .20                5069076
VIVF  001.07 251.6 m E Pg      2012/09/12 17:57:56.5   0.0                          T                                        5069078
VIVF  001.07 251.6 m E Sg      2012/09/12 17:58:10.2  -0.2                          T                 .4  .22 Ml 1.1         5069077
FRF   001.69 166.5 m E Pn      2012/09/12 17:58:05.3   0.2                          T                                        5069080
FRF   001.69 166.5 m E Sn      2012/09/12 17:58:26.1   0.0                          T                 .2  .17 Ml 1.3         5069079

.
EVENT     283252
    Date      Time       Latitude Longitude    Depth    Ndef Nsta Gap    Mag1  N    Mag2  N    Mag3  N   Author         ID
       rms   OT_Error      Smajor Sminor Az        Err   mdist  Mdist     Err        Err        Err      Quality

2012/09/12 18:20:26.6     44.6568    6.6541      2.0      11    6 094  Ml 1.4  3  Md 1.3  2              bulletin    283352
                                                                                                         _ldg
      0.25   +-  0.08       1.8    1.5   96.87 +-  0.0    0.11   1.10   +-0.2      +-0.1                 m i ke

FRANCE
Sta     Dist  EvAz     Phase      Date       Time     TRes  Azim  AzRes  Slow  SRes Def   SNR       Amp   Per   Mag1   Mag2       ID
MBDF  000.11 050.0 m E Pg      2012/09/12 18:20:29.2   0.0                          T                                        5069086
MBDF  000.11 050.0 m E Sg      2012/09/12 18:20:30.2  -0.7                          T                                Md 1.2  5069085
ORIF  000.61 295.6 m E Pg      2012/09/12 18:20:38.2  -0.1                          T                                        5069082
ORIF  000.61 295.6 m E Sg      2012/09/12 18:20:46.1  -0.2                          T                1.4  .23        Md 1.4  5069081
LPL   000.86 003.7 m E Pg      2012/09/12 18:20:43.4   0.3                          T                                        5069090
SBF   000.97 144.5 m E Pg      2012/09/12 18:20:45.2   0.3                          T                                        5069083
SBF   000.97 144.5 m E Sg      2012/09/12 18:20:57.1  -0.4                          T                 .8  .15 Ml 1.5         5069084
SMRF  001.03 229.1 m E Pg      2012/09/12 18:20:46.0   0.0                          T                                        5069091
SMRF  001.03 229.1 m E Sg      2012/09/12 18:20:59.5   0.1                          T                 .4  .23 Ml 1.1         5069087
FRF   001.10 180.3 m E Pg      2012/09/12 18:20:47.1  -0.1                          T                                        5069089
FRF   001.10 180.3 m E Sg      2012/09/12 18:21:01.4   0.0                          T                1.5  .46 Ml 1.4         5069088

.
