BEGIN GSE2.0
MSG_TYPE DATA
MSG_ID 16-FEB-1214:30:46  FRA_NDC
E-MAIL
DATA_TYPE BULLETIN
Reviewed Bulletin (REB) # P2012-006  from French NDC for regional phases     PERIOD 08 FEB 2012 TO 14 FEB 2012 S M., J-P S.
EVENT     269776
    Date      Time       Latitude Longitude    Depth    Ndef Nsta Gap    Mag1  N    Mag2  N    Mag3  N   Author         ID
       rms   OT_Error      Smajor Sminor Az        Err   mdist  Mdist     Err        Err        Err      Quality

2012/02/08 00:00:56.7     45.9089    6.0385      4.0 f    26   12 112  Ml 2.0  9  Md 1.8  3              js067245    269796

      0.80   +-  0.08       2.0    1.3   72.79 +-  0.0    0.62   2.11   +-0.3      +-0.0                 m i ke

FRANCE
Sta     Dist  EvAz     Phase      Date       Time     TRes  Azim  AzRes  Slow  SRes Def   SNR       Amp   Per   Mag1   Mag2       ID
LPL   000.62 128.7 m E Pg      2012/02/08 00:01:09.2   0.4                          T                                        4833324
LPL   000.62 128.7 m E Sg      2012/02/08 00:01:17.2   0.2                          T                2.4  .31        Md 1.8  4833325
CABF  000.70 002.8 m E Pg      2012/02/08 00:01:09.4  -0.7                          T                                        4833315
CABF  000.70 002.8 m E Pn      2012/02/08 00:01:12.0   0.1                          T                                        4833316
CABF  000.70 002.8 m E Sg      2012/02/08 00:01:20.1   0.8                          T                                        4833317
CABF  000.70 002.8 m E Sn      2012/02/08 00:01:22.9   0.3                          T                3.9  .26        Md 1.7  4833318
LPG   000.65 129.2 m E Pg      2012/02/08 00:01:09.6   0.3                          T                                        4833308
LPG   000.65 129.2 m E Sg      2012/02/08 00:01:17.7  -0.1                          T                2.1  .27        Md 1.8  4833309
ORIF  001.00 186.5 m E Pg      2012/02/08 00:01:15.1  -0.3                          T                                        4833323
ORIF  001.00 186.5 m E Pn      2012/02/08 00:01:15.8  -0.1                          T                                        4833311
ORIF  001.00 186.5 m E P       2012/02/08 00:01:17.3  -0.1                          T                                        4833310
ORIF  001.00 186.5 m E Sg      2012/02/08 00:01:28.1  -0.3                          T               13.5  .36 Ml 2.4         4833312
VIVF  001.43 222.9 m E Pg      2012/02/08 00:01:23.7   0.3                          T                                        4833313
VIVF  001.43 222.9 m E Sg      2012/02/08 00:01:41.9   0.1                          T                5.7  .27 Ml 2.3         4833314
SMF   001.69 296.6 m E Pg      2012/02/08 00:01:28.2   0.0                          T                                        4836100
SMF   001.69 296.6 m E Sg      2012/02/08 00:01:50.6   0.6                          T                3.4  .18 Ml 2.4         4836101
HINF  001.99 016.0 m E Pg      2012/02/08 00:01:33.6   0.0                          T                                        4836093
HINF  001.99 016.0 m E Sg      2012/02/08 00:01:59.6   0.3                          T                1.2  .25 Ml 1.9         4836096
LOR   002.03 312.9 m E Pg      2012/02/08 00:01:34.0  -0.4                          T                                        4836092
LOR   002.03 312.9 m E Sg      2012/02/08 00:02:00.6   0.1                          T                2.0  .27 Ml 2.1         4836099
MBDF  001.29 156.1 m E Sg      2012/02/08 00:01:37.5  -0.2                          T                 .9  .30 Ml 1.4         4836094
AVF   002.06 296.3 m E Sg      2012/02/08 00:02:01.5   0.1                          T                 .6  .24 Ml 1.6         4836095
SSF   002.10 304.3 m E Sg      2012/02/08 00:02:02.7   0.1                          T                1.5  .27 Ml 2.1         4836098
HAU   002.11 005.7 m E Sg      2012/02/08 00:02:03.2   0.1                          T                1.7  .26 Ml 1.8         4836097

.
EVENT     269777
    Date      Time       Latitude Longitude    Depth    Ndef Nsta Gap    Mag1  N    Mag2  N    Mag3  N   Author         ID
       rms   OT_Error      Smajor Sminor Az        Err   mdist  Mdist     Err        Err        Err      Quality

2012/02/08 00:16:35.0     45.2147    8.1089     30.0      24    8 206                                    js067245    269797

                                               +-         0.39   2.46                                    m i ke

NORTHERN ITALY
Sta     Dist  EvAz     Phase      Date       Time     TRes  Azim  AzRes  Slow  SRes Def   SNR       Amp   Per   Mag1   Mag2       ID
LPG   001.00 287.0 m E Pn      2012/02/08 00:16:52.8   0.4                          T                                        4833596
LPG   001.00 287.0 m E Sn      2012/02/08 00:17:03.9  -0.9                          T                2.8  .29                4833598
MBDF  001.07 243.3 m E P       2012/02/08 00:16:52.9  -1.3                          T                                        4833599
MBDF  001.07 243.3 m E Sn      2012/02/08 00:17:05.7  -0.6                          T                1.2  .23                4833597
LPL   001.02 287.8 m E Pn      2012/02/08 00:16:53.2   0.7                          T                                        4833601
LPL   001.02 287.8 m E Sn      2012/02/08 00:17:04.6  -0.6                          T                4.6  .28                4833600
SBF   001.43 199.9 m E P       2012/02/08 00:16:59.0  -0.4                          T                                        4833589
SBF   001.43 199.9 m E Sn      2012/02/08 00:17:14.6  -0.3                          T                2.1  .22                4833592
ORIF  001.61 260.2 m E Pn      2012/02/08 00:17:01.7   1.4                          T                                        4833595
ORIF  001.61 260.2 m E Sn      2012/02/08 00:17:20.8   1.8                          T                1.4  .26                4833594
FRF   001.96 212.9 m E P       2012/02/08 00:17:06.6  -0.1                          T                                        4833591
FRF   001.96 212.9 m E Sn      2012/02/08 00:17:26.6  -0.6                          T                3.7  .62                4833593
SMRF  002.19 236.5 m E P       2012/02/08 00:17:10.5   0.3                          T                                        4833587
SMRF  002.19 236.5 m E Sn      2012/02/08 00:17:31.9  -0.9                          T                  1  .21                4833586
VIVF  002.46 262.8 m E Pg      2012/02/08 00:17:12.8   0.9                          T                                        4833590
VIVF  002.46 262.8 m E Sn      2012/02/08 00:17:38.5  -0.7                          T                 .7  .21                4833588

.
EVENT     269779
    Date      Time       Latitude Longitude    Depth    Ndef Nsta Gap    Mag1  N    Mag2  N    Mag3  N   Author         ID
       rms   OT_Error      Smajor Sminor Az        Err   mdist  Mdist     Err        Err        Err      Quality

2012/02/08 02:30:20.9     43.4103    -.6576      4.0 f    40   10 113  Ml 2.2 18  Md 2.2  3              js067245    269799

      0.42   +-  0.06       1.7     .9  131.60 +-  0.0    0.33   4.41   +-0.3      +-0.2                 m i ke

PYRENEES
Sta     Dist  EvAz     Phase      Date       Time     TRes  Azim  AzRes  Slow  SRes Def   SNR       Amp   Per   Mag1   Mag2       ID
SJPF  000.51 234.6 m E Pg      2012/02/08 02:30:30.6  -0.1                          T                                        4833615
SJPF  000.51 234.6 m E Sg      2012/02/08 02:30:37.3  -0.1                          T                5.3  .19        Md 2.0  4833612
EPF   000.82 117.2 m E Pg      2012/02/08 02:30:36.2  -0.2                          T                                        4833614
EPF   000.82 117.2 m E Sg      2012/02/08 02:30:47.8   0.6                          T                8.8  .29        Md 2.2  4833613
LFF   001.83 032.9 m E Pg      2012/02/08 02:30:54.7  -0.2                          T                                        4833611
LFF   001.83 032.9 m E Sn      2012/02/08 02:31:13.7   0.1                          T                2.0  .27 Ml 1.9         4833621
LFF   001.83 032.9 m E Sg      2012/02/08 02:31:19.4   0.9                          T                5.6  .31 Ml 2.2 Md 2.4  4833610
MTLF  002.10 090.9 m E Pn      2012/02/08 02:30:55.2   0.1                          T                                        4833636
MTLF  002.10 090.9 m E Pg      2012/02/08 02:30:59.9   0.0                          T                                        4833607
MTLF  002.10 090.9 m E Sn      2012/02/08 02:31:20.1   0.1                          T                 .8  .19 Ml 1.9         4833609
MTLF  002.10 090.9 m E Sg      2012/02/08 02:31:26.8  -0.1                          T                2.2  .19 Ml 2.3         4833608
CAF   002.48 051.3 m E Pn      2012/02/08 02:30:58.5  -1.7                          T                                        4833620
CAF   002.48 051.3 m E Pg      2012/02/08 02:31:06.9   0.0                          T                                        4833637
CAF   002.48 051.3 m E Sn      2012/02/08 02:31:28.9  -0.3                          T                 .7  .19 Ml 1.9         4833639
CAF   002.48 051.3 m E Sg      2012/02/08 02:31:38.9   0.1                          T                1.5  .21 Ml 2.2         4833602
RJF   002.45 038.7 m E Pn      2012/02/08 02:30:58.8  -1.1                          T                                        4833638
RJF   002.45 038.7 m E Pg      2012/02/08 02:31:06.5   0.1                          T                                        4833606
RJF   002.45 038.7 m E Sn      2012/02/08 02:31:28.8   0.2                          T                1.5  .18 Ml 1.9         4833605
RJF   002.45 038.7 m E Sg      2012/02/08 02:31:38.5   0.5                          T                2.7  .25 Ml 2.0         4833604
MFF   003.21 006.3 m E Pn      2012/02/08 02:31:09.8  -0.5                          T                                        4833622
MFF   003.21 006.3 m E Sn      2012/02/08 02:31:47.3   0.7                          T                 .7  .18 Ml 2.2         4833623
MFF   003.21 006.3 m E Sg      2012/02/08 02:32:00.9  -0.7                          T                1.7  .28 Ml 2.4         4833603
TCF   003.53 034.3 m E Pn      2012/02/08 02:31:14.4  -0.1                          T                                        4833624
TCF   003.53 034.3 m E Pg      2012/02/08 02:31:26.1  -0.2                          T                                        4833625
TCF   003.53 034.3 m E Sn      2012/02/08 02:31:53.6  -0.6                          T                 .7  .22 Ml 2.1         4833626
TCF   003.53 034.3 m E Sg      2012/02/08 02:32:11.3  -0.2                          T                2.4  .34 Ml 2.4         4833627
BGF   004.01 037.1 m E Sn      2012/02/08 02:32:06.4   0.6                          T                1.3  .25 Ml 2.4         4833631
BGF   004.01 037.1 m E Sg      2012/02/08 02:32:26.0  -0.6                          T                6.8  .42 Ml 2.9         4833632
AVF   004.41 038.6 m E Sn      2012/02/08 02:32:15.7   0.4                          T                 .4  .23 Ml 2.0         4833628
AVF   004.41 038.6 m E Sg      2012/02/08 02:32:39.2   0.0                          T                 .6  .28 Ml 2.1         4833629

.
EVENT     269780
    Date      Time       Latitude Longitude    Depth    Ndef Nsta Gap    Mag1  N    Mag2  N    Mag3  N   Author         ID
       rms   OT_Error      Smajor Sminor Az        Err   mdist  Mdist     Err        Err        Err      Quality

2012/02/08 05:40:59.6     42.2969    3.1955      3.0 f    80   23 141  Ml 2.7 21  Md 2.7  3              js067245    269800

      0.56   +-  0.09       1.8    1.1  139.68 +-  0.0    0.03   7.89   +-0.2      +-0.0                 m i ke

PYRENEES
Sta     Dist  EvAz     Phase      Date       Time     TRes  Azim  AzRes  Slow  SRes Def   SNR       Amp   Per   Mag1   Mag2       ID
MTLF  001.27 325.7 m E Pn      2012/02/08 05:41:22.2  -0.4                          T   001.0                                4832606
MTLF  001.27 325.7 m E Pg      2012/02/08 05:41:23.0  -0.3                          T   001.0                                4832607
MTLF  001.27 325.7 m E Sn      2012/02/08 05:41:38.3  -0.8                          T   001.0       19.0  .23 Ml 2.9         4832608
MTLF  001.27 325.7 m E Sg      2012/02/08 05:41:39.8   0.1                          T               18.6  .22 Ml 2.9 Md 2.7  4833664
LASF  001.84 015.0 m E Pn      2012/02/08 05:41:30.7   0.3                          T   001.0                                4832598
LASF  001.84 015.0 m E Sn      2012/02/08 05:41:51.2  -1.7                          T                                        4833655
LASF  001.84 015.0 m E Sg      2012/02/08 05:41:58.0   0.3                          T   001.0        7.9  .22 Ml 2.7 Md 2.7  4832599
EPF   002.23 290.1 m E P       2012/02/08 05:41:37.6  -0.5                          T   001.0                                4832592
EPF   002.23 290.1 m E Pg      2012/02/08 05:41:40.5  -0.6                          T                                        4836110
EPF   002.23 290.1 m E Sg      2012/02/08 05:42:09.5  -0.3                          T   001.0       12.5  .22 Ml 3.0 Md 2.7  4832593
SMRF  002.42 045.3 m E Pn      2012/02/08 05:41:38.6   0.3                          T                                        4833645
SMRF  002.42 045.3 m E Sg      2012/02/08 05:42:15.2  -0.5                          T                3.9  .31 Ml 2.4         4833646
LMR   002.65 065.9 m E Pn      2012/02/08 05:41:41.3  -0.1                          T   001.0                                4832602
LMR   002.65 065.9 m E Sn      2012/02/08 05:42:10.9  -1.2                          T   001.0        3.7  .27 Ml 2.5         4832603
CAF   002.75 343.0 m E Pn      2012/02/08 05:41:42.8   0.0                          T   001.0                                4832589
CAF   002.75 343.0 m E P       2012/02/08 05:41:45.8   0.2                          T                                        4833642
CAF   002.75 343.0 m E Pg      2012/02/08 05:41:50.7  -0.1                          T                                        4833663
CAF   002.75 343.0 m E Sn      2012/02/08 05:42:14.1  -0.6                          T   001.0        3.4  .21 Ml 2.6         4832590
CAF   002.75 343.0 m E Sg      2012/02/08 05:42:25.3  -0.8                          T   001.0        8.8  .27 Ml 2.9         4832591
VIVF  002.77 022.3 m E Pn      2012/02/08 05:41:43.1  -0.1                          T                                        4833643
VIVF  002.77 022.3 m E Pg      2012/02/08 05:41:50.8  -0.3                          T                                        4833660
VIVF  002.77 022.3 m E Sn      2012/02/08 05:42:14.9  -0.3                          T   001.0                                4832610
VIVF  002.77 022.3 m E Sg      2012/02/08 05:42:25.7  -1.0                          T   001.0        2.9  .21 Ml 2.5         4832611
FRF   002.83 062.3 m E Pn      2012/02/08 05:41:44.7   0.9                          T   001.0                                4832594
FRF   002.83 062.3 m E Sn      2012/02/08 05:42:13.9  -2.6                          T   001.0                                4832595
FRF   002.83 062.3 m E Sg      2012/02/08 05:42:28.5  -0.1                          T   001.0        3.6  .27 Ml 2.5         4832596
LFF   003.19 326.8 m E Pn      2012/02/08 05:41:48.8   0.1                          T                                        4833657
LFF   003.19 326.8 m E P       2012/02/08 05:41:50.9  -0.8                          T                                        4833641
LFF   003.19 326.8 m E Pg      2012/02/08 05:41:58.3  -0.4                          T                                        4833662
LFF   003.19 326.8 m E Sn      2012/02/08 05:42:23.5  -1.4                          T   001.0        3.1  .26 Ml 2.4         4832600
LFF   003.19 326.8 m E Sg      2012/02/08 05:42:39.9   0.4                          T   001.0       12.7  .35 Ml 2.9         4832601
RJF   003.24 338.6 m E Pn      2012/02/08 05:41:49.3  -0.2                          T                                        4833656
RJF   003.24 338.6 m E Pg      2012/02/08 05:41:59.7  -0.1                          T                                        4833661
RJF   003.24 338.6 m E Sn      2012/02/08 05:42:25.7  -0.6                          T   001.0        3.0  .25 Ml 2.2         4832585
RJF   003.24 338.6 m E Sg      2012/02/08 05:42:42.5   1.1                          T   001.0        4.9  .20 Ml 2.5         4832586
SJPF  003.36 285.5 m E P       2012/02/08 05:41:53.5  -0.6                          T                                        4833658
SJPF  003.36 285.5 m E Pg      2012/02/08 05:42:01.9   0.1                          T                                        4833659
SJPF  003.36 285.5 m E Sg      2012/02/08 05:42:44.6  -0.4                          T   001.0        5.6  .28 Ml 2.8         4832609
LPG   004.10 037.6 m E Pn      2012/02/08 05:42:01.7   0.1                          T                                        4833644
TCF   004.05 350.3 m E Pg      2012/02/08 05:42:14.8   0.1                          T                                        4833650
TCF   004.05 350.3 m E Sg      2012/02/08 05:43:06.7   0.1                          T   001.0        4.1  .38 Ml 2.7         4832605
SMF   004.37 005.8 m E Pg      2012/02/08 05:42:20.9   0.4                          T                                        4833651
SMF   004.37 005.8 m E Sn      2012/02/08 05:42:53.3   0.0                          T                                        4833640
SMF   004.37 005.8 m E Sg      2012/02/08 05:43:17.5   0.8                          T   001.0        5.1  .45 Ml 2.8         4832604
HAU   006.13 020.2 m E Pn      2012/02/08 05:42:29.3   0.5                          T                                        4833697
HAU   006.13 020.2 m E Pg      2012/02/08 05:42:53.2   0.3                          T                                        4833696
MEZF  006.34 011.2 m E Pn      2012/02/08 05:42:32.2   0.6                          T                                        4833695
MEZF  006.34 011.2 m E Pg      2012/02/08 05:42:56.2  -0.6                          T                                        4833691
BAIF  007.80 004.8 m E Pn      2012/02/08 05:42:52.7   1.3                          T                                        4833694
BAIF  007.80 004.8 m E Pg      2012/02/08 05:43:23.4  -0.2                          T                                        4833692
GIVF  007.89 007.7 m E Pn      2012/02/08 05:42:52.7   0.0                          T                                        4833693
BGF   004.27 356.8 m E Sg      2012/02/08 05:43:14.0   0.6                          T   001.0       16.6  .48 Ml 3.2         4832588
AVF   004.49 001.4 m E Sg      2012/02/08 05:43:21.1   0.7                          T   001.0        2.0  .33 Ml 2.5         4832587
SSF   004.77 002.6 m E Sg      2012/02/08 05:43:28.9  -0.1                          T                                        4833648
MFF   004.92 332.1 m E Sg      2012/02/08 05:43:33.8   0.0                          T                                        4833647
LOR   004.99 005.2 m E Sg      2012/02/08 05:43:35.9  -0.1                          T                                        4833649

.
