BEGIN GSE2.0
MSG_TYPE DATA
MSG_ID 13-NOV-1213:41:38  FRA_NDC
E-MAIL
DATA_TYPE BULLETIN
Reviewed Bulletin (REB) # P2012-042  from French NDC for regional phases     PERIOD 17 OCT 2012 TO 23 OCT 2012 Cenalt JP S
EVENT     285205
    Date      Time       Latitude Longitude    Depth    Ndef Nsta Gap    Mag1  N    Mag2  N    Mag3  N   Author         ID
       rms   OT_Error      Smajor Sminor Az        Err   mdist  Mdist     Err        Err        Err      Quality

2012/10/17 01:28:48.5     42.1220    9.3230     15.0      10    4 330  Ml 2.1  3  Md 2.0  1              bulletin    285305
                                                                                                         _ldg
      0.65   +-  0.37       6.5    5.0  130.28 +-  0.0    0.49   2.44   +-0.3      +-                    m i ke

CORSICA, FRANCE
Sta     Dist  EvAz     Phase      Date       Time     TRes  Azim  AzRes  Slow  SRes Def   SNR       Amp   Per   Mag1   Mag2       ID
PGF   000.49 330.7 m E Pg      2012/10/17 01:28:58.0  -0.3                          T                                        5099170
PGF   000.49 330.7 m E Sg      2012/10/17 01:29:04.9  -0.1                          T               27.1  .20        Md 2.0  5099169
SBF   002.22 322.1 m E Pn      2012/10/17 01:29:22.9  -0.3                          T                                        5099165
SBF   002.22 322.1 m E Sn      2012/10/17 01:29:48.7   0.0                          T                2.9  .23 Ml 2.4         5099163
LMR   002.40 301.2 m E Pn      2012/10/17 01:29:25.7   0.2                          T                                        5099166
LMR   002.40 301.2 m E Sn      2012/10/17 01:29:53.2   0.4                          T                1.6  .23 Ml 2.1         5099164
FRF   002.44 307.0 m E Pn      2012/10/17 01:29:26.2   0.2                          T                                        5099162
FRF   002.44 307.0 m E Sn      2012/10/17 01:29:54.2   0.4                          T                 .4  .17 Ml 1.7         5099161

.
EVENT     285206
    Date      Time       Latitude Longitude    Depth    Ndef Nsta Gap    Mag1  N    Mag2  N    Mag3  N   Author         ID
       rms   OT_Error      Smajor Sminor Az        Err   mdist  Mdist     Err        Err        Err      Quality

2012/10/17 02:07:20.4     37.1292  -12.8484     10.0 f    60    3 295  Ml 3.3  3                         bulletin    285306
                                                                                                         _ldg
      0.65   +-  0.29       5.5    4.5   58.65 +-  0.0    3.21  11.69   +-0.0                            m i ke

NORTH ATLANTIC OCEAN
Sta     Dist  EvAz     Phase      Date       Time     TRes  Azim  AzRes  Slow  SRes Def   SNR       Amp   Per   Mag1   Mag2       ID
SJPF  010.72 052.5 m E Pn      2012/10/17 02:09:51.5   0.3                          T                                        5099209
SJPF  010.72 052.5 m E Sn      2012/10/17 02:11:44.9   0.6                          T                 .6  .21 Ml 3.3         5102281
ETSF  011.04 054.8 m E Pn      2012/10/17 02:09:56.4   0.7                          T                                        5099208
ETSF  011.04 054.8 m E Sn      2012/10/17 02:11:52.1  -0.1                          T                 .5  .21 Ml 3.2         5099205
EPF   011.69 055.7 m E Pn      2012/10/17 02:10:05.1   0.6                          T                                        5099207
EPF   011.69 055.7 m E Sn      2012/10/17 02:12:07.6  -0.1                          T                 .7  .34 Ml 3.3         5099206

.
EVENT     285207
    Date      Time       Latitude Longitude    Depth    Ndef Nsta Gap    Mag1  N    Mag2  N    Mag3  N   Author         ID
       rms   OT_Error      Smajor Sminor Az        Err   mdist  Mdist     Err        Err        Err      Quality

2012/10/17 03:51:11.8     42.0663    9.3009      2.0      10    4 327  Ml 2.0  3  Md 2.0  1              bulletin    285307
                                                                                                         _ldg
      0.16   +-  0.16       2.9    2.2  122.48 +-  0.0    0.53   2.46   +-0.1      +-                    m i ke

CORSICA, FRANCE
Sta     Dist  EvAz     Phase      Date       Time     TRes  Azim  AzRes  Slow  SRes Def   SNR       Amp   Per   Mag1   Mag2       ID
PGF   000.53 335.2 m E Pg      2012/10/17 03:51:22.0   0.0                          T                                        5099213
PGF   000.53 335.2 m E Sg      2012/10/17 03:51:28.9  -0.1                          T               24.0  .20        Md 2.0  5099212
SBF   002.26 323.3 m E Pn      2012/10/17 03:51:48.6   0.2                          T                                        5099242
SBF   002.26 323.3 m E Sn      2012/10/17 03:52:15.3   0.1                          T                 .9  .16 Ml 2.0         5099243
LMR   002.42 302.6 m E Pn      2012/10/17 03:51:50.2  -0.3                          T                                        5099211
LMR   002.42 302.6 m E Sn      2012/10/17 03:52:19.1   0.2                          T                1.3  .18 Ml 2.2         5099244
FRF   002.46 308.3 m E Pn      2012/10/17 03:51:51.1   0.0                          T                                        5099210
FRF   002.46 308.3 m E Sn      2012/10/17 03:52:19.9   0.0                          T                 .6  .19 Ml 1.9         5099245

.
EVENT     285208
    Date      Time       Latitude Longitude    Depth    Ndef Nsta Gap    Mag1  N    Mag2  N    Mag3  N   Author         ID
       rms   OT_Error      Smajor Sminor Az        Err   mdist  Mdist     Err        Err        Err      Quality

2012/10/17 03:51:42.8     42.0733    9.3037      2.0      10    4 327  Ml 2.2  3  Md 2.3  1              bulletin    285308
                                                                                                         _ldg
      0.17   +-  0.14       2.4    1.9  122.66 +-  0.0    0.53   2.46   +-0.2      +-                    m i ke

CORSICA, FRANCE
Sta     Dist  EvAz     Phase      Date       Time     TRes  Azim  AzRes  Slow  SRes Def   SNR       Amp   Per   Mag1   Mag2       ID
PGF   000.53 334.7 m E Pg      2012/10/17 03:51:52.9   0.0                          T                                        5099252
PGF   000.53 334.7 m E Sg      2012/10/17 03:51:59.7  -0.2                          T                                Md 2.3  5099251
SBF   002.25 323.2 m E Pn      2012/10/17 03:52:19.5   0.2                          T                                        5099253
SBF   002.25 323.2 m E Sn      2012/10/17 03:52:46.1  -0.1                          T                2.4  .17 Ml 2.4         5099250
LMR   002.41 302.4 m E Pn      2012/10/17 03:52:21.3  -0.2                          T                                        5099246
LMR   002.41 302.4 m E Sn      2012/10/17 03:52:49.8   0.0                          T                1.5  .19 Ml 2.2         5099249
FRF   002.46 308.1 m E Pn      2012/10/17 03:52:22.0   0.0                          T                                        5099247
FRF   002.46 308.1 m E Sn      2012/10/17 03:52:50.8  -0.1                          T                 .8  .17 Ml 2.0         5099248

.
EVENT     285259
    Date      Time       Latitude Longitude    Depth    Ndef Nsta Gap    Mag1  N    Mag2  N    Mag3  N   Author         ID
       rms   OT_Error      Smajor Sminor Az        Err   mdist  Mdist     Err        Err        Err      Quality

2012/10/17 05:53:15.6     42.5886    1.2821     10.0      36    4 062  Ml 1.9  4  Md 2.1  1              bulletin    285359
                                                                                                         _ldg
      0.36   +-  0.05       1.1     .9   15.75 +-  0.0    0.02   1.92   +-0.1      +-                    m i ke

PYRENEES
Sta     Dist  EvAz     Phase      Date       Time     TRes  Azim  AzRes  Slow  SRes Def   SNR       Amp   Per   Mag1   Mag2       ID
EPF   000.82 302.8 m E Pg      2012/10/17 05:53:31.0  -0.2                          T                                Md 2.1  5099372
EPF   000.82 302.8 m E Sg      2012/10/17 05:53:41.1  -0.8                          T                3.2  .20                5099377
MTLF  001.02 042.1 m E Pg      2012/10/17 05:53:35.1   0.4                          T                                        5099373
MTLF  001.02 042.1 m E Sg      2012/10/17 05:53:48.3   0.3                          T                2.3  .22 Ml 1.8         5099376
ETSF  001.39 283.5 m E Pg      2012/10/17 05:53:41.4  -0.3                          T                                        5099378
ETSF  001.39 283.5 m E Sg      2012/10/17 05:53:59.4  -0.3                          T                2.0  .22 Ml 1.9         5099375
SJPF  001.92 286.7 m E Pn      2012/10/17 05:53:46.6   0.0                          T                                        5099379
SJPF  001.92 286.7 m E Sn      2012/10/17 05:54:09.5   0.1                          T                                        5102325
SJPF  001.92 286.7 m E Sg      2012/10/17 05:54:15.8  -0.2                          T                1.8  .25 Ml 2.0         5099374

.
EVENT     285218
    Date      Time       Latitude Longitude    Depth    Ndef Nsta Gap    Mag1  N    Mag2  N    Mag3  N   Author         ID
       rms   OT_Error      Smajor Sminor Az        Err   mdist  Mdist     Err        Err        Err      Quality

2012/10/17 06:37:31.3     42.0554    9.2158      2.0      10    4 321  Ml 2.2  3  Md 2.1  1              bulletin    285318
                                                                                                         _ldg
      0.30   +-  0.25       4.4    3.2  130.93 +-  0.0    0.52   2.42   +-0.2      +-                    m i ke

CORSICA, FRANCE
Sta     Dist  EvAz     Phase      Date       Time     TRes  Azim  AzRes  Slow  SRes Def   SNR       Amp   Per   Mag1   Mag2       ID
PGF   000.52 342.0 m E Pg      2012/10/17 06:37:41.2  -0.1                          T                                        5099282
PGF   000.52 342.0 m E Sg      2012/10/17 06:37:48.2   0.0                          T               19.3  .20        Md 2.1  5099281
SBF   002.23 324.7 m E Pn      2012/10/17 06:38:07.8   0.3                          T                                        5099280
SBF   002.23 324.7 m E Sn      2012/10/17 06:38:34.0  -0.1                          T                3.6  .24 Ml 2.4         5099276
LMR   002.37 303.5 m E Pn      2012/10/17 06:38:09.1  -0.2                          T                                        5099279
LMR   002.37 303.5 m E Sn      2012/10/17 06:38:37.8   0.5                          T                1.2  .18 Ml 2.1         5099277
FRF   002.42 309.4 m E Pn      2012/10/17 06:38:10.0   0.1                          T                                        5099278
FRF   002.42 309.4 m E Sn      2012/10/17 06:38:38.6   0.2                          T                1.4  .22 Ml 2.1         5099285

.
EVENT     285225
    Date      Time       Latitude Longitude    Depth    Ndef Nsta Gap    Mag1  N    Mag2  N    Mag3  N   Author         ID
       rms   OT_Error      Smajor Sminor Az        Err   mdist  Mdist     Err        Err        Err      Quality

2012/10/17 07:08:47.9     42.0647    9.3049      2.0      10    4 327  Ml 2.4  3  Md 2.5  1              bulletin    285325
                                                                                                         _ldg
      0.28   +-  0.21       3.7    2.8  121.86 +-  0.0    0.53   2.46   +-0.1      +-                    m i ke

CORSICA, FRANCE
Sta     Dist  EvAz     Phase      Date       Time     TRes  Azim  AzRes  Slow  SRes Def   SNR       Amp   Per   Mag1   Mag2       ID
PGF   000.53 335.0 m E Pg      2012/10/17 07:08:58.4   0.2                          T                                        5099295
PGF   000.53 335.0 m E Sg      2012/10/17 07:09:05.2   0.0                          T               35.3  .22        Md 2.5  5099294
SBF   002.26 323.3 m E Pn      2012/10/17 07:09:24.6   0.0                          T                                        5099296
SBF   002.26 323.3 m E Sn      2012/10/17 07:09:50.8  -0.6                          T                2.6  .15 Ml 2.5         5099287
LMR   002.42 302.6 m E Pn      2012/10/17 07:09:26.5  -0.1                          T                                        5099291
LMR   002.42 302.6 m E Sn      2012/10/17 07:09:55.0  -0.1                          T                1.7  .18 Ml 2.3         5099288
FRF   002.46 308.3 m E Pn      2012/10/17 07:09:27.2   0.0                          T                                        5099290
FRF   002.46 308.3 m E Sn      2012/10/17 07:09:56.1   0.0                          T                3.5  .21 Ml 2.6         5099289

.
EVENT     286180
    Date      Time       Latitude Longitude    Depth    Ndef Nsta Gap    Mag1  N    Mag2  N    Mag3  N   Author         ID
       rms   OT_Error      Smajor Sminor Az        Err   mdist  Mdist     Err        Err        Err      Quality

2012/10/17 07:11:38.4     42.6118    1.2724     10.0      20    3 063  Ml 1.3  3  Md 1.6  2              bulletin    286280
                                                                                                         _ldg
      0.25   +-  0.05       1.0     .9    9.54 +-  0.0    0.02   1.38   +-0.1      +-0.1                 m i ke

PYRENEES
Sta     Dist  EvAz     Phase      Date       Time     TRes  Azim  AzRes  Slow  SRes Def   SNR       Amp   Per   Mag1   Mag2       ID
EPF   000.80 301.7 m E Pg      2012/10/17 07:11:53.7   0.0                          T                                        5107663
EPF   000.80 301.7 m E Sg      2012/10/17 07:12:04.2   0.0                          T                1.4  .22        Md 1.5  5107664
MTLF  001.01 043.3 m E Pg      2012/10/17 07:11:57.6   0.2                          T                                        5107662
MTLF  001.01 043.3 m E Sg      2012/10/17 07:12:10.6   0.1                          T                 .5  .18 Ml 1.2 Md 1.6  5107661
ETSF  001.38 282.6 m E Pn      2012/10/17 07:12:02.4   0.2                          T                                        5107660
ETSF  001.38 282.6 m E Sn      2012/10/17 07:12:19.5   0.1                          T                 .6  .20 Ml 1.5         5107659

.
EVENT     285269
    Date      Time       Latitude Longitude    Depth    Ndef Nsta Gap    Mag1  N    Mag2  N    Mag3  N   Author         ID
       rms   OT_Error      Smajor Sminor Az        Err   mdist  Mdist     Err        Err        Err      Quality

2012/10/17 09:50:46.9     45.3871    6.5076      2.0      33    9 098  Ml 1.9  4  Md 1.9  2              bulletin    285369
                                                                                                         _ldg
      0.30   +-  0.06       1.3     .8  121.29 +-  0.0    0.20   2.05   +-0.3      +-0.0                 m i ke

FRANCE
Sta     Dist  EvAz     Phase      Date       Time     TRes  Azim  AzRes  Slow  SRes Def   SNR       Amp   Per   Mag1   Mag2       ID
LPL   000.20 050.7 m E Pg      2012/10/17 09:50:51.6   0.3                          T                                        5099489
LPL   000.20 050.7 m E Sg      2012/10/17 09:50:54.6   0.5                          T                                Md 1.8  5099486
LPG   000.20 057.1 m E Pg      2012/10/17 09:50:51.6   0.2                          T                                        5099490
LPG   000.20 057.1 m E Sg      2012/10/17 09:50:54.1  -0.1                          T                                Md 1.9  5099485
ORIF  000.65 223.7 m E Pg      2012/10/17 09:50:59.3   0.0                          T                                        5099488
ORIF  000.65 223.7 m E Sg      2012/10/17 09:51:07.1  -0.7                          T               11.8  .24                5099484
MBDF  000.69 164.1 m E Pg      2012/10/17 09:51:00.0  -0.1                          T                                        5099487
MBDF  000.69 164.1 m E Sg      2012/10/17 09:51:09.6   0.5                          T                5.6  .22                5099483
CABF  001.26 346.7 m E Pg      2012/10/17 09:51:11.3   0.8                          T                                        5109259
CABF  001.26 346.7 m E Sg      2012/10/17 09:51:26.7  -0.1                          T                1.9  .20 Ml 1.9         5109258
VIVF  001.40 248.4 m E Pn      2012/10/17 09:51:12.1   0.2                          T                                        5099508
VIVF  001.40 248.4 m E Sn      2012/10/17 09:51:29.7  -0.1                          T                1.9  .27 Ml 1.8         5099507
SMRF  001.56 205.6 m E Pn      2012/10/17 09:51:14.4   0.3                          T                                        5109260
SBF   001.66 156.2 m E Pn      2012/10/17 09:51:15.6   0.2                          T                                        5109264
SBF   001.66 156.2 m E Sn      2012/10/17 09:51:36.2   0.1                          T                2.9  .21 Ml 2.3         5109263
LMR   002.05 180.0 m E Pn      2012/10/17 09:51:20.9   0.2                          T                                        5109262
LMR   002.05 180.0 m E Sn      2012/10/17 09:51:45.0  -0.3                          T                 .4  .21 Ml 1.6         5109261

.
