EVENT     273052
    Date      Time       Latitude Longitude    Depth    Ndef Nsta Gap    Mag1  N    Mag2  N    Mag3  N   Author         ID
       rms   OT_Error      Smajor Sminor Az        Err   mdist  Mdist     Err        Err        Err      Quality

2012/04/05 04:56:21.6     35.8643    4.5127     30.0     177   32 058                                    js067245    273072

                                               +-         0.19  83.21                                    m i ke

NORTHERN ALGERIA
Sta     Dist  EvAz     Phase      Date       Time     TRes  Azim  AzRes  Slow  SRes Def   SNR       Amp   Per   Mag1   Mag2       ID
LMR   007.62 011.1 m E Pn      2012/04/05 04:58:06.6  -1.9                          T   001.0                                4901921
LMR   007.62 011.1 m E Sn      2012/04/05 04:59:24.9  -3.8                          T   001.0        9.1  .36                4901922
PGF   007.53 026.2 m E Pn      2012/04/05 04:58:07.6   0.2                          T   001.0                                4901926
PGF   007.53 026.2 m E Sn      2012/04/05 04:59:25.2  -1.6                          T               19.7  .56                4902733
MTLF  007.67 347.4 m E Pn      2012/04/05 04:58:10.6   1.3                          T   001.0                                4901933
MTLF  007.67 347.4 m E P       2012/04/05 04:58:12.9  -1.3                          T                                        4902735
MTLF  007.67 347.4 m E Sn      2012/04/05 04:59:30.0  -0.1                          T               14.0  .64                4902729
FRF   007.86 011.4 m E Pn      2012/04/05 04:58:11.1  -0.7                          T   001.0                                4901916
FRF   007.86 011.4 m E Sn      2012/04/05 04:59:32.6  -2.0                          T                7.0  .36                4902734
EPF   007.85 337.0 m E Pn      2012/04/05 04:58:14.1   2.4                          T   001.0                                4901915
EPF   007.85 337.0 m E Sn      2012/04/05 04:59:34.5   0.1                          T               16.8  .66                4902728
LASF  008.22 356.7 m E Pn      2012/04/05 04:58:15.6  -1.1                          T   001.0                                4901918
SMRF  008.14 005.4 m E Pn      2012/04/05 04:58:16.1   0.4                          T   001.0                                4901941
ETSF  008.05 332.3 m E Pn      2012/04/05 04:58:16.1   1.7                          T   001.0                                4901931
ETSF  008.05 332.3 m E Sn      2012/04/05 04:59:38.6  -0.5                          T               37.5 1.08                4902727
SMRF  008.14 005.4 m E Sn      2012/04/05 04:59:38.9  -2.5                          T   001.0        4.1  .40                4901942
SBF   008.30 014.8 m E Pn      2012/04/05 04:58:17.1  -0.8                          T   001.0                                4901927
SBF   008.30 014.8 m E Sn      2012/04/05 04:59:42.4  -2.7                          T   001.0       11.6  .48                4901928
SJPF  008.49 330.3 m E Pn      2012/04/05 04:58:22.1   1.7                          T   001.0                                4901937
SJPF  008.49 330.3 m E Sn      2012/04/05 04:59:48.9  -0.7                          T   001.0        8.2  .56                4901938
VIVF  008.98 000.7 m E Pn      2012/04/05 04:58:26.7  -0.4                          T   001.0                                4901939
VIVF  008.98 000.7 m E Sn      2012/04/05 04:59:58.0  -3.4                          T   001.0        5.3  .28                4901940
MBDF  009.02 010.3 m E Pn      2012/04/05 04:58:28.7   0.9                          T   001.0                                4901932
MBDF  009.02 010.3 m E Sn      2012/04/05 05:00:02.2  -0.3                          T                8.8  .60                4902730
CAF   009.24 349.1 m E Pn      2012/04/05 04:58:31.2   0.6                          T                                        4902736
LFF   009.51 343.6 m E Pn      2012/04/05 04:58:35.9   1.6                          T   001.0                                4901920
RJF   009.70 347.4 m E Pn      2012/04/05 04:58:37.1   0.2                          T                                        4902738
RJF   009.70 347.4 m E P       2012/04/05 04:58:41.9  -0.4                          T                                        4902737
LPG   009.77 009.3 m E Pn      2012/04/05 04:58:39.2   1.0                          T   001.0                                4901923
LPL   009.79 009.2 m E Pn      2012/04/05 04:58:39.7   1.4                          T   001.0                                4901924
LPL   009.79 009.2 m E Sn      2012/04/05 05:00:21.2   0.4                          T               15.4  .60                4902732
TCF   010.56 351.3 m E Pn      2012/04/05 04:58:48.4  -0.2                          T                                        4902744
BGF   010.76 353.8 m E Pn      2012/04/05 04:58:51.0  -0.3                          T   001.0                                4901913
SMF   010.78 357.5 m E Pn      2012/04/05 04:58:51.7   0.1                          T   001.0                                4901929
CABF  010.80 005.8 m E Pn      2012/04/05 04:58:52.8   0.8                          T   001.0                                4901930
AVF   010.95 355.8 m E Pn      2012/04/05 04:58:53.3  -0.6                          T   001.0                                4901912
MFF   011.28 343.4 m E Pn      2012/04/05 04:58:58.3  -0.1                          T   001.0                                4901925
MFF   011.28 343.4 m E P       2012/04/05 04:59:02.8  -1.1                          T                                        4902739
LOR   011.41 357.7 m E Pg      2012/04/05 04:58:59.5  -0.6                          T                                        4902743
HAU   012.21 005.8 m E Pn      2012/04/05 04:59:10.8  -0.2                          T   001.0                                4901917
THEF  012.40 004.6 m E Pn      2012/04/05 04:59:12.7  -0.9                          T                                        4902742
THEF  012.40 004.6 m E P       2012/04/05 04:59:18.4  -0.6                          T                                        4902741
CDF   012.70 008.4 m E Pn      2012/04/05 04:59:17.8  -0.1                          T   001.0                                4901914
LDF   013.17 346.4 m E Pn      2012/04/05 04:59:25.5   1.4                          T   001.0                                4901919
QUIF  013.32 337.0 m E Pn      2012/04/05 04:59:28.4   2.3                          T   001.0                                4901934
SGMF  013.44 339.3 m E Pn      2012/04/05 04:59:29.9   2.2                          T   001.0                                4901936
ROSF  013.73 337.6 m E Pn      2012/04/05 04:59:33.0   1.3                          T   001.0                                4901935
ORIF  009.10 006.2 m E Sn      2012/04/05 05:00:04.1  -0.3                          T               48.6 1.38                4902731

.
EVENT     273066
    Date      Time       Latitude Longitude    Depth    Ndef Nsta Gap    Mag1  N    Mag2  N    Mag3  N   Author         ID
       rms   OT_Error      Smajor Sminor Az        Err   mdist  Mdist     Err        Err        Err      Quality

2012/04/05 06:14:00.5     47.9282    1.5600       .0 f    12    6 169  Ml 2.3  6  Md 2.1  1              bulletin    273086
                                                                                                         _ldg
      0.96   +-  0.32      17.2    5.0   38.19 +-  0.0    1.31   1.70   +-0.3      +-                    m i km

FRANCE
Sta     Dist  EvAz     Phase      Date       Time     TRes  Azim  AzRes  Slow  SRes Def   SNR       Amp   Per   Mag1   Mag2       ID
LDF   001.31 301.3 m E Pg      2012/04/05 06:14:24.2  -1.0                          T                                        4910525
LDF   001.31 301.3 m E Sg      2012/04/05 06:14:43.2   0.9                          T                3.6  .32 Ml 2.0 Md 2.1  4910526
SSF   001.58 122.6 m E Pn      2012/04/05 06:14:29.2   0.9                          T                                        4902234
SSF   001.58 122.6 m E Sn      2012/04/05 06:14:47.8  -0.6                          T                6.2  .36 Ml 2.4         4902237
BGF   001.63 146.9 m E Pn      2012/04/05 06:14:29.3   0.4                          T                                        4902241
BGF   001.63 146.9 m E Sg      2012/04/05 06:14:51.0  -1.3                          T               21.0  .36 Ml 2.9         4902242
LOR   001.69 112.1 m E Pn      2012/04/05 06:14:29.5  -0.3                          T                                        4902235
LOR   001.69 112.1 m E Sg      2012/04/05 06:14:52.4  -1.9                          T                5.9  .38 Ml 2.3         4902236
FLN   001.60 302.3 m E Pg      2012/04/05 06:14:29.9  -0.6                          T                                        4910523
FLN   001.60 302.3 m E Sg      2012/04/05 06:14:52.6   1.2                          T                6.2  .36 Ml 2.2         4910524
TCF   001.70 164.6 m E Pn      2012/04/05 06:14:30.7   0.8                          T                                        4902239
TCF   001.70 164.6 m E Sg      2012/04/05 06:14:52.9  -1.7                          T                4.2  .42 Ml 2.2         4902238

.
EVENT     273056
    Date      Time       Latitude Longitude    Depth    Ndef Nsta Gap    Mag1  N    Mag2  N    Mag3  N   Author         ID
       rms   OT_Error      Smajor Sminor Az        Err   mdist  Mdist     Err        Err        Err      Quality

2012/04/05 06:22:19.9     43.0298    -.6350      2.0      14    4 121  Ml 1.3  1  Md 1.3  2              js067245    273076

      0.45   +-  0.13       3.4    1.9   13.84 +-  0.0    0.07   2.11   +-         +-0.3                 m i ke

PYRENEES
Sta     Dist  EvAz     Phase      Date       Time     TRes  Azim  AzRes  Slow  SRes Def   SNR       Amp   Per   Mag1   Mag2       ID
ETSF  000.14 157.0 m E Pg      2012/04/05 06:22:22.8  -0.1                          T                                        4902459
ETSF  000.14 157.0 m E Sg      2012/04/05 06:22:24.8  -0.2                          T                4.8  .20        Md 1.5  4902456
SJPF  000.44 281.1 m E Pg      2012/04/05 06:22:28.3   0.0                          T                                        4902458
SJPF  000.44 281.1 m E Sg      2012/04/05 06:22:34.7   0.5                          T                3.5  .25        Md 1.1  4902455
EPF   000.71 089.6 m E Pg      2012/04/05 06:22:33.7   0.3                          T                                        4902454
EPF   000.71 089.6 m E Sg      2012/04/05 06:22:42.8   0.0                          T                2.0  .24                4902457
MTLF  002.11 080.5 m E Sg      2012/04/05 06:23:26.4   0.1                          T                 .2  .22 Ml 1.3         4910527

.
EVENT     273067
    Date      Time       Latitude Longitude    Depth    Ndef Nsta Gap    Mag1  N    Mag2  N    Mag3  N   Author         ID
       rms   OT_Error      Smajor Sminor Az        Err   mdist  Mdist     Err        Err        Err      Quality

2012/04/05 06:56:46.1     48.8611    8.8526       .0 f     9    5 312  Ml 2.1  4  Md 2.2  1              bulletin    273087
                                                                                                         _ldg
      0.32   +-  0.59       9.8    6.6  102.74 +-  0.0    0.70   2.09   +-0.3      +-                    m i km

GERMANY
Sta     Dist  EvAz     Phase      Date       Time     TRes  Azim  AzRes  Slow  SRes Def   SNR       Amp   Per   Mag1   Mag2       ID
LANF  000.70 280.2 m E Pg      2012/04/05 06:56:59.6  -0.1                          T                                        4902375
LANF  000.70 280.2 m E Sg      2012/04/05 06:57:09.4   0.4                          T                                Md 2.2  4902374
CDF   001.14 247.3 m E Pg      2012/04/05 06:57:08.1   0.3                          T                                        4902376
CDF   001.14 247.3 m E Sg      2012/04/05 06:57:22.2  -0.5                          T               18.2  .62 Ml 2.5         4902380
HAU   001.87 243.8 m E Pg      2012/04/05 06:57:21.3   0.1                          T                                        4902377
HAU   001.87 243.8 m E Sg      2012/04/05 06:57:46.1   0.5                          T                6.2  .40 Ml 2.1         4902378
PAGF  002.09 262.8 m E Pg      2012/04/05 06:57:25.0  -0.3                          T                                        4902373
PAGF  002.09 262.8 m E Sg      2012/04/05 06:57:50.3  -2.1                          T                1.2  .38 Ml 1.7         4910528
HINF  001.69 232.7 m E Sg      2012/04/05 06:57:39.7  -0.4                          T                5.0  .34 Ml 2.3         4902379

.
EVENT     273084
    Date      Time       Latitude Longitude    Depth    Ndef Nsta Gap    Mag1  N    Mag2  N    Mag3  N   Author         ID
       rms   OT_Error      Smajor Sminor Az        Err   mdist  Mdist     Err        Err        Err      Quality

2012/04/05 07:39:39.4     43.3694    5.9672       .0 f     7    4 240  Ml 2.3  1  Md 1.8  2              bulletin    273104
                                                                                                         _ldg
      0.29   +-  0.30       7.6    2.5   24.95 +-  0.0    0.40   1.17   +-         +-0.1                 m i km

NEAR SOUTH COAST OF FRANCE
Sta     Dist  EvAz     Phase      Date       Time     TRes  Azim  AzRes  Slow  SRes Def   SNR       Amp   Per   Mag1   Mag2       ID
LMR   000.40 094.9 m E Pg      2012/04/05 07:39:47.2   0.0                          T                                        4902389
LMR   000.40 094.9 m E Sg      2012/04/05 07:39:52.5  -0.2                          T                5.9  .28        Md 1.9  4902383
FRF   000.53 068.6 m E Pg      2012/04/05 07:39:49.8   0.0                          T                                        4902390
FRF   000.53 068.6 m E Sg      2012/04/05 07:39:56.2  -0.7                          T               36.0  .86        Md 1.7  4902385
SMRF  000.67 335.0 m E Pg      2012/04/05 07:39:52.4   0.0                          T                                        4902388
SMRF  000.67 335.0 m E Sn      2012/04/05 07:40:05.4  -0.1                          T                                        4902465
SBF   001.17 064.7 m E Sg      2012/04/05 07:40:17.7   0.5                          T               14.6  .64 Ml 2.3         4910588

.
EVENT     273085
    Date      Time       Latitude Longitude    Depth    Ndef Nsta Gap    Mag1  N    Mag2  N    Mag3  N   Author         ID
       rms   OT_Error      Smajor Sminor Az        Err   mdist  Mdist     Err        Err        Err      Quality

2012/04/05 08:18:45.4     45.6692    3.3262       .0 f    12    6 110  Ml 2.1  5                         bulletin    273105
                                                                                                         _ldg
      0.26   +-  0.08       2.2    1.4   87.33 +-  0.0    0.95   1.64   +-0.4                            m i km

FRANCE
Sta     Dist  EvAz     Phase      Date       Time     TRes  Azim  AzRes  Slow  SRes Def   SNR       Amp   Per   Mag1   Mag2       ID
BGF   000.95 339.6 m E Pg      2012/04/05 08:19:03.3  -0.2                          T                                        4902402
BGF   000.95 339.6 m E Sg      2012/04/05 08:19:16.4   0.4                          T               24.2  .44 Ml 2.5         4902401
SMF   001.04 019.9 m E Pg      2012/04/05 08:19:05.1   0.0                          T                                        4902400
SMF   001.04 019.9 m E Sg      2012/04/05 08:19:18.9   0.0                          T               19.2  .51 Ml 2.4         4902399
AVF   001.12 000.9 m E Pg      2012/04/05 08:19:06.6  -0.1                          T                                        4902398
AVF   001.12 000.9 m E Sg      2012/04/05 08:19:21.4   0.0                          T                4.7  .42 Ml 1.9         4902397
CAF   001.16 230.6 m E Pg      2012/04/05 08:19:07.7   0.2                          T                                        4902396
CAF   001.16 230.6 m E Sg      2012/04/05 08:19:22.4  -0.3                          T                8.1  .40 Ml 2.2         4902395
VIVF  001.25 130.1 m E Pg      2012/04/05 08:19:09.3   0.2                          T                                        4902394
VIVF  001.25 130.1 m E Sg      2012/04/05 08:19:25.6   0.2                          T                                        4902393
LASF  001.64 166.5 m E Pg      2012/04/05 08:19:15.2  -1.0                          T                                        4902391
LASF  001.64 166.5 m E Sg      2012/04/05 08:19:36.7  -0.8                          T                 .4  .15 Ml 1.5         4902392

.
EVENT     273104
    Date      Time       Latitude Longitude    Depth    Ndef Nsta Gap    Mag1  N    Mag2  N    Mag3  N   Author         ID
       rms   OT_Error      Smajor Sminor Az        Err   mdist  Mdist     Err        Err        Err      Quality

2012/04/05 08:29:45.2     43.4269    6.8145       .0 f    16    4 159  Ml 1.3  1                         js067245    273124

      0.55   +-  0.43      10.3    4.2  166.74 +-  0.0    0.18   1.12   +-                               m i km

NEAR SOUTH COAST OF FRANCE
Sta     Dist  EvAz     Phase      Date       Time     TRes  Azim  AzRes  Slow  SRes Def   SNR       Amp   Per   Mag1   Mag2       ID
FRF   000.18 317.7 m E Pg      2012/04/05 08:29:48.0  -1.1                          T                                        4903974
FRF   000.18 317.7 m E Sg      2012/04/05 08:29:51.1  -0.7                          T                3.4  .17                4903972
LMR   000.24 247.4 m E Pg      2012/04/05 08:29:49.3  -0.9                          T                                        4903973
LMR   000.24 247.4 m E Sg      2012/04/05 08:29:53.2  -0.5                          T                6.3  .30                4903971
SBF   000.63 045.7 m E Pg      2012/04/05 08:29:57.1  -0.3                          T                                        4903970
SBF   000.63 045.7 m E Sg      2012/04/05 08:30:05.5  -0.3                          T                9.2  .42                4903969
SMRF  001.05 301.8 m E Pn      2012/04/05 08:30:05.5  -0.3                          T                                        4903968
SMRF  001.05 301.8 m E Sn      2012/04/05 08:30:20.5   0.0                          T                 .4  .16 Ml 1.3         4903967

.
