EVENT     268695
    Date      Time       Latitude Longitude    Depth    Ndef Nsta Gap    Mag1  N    Mag2  N    Mag3  N   Author         ID
       rms   OT_Error      Smajor Sminor Az        Err   mdist  Mdist     Err        Err        Err      Quality

2012/01/16 17:56:48.1     46.5039   13.0758      2.0      44   12 099  Ml 2.5  5                         js067245    268715

      0.43   +-  0.09       2.5    1.6   28.93 +-  0.0    0.07   7.14   +-0.2                            m i ke

AUSTRIA
Sta     Dist  EvAz     Phase      Date       Time     TRes  Azim  AzRes  Slow  SRes Def   SNR       Amp   Per   Mag1   Mag2       ID
HINF  004.44 289.4 m E P       2012/01/16 17:57:57.9  -0.3                          T                                        4816837
HINF  004.44 289.4 m E Sn      2012/01/16 17:58:44.2   0.4                          T                2.9  .27 Ml 2.8         4816820
MBDF  004.77 250.4 m E Pn      2012/01/16 17:57:59.1   0.1                          T                                        4816831
MBDF  004.77 250.4 m E P       2012/01/16 17:58:03.1   0.2                          T                                        4816830
MBDF  004.77 250.4 m E Sn      2012/01/16 17:58:51.7   0.1                          T                1.2  .34 Ml 2.4         4816821
LPL   004.53 259.7 m E P       2012/01/16 17:57:59.8   0.1                          T                                        4816827
LPL   004.53 259.7 m E Sn      2012/01/16 17:58:46.0   0.1                          T                1.0  .28 Ml 2.3         4816824
LPG   004.52 259.4 m E P       2012/01/16 17:58:00.1   0.4                          T                                        4816823
LPG   004.52 259.4 m E Sn      2012/01/16 17:58:46.4   0.5                          T                1.0  .30 Ml 2.3         4816822
SBF   004.78 238.5 m E P       2012/01/16 17:58:02.6  -0.5                          T                                        4816825
HAU   004.82 290.6 m E P       2012/01/16 17:58:03.4  -0.1                          T                                        4816838
HAU   004.82 290.6 m E Sn      2012/01/16 17:58:53.3   0.6                          T                6.9  .51 Ml 2.7         4816819
CABF  004.82 273.8 m E P       2012/01/16 17:58:03.7   0.1                          T                                        4816836
ORIF  005.28 255.1 m E Pn      2012/01/16 17:58:05.8  -0.2                          T                                        4816829
ORIF  005.28 255.1 m E P       2012/01/16 17:58:10.5   0.3                          T                                        4816828
SMRF  005.87 247.2 m E Pn      2012/01/16 17:58:13.8  -0.1                          T                                        4816826
SMF   006.37 274.6 m E P       2012/01/16 17:58:24.3  -1.1                          T                                        4816834
LASF  006.94 252.9 m E Pn      2012/01/16 17:58:28.5   0.1                          T                                        4816832
AVF   006.70 276.0 m E P       2012/01/16 17:58:28.9  -1.1                          T                                        4816835

.
EVENT     268696
    Date      Time       Latitude Longitude    Depth    Ndef Nsta Gap    Mag1  N    Mag2  N    Mag3  N   Author         ID
       rms   OT_Error      Smajor Sminor Az        Err   mdist  Mdist     Err        Err        Err      Quality

2012/01/16 19:58:58.6     44.7410    7.2437     10.0 f    35    9 131  Ml 1.5  6  Md 1.5  1              js067245    268716

      0.24   +-  0.05       1.1     .6   77.19 +-  0.0    0.10   1.83   +-0.2      +-                    m i ke

NORTHERN ITALY
Sta     Dist  EvAz     Phase      Date       Time     TRes  Azim  AzRes  Slow  SRes Def   SNR       Amp   Per   Mag1   Mag2       ID
MBDF  000.34 267.8 m E Pg      2012/01/16 19:59:05.7   0.3                          T                                        4816852
MBDF  000.34 267.8 m E Sg      2012/01/16 19:59:09.9  -0.2                          T               34.4  .22        Md 1.5  4816853
LPG   000.83 335.4 m E Pg      2012/01/16 19:59:14.6  -0.1                          T                                        4816849
LPG   000.83 335.4 m E Sg      2012/01/16 19:59:25.7   0.1                          T                2.0  .31                4816842
LPL   000.86 335.2 m E Pg      2012/01/16 19:59:14.7  -0.3                          T                                        4816850
LPL   000.86 335.2 m E Sg      2012/01/16 19:59:26.0  -0.2                          T                1.2  .25 Ml 1.4         4816841
SBF   000.89 171.0 m E Pg      2012/01/16 19:59:15.3  -0.1                          T                                        4816846
ORIF  000.99 280.8 m E Pg      2012/01/16 19:59:17.2   0.0                          T                                        4816851
ORIF  000.99 280.8 m E Sg      2012/01/16 19:59:30.0  -0.1                          T                1.8  .22 Ml 1.7         4816840
FRF   001.26 200.2 m E Pg      2012/01/16 19:59:22.4   0.3                          T                                        4816847
FRF   001.26 200.2 m E Sg      2012/01/16 19:59:38.4   0.0                          T                  1  .23 Ml 1.6         4816844
SMRF  001.42 238.0 m E Pg      2012/01/16 19:59:25.2   0.1                          T                                        4816848
SMRF  001.42 238.0 m E Sg      2012/01/16 19:59:43.5  -0.1                          T                 .7  .23 Ml 1.5         4816843
LMR   001.50 200.9 m E Sg      2012/01/16 19:59:45.9  -0.2                          T                 .8  .22 Ml 1.6         4816845
VIVF  001.83 274.5 m E Sg      2012/01/16 19:59:56.4  -0.1                          T                 .2  .18 Ml 1.1         4816839

.
EVENT     268700
    Date      Time       Latitude Longitude    Depth    Ndef Nsta Gap    Mag1  N    Mag2  N    Mag3  N   Author         ID
       rms   OT_Error      Smajor Sminor Az        Err   mdist  Mdist     Err        Err        Err      Quality

2012/01/16 22:11:44.7     42.3651    1.9513      2.0      18    4 068  Ml 1.5  4  Md 1.4  1              js067245    268720

      0.31   +-  0.06       1.3    1.0  156.31 +-  0.0    0.12   2.40   +-0.2      +-                    m i ke

PYRENEES
Sta     Dist  EvAz     Phase      Date       Time     TRes  Azim  AzRes  Slow  SRes Def   SNR       Amp   Per   Mag1   Mag2       ID
MTLF  000.99 011.3 m E Pg      2012/01/16 22:12:03.3   0.0                          T                                        4816860
MTLF  000.99 011.3 m E Sg      2012/01/16 22:12:16.3   0.1                          T                 .8  .22 Ml 1.4 Md 1.4  4816861
EPF   001.36 299.8 m E Pn      2012/01/16 22:12:09.3   0.2                          T                                        4816857
EPF   001.36 299.8 m E Pg      2012/01/16 22:12:10.5   0.3                          T                                        4816856
EPF   001.36 299.8 m E Sn      2012/01/16 22:12:26.7   0.1                          T                                        4816859
EPF   001.36 299.8 m E Sg      2012/01/16 22:12:28.0   0.2                          T                1.0  .21 Ml 1.7         4816858
ETSF  001.93 286.9 m E Sg      2012/01/16 22:12:45.8   0.3                          T                 .8  .26 Ml 1.7         4816855
LASF  002.21 038.5 m E Sg      2012/01/16 22:12:54.4   0.4                          T                 .3  .19 Ml 1.4         4816854

.
EVENT     268701
    Date      Time       Latitude Longitude    Depth    Ndef Nsta Gap    Mag1  N    Mag2  N    Mag3  N   Author         ID
       rms   OT_Error      Smajor Sminor Az        Err   mdist  Mdist     Err        Err        Err      Quality

2012/01/17 04:37:00.5     44.4759    6.9117      2.0      36    9 048  Ml 1.6  7  Md 1.5  1              js067245    268721

      0.22   +-  0.03        .8     .6   61.23 +-  0.0    0.07   1.64   +-0.2      +-                    m i ke

FRANCE
Sta     Dist  EvAz     Phase      Date       Time     TRes  Azim  AzRes  Slow  SRes Def   SNR       Amp   Per   Mag1   Mag2       ID
MBDF  000.27 338.3 m E Pg      2012/01/17 04:37:06.1   0.1                          T                                        4816886
MBDF  000.27 338.3 m E Sg      2012/01/17 04:37:09.7   0.0                          T                7.0  .24        Md 1.5  4816887
SBF   000.72 148.2 m E Pg      2012/01/17 04:37:14.1   0.0                          T                                        4816878
SBF   000.72 148.2 m E Sg      2012/01/17 04:37:23.7   0.1                          T                1.7  .17                4816877
ORIF  000.86 301.4 m E Pg      2012/01/17 04:37:16.7  -0.1                          T                                        4816884
ORIF  000.86 301.4 m E Sg      2012/01/17 04:37:28.0   0.1                          T                1.2  .26 Ml 1.4         4816871
FRF   000.93 191.9 m E Pg      2012/01/17 04:37:18.1   0.1                          T                                        4816880
FRF   000.93 191.9 m E Sg      2012/01/17 04:37:30.2   0.0                          T                2.0  .22 Ml 1.8         4816875
LPG   001.03 353.7 m E Pg      2012/01/17 04:37:20.2   0.0                          T                                        4816882
LPG   001.03 353.7 m E Sg      2012/01/17 04:37:33.3  -0.2                          T                1.7  .47 Ml 1.4         4816873
LPL   001.05 353.1 m E Pg      2012/01/17 04:37:20.6   0.1                          T                                        4816883
LPL   001.05 353.1 m E Sg      2012/01/17 04:37:33.8  -0.3                          T                 .5  .24 Ml 1.1         4816872
SMRF  001.08 243.0 m E Pg      2012/01/17 04:37:20.8   0.0                          T                                        4816881
SMRF  001.08 243.0 m E Sn      2012/01/17 04:37:35.9   0.0                          T                2.5  .28 Ml 1.8         4816874
LMR   001.18 194.4 m E Pg      2012/01/17 04:37:22.4  -0.1                          T                                        4816879
LMR   001.18 194.4 m E Sg      2012/01/17 04:37:38.0   0.2                          T                1.2  .20 Ml 1.7         4816876
VIVF  001.64 284.2 m E Pg      2012/01/17 04:37:31.2   0.0                          T                                        4816885
VIVF  001.64 284.2 m E Sg      2012/01/17 04:37:52.1  -0.2                          T                1.3  .34 Ml 1.7         4816870

.
EVENT     268702
    Date      Time       Latitude Longitude    Depth    Ndef Nsta Gap    Mag1  N    Mag2  N    Mag3  N   Author         ID
       rms   OT_Error      Smajor Sminor Az        Err   mdist  Mdist     Err        Err        Err      Quality

2012/01/17 04:50:03.5     43.9308    7.7304      2.0      28    5 092  Ml 1.7  4  Md 1.4  1              js067245    268722

      0.22   +-  0.05        .9     .8  140.39 +-  0.0    0.09   1.56   +-0.3      +-                    m i ke

NEAR SOUTH COAST OF FRANCE
Sta     Dist  EvAz     Phase      Date       Time     TRes  Azim  AzRes  Slow  SRes Def   SNR       Amp   Per   Mag1   Mag2       ID
SBF   000.22 252.5 m E Pg      2012/01/17 04:50:07.9  -0.1                          T                                        4816898
SBF   000.22 252.5 m E Sg      2012/01/17 04:50:11.2   0.1                          T               21.3  .21        Md 1.4  4816889
FRF   000.87 245.1 m E Pg      2012/01/17 04:50:19.8   0.0                          T                                        4816896
FRF   000.87 245.1 m E Sg      2012/01/17 04:50:31.3   0.2                          T                1.5  .20 Ml 1.7         4816891
MBDF  001.05 319.5 m E Pg      2012/01/17 04:50:23.1  -0.2                          T                                        4816894
MBDF  001.05 319.5 m E Sg      2012/01/17 04:50:37.1   0.0                          T                 .7  .22 Ml 1.3         4816893
LMR   001.07 236.5 m E Pg      2012/01/17 04:50:23.5   0.0                          T                                        4816897
LMR   001.07 236.5 m E Sg      2012/01/17 04:50:37.4   0.1                          T                5.2  .31 Ml 2.1         4816890
SMRF  001.56 272.4 m E Pg      2012/01/17 04:50:32.3  -0.3                          T                                        4816895
SMRF  001.56 272.4 m E Sg      2012/01/17 04:50:52.8   0.2                          T                1.7  .32 Ml 1.8         4816892

.
EVENT     268703
    Date      Time       Latitude Longitude    Depth    Ndef Nsta Gap    Mag1  N    Mag2  N    Mag3  N   Author         ID
       rms   OT_Error      Smajor Sminor Az        Err   mdist  Mdist     Err        Err        Err      Quality

2012/01/17 05:07:33.9     51.6245    6.9349      1.0 f    40   17 276  Ml 2.8 12  Md 2.9  1              js067245    268723

      0.93   +-  0.20       3.3    2.8   45.59 +-  0.0    0.28   6.18   +-0.3      +-                    m i sr

GERMANY
Sta     Dist  EvAz     Phase      Date       Time     TRes  Azim  AzRes  Slow  SRes Def   SNR       Amp   Per   Mag1   Mag2       ID
GIVF  002.03 222.1 m E Pn      2012/01/17 05:08:07.1  -0.3                          T                                        4816931
GIVF  002.03 222.1 m E Pg      2012/01/17 05:08:11.0  -0.6                          T                                        4816932
GIVF  002.03 222.1 m E Sn      2012/01/17 05:08:31.9   0.0                          T                                        4816923
GIVF  002.03 222.1 m E Sg      2012/01/17 05:08:37.3  -0.4                          T               24.4  .33 Ml 3.1 Md 2.9  4816919
BAIF  002.33 228.9 m E Pn      2012/01/17 05:08:11.3  -0.3                          T                                        4816929
BAIF  002.33 228.9 m E Pg      2012/01/17 05:08:16.9  -0.3                          T                                        4816930
BAIF  002.33 228.9 m E Sn      2012/01/17 05:08:38.9  -0.3                          T                                        4816922
BAIF  002.33 228.9 m E Sg      2012/01/17 05:08:47.5   0.2                          T                7.0  .28 Ml 2.7         4816918
SFTF  003.64 200.4 m E Pn      2012/01/17 05:08:29.0  -0.3                          T                                        4816928
SFTF  003.64 200.4 m E Sg      2012/01/17 05:09:27.8  -0.2  37.1  18.1              T                3.6  .23 Ml 2.8         4816915
LOR   004.80 205.9 m E Pn      2012/01/17 05:08:45.3   0.1  41.9  18.3              T                                        4816940
LOR   004.80 205.9 m E Sn      2012/01/17 05:09:38.1   0.0                          T                                        4816921
LOR   004.80 205.9 m E Sg      2012/01/17 05:10:04.3   0.1  21.7  -1.8              T                2.6  .33 Ml 2.7         4816920
SSF   005.09 207.5 m E Pn      2012/01/17 05:08:49.4   0.3                          T                                        4816941
AVF   005.38 207.3 m E Pn      2012/01/17 05:08:52.7  -0.3                          T                                        4816939
AVF   005.38 207.3 m E Sn      2012/01/17 05:09:51.6  -0.3                          T                                        4816924
SMF   005.38 203.4 m E Pn      2012/01/17 05:08:52.9  -0.2                          T                                        4816938
SMF   005.38 203.4 m E Sg      2012/01/17 05:10:22.6   0.3                          T                2.8  .42 Ml 2.8         4816911
LDF   005.46 239.0 m E Pn      2012/01/17 05:08:54.5   0.3                          T                                        4816934
LDF   005.46 239.0 m E Sn      2012/01/17 05:09:53.5  -0.4                          T                                        4816926
FLN   005.56 241.9 m E Pn      2012/01/17 05:08:55.7   0.2  65.8  9.6               T                                        4816936
BGF   005.74 209.5 m E Pn      2012/01/17 05:08:58.3   0.3                          T                                        4816937
BGF   005.74 209.5 m E Sn      2012/01/17 05:10:00.3  -0.2                          T                                        4816925
BGF   005.74 209.5 m E Sg      2012/01/17 05:10:33.7   0.3                          T                7.6  .47 Ml 3.2         4816910
GRR   005.98 240.2 m E Pn      2012/01/17 05:09:01.5   0.3                          T                                        4816935
GRR   005.98 240.2 m E Sn      2012/01/17 05:10:05.9  -0.4                          T                4.0  .23 Ml 3.2         4816927
TCF   006.18 212.0 m E Pn      2012/01/17 05:09:03.8  -0.2                          T                                        4816933
PAGF  003.17 194.7 m E Sg      2012/01/17 05:09:13.9   0.5                          T                3.9  .59 Ml 2.3         4816917
MEZF  003.35 201.9 m E Sg      2012/01/17 05:09:19.3   0.2  18.4  -2.1              T               12.9  .45 Ml 3.0         4816916
THEF  003.45 190.5 m E Sg      2012/01/17 05:09:22.5   0.2                          T                4.0  .28 Ml 2.7         4816914
HAU   003.64 186.2 m E Sg      2012/01/17 05:09:28.5   0.4                          T                8.1  .42 Ml 2.6         4816913
HINF  003.81 180.8 m E Sg      2012/01/17 05:09:33.9   0.4                          T                1.6  .27 Ml 2.4         4816912

.
EVENT     268709
    Date      Time       Latitude Longitude    Depth    Ndef Nsta Gap    Mag1  N    Mag2  N    Mag3  N   Author         ID
       rms   OT_Error      Smajor Sminor Az        Err   mdist  Mdist     Err        Err        Err      Quality

2012/01/17 09:10:32.5     47.7159    7.9552     10.0      12    4 057  Ml 1.9  2  Md 1.8  1              js067245    268729

      0.29   +-  0.06       1.1     .9  158.23 +-  0.0    0.15   2.02   +-0.1      +-                    m i ke

SWITZERLAND
Sta     Dist  EvAz     Phase      Date       Time     TRes  Azim  AzRes  Slow  SRes Def   SNR       Amp   Per   Mag1   Mag2       ID
HINF  000.75 278.1 m E Pg      2012/01/17 09:10:46.4  -0.5                          T                                        4816947
HINF  000.75 278.1 m E Sg      2012/01/17 09:10:56.5  -0.2                          T                4.6  .22        Md 1.8  4816944
HAU   001.12 285.6 m E Pg      2012/01/17 09:10:53.4  -0.2                          T                                        4816945
HAU   001.12 285.6 m E Sg      2012/01/17 09:11:07.6  -0.6                          T                3.8  .24 Ml 1.8         4816943
THEF  001.41 292.0 m E Pg      2012/01/17 09:10:59.0   0.0                          T                                        4816946
SFTF  002.02 285.1 m E Sg      2012/01/17 09:11:36.5   0.3                          T                1.2  .23 Ml 1.9         4816942

.
