EVENT     274584
    Date      Time       Latitude Longitude    Depth    Ndef Nsta Gap    Mag1  N    Mag2  N    Mag3  N   Author         ID
       rms   OT_Error      Smajor Sminor Az        Err   mdist  Mdist     Err        Err        Err      Quality

2012/04/26 09:49:23.1     44.2871    7.5596       .0 f    11    5 243  Ml 1.9  2  Md 1.8  2              bulletin    274684
                                                                                                         _ldg
      0.29   +-  0.28       6.3    2.1   78.74 +-  0.0    0.43   1.36   +-0.1      +-0.1                 m i km

NORTHERN ITALY
Sta     Dist  EvAz     Phase      Date       Time     TRes  Azim  AzRes  Slow  SRes Def   SNR       Amp   Per   Mag1   Mag2       ID
SBF   000.43 192.0 m E Pg      2012/04/26 09:49:31.7   0.0                          T                                        4924205
SBF   000.43 192.0 m E Sg      2012/04/26 09:49:37.8   0.2                          T                4.6  .23        Md 1.8  4924204
MBDF  000.72 308.2 m E Pg      2012/04/26 09:49:36.9  -0.1                          T                                        4924200
MBDF  000.72 308.2 m E Sg      2012/04/26 09:49:46.4  -0.1                          T                8.9  .27        Md 1.7  4924199
FRF   000.98 222.6 m E Pg      2012/04/26 09:49:42.0   0.3                          T                                        4924201
FRF   000.98 222.6 m E Sg      2012/04/26 09:49:55.3   0.6                          T                2.1  .20 Ml 1.9         4924198
LMR   001.22 219.0 m E Pg      2012/04/26 09:49:45.6  -0.5                          T                                        4924202
LMR   001.22 219.0 m E Sg      2012/04/26 09:50:01.5  -0.5                          T                2.0  .20 Ml 1.9         4924203
ORIF  001.36 298.3 m E Pn      2012/04/26 09:49:48.0   0.2                          T                                        4924230

.
EVENT     274585
    Date      Time       Latitude Longitude    Depth    Ndef Nsta Gap    Mag1  N    Mag2  N    Mag3  N   Author         ID
       rms   OT_Error      Smajor Sminor Az        Err   mdist  Mdist     Err        Err        Err      Quality

2012/04/26 09:51:50.6     46.5377    2.1929       .0 f    13    7 181  Ml 1.6  3  Md 1.7  2              bulletin    274685
                                                                                                         _ldg
      0.37   +-  0.22       5.0    2.5  120.61 +-  0.0    0.25   1.36   +-0.3      +-0.1                 m i km

FRANCE
Sta     Dist  EvAz     Phase      Date       Time     TRes  Azim  AzRes  Slow  SRes Def   SNR       Amp   Per   Mag1   Mag2       ID
TCF   000.25 177.3 m E Pg      2012/04/26 09:51:55.9   0.1                          T                                        4924142
TCF   000.25 177.3 m E Sg      2012/04/26 09:51:59.3  -0.2                          T              146.1 1.00        Md 1.7  4924889
BGF   000.45 087.2 m E Pg      2012/04/26 09:51:59.3  -0.2                          T                                        4924141
BGF   000.45 087.2 m E Sg      2012/04/26 09:52:05.5  -0.2                          T                9.9  .45        Md 1.8  4924887
HYF   000.79 022.6 m E Pg      2012/04/26 09:52:05.8   0.0                          T                                        4934779
HYF   000.79 022.6 m E Sg      2012/04/26 09:52:14.8  -1.6                          T                                        4934778
AVF   000.84 072.0 m E Pg      2012/04/26 09:52:07.1   0.5                          T                                        4924140
AVF   000.84 072.0 m E Sg      2012/04/26 09:52:16.7  -1.0                          T                1.0  .26                4924888
SMF   001.14 084.0 m E Pg      2012/04/26 09:52:12.7   0.5                          T                                        4924139
SMF   001.14 084.0 m E Sg      2012/04/26 09:52:27.4   0.1                          T                1.2  .21 Ml 1.6         4924885
LOR   001.36 056.8 m E Pn      2012/04/26 09:52:15.0  -0.4                          T                                        4924138
LOR   001.36 056.8 m E Sn      2012/04/26 09:52:33.0  -0.1                          T                 .4  .20 Ml 1.3         4924137
RJF   001.32 201.2 m E Sg      2012/04/26 09:52:32.6  -0.2                          T                7.8  .43 Ml 1.9         4924886

.
EVENT     274590
    Date      Time       Latitude Longitude    Depth    Ndef Nsta Gap    Mag1  N    Mag2  N    Mag3  N   Author         ID
       rms   OT_Error      Smajor Sminor Az        Err   mdist  Mdist     Err        Err        Err      Quality

2012/04/26 10:05:06.7     46.3226    3.2226 f     .0 f    18    7 214  Ml 1.8  1  Md 1.8  1              bulletin    274690
                                                                                                         _ldg
      0.23   +-  0.22    9999.9 9999.9   99.90 +-  0.0    0.35   1.04   +-         +-                    m i km

FRANCE
Sta     Dist  EvAz     Phase      Date       Time     TRes  Azim  AzRes  Slow  SRes Def   SNR       Amp   Per   Mag1   Mag2       ID
BGF   000.35 312.3 m E Pg      2012/04/26 10:05:13.6  -0.1                          T                                        4924385
BGF   000.35 312.3 m E Sg      2012/04/26 10:05:18.1  -0.5                          T               14.0  .43                4924384
AVF   000.48 010.8 m E Pg      2012/04/26 10:05:16.0  -0.1                          T                                        4924383
AVF   000.48 010.8 m E Sg      2012/04/26 10:05:22.5   0.0                          T                  1  .18                4924382
SMF   000.54 052.7 m E Pg      2012/04/26 10:05:17.1  -0.1                          T                                        4924381
SMF   000.54 052.7 m E Sg      2012/04/26 10:05:24.0  -0.4                          T                 .9  .15                4924380
TCF   000.70 267.6 m E Pg      2012/04/26 10:05:20.6   0.3                          T                                        4924390
TCF   000.70 267.6 m E Pn      2012/04/26 10:05:22.5   0.0                          T                                        4934781
TCF   000.70 267.6 m E Sg      2012/04/26 10:05:29.6  -0.1                          T                3.0  .28        Md 1.8  4924377
SSF   000.76 014.7 m E Pg      2012/04/26 10:05:21.4   0.0                          T                                        4924389
SSF   000.76 014.7 m E Pn      2012/04/26 10:05:23.2  -0.2                          T                                        4934780
SSF   000.76 014.7 m E Sg      2012/04/26 10:05:31.6   0.1                          T                1.4  .17                4924386
HYF   001.03 337.3 m E Pg      2012/04/26 10:05:26.3   0.0                          T                                        4924378
HYF   001.03 337.3 m E Sg      2012/04/26 10:05:39.3  -0.5                          T                                        4924379
LOR   001.04 024.6 m E Pg      2012/04/26 10:05:27.0   0.5 212.8  7.8               T                                        4924388
LOR   001.04 024.6 m E Sg      2012/04/26 10:05:40.2   0.0 206.8  1.8               T                1.6  .17 Ml 1.8         4924387

.
EVENT     274611
    Date      Time       Latitude Longitude    Depth    Ndef Nsta Gap    Mag1  N    Mag2  N    Mag3  N   Author         ID
       rms   OT_Error      Smajor Sminor Az        Err   mdist  Mdist     Err        Err        Err      Quality

2012/04/26 10:18:59.1     48.0328    6.4372       .0 f    13    7 117  Ml 1.9  2  Md 1.8  1              bulletin    274711
                                                                                                         _ldg
      1.24   +-  0.11       2.7    1.8    5.00 +-  0.0    0.07   1.90   +-0.2      +-                    m i km

FRANCE
Sta     Dist  EvAz     Phase      Date       Time     TRes  Azim  AzRes  Slow  SRes Def   SNR       Amp   Per   Mag1   Mag2       ID
HAU   000.07 245.5 m E Pg      2012/04/26 10:19:00.8   0.0                          T                                        4924717
HAU   000.07 245.5 m E Sg      2012/04/26 10:19:02.0   0.0                          T              103.6  .36        Md 1.8  4924715
THEF  000.36 303.5 m E Pg      2012/04/26 10:19:06.3   0.0                          T                                        4924713
HINF  000.35 127.6 m E Pg      2012/04/26 10:19:06.4   0.1                          T                                        4924716
HINF  000.35 127.6 m E Sg      2012/04/26 10:19:11.4   0.2                          T                4.9  .42                4924714
CDF   000.68 055.6 m E Pg      2012/04/26 10:19:12.4   0.0                          T                                        4924712
CDF   000.68 055.6 m E Sg      2012/04/26 10:19:21.2  -0.1                          T                2.9  .34                4934782
PAGF  000.71 318.0 m E Pg      2012/04/26 10:19:12.7   0.0                          T                                        4937303
PAGF  000.71 318.0 m E Sg      2012/04/26 10:19:22.2   0.0 125.5  -11.9             T                1.2  .51                4937304
SFTF  000.95 280.9 m E Pg      2012/04/26 10:19:17.3   0.0                          T                                        4937302
SFTF  000.95 280.9 m E Sn      2012/04/26 10:19:32.0   0.1                          T                2.5  .28 Ml 1.7         4937301
LOR   001.90 247.3 m E Pg      2012/04/26 10:19:34.7  -0.1  72.3  6.9               T                                        4937305
LOR   001.90 247.3 m E Sg      2012/04/26 10:19:59.5   0.0  74.0  8.7               T                1.7  .22 Ml 2.1         4937306

.
EVENT     274568
    Date      Time       Latitude Longitude    Depth    Ndef Nsta Gap    Mag1  N    Mag2  N    Mag3  N   Author         ID
       rms   OT_Error      Smajor Sminor Az        Err   mdist  Mdist     Err        Err        Err      Quality

2012/04/26 10:21:24.5     43.5299    6.5595       .0 f     9    5 126  Ml 1.9  1  Md 1.8  2              bulletin    274668
                                                                                                         _ldg
      0.27   +-  0.12       3.3    2.3  129.65 +-  0.0    0.07   1.21   +-         +-0.1                 m i km

NEAR SOUTH COAST OF FRANCE
Sta     Dist  EvAz     Phase      Date       Time     TRes  Azim  AzRes  Slow  SRes Def   SNR       Amp   Per   Mag1   Mag2       ID
FRF   000.07 064.1 m E Pg      2012/04/26 10:21:25.8  -0.4                          T                                        4924044
FRF   000.07 064.1 m E Sg      2012/04/26 10:21:27.0  -0.5                          T              819.3  .50        Md 1.9  4924043
LMR   000.20 190.6 m E Pg      2012/04/26 10:21:28.7   0.0                          T                                        4924042
LMR   000.20 190.6 m E Sg      2012/04/26 10:21:31.8   0.1                          T              101.0  .50        Md 1.8  4924041
SBF   000.72 062.0 m E Pg      2012/04/26 10:21:38.8   0.4                          T                                        4934789
SBF   000.72 062.0 m E Sg      2012/04/26 10:21:48.0   0.1                          T               17.8  .34                4934788
SMRF  000.84 302.4 m E Pn      2012/04/26 10:21:42.2   0.0                          T                                        4934787
SMRF  000.84 302.4 m E Sn      2012/04/26 10:21:54.5  -0.2                          T                3.2  .21                4934786
MBDF  001.21 007.2 m E Sg      2012/04/26 10:22:03.3   0.1                          T                4.5  .48 Ml 1.9         4937307

.
EVENT     274587
    Date      Time       Latitude Longitude    Depth    Ndef Nsta Gap    Mag1  N    Mag2  N    Mag3  N   Author         ID
       rms   OT_Error      Smajor Sminor Az        Err   mdist  Mdist     Err        Err        Err      Quality

2012/04/26 11:36:38.1     43.3213   -2.3290       .0 f     6    3 350  Ml 2.6  2  Md 2.2  1              bulletin    274687
                                                                                                         _ldg
      0.23   +-  0.57      40.2   11.6   14.46 +-  0.0    0.83   1.97   +-0.0      +-                    m i km

SPAIN
Sta     Dist  EvAz     Phase      Date       Time     TRes  Azim  AzRes  Slow  SRes Def   SNR       Amp   Per   Mag1   Mag2       ID
SJPF  000.83 104.1 m E Pg      2012/04/26 11:36:54.4   0.3                          T                                        4937308
SJPF  000.83 104.1 m E Sn      2012/04/26 11:37:07.9  -0.2                          T                 .8  .15        Md 2.2  4924240
ETSF  001.36 107.5 m E Pn      2012/04/26 11:37:02.8  -0.2                          T                                        4924238
ETSF  001.36 107.5 m E Sn      2012/04/26 11:37:20.8   0.0                          T               18.9  .49 Ml 2.6         4924239
EPF   001.97 097.6 m E Pn      2012/04/26 11:37:11.3   0.0                          T                                        4924362
EPF   001.97 097.6 m E Sn      2012/04/26 11:37:35.0  -0.4                          T               11.0  .50 Ml 2.5         4924246

.
EVENT     274592
    Date      Time       Latitude Longitude    Depth    Ndef Nsta Gap    Mag1  N    Mag2  N    Mag3  N   Author         ID
       rms   OT_Error      Smajor Sminor Az        Err   mdist  Mdist     Err        Err        Err      Quality

2012/04/26 12:02:18.0     47.1226   -1.0067       .0 f    14    6 168  Ml 2.3  5  Md 1.9  1              bulletin    274692
                                                                                                         _ldg
      0.65   +-  0.17       4.9    2.4   48.90 +-  0.0    0.79   1.68   +-0.3      +-                    m i km

FRANCE
Sta     Dist  EvAz     Phase      Date       Time     TRes  Azim  AzRes  Slow  SRes Def   SNR       Amp   Per   Mag1   Mag2       ID
MFF   000.79 131.1 m E Pg      2012/04/26 12:02:33.3   0.3                          T                                        4934791
MFF   000.79 131.1 m E Sg      2012/04/26 12:02:42.4  -1.1                          T               10.9  .23        Md 1.9  4934792
GRR   001.27 004.5 m E Pg      2012/04/26 12:02:41.9   0.0                          T                                        4924397
GRR   001.27 004.5 m E Sg      2012/04/26 12:02:57.2  -1.4                          T                9.7  .19 Ml 2.5         4924401
LDF   001.59 021.7 m E Pn      2012/04/26 12:02:46.1   0.4                          T                                        4924398
LDF   001.59 021.7 m E Sn      2012/04/26 12:03:06.2   0.2                          T                4.5  .19 Ml 2.4         4924400
SGMF  001.54 317.8 m E Pg      2012/04/26 12:02:46.9   0.0                          T                                        4924395
SGMF  001.54 317.8 m E Sg      2012/04/26 12:03:06.8  -0.3                          T                 .8  .16 Ml 1.8         4924394
FLN   001.68 011.9 m E Pn      2012/04/26 12:02:48.1   1.1                          T                                        4924396
FLN   001.68 011.9 m E Sn      2012/04/26 12:03:09.0   0.9                          T                4.8  .21 Ml 2.3         4924399
QUIF  001.67 299.3 m E Pg      2012/04/26 12:02:48.9  -0.3                          T                                        4924392
QUIF  001.67 299.3 m E Sg      2012/04/26 12:03:11.2   0.3                          T                3.3  .19 Ml 2.4         4924393

.
EVENT     274594
    Date      Time       Latitude Longitude    Depth    Ndef Nsta Gap    Mag1  N    Mag2  N    Mag3  N   Author         ID
       rms   OT_Error      Smajor Sminor Az        Err   mdist  Mdist     Err        Err        Err      Quality

2012/04/26 12:54:02.9     48.8449    -.1124       .0 f     7    4 289  Ml 2.1  1  Md 1.9  2              bulletin    274694
                                                                                                         _ldg
      0.70   +-  0.24       3.9    1.8   56.66 +-  0.0    0.25   1.73   +-         +-0.1                 m i km

FRANCE
Sta     Dist  EvAz     Phase      Date       Time     TRes  Azim  AzRes  Slow  SRes Def   SNR       Amp   Per   Mag1   Mag2       ID
LDF   000.25 181.5 m E Pg      2012/04/26 12:54:08.1   0.1                          T                                        4924420
LDF   000.25 181.5 m E Sg      2012/04/26 12:54:11.7   0.1                          T               85.3  .98        Md 2.0  4924419
FLN   000.26 251.5 m E Pg      2012/04/26 12:54:08.2   0.1  69.8  -1.4              T                                        4924422
FLN   000.26 251.5 m E Sg      2012/04/26 12:54:11.9   0.0  78.0  6.8               T              163.8  .70        Md 1.8  4924421
GRR   000.67 227.6 m E Pg      2012/04/26 12:54:15.6  -0.2                          T                                        4924418
GRR   000.67 227.6 m E Sg      2012/04/26 12:54:25.0   0.2                          T                2.3  .16                4924417
SGMF  001.73 250.9 m E Sg      2012/04/26 12:54:57.8   0.0                          T                1.7  .20 Ml 2.1         4937309

.
EVENT     274597
    Date      Time       Latitude Longitude    Depth    Ndef Nsta Gap    Mag1  N    Mag2  N    Mag3  N   Author         ID
       rms   OT_Error      Smajor Sminor Az        Err   mdist  Mdist     Err        Err        Err      Quality

2012/04/26 13:18:33.1     47.4133    7.0964       .0 f    10    5 214  Ml 2.0  2  Md 1.7  1              bulletin    274697
                                                                                                         _ldg
      0.28   +-  0.19       4.4    1.9  102.66 +-  0.0    0.44   1.10   +-0.2      +-                    m i km

SWITZERLAND
Sta     Dist  EvAz     Phase      Date       Time     TRes  Azim  AzRes  Slow  SRes Def   SNR       Amp   Per   Mag1   Mag2       ID
HINF  000.44 337.9 m E Pg      2012/04/26 13:18:41.5  -0.3                          T                                        4924428
HINF  000.44 337.9 m E Sg      2012/04/26 13:18:47.1  -0.6                          T                3.0  .20        Md 1.7  4924427
HAU   000.78 319.8 m E Pg      2012/04/26 13:18:48.0   0.0                          T                                        4924430
HAU   000.78 319.8 m E Sg      2012/04/26 13:18:58.9   0.6                          T               11.1  .25                4924429
CDF   001.01 006.8 m E Pg      2012/04/26 13:18:52.4   0.1                          T                                        4924432
CDF   001.01 006.8 m E Sg      2012/04/26 13:19:06.0   0.5                          T                                        4924431
CABF  001.06 221.1 m E Pg      2012/04/26 13:18:53.2   0.0                          T                                        4924423
CABF  001.06 221.1 m E Sg      2012/04/26 13:19:07.4   0.2                          T                1.7  .17 Ml 1.8         4924426
THEF  001.10 318.1 m E Pg      2012/04/26 13:18:53.9  -0.1                          T                                        4924425
THEF  001.10 318.1 m E Sg      2012/04/26 13:19:08.7   0.2                          T                3.8  .21 Ml 2.1         4924424

.
