EVENT     276221
    Date      Time       Latitude Longitude    Depth    Ndef Nsta Gap    Mag1  N    Mag2  N    Mag3  N   Author         ID
       rms   OT_Error      Smajor Sminor Az        Err   mdist  Mdist     Err        Err        Err      Quality

2012/05/18 20:38:53.4     44.9193   15.1934      2.0      44   14 116  Ml 3.5 11                         bulletin    276321
                                                                                                         _ldg
      1.25   +-  0.41       9.6    4.8  149.86 +-  0.0    0.42   8.22   +-0.1                            m i ke

NORTHWESTERN BALKAN PEN.
Sta     Dist  EvAz     Phase      Date       Time     TRes  Azim  AzRes  Slow  SRes Def   SNR       Amp   Per   Mag1   Mag2       ID
SBF   005.66 262.0 m E Pn      2012/05/18 20:40:16.6   0.3                          T                                        4948665
SBF   005.66 262.0 m E Sn      2012/05/18 20:41:18.3   0.2                          T               16.3  .42 Ml 3.6         4948664
MBDF  005.99 271.1 m E Pn      2012/05/18 20:40:21.4   0.4                          T                                        4948662
MBDF  005.99 271.1 m E Sn      2012/05/18 20:41:27.0   0.9                          T               13.2  .52 Ml 3.5         4948663
LPG   005.99 278.5 m E Pn      2012/05/18 20:40:23.5   2.3                          T                                        4948670
LPG   005.99 278.5 m E Sn      2012/05/18 20:41:27.9   1.6                          T               18.1  .60 Ml 3.6         4948671
FRF   006.29 260.5 m E Pn      2012/05/18 20:40:25.2   0.4                          T                                        4948669
FRF   006.29 260.5 m E Sn      2012/05/18 20:41:32.6  -0.3                          T                5.3  .29 Ml 3.5         4948668
LPL   006.01 278.7 m E Pn      2012/05/18 20:40:25.4   4.2                          T                                        4948673
LPL   006.01 278.7 m E Sn      2012/05/18 20:41:28.9   2.3                          T               22.6  .62 Ml 3.7         4948672
LMR   006.45 258.8 m E Pn      2012/05/18 20:40:26.6  -0.4                          T                                        4948666
LMR   006.45 258.8 m E Sn      2012/05/18 20:41:35.7  -1.0                          T                                        4948667
HINF  006.46 299.6 m E Pn      2012/05/18 20:40:28.3   1.2                          T                                        4948678
HINF  006.46 299.6 m E Sn      2012/05/18 20:41:40.3   3.2                          T                9.9  .42 Ml 3.5         4948679
CDF   006.47 305.5 m E Pn      2012/05/18 20:40:28.5   1.1                          T                                        4948661
CABF  006.59 288.1 m E Pn      2012/05/18 20:40:30.3   1.3                          T                                        4948677
ORIF  006.61 273.3 m E Pn      2012/05/18 20:40:30.6   1.2                          T                                        4948675
ORIF  006.61 273.3 m E Sn      2012/05/18 20:41:39.4  -1.4                          T               10.1  .42 Ml 3.6         4948674
SMF   008.12 286.3 m E Pn      2012/05/18 20:40:50.2   0.5                          T                                        4948676
SMF   008.12 286.3 m E Sn      2012/05/18 20:42:19.6   2.8                          T                7.0  .48 Ml 3.6         4948683
LOR   008.22 290.6 m E Pn      2012/05/18 20:40:52.0   0.9                          T                                        4948681
LOR   008.22 290.6 m E Sn      2012/05/18 20:42:20.0   0.8                          T                4.5  .32 Ml 3.6         4948680
HAU   006.84 299.9 m E Sn      2012/05/18 20:41:48.2   1.9                          T               11.7  .50 Ml 3.4         4948682
VIVF  007.47 273.2 m E Sn      2012/05/18 20:42:02.8   1.5                          T                4.5  .40 Ml 3.4         4948684

.
EVENT     276630
    Date      Time       Latitude Longitude    Depth    Ndef Nsta Gap    Mag1  N    Mag2  N    Mag3  N   Author         ID
       rms   OT_Error      Smajor Sminor Az        Err   mdist  Mdist     Err        Err        Err      Quality

2012/05/19 02:04:47.7     48.2379    7.1427      5.0 f     9    5 177  Ml 1.1  2  Md 1.5  2              js067245    276730

      0.31   +-  0.13       2.8    1.9  133.11 +-  0.0    0.20   1.41   +-0.4      +-0.0                 m i ke

FRANCE
Sta     Dist  EvAz     Phase      Date       Time     TRes  Azim  AzRes  Slow  SRes Def   SNR       Amp   Per   Mag1   Mag2       ID
CDF   000.20 027.0 m E Pg      2012/05/19 02:04:52.0   0.1                          T                                        4958896
CDF   000.20 027.0 m E Sg      2012/05/19 02:04:54.2  -0.4                          T                1.2  .17        Md 1.5  4958895
HINF  000.46 204.9 m E Pg      2012/05/19 02:04:56.5  -0.2                          T                                        4958894
HINF  000.46 204.9 m E Sg      2012/05/19 02:05:03.3   0.4                          T                 .6  .17        Md 1.5  4958893
THEF  000.77 269.7 m E Pg      2012/05/19 02:05:01.8  -0.4                          T                                        4958897
THEF  000.77 269.7 m E Sg      2012/05/19 02:05:12.1  -0.2                          T                 .7  .16                4958890
PAGF  001.00 289.1 m E Pg      2012/05/19 02:05:06.4   0.0                          T                                        4981456
PAGF  001.00 289.1 m E Sg      2012/05/19 02:05:18.9  -0.5                          T                 .2  .17 Ml  .8         4958892
SFTF  001.41 269.4 m E Sg      2012/05/19 02:05:32.0  -0.2                          T                 .4  .17 Ml 1.3         4981457

.
EVENT     276744
    Date      Time       Latitude Longitude    Depth    Ndef Nsta Gap    Mag1  N    Mag2  N    Mag3  N   Author         ID
       rms   OT_Error      Smajor Sminor Az        Err   mdist  Mdist     Err        Err        Err      Quality

2012/05/19 02:32:17.4     44.1273    7.8860      2.0      28    6 082  Ml 1.7  4  Md 1.6  1              bulletin    276844
                                                                                                         _ldg
      0.23   +-  0.04        .9     .6  154.98 +-  0.0    0.12   1.67   +-0.1      +-                    m i ke

NORTHERN ITALY
Sta     Dist  EvAz     Phase      Date       Time     TRes  Azim  AzRes  Slow  SRes Def   SNR       Amp   Per   Mag1   Mag2       ID
SBF   000.42 231.1 m E Pg      2012/05/19 02:32:25.6   0.0                          T                                        4963259
SBF   000.42 231.1 m E Sg      2012/05/19 02:32:31.3   0.1                          T                3.7  .20        Md 1.6  4963260
FRF   001.06 238.1 m E Pg      2012/05/19 02:32:37.3   0.0                          T                                        4963263
FRF   001.06 238.1 m E Sg      2012/05/19 02:32:51.0   0.0                          T                1.8  .22 Ml 1.8         4963262
LMR   001.27 232.0 m E Pn      2012/05/19 02:32:40.7   0.2                          T                                        4963258
LMR   001.27 232.0 m E Sn      2012/05/19 02:32:57.0  -0.3                          T                1.4  .26 Ml 1.7         4963257
LPL   001.61 329.8 m E Pn      2012/05/19 02:32:46.3   0.8                          T                                        4963264
LPL   001.61 329.8 m E Sn      2012/05/19 02:33:05.3  -0.3                          T                 .9  .28 Ml 1.6         4963265
MBDF  001.00 307.3 m E Sg      2012/05/19 02:32:49.4   0.1                          T                1.4  .24 Ml 1.6         4963266
SMRF  001.67 265.6 m E Sg      2012/05/19 02:33:11.2   1.0                          T                                        4963261

.
EVENT     276745
    Date      Time       Latitude Longitude    Depth    Ndef Nsta Gap    Mag1  N    Mag2  N    Mag3  N   Author         ID
       rms   OT_Error      Smajor Sminor Az        Err   mdist  Mdist     Err        Err        Err      Quality

2012/05/19 02:48:29.4     44.1253    7.8889      2.0      23    4 084  Ml 1.8  3  Md 1.8  1              bulletin    276845
                                                                                                         _ldg
      0.24   +-  0.05       1.1     .7  161.65 +-  0.0    0.12   1.67   +-0.1      +-                    m i ke

NORTHERN ITALY
Sta     Dist  EvAz     Phase      Date       Time     TRes  Azim  AzRes  Slow  SRes Def   SNR       Amp   Per   Mag1   Mag2       ID
SBF   000.42 231.5 m E Pg      2012/05/19 02:48:37.6   0.0                          T                                        4963272
SBF   000.42 231.5 m E Sg      2012/05/19 02:48:43.3   0.2                          T                4.8  .22        Md 1.8  4963273
FRF   001.06 238.3 m E Pg      2012/05/19 02:48:49.5   0.1                          T                                        4963277
FRF   001.06 238.3 m E Sg      2012/05/19 02:49:03.1   0.0                          T                3.0  .28 Ml 1.9         4963276
LMR   001.28 232.1 m E Pn      2012/05/19 02:48:52.8   0.2                          T                                        4963275
LMR   001.28 232.1 m E Sn      2012/05/19 02:49:09.0  -0.2                          T                1.3  .24 Ml 1.7         4963274
SMRF  001.67 265.7 m E Sg      2012/05/19 02:49:23.0   0.7                          T                 .9  .25 Ml 1.7         4963271

.
EVENT     276661
    Date      Time       Latitude Longitude    Depth    Ndef Nsta Gap    Mag1  N    Mag2  N    Mag3  N   Author         ID
       rms   OT_Error      Smajor Sminor Az        Err   mdist  Mdist     Err        Err        Err      Quality

2012/05/19 03:09:37.6     44.5327   10.1892     10.0      23    4 127  Ml 2.4  3                         bulletin    276761
                                                                                                         _ldg
      0.53   +-  0.14       2.7    2.1   42.76 +-  0.0    0.10   2.92   +-0.1                            m i ke

NORTHERN ITALY
Sta     Dist  EvAz     Phase      Date       Time     TRes  Azim  AzRes  Slow  SRes Def   SNR       Amp   Per   Mag1   Mag2       ID
SBF   002.09 252.3 m E Pn      2012/05/19 03:10:10.0  -1.0                          T                                        4963279
PGF   002.16 204.0 m E Pn      2012/05/19 03:10:12.0  -0.1                          T                                        4963280
PGF   002.16 204.0 m E Sn      2012/05/19 03:10:37.9   0.5                          T                2.4  .34 Ml 2.3         4963281
FRF   002.73 250.4 m E Pn      2012/05/19 03:10:19.8   0.1                          T                                        4963100
FRF   002.73 250.4 m E Sn      2012/05/19 03:10:51.5   0.7                          T                3.4  .32 Ml 2.4         4963101
LMR   002.92 247.0 m E Pn      2012/05/19 03:10:22.2   0.0                          T                                        4963103
LMR   002.92 247.0 m E Sn      2012/05/19 03:10:55.3   0.1                          T                2.8  .24 Ml 2.5         4963102

.
EVENT     276746
    Date      Time       Latitude Longitude    Depth    Ndef Nsta Gap    Mag1  N    Mag2  N    Mag3  N   Author         ID
       rms   OT_Error      Smajor Sminor Az        Err   mdist  Mdist     Err        Err        Err      Quality

2012/05/19 03:24:03.4     44.5417   10.1879     10.0      23    3 126  Ml 2.2  3                         bulletin    276846
                                                                                                         _ldg
      0.43   +-  0.13       2.6    1.7   34.47 +-  0.0    0.10   2.92   +-0.1                            m i ke

NORTHERN ITALY
Sta     Dist  EvAz     Phase      Date       Time     TRes  Azim  AzRes  Slow  SRes Def   SNR       Amp   Per   Mag1   Mag2       ID
SBF   002.09 252.0 m E Pn      2012/05/19 03:24:37.7   0.8                          T                                        4963288
SBF   002.09 252.0 m E Pg      2012/05/19 03:24:42.3  -0.2                          T                                        4963287
SBF   002.09 252.0 m E Sn      2012/05/19 03:25:00.5  -0.9                          T                2.1  .26 Ml 2.1         4963286
FRF   002.73 250.2 m E Pn      2012/05/19 03:24:46.1   0.5                          T                                        4963282
FRF   002.73 250.2 m E Sn      2012/05/19 03:25:17.1   0.3                          T                1.4  .25 Ml 2.2         4963283
LMR   002.92 246.8 m E Pn      2012/05/19 03:24:48.2   0.1                          T                                        4963285
LMR   002.92 246.8 m E Sn      2012/05/19 03:25:20.9  -0.2                          T                2.2  .24 Ml 2.4         4963284

.
EVENT     276764
    Date      Time       Latitude Longitude    Depth    Ndef Nsta Gap    Mag1  N    Mag2  N    Mag3  N   Author         ID
       rms   OT_Error      Smajor Sminor Az        Err   mdist  Mdist     Err        Err        Err      Quality

2012/05/19 03:25:33.9     44.5870   10.2070     10.0      19    3 260  Ml 2.1  3                         bulletin    276864
                                                                                                         _ldg
      0.50   +-  0.38       6.8    2.5   21.88 +-  0.0    0.14   2.95   +-0.1                            m i ke

NORTHERN ITALY
Sta     Dist  EvAz     Phase      Date       Time     TRes  Azim  AzRes  Slow  SRes Def   SNR       Amp   Per   Mag1   Mag2       ID
SBF   002.12 251.0 m E Pn      2012/05/19 03:26:08.9   1.1                          T                                        4963293
SBF   002.12 251.0 m E Sn      2012/05/19 03:26:33.1   0.5                          T                3.3  .32 Ml 2.2         4963292
LMR   002.95 246.2 m E Pn      2012/05/19 03:26:19.4   0.4                          T                                        4963290
LMR   002.95 246.2 m E Sn      2012/05/19 03:26:52.0  -0.3                          T                 .9  .29 Ml 2.0         4963289
FRF   002.76 249.4 m E Sn      2012/05/19 03:26:46.7  -1.2                          T                1.5  .35 Ml 2.0         4963291

.
EVENT     276223
    Date      Time       Latitude Longitude    Depth    Ndef Nsta Gap    Mag1  N    Mag2  N    Mag3  N   Author         ID
       rms   OT_Error      Smajor Sminor Az        Err   mdist  Mdist     Err        Err        Err      Quality

2012/05/19 03:26:52.8     43.9262    7.9094      8.4      10    6 295  Ml 2.1  4  Md 2.1  1              bulletin    276323
                                                                                                         _ldg
      0.41   +-  0.77      10.6    8.7   90.33 +-  3.5    0.35   2.50   +-0.3      +-                    m i ke

NEAR SOUTH COAST OF FRANCE
Sta     Dist  EvAz     Phase      Date       Time     TRes  Azim  AzRes  Slow  SRes Def   SNR       Amp   Per   Mag1   Mag2       ID
SBF   000.35 259.7 m E Pg      2012/05/19 03:26:59.4  -0.4                          T                                Md 2.1  4948730
SBF   000.35 259.7 m E Sg      2012/05/19 03:27:05.1   0.6                          T               16.5  .21                4948729
FRF   000.99 248.7 m E Pn      2012/05/19 03:27:11.0  -0.3                          T                                        4948726
FRF   000.99 248.7 m E Sg      2012/05/19 03:27:24.2   0.0                          T                5.8  .21 Ml 2.3         4948725
LMR   001.18 240.3 m E Pn      2012/05/19 03:27:13.9   0.0                          T                                        4948727
LMR   001.18 240.3 m E Sg      2012/05/19 03:27:30.7   0.6                          T                5.2  .22 Ml 2.3         4948728
SMRF  001.69 272.5 m E Pn      2012/05/19 03:27:21.2   0.3                          T                                        4948732
SMRF  001.69 272.5 m E Sg      2012/05/19 03:27:45.8  -0.3                          T                4.5  .28 Ml 2.3         4948731
ORIF  001.76 305.0 m E Pn      2012/05/19 03:27:22.3   0.3                          T                                        4948733
VIVF  002.50 293.0 m E Sn      2012/05/19 03:28:00.0  -0.8                          T                 .3  .17 Ml 1.6         4948734

.
EVENT     276631
    Date      Time       Latitude Longitude    Depth    Ndef Nsta Gap    Mag1  N    Mag2  N    Mag3  N   Author         ID
       rms   OT_Error      Smajor Sminor Az        Err   mdist  Mdist     Err        Err        Err      Quality

2012/05/19 04:01:24.3     42.8745     .2443      2.0      12    3 097  Ml 1.1  1  Md 1.1  2              js067245    276731

      0.31   +-  0.07       1.4    1.2   13.87 +-  0.0    0.17   1.34   +-         +-0.0                 m i ke

PYRENEES
Sta     Dist  EvAz     Phase      Date       Time     TRes  Azim  AzRes  Slow  SRes Def   SNR       Amp   Per   Mag1   Mag2       ID
EPF   000.17 024.3 m E Pg      2012/05/19 04:01:27.8  -0.1                          T                                        4963302
EPF   000.17 024.3 m E Sg      2012/05/19 04:01:30.7   0.4                          T               19.3  .24        Md 1.1  4963301
ETSF  000.59 272.6 m E Pg      2012/05/19 04:01:35.6   0.0                          T                                        4963299
ETSF  000.59 272.6 m E Sg      2012/05/19 04:01:43.3  -0.1                          T                1.4  .25        Md 1.1  4963300
SJPF  001.10 283.0 m E Sg      2012/05/19 04:02:00.9   1.6                          T                 .5  .28 Ml 1.1         4963298

.
EVENT     276632
    Date      Time       Latitude Longitude    Depth    Ndef Nsta Gap    Mag1  N    Mag2  N    Mag3  N   Author         ID
       rms   OT_Error      Smajor Sminor Az        Err   mdist  Mdist     Err        Err        Err      Quality

2012/05/19 15:30:13.0     43.0536    -.2871      2.0       6    3 177             Md 1.2  3              js067245    276732

      0.20   +-  0.12       5.6    1.9  174.64 +-  0.0    0.25   0.69              +-0.2                 m i ke

PYRENEES
Sta     Dist  EvAz     Phase      Date       Time     TRes  Azim  AzRes  Slow  SRes Def   SNR       Amp   Per   Mag1   Mag2       ID
ETSF  000.25 232.3 m E Pg      2012/05/19 15:30:18.3   0.2                          T                                        4963307
ETSF  000.25 232.3 m E Sg      2012/05/19 15:30:21.1  -0.5                          T                4.4  .22        Md 1.2  4963306
EPF   000.46 092.7 m E Pg      2012/05/19 15:30:21.8  -0.1                          T                                        4963304
EPF   000.46 092.7 m E Sg      2012/05/19 15:30:28.2   0.2                          T                2.5  .26        Md 1.4  4963305
SJPF  000.69 275.3 m E Pg      2012/05/19 15:30:26.1   0.0                          T                                        4981461
SJPF  000.69 275.3 m E Sg      2012/05/19 15:30:35.1   0.0                          T                1.2  .26        Md 1.0  4963303

.
