EVENT     283603
    Date      Time       Latitude Longitude    Depth    Ndef Nsta Gap    Mag1  N    Mag2  N    Mag3  N   Author         ID
       rms   OT_Error      Smajor Sminor Az        Err   mdist  Mdist     Err        Err        Err      Quality

2012/09/19 18:56:00.5     43.8827    5.8499      2.0     149   38 029  Ml 3.4 45  Md 3.4  4              bulletin    283703
                                                                                                         _ldg
      0.47   +-  0.04        .9     .7    1.22 +-  0.0    0.12   7.47   +-0.4      +-0.2                 m i ke

NEAR SOUTH COAST OF FRANCE
Sta     Dist  EvAz     Phase      Date       Time     TRes  Azim  AzRes  Slow  SRes Def   SNR       Amp   Per   Mag1   Mag2       ID
SMRF  000.22 295.3 m E Pg      2012/09/19 18:56:04.4  -0.6                          T   001.0                                5074072
SMRF  000.22 295.3 m E Sg      2012/09/19 18:56:08.0   0.0                          T             1978.9  .26        Md 3.2  5074112
FRF   000.66 118.8 m E Pg      2012/09/19 18:56:13.0   0.0                          T   001.0                                5074029
FRF   000.66 118.8 m E Sg      2012/09/19 18:56:21.8   0.1                          T             1198.2  .30        Md 3.7  5074111
FRF   000.66 118.8 m E Sn      2012/09/19 18:56:25.7   0.0                          T                                        5074727
LMR   000.73 138.7 m E Pg      2012/09/19 18:56:14.1  -0.2                          T   001.0                                5074039
LMR   000.73 138.7 m E Sg      2012/09/19 18:56:23.9   0.1                          T   001.0      961.8  .22        Md 3.4  5074040
MBDF  001.07 037.8 m E Pg      2012/09/19 18:56:20.9   0.0                          T   001.0                                5074059
MBDF  001.07 037.8 m E P       2012/09/19 18:56:22.5  -0.3                          T                                        5074731
MBDF  001.07 037.8 m E Sn      2012/09/19 18:56:35.9   0.2                          T   001.0      219.7  .25 Ml 3.8         5074060
ORIF  001.04 001.2 m E Pn      2012/09/19 18:56:21.0   0.4                          T   001.0                                5074064
ORIF  001.04 001.2 m E P       2012/09/19 18:56:22.0  -0.1                          T                                        5074730
ORIF  001.04 001.2 m E Sg      2012/09/19 18:56:33.5  -0.1                          T   001.0      307.9  .36 Ml 3.8         5074065
ORIF  001.04 001.2 m E Sn      2012/09/19 18:56:34.8   0.0                          T   001.0      160.5  .25 Ml 3.6         5074066
SBF   001.15 090.4 m E Pg      2012/09/19 18:56:22.2   0.1                          T   001.0                                5074050
SBF   001.15 090.4 m E Sg      2012/09/19 18:56:37.3   0.3                          T   001.0      787.2  .20 Ml 4.5 Md 3.3  5074051
VIVF  001.29 319.5 m E Pn      2012/09/19 18:56:23.5  -0.5                          T   001.0                                5074070
VIVF  001.29 319.5 m E Sn      2012/09/19 18:56:40.5  -0.2                          T   001.0       28.0  .16 Ml 3.2         5074071
LASF  001.45 278.3 m E Pn      2012/09/19 18:56:25.2  -0.9                          T   001.0                                5074033
LASF  001.45 278.3 m E Pg      2012/09/19 18:56:27.6   0.0                          T                                        5074732
LASF  001.45 278.3 m E Sn      2012/09/19 18:56:44.5  -0.2                          T   001.0      138.4  .43 Ml 3.5         5074034
LPL   001.75 020.8 m E P       2012/09/19 18:56:32.2  -0.3                          T                                        5074729
LPL   001.75 020.8 m E Pg      2012/09/19 18:56:33.5   0.1                          T   001.0                                5074044
LPL   001.75 020.8 m E Sg      2012/09/19 18:56:55.8  -0.2                          T   001.0       26.1  .21 Ml 3.2         5074045
LPG   001.74 021.4 m E P       2012/09/19 18:56:32.3  -0.1                          T                                        5074728
LPG   001.74 021.4 m E Pg      2012/09/19 18:56:33.4   0.1                          T   001.0                                5074043
LPG   001.74 021.4 m E Sg      2012/09/19 18:56:55.5  -0.2                          T              107.6  .34 Ml 3.6         5074113
PGF   002.66 119.0 m E Pn      2012/09/19 18:56:42.4  -0.3                          T   001.0                                5074048
PGF   002.66 119.0 m E Sn      2012/09/19 18:57:12.6  -1.0                          T   001.0      148.6  .23 Ml 4.4         5074049
MTLF  002.69 259.7 m E Pn      2012/09/19 18:56:43.1   0.1                          T   001.0                                5074061
MTLF  002.69 259.7 m E Sn      2012/09/19 18:57:14.2  -0.1                          T   001.0       16.5  .33 Ml 3.1         5074062
MTLF  002.69 259.7 m E Sg      2012/09/19 18:57:25.6   0.5                          T               38.1  .44 Ml 3.3         5074726
CABF  002.73 003.4 m E Pn      2012/09/19 18:56:43.9   0.3                          T                                        5074741
CABF  002.73 003.4 m E Pg      2012/09/19 18:56:51.6   0.3                          T   001.0                                5074055
CABF  002.73 003.4 m E Sn      2012/09/19 18:57:14.1  -1.3                          T   001.0                                5074056
CABF  002.73 003.4 m E Sg      2012/09/19 18:57:27.1   0.6                          T   001.0       76.6  .57 Ml 3.5         5074057
CAF   002.91 292.3 m E Pn      2012/09/19 18:56:46.2   0.3                          T   001.0                                5074021
CAF   002.91 292.3 m E Sn      2012/09/19 18:57:19.6   0.2                          T   001.0       68.2  .52 Ml 3.5         5074022
CAF   002.91 292.3 m E Sg      2012/09/19 18:57:31.8  -0.1                          T               99.5  .63 Ml 3.6         5074723
SMF   003.11 333.5 m E Pn      2012/09/19 18:56:48.7   0.0                          T   001.0                                5074052
SMF   003.11 333.5 m E Sn      2012/09/19 18:57:24.1   0.0                          T   001.0       16.8  .31 Ml 3.2         5074053
SMF   003.11 333.5 m E Sg      2012/09/19 18:57:37.7  -0.3                          T               50.4  .55 Ml 3.4         5074720
AVF   003.40 329.7 m E Pn      2012/09/19 18:56:52.9   0.3                          T   001.0                                5074018
AVF   003.40 329.7 m E Pg      2012/09/19 18:57:03.5   0.0                          T                                        5074740
AVF   003.40 329.7 m E Sn      2012/09/19 18:57:30.6  -0.5                          T   001.0       23.5  .44 Ml 3.2         5074019
AVF   003.40 329.7 m E Sg      2012/09/19 18:57:47.4   0.3                          T               30.4  .51 Ml 3.3         5074719
BGF   003.41 322.6 m E Pn      2012/09/19 18:56:53.1   0.3                          T   001.0                                5074020
BGF   003.41 322.6 m E Pg      2012/09/19 18:57:03.9   0.1                          T                                        5074735
BGF   003.41 322.6 m E Sg      2012/09/19 18:57:47.9   0.2                          T              108.0  .42 Ml 3.9         5074736
RJF   003.41 296.2 m E Pn      2012/09/19 18:56:53.2   0.5                          T   001.0                                5074016
RJF   003.41 296.2 m E Sn      2012/09/19 18:57:31.2  -0.1                          T   001.0       42.9  .52 Ml 3.1         5074017
RJF   003.41 296.2 m E Sg      2012/09/19 18:57:47.6   0.2                          T               65.8  .52 Ml 3.3         5074722
TCF   003.53 314.3 m E Pn      2012/09/19 18:56:55.3   0.9                          T   001.0                                5074054
TCF   003.53 314.3 m E Sn      2012/09/19 18:57:34.7   0.5                          T                                        5074130
TCF   003.53 314.3 m E Sg      2012/09/19 18:57:52.0   0.9                          T               22.6  .47 Ml 3.3         5074715
LOR   003.66 338.3 m E Pn      2012/09/19 18:56:55.0  -0.2 158.5  1.6               T   001.0                                5074041
LOR   003.66 338.3 m E Pg      2012/09/19 18:57:08.9   0.6                          T                                        5074743
LOR   003.66 338.3 m E Sn      2012/09/19 18:57:36.2  -1.3                          T                3.5  .19 Ml 2.9         5074132
LOR   003.66 338.3 m E Sg      2012/09/19 18:57:54.8  -0.6                          T   001.0       33.3  .51 Ml 3.4         5074042
LFF   003.81 287.9 m E Pn      2012/09/19 18:56:57.4  -0.8                          T   001.0                                5074036
LFF   003.81 287.9 m E Sn      2012/09/19 18:57:40.5  -0.5                          T   001.0                                5074037
LFF   003.81 287.9 m E Sg      2012/09/19 18:57:59.5  -0.5                          T   001.0      142.8  .70 Ml 3.7         5074038
HINF  004.00 009.7 m E Pn      2012/09/19 18:57:00.0  -0.8                          T   001.0                                5074058
HINF  004.00 009.7 m E Sn      2012/09/19 18:57:45.9   0.5                          T                5.8  .25 Ml 3.0         5074136
HINF  004.00 009.7 m E Sg      2012/09/19 18:58:06.1   0.2                          T               20.8  .50 Ml 3.3         5074135
EPF   004.10 259.9 m E Pn      2012/09/19 18:57:01.7  -0.6                          T   001.0                                5074026
EPF   004.10 259.9 m E Sg      2012/09/19 18:58:09.3   0.2                          T   001.0       23.7  .38 Ml 3.5         5074027
HAU   004.14 004.6 m E Pn      2012/09/19 18:57:02.6  -0.1                          T   001.0                                5074031
HAU   004.14 004.6 m E Sn      2012/09/19 18:57:47.6  -1.2                          T   001.0        8.4  .22 Ml 3.0         5074032
HAU   004.14 004.6 m E Sg      2012/09/19 18:58:11.0   0.7                          T               12.3  .34 Ml 3.0         5074134
SFTF  004.36 352.8 m E Pn      2012/09/19 18:57:05.8   0.1                          T                                        5074127
SFTF  004.36 352.8 m E Sn      2012/09/19 18:57:53.1  -1.0                          T                4.0  .28 Ml 2.9         5074718
SFTF  004.36 352.8 m E Sg      2012/09/19 18:58:17.5   0.4                          T               19.0  .47 Ml 3.3         5074126
CDF   004.64 011.8 m E Pn      2012/09/19 18:57:08.7  -0.9                          T   001.0                                5074023
CDF   004.64 011.8 m E Sn      2012/09/19 18:57:59.7  -1.1                          T   001.0        4.7  .21 Ml 3.2         5074024
CDF   004.64 011.8 m E Sg      2012/09/19 18:58:25.8  -0.1                          T   001.0       31.0  .87 Ml 3.5         5074025
PAGF  004.67 359.0 m E Pn      2012/09/19 18:57:09.7  -0.3 181.0  2.1               T                                        5074125
PAGF  004.67 359.0 m E Sn      2012/09/19 18:57:59.9  -1.8                          T                                        5074124
PAGF  004.67 359.0 m E Sg      2012/09/19 18:58:27.1   0.1                          T               29.0  .70 Ml 3.4         5074716
MEZF  004.65 353.4 m E Pn      2012/09/19 18:57:10.0   0.3                          T                                        5074742
MEZF  004.65 353.4 m E Sg      2012/09/19 18:58:26.3   0.1                          T               23.3  .58 Ml 3.4         5074717
ETSF  004.77 260.3 m E Pn      2012/09/19 18:57:11.1  -0.3                          T                                        5074733
ETSF  004.77 260.3 m E Sg      2012/09/19 18:58:29.6  -0.5                          T                8.7  .45 Ml 3.1         5074725
MFF   005.03 304.8 m E Pn      2012/09/19 18:57:14.7  -0.1                          T   001.0                                5074046
MFF   005.03 304.8 m E Sn      2012/09/19 18:58:09.4  -0.7                          T   001.0          7  .40 Ml 3.3         5074047
MFF   005.03 304.8 m E Sg      2012/09/19 18:58:37.5  -0.6                          T               22.9  .63 Ml 3.6         5074721
HYF   004.07 327.5 m E Pg      2012/09/19 18:57:16.0   0.2                          T                                        5074737
HYF   004.07 327.5 m E Sn      2012/09/19 18:57:47.0  -0.1                          T                                        5074738
HYF   004.07 327.5 m E Sg      2012/09/19 18:58:07.9  -0.1                          T                                        5074739
SJPF  005.20 263.9 m E Pn      2012/09/19 18:57:17.0  -0.3                          T   001.0                                5074068
SJPF  005.20 263.9 m E Sn      2012/09/19 18:58:14.3   0.0                          T   001.0        4.4  .44 Ml 2.9         5074069
SJPF  005.20 263.9 m E Sg      2012/09/19 18:58:43.7   0.3                          T                5.8  .49 Ml 3.0         5074724
BAIF  006.28 350.3 m E Pn      2012/09/19 18:57:32.4   0.5                          T                                        5074131
LDF   006.27 320.8 m E Pn      2012/09/19 18:57:32.6   0.9                          T   001.0                                5074035
GRR   006.48 316.4 m E Pn      2012/09/19 18:57:35.3   0.7                          T   001.0                                5074030
FLN   006.56 320.3 m E Pn      2012/09/19 18:57:35.4  -0.2 145.9  10.1              T   001.0                                5074028
SGMF  007.30 309.7 m E Pn      2012/09/19 18:57:45.6  -0.1                          T                                        5074734
QUIF  007.47 305.8 m E Pn      2012/09/19 18:57:47.2  -0.8                          T   001.0                                5074067

.
EVENT     283604
    Date      Time       Latitude Longitude    Depth    Ndef Nsta Gap    Mag1  N    Mag2  N    Mag3  N   Author         ID
       rms   OT_Error      Smajor Sminor Az        Err   mdist  Mdist     Err        Err        Err      Quality

2012/09/19 19:03:34.0     43.8887    5.8664      2.0      31   10 048  Ml 1.6  7  Md 1.8  3              bulletin    283704
                                                                                                         _ldg
      0.24   +-  0.05       1.0     .9  128.23 +-  0.0    0.12   2.65   +-0.3      +-0.1                 m i ke

NEAR SOUTH COAST OF FRANCE
Sta     Dist  EvAz     Phase      Date       Time     TRes  Azim  AzRes  Slow  SRes Def   SNR       Amp   Per   Mag1   Mag2       ID
SMRF  000.23 292.7 m E Pg      2012/09/19 19:03:37.7  -0.9                          T                                        5074203
SMRF  000.23 292.7 m E Sg      2012/09/19 19:03:41.3  -0.4                          T               15.0  .24        Md 1.7  5074200
FRF   000.65 119.8 m E Pg      2012/09/19 19:03:46.3  -0.1                          T                                        5074202
FRF   000.65 119.8 m E Sg      2012/09/19 19:03:55.2   0.2                          T                3.9  .20                5074199
FRF   000.65 119.8 m E Sn      2012/09/19 19:03:59.0   0.0                          T                2.8  .19        Md 1.8  5074767
LMR   000.72 139.7 m E Pg      2012/09/19 19:03:47.3  -0.4                          T                                        5074201
LMR   000.72 139.7 m E Sg      2012/09/19 19:03:57.2   0.0                          T                3.1  .21        Md 1.8  5074205
ORIF  001.03 000.5 m E Pn      2012/09/19 19:03:54.3   0.4                          T                                        5074206
ORIF  001.03 000.5 m E P       2012/09/19 19:03:55.4  -0.1                          T                                        5074765
ORIF  001.03 000.5 m E Sn      2012/09/19 19:04:08.1   0.0                          T                 .9  .24 Ml 1.4         5074207
SBF   001.13 090.7 m E Pg      2012/09/19 19:03:55.5   0.2                          T                                        5074198
SBF   001.13 090.7 m E Sg      2012/09/19 19:04:10.6   0.6                          T                3.2  .18 Ml 2.1         5074204
MBDF  001.06 037.5 m E P       2012/09/19 19:03:55.8  -0.2                          T                                        5074766
MBDF  001.06 037.5 m E Sn      2012/09/19 19:04:09.2   0.3                          T                1.5  .28 Ml 1.6         5074764
VIVF  001.29 318.9 m E Pn      2012/09/19 19:03:56.8  -0.7                          T                                        5074197
VIVF  001.29 318.9 m E Sn      2012/09/19 19:04:13.8  -0.5                          T                 .5  .16 Ml 1.5         5074196
PGF   002.65 119.2 m E Pn      2012/09/19 19:04:15.8  -0.3                          T                                        5074768
PGF   002.65 119.2 m E Sn      2012/09/19 19:04:46.0  -0.9                          T                 .6  .21 Ml 2.1         5074769
LPG   001.73 021.1 m E Sg      2012/09/19 19:04:28.9   0.1                          T                 .4  .25 Ml 1.4         5074762
LPL   001.74 020.5 m E Sg      2012/09/19 19:04:29.2   0.0                          T                 .4  .28 Ml 1.3         5074763

.
