EVENT     292810
    Date      Time       Latitude Longitude    Depth    Ndef Nsta Gap    Mag1  N    Mag2  N    Mag3  N   Author         ID
       rms   OT_Error      Smajor Sminor Az        Err   mdist  Mdist     Err        Err        Err      Quality

2013/02/28 04:01:07.9     47.9368    4.3506      8.0 f   154   38 070  Ml 3.1 42  Md 3.2  3              bulletin    292910
                                                                                                         _ldg
      0.84   +-  0.04       1.0     .8  138.22 +-  0.0    0.51   6.11   +-0.4      +-0.1                 m i ke

FRANCE
Sta     Dist  EvAz     Phase      Date       Time     TRes  Azim  AzRes  Slow  SRes Def   SNR       Amp   Per   Mag1   Mag2       ID
SFTF  000.53 059.5 m E Pg      2013/02/28 04:01:17.6  -0.6 236.5  -3.6              T                                        5211973
SFTF  000.53 059.5 m E P       2013/02/28 04:01:19.3   0.0                          T                                        5212031
SFTF  000.53 059.5 m E Pn      2013/02/28 04:01:20.2  -0.1                          T                                Md 3.3  5211912
SFTF  000.53 059.5 m E Sg      2013/02/28 04:01:25.1  -0.2 235.1  -5.0              T               45.6  .16                5211953
MEZF  000.73 039.4 m E Pg      2013/02/28 04:01:21.6  -0.2 222.9  3.0               T                                        5211911
MEZF  000.73 039.4 m E Pn      2013/02/28 04:01:22.8  -0.2 227.6  7.7               T                                        5212030
MEZF  000.73 039.4 m E Sg      2013/02/28 04:01:31.3  -0.1 227.6  7.6               T               36.9  .17        Md 3.1  5211954
MEZF  000.73 039.4 m E Sn      2013/02/28 04:01:33.2  -0.5 240.0  20.0              T              102.6  .16                5212019
LOR   000.75 206.6 m E Pg      2013/02/28 04:01:21.9  -0.1  27.7  1.4               T                                        5211909
LOR   000.75 206.6 m E P       2013/02/28 04:01:23.3  -0.1  27.0  0.7               T                                        5212025
LOR   000.75 206.6 m E Sg      2013/02/28 04:01:31.7  -0.2                          T               57.3  .24        Md 3.3  5211959
LOR   000.75 206.6 m E Sn      2013/02/28 04:01:33.8  -0.2                          T              136.3  .22                5212024
LOR   000.75 206.6 m E S       2013/02/28 04:01:36.6   0.0                          T              101.2  .18                5211978
SSF   001.05 213.5 m E Pn      2013/02/28 04:01:27.4   0.1                          T                                        5211908
SSF   001.05 213.5 m E Pg      2013/02/28 04:01:27.9   0.3                          T                                        5211979
SSF   001.05 213.5 m E Sn      2013/02/28 04:01:40.8  -0.4                          T               20.1  .16 Ml 3.0         5212023
SSF   001.05 213.5 m E Sg      2013/02/28 04:01:41.4   0.3                          T               85.8  .24 Ml 3.5         5211960
SSF   001.05 213.5 m E S       2013/02/28 04:01:43.8  -0.1                          T              124.3  .35                5212022
PAGF  001.11 055.5 m E Pg      2013/02/28 04:01:28.5  -0.2 228.9  -7.7              T               72.5  .26 Ml 3.3         5211974
PAGF  001.11 055.5 m E P       2013/02/28 04:01:29.2  -0.6 235.3  -1.3              T                                        5212029
PAGF  001.11 055.5 m E Sg      2013/02/28 04:01:43.0  -0.1                          T               78.1  .20 Ml 3.5         5211955
PAGF  001.11 055.5 m E S       2013/02/28 04:01:45.3  -0.2 226.1  -10.4             T               45.9  .12                5212020
THEF  001.14 074.6 m E Pg      2013/02/28 04:01:28.8  -0.4                          T                                        5212743
THEF  001.14 074.6 m E Sg      2013/02/28 04:01:44.3   0.2                          T                                        5212744
HAU   001.34 086.3 m E Pn      2013/02/28 04:01:31.2  -0.1                          T                                        5211904
HAU   001.34 086.3 m E Pg      2013/02/28 04:01:33.3   0.2                          T                                        5211972
HAU   001.34 086.3 m E Sg      2013/02/28 04:01:50.6   0.1                          T              112.0  .24 Ml 3.4         5211952
AVF   001.33 211.0 m E Pn      2013/02/28 04:01:31.4   0.2                          T                                        5211940
AVF   001.33 211.0 m E Pg      2013/02/28 04:01:32.9   0.2                          T                                        5212035
AVF   001.33 211.0 m E Sn      2013/02/28 04:01:47.9  -0.1                          T                                        5211915
AVF   001.33 211.0 m E Sg      2013/02/28 04:01:50.2   0.2                          T               24.7  .24 Ml 3.0         5211919
SMF   001.34 195.2 m E Pn      2013/02/28 04:01:31.5   0.2                          T                                        5211939
SMF   001.34 195.2 m E Pg      2013/02/28 04:01:33.0   0.1                          T                                        5212036
SMF   001.34 195.2 m E Sg      2013/02/28 04:01:50.7   0.5                          T              105.4  .18 Ml 3.7         5211920
HYF   001.34 240.6 m E Pn      2013/02/28 04:01:32.2   0.9                          T                                        5211938
HYF   001.34 240.6 m E Pg      2013/02/28 04:01:33.0   0.1                          T                                        5212037
HYF   001.34 240.6 m E Sg      2013/02/28 04:01:50.4   0.2                          T                                        5211921
HINF  001.69 093.2 m E Pn      2013/02/28 04:01:35.9  -0.1                          T                                        5211903
HINF  001.69 093.2 m E P       2013/02/28 04:01:38.0  -0.2                          T                                        5212032
HINF  001.69 093.2 m E Pg      2013/02/28 04:01:39.6   0.2                          T                                        5212033
HINF  001.69 093.2 m E Sg      2013/02/28 04:02:01.2   0.0                          T               52.8  .22 Ml 3.5         5211951
BGF   001.72 217.2 m E Pn      2013/02/28 04:01:36.8   0.4                          T                                        5211937
BGF   001.72 217.2 m E Pg      2013/02/28 04:01:39.7  -0.3                          T                                        5211984
BGF   001.72 217.2 m E Sn      2013/02/28 04:01:57.1  -0.1                          T                                        5211914
BGF   001.72 217.2 m E Sg      2013/02/28 04:02:02.2   0.1                          T               73.0  .28 Ml 3.6         5211922
CABF  001.78 137.6 m E P       2013/02/28 04:01:39.2  -0.3                          T                                        5212034
CABF  001.78 137.6 m E Pg      2013/02/28 04:01:41.3   0.2                          T                                        5211902
CABF  001.78 137.6 m E Sg      2013/02/28 04:02:04.2   0.2                          T               36.4  .24 Ml 3.3         5211950
CDF   002.02 075.3 m E Pn      2013/02/28 04:01:40.0  -0.6                          T                                        5211905
CDF   002.02 075.3 m E Pg      2013/02/28 04:01:45.0  -0.5                          T                                        5211975
CDF   002.02 075.3 m E Sg      2013/02/28 04:02:11.3  -0.2                          T               64.4  .30 Ml 3.7         5211956
BAIF  002.13 357.5 m E Pn      2013/02/28 04:01:41.9  -0.1                          T                                        5211907
BAIF  002.13 357.5 m E Pg      2013/02/28 04:01:47.4   0.0                          T                                        5212028
BAIF  002.13 357.5 m E Sg      2013/02/28 04:02:14.7  -0.1                          T               21.1  .32 Ml 3.1         5211958
GIVF  002.19 008.0 m E Pn      2013/02/28 04:01:42.5  -0.4                          T                                        5211906
GIVF  002.19 008.0 m E P       2013/02/28 04:01:45.0  -0.3                          T                                        5212027
GIVF  002.19 008.0 m E Pg      2013/02/28 04:01:48.7   0.2                          T                                        5211976
GIVF  002.19 008.0 m E Sn      2013/02/28 04:02:07.9  -0.6                          T                                        5212021
GIVF  002.19 008.0 m E Sg      2013/02/28 04:02:16.4  -0.3                          T               56.9  .38 Ml 3.4         5211957
TCF   002.20 222.3 m E Pn      2013/02/28 04:01:43.5   0.4                          T                                        5211941
TCF   002.20 222.3 m E P       2013/02/28 04:01:45.5   0.0                          T                                        5212026
TCF   002.20 222.3 m E Pg      2013/02/28 04:01:48.8  -0.1                          T                                        5211977
TCF   002.20 222.3 m E Sn      2013/02/28 04:02:08.8  -0.1                          T                                        5211916
TCF   002.20 222.3 m E Sg      2013/02/28 04:02:17.4   0.1                          T               16.1  .22 Ml 3.2         5211918
LPL   002.92 145.0 m E Pn      2013/02/28 04:01:52.0  -1.1                          T                                        5211930
LPL   002.92 145.0 m E P       2013/02/28 04:01:55.9  -0.1                          T                                        5212055
LPL   002.92 145.0 m E Pg      2013/02/28 04:02:02.7   0.4                          T                                        5212056
LPL   002.92 145.0 m E Sg      2013/02/28 04:02:38.9  -1.1                          T                3.6  .26 Ml 2.6         5212010
LANF  002.53 064.3 m E Pg      2013/02/28 04:01:54.3  -0.5                          T                                        5212751
LDF   003.06 284.1 m E Pn      2013/02/28 04:01:55.1   0.4                          T                                        5212039
LDF   003.06 284.1 m E Pg      2013/02/28 04:02:04.7   0.1                          T                                        5212038
LDF   003.06 284.1 m E Sg      2013/02/28 04:02:43.2  -0.7                          T               19.2  .27 Ml 3.3         5211948
VIVF  003.09 175.7 m E Pn      2013/02/28 04:01:55.7   0.6                          T                                        5211932
VIVF  003.09 175.7 m E Pg      2013/02/28 04:02:05.3   0.1                          T                                        5212050
VIVF  003.09 175.7 m E Sg      2013/02/28 04:02:44.4  -0.5                          T               11.9  .22 Ml 3.2         5211928
LPG   002.95 145.0 m E P       2013/02/28 04:01:56.3  -0.1                          T                                        5212057
LPG   002.95 145.0 m E Pg      2013/02/28 04:02:03.2   0.3                          T                                        5211929
LPG   002.95 145.0 m E Sg      2013/02/28 04:02:40.3  -0.4                          T                4.4  .26 Ml 2.6         5211926
FLN   003.33 286.2 m E Pn      2013/02/28 04:01:57.3  -1.0 106.3  3.7               T                                        5211901
FLN   003.33 286.2 m E Pg      2013/02/28 04:02:09.6   0.1 102.1  -0.5              T                                        5211981
FLN   003.33 286.2 m E Sn      2013/02/28 04:02:34.9  -0.8                          T                                        5211913
FLN   003.33 286.2 m E Sg      2013/02/28 04:02:51.4  -0.9 105.2  2.7               T               29.2  .36 Ml 3.3         5211949
RJF   003.28 217.6 m E Pn      2013/02/28 04:01:57.9   0.2                          T                                        5211936
RJF   003.28 217.6 m E Pg      2013/02/28 04:02:08.7   0.1                          T                                        5212041
RJF   003.28 217.6 m E Sn      2013/02/28 04:02:34.2  -0.3                          T                                        5212014
RJF   003.28 217.6 m E Sg      2013/02/28 04:02:49.3  -1.5                          T               10.6  .32 Ml 2.7         5211923
MFF   003.34 248.1 m E Pn      2013/02/28 04:01:58.8   0.3                          T                                        5211942
MFF   003.34 248.1 m E Pg      2013/02/28 04:02:09.4  -0.4                          T                                        5212040
MFF   003.34 248.1 m E Sn      2013/02/28 04:02:35.0  -1.0                          T                5.1  .16 Ml 3.2         5211917
MFF   003.34 248.1 m E Sg      2013/02/28 04:02:52.1  -0.6                          T                8.1  .30 Ml 3.1         5212004
CAF   003.40 208.5 m E Pn      2013/02/28 04:01:59.1  -0.3                          T                                        5211934
CAF   003.40 208.5 m E Pg      2013/02/28 04:02:11.0   0.1                          T                                        5212043
CAF   003.40 208.5 m E Sg      2013/02/28 04:02:54.3  -0.4                          T                6.7  .24 Ml 3.0         5211924
ORIF  003.20 160.1 m E P       2013/02/28 04:01:59.1  -0.7                          T                                        5212053
ORIF  003.20 160.1 m E Pg      2013/02/28 04:02:07.0  -0.3                          T                                        5212054
ORIF  003.20 160.1 m E Sg      2013/02/28 04:02:48.4   0.0                          T               11.2  .46 Ml 2.9         5211927
GRR   003.52 279.3 m E Pn      2013/02/28 04:02:01.1   0.2                          T                                        5211900
GRR   003.52 279.3 m E Sn      2013/02/28 04:02:39.5  -0.7                          T                                        5212015
GRR   003.52 279.3 m E Sg      2013/02/28 04:02:58.0  -0.2                          T               18.4  .20 Ml 3.4         5211947
LASF  003.88 185.3 m E Pn      2013/02/28 04:02:05.6  -0.2                          T                                        5212048
LASF  003.88 185.3 m E P       2013/02/28 04:02:08.8  -0.5                          T                                        5212047
LASF  003.88 185.3 m E Pg      2013/02/28 04:02:19.6  -0.1                          T                                        5212049
LASF  003.88 185.3 m E Sg      2013/02/28 04:03:09.5   0.0                          T                4.0  .24 Ml 2.8         5211925
MBDF  003.62 151.5 m E P       2013/02/28 04:02:05.9   0.0                          T                                        5212051
MBDF  003.62 151.5 m E Pg      2013/02/28 04:02:15.3   0.1                          T                                        5212052
MBDF  003.62 151.5 m E Sg      2013/02/28 04:03:02.0   0.4                          T                2.6  .42 Ml 2.3         5212009
LFF   003.90 221.1 m E Pn      2013/02/28 04:02:06.5   0.4                          T                                        5211935
LFF   003.90 221.1 m E Pg      2013/02/28 04:02:20.5   0.4                          T                                        5212042
LFF   003.90 221.1 m E Sn      2013/02/28 04:02:49.0  -0.4                          T                                        5212013
LFF   003.90 221.1 m E Sg      2013/02/28 04:03:10.4   0.2                          T               22.6  .52 Ml 3.1         5212005
SGMF  004.64 276.5 m E Pn      2013/02/28 04:02:16.4   0.2                          T                                        5211946
SGMF  004.64 276.5 m E Sn      2013/02/28 04:03:06.1  -0.9                          T                3.9  .24 Ml 3.0         5211945
SGMF  004.64 276.5 m E Sg      2013/02/28 04:03:33.4   0.2                          T                6.1  .29 Ml 3.1         5212002
FRF   004.66 159.0 m E P       2013/02/28 04:02:20.0  -0.4                          T                                        5212058
FRF   004.66 159.0 m E Sg      2013/02/28 04:03:34.4   0.4                          T                1.7  .30 Ml 2.6         5212011
QUIF  005.05 272.6 m E Pn      2013/02/28 04:02:21.9   0.1                          T                                        5211943
QUIF  005.05 272.6 m E Sn      2013/02/28 04:03:15.4  -1.5                          T                4.7  .21 Ml 3.2         5211944
QUIF  005.05 272.6 m E Sg      2013/02/28 04:03:46.2   0.1                          T                3.1  .22 Ml 3.0         5212003
EPF   005.66 211.3 m E Pn      2013/02/28 04:02:30.6   0.5                          T                                        5211933
EPF   005.66 211.3 m E Pg      2013/02/28 04:02:52.7   0.1                          T                                        5212045
EPF   005.66 211.3 m E Sn      2013/02/28 04:03:31.0  -0.4                          T                                        5212012
EPF   005.66 211.3 m E Sg      2013/02/28 04:04:05.4   0.3                          T                 .5  .23 Ml 2.4         5212007
MTLF  004.83 198.8 m E Pg      2013/02/28 04:02:37.9   0.6                          T                                        5212046
MTLF  004.83 198.8 m E Sg      2013/02/28 04:03:39.7   0.5                          T                1.3  .25 Ml 2.6         5212008
ETSF  006.11 216.2 m E P       2013/02/28 04:02:39.1  -1.8                          T                                        5212044
ETSF  006.11 216.2 m E Sg      2013/02/28 04:04:19.6   0.4                          T                 .6  .27 Ml 2.5         5212006
ROSF  005.12 277.3 m E Sn      2013/02/28 04:03:17.7  -0.9                          T                5.9  .25 Ml 3.3         5212016
ROSF  005.12 277.3 m E Sg      2013/02/28 04:03:48.2   0.0                          T                2.0  .25 Ml 2.8         5212001

.
