BEGIN GSE2.0
MSG_TYPE DATA
MSG_ID 16-JUN-1114:35:56  FRA_NDC
E-MAIL
DATA_TYPE BULLETIN
Reviewed Bulletin (REB) # P2011-023  from French NDC for regional phases     PERIOD 08 JUN 2011 TO 14 JUN 2011 P R., J-P S
EVENT     260102
    Date      Time       Latitude Longitude    Depth    Ndef Nsta Gap    Mag1  N    Mag2  N    Mag3  N   Author         ID
       rms   OT_Error      Smajor Sminor Az        Err   mdist  Mdist     Err        Err        Err      Quality

2011/06/08 05:07:41.5     42.7851    -.8058      2.0       6    3 243  Ml 1.3  1  Md 1.4  2              js067245    260102

      0.07   +-  0.12       3.4     .7   11.27 +-  0.0    0.21   0.88   +-         +-0.4                 m i ke

PYRENEES
Sta     Dist  EvAz     Phase      Date       Time     TRes  Azim  AzRes  Slow  SRes Def   SNR       Amp   Per   Mag1   Mag2       ID
ETSF  000.21 057.9 m E Pg      2011/06/08 05:07:46.0   0.1                          T                                        4704944
ETSF  000.21 057.9 m E Sg      2011/06/08 05:07:48.7  -0.1                          T               11.2  .21        Md 1.7  4704945
SJPF  000.45 317.0 m E Pg      2011/06/08 05:07:50.1   0.0                          T                                        4704942
SJPF  000.45 317.0 m E Sg      2011/06/08 05:07:56.2   0.1                          T                4.8  .29        Md 1.1  4704943
EPF   000.88 073.4 m E Pg      2011/06/08 05:07:58.1   0.0                          T                                        4704940
EPF   000.88 073.4 m E Sg      2011/06/08 05:08:09.5   0.0                          T                 .6  .20 Ml 1.3         4704941

.
EVENT     260117
    Date      Time       Latitude Longitude    Depth    Ndef Nsta Gap    Mag1  N    Mag2  N    Mag3  N   Author         ID
       rms   OT_Error      Smajor Sminor Az        Err   mdist  Mdist     Err        Err        Err      Quality

2011/06/08 08:02:54.4     43.7982   11.9796      2.0      24   16 179  Ml 3.0  6                         js067245    260117

      0.79   +-  0.33       8.5    5.4   52.12 +-  0.0    0.14   7.11   +-0.2                            m i ke

CENTRAL ITALY
Sta     Dist  EvAz     Phase      Date       Time     TRes  Azim  AzRes  Slow  SRes Def   SNR       Amp   Per   Mag1   Mag2       ID
PGF   002.51 241.2 m E Pn      2011/06/08 08:03:34.3  -0.3                          T                                        4704986
PGF   002.51 241.2 m E Sn      2011/06/08 08:04:05.9   1.9                          T               13.5  .60 Ml 2.9         4704985
SBF   003.29 272.7 m E Pn      2011/06/08 08:03:44.3  -0.8                          T                                        4704984
SBF   003.29 272.7 m E Sn      2011/06/08 08:04:22.6   0.1                          T               28.8  .46 Ml 3.3         4704980
FRF   003.88 268.3 m E Pn      2011/06/08 08:03:52.7  -0.3                          T                                        4704977
MBDF  003.85 285.7 m E Pn      2011/06/08 08:03:53.3   0.3                          T                                        4704975
LMR   004.00 265.2 m E Pn      2011/06/08 08:03:53.9  -0.9                          T                                        4704983
LMR   004.00 265.2 m E Sn      2011/06/08 08:04:37.8  -1.6                          T                7.5  .45 Ml 2.9         4704979
LPL   004.12 296.5 m E Pn      2011/06/08 08:03:57.6   1.0                          T                                        4704981
LPL   004.12 296.5 m E Sn      2011/06/08 08:04:44.5   2.0                          T                7.2  .50 Ml 2.8         4704966
LPG   004.10 296.3 m E Pn      2011/06/08 08:03:57.8   1.3                          T                                        4704982
LPG   004.10 296.3 m E Sn      2011/06/08 08:04:43.7   1.6                          T                4.8  .44 Ml 2.7         4704987
ORIF  004.52 286.5 m E Pn      2011/06/08 08:04:02.2   0.3                          T                                        4704976
SMRF  004.63 274.4 m E Pn      2011/06/08 08:04:03.7   0.4                          T                                        4704974
CABF  005.02 306.1 m E Pn      2011/06/08 08:04:09.0   0.2                          T                                        4704970
CDF   005.66 326.3 m E Pn      2011/06/08 08:04:16.9  -0.5                          T                                        4704969
HAU   005.76 318.9 m E Pn      2011/06/08 08:04:18.1  -0.5                          T                                        4704978
HAU   005.76 318.9 m E Sn      2011/06/08 08:05:20.9  -0.5                          T               14.7  .52 Ml 3.3         4704968
LASF  005.87 275.5 m E Pn      2011/06/08 08:04:20.1  -0.2                          T                                        4704972
AVF   006.78 299.2 m E Pn      2011/06/08 08:04:33.1   0.5                          T                                        4704971
BGF   007.02 296.3 m E Pn      2011/06/08 08:04:36.3   0.5                          T                                        4704967
MTLF  007.11 269.7 m E Pn      2011/06/08 08:04:37.1   0.1                          T                                        4704973

.
EVENT     260127
    Date      Time       Latitude Longitude    Depth    Ndef Nsta Gap    Mag1  N    Mag2  N    Mag3  N   Author         ID
       rms   OT_Error      Smajor Sminor Az        Err   mdist  Mdist     Err        Err        Err      Quality

2011/06/08 09:39:31.2     51.3571   16.0620      1.0 f    34    9 164  Ml 4.2  6                         js067245    260127

      0.39   +-  0.17       4.2    2.0   12.04 +-  0.0    0.54   9.49   +-0.3                            m i sr

POLAND
Sta     Dist  EvAz     Phase      Date       Time     TRes  Azim  AzRes  Slow  SRes Def   SNR       Amp   Per   Mag1   Mag2       ID
LANF  005.81 249.1 m E Pn      2011/06/08 09:40:56.8   0.5                          T                                        4705051
LANF  005.81 249.1 m E Sg      2011/06/08 09:42:33.3   0.1                          T                                        4705041
RUP   005.98 257.4 m E Pn      2011/06/08 09:40:59.1   0.6                          T                                        4705052
RUP   005.98 257.4 m E Sg      2011/06/08 09:42:37.9  -0.4                          T                                        4705039
CDF   006.40 246.0 m E Pn      2011/06/08 09:41:06.0   1.7                          T                                        4705050
CDF   006.40 246.0 m E Sg      2011/06/08 09:42:51.7   0.2                          T              226.2 1.18 Ml 4.6         4705040
HINF  006.96 243.0 m E Pn      2011/06/08 09:41:12.1   0.3                          T                                        4705048
HINF  006.96 243.0 m E Sg      2011/06/08 09:43:08.9   0.0                          T               53.7  .72 Ml 4.1         4705043
LPG   008.52 230.2 m E P       2011/06/08 09:41:39.3   0.3                          T                                        4705047
LPG   008.52 230.2 m E Sg      2011/06/08 09:43:57.5  -0.5                          T               71.5 1.26 Ml 4.3         4705045
LOR   008.96 247.6 m E Pn      2011/06/08 09:41:40.5   1.4                          T                                        4705049
LOR   008.96 247.6 m E Sg      2011/06/08 09:44:11.3   0.0                          T               17.8  .66 Ml 4.0         4705038
SBF   009.49 221.2 m E P       2011/06/08 09:41:51.8  -0.3                          T                                        4705046
HAU   007.14 245.8 m E Sg      2011/06/08 09:43:14.0  -0.5                          T               34.7  .64 Ml 3.8         4705042
CABF  008.10 238.0 m E Sg      2011/06/08 09:43:44.5   0.0                          T              138.1 1.24 Ml 4.5         4705044

.
EVENT     260130
    Date      Time       Latitude Longitude    Depth    Ndef Nsta Gap    Mag1  N    Mag2  N    Mag3  N   Author         ID
       rms   OT_Error      Smajor Sminor Az        Err   mdist  Mdist     Err        Err        Err      Quality

2011/06/08 17:14:49.3     43.3514   -9.1539     20.0 f    59   13 216  Ml 2.9  3                         js067245    260130

      1.29   +-  0.30       6.6    3.2   96.28 +-  0.0    0.42   9.49   +-0.3                            m i ke

SPAIN
Sta     Dist  EvAz     Phase      Date       Time     TRes  Azim  AzRes  Slow  SRes Def   SNR       Amp   Per   Mag1   Mag2       ID
SJPF  005.80 089.6 m E Pn      2011/06/08 17:16:11.8  -0.3                          T                                        4705057
SJPF  005.80 089.6 m E Sn      2011/06/08 17:17:13.7  -0.3                          T                1.3  .30 Ml 2.7         4705054
QUIF  006.20 040.5 m E Pn      2011/06/08 17:16:16.9  -0.6                          T                                        4704360
ROSF  006.46 037.4 m E Pn      2011/06/08 17:16:19.9  -1.1                          T                                        4704362
ETSF  006.31 091.2 m E Pn      2011/06/08 17:16:20.5   1.4                          T                                        4704357
ETSF  006.31 091.2 m E Sn      2011/06/08 17:17:26.6   0.3                          T                1.0  .26 Ml 2.8         4705055
SGMF  006.73 040.9 m E Pn      2011/06/08 17:16:23.8  -1.0                          T                                        4704361
MFF   007.17 059.9 m E Pn      2011/06/08 17:16:30.0  -0.7                          T                                        4704358
MFF   007.17 059.9 m E Sn      2011/06/08 17:17:45.7  -1.0                          T                1.6  .22 Ml 3.3         4705053
LFF   007.29 074.0 m E Pn      2011/06/08 17:16:32.4   0.0                          T                                        4705058
CAF   008.22 075.1 m E Pn      2011/06/08 17:16:44.1  -1.0                          T                                        4704356
FLN   008.10 045.1 m E Pn      2011/06/08 17:16:44.2   0.8 238.8  7.5               T                                        4704359
MTLF  008.29 086.2 m E Pn      2011/06/08 17:16:46.3   0.3                          T                                        4705056
TCF   008.59 066.1 m E Pn      2011/06/08 17:16:50.4   0.2                          T                                        4704365
BGF   009.09 065.2 m E Pn      2011/06/08 17:16:57.4   0.5                          T                                        4704364
AVF   009.49 064.4 m E Pn      2011/06/08 17:17:02.2  -0.2                          T                                        4705059

.
EVENT     260131
    Date      Time       Latitude Longitude    Depth    Ndef Nsta Gap    Mag1  N    Mag2  N    Mag3  N   Author         ID
       rms   OT_Error      Smajor Sminor Az        Err   mdist  Mdist     Err        Err        Err      Quality

2011/06/08 18:40:18.2     42.9240    -.3830     25.0       5    3 180             Md 1.5  2              js067245    260131

      0.12   +-  0.04       4.3     .9  175.82 +-  0.0    0.13   0.65              +-0.0                 m i ke

PYRENEES
Sta     Dist  EvAz     Phase      Date       Time     TRes  Azim  AzRes  Slow  SRes Def   SNR       Amp   Per   Mag1   Mag2       ID
ETSF  000.13 259.0 m E Pg      2011/06/08 18:40:23.3  -0.1                          T                                        4705063
ETSF  000.13 259.0 m E Sg      2011/06/08 18:40:26.6  -0.3                          T                7.2  .26        Md 1.5  4705064
EPF   000.54 078.4 m E Pg      2011/06/08 18:40:29.3   0.0                          T                                        4705061
EPF   000.54 078.4 m E Sg      2011/06/08 18:40:36.9  -0.1                          T                 .9  .26        Md 1.6  4705062
SJPF  000.65 287.3 m E Sg      2011/06/08 18:40:40.0  -0.1                          T                                        4705060

.
EVENT     260133
    Date      Time       Latitude Longitude    Depth    Ndef Nsta Gap    Mag1  N    Mag2  N    Mag3  N   Author         ID
       rms   OT_Error      Smajor Sminor Az        Err   mdist  Mdist     Err        Err        Err      Quality

2011/06/08 22:13:30.4     49.9950    -.7658     10.0 f    25   10 264  Ml 2.4 10  Md 2.4  1              js067245    260133

      1.28   +-  0.47       8.3    4.7    2.68 +-  0.0    1.25   4.55   +-0.2      +-                    m i ke

FRANCE
Sta     Dist  EvAz     Phase      Date       Time     TRes  Azim  AzRes  Slow  SRes Def   SNR       Amp   Per   Mag1   Mag2       ID
FLN   001.25 171.3 m E Pn      2011/06/08 22:13:52.5   0.2 350.4  -1.2              T                                        4705075
FLN   001.25 171.3 m E Pg      2011/06/08 22:13:53.9   0.1   4.6  13.1              T                                        4705074
FLN   001.25 171.3 m E Sg      2011/06/08 22:14:10.5   0.6                          T               10.7  .20 Ml 2.5 Md 2.4  4705076
LDF   001.46 163.0 m E Pn      2011/06/08 22:13:54.9  -0.3                          T                                        4705072
LDF   001.46 163.0 m E Pg      2011/06/08 22:13:57.1  -0.7                          T                                        4705071
LDF   001.46 163.0 m E Sg      2011/06/08 22:14:17.2   0.5                          T                7.9  .21 Ml 2.6         4705073
GRR   001.61 182.2 m E Pn      2011/06/08 22:13:56.9  -0.3                          T                                        4705069
GRR   001.61 182.2 m E Pg      2011/06/08 22:14:00.2  -0.2                          T                                        4705068
GRR   001.61 182.2 m E Sg      2011/06/08 22:14:22.3   1.1                          T                9.9  .20 Ml 2.6         4705070
SGMF  002.10 214.7 m E Pn      2011/06/08 22:14:04.6   0.7                          T                                        4705067
SGMF  002.10 214.7 m E Pg      2011/06/08 22:14:09.3  -0.2                          T                                        4705065
SGMF  002.10 214.7 m E Sg      2011/06/08 22:14:37.4   0.8                          T                2.9  .36 Ml 2.1         4705066
ROSF  002.34 225.7 m E Pn      2011/06/08 22:14:07.4   0.3                          T                                        4705090
ROSF  002.34 225.7 m E Pg      2011/06/08 22:14:13.0  -0.8                          T                                        4705084
ROSF  002.34 225.7 m E Sg      2011/06/08 22:14:44.0   0.1                          T                2.4  .26 Ml 2.2         4705091
QUIF  002.61 218.2 m E Pn      2011/06/08 22:14:10.6  -0.3                          T                                        4705087
QUIF  002.61 218.2 m E Pg      2011/06/08 22:14:18.3  -0.6                          T                                        4705086
QUIF  002.61 218.2 m E Sn      2011/06/08 22:14:40.9   0.1                          T                                        4705088
QUIF  002.61 218.2 m E Sg      2011/06/08 22:14:54.0   1.5                          T                1.0  .18 Ml 2.1         4705089
LOR   004.10 129.9 m E Pn      2011/06/08 22:14:32.2   1.0 310.2  -3.2              T                                        4705078
LOR   004.10 129.9 m E Sn      2011/06/08 22:15:14.5  -1.9                          T                                        4705079
LOR   004.10 129.9 m E Sg      2011/06/08 22:15:36.9  -2.2                          T                 .8  .19 Ml 2.3         4705080
SSF   004.08 134.3 m E Pn      2011/06/08 22:14:32.3   1.3                          T                                        4705077
MFF   003.42 172.8 m E Sg      2011/06/08 22:15:16.1  -1.6                          T                  1  .22 Ml 2.4         4705085
BGF   004.20 143.6 m E Sg      2011/06/08 22:15:42.4   0.3                          T                3.0  .28 Ml 2.7         4705081

.
EVENT     260274
    Date      Time       Latitude Longitude    Depth    Ndef Nsta Gap    Mag1  N    Mag2  N    Mag3  N   Author         ID
       rms   OT_Error      Smajor Sminor Az        Err   mdist  Mdist     Err        Err        Err      Quality

2011/06/09 06:12:20.8     42.8527   -1.2416      2.0      16    3 078  Ml 1.1  1  Md 1.0  2              js067245    260274

      0.28   +-  0.07       1.6    1.4  146.36 +-  0.0    0.01   1.17   +-         +-0.2                 m i ke

PYRENEES
Sta     Dist  EvAz     Phase      Date       Time     TRes  Azim  AzRes  Slow  SRes Def   SNR       Amp   Per   Mag1   Mag2       ID
SJPF  000.26 002.7 m E Pg      2011/06/09 06:12:26.1   0.1                          T                                        4706101
SJPF  000.26 002.7 m E Sg      2011/06/09 06:12:28.7  -0.8                          T                2.2  .25        Md 1.1  4706102
ETSF  000.50 084.5 m E Pg      2011/06/09 06:12:30.5   0.0                          T                                        4706105
ETSF  000.50 084.5 m E Sg      2011/06/09 06:12:37.2   0.1                          T                 .4  .23        Md  .8  4706106
EPF   001.17 080.8 m E Pg      2011/06/09 06:12:42.8  -0.1                          T                                        4706103
EPF   001.17 080.8 m E Sg      2011/06/09 06:12:58.0   0.0                          T                 .3  .21 Ml 1.1         4706104

.
EVENT     260135
    Date      Time       Latitude Longitude    Depth    Ndef Nsta Gap    Mag1  N    Mag2  N    Mag3  N   Author         ID
       rms   OT_Error      Smajor Sminor Az        Err   mdist  Mdist     Err        Err        Err      Quality

2011/06/09 07:22:33.2     42.4928    1.1334     10.0 f    24    3 087  Ml 1.8  2  Md 1.8  2              js067245    260135

      0.30   +-  0.05       1.0     .8    3.36 +-  0.0    0.12   1.87   +-0.0      +-0.0                 m i ke

PYRENEES
Sta     Dist  EvAz     Phase      Date       Time     TRes  Azim  AzRes  Slow  SRes Def   SNR       Amp   Per   Mag1   Mag2       ID
EPF   000.79 312.9 m E Pg      2011/06/09 07:22:48.2  -0.1                          T                                        4706109
EPF   000.79 312.9 m E Sg      2011/06/09 07:22:58.7   0.0                          T                1.8  .17        Md 1.7  4706110
MTLF  001.16 042.8 m E Pg      2011/06/09 07:22:55.0   0.0                          T                                        4706111
MTLF  001.16 042.8 m E Sg      2011/06/09 07:23:09.9  -0.2                          T                1.6  .23 Ml 1.7 Md 1.8  4706112
ETSF  001.31 288.6 m E Pg      2011/06/09 07:22:57.8  -0.1                          T                                        4706107
ETSF  001.31 288.6 m E Sg      2011/06/09 07:23:15.0   0.2                          T                1.5  .21 Ml 1.8         4706108

.
