EVENT     270575
    Date      Time       Latitude Longitude    Depth    Ndef Nsta Gap    Mag1  N    Mag2  N    Mag3  N   Author         ID
       rms   OT_Error      Smajor Sminor Az        Err   mdist  Mdist     Err        Err        Err      Quality

2012/02/22 16:36:13.9     42.2567   -8.2308      6.0 f    72    6 176  Ml 2.9  5                         js067245    270596

      0.82   +-  0.16       3.4    1.9  102.27 +-  0.0    0.29   7.23   +-0.2                            m i ke

SPAIN
Sta     Dist  EvAz     Phase      Date       Time     TRes  Azim  AzRes  Slow  SRes Def   SNR       Amp   Per   Mag1   Mag2       ID
SJPF  005.23 078.2 m E Pn      2012/02/22 16:37:31.2   0.6                          T                                        4845517
SJPF  005.23 078.2 m E Sn      2012/02/22 16:38:27.2  -0.5                          T                1.4  .34 Ml 2.5         4845515
ETSF  005.70 081.0 m E Pn      2012/02/22 16:37:37.4   0.4                          T                                        4845518
ETSF  005.70 081.0 m E Sn      2012/02/22 16:38:39.4   0.5                          T                3.2  .36 Ml 3.0         4845516
EPF   006.37 080.1 m E Pn      2012/02/22 16:37:46.3   0.2                          T                                        4845513
EPF   006.37 080.1 m E Sn      2012/02/22 16:38:54.7  -0.1                          T                1.9  .28 Ml 3.0         4845514
QUIF  006.70 030.6 m E Pn      2012/02/22 16:37:49.9  -0.5                          T                                        4845511
QUIF  006.70 030.6 m E Sn      2012/02/22 16:38:59.7  -2.9                          T                  1  .19 Ml 2.9         4845509
ROSF  007.01 028.2 m E Pn      2012/02/22 16:37:54.6  -0.1                          T                                        4845510
ROSF  007.01 028.2 m E Sn      2012/02/22 16:39:08.2  -1.9                          T                1.7  .19 Ml 3.2         4845508
MFF   007.23 050.4 m E Pn      2012/02/22 16:37:57.4  -0.4                          T                                        4845512

.
EVENT     270573
    Date      Time       Latitude Longitude    Depth    Ndef Nsta Gap    Mag1  N    Mag2  N    Mag3  N   Author         ID
       rms   OT_Error      Smajor Sminor Az        Err   mdist  Mdist     Err        Err        Err      Quality

2012/02/22 20:38:45.4     50.9964    6.1792     12.0 f    57   13 101  Ml 2.5 12  Md 2.5  1              js067245    270594

      0.48   +-  0.06       1.3     .9  126.86 +-  0.0    0.15   5.40   +-0.3      +-                    m i ke

GERMANY
Sta     Dist  EvAz     Phase      Date       Time     TRes  Azim  AzRes  Slow  SRes Def   SNR       Amp   Per   Mag1   Mag2       ID
GIVF  001.24 224.5 m E Pg      2012/02/22 20:39:08.1  -0.6                          T                                        4845569
GIVF  001.24 224.5 m E Sn      2012/02/22 20:39:22.4  -0.3                          T                                        4845559
GIVF  001.24 224.5 m E Sg      2012/02/22 20:39:24.7  -0.2                          T               17.7  .18 Ml 2.9 Md 2.5  4845554
BAIF  001.57 234.0 m E P       2012/02/22 20:39:13.1  -0.3                          T                                        4845568
BAIF  001.57 234.0 m E Pg      2012/02/22 20:39:15.0   0.4                          T                                        4845567
BAIF  001.57 234.0 m E Sn      2012/02/22 20:39:30.4  -0.1                          T                                        4845560
BAIF  001.57 234.0 m E Sg      2012/02/22 20:39:34.2  -0.7                          T               13.7  .24 Ml 2.8         4845553
CDF   002.68 164.2 m E P       2012/02/22 20:39:29.6   0.1                          T                                        4845566
CDF   002.68 164.2 m E Pg      2012/02/22 20:39:34.8  -0.5                          T                                        4845565
CDF   002.68 164.2 m E Sg      2012/02/22 20:40:09.7  -0.1                          T                2.2  .30 Ml 2.3         4845551
PAGF  002.46 187.0 m E Pg      2012/02/22 20:39:30.8  -0.3                          T                                        4845550
PAGF  002.46 187.0 m E Sg      2012/02/22 20:40:02.9   0.1                          T                 .5  .22 Ml 1.7         4845549
MEZF  002.60 196.8 m E Pg      2012/02/22 20:39:33.7   0.0  21.2  5.3               T                                        4845564
MEZF  002.60 196.8 m E Sn      2012/02/22 20:39:55.0  -0.1                          T                                        4845561
MEZF  002.60 196.8 m E Sg      2012/02/22 20:40:07.2   0.1                          T                4.4  .26 Ml 2.6         4845548
THEF  002.77 182.6 m E Pg      2012/02/22 20:39:36.9   0.1                          T                                        4845563
THEF  002.77 182.6 m E Sg      2012/02/22 20:40:12.4  -0.1                          T                4.1  .29 Ml 2.5         4845546
LOR   004.03 203.1 m E Pn      2012/02/22 20:39:45.0   0.0                          T                                        4845572
LOR   004.03 203.1 m E Sn      2012/02/22 20:40:29.5   0.2                          T                                        4845557
LOR   004.03 203.1 m E Sg      2012/02/22 20:40:51.7   0.0  14.0  -7.3              T                1.9  .27 Ml 2.5         4845556
SSF   004.31 205.1 m E Pn      2012/02/22 20:39:49.7   0.9                          T                                        4845571
SSF   004.31 205.1 m E Sn      2012/02/22 20:40:35.2  -0.8                          T                                        4845558
SSF   004.31 205.1 m E Sg      2012/02/22 20:41:00.5  -0.1                          T                1.2  .29 Ml 2.4         4845555
LANF  002.27 151.9 m E Sg      2012/02/22 20:39:57.1   0.1                          T                2.9  .21 Ml 2.4         4845552
TCF   005.40 210.7 m E Pn      2012/02/22 20:40:03.5   0.0                          T                                        4845570
HINF  003.21 171.9 m E Sn      2012/02/22 20:40:09.7   0.0                          T                                        4845562
HINF  003.21 171.9 m E Sg      2012/02/22 20:40:25.7  -0.6                          T                2.0  .29 Ml 2.3         4845544
SFTF  002.89 195.3 m E Sg      2012/02/22 20:40:16.4   0.3                          T                4.8  .27 Ml 2.6         4845547
HAU   003.00 177.8 m E Sg      2012/02/22 20:40:19.7   0.2                          T                3.5  .23 Ml 2.4         4845545

.
EVENT     270574
    Date      Time       Latitude Longitude    Depth    Ndef Nsta Gap    Mag1  N    Mag2  N    Mag3  N   Author         ID
       rms   OT_Error      Smajor Sminor Az        Err   mdist  Mdist     Err        Err        Err      Quality

2012/02/22 20:58:58.6     42.8565   -1.4802      2.0      16    3 135  Ml 1.0  1  Md 1.5  2              js067245    270595

      0.48   +-  0.16       3.2    2.5  154.58 +-  0.0    0.11   1.35   +-         +-0.4                 m i ke

PYRENEES
Sta     Dist  EvAz     Phase      Date       Time     TRes  Azim  AzRes  Slow  SRes Def   SNR       Amp   Per   Mag1   Mag2       ID
SJPF  000.32 036.0 m E Pg      2012/02/22 20:59:04.8   0.0                          T                                        4845577
SJPF  000.32 036.0 m E Sg      2012/02/22 20:59:08.4  -0.7                          T                2.5  .18        Md 1.8  4845578
ETSF  000.68 086.1 m E Pg      2012/02/22 20:59:11.7   0.2                          T                                        4845575
ETSF  000.68 086.1 m E Sg      2012/02/22 20:59:21.5   1.1                          T                1.9  .42        Md 1.3  4845576
EPF   001.35 082.0 m E Pg      2012/02/22 20:59:24.1   0.3                          T                                        4845573
EPF   001.35 082.0 m E Sg      2012/02/22 20:59:41.5   0.3                          T                 .2  .18 Ml 1.0         4845574

.
EVENT     270572
    Date      Time       Latitude Longitude    Depth    Ndef Nsta Gap    Mag1  N    Mag2  N    Mag3  N   Author         ID
       rms   OT_Error      Smajor Sminor Az        Err   mdist  Mdist     Err        Err        Err      Quality

2012/02/22 21:16:41.7     44.4010   10.8529     10.0      54   13 068  Ml 2.5  9                         js067245    270593

      0.66   +-  0.12       2.4    2.1  117.08 +-  0.0    0.10   5.67   +-0.3                            m i ke

NORTHERN ITALY
Sta     Dist  EvAz     Phase      Date       Time     TRes  Azim  AzRes  Slow  SRes Def   SNR       Amp   Per   Mag1   Mag2       ID
PGF   002.29 216.7 m E Pn      2012/02/22 21:17:17.6  -0.3                          T                                        4845592
PGF   002.29 216.7 m E P       2012/02/22 21:17:20.1  -0.3                          T                                        4845593
SBF   002.52 258.9 m E Pn      2012/02/22 21:17:21.0   0.0                          T                                        4845594
SBF   002.52 258.9 m E Sn      2012/02/22 21:17:50.2   0.4                          T               13.8  .40 Ml 2.9         4845591
LPG   003.11 292.1 m E Pn      2012/02/22 21:17:29.3   0.0                          T                                        4845596
LPG   003.11 292.1 m E Sn      2012/02/22 21:18:04.7   0.4                          T                 .9  .30 Ml 1.9         4845588
FRF   003.15 256.0 m E Pn      2012/02/22 21:17:29.5   0.0                          T                                        4845598
FRF   003.15 256.0 m E Sn      2012/02/22 21:18:05.2   0.3                          T                2.4  .26 Ml 2.5         4845589
MBDF  002.94 277.8 m E P       2012/02/22 21:17:29.5  -0.1                          T                                        4845600
MBDF  002.94 277.8 m E Sn      2012/02/22 21:18:00.3   0.4                          T                1.5  .32 Ml 2.1         4845586
LPL   003.13 292.3 m E Pn      2012/02/22 21:17:29.6   0.1                          T                                        4845595
LPL   003.13 292.3 m E Sn      2012/02/22 21:18:05.0   0.3                          T                2.0  .31 Ml 2.3         4845587
LMR   003.32 252.8 m E Pn      2012/02/22 21:17:31.7   0.0                          T                                        4845597
LMR   003.32 252.8 m E Sn      2012/02/22 21:18:09.4   0.6                          T                4.1  .36 Ml 2.6         4845590
ORIF  003.59 280.0 m E P       2012/02/22 21:17:38.8   0.0                          T                                        4845599
CABF  004.01 305.1 m E P       2012/02/22 21:17:45.0   0.1                          T                                        4845601
HINF  004.41 322.3 m E Pn      2012/02/22 21:17:45.7  -0.9                          T                                        4845602
HINF  004.41 322.3 m E Sn      2012/02/22 21:18:34.8  -0.2                          T                1.5  .25 Ml 2.5         4845585
CDF   004.71 329.6 m E Pn      2012/02/22 21:17:49.5  -1.4                          T                                        4845605
CDF   004.71 329.6 m E Sn      2012/02/22 21:18:42.2  -0.2                          T                1.7  .24 Ml 2.8         4845583
HAU   004.77 320.7 m E Pn      2012/02/22 21:17:51.0  -0.6                          T                                        4845603
HAU   004.77 320.7 m E Sn      2012/02/22 21:18:43.8   0.1                          T                5.3  .28 Ml 2.9         4845584
LOR   005.67 302.9 m E Pn      2012/02/22 21:18:03.6  -0.2                          T                                        4845604

.
EVENT     270643
    Date      Time       Latitude Longitude    Depth    Ndef Nsta Gap    Mag1  N    Mag2  N    Mag3  N   Author         ID
       rms   OT_Error      Smajor Sminor Az        Err   mdist  Mdist     Err        Err        Err      Quality

2012/02/23 09:24:53.2     43.9273    7.1926       .0 f    28    6 110  Ml 1.9  3  Md 1.6  2              js067245    270664

      0.23   +-  0.04        .9     .7  156.01 +-  0.0    0.19   1.37   +-0.3      +-0.1                 m i km

NEAR SOUTH COAST OF FRANCE
Sta     Dist  EvAz     Phase      Date       Time     TRes  Azim  AzRes  Slow  SRes Def   SNR       Amp   Per   Mag1   Mag2       ID
SBF   000.19 110.0 m E Pg      2012/02/23 09:24:58.2   0.8                          T                                        4846154
SBF   000.19 110.0 m E Sg      2012/02/23 09:25:00.0  -0.1                          T               65.6  .56        Md 1.5  4846155
FRF   000.54 227.4 m E Pg      2012/02/23 09:25:03.5  -0.2                          T                                        4846149
FRF   000.54 227.4 m E P       2012/02/23 09:25:04.9   0.3                          T                                        4846151
FRF   000.54 227.4 m E Sg      2012/02/23 09:25:11.0   0.0                          T                2.5  .23        Md 1.7  4846140
LMR   000.77 220.2 m E Pg      2012/02/23 09:25:08.3   0.2                          T                                        4846148
LMR   000.77 220.2 m E P       2012/02/23 09:25:09.5  -0.1                          T                                        4846150
LMR   000.77 220.2 m E Sg      2012/02/23 09:25:18.1  -0.2                          T                                        4846141
LMR   000.77 220.2 m E Sn      2012/02/23 09:25:21.7  -0.1                          T                3.5  .30                4846142
MBDF  000.85 339.4 m E Pn      2012/02/23 09:25:11.3   0.0                          T                                        4846146
MBDF  000.85 339.4 m E Sg      2012/02/23 09:25:21.1   0.1                          T                1.7  .26 Ml 1.6         4846144
SMRF  001.17 272.9 m E P       2012/02/23 09:25:16.9   0.1                          T                                        4846152
SMRF  001.17 272.9 m E Sg      2012/02/23 09:25:30.6  -0.1                          T                4.8  .23 Ml 2.2         4846153
SMRF  001.17 272.9 m E S       2012/02/23 09:25:33.7  -0.1                          T                                        4846147
ORIF  001.37 316.9 m E Pg      2012/02/23 09:25:19.2   0.1                          T                                        4846145
ORIF  001.37 316.9 m E Sg      2012/02/23 09:25:37.0   0.0                          T                2.1  .29 Ml 1.8         4846143

.
EVENT     270615
    Date      Time       Latitude Longitude    Depth    Ndef Nsta Gap    Mag1  N    Mag2  N    Mag3  N   Author         ID
       rms   OT_Error      Smajor Sminor Az        Err   mdist  Mdist     Err        Err        Err      Quality

2012/02/23 15:39:56.1     43.8170    7.5686 f     .0 f    21    5 165  Ml 1.8  3  Md 1.6  1              js067245    270636

      0.21   +-  0.33    9999.9 9999.9   99.90 +-  0.0    0.10   1.45   +-0.3      +-                    m i km

NEAR SOUTH COAST OF FRANCE
Sta     Dist  EvAz     Phase      Date       Time     TRes  Azim  AzRes  Slow  SRes Def   SNR       Amp   Per   Mag1   Mag2       ID
SBF   000.11 295.6 m E Pg      2012/02/23 15:39:59.0   0.3                          T                                        4846160
SBF   000.11 295.6 m E Sg      2012/02/23 15:40:00.5   0.0                          T              337.3  .72        Md 1.6  4846161
FRF   000.72 249.4 m E Pg      2012/02/23 15:40:09.7  -0.1                          T                                        4846156
FRF   000.72 249.4 m E Pn      2012/02/23 15:40:12.0   0.0                          T                                        4846157
FRF   000.72 249.4 m E Sg      2012/02/23 15:40:20.4   1.0                          T                                        4846159
FRF   000.72 249.4 m E Sn      2012/02/23 15:40:23.5   0.3                          T                9.3  .46                4846158
LMR   000.91 238.3 m E Pg      2012/02/23 15:40:13.4   0.0                          T                                        4846168
LMR   000.91 238.3 m E Pn      2012/02/23 15:40:14.6   0.0                          T                                        4846169
LMR   000.91 238.3 m E Sg      2012/02/23 15:40:25.3  -0.1                          T                                        4846164
LMR   000.91 238.3 m E Sn      2012/02/23 15:40:27.7  -0.1                          T                4.9  .28 Ml 2.0         4846165
MBDF  001.07 328.1 m E Pg      2012/02/23 15:40:16.6  -0.1                          T                                        4846170
MBDF  001.07 328.1 m E Sg      2012/02/23 15:40:30.8   0.0                          T                 .9  .21 Ml 1.5         4846167
SMRF  001.45 277.0 m E Sg      2012/02/23 15:40:42.4   0.0                          T                1.8  .25 Ml 1.9         4846166

.
EVENT     270616
    Date      Time       Latitude Longitude    Depth    Ndef Nsta Gap    Mag1  N    Mag2  N    Mag3  N   Author         ID
       rms   OT_Error      Smajor Sminor Az        Err   mdist  Mdist     Err        Err        Err      Quality

2012/02/23 15:41:15.0     43.8149    7.5935       .0 f    13    5 271  Ml 1.8  3  Md 1.8  1              js067245    270637

      0.24   +-  0.20       3.5    1.8   98.56 +-  0.0    0.12   1.47   +-0.3      +-                    m i km

NEAR SOUTH COAST OF FRANCE
Sta     Dist  EvAz     Phase      Date       Time     TRes  Azim  AzRes  Slow  SRes Def   SNR       Amp   Per   Mag1   Mag2       ID
SBF   000.12 292.9 m E Pg      2012/02/23 15:41:18.1   0.2                          T                                        4846190
SBF   000.12 292.9 m E Sg      2012/02/23 15:41:19.7  -0.2                          T               95.3  .20        Md 1.8  4846191
FRF   000.73 250.0 m E Pg      2012/02/23 15:41:28.9  -0.1                          T                                        4846181
FRF   000.73 250.0 m E Pn      2012/02/23 15:41:31.1   0.0                          T                                        4846182
FRF   000.73 250.0 m E Sg      2012/02/23 15:41:39.6   0.8                          T                                        4846186
FRF   000.73 250.0 m E Sn      2012/02/23 15:41:42.7   0.2                          T                4.3  .29                4846187
LMR   000.92 239.0 m E Pg      2012/02/23 15:41:32.5   0.0                          T                                        4846179
LMR   000.92 239.0 m E Pn      2012/02/23 15:41:33.7   0.0                          T                                        4846180
LMR   000.92 239.0 m E Sg      2012/02/23 15:41:44.4  -0.3                          T                                        4846188
LMR   000.92 239.0 m E Sn      2012/02/23 15:41:46.9  -0.2                          T                2.1  .21 Ml 1.8         4846189
MBDF  001.09 327.4 m E Pg      2012/02/23 15:41:35.7   0.0                          T                                        4846183
MBDF  001.09 327.4 m E Sg      2012/02/23 15:41:49.9  -0.1                          T                1.3  .31 Ml 1.5         4846184
SMRF  001.47 277.0 m E Sg      2012/02/23 15:42:01.5  -0.3                          T                2.5  .25 Ml 2.0         4846185

.
