BEGIN GSE2.0
MSG_TYPE DATA
MSG_ID 13-JUN-1308:13:33  FRA_NDC
E-MAIL
DATA_TYPE BULLETIN
Reviewed Bulletin (REB) # P2013-023  from French NDC for regional phases     PERIOD 05 JUN 2013 TO 11 JUN 2013 Cenalt JP S
EVENT     300327
    Date      Time       Latitude Longitude    Depth    Ndef Nsta Gap    Mag1  N    Mag2  N    Mag3  N   Author         ID
       rms   OT_Error      Smajor Sminor Az        Err   mdist  Mdist     Err        Err        Err      Quality

2013/06/05 05:08:30.3     45.5467    2.8383     15.0      20   10 104  Ml 1.9  9  Md 1.7  1              bulletin    300427
                                                                                                         _ldg
      0.27   +-  0.07       1.6    1.0  122.43 +-  0.0    0.57   1.86   +-0.3      +-                    m i ke

FRANCE
Sta     Dist  EvAz     Phase      Date       Time     TRes  Azim  AzRes  Slow  SRes Def   SNR       Amp   Per   Mag1   Mag2       ID
CAF   000.83 221.6 m E Pg      2013/06/05 05:08:46.2   0.1                          T                                        5303200
CAF   000.83 221.6 m E Sg      2013/06/05 05:08:57.1   0.0                          T                3.8  .21                5303189
TCF   000.86 329.6 m E P       2013/06/05 05:08:47.6   0.0                          T                                        5307752
TCF   000.86 329.6 m E Sg      2013/06/05 05:08:58.9   0.8                          T                1.2  .24 Ml 1.5         5303205
RJF   000.96 255.9 m E Pg      2013/06/05 05:08:48.1  -0.4                          T                                        5303199
RJF   000.96 255.9 m E Sg      2013/06/05 05:09:01.7   0.6                          T                2.3  .22 Ml 1.5         5303190
BGF   001.01 000.3 m E Pg      2013/06/05 05:08:49.4   0.0                          T                                        5303198
BGF   001.01 000.3 m E P       2013/06/05 05:08:50.3   0.2                          T                                        5307753
BGF   001.01 000.3 m E Sg      2013/06/05 05:09:02.7   0.0                          T               12.9  .44 Ml 2.3         5303191
SMF   001.30 032.1 m E Pg      2013/06/05 05:08:54.5  -0.2                          T                                        5307745
SMF   001.30 032.1 m E Sg      2013/06/05 05:09:11.4  -0.2                          T                1.4  .22 Ml 1.8         5303192
AVF   001.29 015.8 m E Pg      2013/06/05 05:08:54.6   0.0                          T                                        5307744
AVF   001.29 015.8 m E Sg      2013/06/05 05:09:11.1  -0.3                          T                1.7  .22 Ml 1.8         5303193
VIVF  001.47 117.4 m E Pg      2013/06/05 05:08:58.1   0.2                          T                                        5303204
VIVF  001.47 117.4 m E Sg      2013/06/05 05:09:17.0   0.0                          T                2.0  .24 Ml 1.9         5303203
LFF   001.60 248.5 m E P       2013/06/05 05:08:58.6   0.1                          T                                        5307755
LFF   001.60 248.5 m E Sg      2013/06/05 05:09:21.0   0.1                          T                1.2  .20 Ml 1.7         5307756
SSF   001.58 016.7 m E Pg      2013/06/05 05:09:00.0   0.0                          T                                        5307751
SSF   001.58 016.7 m E Sg      2013/06/05 05:09:21.2   0.7                          T                1.1  .17 Ml 2.0         5307748
LOR   001.86 021.9 m E Sg      2013/06/05 05:09:29.1   0.0                          T                2.7  .27 Ml 2.2         5307750

.
EVENT     300539
    Date      Time       Latitude Longitude    Depth    Ndef Nsta Gap    Mag1  N    Mag2  N    Mag3  N   Author         ID
       rms   OT_Error      Smajor Sminor Az        Err   mdist  Mdist     Err        Err        Err      Quality

2013/06/05 05:10:14.5     45.5444    2.8460     15.0      26   11 104  Ml 1.7  9  Md 1.8  2              bulletin    300639
                                                                                                         _ldg
      0.11   +-  0.03        .6     .4  121.78 +-  0.0    0.58   1.86   +-0.2      +-0.1                 m i ke

FRANCE
Sta     Dist  EvAz     Phase      Date       Time     TRes  Azim  AzRes  Slow  SRes Def   SNR       Amp   Per   Mag1   Mag2       ID
CAF   000.83 222.0 m E Pg      2013/06/05 05:10:30.3   0.0                          T                                        5307775
CAF   000.83 222.0 m E Sg      2013/06/05 05:10:41.4   0.1                          T                2.6  .22                5307772
TCF   000.87 329.4 m E Pg      2013/06/05 05:10:31.1   0.1                          T                                        5307781
TCF   000.87 329.4 m E P       2013/06/05 05:10:31.8   0.0                          T                                        5307782
TCF   000.87 329.4 m E Sg      2013/06/05 05:10:42.3  -0.1                          T                1.2  .24 Ml 1.5 Md 1.8  5307764
RJF   000.97 256.1 m E Pg      2013/06/05 05:10:32.7  -0.1                          T                                        5307776
RJF   000.97 256.1 m E P       2013/06/05 05:10:33.5   0.0                          T                                        5307758
RJF   000.97 256.1 m E Sg      2013/06/05 05:10:45.7   0.3                          T                1.3  .21 Ml 1.3         5307769
BGF   001.01 000.0 m E Pg      2013/06/05 05:10:33.6   0.0                          T                                        5307785
BGF   001.01 000.0 m E Sg      2013/06/05 05:10:47.1   0.2                          T                6.0  .31 Ml 2.1         5307767
SMF   001.30 031.8 m E Pn      2013/06/05 05:10:36.5   0.0                          T                                        5307778
SMF   001.30 031.8 m E Pg      2013/06/05 05:10:38.7  -0.2                          T                                        5307777
SMF   001.30 031.8 m E Sg      2013/06/05 05:10:55.7  -0.1                          T                1.1  .21 Ml 1.7         5307766
AVF   001.30 015.6 m E Pn      2013/06/05 05:10:36.6   0.1                          T                                        5307780
AVF   001.30 015.6 m E P       2013/06/05 05:10:38.3   0.0                          T                                        5307761
AVF   001.30 015.6 m E Pg      2013/06/05 05:10:38.8   0.1                          T                                        5307779
AVF   001.30 015.6 m E Sg      2013/06/05 05:10:55.5  -0.2                          T                1.2  .19 Ml 1.7         5307765
VIVF  001.46 117.4 m E P       2013/06/05 05:10:40.8   0.0                          T                                        5307757
VIVF  001.46 117.4 m E Pg      2013/06/05 05:10:41.9  -0.1                          T                                        5307774
VIVF  001.46 117.4 m E Sg      2013/06/05 05:11:01.1   0.2                          T                1.4  .20 Ml 1.9         5307773
LFF   001.61 248.6 m E P       2013/06/05 05:10:42.7   0.0                          T                                        5307771
LFF   001.61 248.6 m E Sg      2013/06/05 05:11:05.1  -0.1                          T                 .8  .16 Ml 1.6         5307770
SSF   001.59 016.5 m E Pg      2013/06/05 05:10:44.3   0.2                          T                                        5307783
SSF   001.59 016.5 m E Sg      2013/06/05 05:11:04.8   0.2                          T                1.0  .23 Ml 1.8         5307763
HYF   001.73 355.3 m E S       2013/06/05 05:11:06.6  -0.2                          T                                        5307760
LOR   001.86 021.8 m E Sg      2013/06/05 05:11:13.3   0.0                          T                 .6  .15 Ml 1.8         5307762

.
EVENT     300328
    Date      Time       Latitude Longitude    Depth    Ndef Nsta Gap    Mag1  N    Mag2  N    Mag3  N   Author         ID
       rms   OT_Error      Smajor Sminor Az        Err   mdist  Mdist     Err        Err        Err      Quality

2013/06/05 05:40:36.0     45.5432    2.8401     15.0      32   12 085  Ml 2.3 13  Md 2.4  2              bulletin    300428
                                                                                                         _ldg
      0.50   +-  0.05       1.1     .8  115.02 +-  0.0    0.58   2.33   +-0.2      +-0.1                 m i ke

FRANCE
Sta     Dist  EvAz     Phase      Date       Time     TRes  Azim  AzRes  Slow  SRes Def   SNR       Amp   Per   Mag1   Mag2       ID
CAF   000.83 221.9 m E Pg      2013/06/05 05:40:51.4  -0.4                          T                                        5303208
CAF   000.83 221.9 m E P       2013/06/05 05:40:53.6   1.0                          T   001.0                                5303218
CAF   000.83 221.9 m E Sg      2013/06/05 05:41:03.0   0.3                          T   001.0       12.2  .25        Md 2.3  5303219
TCF   000.87 329.7 m E Pg      2013/06/05 05:40:52.7   0.2                          T                                        5303212
TCF   000.87 329.7 m E P       2013/06/05 05:40:53.3   0.0                          T   001.0                                5303229
TCF   000.87 329.7 m E Sg      2013/06/05 05:41:03.7  -0.1                          T                5.4  .18 Ml 2.3         5303207
RJF   000.96 256.1 m E Pg      2013/06/05 05:40:54.3   0.1                          T                                        5307788
RJF   000.96 256.1 m E P       2013/06/05 05:40:55.2   0.2                          T                                        5303209
RJF   000.96 256.1 m E Sg      2013/06/05 05:41:07.3   0.5                          T   001.0        6.9  .26 Ml 1.9         5303213
BGF   001.01 000.2 m E Pg      2013/06/05 05:40:55.5   0.3                          T                                        5303210
BGF   001.01 000.2 m E Sg      2013/06/05 05:41:08.7   0.3                          T   001.0       22.2  .31 Ml 2.7         5303216
SMF   001.30 031.9 m E Pn      2013/06/05 05:40:58.0  -0.1                          T   001.0                                5303225
SMF   001.30 031.9 m E Pg      2013/06/05 05:41:00.3  -0.2                          T                                        5307790
SMF   001.30 031.9 m E P       2013/06/05 05:41:00.8   0.9                          T                                        5303232
SMF   001.30 031.9 m E Sg      2013/06/05 05:41:17.3  -0.1                          T   001.0        5.8  .22 Ml 2.4         5303226
AVF   001.30 015.7 m E Pn      2013/06/05 05:40:58.0   0.1                          T                                        5303211
AVF   001.30 015.7 m E Pg      2013/06/05 05:41:00.4   0.1                          T   001.0                                5303214
AVF   001.30 015.7 m E Sg      2013/06/05 05:41:17.0  -0.2                          T   001.0        5.3  .18 Ml 2.4         5303215
VIVF  001.47 117.3 m E Pg      2013/06/05 05:41:03.4   0.0                          T   001.0                                5303230
VIVF  001.47 117.3 m E Sg      2013/06/05 05:41:22.4   0.0                          T   001.0        4.6  .20 Ml 2.4         5303231
SSF   001.59 016.7 m E Pg      2013/06/05 05:41:05.7   0.1                          T   001.0                                5303227
SSF   001.59 016.7 m E Sg      2013/06/05 05:41:26.4   0.2                          T   001.0        5.3  .30 Ml 2.4         5303228
LASF  001.64 153.4 m E Pg      2013/06/05 05:41:06.6   0.0                          T   001.0                                5303220
LASF  001.64 153.4 m E Sg      2013/06/05 05:41:28.2   0.4                          T   001.0        1.1  .22 Ml 1.8         5303221
LOR   001.86 021.9 m E Pg      2013/06/05 05:41:10.8   0.1                          T   001.0                                5303222
LOR   001.86 021.9 m E Sg      2013/06/05 05:41:34.7  -0.1                          T   001.0        2.5  .22 Ml 2.2         5303223
LFF   001.60 248.6 m E Sg      2013/06/05 05:41:26.4  -0.2                          T                5.5  .27 Ml 2.2         5307787
MFF   002.33 298.1 m E Sg      2013/06/05 05:41:49.5   0.1                          T   001.0        3.2  .22 Ml 2.6         5303224

.
EVENT     300332
    Date      Time       Latitude Longitude    Depth    Ndef Nsta Gap    Mag1  N    Mag2  N    Mag3  N   Author         ID
       rms   OT_Error      Smajor Sminor Az        Err   mdist  Mdist     Err        Err        Err      Quality

2013/06/05 05:40:49.5     45.5399    2.8531      2.0      19   10 105  Ml 2.1 11                         bulletin    300432
                                                                                                         _ldg
      0.16   +-  0.04        .8     .6  130.32 +-  0.0    0.58   2.34   +-0.2                            m i ke

FRANCE
Sta     Dist  EvAz     Phase      Date       Time     TRes  Azim  AzRes  Slow  SRes Def   SNR       Amp   Per   Mag1   Mag2       ID
RJF   000.97 256.4 m E Pg      2013/06/05 05:41:07.6  -0.1                          T                                        5303332
RJF   000.97 256.4 m E Sg      2013/06/05 05:41:20.6   0.3                          T                3.1  .23 Ml 1.6         5303338
BGF   001.02 359.7 m E Pg      2013/06/05 05:41:08.7   0.1                          T                                        5303361
BGF   001.02 359.7 m E Sg      2013/06/05 05:41:22.1   0.2                          T               11.1  .26 Ml 2.5         5303339
SMF   001.30 031.5 m E Pg      2013/06/05 05:41:13.7  -0.1                          T                                        5307795
SMF   001.30 031.5 m E Sg      2013/06/05 05:41:30.5  -0.2                          T                2.1  .18 Ml 2.0         5303334
CAF   000.83 222.5 m E Sg      2013/06/05 05:41:16.2   0.3                          T                6.7  .24                5303337
VIVF  001.46 117.3 m E Pg      2013/06/05 05:41:16.8   0.1                          T                                        5303331
VIVF  001.46 117.3 m E Sg      2013/06/05 05:41:35.5  -0.1                          T                2.6  .20 Ml 2.1         5303330
SSF   001.59 016.3 m E Pn      2013/06/05 05:41:17.0   0.1                          T                                        5303329
SSF   001.59 016.3 m E Sg      2013/06/05 05:41:39.7   0.1                          T                1.9  .19 Ml 2.2         5303326
TCF   000.87 329.3 m E Sg      2013/06/05 05:41:17.3  -0.1                          T                4.7  .30 Ml 2.0         5303340
LOR   001.86 021.6 m E Pg      2013/06/05 05:41:24.2   0.0                          T                                        5307791
LOR   001.86 021.6 m E Sg      2013/06/05 05:41:48.1  -0.1                          T                1.8  .22 Ml 2.1         5303327
AVF   001.30 015.3 m E Sg      2013/06/05 05:41:30.3  -0.2                          T                2.2  .20 Ml 2.0         5303335
LFF   001.61 248.8 m E Sg      2013/06/05 05:41:39.8  -0.4                          T                3.0  .20 Ml 2.1         5307793

.
EVENT     300343
    Date      Time       Latitude Longitude    Depth    Ndef Nsta Gap    Mag1  N    Mag2  N    Mag3  N   Author         ID
       rms   OT_Error      Smajor Sminor Az        Err   mdist  Mdist     Err        Err        Err      Quality

2013/06/05 07:55:55.5     43.4910    6.5836       .0 f    24    7 081  Ml 2.1  2  Md 1.8  1              bulletin    300443
                                                                                                         _ldg
      0.39   +-  0.10       2.2    1.9  133.21 +-  0.0    0.08   4.07   +-0.1      +-                    m i km

NEAR SOUTH COAST OF FRANCE
Sta     Dist  EvAz     Phase      Date       Time     TRes  Azim  AzRes  Slow  SRes Def   SNR       Amp   Per   Mag1   Mag2       ID
FRF   000.08 033.4 m E Pg      2013/06/05 07:55:56.2  -1.4                          T                                        5303555
FRF   000.08 033.4 m E Sg      2013/06/05 07:55:57.6  -1.4                          T              827.4  .50        Md 1.8  5303552
LMR   000.17 199.1 m E Pg      2013/06/05 07:55:59.0  -0.1                          T                                        5303554
LMR   000.17 199.1 m E Sg      2013/06/05 07:56:01.4  -0.3                          T               99.3  .50                5303551
SBF   000.72 058.7 m E Pg      2013/06/05 07:56:09.4   0.0                          T                                        5303553
SBF   000.72 058.7 m E Sg      2013/06/05 07:56:18.7  -0.4                          T               20.9  .28                5303550
SMRF  000.88 303.9 m E Pg      2013/06/05 07:56:12.1  -0.2                          T                                        5303561
MBDF  001.24 006.2 m E Pn      2013/06/05 07:56:18.7  -0.1                          T                                        5303549
MBDF  001.24 006.2 m E Sg      2013/06/05 07:56:35.3  -0.2                          T                8.3  .62 Ml 2.1         5303560
ORIF  001.51 340.7 m E Pg      2013/06/05 07:56:24.2   0.1                          T                                        5303548
ORIF  001.51 340.7 m E Sn      2013/06/05 07:56:41.5  -0.4                          T                6.0  .42 Ml 2.2         5303559
LPL   002.03 003.0 m E Pn      2013/06/05 07:56:29.6   0.0                          T                                        5303547

.
