EVENT     261461
    Date      Time       Latitude Longitude    Depth    Ndef Nsta Gap    Mag1  N    Mag2  N    Mag3  N   Author         ID
       rms   OT_Error      Smajor Sminor Az        Err   mdist  Mdist     Err        Err        Err      Quality

2011/07/16 15:59:32.5     43.8274   11.9367      2.0      24   14 273  Ml 3.0  8                         js067245    261461

      0.73   +-  0.54      10.8    5.4  107.50 +-  0.0    0.10   7.08   +-0.4                            m i ke

CENTRAL ITALY
Sta     Dist  EvAz     Phase      Date       Time     TRes  Azim  AzRes  Slow  SRes Def   SNR       Amp   Per   Mag1   Mag2       ID
PGF   002.50 240.2 m E Pn      2011/07/16 16:00:12.2  -0.2                          T                                        4721710
PGF   002.50 240.2 m E Sn      2011/07/16 16:00:42.1   0.4                          T               14.0  .42 Ml 3.1         4721690
SBF   003.26 272.2 m E Pn      2011/07/16 16:00:22.2  -0.5                          T                                        4721709
SBF   003.26 272.2 m E Sn      2011/07/16 16:00:59.0  -0.8                          T                7.4  .30 Ml 2.9         4721691
MBDF  003.82 285.4 m E Pn      2011/07/16 16:00:29.9  -0.6                          T                                        4721699
FRF   003.85 267.8 m E Pn      2011/07/16 16:00:30.4  -0.2                          T                                        4721708
FRF   003.85 267.8 m E Sn      2011/07/16 16:01:13.5  -0.3                          T                1.2  .22 Ml 2.4         4721693
LMR   003.97 264.7 m E Pn      2011/07/16 16:00:32.0  -0.4                          T                                        4721707
LMR   003.97 264.7 m E Sn      2011/07/16 16:01:15.0  -1.9                          T                1.2  .24 Ml 2.4         4721692
LPG   004.06 296.1 m E Pn      2011/07/16 16:00:34.5   0.6                          T                                        4721706
LPL   004.08 296.3 m E Pn      2011/07/16 16:00:35.0   0.9                          T                                        4721705
ORIF  004.48 286.2 m E Pn      2011/07/16 16:00:39.1  -0.2                          T                                        4721704
CABF  004.98 306.0 m E Pn      2011/07/16 16:00:47.6   1.3                          T                                        4721700
HINF  005.34 320.1 m E Pn      2011/07/16 16:00:51.1   0.0                          T                                        4721701
HINF  005.34 320.1 m E Sn      2011/07/16 16:01:50.9   1.3                          T                7.3  .40 Ml 3.2         4721694
CDF   005.61 326.4 m E Pn      2011/07/16 16:00:54.5  -0.4                          T                                        4721703
CDF   005.61 326.4 m E Sn      2011/07/16 16:01:55.7  -0.4                          T                4.5  .38 Ml 3.2         4721696
HAU   005.71 318.9 m E Pn      2011/07/16 16:00:56.1  -0.1                          T                                        4721702
HAU   005.71 318.9 m E Sn      2011/07/16 16:01:59.6   1.1                          T               20.2  .44 Ml 3.5         4721695
LOR   006.63 304.1 m E Pn      2011/07/16 16:01:09.3   0.6                          T                                        4721698
LOR   006.63 304.1 m E Sn      2011/07/16 16:02:20.9   0.5                          T                8.8  .51 Ml 3.4         4721697
MTLF  007.08 269.4 m E Pn      2011/07/16 16:01:14.9   0.2                          T                                        4721689

.
EVENT     261462
    Date      Time       Latitude Longitude    Depth    Ndef Nsta Gap    Mag1  N    Mag2  N    Mag3  N   Author         ID
       rms   OT_Error      Smajor Sminor Az        Err   mdist  Mdist     Err        Err        Err      Quality

2011/07/16 16:09:16.6     43.2495   21.5248     10.0 f   187   19 019  Ml 4.0  8                         js067245    261462

      1.78   +-  0.13       4.0    3.2   31.87 +-  0.0    0.30  41.86   +-0.2                            m i ke

NORTHWESTERN BALKAN PEN.
Sta     Dist  EvAz     Phase      Date       Time     TRes  Azim  AzRes  Slow  SRes Def   SNR       Amp   Per   Mag1   Mag2       ID
PGF   009.22 269.9 m E P       2011/07/16 16:11:30.5  -2.5                          T                                        4725442
MBDF  010.74 283.0 m E Pn      2011/07/16 16:11:47.3  -0.5                          T                                        4725445
MBDF  010.74 283.0 m E Sn      2011/07/16 16:13:38.9  -2.3                          T                7.9  .70 Ml 3.9         4721713
FRF   010.83 276.7 m E P       2011/07/16 16:11:53.0  -2.0                          T                                        4721722
LPG   010.81 287.1 m E P       2011/07/16 16:11:54.5  -0.5                          T                                        4721720
LPL   010.83 287.2 m E P       2011/07/16 16:11:54.8  -0.4                          T                                        4721719
LPL   010.83 287.2 m E Sn      2011/07/16 16:13:42.9  -0.6                          T               11.5  .67 Ml 4.1         4721712
LMR   010.95 275.6 m E P       2011/07/16 16:11:55.3  -1.3                          T                                        4721721
ORIF  011.38 283.8 m E Pn      2011/07/16 16:11:55.8  -0.8                          T                                        4725443
ORIF  011.38 283.8 m E P       2011/07/16 16:12:02.3  -0.2                          T                                        4725444
ORIF  011.38 283.8 m E Sn      2011/07/16 16:13:56.2  -0.3                          T               10.7  .72 Ml 4.1         4725441
HINF  011.26 299.0 m E P       2011/07/16 16:11:58.8  -1.9                          T                                        4721725
HINF  011.26 299.0 m E Pg      2011/07/16 16:13:54.2  69.8                          T               10.6  .58 Ml 4.2         4725440
CDF   011.20 302.4 m E P       2011/07/16 16:11:59.1  -0.9                          T                                        4721727
CDF   011.20 302.4 m E Sn      2011/07/16 16:13:52.0  -0.2                          T                6.4  .73 Ml 4.0         4725438
CABF  011.45 292.4 m E P       2011/07/16 16:12:02.6  -0.8                          T                                        4721724
HAU   011.64 299.4 m E P       2011/07/16 16:12:04.3  -1.6                          T                                        4721726
HAU   011.64 299.4 m E Sn      2011/07/16 16:14:03.4   0.7                          T               10.4  .52 Ml 4.0         4725439
PAGF  012.21 301.2 m E P       2011/07/16 16:12:11.6  -2.0                          T                                        4721717
VIVF  012.23 283.3 m E P       2011/07/16 16:12:11.9  -2.1                          T                                        4721718
SFTF  012.53 299.0 m E P       2011/07/16 16:12:16.7  -1.3                          T                                        4721716
LOR   013.08 294.0 m E Pn      2011/07/16 16:12:18.9  -0.7                          T                                        4721715
SMF   012.98 291.3 m E P       2011/07/16 16:12:21.8  -2.1                          T                                        4721723
GIVF  013.34 306.7 m E S       2011/07/16 16:14:58.4   0.0                          T                                        4723777
LFF   015.03 283.6 m E Sn      2011/07/16 16:15:23.8   0.2                          T                4.0  .37 Ml 3.9         4721711
FLN   016.23 297.5 m E Sn      2011/07/16 16:15:52.3   0.0                          T                 .8  .19 Ml 3.6         4723778

.
EVENT     261463
    Date      Time       Latitude Longitude    Depth    Ndef Nsta Gap    Mag1  N    Mag2  N    Mag3  N   Author         ID
       rms   OT_Error      Smajor Sminor Az        Err   mdist  Mdist     Err        Err        Err      Quality

2011/07/16 19:39:26.3     43.9334   11.9159     10.0 f    47   14 103  Ml 2.9 11  Md 2.8  1              js067245    261463

      0.83   +-  0.21       4.6    3.0   49.46 +-  0.0    0.06   7.06   +-0.3      +-                    m i ke

CENTRAL ITALY
Sta     Dist  EvAz     Phase      Date       Time     TRes  Azim  AzRes  Slow  SRes Def   SNR       Amp   Per   Mag1   Mag2       ID
PGF   002.54 238.0 m E Pn      2011/07/16 19:40:05.7  -0.3                          T                                        4722830
PGF   002.54 238.0 m E Sn      2011/07/16 19:40:35.0  -0.1                          T                9.7  .41 Ml 2.9         4725458
SBF   003.24 270.3 m E Pn      2011/07/16 19:40:16.3   0.8                          T                                        4722842
SBF   003.24 270.3 m E Sn      2011/07/16 19:40:51.4  -0.4                          T               16.1  .48 Ml 3.0 Md 2.8  4722831
MBDF  003.78 283.9 m E Pn      2011/07/16 19:40:24.1   1.2                          T                                        4722837
MBDF  003.78 283.9 m E Sn      2011/07/16 19:41:03.8  -0.9                          T                9.4  .68 Ml 2.7         4725457
FRF   003.84 266.2 m E Pn      2011/07/16 19:40:24.7   1.2                          T                                        4722841
FRF   003.84 266.2 m E Sn      2011/07/16 19:41:06.5   0.5                          T                1.9  .24 Ml 2.5         4722827
LMR   003.97 263.2 m E Pn      2011/07/16 19:40:26.3   1.1                          T                                        4722843
LMR   003.97 263.2 m E Sn      2011/07/16 19:41:09.1   0.0                          T                1.6  .30 Ml 2.4         4722828
LPG   004.00 294.8 m E Pn      2011/07/16 19:40:27.9   1.9                          T                                        4722840
LPG   004.00 294.8 m E Sn      2011/07/16 19:41:09.8  -0.4                          T                7.1  .55 Ml 2.8         4722826
LPL   004.02 295.0 m E Pn      2011/07/16 19:40:28.2   2.0                          T                                        4722839
LPL   004.02 295.0 m E Sn      2011/07/16 19:41:10.2  -0.4                          T               17.2  .98 Ml 2.9         4722823
ORIF  004.43 284.9 m E Pn      2011/07/16 19:40:33.5   1.8                          T                                        4722838
ORIF  004.43 284.9 m E Sn      2011/07/16 19:41:18.5  -1.9                          T                4.1  .47 Ml 2.7         4722822
CABF  004.91 305.1 m E Pn      2011/07/16 19:40:40.3   2.1                          T                                        4722835
HINF  005.25 319.5 m E Pn      2011/07/16 19:40:45.1   2.3                          T                                        4722834
HINF  005.25 319.5 m E Sn      2011/07/16 19:41:39.3  -0.5                          T                8.7  .44 Ml 3.2         4725456
CDF   005.52 325.9 m E Pn      2011/07/16 19:40:48.6   2.1                          T                                        4722832
CDF   005.52 325.9 m E Sn      2011/07/16 19:41:46.4   0.1                          T               10.5  .66 Ml 3.3         4725454
HAU   005.62 318.3 m E Pn      2011/07/16 19:40:49.5   1.6                          T                                        4722833
HAU   005.62 318.3 m E Sn      2011/07/16 19:41:48.4  -0.3                          T               29.8  .60 Ml 3.5         4725455
LOR   006.56 303.4 m E P       2011/07/16 19:41:04.9  -0.6                          T                                        4725459
MTLF  007.06 268.5 m E Pn      2011/07/16 19:41:08.8   1.4                          T                                        4722836

.
EVENT     261464
    Date      Time       Latitude Longitude    Depth    Ndef Nsta Gap    Mag1  N    Mag2  N    Mag3  N   Author         ID
       rms   OT_Error      Smajor Sminor Az        Err   mdist  Mdist     Err        Err        Err      Quality

2011/07/16 19:57:56.1     45.8569    7.4795      8.0 f    15    5 091  Ml 1.3  3  Md 1.7  2              js067245    261464

      0.12   +-  0.04       1.0     .6  125.70 +-  0.0    0.23   1.47   +-0.3      +-0.1                 m i ke

NORTHERN ITALY
Sta     Dist  EvAz     Phase      Date       Time     TRes  Azim  AzRes  Slow  SRes Def   SNR       Amp   Per   Mag1   Mag2       ID
LPG   000.62 235.1 m E Pg      2011/07/16 19:58:08.2  -0.2                          T                                        4722849
LPG   000.62 235.1 m E Sg      2011/07/16 19:58:16.5  -0.1                          T                2.6  .16        Md 1.7  4722846
LPL   000.62 237.2 m E Pg      2011/07/16 19:58:08.3   0.0                          T                                        4722848
LPL   000.62 237.2 m E Sg      2011/07/16 19:58:16.6   0.1                          T                3.6  .34        Md 1.7  4722847
MBDF  001.24 204.1 m E Pg      2011/07/16 19:58:19.4  -0.1                          T                                        4722845
MBDF  001.24 204.1 m E Sg      2011/07/16 19:58:35.4  -0.1                          T                1.1  .20 Ml 1.7         4722844
ORIF  001.47 230.8 m E Pg      2011/07/16 19:58:23.6  -0.1                          T                                        4725461
ORIF  001.47 230.8 m E Sg      2011/07/16 19:58:42.7   0.1                          T                 .3  .22 Ml 1.1         4725462
CABF  001.23 308.5 m E Sg      2011/07/16 19:58:34.9  -0.2                          T                 .4  .21 Ml 1.2         4725460

.
EVENT     261485
    Date      Time       Latitude Longitude    Depth    Ndef Nsta Gap    Mag1  N    Mag2  N    Mag3  N   Author         ID
       rms   OT_Error      Smajor Sminor Az        Err   mdist  Mdist     Err        Err        Err      Quality

2011/07/16 22:10:40.8     50.3299    7.3699     10.0      19    6 056  Ml 1.9  5  Md 2.0  1              js067245    261485

      0.36   +-  0.06       1.1    1.1   26.65 +-  0.0    0.13   2.08   +-0.2      +-                    m i ke

GERMANY
Sta     Dist  EvAz     Phase      Date       Time     TRes  Azim  AzRes  Slow  SRes Def   SNR       Amp   Per   Mag1   Mag2       ID
RUP   000.66 197.7 m E Pg      2011/07/16 22:10:53.1  -0.3                          T                                        4725474
RUP   000.66 197.7 m E Sg      2011/07/16 22:11:02.1   0.0                          T                                Md 2.0  4725475
GIVF  001.65 263.0 m E Pg      2011/07/16 22:11:11.5  -0.1                          T                                        4725470
GIVF  001.65 263.0 m E Sg      2011/07/16 22:11:33.2   0.2                          T                2.5  .25 Ml 2.1         4725473
CDF   001.92 181.9 m E Pn      2011/07/16 22:11:12.1   0.1                          T                                        4725466
CDF   001.92 181.9 m E Pg      2011/07/16 22:11:16.6  -0.1                          T                                        4725465
CDF   001.92 181.9 m E Sn      2011/07/16 22:11:34.7  -0.1                          T                                        4725468
CDF   001.92 181.9 m E Sg      2011/07/16 22:11:41.5   0.1                          T                 .6  .26 Ml 1.6         4725467
PAGF  002.08 211.8 m E Pn      2011/07/16 22:11:13.8  -0.1                          T                                        4725463
PAGF  002.08 211.8 m E Sg      2011/07/16 22:11:46.1  -0.1                          T                1.0  .46 Ml 1.6         4725464
BAIF  002.05 263.6 m E Pg      2011/07/16 22:11:18.9   0.0                          T                                        4725471
BAIF  002.05 263.6 m E Sg      2011/07/16 22:11:45.2  -0.1                          T                1.3  .21 Ml 2.0         4725472
LANF  001.38 168.0 m E Sg      2011/07/16 22:11:24.6   0.2                          T                1.3  .13 Ml 2.0         4725469

.
EVENT     261465
    Date      Time       Latitude Longitude    Depth    Ndef Nsta Gap    Mag1  N    Mag2  N    Mag3  N   Author         ID
       rms   OT_Error      Smajor Sminor Az        Err   mdist  Mdist     Err        Err        Err      Quality

2011/07/17 00:05:35.8     43.9997    7.4361      2.0      12    6 213  Ml 1.8  4  Md 2.1  3              js067245    261465

      0.80   +-  0.52      10.4    4.8   78.55 +-  0.0    0.14   1.44   +-0.5      +-0.1                 m i ke

NEAR SOUTH COAST OF FRANCE
Sta     Dist  EvAz     Phase      Date       Time     TRes  Azim  AzRes  Slow  SRes Def   SNR       Amp   Per   Mag1   Mag2       ID
SBF   000.14 180.3 m E Pg      2011/07/17 00:05:38.1  -0.6                          T                                        4722861
SBF   000.14 180.3 m E Sg      2011/07/17 00:05:42.7   1.9                          T               44.8  .25        Md 2.1  4722856
FRF   000.72 232.8 m E Pg      2011/07/17 00:05:49.1  -0.3                          T                                        4722859
FRF   000.72 232.8 m E Sg      2011/07/17 00:05:57.7  -1.1                          T                7.7  .21        Md 2.1  4722854
MBDF  000.87 327.0 m E Pg      2011/07/17 00:05:53.0   0.7                          T                                        4722857
MBDF  000.87 327.0 m E Sg      2011/07/17 00:06:03.7   0.1                          T                2.0  .23 Ml 1.7 Md 2.0  4722852
LMR   000.95 225.6 m E Pg      2011/07/17 00:05:53.5   0.0                          T                                        4722860
LMR   000.95 225.6 m E Sg      2011/07/17 00:06:05.1  -0.7                          T                6.6  .20 Ml 2.3         4722855
SMRF  001.34 269.6 m E Pg      2011/07/17 00:06:01.4   0.5                          T                                        4722858
SMRF  001.34 269.6 m E Sg      2011/07/17 00:06:19.6   1.3                          T                1.8  .17 Ml 2.0         4722853
ORIF  001.44 310.0 m E Pg      2011/07/17 00:06:02.1  -0.8                          T                                        4722851
ORIF  001.44 310.0 m E Sg      2011/07/17 00:06:20.6  -0.9                          T                 .3  .20 Ml 1.3         4722850

.
