EVENT     283432
    Date      Time       Latitude Longitude    Depth    Ndef Nsta Gap    Mag1  N    Mag2  N    Mag3  N   Author         ID
       rms   OT_Error      Smajor Sminor Az        Err   mdist  Mdist     Err        Err        Err      Quality

2012/09/15 13:10:46.3     43.0932    -.0109      2.0       6    4 168  Ml 1.3  2  Md 1.4  2              bulletin    283532
                                                                                                         _ldg
      0.38   +-  0.31      16.5    3.0  174.66 +-  0.0    0.26   1.65   +-0.2      +-0.1                 m i ke

PYRENEES
Sta     Dist  EvAz     Phase      Date       Time     TRes  Azim  AzRes  Slow  SRes Def   SNR       Amp   Per   Mag1   Mag2       ID
EPF   000.26 103.6 m E Pg      2012/09/15 13:10:51.6   0.0                          T                                        5072231
EPF   000.26 103.6 m E Sg      2012/09/15 13:10:55.0  -0.1                          T                4.8  .28        Md 1.5  5072232
ETSF  000.45 244.4 m E Pg      2012/09/15 13:10:55.2   0.3                          T                                        5072233
ETSF  000.45 244.4 m E Sg      2012/09/15 13:10:59.9  -0.9                          T                1.8  .18        Md 1.4  5072234
SJPF  000.89 271.7 m E Sg      2012/09/15 13:11:14.4  -0.2                          T                1.4  .32 Ml 1.4         5072229
MTLF  001.65 080.6 m E Sg      2012/09/15 13:11:37.8  -0.4                          T                 .2  .19 Ml 1.2         5072230

.
EVENT     283379
    Date      Time       Latitude Longitude    Depth    Ndef Nsta Gap    Mag1  N    Mag2  N    Mag3  N   Author         ID
       rms   OT_Error      Smajor Sminor Az        Err   mdist  Mdist     Err        Err        Err      Quality

2012/09/15 15:05:27.7     36.6114    4.4297     10.0 f    83   21 245  Ml 3.2 17                         bulletin    283479
                                                                                                         _ldg
      0.72   +-  0.24       4.8    2.6  145.73 +-  0.0    3.40  13.01   +-0.2                            m i ke

NORTHERN ALGERIA
Sta     Dist  EvAz     Phase      Date       Time     TRes  Azim  AzRes  Slow  SRes Def   SNR       Amp   Per   Mag1   Mag2       ID
PGF   006.90 029.4 m E Pn      2012/09/15 15:07:05.3  -1.3                          T                                        5071336
PGF   006.90 029.4 m E Sn      2012/09/15 15:08:21.8   1.2                          T                8.2  .57 Ml 3.6         5071319
LMR   006.90 012.7 m E Pn      2012/09/15 15:07:05.9  -0.6                          T                                        5071260
LMR   006.90 012.7 m E Sn      2012/09/15 15:08:21.2   0.7                          T                1.7  .22 Ml 3.2         5071335
MTLF  006.93 346.5 m E Pn      2012/09/15 15:07:07.3   0.3                          T                                        5071257
MTLF  006.93 346.5 m E Sn      2012/09/15 15:08:20.3  -0.9                          T                9.9  .65 Ml 3.4         5071333
FRF   007.15 013.1 m E Pn      2012/09/15 15:07:08.8  -1.1                          T                                        5071259
FRF   007.15 013.1 m E Sn      2012/09/15 15:08:26.7   0.4                          T                3.8  .33 Ml 3.4         5071334
EPF   007.14 335.1 m E Pn      2012/09/15 15:07:10.2   0.4                          T                                        5071256
EPF   007.14 335.1 m E Sn      2012/09/15 15:08:25.0  -1.3                          T                3.2  .41 Ml 3.2         5071338
ETSF  007.36 330.1 m E Pn      2012/09/15 15:07:12.3  -0.6                          T                                        5071339
ETSF  007.36 330.1 m E Sn      2012/09/15 15:08:30.0  -1.5                          T                2.4  .36 Ml 3.1         5071332
SMRF  007.41 006.4 m E Pn      2012/09/15 15:07:13.6   0.1                          T                                        5071258
LASF  007.47 356.8 m E Pn      2012/09/15 15:07:13.6  -0.7                          T                                        5071340
LASF  007.47 356.8 m E Sn      2012/09/15 15:08:34.0  -0.1                          T                2.9  .44 Ml 3.2         5071316
SBF   007.60 016.7 m E Pn      2012/09/15 15:07:14.0  -2.1                          T                                        5071337
SJPF  007.81 327.9 m E Pn      2012/09/15 15:07:19.3   0.3                          T                                        5071330
SJPF  007.81 327.9 m E Sn      2012/09/15 15:08:40.8  -1.5                          T                  1  .30 Ml 2.9         5071331
VIVF  008.24 001.2 m E Pn      2012/09/15 15:07:24.0  -0.9                          T                                        5071344
VIVF  008.24 001.2 m E Sn      2012/09/15 15:08:52.3  -0.2                          T                2.5  .33 Ml 3.3         5071322
MBDF  008.30 011.6 m E Pn      2012/09/15 15:07:25.8   0.0                          T                                        5071343
MBDF  008.30 011.6 m E Sn      2012/09/15 15:08:54.7   0.6                          T                1.3  .41 Ml 3.0         5071321
ORIF  008.37 007.1 m E Pn      2012/09/15 15:07:27.1   0.4                          T                                        5071342
ORIF  008.37 007.1 m E Sn      2012/09/15 15:08:55.7  -0.1                          T                1.3  .37 Ml 3.0         5071320
CAF   008.50 348.6 m E Pn      2012/09/15 15:07:28.8   0.4                          T                                        5071328
CAF   008.50 348.6 m E Sn      2012/09/15 15:08:58.5  -0.2                          T                1.3  .38 Ml 3.0         5071326
LFF   008.78 342.6 m E Pn      2012/09/15 15:07:33.2   1.1                          T                                        5071329
LFF   008.78 342.6 m E Sn      2012/09/15 15:09:04.2  -1.1                          T                2.7  .38 Ml 3.2         5071327
RJF   008.96 346.7 m E Pn      2012/09/15 15:07:34.8   0.2                          T                                        5071318
RJF   008.96 346.7 m E Sn      2012/09/15 15:09:09.4  -0.3                          T                2.0  .20 Ml 3.2         5071317
LPL   009.06 010.3 m E Pn      2012/09/15 15:07:36.3   0.0                          T                                        5071341
LPL   009.06 010.3 m E Sn      2012/09/15 15:09:12.4   0.0                          T                1.4  .33 Ml 3.2         5071315
TCF   009.81 350.9 m E Pn      2012/09/15 15:07:45.6  -0.6                          T                                        5071324
MFF   010.55 342.5 m E Pn      2012/09/15 15:07:56.7   0.5                          T                                        5071325
GRR   012.39 343.4 m E Pn      2012/09/15 15:08:21.5   0.1                          T                                        5071314
LDF   012.43 345.8 m E Pn      2012/09/15 15:08:21.6  -0.3                          T                                        5071323

.
EVENT     283371
    Date      Time       Latitude Longitude    Depth    Ndef Nsta Gap    Mag1  N    Mag2  N    Mag3  N   Author         ID
       rms   OT_Error      Smajor Sminor Az        Err   mdist  Mdist     Err        Err        Err      Quality

2012/09/15 15:40:58.6     36.3783   13.1091     10.0 f    51   11 243  Ml 3.4  7                         bulletin    283471
                                                                                                         _ldg
      1.03   +-  0.59      12.9    4.7    6.03 +-  0.0    0.99  12.38   +-0.4                            m i ke

CENTRAL MEDITERRANEAN SEA
Sta     Dist  EvAz     Phase      Date       Time     TRes  Azim  AzRes  Slow  SRes Def   SNR       Amp   Per   Mag1   Mag2       ID
PGF   006.93 334.0 m E Pn      2012/09/15 15:42:38.1   0.1                          T                                        5071226
PGF   006.93 334.0 m E Sn      2012/09/15 15:43:54.0   1.7                          T               11.0  .45 Ml 3.9         5071228
LMR   008.60 325.9 m E Pn      2012/09/15 15:43:00.5  -0.1                          T                                        5070949
LMR   008.60 325.9 m E P       2012/09/15 15:43:05.4  -0.8                          T                                        5071008
LMR   008.60 325.9 m E Sn      2012/09/15 15:44:32.7   0.7                          T                1.3  .25 Ml 3.3         5071225
SBF   008.64 331.6 m E Pn      2012/09/15 15:43:00.9  -0.4                          T                                        5070950
SBF   008.64 331.6 m E P       2012/09/15 15:43:06.3  -0.6                          T                                        5071009
SBF   008.64 331.6 m E Sn      2012/09/15 15:44:33.8   0.7                          T                4.2  .27 Ml 3.7         5071227
FRF   008.72 327.3 m E Pn      2012/09/15 15:43:01.9  -0.3                          T                                        5070948
FRF   008.72 327.3 m E P       2012/09/15 15:43:06.5  -1.3                          T                                        5071007
FRF   008.72 327.3 m E Sn      2012/09/15 15:44:35.3   0.5                          T                3.4  .43 Ml 3.5         5071224
MBDF  009.63 331.9 m E Pn      2012/09/15 15:43:14.7  -0.1                          T                                        5071005
MBDF  009.63 331.9 m E P       2012/09/15 15:43:21.9   1.2                          T                                        5070945
MBDF  009.63 331.9 m E Sn      2012/09/15 15:44:57.5   0.7                          T                 .2  .25 Ml 2.6         5071254
ORIF  010.14 329.5 m E Pn      2012/09/15 15:43:20.7  -1.0                          T                                        5071006
ORIF  010.14 329.5 m E P       2012/09/15 15:43:28.1   0.5                          T                                        5070946
ORIF  010.14 329.5 m E Sn      2012/09/15 15:45:09.8   0.8                          T                1.6  .47 Ml 3.3         5071253
LPL   010.32 334.2 m E Pn      2012/09/15 15:43:23.5  -0.8                          T                                        5070947
LPL   010.32 334.2 m E Sn      2012/09/15 15:45:14.1   0.7                          T                1.1  .30 Ml 3.3         5071255
LASF  010.44 320.2 m E Pn      2012/09/15 15:43:25.4  -0.3                          T                                        5071003
VIVF  010.62 325.5 m E Pn      2012/09/15 15:43:26.4  -1.7                          T                                        5070944
MTLF  010.88 313.1 m E Pn      2012/09/15 15:43:31.1  -0.5                          T                                        5071004
SMF   012.38 328.8 m E P       2012/09/15 15:43:56.9  -1.0                          T                                        5070943

.
EVENT     283373
    Date      Time       Latitude Longitude    Depth    Ndef Nsta Gap    Mag1  N    Mag2  N    Mag3  N   Author         ID
       rms   OT_Error      Smajor Sminor Az        Err   mdist  Mdist     Err        Err        Err      Quality

2012/09/15 20:10:37.3     43.5556    7.9884      6.0 f    47    9 122  Ml 1.8 10  Md 2.0  3              bulletin    283473
                                                                                                         _ldg
      0.57   +-  0.09       1.8    1.5   53.59 +-  0.0    0.36   2.16   +-0.3      +-0.2                 m i ke

NEAR SOUTH COAST OF FRANCE
Sta     Dist  EvAz     Phase      Date       Time     TRes  Azim  AzRes  Slow  SRes Def   SNR       Amp   Per   Mag1   Mag2       ID
SBF   000.51 307.6 m E Pg      2012/09/15 20:10:47.6   0.5                          T                                        5070988
SBF   000.51 307.6 m E Sg      2012/09/15 20:10:53.5  -0.3                          T               58.0  .32        Md 1.8  5070987
FRF   000.98 270.8 m E Pg      2012/09/15 20:10:55.5  -0.1                          T                                        5070984
FRF   000.98 270.8 m E Sg      2012/09/15 20:11:07.6  -0.7                          T                3.6  .23 Ml 2.0 Md 2.1  5070983
LMR   001.10 258.9 m E Pg      2012/09/15 20:10:57.4  -0.5                          T                                        5070986
LMR   001.10 258.9 m E Sg      2012/09/15 20:11:10.6  -1.6                          T                3.8  .26 Ml 2.0         5070985
PGF   001.25 143.3 m E Pn      2012/09/15 20:10:59.6  -0.2                          T                                        5070976
PGF   001.25 143.3 m E Sn      2012/09/15 20:11:16.3   0.3                          T                  1  .24 Ml 1.8         5070975
MBDF  001.46 323.6 m E Pn      2012/09/15 20:11:03.3   0.5                          T                                        5070980
MBDF  001.46 323.6 m E Pg      2012/09/15 20:11:04.9   0.1                          T                                        5070982
MBDF  001.46 323.6 m E Sn      2012/09/15 20:11:21.8   0.7                          T                5.3  .30 Ml 2.3 Md 2.1  5070981
SMRF  001.80 284.3 m E Pn      2012/09/15 20:11:07.2   0.0                          T                                        5070979
SMRF  001.80 284.3 m E Pg      2012/09/15 20:11:10.9   0.1                          T                                        5072251
SMRF  001.80 284.3 m E Sn      2012/09/15 20:11:28.9  -0.1                          T                                        5070978
SMRF  001.80 284.3 m E Sg      2012/09/15 20:11:34.0   0.0                          T                1.4  .19 Ml 2.0         5070977
ORIF  002.04 312.7 m E Pn      2012/09/15 20:11:10.3  -0.2                          T                                        5070968
ORIF  002.04 312.7 m E Pg      2012/09/15 20:11:15.1  -0.2                          T                                        5070965
ORIF  002.04 312.7 m E Sn      2012/09/15 20:11:34.8   0.0                          T                                        5070964
ORIF  002.04 312.7 m E Sg      2012/09/15 20:11:41.5   0.0                          T                 .3  .18 Ml 1.5         5070963
LPG   002.13 335.9 m E Pn      2012/09/15 20:11:12.0   0.0                          T                                        5070970
LPG   002.13 335.9 m E Pg      2012/09/15 20:11:16.2  -1.1                          T                                        5072252
LPG   002.13 335.9 m E Sg      2012/09/15 20:11:44.4  -0.4                          T                 .7  .24 Ml 1.7         5070966
LPL   002.16 335.8 m E Pn      2012/09/15 20:11:12.2  -0.1                          T                                        5070969
LPL   002.16 335.8 m E Pg      2012/09/15 20:11:16.4  -1.3                          T                                        5072253
LPL   002.16 335.8 m E Sg      2012/09/15 20:11:45.1  -0.3                          T                 .6  .25 Ml 1.6         5070967

.
EVENT     283377
    Date      Time       Latitude Longitude    Depth    Ndef Nsta Gap    Mag1  N    Mag2  N    Mag3  N   Author         ID
       rms   OT_Error      Smajor Sminor Az        Err   mdist  Mdist     Err        Err        Err      Quality

2012/09/15 20:15:03.8     43.5234    7.9327      6.0 f     9    5 175  Ml 1.3  4  Md 1.3  1              bulletin    283477
                                                                                                         _ldg
      0.28   +-  0.24       4.3    3.7   71.02 +-  0.0    0.50   1.47   +-0.1      +-                    m i ke

NEAR SOUTH COAST OF FRANCE
Sta     Dist  EvAz     Phase      Date       Time     TRes  Azim  AzRes  Slow  SRes Def   SNR       Amp   Per   Mag1   Mag2       ID
SBF   000.50 313.4 m E Pg      2012/09/15 20:15:13.8   0.3                          T                                        5071244
SBF   000.50 313.4 m E Sg      2012/09/15 20:15:19.8  -0.3                          T                5.0  .30        Md 1.3  5071243
FRF   000.94 272.7 m E Pg      2012/09/15 20:15:21.7   0.2                          T                                        5071239
FRF   000.94 272.7 m E Sg      2012/09/15 20:15:33.8   0.2                          T                 .5  .23 Ml 1.2         5071240
LMR   001.05 260.1 m E Pg      2012/09/15 20:15:23.5  -0.1                          T                                        5071242
LMR   001.05 260.1 m E Sg      2012/09/15 20:15:36.8  -0.5                          T                 .6  .25 Ml 1.3         5071241
MBDF  001.47 325.6 m E Pg      2012/09/15 20:15:31.0  -0.4                          T                                        5071238
MBDF  001.47 325.6 m E Sn      2012/09/15 20:15:48.0   0.3                          T                 .3  .20 Ml 1.2         5071237
PGF   001.25 140.9 m E Sn      2012/09/15 20:15:42.5   0.0                          T                 .4  .22 Ml 1.4         5072254

.
EVENT     283378
    Date      Time       Latitude Longitude    Depth    Ndef Nsta Gap    Mag1  N    Mag2  N    Mag3  N   Author         ID
       rms   OT_Error      Smajor Sminor Az        Err   mdist  Mdist     Err        Err        Err      Quality

2012/09/15 20:16:45.2     43.5673    7.9526      6.0 f    17    5 134  Ml 1.3  4  Md 1.6  1              bulletin    283478
                                                                                                         _ldg
      0.50   +-  0.24       3.9    2.7  122.67 +-  0.0    0.33   1.44   +-0.3      +-                    m i ke

NEAR SOUTH COAST OF FRANCE
Sta     Dist  EvAz     Phase      Date       Time     TRes  Azim  AzRes  Slow  SRes Def   SNR       Amp   Per   Mag1   Mag2       ID
SBF   000.48 308.4 m E Pg      2012/09/15 20:16:55.0   0.5                          T                                        5071252
SBF   000.48 308.4 m E Sg      2012/09/15 20:17:01.2   0.4                          T                7.2  .31        Md 1.6  5071251
FRF   000.95 270.0 m E Pg      2012/09/15 20:17:03.2   0.2                          T                                        5071247
FRF   000.95 270.0 m E Sg      2012/09/15 20:17:15.2  -0.2                          T                 .2  .17 Ml  .9         5071248
LMR   001.08 258.0 m E Pg      2012/09/15 20:17:05.0  -0.4                          T                                        5071249
LMR   001.08 258.0 m E Sg      2012/09/15 20:17:18.3  -1.1                          T                 .6  .22 Ml 1.3         5071250
MBDF  001.44 324.1 m E Pg      2012/09/15 20:17:12.5   0.3                          T                                        5072256
MBDF  001.44 324.1 m E Sn      2012/09/15 20:17:29.4   1.0                          T                 .3  .18 Ml 1.2         5071245
PGF   001.28 142.7 m E Sn      2012/09/15 20:17:24.0  -0.5                          T                 .7  .24 Ml 1.7         5072255

.
