EVENT     259960
    Date      Time       Latitude Longitude    Depth    Ndef Nsta Gap    Mag1  N    Mag2  N    Mag3  N   Author         ID
       rms   OT_Error      Smajor Sminor Az        Err   mdist  Mdist     Err        Err        Err      Quality

2011/06/04 14:55:03.0     44.6915    7.4592      2.0      19    9 212  Ml 2.0  7  Md 2.0  1              js067245    259960

      0.44   +-  0.26       4.7    2.0   84.96 +-  0.0    0.49   1.99   +-0.1      +-                    m i ke

NORTHERN ITALY
Sta     Dist  EvAz     Phase      Date       Time     TRes  Azim  AzRes  Slow  SRes Def   SNR       Amp   Per   Mag1   Mag2       ID
MBDF  000.49 274.4 m E Pg      2011/06/04 14:55:13.1   0.5                          T                                        4701614
MBDF  000.49 274.4 m E Sg      2011/06/04 14:55:18.8  -0.2                          T               33.3  .20        Md 2.0  4701615
SBF   000.83 181.2 m E Pg      2011/06/04 14:55:19.4   0.8                          T                                        4701608
SBF   000.83 181.2 m E Sg      2011/06/04 14:55:29.3  -0.2                          T   001.0       12.1  .20                4701604
LPL   000.97 328.3 m E Pg      2011/06/04 14:55:21.3  -0.2                          T   001.0                                4701603
LPL   000.97 328.3 m E Sg      2011/06/04 14:55:33.1  -1.0                          T                5.7  .37 Ml 2.0         4701611
LPG   000.95 328.4 m E Pg      2011/06/04 14:55:21.5   0.3                          T   001.0                                4701602
LPG   000.95 328.4 m E Sg      2011/06/04 14:55:33.3  -0.2                          T                4.2  .22 Ml 2.1         4701610
ORIF  001.15 282.0 m E Pg      2011/06/04 14:55:24.7   0.2                          T                                        4701612
ORIF  001.15 282.0 m E Sg      2011/06/04 14:55:38.6  -0.8                          T                4.1  .25 Ml 2.1         4701613
FRF   001.27 207.6 m E Pg      2011/06/04 14:55:26.8   0.0                          T                                        4701607
FRF   001.27 207.6 m E Sg      2011/06/04 14:55:44.0   0.8                          T                3.6  .29 Ml 2.1         4701609
LMR   001.52 207.1 m E Pg      2011/06/04 14:55:30.5  -0.8                          T                                        4704032
LMR   001.52 207.1 m E Sg      2011/06/04 14:55:51.3   0.4                          T                1.8  .21 Ml 2.0         4704031
SMRF  001.53 242.8 m E Pg      2011/06/04 14:55:31.6   0.1                          T                                        4701606
SMRF  001.53 242.8 m E Sg      2011/06/04 14:55:51.3   0.0                          T   001.0        1.7  .24 Ml 1.9         4701605
VIVF  001.99 275.7 m E Sg      2011/06/04 14:56:05.6  -0.1                          T                 .8  .24 Ml 1.7         4704028

.
EVENT     259961
    Date      Time       Latitude Longitude    Depth    Ndef Nsta Gap    Mag1  N    Mag2  N    Mag3  N   Author         ID
       rms   OT_Error      Smajor Sminor Az        Err   mdist  Mdist     Err        Err        Err      Quality

2011/06/04 16:12:02.2     43.9558   12.1175      2.0      96   26 056  Ml 3.6 18                         js067245    259961

      1.23   +-  0.21       5.9    3.2  163.40 +-  0.0    0.29   9.03   +-0.3                            m i ke

CENTRAL ITALY
Sta     Dist  EvAz     Phase      Date       Time     TRes  Azim  AzRes  Slow  SRes Def   SNR       Amp   Per   Mag1   Mag2       ID
PGF   002.68 239.4 m E Pn      2011/06/04 16:12:43.3  -1.3                          T   001.0                                4701708
PGF   002.68 239.4 m E Sn      2011/06/04 16:13:14.4  -1.3                          T   001.0       25.2  .28 Ml 3.5         4701709
SBF   003.39 270.0 m E Pn      2011/06/04 16:12:52.7  -1.4                          T   001.0                                4701710
SBF   003.39 270.0 m E Sn      2011/06/04 16:13:32.2  -0.3                          T               99.9  .39 Ml 3.9         4704044
FRF   003.98 266.2 m E Pn      2011/06/04 16:13:01.6  -0.6                          T   001.0                                4701698
FRF   003.98 266.2 m E Sn      2011/06/04 16:13:45.0  -1.7                          T   001.0       37.7  .40 Ml 3.7         4701699
MBDF  003.91 283.2 m E Pn      2011/06/04 16:13:01.9   0.5                          T   001.0                                4701717
MBDF  003.91 283.2 m E Sn      2011/06/04 16:13:46.5   1.3                          T   001.0       51.9  .52 Ml 3.6         4701718
LMR   004.12 263.3 m E Pn      2011/06/04 16:13:03.1  -0.9                          T   001.0                                4701704
LMR   004.12 263.3 m E Sn      2011/06/04 16:13:48.5  -1.4                          T   001.0       16.1  .32 Ml 3.4         4701705
LPG   004.12 293.8 m E Pn      2011/06/04 16:13:05.4   0.9                          T   001.0                                4701706
LPG   004.12 293.8 m E Sn      2011/06/04 16:13:50.2  -0.3                          T               27.5  .54 Ml 3.4         4704043
LPL   004.14 294.0 m E Pn      2011/06/04 16:13:06.4   1.7                          T   001.0                                4701707
ORIF  004.57 284.3 m E Pn      2011/06/04 16:13:11.2   0.9                          T   001.0                                4701721
SMRF  004.72 272.5 m E Pn      2011/06/04 16:13:12.4   0.1                          T   001.0                                4701724
SMRF  004.72 272.5 m E Sn      2011/06/04 16:14:05.1   0.7                          T   001.0       15.4  .44 Ml 3.4         4701725
CABF  005.02 304.1 m E Pn      2011/06/04 16:13:17.3   0.9                          T   001.0                                4701715
CABF  005.02 304.1 m E Sn      2011/06/04 16:14:12.2   0.7                          T   001.0       27.8  .60 Ml 3.5         4701716
VIVF  005.41 282.2 m E Pn      2011/06/04 16:13:21.5  -0.2                          T   001.0                                4701722
VIVF  005.41 282.2 m E Sn      2011/06/04 16:14:20.8  -0.1                          T   001.0        6.8  .48 Ml 3.1         4701723
HINF  005.33 318.3 m E Pn      2011/06/04 16:13:21.8   1.2                          T                                        4704046
HINF  005.33 318.3 m E Sn      2011/06/04 16:14:19.0   0.0                          T               39.1  .42 Ml 3.9         4704041
CDF   005.58 324.7 m E Pn      2011/06/04 16:13:25.0   0.9                          T   001.0                                4701697
CDF   005.58 324.7 m E Sn      2011/06/04 16:14:25.9   0.8                          T               38.4  .43 Ml 4.1         4704038
HAU   005.71 317.2 m E Pn      2011/06/04 16:13:26.7   1.0                          T   001.0                                4701700
HAU   005.71 317.2 m E Sn      2011/06/04 16:14:28.3   0.4                          T               71.4  .44 Ml 4.0         4704040
LASF  005.96 274.0 m E Pn      2011/06/04 16:13:29.9   0.8                          T   001.0                                4701702
LASF  005.96 274.0 m E Sn      2011/06/04 16:14:33.7  -0.3                          T   001.0        4.6  .48 Ml 3.1         4701703
SMF   006.43 297.6 m E Pn      2011/06/04 16:13:36.7   1.2                          T   001.0                                4701711
SMF   006.43 297.6 m E Sn      2011/06/04 16:14:45.9   0.7                          T               19.8  .52 Ml 3.8         4704042
PAGF  006.39 318.3 m E Pn      2011/06/04 16:13:37.3   2.3 126.0  -7.7              T                                        4704047
PAGF  006.39 318.3 m E Sn      2011/06/04 16:14:44.5   0.4                          T                8.9  .61 Ml 3.3         4704039
LOR   006.67 302.6 m E Pn      2011/06/04 16:13:39.0   0.1 125.4  8.7               T                                        4704048
LOR   006.67 302.6 m E Sn      2011/06/04 16:14:51.5   0.5                          T               31.8  .43 Ml 4.1         4704036
MEZF  006.68 315.3 m E Pn      2011/06/04 16:13:39.9   0.9 137.4  7.1               T   001.0                                4701719
SSF   006.80 300.2 m E Pn      2011/06/04 16:13:40.0   0.4                          T   001.0                                4701712
SSF   006.80 300.2 m E Sn      2011/06/04 16:14:54.0   0.0                          T   001.0       13.2  .60 Ml 3.7         4701713
AVF   006.79 297.7 m E Pn      2011/06/04 16:13:41.5   1.0                          T   001.0                                4701694
BGF   007.04 294.9 m E Pn      2011/06/04 16:13:45.0   1.1                          T   001.0                                4701695
MTLF  007.21 268.5 m E Pn      2011/06/04 16:13:45.6  -0.6                          T   001.0                                4701720
CAF   007.26 281.2 m E Pn      2011/06/04 16:13:47.5   0.6                          T   001.0                                4701696
TCF   007.39 291.9 m E Pn      2011/06/04 16:13:50.1   1.5                          T   001.0                                4701714
TCF   007.39 291.9 m E Sn      2011/06/04 16:15:08.0  -0.1                          T                8.4  .50 Ml 3.6         4704037
EPF   008.61 267.9 m E Pn      2011/06/04 16:14:06.0   0.7                          T                                        4704045

.
EVENT     259962
    Date      Time       Latitude Longitude    Depth    Ndef Nsta Gap    Mag1  N    Mag2  N    Mag3  N   Author         ID
       rms   OT_Error      Smajor Sminor Az        Err   mdist  Mdist     Err        Err        Err      Quality

2011/06/04 16:24:46.6     43.8237   12.0901      2.0      57   23 079  Ml 3.4 15                         js067245    259962

      1.30   +-  0.22       5.7    4.7  178.09 +-  0.0    0.19   8.24   +-0.3                            m i ke

CENTRAL ITALY
Sta     Dist  EvAz     Phase      Date       Time     TRes  Azim  AzRes  Slow  SRes Def   SNR       Amp   Per   Mag1   Mag2       ID
PGF   002.60 241.6 m E Pg      2011/06/04 16:25:27.3  -7.6                          T   001.0                                4701770
PGF   002.60 241.6 m E Sg      2011/06/04 16:25:56.1 -12.1                          T   001.0       13.8  .32                4701771
SBF   003.37 272.3 m E Pn      2011/06/04 16:25:37.4  -1.0                          T   001.0                                4701772
SBF   003.37 272.3 m E Sn      2011/06/04 16:26:13.5  -3.1                          T   001.0       65.4  .56                4701773
FRF   003.96 268.1 m E Pn      2011/06/04 16:25:46.4   0.1                          T   001.0                                4701762
FRF   003.96 268.1 m E Sn      2011/06/04 16:26:29.9  -0.6                          T               11.3  .31 Ml 3.2         4704057
MBDF  003.93 285.1 m E Pn      2011/06/04 16:25:46.8   0.7                          T                                        4704059
MBDF  003.93 285.1 m E Sn      2011/06/04 16:26:30.5   0.5                          T               30.1  .62 Ml 3.3         4704056
LMR   004.08 265.0 m E Pn      2011/06/04 16:25:46.9  -1.1                          T   001.0                                4701764
LMR   004.08 265.0 m E Sn      2011/06/04 16:26:32.5  -1.1                          T                8.7  .44 Ml 3.0         4704058
LPL   004.18 295.7 m E Pn      2011/06/04 16:25:50.3   0.7                          T   001.0                                4701768
LPL   004.18 295.7 m E Sn      2011/06/04 16:26:36.6   0.4                          T   001.0       13.3  .40                4701769
LPG   004.16 295.6 m E Pn      2011/06/04 16:25:50.4   1.0                          T   001.0                                4701767
ORIF  004.58 286.0 m E Pn      2011/06/04 16:25:56.0   1.1                          T   001.0                                4701781
ORIF  004.58 286.0 m E Sn      2011/06/04 16:26:45.5  -0.2                          T   001.0       11.4  .52                4701782
SMRF  004.71 274.1 m E Pn      2011/06/04 16:25:56.9   0.3                          T   001.0                                4701783
SMRF  004.71 274.1 m E Sn      2011/06/04 16:26:47.6  -1.0                          T   001.0          8  .44                4701784
CABF  005.07 305.4 m E Pn      2011/06/04 16:26:03.1   1.4                          T   001.0                                4701777
CABF  005.07 305.4 m E Sn      2011/06/04 16:26:57.9   0.5                          T   001.0       11.8  .56                4701778
VIVF  005.42 283.5 m E Pn      2011/06/04 16:26:06.0  -0.3                          T                                        4704060
HINF  005.42 319.3 m E Pn      2011/06/04 16:26:07.5   1.3                          T   001.0                                4701779
HINF  005.42 319.3 m E Sn      2011/06/04 16:27:05.9   0.4                          T               15.2  .40 Ml 3.5         4704054
CDF   005.68 325.6 m E Pn      2011/06/04 16:26:10.0   1.1                          T   001.0                                4701761
CDF   005.68 325.6 m E Sn      2011/06/04 16:27:12.1   0.3                          T               15.3  .33 Ml 3.8         4704052
HAU   005.79 318.2 m E Pn      2011/06/04 16:26:12.0   0.7                          T   001.0                                4701763
HAU   005.79 318.2 m E Sn      2011/06/04 16:27:14.9   0.5                          T               41.4  .38 Ml 3.9         4704053
LASF  005.95 275.3 m E Pn      2011/06/04 16:26:13.1  -0.3                          T                                        4704061
SMF   006.47 298.7 m E Pn      2011/06/04 16:26:21.5   1.0                          T   001.0                                4701774
SMF   006.47 298.7 m E Sn      2011/06/04 16:27:31.1   0.4                          T                5.1  .40 Ml 3.3         4704055
LOR   006.73 303.7 m E Pn      2011/06/04 16:26:25.0   0.9 124.7  6.9               T   001.0                                4701765
LOR   006.73 303.7 m E Sn      2011/06/04 16:27:38.0   1.2                          T   001.0       13.6  .40                4701766
AVF   006.84 298.7 m E Pn      2011/06/04 16:26:26.2   0.7                          T   001.0                                4701758
BGF   007.08 295.9 m E Pn      2011/06/04 16:26:30.0   1.2                          T   001.0                                4701759
MTLF  007.19 269.6 m E Pn      2011/06/04 16:26:30.5   0.2                          T   001.0                                4701780
CAF   007.27 282.2 m E Pn      2011/06/04 16:26:31.5   0.1                          T   001.0                                4701760
BAIF  008.24 321.9 m E Pn      2011/06/04 16:26:45.1   0.5                          T   001.0                                4701776
SSF   006.85 301.2 m E Sn      2011/06/04 16:27:40.7   1.0                          T   001.0        5.3  .36                4701775

.
EVENT     259963
    Date      Time       Latitude Longitude    Depth    Ndef Nsta Gap    Mag1  N    Mag2  N    Mag3  N   Author         ID
       rms   OT_Error      Smajor Sminor Az        Err   mdist  Mdist     Err        Err        Err      Quality

2011/06/04 17:16:19.5     43.6961   12.2240     30.0      43   19 106                                    js067245    259963

                                               +-         0.05   7.28                                    m i ke

CENTRAL ITALY
Sta     Dist  EvAz     Phase      Date       Time     TRes  Azim  AzRes  Slow  SRes Def   SNR       Amp   Per   Mag1   Mag2       ID
PGF   002.62 245.2 m E Pn      2011/06/04 17:16:59.5   0.9                          T                                        4704067
PGF   002.62 245.2 m E Sn      2011/06/04 17:17:27.3  -0.3                          T               15.2  .39                4704066
FRF   004.05 270.0 m E Pn      2011/06/04 17:17:17.4  -0.5                          T   001.0                                4701814
FRF   004.05 270.0 m E Sg      2011/06/04 17:18:00.1  -1.4                          T   001.0       16.9  .52                4701815
LMR   004.17 267.0 m E Pn      2011/06/04 17:17:18.9  -0.6                          T   001.0                                4701817
LMR   004.17 267.0 m E Sg      2011/06/04 17:18:04.1  -0.3                          T   001.0       12.5  .72                4701818
LPL   004.32 296.8 m E Pn      2011/06/04 17:17:21.9   0.1                          T   001.0                                4701821
LPG   004.30 296.6 m E Pn      2011/06/04 17:17:21.9   0.3                          T                                        4704068
LPG   004.30 296.6 m E Sg      2011/06/04 17:18:07.7  -0.2                          T   001.0        9.5  .52                4701820
ORIF  004.71 287.2 m E Pn      2011/06/04 17:17:27.5   0.5                          T                                        4704069
SMRF  004.82 275.6 m E Pn      2011/06/04 17:17:28.9   0.6                          T   001.0                                4701828
SMRF  004.82 275.6 m E Sg      2011/06/04 17:18:21.6   1.8                          T   001.0        5.9  .48                4701829
CABF  005.23 306.0 m E Pn      2011/06/04 17:17:34.1   0.1                          T   001.0                                4701824
VIVF  005.54 284.7 m E Pn      2011/06/04 17:17:38.0  -0.2                          T   001.0                                4701827
HINF  005.58 319.5 m E Pn      2011/06/04 17:17:38.4  -0.2                          T   001.0                                4701825
HINF  005.58 319.5 m E Sn      2011/06/04 17:18:37.9  -0.1                          T               16.8  .60                4704064
HAU   005.95 318.5 m E Pn      2011/06/04 17:17:43.2  -0.6                          T                                        4704071
HAU   005.95 318.5 m E Sn      2011/06/04 17:18:46.7  -0.2                          T               21.3  .42                4704063
LASF  006.06 276.5 m E Pn      2011/06/04 17:17:44.5  -0.7                          T   001.0                                4701816
SMF   006.62 299.4 m E Pn      2011/06/04 17:17:53.3   0.5                          T   001.0                                4701822
AVF   006.98 299.4 m E Pn      2011/06/04 17:17:55.0  -1.7                          T   001.0                                4701813
LOR   006.88 304.2 m E Pn      2011/06/04 17:17:56.7   0.4 123.8  5.5               T   001.0                                4701819
LOR   006.88 304.2 m E Sn      2011/06/04 17:19:09.0  -0.1                          T                6.7  .42                4704062
SSF   007.00 301.8 m E Pn      2011/06/04 17:17:57.5  -0.5                          T   001.0                                4701823
BGF   007.22 296.6 m E Pn      2011/06/04 17:18:01.4   0.3                          T                                        4704070
MBDF  004.05 286.6 m E Sn      2011/06/04 17:18:01.9   0.2                          T               27.5  .62                4704065
MTLF  007.28 270.7 m E Pn      2011/06/04 17:18:02.2   0.3                          T   001.0                                4701826

.
