EVENT     259941
    Date      Time       Latitude Longitude    Depth    Ndef Nsta Gap    Mag1  N    Mag2  N    Mag3  N   Author         ID
       rms   OT_Error      Smajor Sminor Az        Err   mdist  Mdist     Err        Err        Err      Quality

2011/06/01 14:29:26.5     47.9948    6.4082       .0 f     8    5 128  Ml 1.6  2  Md 1.7  1              js067245    259941

      0.19   +-  0.08       2.0    1.6    2.44 +-  0.0    0.04   1.40   +-0.3      +-                    m i km

FRANCE
Sta     Dist  EvAz     Phase      Date       Time     TRes  Azim  AzRes  Slow  SRes Def   SNR       Amp   Per   Mag1   Mag2       ID
HAU   000.04 285.0 m E Pg      2011/06/01 14:29:27.7   0.1                          T                                        4703703
HAU   000.04 285.0 m E Sg      2011/06/01 14:29:28.3   0.0                          T              112.6  .46        Md 1.7  4703704
HINF  000.35 120.6 m E Pg      2011/06/01 14:29:33.5   0.0                          T                                        4703699
HINF  000.35 120.6 m E Sg      2011/06/01 14:29:38.8   0.4                          T               35.3  .91                4703700
CDF   000.72 053.9 m E Pg      2011/06/01 14:29:40.2  -0.1                          T                                        4703701
CDF   000.72 053.9 m E Sg      2011/06/01 14:29:49.8   0.0                          T                2.2  .30                4703702
SFTF  000.94 283.4 m E Sn      2011/06/01 14:29:59.1   0.0                          T                3.1  .28 Ml 1.8         4703697
CABF  001.40 189.1 m E Sg      2011/06/01 14:30:10.9  -0.4                          T                 .7  .28 Ml 1.4         4703698

.
EVENT     259943
    Date      Time       Latitude Longitude    Depth    Ndef Nsta Gap    Mag1  N    Mag2  N    Mag3  N   Author         ID
       rms   OT_Error      Smajor Sminor Az        Err   mdist  Mdist     Err        Err        Err      Quality

2011/06/01 15:43:30.3     49.4605     .7230      3.0 f    25   12 246  Ml 2.4 13  Md 2.4  2              js067245    259943

      0.44   +-  0.16       3.3    1.5   10.62 +-  0.0    1.03   3.62   +-0.1      +-0.0                 m i ke

FRANCE
Sta     Dist  EvAz     Phase      Date       Time     TRes  Azim  AzRes  Slow  SRes Def   SNR       Amp   Per   Mag1   Mag2       ID
LDF   001.03 213.0 m E Pg      2011/06/01 15:43:49.8   0.1                          T                                        4703727
LDF   001.03 213.0 m E Sg      2011/06/01 15:44:03.4   0.3                          T                7.6  .23 Ml 2.3 Md 2.4  4703728
FLN   001.06 229.0 m E Pg      2011/06/01 15:43:50.1   0.0                          T                                        4703729
FLN   001.06 229.0 m E Sg      2011/06/01 15:44:04.1   0.2                          T                7.6  .21 Ml 2.2 Md 2.4  4703730
GRR   001.50 224.8 m E Pn      2011/06/01 15:43:56.4   0.0                          T                                        4703725
GRR   001.50 224.8 m E Pg      2011/06/01 15:43:58.1  -0.1                          T                                        4703724
GRR   001.50 224.8 m E Sg      2011/06/01 15:44:17.8   0.3                          T                4.0  .17 Ml 2.3         4703726
SGMF  002.48 242.1 m E Pn      2011/06/01 15:44:09.8   0.1                          T                                        4703722
SGMF  002.48 242.1 m E Pg      2011/06/01 15:44:16.3   0.0                          T                                        4703732
SGMF  002.48 242.1 m E Sg      2011/06/01 15:44:48.0  -0.3                          T                1.9  .22 Ml 2.3         4703718
ROSF  002.87 248.4 m E Pn      2011/06/01 15:44:15.0   0.0                          T                                        4703721
ROSF  002.87 248.4 m E Pg      2011/06/01 15:44:23.4  -0.1                          T                                        4703731
ROSF  002.87 248.4 m E Sg      2011/06/01 15:45:00.4   0.0                          T                1.3  .21 Ml 2.2         4703717
QUIF  003.00 240.5 m E Pn      2011/06/01 15:44:16.9   0.0                          T                                        4703723
QUIF  003.00 240.5 m E Sg      2011/06/01 15:45:04.1  -0.4                          T                1.8  .24 Ml 2.3         4703719
LOR   003.03 135.2 m E Pn      2011/06/01 15:44:17.2  -0.2                          T                                        4703710
LOR   003.03 135.2 m E Sg      2011/06/01 15:45:04.0  -1.5                          T                1.9  .23 Ml 2.4         4703712
SSF   003.04 141.2 m E Pg      2011/06/01 15:44:27.1   0.5                          T                                        4703708
SSF   003.04 141.2 m E Sg      2011/06/01 15:45:03.9  -1.8                          T                2.3  .23 Ml 2.5         4703713
MFF   002.92 191.8 m E Sg      2011/06/01 15:45:01.2  -0.7                          T                1.4  .20 Ml 2.4         4703720
AVF   003.20 145.6 m E Sg      2011/06/01 15:45:08.8  -1.9                          T                1.4  .24 Ml 2.2         4703714
TCF   003.33 161.9 m E Sg      2011/06/01 15:45:14.2  -0.5                          T                2.5  .19 Ml 2.7         4703711
SMF   003.51 142.2 m E Sg      2011/06/01 15:45:20.4   0.1                          T                1.2  .21 Ml 2.3         4703715

.
EVENT     259944
    Date      Time       Latitude Longitude    Depth    Ndef Nsta Gap    Mag1  N    Mag2  N    Mag3  N   Author         ID
       rms   OT_Error      Smajor Sminor Az        Err   mdist  Mdist     Err        Err        Err      Quality

2011/06/01 16:34:52.1     44.6276    7.2580      2.0      18    9 192  Ml 1.7  7  Md 1.6  1              js067245    259944

      0.23   +-  0.10       2.2     .9   74.03 +-  0.0    0.30   1.86   +-0.4      +-                    m i ke

NORTHERN ITALY
Sta     Dist  EvAz     Phase      Date       Time     TRes  Azim  AzRes  Slow  SRes Def   SNR       Amp   Per   Mag1   Mag2       ID
MBDF  000.36 286.1 m E Pg      2011/06/01 16:34:59.5   0.2                          T                                        4703747
MBDF  000.36 286.1 m E Sg      2011/06/01 16:35:03.7  -0.4                          T                7.9  .26        Md 1.6  4703748
SBF   000.77 170.5 m E Pg      2011/06/01 16:35:06.1  -0.7                          T                                        4703742
SBF   000.77 170.5 m E Sg      2011/06/01 16:35:16.9   0.1                          T                1.0  .19                4703740
LPG   000.94 337.8 m E Pg      2011/06/01 16:35:10.1   0.0                          T                                        4703744
LPG   000.94 337.8 m E Sg      2011/06/01 16:35:22.4   0.1                          T                2.2  .23 Ml 1.8         4703736
LPL   000.96 337.4 m E Pg      2011/06/01 16:35:10.4  -0.1                          T                                        4703745
LPL   000.96 337.4 m E Sg      2011/06/01 16:35:22.5  -0.5                          T                2.5  .21 Ml 1.9         4703735
ORIF  001.02 287.0 m E Pg      2011/06/01 16:35:11.3  -0.1                          T                                        4703746
ORIF  001.02 287.0 m E Sg      2011/06/01 16:35:24.4  -0.3                          T                 .7  .15 Ml 1.5         4703734
FRF   001.15 202.6 m E Pg      2011/06/01 16:35:13.6   0.0                          T                                        4703743
FRF   001.15 202.6 m E Sg      2011/06/01 16:35:28.6   0.0                          T                4.0  .24 Ml 2.1         4703738
LMR   001.40 202.9 m E Pg      2011/06/01 16:35:17.9  -0.3                          T                                        4703741
LMR   001.40 202.9 m E Sg      2011/06/01 16:35:36.5   0.2                          T                2.6  .23 Ml 2.1         4703739
SMRF  001.37 242.3 m E Sg      2011/06/01 16:35:35.6   0.1                          T                 .6  .28 Ml 1.4         4703737
VIVF  001.86 278.0 m E Sg      2011/06/01 16:35:50.6   0.0                          T                 .2  .19 Ml 1.1         4703733

.
EVENT     259945
    Date      Time       Latitude Longitude    Depth    Ndef Nsta Gap    Mag1  N    Mag2  N    Mag3  N   Author         ID
       rms   OT_Error      Smajor Sminor Az        Err   mdist  Mdist     Err        Err        Err      Quality

2011/06/01 17:06:45.7     43.3082   -1.1546      2.0       6    3 268  Ml 1.3  1  Md 1.3  2              js067245    259945

      0.16   +-  0.33       6.9    2.6  153.33 +-  0.0    0.20   1.13   +-         +-0.2                 m i ke

PYRENEES
Sta     Dist  EvAz     Phase      Date       Time     TRes  Azim  AzRes  Slow  SRes Def   SNR       Amp   Per   Mag1   Mag2       ID
SJPF  000.20 194.8 m E Pg      2011/06/01 17:06:49.9   0.1                          T                                        4703753
SJPF  000.20 194.8 m E Sg      2011/06/01 17:06:52.5  -0.1                          T               12.8  .26        Md 1.4  4703754
ETSF  000.60 133.0 m E Pg      2011/06/01 17:06:56.9  -0.2                          T                                        4703751
ETSF  000.60 133.0 m E Sg      2011/06/01 17:07:05.2   0.3                          T                  1  .25        Md 1.1  4703752
EPF   001.13 103.7 m E Pg      2011/06/01 17:07:06.9   0.1                          T                                        4703749
EPF   001.13 103.7 m E Sg      2011/06/01 17:07:21.6   0.1                          T                 .6  .21 Ml 1.3         4703750

.
EVENT     259946
    Date      Time       Latitude Longitude    Depth    Ndef Nsta Gap    Mag1  N    Mag2  N    Mag3  N   Author         ID
       rms   OT_Error      Smajor Sminor Az        Err   mdist  Mdist     Err        Err        Err      Quality

2011/06/01 18:17:24.7     49.4691     .7398      2.0      14    7 247  Ml 1.9  5  Md 1.9  2              js067245    259946

      0.23   +-  0.16       4.1    2.4  168.61 +-  0.0    1.04   3.03   +-0.1      +-0.1                 m i ke

FRANCE
Sta     Dist  EvAz     Phase      Date       Time     TRes  Azim  AzRes  Slow  SRes Def   SNR       Amp   Per   Mag1   Mag2       ID
LDF   001.04 213.2 m E Pg      2011/06/01 18:17:44.4   0.1                          T                                        4703767
LDF   001.04 213.2 m E Sg      2011/06/01 18:17:58.0   0.2                          T                6.3  .32 Ml 2.1 Md 1.9  4703768
FLN   001.07 229.1 m E Pg      2011/06/01 18:17:44.6  -0.1  49.1  0.9               T                                        4703760
FLN   001.07 229.1 m E Pn      2011/06/01 18:17:44.8  -0.2                          T                                        4703761
FLN   001.07 229.1 m E Sg      2011/06/01 18:17:58.6   0.0                          T                2.8  .20 Ml 1.8 Md 2.0  4703758
GRR   001.51 224.9 m E Pn      2011/06/01 18:17:51.0   0.0                          T                                        4703759
GRR   001.51 224.9 m E Sg      2011/06/01 18:18:12.5   0.2                          T                1.8  .19 Ml 1.9         4703757
SGMF  002.49 242.1 m E Pn      2011/06/01 18:18:04.9   0.5                          T                                        4703763
SGMF  002.49 242.1 m E Pg      2011/06/01 18:18:10.9   0.0                          T                                        4703762
SGMF  002.49 242.1 m E Sg      2011/06/01 18:18:42.6  -0.5                          T                 .7  .20 Ml 1.8         4703756
ROSF  002.88 248.3 m E Pn      2011/06/01 18:18:09.7   0.0                          T                                        4703764
QUIF  003.02 240.5 m E Pn      2011/06/01 18:18:11.4  -0.1                          T                                        4703766
LOR   003.03 135.5 m E Pn      2011/06/01 18:18:11.7   0.0                          T                                        4703765
LOR   003.03 135.5 m E Sg      2011/06/01 18:18:58.5  -1.3                          T                 .5  .13 Ml 2.0         4703755

.
EVENT     259947
    Date      Time       Latitude Longitude    Depth    Ndef Nsta Gap    Mag1  N    Mag2  N    Mag3  N   Author         ID
       rms   OT_Error      Smajor Sminor Az        Err   mdist  Mdist     Err        Err        Err      Quality

2011/06/01 22:52:37.2     43.0277    -.0633      2.0      40    7 095  Ml 1.9  5  Md 2.1  2              js067245    259947

      0.51   +-  0.08       2.0    1.0  174.85 +-  0.0    0.30   2.54   +-0.1      +-0.1                 m i ke

PYRENEES
Sta     Dist  EvAz     Phase      Date       Time     TRes  Azim  AzRes  Slow  SRes Def   SNR       Amp   Per   Mag1   Mag2       ID
EPF   000.30 089.4 m E Pg      2011/06/01 22:52:43.2   0.2                          T                                        4703771
EPF   000.30 089.4 m E Sg      2011/06/01 22:52:47.9   0.9                          T               22.1  .22        Md 2.2  4703772
ETSF  000.39 250.7 m E Pg      2011/06/01 22:52:44.5  -0.3                          T                                        4703769
ETSF  000.39 250.7 m E Sg      2011/06/01 22:52:49.3  -0.5                          T               15.6  .24        Md 2.0  4703770
SJPF  000.86 276.1 m E Pg      2011/06/01 22:52:53.3   0.1                          T                                        4703778
SJPF  000.86 276.1 m E Sg      2011/06/01 22:53:04.5   0.1                          T                3.4  .22 Ml 1.9         4703779
MTLF  001.70 078.6 m E Pg      2011/06/01 22:53:08.8   0.0                          T                                        4703776
MTLF  001.70 078.6 m E Sg      2011/06/01 22:53:30.9   0.2                          T                1.8  .27 Ml 2.0         4703777
LFF   002.00 016.6 m E Sg      2011/06/01 22:53:40.2   0.2                          T                2.4  .26 Ml 2.0         4703775
CAF   002.44 038.3 m E Sg      2011/06/01 22:53:53.8  -0.1                          T                 .9  .23 Ml 1.9         4703774
RJF   002.54 026.0 m E Sg      2011/06/01 22:53:56.9  -0.2                          T                  1  .21 Ml 1.7         4703773

.
EVENT     259948
    Date      Time       Latitude Longitude    Depth    Ndef Nsta Gap    Mag1  N    Mag2  N    Mag3  N   Author         ID
       rms   OT_Error      Smajor Sminor Az        Err   mdist  Mdist     Err        Err        Err      Quality

2011/06/01 23:48:24.0     44.7546    6.7544      2.0       6    3 156             Md 1.1  2              js067245    259948

      0.35   +-  0.23       6.1    5.5   73.94 +-  0.0    0.03   0.74              +-0.3                 m i ke

FRANCE
Sta     Dist  EvAz     Phase      Date       Time     TRes  Azim  AzRes  Slow  SRes Def   SNR       Amp   Per   Mag1   Mag2       ID
MBDF  000.03 156.3 m E Pg      2011/06/01 23:48:25.0  -0.3                          T                                        4703800
MBDF  000.03 156.3 m E Sg      2011/06/01 23:48:26.1   0.1                          T               39.2  .18        Md 1.3  4703801
ORIF  000.64 285.0 m E Pg      2011/06/01 23:48:36.3   0.0                          T                                        4703798
ORIF  000.64 285.0 m E Sg      2011/06/01 23:48:44.8   0.0                          T                1.7  .22        Md 1.0  4703799
LPG   000.74 359.8 m E Pg      2011/06/01 23:48:38.8   0.3                          T                                        4703796
LPG   000.74 359.8 m E Sg      2011/06/01 23:48:47.3  -0.8                          T                 .7  .19                4703797

.
EVENT     259949
    Date      Time       Latitude Longitude    Depth    Ndef Nsta Gap    Mag1  N    Mag2  N    Mag3  N   Author         ID
       rms   OT_Error      Smajor Sminor Az        Err   mdist  Mdist     Err        Err        Err      Quality

2011/06/02 07:38:11.8     42.7102    -.2839      2.0       6    3 245             Md 1.2  2              js067245    259949

      0.27   +-  0.48      13.6    2.8    1.18 +-  0.0    0.28   0.80              +-0.3                 m i ke

PYRENEES
Sta     Dist  EvAz     Phase      Date       Time     TRes  Azim  AzRes  Slow  SRes Def   SNR       Amp   Per   Mag1   Mag2       ID
ETSF  000.28 313.0 m E Pg      2011/06/02 07:38:17.4   0.1                          T                                        4703806
ETSF  000.28 313.0 m E Sg      2011/06/02 07:38:20.5  -0.6                          T                4.2  .24        Md 1.5  4703807
EPF   000.56 054.9 m E Pg      2011/06/02 07:38:22.3  -0.2                          T                                        4703804
EPF   000.56 054.9 m E Sg      2011/06/02 07:38:30.3   0.5                          T                2.0  .28        Md 1.0  4703805
SJPF  000.80 300.5 m E Pg      2011/06/02 07:38:26.9   0.0                          T                                        4703802
SJPF  000.80 300.5 m E Sg      2011/06/02 07:38:37.5   0.3                          T                 .7  .25                4703803

.
EVENT     259950
    Date      Time       Latitude Longitude    Depth    Ndef Nsta Gap    Mag1  N    Mag2  N    Mag3  N   Author         ID
       rms   OT_Error      Smajor Sminor Az        Err   mdist  Mdist     Err        Err        Err      Quality

2011/06/02 09:36:03.7     50.0337   -3.0750     15.0 f    11    6 301  Ml 2.2  5                         js067245    259950

      2.06   +-  0.60       9.6    8.0  162.37 +-  0.0    1.70   2.41   +-0.1                            m i ke

UNITED KINGDOM
Sta     Dist  EvAz     Phase      Date       Time     TRes  Azim  AzRes  Slow  SRes Def   SNR       Amp   Per   Mag1   Mag2       ID
ROSF  001.70 184.5 m E Pn      2011/06/02 09:36:31.3   0.1                          T                                        4703811
ROSF  001.70 184.5 m E Sg      2011/06/02 09:36:57.9   0.4                          T                4.4  .29 Ml 2.3         4703813
SGMF  001.81 169.0 m E Pn      2011/06/02 09:36:32.7  -0.1                          T                                        4703810
SGMF  001.81 169.0 m E Sg      2011/06/02 09:37:01.1   0.1                          T                                        4703814
FLN   002.12 125.9 m E P       2011/06/02 09:36:40.1   0.8 308.9  1.0               T                                        4703812
FLN   002.12 125.9 m E Sg      2011/06/02 09:37:09.6  -0.9 293.3  -14.6             T                2.1  .22 Ml 2.1         4703816
QUIF  002.12 181.6 m E Sg      2011/06/02 09:37:10.7   0.2                          T                2.7  .23 Ml 2.3         4703815
GRR   002.20 137.7 m E Sg      2011/06/02 09:37:13.6   0.7                          T                3.8  .25 Ml 2.3         4703818
LDF   002.41 125.6 m E Sg      2011/06/02 09:37:19.2  -0.4                          T                1.8  .29 Ml 2.1         4703817

.
