EVENT     264613
    Date      Time       Latitude Longitude    Depth    Ndef Nsta Gap    Mag1  N    Mag2  N    Mag3  N   Author         ID
       rms   OT_Error      Smajor Sminor Az        Err   mdist  Mdist     Err        Err        Err      Quality

2011/10/02 06:27:49.6     46.9366    4.7659     13.0 f    79   31 054  Ml 2.7 28  Md 3.0  3              js067245    264633

      0.52   +-  0.04       1.0     .7  145.25 +-  0.0    0.70   4.07   +-0.3      +-0.1                 m i ke

FRANCE
Sta     Dist  EvAz     Phase      Date       Time     TRes  Azim  AzRes  Slow  SRes Def   SNR       Amp   Per   Mag1   Mag2       ID
LOR   000.70 298.5 m E Pg      2011/10/02 06:28:03.5   0.4 119.0  1.2               T   001.0                                4763503
LOR   000.70 298.5 m E Sg      2011/10/02 06:28:12.4   0.0 125.2  7.4               T   001.0      140.2  .20        Md 3.1  4763504
SMF   000.70 245.7 m E Pg      2011/10/02 06:28:03.6   0.6                          T   001.0                                4763509
SMF   000.70 245.7 m E Sg      2011/10/02 06:28:12.4   0.1                          T   001.0       96.9  .32        Md 3.0  4763510
SSF   000.87 278.7 m E Pg      2011/10/02 06:28:05.8  -0.4                          T                                        4764063
SSF   000.87 278.7 m E Pn      2011/10/02 06:28:06.4   0.4                          T   001.0                                4763511
SSF   000.87 278.7 m E Sg      2011/10/02 06:28:17.4  -0.1                          T   001.0       32.8  .18 Ml 3.1 Md 3.0  4763512
CABF  000.96 109.2 m E Pn      2011/10/02 06:28:06.9  -0.5                          T   001.0                                4763517
CABF  000.96 109.2 m E Pg      2011/10/02 06:28:08.3   0.4                          T                                        4764072
CABF  000.96 109.2 m E Sg      2011/10/02 06:28:20.6   0.0                          T               32.8  .22 Ml 3.0         4764060
AVF   000.98 261.9 m E Pn      2011/10/02 06:28:07.3  -0.2                          T   001.0                                4763491
AVF   000.98 261.9 m E Pg      2011/10/02 06:28:08.2   0.1                          T                                        4764073
AVF   000.98 261.9 m E Sn      2011/10/02 06:28:20.4  -0.1                          T                                        4770098
AVF   000.98 261.9 m E Sg      2011/10/02 06:28:20.8  -0.2                          T   001.0       13.3  .26 Ml 2.5         4763492
SFTF  001.28 008.2 m E Pn      2011/10/02 06:28:11.5  -0.2                          T                                        4764062
SFTF  001.28 008.2 m E Pg      2011/10/02 06:28:13.7   0.0 182.5  -5.8              T                                        4770095
SFTF  001.28 008.2 m E Sn      2011/10/02 06:28:27.6   0.0                          T                                        4770099
SFTF  001.28 008.2 m E Sg      2011/10/02 06:28:30.0  -0.3                          T               27.7  .27 Ml 3.0         4764067
BGF   001.37 254.7 m E Pn      2011/10/02 06:28:12.9   0.0                          T   001.0                                4763493
BGF   001.37 254.7 m E Pg      2011/10/02 06:28:15.2  -0.1                          T                                        4764074
BGF   001.37 254.7 m E Sn      2011/10/02 06:28:29.9   0.1                          T               22.2  .31 Ml 2.8         4770097
BGF   001.37 254.7 m E Sg      2011/10/02 06:28:33.0  -0.2                          T   001.0       33.1  .30 Ml 3.0         4763494
HAU   001.52 044.5 m E Pn      2011/10/02 06:28:13.3  -1.5                          T   001.0                                4763498
HAU   001.52 044.5 m E Pg      2011/10/02 06:28:18.1   0.1                          T   001.0                                4763499
HAU   001.52 044.5 m E Sn      2011/10/02 06:28:33.5   0.3                          T   001.0                                4763500
HAU   001.52 044.5 m E Sg      2011/10/02 06:28:37.5  -0.1                          T   001.0       23.6  .24 Ml 2.8         4763501
HYF   001.49 283.6 m E Pn      2011/10/02 06:28:14.3  -0.2                          T                                        4764058
HYF   001.49 283.6 m E Sg      2011/10/02 06:28:36.4  -0.4                          T                                        4764361
THEF  001.54 032.3 m E Pn      2011/10/02 06:28:14.5  -0.6                          T                                        4764064
THEF  001.54 032.3 m E Pg      2011/10/02 06:28:20.9   2.5                          T                                        4764323
THEF  001.54 032.3 m E Sg      2011/10/02 06:28:37.9  -0.3                          T               37.8  .28 Ml 3.2         4764055
HINF  001.67 057.4 m E Pn      2011/10/02 06:28:15.5  -1.4                          T   001.0                                4763519
HINF  001.67 057.4 m E Pg      2011/10/02 06:28:20.4  -0.4                          T                                        4764061
HINF  001.67 057.4 m E Sn      2011/10/02 06:28:36.9   0.0                          T   001.0                                4763520
HINF  001.67 057.4 m E Sg      2011/10/02 06:28:42.3  -0.1                          T               13.9  .26 Ml 2.8         4764320
MEZF  001.58 006.9 m E Pn      2011/10/02 06:28:16.2   0.6                          T                                        4764324
MEZF  001.58 006.9 m E Pg      2011/10/02 06:28:19.4   0.4 191.5  4.4               T   001.0                                4763521
MEZF  001.58 006.9 m E Sn      2011/10/02 06:28:34.7   0.0                          T   001.0       29.2  .40 Ml 2.9         4763522
MEZF  001.58 006.9 m E Sg      2011/10/02 06:28:39.2  -0.2                          T               35.9  .48 Ml 2.9         4764068
PAGF  001.74 021.4 m E Pn      2011/10/02 06:28:18.0   0.0                          T                                        4764325
PAGF  001.74 021.4 m E Pg      2011/10/02 06:28:22.5   0.4 204.8  2.6               T                                        4764156
PAGF  001.74 021.4 m E Sg      2011/10/02 06:28:44.3  -0.4                          T                2.6  .21 Ml 2.2         4764069
TCF   001.88 250.7 m E Pn      2011/10/02 06:28:19.9   0.1                          T   001.0                                4763513
TCF   001.88 250.7 m E Pg      2011/10/02 06:28:24.2  -0.5                          T   001.0                                4763514
TCF   001.88 250.7 m E Sn      2011/10/02 06:28:41.9   0.0                          T                                        4770100
TCF   001.88 250.7 m E Sg      2011/10/02 06:28:49.0   0.1                          T                7.1  .26 Ml 2.7         4764319
VIVF  002.08 181.8 m E Pn      2011/10/02 06:28:22.7   0.2                          T   001.0                                4763527
VIVF  002.08 181.8 m E Pg      2011/10/02 06:28:28.2  -0.2                          T   001.0                                4763528
VIVF  002.08 181.8 m E Sg      2011/10/02 06:28:54.3  -0.9                          T                9.1  .24 Ml 2.8         4764070
CDF   002.25 048.0 m E Pn      2011/10/02 06:28:23.6  -1.3                          T   001.0                                4763495
CDF   002.25 048.0 m E Pg      2011/10/02 06:28:30.7  -0.9                          T   001.0                                4763496
CDF   002.25 048.0 m E Sg      2011/10/02 06:29:00.2  -0.3                          T                7.6  .36 Ml 2.7         4764321
LPG   001.99 135.5 m E Pg      2011/10/02 06:28:26.0  -1.0                          T   001.0                                4763505
LPG   001.99 135.5 m E Sg      2011/10/02 06:28:52.2  -0.6                          T   001.0        7.7  .32 Ml 2.6         4763506
LPL   001.97 135.4 m E Pg      2011/10/02 06:28:27.1   0.5                          T   001.0                                4763507
LPL   001.97 135.4 m E Sg      2011/10/02 06:28:51.4  -0.6                          T   001.0        5.1  .34 Ml 2.4         4763508
ORIF  002.16 158.5 m E Pg      2011/10/02 06:28:29.9  -0.1                          T                                        4770094
ORIF  002.16 158.5 m E Sn      2011/10/02 06:28:49.0   0.2                          T   001.0                                4763525
ORIF  002.16 158.5 m E Sg      2011/10/02 06:28:58.0   0.2                          T   001.0        3.0  .22 Ml 2.4         4763526
MBDF  002.62 146.9 m E Pn      2011/10/02 06:28:30.6   0.6                          T                                        4764071
CAF   002.76 224.1 m E Pn      2011/10/02 06:28:31.7  -0.1                          T                                        4764066
CAF   002.76 224.1 m E Sg      2011/10/02 06:29:16.2   0.0                          T                2.0  .18 Ml 2.4         4764065
RJF   002.79 235.3 m E Pn      2011/10/02 06:28:32.2   0.0                          T                                        4764313
RJF   002.79 235.3 m E Pg      2011/10/02 06:28:41.8   0.5                          T                                        4764312
RJF   002.79 235.3 m E Sg      2011/10/02 06:29:16.8  -0.4                          T   001.0        1.6  .20 Ml 1.9         4763490
LASF  002.93 192.9 m E Pn      2011/10/02 06:28:35.7   1.6                          T   001.0                                4763502
LASF  002.93 192.9 m E Sg      2011/10/02 06:29:21.7   0.0                          T                3.8  .28 Ml 2.6         4764315
MFF   003.39 266.1 m E Pn      2011/10/02 06:28:40.5   0.2                          T                                        4764363
MFF   003.39 266.1 m E Pg      2011/10/02 06:28:52.0  -0.4                          T                                        4764316
MFF   003.39 266.1 m E Sn      2011/10/02 06:29:18.3   0.3                          T                                        4764362
SMRF  003.02 168.8 m E Pg      2011/10/02 06:28:45.5  -0.1                          T                                        4764314
BAIF  003.15 353.4 m E Sn      2011/10/02 06:29:11.6  -0.5                          T   001.0                                4763516
BAIF  003.15 353.4 m E Sg      2011/10/02 06:29:28.4   0.0                          T                2.2  .29 Ml 2.3         4764309
GIVF  003.17 000.7 m E Sg      2011/10/02 06:29:29.2   0.1                          T                4.5  .27 Ml 2.7         4764310
GRR   004.07 293.0 m E Sn      2011/10/02 06:29:33.9  -0.3                          T                                        4764311
GRR   004.07 293.0 m E Sg      2011/10/02 06:29:57.5   0.4                          T   001.0        2.6  .32 Ml 2.4         4763497
LFF   003.45 236.0 m E Sg      2011/10/02 06:29:38.0   0.2                          T                4.3  .32 Ml 2.5         4770096
LDF   003.69 298.5 m E Sg      2011/10/02 06:29:45.0  -0.3                          T                3.7  .34 Ml 2.6         4764317
MTLF  004.02 207.5 m E Sg      2011/10/02 06:29:55.3  -0.4                          T   001.0        1.6  .27 Ml 2.4         4763523

.
EVENT     264614
    Date      Time       Latitude Longitude    Depth    Ndef Nsta Gap    Mag1  N    Mag2  N    Mag3  N   Author         ID
       rms   OT_Error      Smajor Sminor Az        Err   mdist  Mdist     Err        Err        Err      Quality

2011/10/02 06:29:03.0     46.9351    4.7668     13.0 f    11    6 170  Ml 1.6  4  Md 1.5  1              js067245    264634

      0.31   +-  0.14       4.9    1.9    8.85 +-  0.0    0.70   1.37   +-0.3      +-                    m i ke

FRANCE
Sta     Dist  EvAz     Phase      Date       Time     TRes  Azim  AzRes  Slow  SRes Def   SNR       Amp   Per   Mag1   Mag2       ID
LOR   000.70 298.6 m E Pg      2011/10/02 06:29:16.7   0.2                          T                                        4764162
LOR   000.70 298.6 m E Sg      2011/10/02 06:29:25.6  -0.2                          T                5.0  .18                4764161
SMF   000.70 245.8 m E Pg      2011/10/02 06:29:16.9   0.4                          T                                        4764170
SMF   000.70 245.8 m E Sg      2011/10/02 06:29:25.6   0.0                          T                4.4  .34        Md 1.5  4764169
SSF   000.87 278.8 m E Pg      2011/10/02 06:29:18.9  -0.7                          T                                        4764159
SSF   000.87 278.8 m E Sg      2011/10/02 06:29:30.7  -0.3                          T                2.1  .22 Ml 1.8         4764160
CABF  000.96 109.2 m E Pg      2011/10/02 06:29:21.2  -0.1                          T                                        4770103
CABF  000.96 109.2 m E Sg      2011/10/02 06:29:33.8  -0.2                          T                1.4  .26 Ml 1.5         4764168
AVF   000.98 262.0 m E Pg      2011/10/02 06:29:21.5  -0.1                          T                                        4770101
AVF   000.98 262.0 m E Sg      2011/10/02 06:29:33.6  -0.7                          T                 .6  .24 Ml 1.2         4770102
BGF   001.37 254.7 m E Sg      2011/10/02 06:29:46.2  -0.4                          T                2.5  .32 Ml 1.9         4764368

.
EVENT     264615
    Date      Time       Latitude Longitude    Depth    Ndef Nsta Gap    Mag1  N    Mag2  N    Mag3  N   Author         ID
       rms   OT_Error      Smajor Sminor Az        Err   mdist  Mdist     Err        Err        Err      Quality

2011/10/02 06:31:05.1     43.0652    -.2978      2.0      56   11 081  Ml 2.3  4  Md 2.4  3              js067245    264635

      0.68   +-  0.09       1.6    1.5    1.49 +-  0.0    0.25   4.15   +-0.2      +-0.1                 m i ke

PYRENEES
Sta     Dist  EvAz     Phase      Date       Time     TRes  Azim  AzRes  Slow  SRes Def   SNR       Amp   Per   Mag1   Mag2       ID
ETSF  000.25 229.1 m E Pg      2011/10/02 06:31:09.8  -0.4                          T                                        4764107
ETSF  000.25 229.1 m E Sg      2011/10/02 06:31:13.5  -0.2                          T               37.2  .25        Md 2.4  4764106
ETSF  000.25 229.1 m E S       2011/10/02 06:31:21.3  -1.0                          T                                        4764090
EPF   000.47 094.1 m E Pg      2011/10/02 06:31:13.4  -0.8                          T                                        4764104
EPF   000.47 094.1 m E Sg      2011/10/02 06:31:19.8  -0.6                          T               16.6  .28        Md 2.4  4764105
SJPF  000.68 274.4 m E Pg      2011/10/02 06:31:16.1  -1.9                          T                                        4764102
SJPF  000.68 274.4 m E Sg      2011/10/02 06:31:26.5  -0.4                          T                4.0  .26        Md 2.3  4764095
SJPF  000.68 274.4 m E Sn      2011/10/02 06:31:31.1   0.3                          T                                        4764092
MTLF  001.86 080.6 m E Pg      2011/10/02 06:31:39.6  -0.2                          T                                        4764101
MTLF  001.86 080.6 m E Sg      2011/10/02 06:32:03.3  -0.4                          T                1.3  .18 Ml 2.0         4764091
LFF   002.02 021.4 m E Pg      2011/10/02 06:31:42.9   0.3                          T                                        4764100
LFF   002.02 021.4 m E Sg      2011/10/02 06:32:08.5  -0.1                          T                5.6  .22 Ml 2.4         4764098
CAF   002.52 041.7 m E Pg      2011/10/02 06:31:51.7  -0.3                          T                                        4764103
CAF   002.52 041.7 m E Sn      2011/10/02 06:32:14.2  -0.7                          T                                        4764093
CAF   002.52 041.7 m E Sg      2011/10/02 06:32:24.2  -0.2                          T                3.8  .26 Ml 2.5         4764094
RJF   002.59 029.6 m E Pg      2011/10/02 06:31:52.7  -0.5                          T                                        4764099
RJF   002.59 029.6 m E Sg      2011/10/02 06:32:26.3  -0.3                          T                                        4764097
MFF   003.54 001.7 m E Pg      2011/10/02 06:32:11.1   0.4                          T                                        4764089
MFF   003.54 001.7 m E Sg      2011/10/02 06:32:56.1   0.0                          T                                        4764096
LASF  003.18 070.1 m E Sg      2011/10/02 06:32:45.1   0.0                          T                                        4764737
TCF   003.69 028.2 m E Sg      2011/10/02 06:33:01.8   1.1                          T                1.1  .21 Ml 2.3         4764734
BGF   004.15 031.6 m E Sg      2011/10/02 06:33:15.5   0.4                          T                                        4764735

.
