EVENT     256682
    Date      Time       Latitude Longitude    Depth    Ndef Nsta Gap    Mag1  N    Mag2  N    Mag3  N   Author         ID
       rms   OT_Error      Smajor Sminor Az        Err   mdist  Mdist     Err        Err        Err      Quality

2011/03/05 03:05:41.2     47.0787    1.5544      2.0      22    9 186  Ml 1.6 11  Md 1.6  3              js067245    256682

      0.22   +-  0.08       1.8     .9  165.07 +-  0.0    0.76   1.77   +-0.2      +-0.1                 m i ke

FRANCE
Sta     Dist  EvAz     Phase      Date       Time     TRes  Azim  AzRes  Slow  SRes Def   SNR       Amp   Per   Mag1   Mag2       ID
HYF   000.76 075.2 m E Pg      2011/03/05 03:05:55.9   0.3                          T                                        4656971
HYF   000.76 075.2 m E Sg      2011/03/05 03:06:05.8   0.2                          T                                Md 1.7  4656969
TCF   000.91 150.0 m E Pg      2011/03/05 03:05:58.8   0.4                          T                                        4656976
TCF   000.91 150.0 m E Sg      2011/03/05 03:06:10.1  -0.1                          T                1.5  .25 Ml 1.6 Md 1.6  4656977
BGF   001.03 120.0 m E Pg      2011/03/05 03:06:00.9   0.4                          T                                        4656987
BGF   001.03 120.0 m E Sg      2011/03/05 03:06:13.9   0.0                          T                4.5  .36 Ml 1.9 Md 1.5  4656981
AVF   001.27 102.5 m E Pg      2011/03/05 03:06:04.6  -0.3                          T                                        4656986
AVF   001.27 102.5 m E Sg      2011/03/05 03:06:21.4   0.2                          T                1.2  .32 Ml 1.5         4656979
MFF   001.26 248.4 m E Pg      2011/03/05 03:06:04.8   0.0                          T                                        4656985
MFF   001.26 248.4 m E Sg      2011/03/05 03:06:21.1   0.0                          T                1.3  .23 Ml 1.9         4656982
SSF   001.33 090.0 m E Pg      2011/03/05 03:06:05.8  -0.3                          T                                        4656968
SSF   001.33 090.0 m E Sg      2011/03/05 03:06:23.6   0.2                          T                 .7  .23 Ml 1.6         4656973
LOR   001.58 082.3 m E Pg      2011/03/05 03:06:10.6  -0.2                          T                                        4656975
LOR   001.58 082.3 m E Sg      2011/03/05 03:06:31.4   0.2                          T                1.2  .42 Ml 1.5         4656974
SMF   001.63 104.6 m E Pg      2011/03/05 03:06:11.6   0.0                          T                                        4656970
SMF   001.63 104.6 m E Sg      2011/03/05 03:06:32.6   0.1                          T                1.9  .36 Ml 1.8         4656978
RJF   001.77 180.9 m E Pg      2011/03/05 03:06:14.1  -0.2                          T                                        4656984
RJF   001.77 180.9 m E Sg      2011/03/05 03:06:36.8  -0.3                          T                 .9  .28 Ml 1.3         4656983

.
EVENT     256683
    Date      Time       Latitude Longitude    Depth    Ndef Nsta Gap    Mag1  N    Mag2  N    Mag3  N   Author         ID
       rms   OT_Error      Smajor Sminor Az        Err   mdist  Mdist     Err        Err        Err      Quality

2011/03/05 04:32:36.2     51.5351   16.2060      1.0 f   205   36 018  Ml 4.5 34                         js067245    256683

      1.00   +-  0.08       2.5    1.7  164.81 +-  0.0    0.70  84.42   +-0.2                            m i sr

POLAND
Sta     Dist  EvAz     Phase      Date       Time     TRes  Azim  AzRes  Slow  SRes Def   SNR       Amp   Per   Mag1   Mag2       ID
LANF  005.96 247.9 m E Pn      2011/03/05 04:34:04.2   0.9                          T                                        4656991
LANF  005.96 247.9 m E Pg      2011/03/05 04:34:26.6   0.2                          T                                        4657042
LANF  005.96 247.9 m E Sg      2011/03/05 04:35:43.2   0.3                          T              784.4 1.29 Ml 4.9         4657010
RUP   006.10 256.1 m E Pn      2011/03/05 04:34:07.4   2.1                          T                                        4656989
RUP   006.10 256.1 m E Pg      2011/03/05 04:34:29.0   0.0                          T                                        4657043
RUP   006.10 256.1 m E Sg      2011/03/05 04:35:47.4   0.1                          T                                        4657009
CDF   006.55 245.0 m E Pn      2011/03/05 04:34:12.2   0.7                          T                                        4656990
CDF   006.55 245.0 m E Sg      2011/03/05 04:36:01.4   0.1                          T              370.2 1.16 Ml 4.8         4657011
HINF  007.12 242.1 m E Pn      2011/03/05 04:34:19.6   0.5                          T                                        4657071
HINF  007.12 242.1 m E Pg      2011/03/05 04:34:47.6  -0.1                          T                                        4657040
HINF  007.12 242.1 m E Sg      2011/03/05 04:36:18.8  -0.2                          T              184.4  .80 Ml 4.6         4657017
HAU   007.29 244.9 m E Pn      2011/03/05 04:34:22.1   0.7                          T                                        4656994
HAU   007.29 244.9 m E Pg      2011/03/05 04:34:50.9   0.0                          T                                        4657041
HAU   007.29 244.9 m E Sg      2011/03/05 04:36:24.4   0.0                          T              161.3  .78 Ml 4.4         4657016
PAGF  007.38 250.3 m E Pn      2011/03/05 04:34:23.5   0.9                          T                                        4656988
PAGF  007.38 250.3 m E Sg      2011/03/05 04:36:27.2   0.2                          T               36.9  .90 Ml 3.9         4657012
GIVF  007.35 263.2 m E Pn      2011/03/05 04:34:23.6   1.4                          T                                        4657068
GIVF  007.35 263.2 m E Sg      2011/03/05 04:36:26.1  -0.1                          T              148.9  .96 Ml 4.5         4657007
THEF  007.38 247.3 m E Pn      2011/03/05 04:34:24.0   1.4                          T                                        4656993
THEF  007.38 247.3 m E Sg      2011/03/05 04:36:27.2   0.1                          T              176.1 1.15 Ml 4.5         4657015
BAIF  007.75 263.7 m E Pn      2011/03/05 04:34:27.6   0.1                          T                                        4657069
BAIF  007.75 263.7 m E Sg      2011/03/05 04:36:38.5   0.0                          T              114.9 1.12 Ml 4.4         4657008
MEZF  007.80 251.5 m E Pn      2011/03/05 04:34:28.4   0.1                          T                                        4657070
MEZF  007.80 251.5 m E Sg      2011/03/05 04:36:40.2   0.1                          T              140.0  .94 Ml 4.6         4657013
SFTF  007.95 249.6 m E Pn      2011/03/05 04:34:30.8   0.4                          T                                        4656992
SFTF  007.95 249.6 m E Sg      2011/03/05 04:36:44.7  -0.1                          T              291.5 1.27 Ml 4.8         4657014
CABF  008.27 237.4 m E Pn      2011/03/05 04:34:35.1   0.3                          T                                        4657066
CABF  008.27 237.4 m E Pg      2011/03/05 04:35:09.0   0.1                          T                                        4657039
CABF  008.27 237.4 m E Sg      2011/03/05 04:36:55.3   0.4                          T              192.4  .98 Ml 4.8         4657018
LPL   008.70 229.9 m E Pn      2011/03/05 04:34:41.1   0.2                          T                                        4657057
LPL   008.70 229.9 m E Pg      2011/03/05 04:35:17.6   0.5                          T                                        4657038
LPL   008.70 229.9 m E Sg      2011/03/05 04:37:08.8   0.2                          T              114.5 1.50 Ml 4.4         4657035
LPG   008.71 229.8 m E Pn      2011/03/05 04:34:41.3   0.3                          T                                        4657056
LPG   008.71 229.8 m E Pg      2011/03/05 04:35:17.0  -0.3                          T                                        4657037
LPG   008.71 229.8 m E Sg      2011/03/05 04:37:08.9   0.1                          T              184.8 1.28 Ml 4.7         4657036
LOR   009.11 246.9 m E Pn      2011/03/05 04:34:47.1   0.9                          T                                        4656996
LOR   009.11 246.9 m E Pg      2011/03/05 04:35:24.5   0.1                          T                                        4657072
LOR   009.11 246.9 m E Sg      2011/03/05 04:37:21.1   0.0                          T               95.8 1.06 Ml 4.5         4657004
MBDF  009.28 226.4 m E Pn      2011/03/05 04:34:49.0   0.4                          T                                        4657060
MBDF  009.28 226.4 m E Sg      2011/03/05 04:37:26.5   0.0                          T               42.5 1.08 Ml 4.2         4657033
SMF   009.47 243.7 m E Pn      2011/03/05 04:34:51.3   0.2                          T                                        4657064
SMF   009.47 243.7 m E Sg      2011/03/05 04:37:32.5   0.2                          T               83.5  .92 Ml 4.6         4657020
SSF   009.43 246.6 m E Pn      2011/03/05 04:34:51.9   1.4                          T                                        4656995
SSF   009.43 246.6 m E Sg      2011/03/05 04:37:31.4   0.5                          T               42.0  .70 Ml 4.5         4657005
ORIF  009.55 230.1 m E Pn      2011/03/05 04:34:52.5   0.3                          T                                        4657058
ORIF  009.55 230.1 m E Sg      2011/03/05 04:37:35.0   0.1                          T              157.4 1.38 Ml 4.7         4657034
AVF   009.66 245.6 m E Pn      2011/03/05 04:34:53.7   0.1                          T                                        4657065
AVF   009.66 245.6 m E Sg      2011/03/05 04:37:37.8  -0.5                          T               84.4 1.10 Ml 4.6         4657019
SBF   009.68 221.0 m E Pn      2011/03/05 04:34:54.2   0.2                          T                                        4657052
HYF   009.82 249.5 m E Pn      2011/03/05 04:34:55.8   0.0                          T                                        4657063
HYF   009.82 249.5 m E Sg      2011/03/05 04:37:42.9  -0.3                          T                                        4657021
BGF   010.08 245.6 m E Pn      2011/03/05 04:34:59.6   0.2                          T                                        4657062
BGF   010.08 245.6 m E Sg      2011/03/05 04:37:51.3  -0.1                          T              136.4 1.12 Ml 4.8         4657022
VIVF  010.19 233.5 m E Pn      2011/03/05 04:35:01.0   0.1                          T                                        4657059
VIVF  010.19 233.5 m E Sg      2011/03/05 04:37:55.0   0.3                          T               64.8 1.28 Ml 4.5         4657032
FRF   010.26 222.7 m E Pn      2011/03/05 04:35:02.2   0.4                          T                                        4657055
SMRF  010.40 227.5 m E Pn      2011/03/05 04:35:04.0   0.2                          T                                        4657054
LMR   010.50 222.4 m E Pn      2011/03/05 04:35:05.4   0.3                          T                                        4657053
TCF   010.60 245.8 m E Pn      2011/03/05 04:35:06.6   0.2                          T                                        4657067
TCF   010.60 245.8 m E Sg      2011/03/05 04:38:07.7   0.2                          T               74.3 1.26 Ml 4.6         4657006
LDF   010.90 260.7 m E Pn      2011/03/05 04:35:10.6   0.0                          T                                        4657046
LDF   010.90 260.7 m E Sg      2011/03/05 04:38:16.8  -0.1                          T               71.0 1.24 Ml 4.6         4657025
FLN   011.06 262.0 m E Pn      2011/03/05 04:35:12.8   0.0                          T                                        4657044
FLN   011.06 262.0 m E Sg      2011/03/05 04:38:22.1   0.1                          T               82.3 1.34 Ml 4.5         4657024
LASF  011.15 232.8 m E Pn      2011/03/05 04:35:14.0   0.0                          T                                        4657051
LASF  011.15 232.8 m E Sg      2011/03/05 04:38:24.9   0.1                          T               17.9 1.02 Ml 4.1         4657031
GRR   011.43 260.7 m E Pn      2011/03/05 04:35:17.7   0.0                          T                                        4657045
GRR   011.43 260.7 m E Sg      2011/03/05 04:38:33.4  -0.1                          T              101.0 1.44 Ml 4.6         4657026
CAF   011.51 240.5 m E Pn      2011/03/05 04:35:19.0   0.1                          T                                        4657050
CAF   011.51 240.5 m E Sg      2011/03/05 04:38:35.9   0.0                          T               57.9 1.36 Ml 4.6         4657030
RJF   011.57 243.1 m E Pn      2011/03/05 04:35:19.9   0.2                          T                                        4657048
RJF   011.57 243.1 m E Sg      2011/03/05 04:38:37.8   0.0                          T               53.5 1.20 Ml 4.3         4657028
MFF   011.80 251.7 m E Pn      2011/03/05 04:35:22.7   0.0                          T                                        4657047
MFF   011.80 251.7 m E Sg      2011/03/05 04:38:45.0   0.0                          T               57.8 1.26 Ml 4.8         4657027
LFF   012.23 243.4 m E Pn      2011/03/05 04:35:28.6   0.0                          T                                        4657049
LFF   012.23 243.4 m E Sg      2011/03/05 04:38:58.4   0.0                          T               50.2  .98 Ml 4.6         4657029

.
EVENT     256684
    Date      Time       Latitude Longitude    Depth    Ndef Nsta Gap    Mag1  N    Mag2  N    Mag3  N   Author         ID
       rms   OT_Error      Smajor Sminor Az        Err   mdist  Mdist     Err        Err        Err      Quality

2011/03/05 06:31:27.7     46.3410    1.6618      2.0      27   11 113  Ml 1.9 10  Md 2.0  3              js067245    256684

      0.21   +-  0.05       1.1     .7  151.65 +-  0.0    0.38   1.77   +-0.2      +-0.0                 m i ke

FRANCE
Sta     Dist  EvAz     Phase      Date       Time     TRes  Azim  AzRes  Slow  SRes Def   SNR       Amp   Per   Mag1   Mag2       ID
TCF   000.38 097.7 m E Pg      2011/03/05 06:31:35.3   0.2                          T                                        4657097
TCF   000.38 097.7 m E Sg      2011/03/05 06:31:40.2   0.0                          T                5.5  .28        Md 2.0  4657086
BGF   000.85 074.7 m E Pg      2011/03/05 06:31:43.9   0.3                          T                                        4657091
BGF   000.85 074.7 m E Sg      2011/03/05 06:31:54.5  -0.2                          T               11.1  .36        Md 1.9  4657085
RJF   001.04 185.7 m E Pg      2011/03/05 06:31:47.6   0.5                          T                                        4657087
RJF   001.04 185.7 m E Sg      2011/03/05 06:32:00.2  -0.5                          T                8.0  .34 Ml 1.9         4657082
HYF   001.15 035.5 m E Pg      2011/03/05 06:31:49.2   0.1                          T                                        4657078
HYF   001.15 035.5 m E Sg      2011/03/05 06:32:03.8  -0.1                          T                                        4657077
AVF   001.25 068.3 m E Pg      2011/03/05 06:31:50.7  -0.3                          T                                        4657093
AVF   001.25 068.3 m E Sg      2011/03/05 06:32:07.1  -0.1                          T                 .9  .22 Ml 1.5         4657075
MFF   001.28 282.5 m E Pg      2011/03/05 06:31:51.5   0.0                          T                                        4657089
MFF   001.28 282.5 m E Sg      2011/03/05 06:32:07.5  -0.5                          T                3.8  .29 Ml 2.2         4657083
SSF   001.46 059.7 m E Pn      2011/03/05 06:31:53.5   0.2                          T                                        4657095
SSF   001.46 059.7 m E Pg      2011/03/05 06:31:54.9   0.0                          T                                        4657096
SSF   001.46 059.7 m E Sg      2011/03/05 06:32:13.6  -0.1                          T                1.9  .36 Ml 1.8         4657073
CAF   001.44 168.6 m E Pg      2011/03/05 06:31:54.5  -0.1                          T                                        4657088
CAF   001.44 168.6 m E Sg      2011/03/05 06:32:12.9  -0.4                          T                2.9  .26 Ml 2.1         4657081
SMF   001.54 077.8 m E Pg      2011/03/05 06:31:56.2  -0.1                          T                                        4657092
SMF   001.54 077.8 m E Sg      2011/03/05 06:32:16.3   0.1                          T                 .9  .19 Ml 1.7         4657076
LFF   001.54 205.1 m E Pg      2011/03/05 06:31:56.4   0.0                          T                                        4657079
LFF   001.54 205.1 m E Sg      2011/03/05 06:32:15.9  -0.4                          T                8.1  .38 Ml 2.2         4657080
LOR   001.77 057.6 m E Pg      2011/03/05 06:31:59.9  -0.7                          T                                        4657094
LOR   001.77 057.6 m E Sg      2011/03/05 06:32:23.4  -0.1                          T                1.1  .30 Ml 1.7         4657074

.
EVENT     256685
    Date      Time       Latitude Longitude    Depth    Ndef Nsta Gap    Mag1  N    Mag2  N    Mag3  N   Author         ID
       rms   OT_Error      Smajor Sminor Az        Err   mdist  Mdist     Err        Err        Err      Quality

2011/03/05 06:46:28.1     44.4658    7.1557      2.0      16    7 176  Ml 1.6  6  Md 1.8  3              js067245    256685

      0.12   +-  0.05       1.2     .5   75.60 +-  0.0    0.38   1.22   +-0.3      +-0.0                 m i ke

NORTHERN ITALY
Sta     Dist  EvAz     Phase      Date       Time     TRes  Azim  AzRes  Slow  SRes Def   SNR       Amp   Per   Mag1   Mag2       ID
MBDF  000.38 313.7 m E Pg      2011/03/05 06:46:35.4  -0.2                          T                                        4657115
MBDF  000.38 313.7 m E Sg      2011/03/05 06:46:40.6   0.0                          T                5.3  .20        Md 1.7  4657110
SBF   000.64 161.4 m E Pg      2011/03/05 06:46:40.3   0.0                          T                                        4657104
SBF   000.64 161.4 m E Sg      2011/03/05 06:46:48.4  -0.1                          T                2.1  .24        Md 1.8  4657114
FRF   000.98 202.3 m E Pg      2011/03/05 06:46:46.4   0.0                          T                                        4657109
FRF   000.98 202.3 m E Sg      2011/03/05 06:46:59.0  -0.1                          T                1.9  .19 Ml 1.8 Md 1.8  4657102
ORIF  001.02 296.9 m E Pg      2011/03/05 06:46:47.4   0.1                          T                                        4657105
ORIF  001.02 296.9 m E Sg      2011/03/05 06:47:00.6   0.1                          T                 .7  .19 Ml 1.4         4657111
LPG   001.07 344.6 m E Pg      2011/03/05 06:46:48.5  -0.1                          T                                        4657107
LPG   001.07 344.6 m E Sg      2011/03/05 06:47:02.1  -0.3                          T                1.2  .29 Ml 1.5         4657113
LPL   001.09 344.2 m E Pg      2011/03/05 06:46:49.0   0.1                          T                                        4657106
LPL   001.09 344.2 m E Sg      2011/03/05 06:47:03.1   0.0                          T                2.8  .35 Ml 1.7         4657112
LMR   001.22 202.7 m E Pg      2011/03/05 06:46:51.0   0.0                          T                                        4657108
LMR   001.22 202.7 m E Sg      2011/03/05 06:47:06.7  -0.1                          T                2.2  .30 Ml 1.8         4657103

.
