EVENT     300002
    Date      Time       Latitude Longitude    Depth    Ndef Nsta Gap    Mag1  N    Mag2  N    Mag3  N   Author         ID
       rms   OT_Error      Smajor Sminor Az        Err   mdist  Mdist     Err        Err        Err      Quality

2013/05/30 02:28:50.9     43.1415    -.8094      2.0      20    5 129  Ml 1.8  2  Md 1.7  2              bulletin    300102
                                                                                                         _ldg
      0.57   +-  0.15       3.5    1.7    8.31 +-  0.0    0.10   2.77   +-0.0      +-0.0                 m i ke

PYRENEES
Sta     Dist  EvAz     Phase      Date       Time     TRes  Azim  AzRes  Slow  SRes Def   SNR       Amp   Per   Mag1   Mag2       ID
ETSF  000.30 142.8 m E Pg      2013/05/30 02:28:55.6  -1.3                          T                                        5297421
ETSF  000.30 142.8 m E Sg      2013/05/30 02:28:59.4  -1.6                          T               18.9  .20        Md 1.7  5297420
SJPF  000.31 264.8 m E Pg      2013/05/30 02:28:56.5  -0.3                          T                                        5297419
SJPF  000.31 264.8 m E Sg      2013/05/30 02:29:01.2   0.3                          T               12.6  .22        Md 1.7  5297418
EPF   000.85 097.1 m E Pg      2013/05/30 02:29:07.4   0.5                          T                                        5297417
EPF   000.85 097.1 m E Sg      2013/05/30 02:29:18.3   0.3                          T                1.9  .17                5297416
MTLF  002.22 083.8 m E Sg      2013/05/30 02:30:00.6  -0.1                          T                 .8  .20 Ml 1.8         5302441
CAF   002.73 048.3 m E Sg      2013/05/30 02:30:16.8   0.0                          T                 .5  .18 Ml 1.8         5302440

.
EVENT     300006
    Date      Time       Latitude Longitude    Depth    Ndef Nsta Gap    Mag1  N    Mag2  N    Mag3  N   Author         ID
       rms   OT_Error      Smajor Sminor Az        Err   mdist  Mdist     Err        Err        Err      Quality

2013/05/30 06:29:19.3     42.7840   -1.2920      2.0      11    3 181  Ml 1.4  1  Md 1.4  2              bulletin    300106
                                                                                                         _ldg
      0.36   +-  0.13       3.8    1.9  165.44 +-  0.0    0.15   1.22   +-         +-0.0                 m i ke

PYRENEES
Sta     Dist  EvAz     Phase      Date       Time     TRes  Azim  AzRes  Slow  SRes Def   SNR       Amp   Per   Mag1   Mag2       ID
SJPF  000.33 008.5 m E Pg      2013/05/30 06:29:25.2  -0.5                          T                                        5297592
SJPF  000.33 008.5 m E Sg      2013/05/30 06:29:30.1  -0.1                          T               13.3  .18        Md 1.4  5297591
ETSF  000.55 077.8 m E Pg      2013/05/30 06:29:29.8  -0.1                          T                                        5297590
ETSF  000.55 077.8 m E Sg      2013/05/30 06:29:37.0  -0.1                          T                2.7  .25        Md 1.4  5297589
EPF   001.22 077.8 m E P       2013/05/30 06:29:43.4  -0.1                          T                                        5302442
EPF   001.22 077.8 m E Sg      2013/05/30 06:29:58.2   0.1                          T                 .7  .22 Ml 1.4         5302443

.
EVENT     300007
    Date      Time       Latitude Longitude    Depth    Ndef Nsta Gap    Mag1  N    Mag2  N    Mag3  N   Author         ID
       rms   OT_Error      Smajor Sminor Az        Err   mdist  Mdist     Err        Err        Err      Quality

2013/05/30 07:09:39.2     42.2640    7.2291     25.0      12    5 248  Ml 2.3  6  Md 2.2  2              bulletin    300107
                                                                                                         _ldg
      0.28   +-  0.21       5.7    1.9   27.65 +-  0.0    1.19   2.10   +-0.4      +-0.1                 m i ke

WESTERN MEDITERRANEAN SEA
Sta     Dist  EvAz     Phase      Date       Time     TRes  Azim  AzRes  Slow  SRes Def   SNR       Amp   Per   Mag1   Mag2       ID
LMR   001.19 333.9 m E Pn      2013/05/30 07:09:58.3  -0.3                          T                                        5297541
LMR   001.19 333.9 m E Sn      2013/05/30 07:10:12.4  -0.5                          T                2.9  .15 Ml 2.2 Md 2.2  5297569
PGF   001.34 077.2 m E Pn      2013/05/30 07:10:00.8  -0.1                          T                                        5297538
PGF   001.34 077.2 m E Sn      2013/05/30 07:10:16.7   0.1                          T                3.6  .16 Ml 2.6 Md 2.2  5297566
FRF   001.36 341.9 m E Pn      2013/05/30 07:10:01.1   0.0                          T                                        5297539
FRF   001.36 341.9 m E Sn      2013/05/30 07:10:17.1   0.0                          T                3.2  .18 Ml 2.3         5297570
SBF   001.61 005.3 m E Pn      2013/05/30 07:10:04.3  -0.1                          T                                        5297568
SBF   001.61 005.3 m E Sn      2013/05/30 07:10:23.2   0.3                          T                6.8  .27 Ml 2.5         5297567
SMRF  002.10 325.3 m E Pn      2013/05/30 07:10:11.4   0.4                          T                                        5297565
SMRF  002.10 325.3 m E Sn      2013/05/30 07:10:34.7   0.1                          T                 .3  .18 Ml 1.5         5297564

.
EVENT     300009
    Date      Time       Latitude Longitude    Depth    Ndef Nsta Gap    Mag1  N    Mag2  N    Mag3  N   Author         ID
       rms   OT_Error      Smajor Sminor Az        Err   mdist  Mdist     Err        Err        Err      Quality

2013/05/30 07:10:46.8     42.2379    7.1984     25.0      20    8 212  Ml 2.4 10  Md 2.4  2              bulletin    300109
                                                                                                         _ldg
      0.47   +-  0.10       2.6    1.2   10.70 +-  0.0    1.21   3.83   +-0.3      +-0.1                 m i ke

WESTERN MEDITERRANEAN SEA
Sta     Dist  EvAz     Phase      Date       Time     TRes  Azim  AzRes  Slow  SRes Def   SNR       Amp   Per   Mag1   Mag2       ID
LMR   001.21 335.4 m E Pn      2013/05/30 07:11:06.4   0.0                          T                                        5297561
LMR   001.21 335.4 m E Sn      2013/05/30 07:11:20.6  -0.3                          T                8.5  .20 Ml 2.6 Md 2.4  5297560
PGF   001.37 076.3 m E Pn      2013/05/30 07:11:08.9   0.0                          T                                        5297555
PGF   001.37 076.3 m E Sn      2013/05/30 07:11:24.8  -0.1                          T               11.1  .30 Ml 2.8 Md 2.3  5297554
FRF   001.38 343.1 m E Pn      2013/05/30 07:11:09.0   0.1                          T                                        5297559
FRF   001.38 343.1 m E Sn      2013/05/30 07:11:25.2   0.1                          T               11.3  .38 Ml 2.5         5297558
SBF   001.63 006.0 m E Pn      2013/05/30 07:11:12.4   0.0                          T                                        5297557
SBF   001.63 006.0 m E Sn      2013/05/30 07:11:31.3   0.2                          T                8.2  .25 Ml 2.6         5297556
SMRF  002.10 326.2 m E Pn      2013/05/30 07:11:19.6   0.8                          T                                        5297546
SMRF  002.10 326.2 m E Sn      2013/05/30 07:11:42.7   0.3                          T                 .9  .22 Ml 1.8         5297545
LASF  003.06 308.1 m E Pn      2013/05/30 07:11:31.6  -0.2                          T                                        5297553
LASF  003.06 308.1 m E Sn      2013/05/30 07:12:05.1   0.0                          T                2.5  .31 Ml 2.3         5297552
VIVF  003.20 325.8 m E Pn      2013/05/30 07:11:33.4  -0.3                          T                                        5297544
VIVF  003.20 325.8 m E Sn      2013/05/30 07:12:09.0   0.5                          T                 .7  .22 Ml 2.0         5297543
MTLF  003.83 288.4 m E Pn      2013/05/30 07:11:42.3   0.1                          T                                        5297542
MTLF  003.83 288.4 m E Sn      2013/05/30 07:12:23.5   0.0                          T                1.2  .22 Ml 2.4         5297551

.
EVENT     300010
    Date      Time       Latitude Longitude    Depth    Ndef Nsta Gap    Mag1  N    Mag2  N    Mag3  N   Author         ID
       rms   OT_Error      Smajor Sminor Az        Err   mdist  Mdist     Err        Err        Err      Quality

2013/05/30 07:26:55.2     42.2300    7.1941     25.0      10    4 259  Ml 2.2  5  Md 2.2  2              bulletin    300110
                                                                                                         _ldg
      0.26   +-  0.13       3.5    1.1   31.05 +-  0.0    1.21   1.64   +-0.2      +-0.1                 m i ke

WESTERN MEDITERRANEAN SEA
Sta     Dist  EvAz     Phase      Date       Time     TRes  Azim  AzRes  Slow  SRes Def   SNR       Amp   Per   Mag1   Mag2       ID
LMR   001.21 335.7 m E Pn      2013/05/30 07:27:14.8  -0.1                          T                                        5297580
LMR   001.21 335.7 m E Sn      2013/05/30 07:27:28.9  -0.4                          T                1.6  .14 Ml 2.0 Md 2.2  5297575
PGF   001.37 076.0 m E Pn      2013/05/30 07:27:17.2   0.0                          T                                        5297579
PGF   001.37 076.0 m E Sn      2013/05/30 07:27:33.1  -0.2                          T                3.2  .19 Ml 2.5 Md 2.1  5297578
FRF   001.39 343.4 m E Pn      2013/05/30 07:27:17.4   0.1                          T                                        5297574
FRF   001.39 343.4 m E Sn      2013/05/30 07:27:33.6   0.0                          T                2.4  .22 Ml 2.1         5297573
SBF   001.64 006.1 m E Pn      2013/05/30 07:27:20.8   0.0                          T                                        5297576
SBF   001.64 006.1 m E Sn      2013/05/30 07:27:39.6   0.0                          T                7.7  .32 Ml 2.5         5297577

.
EVENT     300021
    Date      Time       Latitude Longitude    Depth    Ndef Nsta Gap    Mag1  N    Mag2  N    Mag3  N   Author         ID
       rms   OT_Error      Smajor Sminor Az        Err   mdist  Mdist     Err        Err        Err      Quality

2013/05/30 09:06:13.9     48.7592    5.9928       .0 f    12    8 152  Ml 2.1  4  Md 2.1  1              bulletin    300121
                                                                                                         _ldg
      0.79   +-  0.14       2.6    1.6    3.95 +-  0.0    0.27   2.07   +-0.2      +-                    m i km

FRANCE
Sta     Dist  EvAz     Phase      Date       Time     TRes  Azim  AzRes  Slow  SRes Def   SNR       Amp   Per   Mag1   Mag2       ID
PAGF  000.27 221.1 m E Pg      2013/05/30 09:06:19.3  -0.2                          T                                        5302448
PAGF  000.27 221.1 m E Sg      2013/05/30 09:06:23.8   0.5  47.8  7.0               T              247.4  .87        Md 2.1  5302449
SFTF  000.84 229.2 m E Pg      2013/05/30 09:06:30.1   0.1                          T                                        5302452
SFTF  000.84 229.2 m E Sg      2013/05/30 09:06:41.1  -0.1  45.7  -2.8              T                7.1  .28                5302453
HAU   000.79 162.4 m E Pn      2013/05/30 09:06:30.9   0.0                          T                                        5302451
HAU   000.79 162.4 m E Sg      2013/05/30 09:06:39.8   0.3                          T               19.5  .44                5302444
CDF   000.92 111.7 m E Pg      2013/05/30 09:06:31.3  -0.2                          T                                        5302446
CDF   000.92 111.7 m E Sg      2013/05/30 09:06:44.0   0.3                          T               11.1  .42 Ml 2.3         5302447
MEZF  000.68 247.9 m E Sn      2013/05/30 09:06:39.9  -0.2  73.1  5.8               T               23.9  .24                5302445
HINF  001.10 148.3 m E Sn      2013/05/30 09:06:50.9   0.6                          T                2.3  .28 Ml 1.8         5302450
BAIF  001.75 318.8 m E Sg      2013/05/30 09:07:09.4   0.0                          T                1.8  .21 Ml 2.1         5302454
LOR   002.07 224.6 m E Sg      2013/05/30 09:07:19.0  -0.4                          T                2.3  .32 Ml 2.1         5302455

.
EVENT     300022
    Date      Time       Latitude Longitude    Depth    Ndef Nsta Gap    Mag1  N    Mag2  N    Mag3  N   Author         ID
       rms   OT_Error      Smajor Sminor Az        Err   mdist  Mdist     Err        Err        Err      Quality

2013/05/30 10:10:50.0     43.9374    7.1972       .0 f    23    4 090  Ml 1.9  1  Md 1.7  2              bulletin    300122
                                                                                                         _ldg
      0.35   +-  0.08       1.6    1.4  172.29 +-  0.0    0.17   1.24   +-         +-0.1                 m i km

NEAR SOUTH COAST OF FRANCE
Sta     Dist  EvAz     Phase      Date       Time     TRes  Azim  AzRes  Slow  SRes Def   SNR       Amp   Per   Mag1   Mag2       ID
SBF   000.19 113.3 m E Pg      2013/05/30 10:10:54.1  -0.1                          T                                        5297739
SBF   000.19 113.3 m E Sg      2013/05/30 10:10:57.3   0.4                          T               67.3  .70        Md 1.6  5297735
FRF   000.55 226.8 m E Pg      2013/05/30 10:11:00.6  -0.1                          T                                        5297737
FRF   000.55 226.8 m E Sg      2013/05/30 10:11:08.0  -0.1                          T                3.4  .29        Md 1.8  5297744
LMR   000.78 219.9 m E Pg      2013/05/30 10:11:04.9  -0.1                          T                                        5297738
LMR   000.78 219.9 m E Sg      2013/05/30 10:11:15.5   0.1                          T                1.6  .18                5297743
SMRF  001.17 272.4 m E Pg      2013/05/30 10:11:13.2   0.9                          T                                        5297736
SMRF  001.17 272.4 m E Sg      2013/05/30 10:11:27.8   0.2                          T                2.5  .22 Ml 1.9         5297742

.
