EVENT     298538
    Date      Time       Latitude Longitude    Depth    Ndef Nsta Gap    Mag1  N    Mag2  N    Mag3  N   Author         ID
       rms   OT_Error      Smajor Sminor Az        Err   mdist  Mdist     Err        Err        Err      Quality

2013/05/17 06:07:54.9     47.6547    5.9858       .0 f    17    9 101  Ml 2.2  6  Md 2.1  2              bulletin    298638
                                                                                                         _ldg
      0.90   +-  0.17       3.8    2.6  141.57 +-  0.0    0.43   1.79   +-0.1      +-0.1                 m i km

FRANCE
Sta     Dist  EvAz     Phase      Date       Time     TRes  Azim  AzRes  Slow  SRes Def   SNR       Amp   Per   Mag1   Mag2       ID
HAU   000.43 034.7 m E Pg      2013/05/17 06:08:02.4  -1.0                          T                                        5284352
HAU   000.43 034.7 m E Sg      2013/05/17 06:08:08.1  -1.2                          T                9.1  .19        Md 2.1  5284347
HINF  000.61 074.2 m E Pg      2013/05/17 06:08:07.1   0.4                          T                                        5284351
HINF  000.61 074.2 m E Sg      2013/05/17 06:08:14.9   0.0                          T                5.6  .17        Md 2.0  5284348
SFTF  000.84 311.2 m E Pg      2013/05/17 06:08:11.2   0.2 130.8  0.3               T                                        5284350
SFTF  000.84 311.2 m E Sg      2013/05/17 06:08:24.0   1.8 135.9  5.4               T                6.2  .15                5284346
PAGF  000.92 349.1 m E Pg      2013/05/17 06:08:12.8   0.4 167.3  -1.6              T                                        5284349
PAGF  000.92 349.1 m E Sg      2013/05/17 06:08:25.7   1.2 163.1  -5.9              T                6.4  .20 Ml 2.3         5284345
CABF  001.05 176.2 m E Pg      2013/05/17 06:08:15.4   0.6                          T                                        5284342
CABF  001.05 176.2 m E Sg      2013/05/17 06:08:29.7   1.0                          T               11.5  .42 Ml 2.3         5284341
CDF   001.15 048.3 m E Pg      2013/05/17 06:08:16.7  -0.1                          T                                        5284344
CDF   001.15 048.3 m E Sg      2013/05/17 06:08:32.0   0.0                          T                2.7  .19 Ml 2.2         5284343
LOR   001.49 255.8 m E Pg      2013/05/17 06:08:22.8  -0.3                          T                                        5284374
LOR   001.49 255.8 m E Sg      2013/05/17 06:08:41.0  -1.6                          T                3.8  .22 Ml 2.3         5284373
SMF   001.78 236.2 m E Pg      2013/05/17 06:08:27.8  -0.5                          T                                        5284376
SMF   001.78 236.2 m E Sg      2013/05/17 06:08:51.7   0.3                          T                2.7  .24 Ml 2.2         5284375
SSF   001.79 251.5 m E Sg      2013/05/17 06:08:51.1  -0.6                          T                4.2  .45 Ml 2.2         5284372

.
EVENT     298568
    Date      Time       Latitude Longitude    Depth    Ndef Nsta Gap    Mag1  N    Mag2  N    Mag3  N   Author         ID
       rms   OT_Error      Smajor Sminor Az        Err   mdist  Mdist     Err        Err        Err      Quality

2013/05/17 11:02:27.7     42.9571    -.0390      2.0       6    3 186  Ml 0.9  1  Md 1.5  2              bulletin    298668
                                                                                                         _ldg
      0.12   +-  0.08       6.6    1.0  173.04 +-  0.0    0.29   0.88   +-         +-0.0                 m i ke

PYRENEES
Sta     Dist  EvAz     Phase      Date       Time     TRes  Azim  AzRes  Slow  SRes Def   SNR       Amp   Per   Mag1   Mag2       ID
EPF   000.29 075.1 m E Pg      2013/05/17 11:02:33.4  -0.1                          T                                        5284657
EPF   000.29 075.1 m E Sg      2013/05/17 11:02:37.2  -0.1                          T                4.8  .20        Md 1.5  5284656
ETSF  000.39 261.5 m E Pg      2013/05/17 11:02:35.2  -0.1                          T                                        5284655
ETSF  000.39 261.5 m E Sg      2013/05/17 11:02:40.4  -0.1                          T                5.3  .21        Md 1.5  5284654
SJPF  000.88 280.6 m E Pg      2013/05/17 11:02:44.4   0.1                          T                                        5284653
SJPF  000.88 280.6 m E Sg      2013/05/17 11:02:55.6  -0.3                          T                 .3  .17 Ml  .9         5284652

.
EVENT     298611
    Date      Time       Latitude Longitude    Depth    Ndef Nsta Gap    Mag1  N    Mag2  N    Mag3  N   Author         ID
       rms   OT_Error      Smajor Sminor Az        Err   mdist  Mdist     Err        Err        Err      Quality

2013/05/17 11:30:23.3     46.1963     .6649      2.0      78   24 100  Ml 2.3 25  Md 2.4  3              bulletin    298711
                                                                                                         _ldg
      0.74   +-  0.05       1.1     .9   46.04 +-  0.0    0.69   4.80   +-0.3      +-0.1                 m i ke

FRANCE
Sta     Dist  EvAz     Phase      Date       Time     TRes  Azim  AzRes  Slow  SRes Def   SNR       Amp   Per   Mag1   Mag2       ID
MFF   000.69 306.2 m E Pg      2013/05/17 11:30:36.5   0.1                          T                4.7  .30                5284686
MFF   000.69 306.2 m E Sg      2013/05/17 11:30:45.4  -0.1                          T                                Md 2.4  5284681
RJF   001.07 145.9 m E Pg      2013/05/17 11:30:43.6   0.2                          T                                        5284688
RJF   001.07 145.9 m E Sg      2013/05/17 11:30:57.1  -0.2                          T               14.1  .24 Ml 2.3         5284687
TCF   001.08 084.5 m E Pg      2013/05/17 11:30:44.0   0.5                          T                                        5284685
TCF   001.08 084.5 m E Sg      2013/05/17 11:30:58.1   0.6                          T               13.1  .22 Ml 2.7 Md 2.5  5284682
LFF   001.26 177.6 m E Pg      2013/05/17 11:30:46.8   0.0                          T                                        5284700
LFF   001.26 177.6 m E Sg      2013/05/17 11:31:03.2   0.1                          T               11.9  .24 Ml 2.5         5284701
BGF   001.55 075.8 m E Pn      2013/05/17 11:30:49.9  -0.4                          T                                        5284696
BGF   001.55 075.8 m E Pg      2013/05/17 11:30:52.7   0.4                          T                                        5289617
BGF   001.55 075.8 m E Sn      2013/05/17 11:31:09.5  -0.3                          T                                        5289618
BGF   001.55 075.8 m E Sg      2013/05/17 11:31:12.3  -0.1                          T               24.0  .32 Ml 2.9         5284697
CAF   001.61 141.8 m E Pn      2013/05/17 11:30:51.1   0.1                          T                                        5284699
CAF   001.61 141.8 m E Pg      2013/05/17 11:30:53.1  -0.2                          T                                        5289593
CAF   001.61 141.8 m E Sn      2013/05/17 11:31:11.1   0.0                          T                                        5289592
CAF   001.61 141.8 m E Sg      2013/05/17 11:31:13.5  -0.6                          T                9.5  .24 Ml 2.7         5284698
HYF   001.73 051.0 m E Pn      2013/05/17 11:30:53.2   0.4                          T                                        5284695
HYF   001.73 051.0 m E Pg      2013/05/17 11:30:56.9   1.3                          T                                        5296503
HYF   001.73 051.0 m E Sg      2013/05/17 11:31:17.6  -0.2                          T                                        5284694
AVF   001.95 071.3 m E Pn      2013/05/17 11:30:55.5  -0.2                          T                                        5284683
AVF   001.95 071.3 m E Pg      2013/05/17 11:30:59.7   0.1                          T                                        5289622
AVF   001.95 071.3 m E Sn      2013/05/17 11:31:19.1  -0.2                          T                                        5289621
AVF   001.95 071.3 m E Sg      2013/05/17 11:31:23.6  -1.1                          T                3.4  .32 Ml 2.2         5284684
SSF   002.14 065.1 m E Pn      2013/05/17 11:30:58.5   0.3                          T                                        5284707
SSF   002.14 065.1 m E Pg      2013/05/17 11:31:03.1   0.0                          T                                        5289625
SSF   002.14 065.1 m E Sn      2013/05/17 11:31:23.5  -0.3                          T                                        5284705
SSF   002.14 065.1 m E Sg      2013/05/17 11:31:30.4  -0.2                          T                2.4  .22 Ml 2.4         5284706
SMF   002.24 077.3 m E Pn      2013/05/17 11:30:59.3  -0.3                          T                                        5284692
SMF   002.24 077.3 m E Pg      2013/05/17 11:31:04.7  -0.3                          T                                        5289620
SMF   002.24 077.3 m E Sn      2013/05/17 11:31:26.0  -0.3                          T                                        5289619
SMF   002.24 077.3 m E Sg      2013/05/17 11:31:33.2  -0.6                          T                2.7  .22 Ml 2.4         5284693
GRR   002.43 335.3 m E Pn      2013/05/17 11:31:02.5   0.3                          T                                        5289608
GRR   002.43 335.3 m E Pg      2013/05/17 11:31:07.8  -0.5                          T                                        5289607
GRR   002.43 335.3 m E Sn      2013/05/17 11:31:30.8   0.1                          T                                        5289606
GRR   002.43 335.3 m E Sg      2013/05/17 11:31:39.1  -0.4                          T                1.5  .19 Ml 2.0         5289605
LOR   002.44 062.8 m E Pn      2013/05/17 11:31:02.7   0.3 241.7  -3.5              T                                        5289627
LOR   002.44 062.8 m E Pg      2013/05/17 11:31:08.8   0.0 244.0  -1.1              T                                        5289626
LOR   002.44 062.8 m E Sn      2013/05/17 11:31:30.8  -0.4                          T                                        5284704
LOR   002.44 062.8 m E Sg      2013/05/17 11:31:39.4  -0.8 241.2  -3.9              T                3.5  .24 Ml 2.5         5284703
LDF   002.46 347.7 m E Pn      2013/05/17 11:31:02.7   0.2                          T                                        5289609
LDF   002.46 347.7 m E Sg      2013/05/17 11:31:40.8   0.2                          T                3.0  .31 Ml 2.3         5284711
FLN   002.68 343.6 m E Pn      2013/05/17 11:31:05.3  -0.3 161.1  -1.6              T                                        5284702
FLN   002.68 343.6 m E Sn      2013/05/17 11:31:36.4  -0.4                          T                                        5284709
FLN   002.68 343.6 m E Sg      2013/05/17 11:31:47.9   0.4 159.5  -3.2              T                2.0  .24 Ml 2.1         5284710
SGMF  003.01 314.3 m E Pn      2013/05/17 11:31:10.0  -0.1                          T                                        5289616
SGMF  003.01 314.3 m E Pg      2013/05/17 11:31:19.2   0.1                          T                                        5289615
SGMF  003.01 314.3 m E Sg      2013/05/17 11:31:57.1  -0.6                          T                 .6  .29 Ml 1.8         5289614
MTLF  003.06 158.3 m E Pn      2013/05/17 11:31:10.3  -0.5                          T                                        5289599
MTLF  003.06 158.3 m E Sn      2013/05/17 11:31:45.5  -0.3                          T                                        5289598
MTLF  003.06 158.3 m E Sg      2013/05/17 11:31:59.3  -0.1                          T                 .8  .19 Ml 2.1         5289597
LASF  003.10 132.0 m E Pn      2013/05/17 11:31:11.7   0.3                          T                                        5289596
LASF  003.10 132.0 m E Pg      2013/05/17 11:31:21.3   0.6                          T                                        5289595
LASF  003.10 132.0 m E Sg      2013/05/17 11:32:00.7   0.1                          T                 .7  .24 Ml 1.9         5289594
VIVF  003.12 114.0 m E Pn      2013/05/17 11:31:11.9   0.3                          T                                        5289591
VIVF  003.12 114.0 m E Sg      2013/05/17 11:32:01.3   0.0                          T                1.2  .29 Ml 2.1         5289590
QUIF  003.13 304.7 m E Pn      2013/05/17 11:31:12.2   0.4                          T                                        5289611
QUIF  003.13 304.7 m E Sg      2013/05/17 11:32:01.5  -0.1                          T                 .6  .20 Ml 1.9         5289610
EPF   003.17 184.3 m E Pn      2013/05/17 11:31:12.6   0.2                          T                                        5289602
EPF   003.17 184.3 m E Sn      2013/05/17 11:31:48.0  -0.6                          T                                        5289601
EPF   003.17 184.3 m E Sg      2013/05/17 11:32:03.2   0.2                          T                 .9  .20 Ml 2.1         5289600
SJPF  003.36 204.3 m E Pn      2013/05/17 11:31:14.7  -0.3                          T                                        5289604
SJPF  003.36 204.3 m E Sn      2013/05/17 11:31:53.1   0.0                          T                 .6  .25 Ml 1.9         5289603
ETSF  003.41 195.3 m E Pn      2013/05/17 11:31:15.6   0.0                          T                                        5284689
ETSF  003.41 195.3 m E Sn      2013/05/17 11:31:53.9  -0.4                          T                 .9  .26 Ml 2.0         5284690
ROSF  003.43 310.0 m E Pg      2013/05/17 11:31:27.2   0.3                          T                                        5289612
ROSF  003.43 310.0 m E Sg      2013/05/17 11:32:11.1   0.2                          T                 .7  .20 Ml 2.1         5289613
GIVF  004.80 033.9 m E Pn      2013/05/17 11:31:34.0  -0.4                          T                                        5284708
GIVF  004.80 033.9 m E Pg      2013/05/17 11:31:51.5  -0.6                          T                                        5289624
GIVF  004.80 033.9 m E Sn      2013/05/17 11:32:26.9  -0.5                          T                1.2  .19 Ml 2.6         5289623

.
EVENT     298687
    Date      Time       Latitude Longitude    Depth    Ndef Nsta Gap    Mag1  N    Mag2  N    Mag3  N   Author         ID
       rms   OT_Error      Smajor Sminor Az        Err   mdist  Mdist     Err        Err        Err      Quality

2013/05/18 02:16:06.4     44.3412    7.2898     10.0 f    40    8 101  Ml 1.8  7  Md 1.8  2              bulletin    298787
                                                                                                         _ldg
      0.31   +-  0.04       1.1     .6   51.76 +-  0.0    0.10   1.36   +-0.4      +-0.1                 m i ke

NORTHERN ITALY
Sta     Dist  EvAz     Phase      Date       Time     TRes  Azim  AzRes  Slow  SRes Def   SNR       Amp   Per   Mag1   Mag2       ID
SBF   000.49 167.6 m E Pg      2013/05/18 02:16:16.2   0.2                          T                                        5284978
SBF   000.49 167.6 m E Sg      2013/05/18 02:16:22.8   0.3                          T                9.7  .27        Md 1.8  5284977
MBDF  000.53 316.3 m E Pg      2013/05/18 02:16:16.7  -0.2                          T                                        5284980
MBDF  000.53 316.3 m E Sg      2013/05/18 02:16:23.8  -0.3                          T                3.9  .20        Md 1.7  5284979
FRF   000.91 211.0 m E Pg      2013/05/18 02:16:23.4  -0.1                          T                                        5284976
FRF   000.91 211.0 m E Sg      2013/05/18 02:16:35.0  -0.4                          T                7.0  .20 Ml 2.4         5284973
LMR   001.15 209.6 m E Pg      2013/05/18 02:16:28.0  -0.1                          T                                        5284975
LMR   001.15 209.6 m E Sg      2013/05/18 02:16:42.7  -0.4                          T                3.5  .21 Ml 2.1         5284974
ORIF  001.16 300.3 m E Pg      2013/05/18 02:16:28.2  -0.1                          T                                        5284966
ORIF  001.16 300.3 m E Sg      2013/05/18 02:16:43.0  -0.4                          T                1.1  .20 Ml 1.6         5284965
LPG   001.22 341.9 m E Pg      2013/05/18 02:16:29.8   0.2                          T                                        5284969
LPG   001.22 341.9 m E Sg      2013/05/18 02:16:45.7   0.3                          T                 .8  .26 Ml 1.4         5284970
LPL   001.24 341.6 m E Pg      2013/05/18 02:16:30.1   0.2                          T                                        5284968
LPL   001.24 341.6 m E Sg      2013/05/18 02:16:46.0   0.0                          T                1.0  .27 Ml 1.5         5284967
SMRF  001.29 254.1 m E Pg      2013/05/18 02:16:31.0   0.4                          T                                        5284972
SMRF  001.29 254.1 m E Sg      2013/05/18 02:16:46.6  -0.7                          T                 .8  .25 Ml 1.5         5284971

.
EVENT     298688
    Date      Time       Latitude Longitude    Depth    Ndef Nsta Gap    Mag1  N    Mag2  N    Mag3  N   Author         ID
       rms   OT_Error      Smajor Sminor Az        Err   mdist  Mdist     Err        Err        Err      Quality

2013/05/18 04:42:13.0     43.0144    -.1890      2.0      10    4 160  Ml 1.5  2  Md 1.5  3              bulletin    298788
                                                                                                         _ldg
      0.77   +-  0.12       9.5    2.0  172.70 +-  0.0    0.30   1.79   +-0.1      +-0.0                 m i ke

PYRENEES
Sta     Dist  EvAz     Phase      Date       Time     TRes  Azim  AzRes  Slow  SRes Def   SNR       Amp   Per   Mag1   Mag2       ID
ETSF  000.30 247.1 m E Pg      2013/05/18 04:42:18.9   0.0                          T                                        5285002
ETSF  000.30 247.1 m E Sg      2013/05/18 04:42:22.4  -0.5                          T                1.4  .22        Md 1.6  5285001
EPF   000.39 087.5 m E Pg      2013/05/18 04:42:20.5   0.0                          T                                        5285000
EPF   000.39 087.5 m E Sg      2013/05/18 04:42:25.8   0.1                          T                1.2  .28        Md 1.5  5284999
SJPF  000.77 277.8 m E Pg      2013/05/18 04:42:27.7   0.2                          T                                        5285007
SJPF  000.77 277.8 m E Sg      2013/05/18 04:42:37.2  -0.2                          T                 .2  .23        Md 1.5  5284998
MTLF  001.79 078.7 m E Pn      2013/05/18 04:42:42.9  -0.3                          T                                        5285006
MTLF  001.79 078.7 m E Sn      2013/05/18 04:43:05.0  -0.2                          T                 .3  .20 Ml 1.4         5285005

.
