EVENT     286716
    Date      Time       Latitude Longitude    Depth    Ndef Nsta Gap    Mag1  N    Mag2  N    Mag3  N   Author         ID
       rms   OT_Error      Smajor Sminor Az        Err   mdist  Mdist     Err        Err        Err      Quality

2012/11/12 09:43:35.5     44.4974    6.7285      2.0      38    8 051  Ml 1.9  5  Md 2.0  3              bulletin    286816
                                                                                                         _ldg
      0.50   +-  0.08       1.7    1.4   68.26 +-  0.0    0.06   1.74   +-0.3      +-0.1                 m i ke

FRANCE
Sta     Dist  EvAz     Phase      Date       Time     TRes  Azim  AzRes  Slow  SRes Def   SNR       Amp   Per   Mag1   Mag2       ID
MBDF  000.23 007.6 m E Pg      2012/11/12 09:43:40.1  -0.2                          T                                        5115279
MBDF  000.23 007.6 m E Sg      2012/11/12 09:43:43.2  -0.3                          T               16.2  .21        Md 2.1  5115292
ORIF  000.74 305.1 m E Pg      2012/11/12 09:43:49.0  -0.6                          T                                        5115278
ORIF  000.74 305.1 m E Sg      2012/11/12 09:43:58.7  -0.5                          T               10.9  .22        Md 1.9  5115293
SBF   000.81 141.0 m E Pg      2012/11/12 09:43:50.5  -0.4                          T                                        5115287
SBF   000.81 141.0 m E Sg      2012/11/12 09:44:01.6   0.1                          T               10.5  .22        Md 2.0  5115286
FRF   000.94 183.6 m E Pg      2012/11/12 09:43:52.9  -0.3                          T                                        5115277
FRF   000.94 183.6 m E Sg      2012/11/12 09:44:05.2  -0.2                          T                2.5  .15 Ml 2.0         5115289
SMRF  000.98 238.2 m E Pg      2012/11/12 09:43:54.2   0.2                          T                                        5115291
SMRF  000.98 238.2 m E Sg      2012/11/12 09:44:06.6  -0.1                          T                2.5  .27 Ml 1.8         5115290
LPG   001.00 000.9 m E Pg      2012/11/12 09:43:54.8   0.2                          T                                        5115297
LPG   001.00 000.9 m E Sg      2012/11/12 09:44:07.2  -0.4                          T                  1  .18 Ml 1.5         5115296
LMR   001.17 187.8 m E Pg      2012/11/12 09:43:57.7   0.2                          T                                        5115276
LMR   001.17 187.8 m E Sg      2012/11/12 09:44:12.7   0.0                          T                6.3  .22 Ml 2.4         5115288
VIVF  001.51 284.5 m E Pn      2012/11/12 09:44:02.3   0.3                          T                                        5115295
VIVF  001.51 284.5 m E Sn      2012/11/12 09:44:20.7  -0.3                          T                 .9  .20 Ml 1.7         5115294

.
EVENT     286770
    Date      Time       Latitude Longitude    Depth    Ndef Nsta Gap    Mag1  N    Mag2  N    Mag3  N   Author         ID
       rms   OT_Error      Smajor Sminor Az        Err   mdist  Mdist     Err        Err        Err      Quality

2012/11/12 11:15:04.9     49.1285    8.1149     10.0      21    6 034  Ml 2.4  5  Md 2.4  1              bulletin    286870
                                                                                                         _ldg
      0.57   +-  0.07       1.7    1.3  112.94 +-  0.0    0.19   3.40   +-0.1      +-                    m i ke

GERMANY
Sta     Dist  EvAz     Phase      Date       Time     TRes  Azim  AzRes  Slow  SRes Def   SNR       Amp   Per   Mag1   Mag2       ID
LANF  000.25 234.1 m E Sg      2012/11/12 11:15:14.3   0.5                          T                                        5121235
CDF   000.91 218.1 m E Pg      2012/11/12 11:15:21.9  -0.3                          T                                        5115387
CDF   000.91 218.1 m E Sg      2012/11/12 11:15:34.2   0.2                          T               10.3  .22 Ml 2.6 Md 2.4  5115386
HINF  001.56 213.1 m E P       2012/11/12 11:15:32.7  -0.4                          T                                        5121230
HINF  001.56 213.1 m E Sn      2012/11/12 11:15:49.6  -0.6                          T                                        5121232
HINF  001.56 213.1 m E Sg      2012/11/12 11:15:54.6   0.4                          T               10.2  .34 Ml 2.5         5121231
PAGF  001.68 250.9 m E Pg      2012/11/12 11:15:36.4   0.2                          T                                        5115389
PAGF  001.68 250.9 m E Sg      2012/11/12 11:15:57.5  -0.5                          T                4.1  .26 Ml 2.3         5115388
SFTF  002.24 246.8 m E Pg      2012/11/12 11:15:45.9  -0.7                          T                                        5121228
SFTF  002.24 246.8 m E Sg      2012/11/12 11:16:15.1  -0.3                          T                2.9  .26 Ml 2.3         5121229
LOR   003.40 238.4 m E Pn      2012/11/12 11:15:55.8  -0.4                          T                                        5115385
LOR   003.40 238.4 m E Pg      2012/11/12 11:16:07.6  -0.3                          T                                        5121233
LOR   003.40 238.4 m E Sg      2012/11/12 11:16:51.0  -0.6                          T                2.5  .30 Ml 2.5         5121234

.
EVENT     286778
    Date      Time       Latitude Longitude    Depth    Ndef Nsta Gap    Mag1  N    Mag2  N    Mag3  N   Author         ID
       rms   OT_Error      Smajor Sminor Az        Err   mdist  Mdist     Err        Err        Err      Quality

2012/11/12 11:21:10.1     49.1545    8.1381     10.0      13    4 053  Ml 2.1  4                         bulletin    286878
                                                                                                         _ldg
      0.35   +-  0.07       1.7    1.1  117.13 +-  0.0    0.17   2.14   +-0.1                            m i ke

GERMANY
Sta     Dist  EvAz     Phase      Date       Time     TRes  Azim  AzRes  Slow  SRes Def   SNR       Amp   Per   Mag1   Mag2       ID
CDF   000.94 217.8 m E Pg      2012/11/12 11:21:27.5  -0.3                          T                                        5115438
CDF   000.94 217.8 m E Sg      2012/11/12 11:21:40.4   0.3                          T                2.5  .18 Ml 2.0         5115437
HINF  001.59 213.0 m E Pg      2012/11/12 11:21:39.8   0.0                          T                                        5115439
HINF  001.59 213.0 m E Sg      2012/11/12 11:21:59.8  -0.5                          T                1.9  .18 Ml 2.1         5115436
PAGF  001.70 250.3 m E Pg      2012/11/12 11:21:41.5  -0.3                          T                                        5115441
PAGF  001.70 250.3 m E Sg      2012/11/12 11:22:03.9   0.1                          T                2.2  .34 Ml 1.9         5115440
MEZF  002.14 253.4 m E Sg      2012/11/12 11:22:17.5   0.0                          T                2.6  .32 Ml 2.1         5121236

.
EVENT     286802
    Date      Time       Latitude Longitude    Depth    Ndef Nsta Gap    Mag1  N    Mag2  N    Mag3  N   Author         ID
       rms   OT_Error      Smajor Sminor Az        Err   mdist  Mdist     Err        Err        Err      Quality

2012/11/12 15:49:03.0     42.8616     .2113      2.0       6    3 244  Ml 1.1  1  Md 1.6  2              bulletin    286902
                                                                                                         _ldg
      0.16   +-  0.30       8.8    1.7  154.81 +-  0.0    0.19   1.08   +-         +-0.1                 m i ke

PYRENEES
Sta     Dist  EvAz     Phase      Date       Time     TRes  Azim  AzRes  Slow  SRes Def   SNR       Amp   Per   Mag1   Mag2       ID
EPF   000.19 029.2 m E Pg      2012/11/12 15:49:07.0   0.1                          T                                        5115788
EPF   000.19 029.2 m E Sg      2012/11/12 15:49:09.5  -0.1                          T               11.2  .32        Md 1.5  5115787
ETSF  000.57 274.0 m E Pg      2012/11/12 15:49:13.7  -0.1                          T                                        5115785
ETSF  000.57 274.0 m E Sg      2012/11/12 15:49:21.7   0.4                          T                4.0  .26        Md 1.6  5115786
SJPF  001.08 283.9 m E Pg      2012/11/12 15:49:23.3   0.0                          T                                        5121237
SJPF  001.08 283.9 m E Sg      2012/11/12 15:49:37.2  -0.2                          T                 .4  .22 Ml 1.1         5121238

.
EVENT     286820
    Date      Time       Latitude Longitude    Depth    Ndef Nsta Gap    Mag1  N    Mag2  N    Mag3  N   Author         ID
       rms   OT_Error      Smajor Sminor Az        Err   mdist  Mdist     Err        Err        Err      Quality

2012/11/12 16:26:19.7     49.4489   -2.1277      8.0 f    21    6 267  Ml 2.3  7  Md 2.2  2              bulletin    286920
                                                                                                         _ldg
      0.41   +-  0.14       2.8    1.1  167.11 +-  0.0    1.23   1.68   +-0.2      +-0.1                 m i ke

FRANCE
Sta     Dist  EvAz     Phase      Date       Time     TRes  Azim  AzRes  Slow  SRes Def   SNR       Amp   Per   Mag1   Mag2       ID
SGMF  001.23 193.5 m E Pn      2012/11/12 16:26:41.4  -0.1                          T                                        5116103
SGMF  001.23 193.5 m E Pg      2012/11/12 16:26:42.6  -0.1                          T                                        5121242
SGMF  001.23 193.5 m E Sg      2012/11/12 16:26:58.7   0.1                          T                4.5  .22 Ml 2.2 Md 2.3  5116102
FLN   001.28 121.8 m E Pn      2012/11/12 16:26:42.2   0.0 306.7  3.6               T                                        5116097
FLN   001.28 121.8 m E Pg      2012/11/12 16:26:43.6  -0.1                          T                                        5121240
FLN   001.28 121.8 m E Sg      2012/11/12 16:27:00.1  -0.1 301.3  -1.8              T                7.1  .24 Ml 2.3 Md 2.2  5116096
ROSF  001.35 214.6 m E Pn      2012/11/12 16:26:43.0  -0.2                          T                                        5116101
ROSF  001.35 214.6 m E Pg      2012/11/12 16:26:44.4  -0.4                          T                                        5121241
ROSF  001.35 214.6 m E Sn      2012/11/12 16:27:00.2   0.1                          T                                        5116100
ROSF  001.35 214.6 m E Sg      2012/11/12 16:27:01.9  -0.3                          T                8.5  .26 Ml 2.5         5116092
GRR   001.35 141.3 m E Pg      2012/11/12 16:26:44.6  -0.3                          T                                        5116094
GRR   001.35 141.3 m E Sg      2012/11/12 16:27:02.3  -0.1                          T                8.9  .18 Ml 2.5         5116095
LDF   001.57 122.2 m E Pn      2012/11/12 16:26:45.9  -0.3                          T                                        5116099
LDF   001.57 122.2 m E Pg      2012/11/12 16:26:49.0   0.0                          T                                        5116087
LDF   001.57 122.2 m E Sg      2012/11/12 16:27:09.1  -0.3                          T                2.9  .24 Ml 2.1         5116098
QUIF  001.68 204.5 m E Pn      2012/11/12 16:26:47.8   0.1                          T                                        5116088
QUIF  001.68 204.5 m E Pg      2012/11/12 16:26:51.2   0.3                          T                                        5121239
QUIF  001.68 204.5 m E Sg      2012/11/12 16:27:12.1  -0.5                          T                3.4  .24 Ml 2.3         5116093

.
EVENT     286815
    Date      Time       Latitude Longitude    Depth    Ndef Nsta Gap    Mag1  N    Mag2  N    Mag3  N   Author         ID
       rms   OT_Error      Smajor Sminor Az        Err   mdist  Mdist     Err        Err        Err      Quality

2012/11/12 18:43:33.1     48.2258    7.2951     10.0      31   10 046  Ml 2.0  6  Md 1.8  2              bulletin    286915
                                                                                                         _ldg
      0.54   +-  0.08       1.7    1.5   11.44 +-  0.0    0.09   2.81   +-0.1      +-0.1                 m i ke

FRANCE
Sta     Dist  EvAz     Phase      Date       Time     TRes  Azim  AzRes  Slow  SRes Def   SNR       Amp   Per   Mag1   Mag2       ID
CDF   000.19 356.1 m E Pg      2012/11/12 18:43:36.7  -0.7                          T                                        5115793
CDF   000.19 356.1 m E Sg      2012/11/12 18:43:39.6  -0.6                          T               11.8  .20        Md 1.9  5115789
HINF  000.51 216.1 m E Pg      2012/11/12 18:43:42.4  -0.6                          T                                        5115791
HINF  000.51 216.1 m E Sg      2012/11/12 18:43:49.9   0.2                          T                6.5  .27        Md 1.8  5115790
THEF  000.87 270.6 m E Pg      2012/11/12 18:43:50.8   1.2                          T                                        5121243
PAGF  001.10 288.1 m E Pg      2012/11/12 18:43:54.5   0.8                          T                                        5115792
PAGF  001.10 288.1 m E Sg      2012/11/12 18:44:08.2   0.2                          T                2.5  .16 Ml 2.0         5115800
SFTF  001.51 270.0 m E Pn      2012/11/12 18:43:58.7   0.2                          T                                        5115794
SFTF  001.51 270.0 m E Pg      2012/11/12 18:44:01.0  -0.3                          T                                        5115797
SFTF  001.51 270.0 m E Sn      2012/11/12 18:44:17.0  -0.1                          T                                        5115795
SFTF  001.51 270.0 m E Sg      2012/11/12 18:44:20.6  -0.3                          T                1.7  .21 Ml 1.9         5115796
MEZF  001.52 281.3 m E Pg      2012/11/12 18:44:01.3  -0.2                          T                                        5115798
MEZF  001.52 281.3 m E Sg      2012/11/12 18:44:21.8   0.7                          T                2.5  .30 Ml 2.0         5115799
CABF  001.81 207.4 m E Pn      2012/11/12 18:44:03.1   0.3                          T                                        5116690
CABF  001.81 207.4 m E Pg      2012/11/12 18:44:07.2   0.2                          T                                        5116689
CABF  001.81 207.4 m E Sg      2012/11/12 18:44:31.2   0.9                          T                 .9  .22 Ml 1.8         5116688
GIVF  002.48 320.1 m E Pn      2012/11/12 18:44:11.9   0.1                          T                                        5116692
GIVF  002.48 320.1 m E Sn      2012/11/12 18:44:40.3   0.0                          T                                        5116691
LOR   002.51 248.8 m E Pn      2012/11/12 18:44:12.1  -0.1                          T                                        5116687
LOR   002.51 248.8 m E Pg      2012/11/12 18:44:20.0   0.3                          T                                        5116686
LOR   002.51 248.8 m E Sn      2012/11/12 18:44:41.2   0.2                          T                                        5116685
LOR   002.51 248.8 m E Sg      2012/11/12 18:44:51.7  -0.3                          T                1.5  .23 Ml 2.1         5116684
SSF   002.81 247.0 m E Pn      2012/11/12 18:44:15.8  -0.5                          T                                        5116680
SSF   002.81 247.0 m E Pg      2012/11/12 18:44:25.6   0.3                          T                                        5116681
SSF   002.81 247.0 m E Sn      2012/11/12 18:44:48.3   0.0                          T                                        5116682
SSF   002.81 247.0 m E Sg      2012/11/12 18:45:01.5   0.0                          T                  1  .26 Ml 2.0         5116683

.
EVENT     286816
    Date      Time       Latitude Longitude    Depth    Ndef Nsta Gap    Mag1  N    Mag2  N    Mag3  N   Author         ID
       rms   OT_Error      Smajor Sminor Az        Err   mdist  Mdist     Err        Err        Err      Quality

2012/11/12 22:31:31.4     48.2216    7.3029     10.0      33    8 046  Ml 1.9  7  Md 1.9  2              bulletin    286916
                                                                                                         _ldg
      0.47   +-  0.05       1.3    1.0    3.68 +-  0.0    0.10   2.82   +-0.3      +-0.0                 m i ke

FRANCE
Sta     Dist  EvAz     Phase      Date       Time     TRes  Azim  AzRes  Slow  SRes Def   SNR       Amp   Per   Mag1   Mag2       ID
CDF   000.19 354.7 m E Pg      2012/11/12 22:31:35.3  -0.3                          T                                        5115806
CDF   000.19 354.7 m E Sg      2012/11/12 22:31:38.2  -0.3                          T                7.5  .20        Md 1.9  5115805
HINF  000.51 216.9 m E Pg      2012/11/12 22:31:41.0  -0.2                          T                                        5115804
HINF  000.51 216.9 m E Pn      2012/11/12 22:31:43.4   0.2                          T                                        5116713
HINF  000.51 216.9 m E Sg      2012/11/12 22:31:47.8  -0.1                          T                2.9  .19        Md 1.9  5115803
HINF  000.51 216.9 m E Sn      2012/11/12 22:31:51.6   0.2                          T                                        5116712
PAGF  001.10 288.2 m E Pg      2012/11/12 22:31:53.2   1.1 109.4  2.4               T                                        5115802
PAGF  001.10 288.2 m E Sg      2012/11/12 22:32:06.5   0.1                          T                2.5  .19 Ml 2.0         5115801
MEZF  001.53 281.4 m E Pn      2012/11/12 22:31:57.1   0.1                          T                                        5116707
MEZF  001.53 281.4 m E Sn      2012/11/12 22:32:15.7   0.0                          T                                        5116706
MEZF  001.53 281.4 m E Sg      2012/11/12 22:32:19.4  -0.2                          T                1.0  .19 Ml 1.8         5116705
SFTF  001.51 270.2 m E Pn      2012/11/12 22:31:57.3   0.4                          T                                        5116711
SFTF  001.51 270.2 m E Pg      2012/11/12 22:31:59.6  -0.1                          T                                        5116710
SFTF  001.51 270.2 m E Sn      2012/11/12 22:32:15.4  -0.1                          T                                        5116708
SFTF  001.51 270.2 m E Sg      2012/11/12 22:32:18.8  -0.4                          T                 .7  .15 Ml 1.7         5116709
GIVF  002.49 320.1 m E Pn      2012/11/12 22:32:10.5   0.4                          T                                        5116696
GIVF  002.49 320.1 m E Pg      2012/11/12 22:32:17.4  -0.1                          T                                        5116697
GIVF  002.49 320.1 m E Sn      2012/11/12 22:32:38.8   0.1                          T                2.6  .22 Ml 2.4         5116698
LOR   002.51 249.0 m E Pn      2012/11/12 22:32:10.7   0.2                          T                                        5116704
LOR   002.51 249.0 m E Pg      2012/11/12 22:32:18.5   0.4  68.9  2.5               T                                        5116703
LOR   002.51 249.0 m E Sn      2012/11/12 22:32:39.1  -0.2                          T                                        5116702
LOR   002.51 249.0 m E Sg      2012/11/12 22:32:50.3  -0.1  65.9  -0.5              T                 .8  .21 Ml 1.9         5116701
SSF   002.82 247.1 m E Pg      2012/11/12 22:32:23.7   0.1                          T                                        5116700
SSF   002.82 247.1 m E Sg      2012/11/12 22:32:59.5  -0.4                          T                 .3  .19 Ml 1.6         5116699

.
