EVENT     275311
    Date      Time       Latitude Longitude    Depth    Ndef Nsta Gap    Mag1  N    Mag2  N    Mag3  N   Author         ID
       rms   OT_Error      Smajor Sminor Az        Err   mdist  Mdist     Err        Err        Err      Quality

2012/05/03 02:38:22.2     44.6339    7.2757      2.0      32    8 135  Ml 1.5  6  Md 1.9  1              bulletin    275411
                                                                                                         _ldg
      0.36   +-  0.08       1.9    1.0   79.86 +-  0.0    0.13   1.41   +-0.2      +-                    m i ke

NORTHERN ITALY
Sta     Dist  EvAz     Phase      Date       Time     TRes  Azim  AzRes  Slow  SRes Def   SNR       Amp   Per   Mag1   Mag2       ID
MBDF  000.37 284.7 m E Pg      2012/05/03 02:38:29.5  -0.1                          T                                        4935486
MBDF  000.37 284.7 m E Sg      2012/05/03 02:38:34.1  -0.5                          T               19.6  .23        Md 1.9  4935485
LPG   000.94 336.9 m E Pg      2012/05/03 02:38:40.0  -0.2                          T                                        4935483
LPG   000.94 336.9 m E Sg      2012/05/03 02:38:52.8   0.4                          T                1.1  .23 Ml 1.5         4935476
LPL   000.96 336.6 m E Pg      2012/05/03 02:38:40.6   0.0                          T                                        4935484
LPL   000.96 336.6 m E Sg      2012/05/03 02:38:53.2   0.1                          T                1.3  .24 Ml 1.5         4935477
ORIF  001.03 286.5 m E Pg      2012/05/03 02:38:42.0   0.3                          T                                        4935473
ORIF  001.03 286.5 m E Sg      2012/05/03 02:38:54.0  -1.2                          T                 .8  .21 Ml 1.4         4935472
FRF   001.16 203.1 m E Pg      2012/05/03 02:38:44.1   0.0                          T                                        4935482
FRF   001.16 203.1 m E Sg      2012/05/03 02:38:58.9  -0.1                          T                1.3  .22 Ml 1.7         4935479
SBF   000.78 171.5 m E Sg      2012/05/03 02:38:46.1  -1.1                          T                1.9  .17                4935480
LMR   001.41 203.3 m E Pg      2012/05/03 02:38:48.5  -0.1                          T                                        4935481
LMR   001.41 203.3 m E Sg      2012/05/03 02:39:07.5   0.7                          T                1.3  .28 Ml 1.7         4935478
SMRF  001.39 242.3 m E Pg      2012/05/03 02:38:49.7   1.5                          T                                        4935475
SMRF  001.39 242.3 m E Sg      2012/05/03 02:39:06.2   0.1                          T                 .3  .21 Ml 1.2         4935474

.
EVENT     275342
    Date      Time       Latitude Longitude    Depth    Ndef Nsta Gap    Mag1  N    Mag2  N    Mag3  N   Author         ID
       rms   OT_Error      Smajor Sminor Az        Err   mdist  Mdist     Err        Err        Err      Quality

2012/05/03 04:27:23.4     44.3817    7.3039      2.0      42    9 113  Ml 1.8  8  Md 1.7  3              bulletin    275442
                                                                                                         _ldg
      0.27   +-  0.05       1.1     .6   55.11 +-  0.0    0.13   1.94   +-0.4      +-0.1                 m i ke

NORTHERN ITALY
Sta     Dist  EvAz     Phase      Date       Time     TRes  Azim  AzRes  Slow  SRes Def   SNR       Amp   Per   Mag1   Mag2       ID
MBDF  000.51 312.4 m E Pg      2012/05/03 04:27:33.4   0.1                          T                                        4936805
MBDF  000.51 312.4 m E Sg      2012/05/03 04:27:40.4   0.3                          T               14.4  .34        Md 1.6  4936804
SBF   000.53 169.6 m E Pg      2012/05/03 04:27:33.5   0.0                          T                                        4936801
SBF   000.53 169.6 m E Sg      2012/05/03 04:27:40.4   0.0                          T               11.8  .24        Md 1.6  4936800
FRF   000.95 210.3 m E Pg      2012/05/03 04:27:40.6  -0.5                          T                                        4936803
FRF   000.95 210.3 m E Sg      2012/05/03 04:27:52.6  -0.9                          T                7.3  .26 Ml 2.3 Md 1.8  4936802
ORIF  001.15 298.3 m E Pg      2012/05/03 04:27:44.9  -0.1                          T                                        4936791
ORIF  001.15 298.3 m E Sg      2012/05/03 04:27:59.3  -0.5                          T                  1  .19 Ml 1.6         4936790
LMR   001.19 209.0 m E Pg      2012/05/03 04:27:45.4  -0.3                          T                                        4936799
LMR   001.19 209.0 m E Sg      2012/05/03 04:28:01.2   0.1                          T                6.4  .20 Ml 2.4         4936798
LPG   001.18 340.8 m E Pg      2012/05/03 04:27:45.6  -0.2                          T                                        4936795
LPG   001.18 340.8 m E Sg      2012/05/03 04:28:01.3   0.1                          T                 .7  .22 Ml 1.4         4936794
LPL   001.21 340.5 m E Pg      2012/05/03 04:27:46.2   0.0                          T                                        4936793
LPL   001.21 340.5 m E Sg      2012/05/03 04:28:01.8   0.0                          T                1.0  .27 Ml 1.5         4936792
SMRF  001.31 252.5 m E Pg      2012/05/03 04:27:48.3   0.5                          T                                        4936796
SMRF  001.31 252.5 m E Sg      2012/05/03 04:28:04.7  -0.1                          T                3.5  .32 Ml 2.0         4936797
VIVF  001.94 285.1 m E Pn      2012/05/03 04:27:55.5  -0.1                          T                                        4936788
VIVF  001.94 285.1 m E Sn      2012/05/03 04:28:18.9  -0.2                          T                 .3  .19 Ml 1.4         4936789

.
EVENT     275313
    Date      Time       Latitude Longitude    Depth    Ndef Nsta Gap    Mag1  N    Mag2  N    Mag3  N   Author         ID
       rms   OT_Error      Smajor Sminor Az        Err   mdist  Mdist     Err        Err        Err      Quality

2012/05/03 04:31:25.3     40.0664    -.1625      2.0      74    6 069  Ml 2.7  7                         bulletin    275413
                                                                                                         _ldg
      0.61   +-  0.08       1.9    1.2  124.58 +-  0.0    0.38   5.46   +-0.3                            m i ke

SPAIN
Sta     Dist  EvAz     Phase      Date       Time     TRes  Azim  AzRes  Slow  SRes Def   SNR       Amp   Per   Mag1   Mag2       ID
ETSF  002.85 354.1 m E Pn      2012/05/03 04:32:11.6   1.7                          T                                        4935957
ETSF  002.85 354.1 m E Sn      2012/05/03 04:32:42.5  -0.2                          T                8.7  .24 Ml 3.0         4935954
EPF   002.99 007.1 m E Pn      2012/05/03 04:32:13.4   1.6                          T                                        4935959
EPF   002.99 007.1 m E Sn      2012/05/03 04:32:46.9   0.9                          T                7.6  .22 Ml 3.0         4935958
SJPF  003.15 345.7 m E Pn      2012/05/03 04:32:15.0   1.0                          T                                        4935956
SJPF  003.15 345.7 m E Sn      2012/05/03 04:32:49.6  -0.2                          T                5.7  .22 Ml 2.9         4935955
MTLF  003.73 027.8 m E Pn      2012/05/03 04:32:22.4   0.6                          T                                        4935953
MTLF  003.73 027.8 m E Sn      2012/05/03 04:33:04.5   0.8                          T                                        4935952
MTLF  003.73 027.8 m E Sg      2012/05/03 04:33:22.1   0.1                          T                4.8  .45 Ml 2.6         4937722
LASF  005.00 035.4 m E Pn      2012/05/03 04:32:39.5   0.3                          T                                        4935949
LASF  005.00 035.4 m E Sn      2012/05/03 04:33:34.1   0.0                          T                 .5  .21 Ml 2.2         4935948
CAF   005.13 018.0 m E Pn      2012/05/03 04:32:40.4  -0.6                          T                                        4935951
CAF   005.13 018.0 m E Sn      2012/05/03 04:33:37.4   0.2                          T                                        4935950
CAF   005.13 018.0 m E Sg      2012/05/03 04:34:05.5  -0.4                          T                1.1  .23 Ml 2.6         4937723

.
EVENT     275343
    Date      Time       Latitude Longitude    Depth    Ndef Nsta Gap    Mag1  N    Mag2  N    Mag3  N   Author         ID
       rms   OT_Error      Smajor Sminor Az        Err   mdist  Mdist     Err        Err        Err      Quality

2012/05/03 04:31:34.4     44.8524    7.1676     10.0      23    7 092  Ml 1.4  4  Md 1.4  1              bulletin    275443
                                                                                                         _ldg
      0.18   +-  0.04        .9     .7   81.16 +-  0.0    0.07   1.44   +-0.1      +-                    m i ke

NORTHERN ITALY
Sta     Dist  EvAz     Phase      Date       Time     TRes  Azim  AzRes  Slow  SRes Def   SNR       Amp   Per   Mag1   Mag2       ID
MBDF  000.31 246.2 m E Pg      2012/05/03 04:31:41.1   0.2                          T                                        4936834
MBDF  000.31 246.2 m E Sg      2012/05/03 04:31:45.2   0.0                          T                7.1  .26        Md 1.4  4936831
LPG   000.71 335.6 m E Pg      2012/05/03 04:31:48.2  -0.1                          T                                        4936833
LPG   000.71 335.6 m E Sg      2012/05/03 04:31:57.8   0.2                          T                 .7  .24                4936827
LPL   000.73 335.3 m E Pg      2012/05/03 04:31:48.5  -0.1                          T                                        4936832
LPL   000.73 335.3 m E Sg      2012/05/03 04:31:58.1  -0.1                          T                 .9  .27                4936828
ORIF  000.92 274.6 m E Pg      2012/05/03 04:31:51.8   0.0                          T                                        4936829
ORIF  000.92 274.6 m E Sg      2012/05/03 04:32:03.7  -0.1                          T                1.2  .23 Ml 1.5         4936830
FRF   001.34 196.4 m E Pn      2012/05/03 04:31:57.7   0.1                          T                                        4936826
FRF   001.34 196.4 m E Sn      2012/05/03 04:32:14.4  -0.1                          T                 .7  .21 Ml 1.5         4936825
SMRF  001.44 233.0 m E Pn      2012/05/03 04:31:59.0   0.0                          T                                        4936823
SMRF  001.44 233.0 m E Sn      2012/05/03 04:32:16.8   0.0                          T                                        4936822
SBF   001.01 168.9 m E Sg      2012/05/03 04:32:06.0  -0.6                          T                 .5  .18 Ml 1.2         4936824

.
EVENT     275344
    Date      Time       Latitude Longitude    Depth    Ndef Nsta Gap    Mag1  N    Mag2  N    Mag3  N   Author         ID
       rms   OT_Error      Smajor Sminor Az        Err   mdist  Mdist     Err        Err        Err      Quality

2012/05/03 05:58:00.0     48.3633    9.0205     10.0      29   10 064  Ml 2.2 10  Md 2.3  2              bulletin    275444
                                                                                                         _ldg
      0.65   +-  0.09       1.6    1.3  121.49 +-  0.0    0.16   3.65   +-0.3      +-0.0                 m i ke

GERMANY
Sta     Dist  EvAz     Phase      Date       Time     TRes  Azim  AzRes  Slow  SRes Def   SNR       Amp   Per   Mag1   Mag2       ID
LANF  001.02 307.9 m E Pn      2012/05/03 05:58:19.2   0.5                          T                                        4936043
LANF  001.02 307.9 m E Sg      2012/05/03 05:58:32.5   0.2                          T                3.1  .19 Ml 2.0 Md 2.3  4936042
CDF   001.16 273.1 m E Pn      2012/05/03 05:58:21.4   0.6                          T                                        4936051
CDF   001.16 273.1 m E Sn      2012/05/03 05:58:36.6   0.8                          T                                Md 2.3  4936050
HINF  001.55 250.2 m E Pn      2012/05/03 05:58:26.5   0.4                          T                                        4936046
HINF  001.55 250.2 m E Sn      2012/05/03 05:58:44.7  -0.3                          T                5.4  .28 Ml 2.3         4936047
HAU   001.82 259.7 m E Pg      2012/05/03 05:58:33.8  -0.2                          T                                        4936049
HAU   001.82 259.7 m E Sg      2012/05/03 05:58:57.3  -0.2                          T                8.4  .26 Ml 2.5         4936048
THEF  002.03 267.3 m E Pg      2012/05/03 05:58:37.8   0.2                          T                                        4936044
THEF  002.03 267.3 m E Sg      2012/05/03 05:59:03.5  -0.2                          T                4.3  .21 Ml 2.5         4936045
PAGF  002.20 276.2 m E Pg      2012/05/03 05:58:40.4  -0.5  96.5  2.7               T                                        4936035
PAGF  002.20 276.2 m E Sg      2012/05/03 05:59:09.0  -0.2                          T                 .6  .28 Ml 1.6         4936034
CABF  002.65 229.7 m E Pn      2012/05/03 05:58:41.4   0.4                          T                                        4936037
CABF  002.65 229.7 m E Sn      2012/05/03 05:59:12.2   0.8                          T                 .8  .25 Ml 1.9         4936036
GIVF  003.25 303.9 m E Pn      2012/05/03 05:58:49.2   0.0                          T                                        4936040
GIVF  003.25 303.9 m E Sn      2012/05/03 05:59:26.2   0.5                          T                  1  .19 Ml 2.2         4936041
BAIF  003.58 300.1 m E Pn      2012/05/03 05:58:54.2   0.6                          T                                        4936039
BAIF  003.58 300.1 m E Sn      2012/05/03 05:59:33.9   0.5                          T                1.4  .22 Ml 2.4         4936038
LOR   003.65 254.4 m E Pg      2012/05/03 05:59:07.4  -0.1  76.1  5.5               T                                        4937710
LOR   003.65 254.4 m E Sg      2012/05/03 05:59:54.1  -0.2                          T                 .8  .20 Ml 2.2         4937711

.
EVENT     275362
    Date      Time       Latitude Longitude    Depth    Ndef Nsta Gap    Mag1  N    Mag2  N    Mag3  N   Author         ID
       rms   OT_Error      Smajor Sminor Az        Err   mdist  Mdist     Err        Err        Err      Quality

2012/05/03 08:19:38.3     45.8560    4.7717       .0 f    13    7 207  Ml 2.2  6  Md 2.1  3              bulletin    275462
                                                                                                         _ldg
      0.40   +-  0.25       8.7    2.7   75.22 +-  0.0    1.00   1.89   +-0.3      +-0.1                 m i km

FRANCE
Sta     Dist  EvAz     Phase      Date       Time     TRes  Azim  AzRes  Slow  SRes Def   SNR       Amp   Per   Mag1   Mag2       ID
SMF   001.02 321.1 m E Pg      2012/05/03 08:19:57.4  -0.3                          T                                        4936116
SMF   001.02 321.1 m E Sg      2012/05/03 08:20:10.6  -0.5                          T               12.2  .36 Ml 2.4 Md 2.1  4936114
VIVF  001.00 184.0 m E Pn      2012/05/03 08:19:58.0  -0.2                          T                                        4936245
VIVF  001.00 184.0 m E Sn      2012/05/03 08:20:12.1  -0.3                          T                7.7  .32 Ml 2.2 Md 2.1  4936246
AVF   001.36 314.1 m E Pn      2012/05/03 08:20:03.4   0.5                          T                                        4936115
AVF   001.36 314.1 m E Sn      2012/05/03 08:20:20.6  -0.2                          T                4.0  .38 Ml 2.0         4936113
SSF   001.49 324.5 m E Pn      2012/05/03 08:20:04.8   0.0                          T                                        4936110
SSF   001.49 324.5 m E Sn      2012/05/03 08:20:23.0  -0.9                          T                4.7  .32 Ml 2.3 Md 2.2  4936109
LOR   001.55 336.3 m E Pn      2012/05/03 08:20:05.5  -0.1 156.6  1.0               T                                        4936107
LOR   001.55 336.3 m E Sn      2012/05/03 08:20:23.4  -1.9                          T                                        4936108
BGF   001.51 298.4 m E Pn      2012/05/03 08:20:05.7   0.6                          T                                        4936111
BGF   001.51 298.4 m E Sn      2012/05/03 08:20:24.2  -0.3                          T               13.0  .32 Ml 2.7         4936112
LASF  001.89 200.4 m E Sg      2012/05/03 08:20:38.4   0.0                          T                1.4  .32 Ml 1.8         4941403

.
EVENT     275377
    Date      Time       Latitude Longitude    Depth    Ndef Nsta Gap    Mag1  N    Mag2  N    Mag3  N   Author         ID
       rms   OT_Error      Smajor Sminor Az        Err   mdist  Mdist     Err        Err        Err      Quality

2012/05/03 08:23:47.5     47.6391    4.1938       .0 f    10    4 334  Ml 1.8  2  Md 2.0  3              bulletin    275477
                                                                                                         _ldg
      0.47   +-  0.23       3.6    2.3   25.57 +-  0.0    0.44   1.02   +-0.3      +-0.2                 m i km

FRANCE
Sta     Dist  EvAz     Phase      Date       Time     TRes  Azim  AzRes  Slow  SRes Def   SNR       Amp   Per   Mag1   Mag2       ID
LOR   000.44 211.6 m E Pg      2012/05/03 08:23:55.9  -0.1  28.5  -2.9              T                                        4936300
LOR   000.44 211.6 m E Sg      2012/05/03 08:24:02.1   0.1  33.3  1.9               T               31.7  .86        Md 2.1  4936299
SSF   000.74 219.2 m E Pg      2012/05/03 08:24:01.7  -0.1                          T                                        4936291
SSF   000.74 219.2 m E Sg      2012/05/03 08:24:11.9   0.3                          T                                        4936292
AVF   001.02 214.3 m E Pn      2012/05/03 08:24:07.7   0.1                          T                                        4936294
AVF   001.02 214.3 m E Sn      2012/05/03 08:24:21.7  -0.2                          T                3.7  .57 Ml 1.6 Md 2.2  4936293
SMF   001.02 193.7 m E Pn      2012/05/03 08:24:07.7   0.1                          T                                        4936295
SMF   001.02 193.7 m E Sn      2012/05/03 08:24:21.7  -0.2                          T                4.4  .27 Ml 2.0 Md 1.8  4936296

.
