EVENT     258930
    Date      Time       Latitude Longitude    Depth    Ndef Nsta Gap    Mag1  N    Mag2  N    Mag3  N   Author         ID
       rms   OT_Error      Smajor Sminor Az        Err   mdist  Mdist     Err        Err        Err      Quality

2011/05/04 14:07:58.1     43.0036   -1.3881       .0 f     6    3 307  Ml 1.8  1  Md 1.8  3              js067245    258930

      0.34   +-  0.67      12.0    6.9   68.51 +-  0.0    0.16   1.27   +-         +-0.0                 m i sm

PYRENEES
Sta     Dist  EvAz     Phase      Date       Time     TRes  Azim  AzRes  Slow  SRes Def   SNR       Amp   Per   Mag1   Mag2       ID
SJPF  000.16 047.4 m E Pg      2011/05/04 14:08:01.9   0.2                          T                                        4684264
SJPF  000.16 047.4 m E Sg      2011/05/04 14:08:03.4  -0.8                          T               16.5  .26        Md 1.8  4684263
ETSF  000.62 099.5 m E Pg      2011/05/04 14:08:10.1  -0.1                          T                                        4684261
ETSF  000.62 099.5 m E Sg      2011/05/04 14:08:18.6   0.1                          T                2.2  .18        Md 1.8  4684262
EPF   001.27 088.2 m E Pg      2011/05/04 14:08:21.9  -0.3                          T                                        4684260
EPF   001.27 088.2 m E Sg      2011/05/04 14:08:39.2   0.4                          T                1.6  .20 Ml 1.8 Md 1.8  4684259

.
EVENT     258926
    Date      Time       Latitude Longitude    Depth    Ndef Nsta Gap    Mag1  N    Mag2  N    Mag3  N   Author         ID
       rms   OT_Error      Smajor Sminor Az        Err   mdist  Mdist     Err        Err        Err      Quality

2011/05/04 16:53:39.1     51.4960   16.0839      1.0 f    67   21 171  Ml 3.5 20                         js067245    258926

      0.48   +-  0.12       3.0    1.8    2.23 +-  0.0    0.67  12.87   +-0.3                            m i sr

POLAND
Sta     Dist  EvAz     Phase      Date       Time     TRes  Azim  AzRes  Slow  SRes Def   SNR       Amp   Per   Mag1   Mag2       ID
LANF  005.88 247.9 m E Pn      2011/05/04 16:55:05.7   0.6                          T                                        4684297
LANF  005.88 247.9 m E Sg      2011/05/04 16:56:43.1   0.0                          T               98.2 1.15 Ml 4.0         4684300
RUP   006.02 256.2 m E Pn      2011/05/04 16:55:06.7  -0.3                          T                                        4684303
RUP   006.02 256.2 m E Sg      2011/05/04 16:56:47.6   0.0                          T                                        4684301
CDF   006.47 244.9 m E Pn      2011/05/04 16:55:12.4  -0.7                          T                                        4684302
CDF   006.47 244.9 m E Sg      2011/05/04 16:57:01.4  -0.1                          T               40.2  .98 Ml 3.9         4684299
HINF  007.03 242.0 m E Pn      2011/05/04 16:55:21.7   0.9                          T                                        4684292
HINF  007.03 242.0 m E Sg      2011/05/04 16:57:19.2   0.1                          T               23.5  .79 Ml 3.7         4684273
HAU   007.21 244.8 m E Pn      2011/05/04 16:55:23.0  -0.2                          T                                        4684293
HAU   007.21 244.8 m E Sg      2011/05/04 16:57:24.6   0.0                          T               11.2  .57 Ml 3.4         4684274
GIVF  007.27 263.3 m E Pn      2011/05/04 16:55:23.7  -0.3                          T                                        4684283
GIVF  007.27 263.3 m E Sg      2011/05/04 16:57:26.6   0.0                          T                2.1  .25 Ml 3.2         4684298
PAGF  007.29 250.2 m E Pn      2011/05/04 16:55:24.0  -0.3  66.0  3.6               T                                        4684296
PAGF  007.29 250.2 m E Sg      2011/05/04 16:57:27.2   0.0                          T               12.5 1.08 Ml 3.4         4684278
THEF  007.30 247.3 m E Pn      2011/05/04 16:55:24.7   0.4                          T                                        4684294
THEF  007.30 247.3 m E Sg      2011/05/04 16:57:27.4   0.2                          T               13.3  .70 Ml 3.6         4684275
BAIF  007.67 263.8 m E Pn      2011/05/04 16:55:28.7  -0.6                          T                                        4684282
BAIF  007.67 263.8 m E Sg      2011/05/04 16:57:38.9   0.1                          T                3.0  .48 Ml 3.2         4684279
MEZF  007.71 251.5 m E Pn      2011/05/04 16:55:30.5   0.5  63.6  0.6               T                                        4684295
MEZF  007.71 251.5 m E Sg      2011/05/04 16:57:40.7   0.3                          T                                        4684277
CABF  008.18 237.2 m E Pn      2011/05/04 16:55:36.4  -0.1                          T                                        4684271
CABF  008.18 237.2 m E Sg      2011/05/04 16:57:55.2   0.1                          T               46.8 1.16 Ml 4.1         4684272
LPG   008.62 229.5 m E Pn      2011/05/04 16:55:42.5  -0.2                          T                                        4684291
LPG   008.62 229.5 m E Sg      2011/05/04 16:58:09.0  -0.1                          T                5.9  .68 Ml 3.5         4684267
LPL   008.62 229.7 m E Pn      2011/05/04 16:55:43.0   0.4                          T                                        4684290
LPL   008.62 229.7 m E Sg      2011/05/04 16:58:09.0   0.1                          T                1.8  .45 Ml 3.1         4684268
LOR   009.03 246.8 m E Pn      2011/05/04 16:55:47.8  -0.1  63.6  6.0               T                                        4684285
LOR   009.03 246.8 m E Sg      2011/05/04 16:58:21.7   0.4                          T               12.0  .90 Ml 3.7         4684281
MBDF  009.20 226.2 m E Pn      2011/05/04 16:55:50.0  -0.3                          T                                        4684288
MBDF  009.20 226.2 m E Sg      2011/05/04 16:58:27.0   0.2                          T                1.3  .41 Ml 3.1         4684270
SSF   009.34 246.5 m E Pn      2011/05/04 16:55:51.5  -0.6                          T                                        4684284
SSF   009.34 246.5 m E Sg      2011/05/04 16:58:31.0   0.0                          T                8.2  .90 Ml 3.7         4684280
SMF   009.38 243.6 m E Pn      2011/05/04 16:55:52.7  -0.1                          T                                        4684309
SMF   009.38 243.6 m E Sg      2011/05/04 16:58:32.4  -0.1                          T                1.6  .33 Ml 3.3         4684308
ORIF  009.47 229.9 m E Pn      2011/05/04 16:55:54.6   0.6                          T                                        4684289
ORIF  009.47 229.9 m E Sg      2011/05/04 16:58:35.1   0.0                          T                1.4  .35 Ml 3.2         4684269
SBF   009.60 220.7 m E Pn      2011/05/04 16:55:56.1   0.2                          T                                        4684287
SBF   009.60 220.7 m E Sg      2011/05/04 16:58:39.4   0.1                          T                2.2  .29 Ml 3.5         4684265
FRF   010.18 222.4 m E Pn      2011/05/04 16:56:03.6   0.0                          T                                        4684286
FRF   010.18 222.4 m E Sg      2011/05/04 16:58:57.3   0.1                          T                 .6  .32 Ml 3.1         4684266
SFTF  007.86 249.5 m E Sg      2011/05/04 16:57:45.3   0.4                          T               10.1  .55 Ml 3.7         4684276

.
EVENT     258928
    Date      Time       Latitude Longitude    Depth    Ndef Nsta Gap    Mag1  N    Mag2  N    Mag3  N   Author         ID
       rms   OT_Error      Smajor Sminor Az        Err   mdist  Mdist     Err        Err        Err      Quality

2011/05/04 19:12:29.5     48.3245    6.6721     10.0      43   15 079  Ml 2.1 11  Md 1.9  4              js067245    258928

      0.39   +-  0.04        .8     .6  164.99 +-  0.0    0.34   3.45   +-0.2      +-0.1                 m i ke

FRANCE
Sta     Dist  EvAz     Phase      Date       Time     TRes  Azim  AzRes  Slow  SRes Def   SNR       Amp   Per   Mag1   Mag2       ID
HAU   000.39 214.3 m E Pg      2011/05/04 19:12:37.2   0.1                          T                                        4684320
HAU   000.39 214.3 m E Sg      2011/05/04 19:12:42.1  -0.3                          T                5.7  .19        Md 2.0  4684311
CDF   000.41 077.5 m E Pg      2011/05/04 19:12:37.6   0.0                          T                                        4684321
CDF   000.41 077.5 m E Sg      2011/05/04 19:12:43.2  -0.1                          T               12.3  .22        Md 1.9  4684315
THEF  000.46 258.2 m E Pg      2011/05/04 19:12:38.3  -0.2                          T                                        4684319
THEF  000.46 258.2 m E Sg      2011/05/04 19:12:44.7   0.0                          T               10.7  .19        Md 2.0  4684312
HINF  000.52 166.5 m E Pg      2011/05/04 19:12:39.7   0.1                          T                                        4684318
HINF  000.52 166.5 m E Sg      2011/05/04 19:12:46.6   0.1                          T                9.5  .14                4684310
HINF  000.52 166.5 m E Sn      2011/05/04 19:12:49.3  -0.7                          T                9.8  .18        Md 1.9  4684696
PAGF  000.67 290.4 m E Pg      2011/05/04 19:12:42.4   0.1                          T                                        4684694
PAGF  000.67 290.4 m E P       2011/05/04 19:12:43.7   0.1                          T                                        4684316
PAGF  000.67 290.4 m E Sg      2011/05/04 19:12:51.4   0.3 111.8  2.0               T                1.4  .22                4684314
LANF  001.00 048.4 m E Pg      2011/05/04 19:12:48.3   0.0                          T                                        4684346
LANF  001.00 048.4 m E Sg      2011/05/04 19:13:01.0  -0.3                          T                4.3  .22 Ml 2.1         4684338
MEZF  001.09 279.9 m E Pn      2011/05/04 19:12:49.2  -0.1                          T                                        4684336
MEZF  001.09 279.9 m E Pg      2011/05/04 19:12:50.1   0.1  94.4  -4.4              T                                        4684693
MEZF  001.09 279.9 m E Sg      2011/05/04 19:13:04.5   0.2                          T                6.8  .29 Ml 2.2         4684337
SFTF  001.10 264.4 m E Pn      2011/05/04 19:12:49.5   0.1                          T                                        4684317
SFTF  001.10 264.4 m E Pg      2011/05/04 19:12:50.3   0.2                          T                                        4684695
SFTF  001.10 264.4 m E Sg      2011/05/04 19:13:04.4   0.0                          T                4.8  .20 Ml 2.2         4684313
RUP   001.40 010.4 m E Pg      2011/05/04 19:12:55.9   0.2                          T                                        4684345
RUP   001.40 010.4 m E Sg      2011/05/04 19:13:13.6  -0.3                          T                                        4684339
CABF  001.76 193.2 m E Pn      2011/05/04 19:12:58.6   0.1                          T                                        4684691
CABF  001.76 193.2 m E Pg      2011/05/04 19:13:02.2  -0.2                          T                                        4684344
CABF  001.76 193.2 m E Sg      2011/05/04 19:13:25.1   0.0                          T                  1  .23 Ml 1.8         4684335
LOR   002.17 241.9 m E Pn      2011/05/04 19:13:03.9   0.0  57.6  -2.2              T                                        4684328
LOR   002.17 241.9 m E Pg      2011/05/04 19:13:09.0  -0.8  60.0  0.1               T                                        4684341
LOR   002.17 241.9 m E Sg      2011/05/04 19:13:37.6  -0.3  53.4  -6.4              T                1.6  .25 Ml 2.1         4684340
SSF   002.48 240.6 m E Pn      2011/05/04 19:13:08.2   0.0                          T                                        4684327
SSF   002.48 240.6 m E Pg      2011/05/04 19:13:15.5  -0.1                          T                                        4684326
SSF   002.48 240.6 m E Sg      2011/05/04 19:13:47.5  -0.1                          T                1.4  .32 Ml 2.0         4684325
SMF   002.55 229.9 m E Pn      2011/05/04 19:13:08.9  -0.3                          T                                        4684690
SMF   002.55 229.9 m E Pg      2011/05/04 19:13:17.0   0.1                          T                                        4684343
SMF   002.55 229.9 m E Sg      2011/05/04 19:13:49.7   0.0                          T                1.8  .28 Ml 2.1         4684333
AVF   002.72 236.9 m E Pn      2011/05/04 19:13:11.0  -0.4                          T                                        4684692
AVF   002.72 236.9 m E Pg      2011/05/04 19:13:19.8  -0.1                          T                                        4684342
AVF   002.72 236.9 m E Sg      2011/05/04 19:13:55.1   0.2                          T                 .6  .25 Ml 1.8         4684334
BGF   003.14 237.2 m E Pn      2011/05/04 19:13:17.3   0.1                          T                                        4684329
BGF   003.14 237.2 m E Pg      2011/05/04 19:13:27.8   0.1                          T                                        4684689
BGF   003.14 237.2 m E Sg      2011/05/04 19:14:08.3   0.2                          T                3.2  .42 Ml 2.3         4684331

.
