EVENT     263460
    Date      Time       Latitude Longitude    Depth    Ndef Nsta Gap    Mag1  N    Mag2  N    Mag3  N   Author         ID
       rms   OT_Error      Smajor Sminor Az        Err   mdist  Mdist     Err        Err        Err      Quality

2011/09/03 00:25:30.2     50.2420   12.4547     10.0      72   17 036  Ml 3.8 18                         js067245    263460

      0.63   +-  0.07       1.9    1.4  155.32 +-  0.0    0.01  93.72   +-0.2                            m i ke

GERMANY
Sta     Dist  EvAz     Phase      Date       Time     TRes  Azim  AzRes  Slow  SRes Def   SNR       Amp   Per   Mag1   Mag2       ID
CDF   003.85 243.6 m E Pn      2011/09/03 00:26:28.6   0.9                          T                                        4756446
CDF   003.85 243.6 m E Pg      2011/09/03 00:26:41.9   0.3                          T                                        4756445
CDF   003.85 243.6 m E Sg      2011/09/03 00:27:30.7  -0.3                          T               90.7  .60 Ml 3.9         4756419
HINF  004.41 238.8 m E Pn      2011/09/03 00:26:35.0  -0.2                          T                                        4756439
HINF  004.41 238.8 m E Pg      2011/09/03 00:26:51.1  -0.7                          T                                        4756438
HINF  004.41 238.8 m E Sg      2011/09/03 00:27:47.1  -1.4                          T              133.6  .76 Ml 4.0         4756424
HAU   004.59 243.2 m E Pn      2011/09/03 00:26:38.3   0.7                          T                                        4756441
HAU   004.59 243.2 m E Pg      2011/09/03 00:26:55.4   0.3                          T                                        4756440
HAU   004.59 243.2 m E Sg      2011/09/03 00:27:53.1  -0.9                          T               74.4  .48 Ml 3.8         4756423
PAGF  004.71 251.6 m E Pn      2011/09/03 00:26:39.5   0.3                          T                                        4756444
PAGF  004.71 251.6 m E Pg      2011/09/03 00:26:57.9   0.7  68.3  1.9               T                                        4756443
PAGF  004.71 251.6 m E Sg      2011/09/03 00:27:57.4  -0.2                          T               21.8  .72 Ml 3.3         4756420
CABF  005.58 231.8 m E Pn      2011/09/03 00:26:51.0  -0.2                          T                                        4756437
CABF  005.58 231.8 m E Pg      2011/09/03 00:27:13.6   0.1                          T                                        4756436
CABF  005.58 231.8 m E Sg      2011/09/03 00:28:24.2  -0.8                          T               46.8  .62 Ml 3.9         4756425
GIVF  004.91 271.3 m E Pg      2011/09/03 00:27:00.7  -0.2                          T                                        4756447
GIVF  004.91 271.3 m E Sg      2011/09/03 00:28:03.9   0.1                          T               94.0  .70 Ml 4.0         4756417
LOR   006.41 245.7 m E Pn      2011/09/03 00:27:01.2  -1.3                          T                                        4756450
LOR   006.41 245.7 m E Pg      2011/09/03 00:27:29.4   0.7  63.2  4.0               T                                        4756449
LOR   006.41 245.7 m E Sg      2011/09/03 00:28:51.1   0.1                          T               32.7  .54 Ml 4.0         4756414
SFTF  005.27 250.1 m E Pg      2011/09/03 00:27:08.2   0.6                          T                                        4756442
SFTF  005.27 250.1 m E Sg      2011/09/03 00:28:15.0  -0.2                          T               66.1  .65 Ml 3.9         4756422
LPL   006.10 221.3 m E Pg      2011/09/03 00:27:23.0  -0.1                          T                                        4756433
LPL   006.10 221.3 m E Sg      2011/09/03 00:28:42.1   0.9                          T               24.0  .96 Ml 3.5         4756430
LPG   006.10 221.1 m E Pg      2011/09/03 00:27:23.5   0.2                          T                                        4756432
LPG   006.10 221.1 m E Sg      2011/09/03 00:28:43.6   2.1                          T               25.5  .76 Ml 3.6         4756431
SSF   006.73 245.2 m E Pg      2011/09/03 00:27:33.9  -0.5                          T                                        4756448
SSF   006.73 245.2 m E Sg      2011/09/03 00:29:01.1   0.4                          T               30.0  .66 Ml 4.0         4756415
SMF   006.77 241.2 m E Pg      2011/09/03 00:27:35.5   0.3                          T                                        4756434
SMF   006.77 241.2 m E Sg      2011/09/03 00:29:01.5  -0.4                          T               36.2  .66 Ml 4.0         4756427
AVF   006.96 243.7 m E Pg      2011/09/03 00:27:39.2   0.5                          T                                        4756435
AVF   006.96 243.7 m E Sg      2011/09/03 00:29:07.0  -1.0                          T               23.2  .72 Ml 3.8         4756426
MEZF  005.14 253.0 m E Sg      2011/09/03 00:28:10.3  -0.8                          T               44.1  .64 Ml 3.7         4756421
BAIF  005.31 271.2 m E Sg      2011/09/03 00:28:14.9  -1.3                          T               47.5  .86 Ml 3.7         4756418
ORIF  006.94 222.3 m E Sg      2011/09/03 00:29:07.9   0.6                          T               16.8  .74 Ml 3.6         4756429
TCF   007.90 243.9 m E Sg      2011/09/03 00:29:36.5  -0.7                          T               13.2  .60 Ml 3.8         4756416

.
EVENT     263464
    Date      Time       Latitude Longitude    Depth    Ndef Nsta Gap    Mag1  N    Mag2  N    Mag3  N   Author         ID
       rms   OT_Error      Smajor Sminor Az        Err   mdist  Mdist     Err        Err        Err      Quality

2011/09/03 01:15:21.6     50.2335   12.4433     10.0      46   10 046  Ml 3.2  9                         js067245    263464

      0.58   +-  0.09       2.2    1.7  130.54 +-  0.0    0.00   6.75   +-0.3                            m i ke

GERMANY
Sta     Dist  EvAz     Phase      Date       Time     TRes  Azim  AzRes  Slow  SRes Def   SNR       Amp   Per   Mag1   Mag2       ID
CDF   003.84 243.6 m E Pn      2011/09/03 01:16:19.6   0.6                          T                                        4756474
CDF   003.84 243.6 m E Pg      2011/09/03 01:16:33.4   0.6                          T                                        4756473
CDF   003.84 243.6 m E Sg      2011/09/03 01:17:22.5   0.4                          T               37.2  .70 Ml 3.4         4756460
HINF  004.40 238.8 m E Pn      2011/09/03 01:16:26.4  -0.1                          T                                        4756470
HINF  004.40 238.8 m E Pg      2011/09/03 01:16:42.5  -0.7                          T                                        4756469
HINF  004.40 238.8 m E Sg      2011/09/03 01:17:38.7  -0.9                          T               21.9  .56 Ml 3.3         4756463
PAGF  004.70 251.6 m E Pn      2011/09/03 01:16:31.1   0.6                          T                                        4756472
PAGF  004.70 251.6 m E Pg      2011/09/03 01:16:48.9   0.3                          T                                        4756471
PAGF  004.70 251.6 m E Sg      2011/09/03 01:17:48.8   0.0                          T                6.2  .74 Ml 2.7         4756461
GIVF  004.90 271.4 m E Pg      2011/09/03 01:16:52.9   0.7                          T                                        4756475
CABF  005.57 231.8 m E Pg      2011/09/03 01:17:04.8   0.0                          T                                        4756468
CABF  005.57 231.8 m E Sg      2011/09/03 01:18:16.4   0.3                          T               23.3  .80 Ml 3.5         4756464
LPL   006.08 221.3 m E Pg      2011/09/03 01:17:14.4   0.0                          T                                        4756467
LPL   006.08 221.3 m E Sg      2011/09/03 01:18:32.8   0.4                          T                3.9  .80 Ml 2.8         4756466
HAU   004.58 243.2 m E Sg      2011/09/03 01:17:45.3   0.1                          T               26.5  .62 Ml 3.2         4756462
BAIF  005.30 271.3 m E Sg      2011/09/03 01:18:06.8  -0.7                          T                8.2  .64 Ml 3.0         4756459
LOR   006.40 245.7 m E Sg      2011/09/03 01:18:42.8   0.7                          T               10.1  .68 Ml 3.3         4756458
SMF   006.75 241.2 m E Sg      2011/09/03 01:18:53.2   0.2                          T                5.1  .44 Ml 3.3         4756465

.
EVENT     263465
    Date      Time       Latitude Longitude    Depth    Ndef Nsta Gap    Mag1  N    Mag2  N    Mag3  N   Author         ID
       rms   OT_Error      Smajor Sminor Az        Err   mdist  Mdist     Err        Err        Err      Quality

2011/09/03 04:43:23.7     43.4130   17.5941      2.0      40    7 072  Ml 3.3  6                         js067245    263465

      1.22   +-  0.17       7.8    3.4   26.49 +-  0.0    0.86   9.11   +-0.2                            m i ke

NORTHWESTERN BALKAN PEN.
Sta     Dist  EvAz     Phase      Date       Time     TRes  Azim  AzRes  Slow  SRes Def   SNR       Amp   Per   Mag1   Mag2       ID
FRF   007.96 274.8 m E Pn      2011/09/03 04:45:18.3   0.4                          T                                        4756483
LPL   008.05 288.9 m E Pn      2011/09/03 04:45:19.4   0.0                          T                                        4756484
LPL   008.05 288.9 m E Sn      2011/09/03 04:46:45.6  -0.1                          T                9.6  .62 Ml 3.6         4756480
LPG   008.03 288.8 m E P       2011/09/03 04:45:24.4  -0.2                          T                                        4756482
LPG   008.03 288.8 m E Sn      2011/09/03 04:46:45.7   0.3                          T                3.5  .44 Ml 3.3         4756481
ORIF  008.56 284.2 m E Pn      2011/09/03 04:45:26.0  -0.1                          T                                        4756486
ORIF  008.56 284.2 m E P       2011/09/03 04:45:31.3  -0.4                          T                                        4756485
ORIF  008.56 284.2 m E Sn      2011/09/03 04:46:57.3  -0.3                          T                3.5  .54 Ml 3.3         4756479
CABF  008.76 295.4 m E Pn      2011/09/03 04:45:28.5  -0.3                          T                                        4756489
CABF  008.76 295.4 m E P       2011/09/03 04:45:34.7   0.2                          T                                        4756488
CABF  008.76 295.4 m E Sn      2011/09/03 04:47:02.7   0.3                          T                1.0  .42 Ml 2.9         4756476
HAU   009.11 304.2 m E P       2011/09/03 04:45:39.4   0.1                          T                                        4756487
HAU   009.11 304.2 m E Sn      2011/09/03 04:47:10.7   0.0                          T                3.1  .38 Ml 3.3         4756478
HINF  008.72 304.0 m E Sn      2011/09/03 04:47:01.8   0.3                          T                3.4  .51 Ml 3.3         4756477

.
EVENT     263549
    Date      Time       Latitude Longitude    Depth    Ndef Nsta Gap    Mag1  N    Mag2  N    Mag3  N   Author         ID
       rms   OT_Error      Smajor Sminor Az        Err   mdist  Mdist     Err        Err        Err      Quality

2011/09/03 05:56:11.8     41.6766   -1.6098      2.0      42    3 118  Ml 1.5  3                         js067245    263549

      0.36   +-  0.09       1.9    1.1   85.29 +-  0.0    0.85   2.06   +-0.2                            m i ke

SPAIN
Sta     Dist  EvAz     Phase      Date       Time     TRes  Azim  AzRes  Slow  SRes Def   SNR       Amp   Per   Mag1   Mag2       ID
ETSF  001.45 032.2 m E Pg      2011/09/03 05:56:38.8  -0.1                          T                                        4756492
ETSF  001.45 032.2 m E Sg      2011/09/03 05:56:57.5  -0.1                          T                 .5  .20 Ml 1.4         4756493
SJPF  001.46 011.1 m E Pg      2011/09/03 05:56:39.2   0.1                          T                                        4756494
SJPF  001.46 011.1 m E Sg      2011/09/03 05:56:57.7  -0.3                          T                 .7  .25 Ml 1.5         4756495
EPF   001.98 046.2 m E Pg      2011/09/03 05:56:48.9   0.2                          T                                        4756490
EPF   001.98 046.2 m E Sg      2011/09/03 05:57:14.0  -0.1                          T                 .8  .24 Ml 1.7         4756491

.
EVENT     263466
    Date      Time       Latitude Longitude    Depth    Ndef Nsta Gap    Mag1  N    Mag2  N    Mag3  N   Author         ID
       rms   OT_Error      Smajor Sminor Az        Err   mdist  Mdist     Err        Err        Err      Quality

2011/09/03 08:28:53.4     50.3362   12.3265     10.0 f    20    4 062  Ml 3.0  4                         js067245    263466

      0.76   +-  0.25       7.2    4.7  147.81 +-  0.0    0.13   5.58   +-0.1                            m i ke

GERMANY
Sta     Dist  EvAz     Phase      Date       Time     TRes  Azim  AzRes  Slow  SRes Def   SNR       Amp   Per   Mag1   Mag2       ID
CDF   003.82 241.7 m E Pn      2011/09/03 08:29:49.9  -0.6                          T                                        4756504
CDF   003.82 241.7 m E Pg      2011/09/03 08:30:04.9   0.6                          T                                        4756503
CDF   003.82 241.7 m E Sg      2011/09/03 08:30:53.0  -0.3                          T               14.6  .52 Ml 3.2         4756496
HINF  004.39 237.1 m E Pn      2011/09/03 08:29:57.4  -0.8                          T                                        4756501
HINF  004.39 237.1 m E Pg      2011/09/03 08:30:13.3  -1.4                          T                                        4756500
HINF  004.39 237.1 m E Sg      2011/09/03 08:31:10.0  -1.1                          T                7.9  .40 Ml 3.0         4756498
HAU   004.56 241.5 m E Pg      2011/09/03 08:30:17.0  -0.8                          T                                        4756502
HAU   004.56 241.5 m E Sg      2011/09/03 08:31:16.0  -0.4                          T               13.6  .52 Ml 3.0         4756497
CABF  005.58 230.4 m E Sg      2011/09/03 08:31:47.2  -0.8                          T                3.4  .45 Ml 2.9         4756499

.
EVENT     263461
    Date      Time       Latitude Longitude    Depth    Ndef Nsta Gap    Mag1  N    Mag2  N    Mag3  N   Author         ID
       rms   OT_Error      Smajor Sminor Az        Err   mdist  Mdist     Err        Err        Err      Quality

2011/09/03 08:32:02.3     42.9889   -1.3663      2.0      16    2 147             Md 1.3  2              js067245    263461

      0.32   +-  0.10       1.8    1.7  134.94 +-  0.0    0.10   0.60              +-0.2                 m i ke

PYRENEES
Sta     Dist  EvAz     Phase      Date       Time     TRes  Azim  AzRes  Slow  SRes Def   SNR       Amp   Per   Mag1   Mag2       ID
SJPF  000.16 039.7 m E Pg      2011/09/03 08:32:05.7   0.0                          T                                        4756519
SJPF  000.16 039.7 m E Sg      2011/09/03 08:32:07.9  -0.1                          T                7.7  .21        Md 1.4  4756520
ETSF  000.60 098.4 m E Pg      2011/09/03 08:32:13.1  -0.6                          T                                        4756517
ETSF  000.60 098.4 m E Sg      2011/09/03 08:32:20.8  -0.9                          T                 .7  .23        Md 1.1  4756518

.
EVENT     263467
    Date      Time       Latitude Longitude    Depth    Ndef Nsta Gap    Mag1  N    Mag2  N    Mag3  N   Author         ID
       rms   OT_Error      Smajor Sminor Az        Err   mdist  Mdist     Err        Err        Err      Quality

2011/09/03 09:46:19.8     50.2343   12.4525     10.0      40    5 046  Ml 3.2  4                         js067245    263467

      0.49   +-  0.08       2.1    1.6  118.43 +-  0.0    0.00   6.76   +-0.1                            m i ke

GERMANY
Sta     Dist  EvAz     Phase      Date       Time     TRes  Azim  AzRes  Slow  SRes Def   SNR       Amp   Per   Mag1   Mag2       ID
CDF   003.85 243.7 m E Pn      2011/09/03 09:47:18.9   1.6                          T                                        4756529
CDF   003.85 243.7 m E Pg      2011/09/03 09:47:32.0   0.8                          T                                        4756528
CDF   003.85 243.7 m E Sg      2011/09/03 09:48:20.3  -0.3                          T               11.4  .38 Ml 3.2         4756521
HINF  004.41 238.8 m E Pg      2011/09/03 09:47:41.2  -0.2                          T                                        4756527
HINF  004.41 238.8 m E Sg      2011/09/03 09:48:37.3  -0.7                          T               15.9  .54 Ml 3.2         4756523
LPG   006.10 221.1 m E Pg      2011/09/03 09:48:13.5   0.6                          T                                        4756525
SMF   006.76 241.2 m E Pg      2011/09/03 09:48:25.5   0.8                          T                                        4756526
SMF   006.76 241.2 m E Sg      2011/09/03 09:49:51.8   0.4                          T                3.8  .45 Ml 3.1         4756524
HAU   004.59 243.2 m E Sg      2011/09/03 09:48:43.0  -0.6                          T               15.3  .48 Ml 3.1         4756522

.
EVENT     263462
    Date      Time       Latitude Longitude    Depth    Ndef Nsta Gap    Mag1  N    Mag2  N    Mag3  N   Author         ID
       rms   OT_Error      Smajor Sminor Az        Err   mdist  Mdist     Err        Err        Err      Quality

2011/09/03 17:19:43.6     42.6374    2.1247      2.0      13    6 237  Ml 1.7  5  Md 1.9  1              js067245    263462

      1.77   +-  0.71      12.9    5.0  146.40 +-  0.0    0.71   2.70   +-0.2      +-                    m i ke

PYRENEES
Sta     Dist  EvAz     Phase      Date       Time     TRes  Azim  AzRes  Slow  SRes Def   SNR       Amp   Per   Mag1   Mag2       ID
MTLF  000.71 005.5 m E Pg      2011/09/03 17:19:57.3   0.4                          T                                        4756539
MTLF  000.71 005.5 m E Pn      2011/09/03 17:19:58.6  -0.4                          T                                        4756540
MTLF  000.71 005.5 m E Sg      2011/09/03 17:20:06.0  -0.2                          T                                        4756541
MTLF  000.71 005.5 m E Sn      2011/09/03 17:20:08.5  -1.4                          T                1.9  .20        Md 1.9  4756542
EPF   001.37 287.3 m E Pg      2011/09/03 17:20:09.4   0.2                          T                                        4756533
EPF   001.37 287.3 m E Sg      2011/09/03 17:20:24.4  -2.5                          T                1.0  .31 Ml 1.5         4756534
ETSF  001.99 278.4 m E Pg      2011/09/03 17:20:20.8   0.0                          T                                        4756537
ETSF  001.99 278.4 m E Sg      2011/09/03 17:20:47.8   1.3                          T                  1  .25 Ml 1.8         4756538
LASF  001.91 040.7 m E Sg      2011/09/03 17:20:44.2   0.3                          T                 .8  .15 Ml 1.9         4756532
CAF   002.29 358.9 m E Sg      2011/09/03 17:20:56.2   0.6                          T                 .9  .20 Ml 1.9         4756536
RJF   002.70 350.9 m E Sg      2011/09/03 17:21:08.9   0.5                          T                 .9  .28 Ml 1.5         4756535

.
