EVENT     276696
    Date      Time       Latitude Longitude    Depth    Ndef Nsta Gap    Mag1  N    Mag2  N    Mag3  N   Author         ID
       rms   OT_Error      Smajor Sminor Az        Err   mdist  Mdist     Err        Err        Err      Quality

2012/05/23 08:48:48.4     44.8559   11.5110      2.0      77   16 069  Ml 3.2 15                         bulletin    276796
                                                                                                         _ldg
      0.59   +-  0.08       2.2    2.0   66.63 +-  0.0    0.22   6.30   +-0.3                            m i ke

NORTHERN ITALY
Sta     Dist  EvAz     Phase      Date       Time     TRes  Azim  AzRes  Slow  SRes Def   SNR       Amp   Per   Mag1   Mag2       ID
PGF   002.94 219.2 m E Pn      2012/05/23 08:49:34.9   0.6                          T                                        4960360
PGF   002.94 219.2 m E Sn      2012/05/23 08:50:08.0  -0.1                          T               75.4  .60 Ml 3.8         4960359
SBF   003.09 252.7 m E Pn      2012/05/23 08:49:36.7   0.4                          T                                        4960357
SBF   003.09 252.7 m E Sn      2012/05/23 08:50:10.9  -0.7                          T               39.2  .39 Ml 3.5         4960358
MBDF  003.38 269.5 m E Pn      2012/05/23 08:49:40.6   0.3                          T                                        4960348
MBDF  003.38 269.5 m E Sn      2012/05/23 08:50:18.7   0.1                          T               25.9  .62 Ml 3.1         4960347
LPG   003.43 282.5 m E Pn      2012/05/23 08:49:41.6   0.4                          T                                        4960352
LPG   003.43 282.5 m E Sn      2012/05/23 08:50:18.3  -1.6                          T               34.8  .64 Ml 3.3         4960351
FRF   003.73 251.4 m E Pn      2012/05/23 08:49:45.5   0.6                          T                                        4960353
FRF   003.73 251.4 m E Sn      2012/05/23 08:50:26.9   0.1                          T               21.3  .36 Ml 3.4         4960354
LMR   003.91 248.9 m E Pn      2012/05/23 08:49:47.6   0.2                          T                                        4960356
LMR   003.91 248.9 m E Sn      2012/05/23 08:50:30.5  -0.7                          T                6.7  .36 Ml 2.9         4960355
ORIF  004.00 272.9 m E Pn      2012/05/23 08:49:49.1   0.3                          T                                        4960349
ORIF  004.00 272.9 m E Sn      2012/05/23 08:50:33.2  -0.3                          T               18.7  .52 Ml 3.2         4960350
CABF  004.18 296.7 m E Pn      2012/05/23 08:49:50.9  -0.3                          T                                        4960389
CABF  004.18 296.7 m E Sn      2012/05/23 08:50:37.6  -0.3                          T               13.0  .60 Ml 3.0         4960388
HINF  004.38 314.2 m E Pn      2012/05/23 08:49:53.9   0.0                          T                                        4960386
HINF  004.38 314.2 m E Sn      2012/05/23 08:50:42.7   0.3                          T                6.9  .41 Ml 3.0         4960387
CDF   004.60 322.2 m E Pn      2012/05/23 08:49:56.6  -0.3                          T                                        4960382
CDF   004.60 322.2 m E Sn      2012/05/23 08:50:48.0   0.2                          T                8.8  .42 Ml 3.2         4960383
HAU   004.76 313.3 m E Pn      2012/05/23 08:49:58.6  -0.4                          T                                        4960385
HAU   004.76 313.3 m E Sn      2012/05/23 08:50:50.7  -0.8                          T               16.3  .36 Ml 3.3         4960384
VIVF  004.86 272.4 m E Pn      2012/05/23 08:49:59.9  -0.5                          T                                        4960345
VIVF  004.86 272.4 m E Sn      2012/05/23 08:50:53.3  -0.7                          T                2.6  .29 Ml 2.8         4960346
LASF  005.53 264.6 m E Pn      2012/05/23 08:50:09.2  -0.3                          T                                        4960396
SMF   005.66 291.1 m E Pn      2012/05/23 08:50:12.1   0.8                          T                                        4960393
SMF   005.66 291.1 m E Sn      2012/05/23 08:51:12.7  -0.3                          T               16.4  .62 Ml 3.4         4960392
AVF   006.02 291.6 m E Pn      2012/05/23 08:50:17.2   1.1                          T                                        4960390
AVF   006.02 291.6 m E Sn      2012/05/23 08:51:20.7  -0.9                          T                3.0  .49 Ml 2.9         4960391
BGF   006.30 288.7 m E Pn      2012/05/23 08:50:20.0   0.0                          T                                        4960395
BGF   006.30 288.7 m E Sn      2012/05/23 08:51:28.1  -0.2                          T               17.0  .56 Ml 3.6         4960394

.
EVENT     276700
    Date      Time       Latitude Longitude    Depth    Ndef Nsta Gap    Mag1  N    Mag2  N    Mag3  N   Author         ID
       rms   OT_Error      Smajor Sminor Az        Err   mdist  Mdist     Err        Err        Err      Quality

2012/05/23 10:11:53.7     44.8545   11.3619      2.0      38   20 149  Ml 3.1 14                         bulletin    276800
                                                                                                         _ldg
      0.83   +-  0.20       5.8    3.5  165.87 +-  0.0    2.13   6.58   +-0.2                            m i ke

NORTHERN ITALY
Sta     Dist  EvAz     Phase      Date       Time     TRes  Azim  AzRes  Slow  SRes Def   SNR       Amp   Per   Mag1   Mag2       ID
SBF   002.99 252.0 m E Pn      2012/05/23 10:12:38.8  -1.5                          T   001.0                                4960645
SBF   002.99 252.0 m E Sn      2012/05/23 10:13:13.7  -0.8                          T                4.9  .20 Ml 2.8         4960624
PGF   002.87 217.4 m E Pn      2012/05/23 10:12:39.8   1.0                          T   001.0                                4960643
PGF   002.87 217.4 m E Sn      2012/05/23 10:13:11.4  -0.5                          T   001.0       37.2  .64 Ml 3.4         4960644
MBDF  003.27 269.4 m E Pn      2012/05/23 10:12:43.8  -0.5                          T   001.0                                4960653
MBDF  003.27 269.4 m E Sn      2012/05/23 10:13:19.9  -1.6                          T   001.0         13  .44 Ml 3.0         4960654
LPG   003.32 282.8 m E Pn      2012/05/23 10:12:45.8   0.7                          T   001.0                                4960640
LPL   003.34 283.1 m E Pn      2012/05/23 10:12:47.8   2.5                          T   001.0                                4960641
LPL   003.34 283.1 m E Sn      2012/05/23 10:13:21.4  -1.8                          T   001.0       11.8  .40 Ml 3.0         4960642
FRF   003.63 250.8 m E Pn      2012/05/23 10:12:48.3  -0.6                          T   001.0                                4960634
FRF   003.63 250.8 m E Sn      2012/05/23 10:13:28.6  -1.2                          T                3.9  .23 Ml 2.8         4960622
LMR   003.81 248.2 m E Pn      2012/05/23 10:12:51.3  -0.1                          T   001.0                                4960637
LMR   003.81 248.2 m E Sn      2012/05/23 10:13:33.3  -0.9                          T                                        4960623
ORIF  003.90 272.9 m E Pn      2012/05/23 10:12:51.8  -0.9                          T   001.0                                4960655
ORIF  003.90 272.9 m E Sn      2012/05/23 10:13:39.0   2.7                          T   001.0        9.3  .32 Ml 3.1         4960656
CABF  004.09 297.3 m E Pn      2012/05/23 10:12:56.3   1.0                          T   001.0                                4960649
CABF  004.09 297.3 m E Sn      2012/05/23 10:13:42.0   1.1                          T   001.0        5.3  .48 Ml 2.7         4960650
HINF  004.30 315.1 m E Pn      2012/05/23 10:12:58.3   0.1                          T   001.0                                4960651
HINF  004.30 315.1 m E Sn      2012/05/23 10:13:43.0  -2.0                          T   001.0        8.7  .24 Ml 3.3         4960652
SMRF  004.24 260.1 m E Pn      2012/05/23 10:12:59.8   2.5                          T   001.0                                4960659
CDF   004.54 323.1 m E Pn      2012/05/23 10:13:01.9   0.5                          T   001.0                                4960632
CDF   004.54 323.1 m E Sn      2012/05/23 10:13:50.1  -1.5                          T   001.0        4.2  .24 Ml 3.1         4960633
HAU   004.68 314.1 m E Pn      2012/05/23 10:13:03.9   0.5                          T   001.0                                4960635
HAU   004.68 314.1 m E Sn      2012/05/23 10:13:54.6  -0.5                          T   001.0       13.3  .20 Ml 3.4         4960636
VIVF  004.76 272.4 m E Pn      2012/05/23 10:13:04.9   0.6                          T   001.0                                4960657
VIVF  004.76 272.4 m E Sn      2012/05/23 10:13:57.1   0.3                          T   001.0        2.7  .28 Ml 2.8         4960658
SMF   005.56 291.4 m E Pn      2012/05/23 10:13:15.4   0.1                          T   001.0                                4960646
SMF   005.56 291.4 m E Sn      2012/05/23 10:14:15.2  -0.8                          T   001.0        9.4  .36 Ml 3.4         4960647
LOR   005.75 297.5 m E Pn      2012/05/23 10:13:17.9   0.0                          T   001.0                                4960638
LOR   005.75 297.5 m E Sn      2012/05/23 10:14:21.7   1.1                          T   001.0        4.8  .32 Ml 3.2         4960639
AVF   005.92 291.9 m E Pn      2012/05/23 10:13:19.9  -0.3                          T   001.0                                4960630
BGF   006.20 288.9 m E Pn      2012/05/23 10:13:23.9  -0.1                          T   001.0                                4960631
THEF  005.01 314.2 m E Sn      2012/05/23 10:13:59.7  -3.1                          T                                        4960625
TCF   006.58 285.8 m E Sn      2012/05/23 10:14:41.3   0.9                          T   001.0        2.3  .36 Ml 3.0         4960648

.
EVENT     276821
    Date      Time       Latitude Longitude    Depth    Ndef Nsta Gap    Mag1  N    Mag2  N    Mag3  N   Author         ID
       rms   OT_Error      Smajor Sminor Az        Err   mdist  Mdist     Err        Err        Err      Quality

2012/05/23 14:17:28.8     44.8078   11.3230      2.0      32   17 147  Ml 3.2 11                         bulletin    276921
                                                                                                         _ldg
      0.68   +-  0.18       6.0    2.8  160.14 +-  0.0    1.14  10.17   +-0.3                            m i ke

NORTHERN ITALY
Sta     Dist  EvAz     Phase      Date       Time     TRes  Azim  AzRes  Slow  SRes Def   SNR       Amp   Per   Mag1   Mag2       ID
PGF   002.82 217.5 m E Pn      2012/05/23 14:18:12.7  -0.4                          T   001.0                                4964549
PGF   002.82 217.5 m E Sn      2012/05/23 14:18:43.4  -2.2                          T   001.0       21.3  .32 Ml 3.4         4964550
MBDF  003.24 270.2 m E Pn      2012/05/23 14:18:19.8   0.9                          T   001.0                                4964555
MBDF  003.24 270.2 m E Sn      2012/05/23 14:18:55.4  -0.4                          T   001.0         16  .48 Ml 3.0         4964556
LPG   003.31 283.6 m E Pn      2012/05/23 14:18:20.8   0.8                          T   001.0                                4964548
FRF   003.59 251.3 m E Pn      2012/05/23 14:18:24.3   0.9                          T   001.0                                4964567
FRF   003.59 251.3 m E Sn      2012/05/23 14:19:04.0   1.1                          T   001.0       26.2  .28 Ml 3.6         4964568
LMR   003.77 248.7 m E Pn      2012/05/23 14:18:26.3   0.4                          T   001.0                                4964570
LMR   003.77 248.7 m E Sn      2012/05/23 14:19:07.0  -1.2                          T   001.0       12.4  .24 Ml 3.3         4964571
CDF   004.56 323.7 m E Pn      2012/05/23 14:18:36.8   0.0                          T   001.0                                4964565
CDF   004.56 323.7 m E Sn      2012/05/23 14:19:27.0  -0.2                          T   001.0        6.7  .32 Ml 3.2         4964566
HAU   004.70 314.7 m E Pn      2012/05/23 14:18:38.3  -0.3                          T   001.0                                4964569
VIVF  004.73 272.9 m E Pn      2012/05/23 14:18:38.3  -0.8                          T   001.0                                4964558
VIVF  004.73 272.9 m E Sn      2012/05/23 14:19:32.1   0.8                          T   001.0        2.1  .24 Ml 2.8         4964559
SMF   005.55 292.0 m E Pn      2012/05/23 14:18:50.4   0.2                          T   001.0                                4964551
SMF   005.55 292.0 m E Sn      2012/05/23 14:19:51.1   0.3                          T   001.0        3.9  .32 Ml 3.1         4964552
SSF   005.90 295.2 m E Pn      2012/05/23 14:18:54.4  -0.5                          T   001.0                                4964553
AVF   005.91 292.4 m E Pn      2012/05/23 14:18:55.9   0.8                          T   001.0                                4964561
BGF   006.19 289.4 m E Pn      2012/05/23 14:18:58.9   0.0                          T   001.0                                4964562
BGF   006.19 289.4 m E Sn      2012/05/23 14:20:06.7   0.6                          T   001.0        5.9  .36 Ml 3.4         4964563
CAF   006.58 274.3 m E Pn      2012/05/23 14:19:02.9  -1.4                          T   001.0                                4964564
HINF  004.32 315.8 m E Sn      2012/05/23 14:19:21.5   0.1                          T   001.0        4.9  .24 Ml 3.0         4964554
SMRF  004.20 260.6 m E Sg      2012/05/23 14:19:37.6  -2.9                          T   001.0        8.9  .60 Ml 2.9         4964560
SGMF  010.17 294.7 m E Pn      2012/05/23 14:19:50.6  -2.4                          T   001.0                                4964557
LOR   005.75 298.0 m E Sn      2012/05/23 14:19:54.7  -0.9                          T   001.0        3.2  .32 Ml 3.0         4964547

.
EVENT     276719
    Date      Time       Latitude Longitude    Depth    Ndef Nsta Gap    Mag1  N    Mag2  N    Mag3  N   Author         ID
       rms   OT_Error      Smajor Sminor Az        Err   mdist  Mdist     Err        Err        Err      Quality

2012/05/23 15:22:42.0     44.8246   11.0497      2.0      39   16 154  Ml 2.9  9                         bulletin    276819
                                                                                                         _ldg
      0.74   +-  0.28       6.1    4.2   66.09 +-  0.0    0.08   6.53   +-0.4                            m i ke

NORTHERN ITALY
Sta     Dist  EvAz     Phase      Date       Time     TRes  Azim  AzRes  Slow  SRes Def   SNR       Amp   Per   Mag1   Mag2       ID
PGF   002.72 213.9 m E Pn      2012/05/23 15:23:25.0   0.1                          T                                        4961061
PGF   002.72 213.9 m E Sn      2012/05/23 15:23:56.8   0.4                          T               34.1  .63 Ml 3.3         4961060
SBF   002.77 250.9 m E Pn      2012/05/23 15:23:25.9   0.4                          T                                        4961062
SBF   002.77 250.9 m E Sn      2012/05/23 15:23:56.9  -0.6                          T               16.9  .32 Ml 3.1         4961049
MBDF  003.05 269.7 m E Pn      2012/05/23 15:23:27.9  -1.5                          T                                        4961078
LPL   003.13 284.3 m E Pn      2012/05/23 15:23:29.1  -1.6                          T                                        4961065
LPL   003.13 284.3 m E Sn      2012/05/23 15:24:05.2  -1.3                          T               10.6  .54 Ml 2.8         4961052
FRF   003.41 249.8 m E Pn      2012/05/23 15:23:34.1  -0.1                          T                                        4961064
FRF   003.41 249.8 m E Sn      2012/05/23 15:24:12.8   0.0                          T                6.7  .30 Ml 2.9         4961051
LMR   003.60 247.1 m E Pn      2012/05/23 15:23:37.1   0.4                          T                                        4961063
LMR   003.60 247.1 m E Sn      2012/05/23 15:24:16.6  -0.6                          T               11.7  .49 Ml 3.0         4961050
ORIF  003.68 273.3 m E Pn      2012/05/23 15:23:38.8   0.8                          T                                        4961077
ORIF  003.68 273.3 m E Sn      2012/05/23 15:24:18.8  -0.5                          T               12.8  .58 Ml 2.9         4961053
CABF  003.91 299.0 m E Pn      2012/05/23 15:23:41.3   0.2                          T                                        4961071
CABF  003.91 299.0 m E Sn      2012/05/23 15:24:23.4  -1.4                          T                                        4961070
SMRF  004.01 259.7 m E Pn      2012/05/23 15:23:42.8   0.3                          T                                        4961048
SMRF  004.01 259.7 m E Sn      2012/05/23 15:24:26.6  -0.7                          T                 .4  .17 Ml 2.0         4961047
HINF  004.17 317.3 m E Pn      2012/05/23 15:23:45.0   0.4                          T                                        4961073
HINF  004.17 317.3 m E Sn      2012/05/23 15:24:32.4   1.3                          T                                        4961072
VIVF  004.54 272.6 m E Pn      2012/05/23 15:23:47.9  -1.7                          T                                        4961066
CDF   004.43 325.4 m E Pn      2012/05/23 15:23:48.1  -0.1                          T                                        4961076
CDF   004.43 325.4 m E Sn      2012/05/23 15:24:36.8  -0.5                          T                                        4961074
HAU   004.55 316.0 m E Pn      2012/05/23 15:23:51.9   2.1                          T                                        4961045
HAU   004.55 316.0 m E Sn      2012/05/23 15:24:39.9  -0.2                          T               12.5  .24 Ml 3.3         4961046
SMF   005.36 292.4 m E Pn      2012/05/23 15:24:01.4   0.5                          T                                        4961069
SMF   005.36 292.4 m E Sn      2012/05/23 15:24:57.5  -2.0                          T                                        4961068
LOR   005.57 298.6 m E Pn      2012/05/23 15:24:02.5  -1.1                          T                                        4961075
LOR   005.57 298.6 m E Sn      2012/05/23 15:25:05.1   0.6                          T                7.6  .56 Ml 3.1         4961044
BGF   006.00 289.7 m E Pn      2012/05/23 15:24:08.7  -0.8                          T                                        4961067

.
