EVENT     288385
    Date      Time       Latitude Longitude    Depth    Ndef Nsta Gap    Mag1  N    Mag2  N    Mag3  N   Author         ID
       rms   OT_Error      Smajor Sminor Az        Err   mdist  Mdist     Err        Err        Err      Quality

2012/12/12 21:34:34.8     47.5752    7.6034      6.0 f    35    9 065  Ml 1.9  9  Md 2.0  2              bulletin    288485
                                                                                                         _ldg
      0.42   +-  0.05       1.0     .7  162.08 +-  0.0    0.17   3.13   +-0.3      +-0.1                 m i ke

SWITZERLAND
Sta     Dist  EvAz     Phase      Date       Time     TRes  Azim  AzRes  Slow  SRes Def   SNR       Amp   Per   Mag1   Mag2       ID
HINF  000.56 295.8 m E Pg      2012/12/12 21:34:45.2  -0.4                          T                                        5137609
HINF  000.56 295.8 m E Sg      2012/12/12 21:34:53.0   0.1                          T                4.0  .21        Md 2.0  5137608
CDF   000.87 345.4 m E Pg      2012/12/12 21:34:51.4   0.1                          T                                        5137607
CDF   000.87 345.4 m E Sg      2012/12/12 21:35:02.7   0.1                          T                6.2  .29 Ml 2.2 Md 2.0  5137606
HAU   000.95 297.4 m E Pg      2012/12/12 21:34:52.6  -0.1                          T                                        5137605
HAU   000.95 297.4 m E Sg      2012/12/12 21:35:04.8  -0.2                          T                5.8  .34 Ml 1.8         5137604
CABF  001.42 227.6 m E Pn      2012/12/12 21:34:59.4  -0.2                          T                                        5137620
CABF  001.42 227.6 m E Pg      2012/12/12 21:35:01.2  -0.2                          T                                        5145407
CABF  001.42 227.6 m E Sn      2012/12/12 21:35:17.0  -0.4                          T                                        5137619
CABF  001.42 227.6 m E Sg      2012/12/12 21:35:19.5  -0.1                          T                1.9  .24 Ml 1.9         5145408
PAGF  001.60 308.6 m E Pn      2012/12/12 21:35:02.2   0.3                          T                                        5137613
PAGF  001.60 308.6 m E Pg      2012/12/12 21:35:04.3  -0.3                          T                                        5137612
PAGF  001.60 308.6 m E Sn      2012/12/12 21:35:22.7   1.1                          T                                        5137611
PAGF  001.60 308.6 m E Sg      2012/12/12 21:35:25.7   0.5                          T                 .6  .20 Ml 1.6         5137610
SFTF  001.84 291.0 m E Pn      2012/12/12 21:35:05.3   0.1 112.8  3.7               T                                        5137618
SFTF  001.84 291.0 m E Sn      2012/12/12 21:35:27.5   0.1                          T                                        5137617
SFTF  001.84 291.0 m E Sg      2012/12/12 21:35:32.6  -0.1                          T                 .9  .16 Ml 1.9         5137616
MEZF  001.95 299.4 m E Pn      2012/12/12 21:35:06.8   0.2                          T                                        5137615
MEZF  001.95 299.4 m E Pg      2012/12/12 21:35:10.9  -0.1 118.6  1.2               T                                        5137621
MEZF  001.95 299.4 m E Sn      2012/12/12 21:35:30.1   0.1                          T                4.3  .45 Ml 2.2         5137614
LOR   002.56 264.5 m E Pn      2012/12/12 21:35:15.1   0.1                          T                                        5137625
LOR   002.56 264.5 m E Pg      2012/12/12 21:35:22.2  -0.1                          T                                        5137624
LOR   002.56 264.5 m E Sn      2012/12/12 21:35:44.6  -0.1                          T                                        5137623
LOR   002.56 264.5 m E Sg      2012/12/12 21:35:54.8  -0.5  84.0  2.3               T                 .4  .19 Ml 1.7         5137622
GIVF  003.13 325.0 m E Pn      2012/12/12 21:35:23.0   0.3                          T                                        5137628
GIVF  003.13 325.0 m E Pg      2012/12/12 21:35:32.8   0.1                          T                                        5137627
GIVF  003.13 325.0 m E Sn      2012/12/12 21:35:58.3   0.2                          T                1.7  .22 Ml 2.3         5137626

.
EVENT     288386
    Date      Time       Latitude Longitude    Depth    Ndef Nsta Gap    Mag1  N    Mag2  N    Mag3  N   Author         ID
       rms   OT_Error      Smajor Sminor Az        Err   mdist  Mdist     Err        Err        Err      Quality

2012/12/13 00:30:18.0     42.8590     .1917      2.0      11    4 203  Ml 1.1  3  Md 1.3  2              bulletin    288486
                                                                                                         _ldg
      0.27   +-  0.08       2.8     .8  171.13 +-  0.0    0.20   1.56   +-0.3      +-0.1                 m i ke

PYRENEES
Sta     Dist  EvAz     Phase      Date       Time     TRes  Azim  AzRes  Slow  SRes Def   SNR       Amp   Per   Mag1   Mag2       ID
EPF   000.20 032.4 m E Pg      2012/12/13 00:30:22.1   0.0                          T                                        5137632
EPF   000.20 032.4 m E Sg      2012/12/13 00:30:24.6  -0.4                          T                 .5  .12        Md 1.3  5137631
ETSF  000.55 274.4 m E Pg      2012/12/13 00:30:28.6  -0.1                          T                                        5137630
ETSF  000.55 274.4 m E Sg      2012/12/13 00:30:36.1   0.2                          T                 .7  .16        Md 1.4  5137629
SJPF  001.07 284.2 m E Pg      2012/12/13 00:30:38.2   0.1                          T                                        5137634
SJPF  001.07 284.2 m E Sg      2012/12/13 00:30:51.6  -0.3                          T                 .2  .20 Ml  .9         5137633
MTLF  001.56 071.3 m E Pn      2012/12/13 00:30:45.1   0.1                          T                                        5137637
MTLF  001.56 071.3 m E Sn      2012/12/13 00:31:04.6  -0.1                          T                                        5137636
MTLF  001.56 071.3 m E Sg      2012/12/13 00:31:07.2   0.0                          T                 .2  .15 Ml 1.1         5137635

.
EVENT     288388
    Date      Time       Latitude Longitude    Depth    Ndef Nsta Gap    Mag1  N    Mag2  N    Mag3  N   Author         ID
       rms   OT_Error      Smajor Sminor Az        Err   mdist  Mdist     Err        Err        Err      Quality

2012/12/13 01:55:35.3     43.7658   17.7755      2.0      69   14 076  Ml 3.0 13                         bulletin    288488
                                                                                                         _ldg
      1.04   +-  0.12       4.2    2.4   26.64 +-  0.0    0.90  12.96   +-0.4                            m i ke

NORTHWESTERN BALKAN PEN.
Sta     Dist  EvAz     Phase      Date       Time     TRes  Azim  AzRes  Slow  SRes Def   SNR       Amp   Per   Mag1   Mag2       ID
SBF   007.48 274.3 m E Pn      2012/12/13 01:57:22.9  -0.2                          T                                        5137675
SBF   007.48 274.3 m E Sn      2012/12/13 01:58:44.1   0.7                          T                2.0  .27 Ml 3.2         5137674
MBDF  007.96 280.7 m E Pn      2012/12/13 01:57:28.1  -1.6                          T                                        5137685
MBDF  007.96 280.7 m E Sn      2012/12/13 01:58:55.3   0.3                          T                1.9  .41 Ml 3.1         5137678
LPG   008.05 286.2 m E Pn      2012/12/13 01:57:31.1   0.0                          T                                        5137680
LPG   008.05 286.2 m E Sn      2012/12/13 01:58:57.8   0.4                          T                1.3  .30 Ml 3.1         5137679
FRF   008.07 272.4 m E Pn      2012/12/13 01:57:31.1   0.1                          T                                        5137676
LPL   008.07 286.4 m E Pn      2012/12/13 01:57:31.3   0.1                          T                                        5137682
LPL   008.07 286.4 m E Sn      2012/12/13 01:58:58.6   0.9                          T                3.1  .30 Ml 3.4         5137681
LMR   008.20 270.9 m E Pn      2012/12/13 01:57:33.3   0.6                          T                                        5137664
LMR   008.20 270.9 m E Sn      2012/12/13 01:59:01.1   0.6                          T                 .4  .21 Ml 2.7         5137663
ORIF  008.60 281.8 m E Pn      2012/12/13 01:57:38.7   0.3                          T                                        5137684
ORIF  008.60 281.8 m E Sn      2012/12/13 01:59:09.8  -0.6                          T                2.2  .38 Ml 3.3         5137683
CDF   008.65 306.2 m E Pn      2012/12/13 01:57:38.8  -0.2                          T                                        5137662
CDF   008.65 306.2 m E Sn      2012/12/13 01:59:10.8  -0.6                          T                 .1  .14 Ml 2.6         5137661
HINF  008.64 301.8 m E Pn      2012/12/13 01:57:38.9   0.2                          T                                        5137671
HINF  008.64 301.8 m E Sn      2012/12/13 01:59:11.3   0.2                          T                 .5  .21 Ml 2.9         5137669
CABF  008.73 293.1 m E Pn      2012/12/13 01:57:40.6   0.6                          T                                        5137673
CABF  008.73 293.1 m E Sn      2012/12/13 01:59:13.5   0.1                          T                     .17 Ml 2.0         5137672
SMRF  008.82 275.6 m E Pn      2012/12/13 01:57:41.8   0.7                          T                                        5137677
HAU   009.03 302.0 m E Pn      2012/12/13 01:57:44.7   0.7                          T                                        5137670
LOR   010.38 294.6 m E Pn      2012/12/13 01:58:02.4   0.1                          T                                        5137668
LOR   010.38 294.6 m E Sn      2012/12/13 01:59:53.0   0.4                          T                 .4  .19 Ml 3.1         5137667
SSF   010.56 293.1 m E Pn      2012/12/13 01:58:05.2   0.3                          T                                        5137666
SSF   010.56 293.1 m E Sn      2012/12/13 01:59:57.1   0.1                          T                 .6  .30 Ml 3.2         5137665

.
EVENT     288408
    Date      Time       Latitude Longitude    Depth    Ndef Nsta Gap    Mag1  N    Mag2  N    Mag3  N   Author         ID
       rms   OT_Error      Smajor Sminor Az        Err   mdist  Mdist     Err        Err        Err      Quality

2012/12/13 07:38:53.0     45.2078    6.1210      2.0      18    7 079  Ml 1.8  3  Md 1.7  3              bulletin    288508
                                                                                                         _ldg
      0.64   +-  0.09       2.1    1.6  126.16 +-  0.0    0.34   2.14   +-0.3      +-0.0                 m i ke

FRANCE
Sta     Dist  EvAz     Phase      Date       Time     TRes  Azim  AzRes  Slow  SRes Def   SNR       Amp   Per   Mag1   Mag2       ID
ORIF  000.34 210.6 m E Pg      2012/12/13 07:38:59.2  -0.5                          T                                        5145430
ORIF  000.34 210.6 m E Sg      2012/12/13 07:39:03.3  -0.8                          T               20.8  .26        Md 1.7  5145429
LPG   000.53 056.7 m E Pg      2012/12/13 07:39:03.0  -0.5                          T                                        5145425
LPG   000.53 056.7 m E Sg      2012/12/13 07:39:11.0   0.6                          T                1.7  .23        Md 1.7  5145422
LPL   000.53 054.2 m E Pg      2012/12/13 07:39:03.2  -0.2                          T                                        5145426
LPL   000.53 054.2 m E Sg      2012/12/13 07:39:10.6   0.3                          T                1.2  .19        Md 1.7  5145421
MBDF  000.67 135.9 m E Pg      2012/12/13 07:39:05.9   0.1                          T                                        5145428
MBDF  000.67 135.9 m E Sg      2012/12/13 07:39:14.9   0.3                          T                2.3  .23                5145427
VIVF  001.09 251.6 m E Pg      2012/12/13 07:39:14.0   0.7                          T                                        5145424
VIVF  001.09 251.6 m E Sg      2012/12/13 07:39:27.4  -0.1                          T                2.9  .22 Ml 2.0         5145423
CABF  001.40 359.1 m E Pn      2012/12/13 07:39:18.1   0.1                          T                                        5145416
CABF  001.40 359.1 m E Pg      2012/12/13 07:39:19.2  -0.1                          T                                        5145415
CABF  001.40 359.1 m E Sn      2012/12/13 07:39:35.6  -0.5                          T                                        5145414
CABF  001.40 359.1 m E Sg      2012/12/13 07:39:37.4   0.0                          T                 .7  .21 Ml 1.5         5145413
SMF   002.14 312.9 m E Pn      2012/12/13 07:39:28.0   0.0                          T                                        5145418
SMF   002.14 312.9 m E Sn      2012/12/13 07:39:53.9   0.3                          T                1.5  .29 Ml 2.0         5145417

.
EVENT     288407
    Date      Time       Latitude Longitude    Depth    Ndef Nsta Gap    Mag1  N    Mag2  N    Mag3  N   Author         ID
       rms   OT_Error      Smajor Sminor Az        Err   mdist  Mdist     Err        Err        Err      Quality

2012/12/13 11:19:21.3     43.6448    6.9969       .0 f    32   10 094  Ml 1.9  6  Md 1.8  3              bulletin    288507
                                                                                                         _ldg
      0.43   +-  0.09       1.8    1.7  135.78 +-  0.0    0.04   2.06   +-0.3      +-0.1                 m i km

NEAR SOUTH COAST OF FRANCE
Sta     Dist  EvAz     Phase      Date       Time     TRes  Azim  AzRes  Slow  SRes Def   SNR       Amp   Per   Mag1   Mag2       ID
FRF   000.27 251.8 m E Pg      2012/12/13 11:19:26.4  -0.4                          T                                        5138797
FRF   000.27 251.8 m E Sg      2012/12/13 11:19:30.5  -0.2                          T               16.9  .24        Md 2.0  5138798
SBF   000.39 055.4 m E Pg      2012/12/13 11:19:29.3   0.2                          T                                        5138795
SBF   000.39 055.4 m E Sg      2012/12/13 11:19:34.8   0.3                          T                9.9  .25        Md 1.7  5138799
LMR   000.47 229.0 m E Pg      2012/12/13 11:19:30.6   0.0                          T                                        5138796
LMR   000.47 229.0 m E Sg      2012/12/13 11:19:37.0   0.0                          T               18.6  .24        Md 1.8  5138800
SMRF  001.08 288.3 m E Pg      2012/12/13 11:19:42.3   0.4                          T                                        5138801
SMRF  001.08 288.3 m E Sg      2012/12/13 11:19:56.3   0.2                          T                8.4  .20 Ml 2.5         5138802
MBDF  001.09 351.5 m E Pg      2012/12/13 11:19:42.6   0.4                          T                                        5138808
MBDF  001.09 351.5 m E Sg      2012/12/13 11:19:56.2  -0.4                          T                2.1  .23 Ml 1.8         5138807
ORIF  001.50 328.2 m E Pg      2012/12/13 11:19:50.0   0.3                          T                                        5138806
ORIF  001.50 328.2 m E Sg      2012/12/13 11:20:09.2  -0.2                          T                1.4  .18 Ml 1.9         5138805
PGF   001.83 126.1 m E Pn      2012/12/13 11:19:52.0  -0.6                          T                                        5145568
LPG   001.86 354.7 m E Pn      2012/12/13 11:19:53.6   0.3                          T                                        5145575
LPG   001.86 354.7 m E Pg      2012/12/13 11:19:56.5  -0.1                          T                                        5138803
LPG   001.86 354.7 m E Sn      2012/12/13 11:20:15.9  -0.4                          T                                        5145574
LPG   001.86 354.7 m E Sg      2012/12/13 11:20:20.9   0.2                          T                 .7  .22 Ml 1.7         5145573
VIVF  002.06 306.7 m E Pn      2012/12/13 11:19:55.4  -0.3                          T                                        5145571
VIVF  002.06 306.7 m E Sn      2012/12/13 11:20:20.5  -0.2                          T                                        5145570
VIVF  002.06 306.7 m E Sg      2012/12/13 11:20:26.8   0.1                          T                1.2  .24 Ml 1.9         5145569
LPL   001.88 354.3 m E Pg      2012/12/13 11:19:56.4  -0.4                          T                                        5138804
LPL   001.88 354.3 m E Sn      2012/12/13 11:20:16.4  -0.2                          T                 .5  .25 Ml 1.5         5145572

.
EVENT     288416
    Date      Time       Latitude Longitude    Depth    Ndef Nsta Gap    Mag1  N    Mag2  N    Mag3  N   Author         ID
       rms   OT_Error      Smajor Sminor Az        Err   mdist  Mdist     Err        Err        Err      Quality

2012/12/13 12:23:11.2     47.2296    7.2228       .0 f    10    5 230  Ml 1.6  4  Md 1.8  1              bulletin    288516
                                                                                                         _ldg
      0.77   +-  0.68      16.2    6.1  110.54 +-  0.0    0.64   1.77   +-0.3      +-                    m i km

SWITZERLAND
Sta     Dist  EvAz     Phase      Date       Time     TRes  Azim  AzRes  Slow  SRes Def   SNR       Amp   Per   Mag1   Mag2       ID
HINF  000.64 337.0 m E Pn      2012/12/13 12:23:25.5  -0.6                          T                                        5138604
HINF  000.64 337.0 m E Sg      2012/12/13 12:23:33.3   1.2                          T                1.1  .20        Md 1.8  5138599
CABF  000.99 231.9 m E Pg      2012/12/13 12:23:30.6   0.4                          T                                        5138605
CABF  000.99 231.9 m E Sg      2012/12/13 12:23:43.9   0.6                          T                1.1  .23 Ml 1.5         5138600
HAU   000.98 323.0 m E Pg      2012/12/13 12:23:31.2   1.4                          T                                        5138603
HAU   000.98 323.0 m E Sg      2012/12/13 12:23:43.7   1.1                          T                2.7  .28 Ml 1.6         5138598
CDF   001.18 001.7 m E Pg      2012/12/13 12:23:34.2   0.5                          T                                        5138601
CDF   001.18 001.7 m E Sg      2012/12/13 12:23:49.3   0.0                          T                 .4  .18 Ml 1.4         5138597
SFTF  001.77 304.3 m E Pn      2012/12/13 12:23:40.9  -0.6                          T                                        5138602
SFTF  001.77 304.3 m E Sn      2012/12/13 12:24:02.0  -1.5                          T                1.5  .21 Ml 2.0         5138613

.
