BEGIN GSE2.0
MSG_TYPE DATA
MSG_ID 11-MAY-1215:08:22  FRA_NDC
E-MAIL
DATA_TYPE BULLETIN
Reviewed Bulletin (REB) # P2012-018  from French NDC for regional phases     PERIOD 02 MAY 2012 TO 08 MAY 2012 S M., J-P S
EVENT     275189
    Date      Time       Latitude Longitude    Depth    Ndef Nsta Gap    Mag1  N    Mag2  N    Mag3  N   Author         ID
       rms   OT_Error      Smajor Sminor Az        Err   mdist  Mdist     Err        Err        Err      Quality

2012/05/02 00:41:28.9     42.9769     .2176      2.0      36    8 089  Ml 1.9  7  Md 2.0  2              bulletin    275289
                                                                                                         _ldg
      0.60   +-  0.08       1.6    1.3    7.53 +-  0.0    0.10   2.87   +-0.2      +-0.0                 m i ke

PYRENEES
Sta     Dist  EvAz     Phase      Date       Time     TRes  Azim  AzRes  Slow  SRes Def   SNR       Amp   Per   Mag1   Mag2       ID
EPF   000.10 059.2 m E Pg      2012/05/02 00:41:30.9  -0.4                          T                                        4934123
EPF   000.10 059.2 m E Sg      2012/05/02 00:41:32.9   0.1                          T               35.1  .16        Md 2.0  4934122
ETSF  000.58 262.5 m E Pg      2012/05/02 00:41:39.3  -0.6                          T                                        4934121
ETSF  000.58 262.5 m E Sg      2012/05/02 00:41:46.8  -0.7                          T                5.3  .28        Md 2.0  4934120
SJPF  001.07 277.8 m E Pg      2012/05/02 00:41:48.8  -0.1                          T                                        4934119
SJPF  001.07 277.8 m E Sg      2012/05/02 00:42:03.9   1.3                          T                1.2  .25 Ml 1.5         4934118
MTLF  001.51 075.3 m E Pg      2012/05/02 00:41:56.6  -0.4                          T                                        4937520
MTLF  001.51 075.3 m E Sg      2012/05/02 00:42:16.8   0.3                          T                1.2  .24 Ml 1.7         4937521
LFF   002.00 010.7 m E Pg      2012/05/02 00:42:05.9  -0.1                          T                                        4937651
LFF   002.00 010.7 m E Sg      2012/05/02 00:42:31.7   0.0                          T                7.7  .45 Ml 2.3         4937652
CAF   002.36 033.8 m E Sg      2012/05/02 00:42:43.5   0.4                          T                1.3  .20 Ml 2.1         4937653
RJF   002.51 021.4 m E Sg      2012/05/02 00:42:48.1   0.4                          T                1.6  .20 Ml 1.9         4937650
LASF  002.87 066.2 m E Sg      2012/05/02 00:42:59.2   0.4                          T                 .9  .32 Ml 1.8         4937654

.
EVENT     275191
    Date      Time       Latitude Longitude    Depth    Ndef Nsta Gap    Mag1  N    Mag2  N    Mag3  N   Author         ID
       rms   OT_Error      Smajor Sminor Az        Err   mdist  Mdist     Err        Err        Err      Quality

2012/05/02 00:57:58.9     48.3563    6.2276     15.0      25   11 144  Ml 1.7  4  Md 1.8  3              bulletin    275291
                                                                                                         _ldg
      1.01   +-  0.12       2.5    1.7   14.19 +-  0.0    0.20   2.50   +-0.1      +-0.1                 m i ke

FRANCE
Sta     Dist  EvAz     Phase      Date       Time     TRes  Azim  AzRes  Slow  SRes Def   SNR       Amp   Per   Mag1   Mag2       ID
THEF  000.20 230.7 m E Pg      2012/05/02 00:58:03.5  -0.2                          T                                        4934137
THEF  000.20 230.7 m E Sg      2012/05/02 00:58:06.4  -0.6                          T                4.1  .23        Md 1.7  4934136
HAU   000.36 167.0 m E Pg      2012/05/02 00:58:06.4   0.0                          T                                        4934135
HAU   000.36 167.0 m E Sg      2012/05/02 00:58:11.4  -0.1                          T                5.3  .20        Md 1.7  4934134
PAGF  000.39 300.9 m E Pg      2012/05/02 00:58:06.7  -0.1                          T                                        4937749
PAGF  000.39 300.9 m E Sg      2012/05/02 00:58:11.9  -0.4 121.5  1.0               T                 .4  .18                4937721
HINF  000.68 141.9 m E Pg      2012/05/02 00:58:12.1   0.0                          T                                        4934133
HINF  000.68 141.9 m E Sg      2012/05/02 00:58:21.0  -0.2                          T                2.1  .22        Md 1.8  4934132
CDF   000.70 085.0 m E Pg      2012/05/02 00:58:12.4  -0.1                          T                                        4934131
CDF   000.70 085.0 m E Sg      2012/05/02 00:58:21.7  -0.1                          T                1.9  .20                4934130
MEZF  000.80 281.0 m E Pg      2012/05/02 00:58:14.1   0.0 101.6  1.5               T                                        4940148
MEZF  000.80 281.0 m E Sg      2012/05/02 00:58:24.3  -0.3 106.5  6.4               T                2.1  .22                4937717
SFTF  000.81 259.7 m E Pg      2012/05/02 00:58:14.2  -0.2                          T                                        4934129
SFTF  000.81 259.7 m E Sg      2012/05/02 00:58:24.9  -0.2                          T                1.9  .19                4934128
LOR   001.93 236.6 m E Pn      2012/05/02 00:58:29.7   0.1  61.4  6.6               T                                        4937715
LOR   001.93 236.6 m E Pg      2012/05/02 00:58:35.0   0.1  60.7  5.8               T                                        4940149
LOR   001.93 236.6 m E Sg      2012/05/02 00:58:59.3  -0.6  59.5  4.7               T                 .8  .27 Ml 1.7         4937719
CABF  001.75 183.2 m E Pg      2012/05/02 00:58:31.9   0.2                          T                                        4937716
CABF  001.75 183.2 m E Sg      2012/05/02 00:58:54.4   0.1                          T                  1  .31 Ml 1.6         4937720
SSF   002.25 235.8 m E Pg      2012/05/02 00:58:40.5  -0.2                          T                                        4937714
SSF   002.25 235.8 m E Sg      2012/05/02 00:59:10.4   0.6                          T                 .6  .23 Ml 1.8         4937718
AVF   002.50 232.2 m E P       2012/05/02 00:58:40.9   1.0                          T                                        4940147
AVF   002.50 232.2 m E Pg      2012/05/02 00:58:45.4   0.0                          T                                        4940146

.
EVENT     275192
    Date      Time       Latitude Longitude    Depth    Ndef Nsta Gap    Mag1  N    Mag2  N    Mag3  N   Author         ID
       rms   OT_Error      Smajor Sminor Az        Err   mdist  Mdist     Err        Err        Err      Quality

2012/05/02 03:51:28.5     44.5518    8.4746      2.0      51    9 114  Ml 2.2 10  Md 2.0  2              bulletin    275292
                                                                                                         _ldg
      0.55   +-  0.15       2.6    1.5   84.85 +-  0.0    0.05   2.73   +-0.4      +-0.2                 m i ke

NORTHERN ITALY
Sta     Dist  EvAz     Phase      Date       Time     TRes  Azim  AzRes  Slow  SRes Def   SNR       Amp   Per   Mag1   Mag2       ID
SBF   001.02 227.7 m E Pg      2012/05/02 03:51:47.9   0.2                          T                                        4934633
SBF   001.02 227.7 m E Sg      2012/05/02 03:52:00.5  -0.3                          T               16.2  .21 Ml 2.7 Md 2.1  4934634
MBDF  001.23 278.8 m E Pg      2012/05/02 03:51:50.9  -0.7                          T                                        4934622
MBDF  001.23 278.8 m E Sg      2012/05/02 03:52:07.3  -0.2                          T                2.8  .16 Ml 2.1 Md 1.8  4934621
LPG   001.55 308.3 m E Pn      2012/05/02 03:51:56.2   0.5                          T                                        4934628
LPG   001.55 308.3 m E Pg      2012/05/02 03:51:58.1   0.4                          T                                        4937755
LPG   001.55 308.3 m E Sn      2012/05/02 03:52:15.7   0.6                          T                 .9  .26 Ml 1.6         4934627
LPL   001.57 308.6 m E Pn      2012/05/02 03:51:56.8   0.9                          T                                        4934626
LPL   001.57 308.6 m E Pg      2012/05/02 03:51:58.4   0.4                          T                                        4937754
LPL   001.57 308.6 m E Sn      2012/05/02 03:52:16.0   0.4                          T                1.7  .25 Ml 1.9         4934625
FRF   001.65 233.7 m E Pg      2012/05/02 03:51:59.3   0.2                          T                                        4934630
FRF   001.65 233.7 m E Sg      2012/05/02 03:52:20.9   0.4                          T               18.1  .40 Ml 2.8         4934629
ORIF  001.89 282.1 m E Pn      2012/05/02 03:51:59.5  -0.6                          T                                        4934624
ORIF  001.89 282.1 m E Pg      2012/05/02 03:52:02.9  -0.8                          T                                        4937753
ORIF  001.89 282.1 m E Sn      2012/05/02 03:52:22.9  -0.1                          T                                        4934623
ORIF  001.89 282.1 m E Sg      2012/05/02 03:52:28.7   0.8                          T                3.4  .37 Ml 2.1         4937752
LMR   001.87 230.1 m E Pg      2012/05/02 03:52:02.9  -0.4                          T                                        4934631
LMR   001.87 230.1 m E Sg      2012/05/02 03:52:27.0  -0.3                          T                5.5  .25 Ml 2.5         4934632
PGF   002.04 169.0 m E Pn      2012/05/02 03:52:03.9   1.7                          T                                        4934620
PGF   002.04 169.0 m E Sn      2012/05/02 03:52:27.4   0.7                          T                 .8  .18 Ml 2.1         4934619
VIVF  002.73 277.7 m E Pn      2012/05/02 03:52:12.8   1.3                          T                                        4934618
VIVF  002.73 277.7 m E Sn      2012/05/02 03:52:42.8  -0.3                          T                 .4  .22 Ml 1.7         4934617

.
EVENT     275248
    Date      Time       Latitude Longitude    Depth    Ndef Nsta Gap    Mag1  N    Mag2  N    Mag3  N   Author         ID
       rms   OT_Error      Smajor Sminor Az        Err   mdist  Mdist     Err        Err        Err      Quality

2012/05/02 04:16:21.2     44.6333    7.2512     10.0 f    34    8 130  Ml 1.6  7  Md 1.6  2              bulletin    275348
                                                                                                         _ldg
      0.54   +-  0.07       1.6     .9   73.35 +-  0.0    0.13   1.85   +-0.3      +-0.2                 m i ke

NORTHERN ITALY
Sta     Dist  EvAz     Phase      Date       Time     TRes  Azim  AzRes  Slow  SRes Def   SNR       Amp   Per   Mag1   Mag2       ID
MBDF  000.35 285.5 m E Pg      2012/05/02 04:16:28.7   0.3                          T                                        4934657
MBDF  000.35 285.5 m E Sg      2012/05/02 04:16:33.3   0.0                          T               18.9  .24        Md 1.5  4934656
SBF   000.78 170.2 m E Pg      2012/05/02 04:16:36.4   0.3                          T                                        4934645
SBF   000.78 170.2 m E Sg      2012/05/02 04:16:46.4   0.0                          T                1.5  .14        Md 1.7  4934644
LPG   000.93 337.9 m E Pg      2012/05/02 04:16:39.1   0.0                          T                                        4934653
LPG   000.93 337.9 m E Sg      2012/05/02 04:16:51.0  -0.4                          T                1.2  .20 Ml 1.6         4934652
LPL   000.96 337.6 m E Pg      2012/05/02 04:16:39.4  -0.1                          T                                        4934655
LPL   000.96 337.6 m E Sg      2012/05/02 04:16:51.7  -0.3                          T                1.2  .23 Ml 1.5         4934654
ORIF  001.02 286.7 m E Pg      2012/05/02 04:16:40.4   0.0                          T                                        4934651
ORIF  001.02 286.7 m E Sg      2012/05/02 04:16:53.0  -0.7                          T                1.1  .25 Ml 1.5         4934650
FRF   001.16 202.3 m E Pg      2012/05/02 04:16:43.0   0.1                          T                                        4934649
FRF   001.16 202.3 m E Sg      2012/05/02 04:16:57.9  -0.1                          T                2.9  .27 Ml 2.0         4934648
LMR   001.41 202.7 m E Pg      2012/05/02 04:16:47.4   0.0                          T                                        4940150
LMR   001.41 202.7 m E Sg      2012/05/02 04:17:05.5  -0.1                          T                2.3  .23 Ml 2.0         4934646
VIVF  001.85 277.8 m E Pn      2012/05/02 04:16:52.3   0.9                          T                                        4934643
VIVF  001.85 277.8 m E Sn      2012/05/02 04:17:14.0   0.6                          T                 .3  .20 Ml 1.4         4934642

.
EVENT     275249
    Date      Time       Latitude Longitude    Depth    Ndef Nsta Gap    Mag1  N    Mag2  N    Mag3  N   Author         ID
       rms   OT_Error      Smajor Sminor Az        Err   mdist  Mdist     Err        Err        Err      Quality

2012/05/02 07:00:18.8     44.4938    6.7043      2.0      38   10 054  Ml 2.2  6  Md 2.0  3              bulletin    275349
                                                                                                         _ldg
      0.41   +-  0.06       1.3    1.0   57.79 +-  0.0    0.08   2.56   +-0.2      +-0.1                 m i ke

FRANCE
Sta     Dist  EvAz     Phase      Date       Time     TRes  Azim  AzRes  Slow  SRes Def   SNR       Amp   Per   Mag1   Mag2       ID
MBDF  000.24 011.6 m E Pg      2012/05/02 07:00:23.6  -0.1                          T                                        4934679
MBDF  000.24 011.6 m E Sg      2012/05/02 07:00:27.2   0.2                          T               42.4  .34        Md 1.9  4934664
ORIF  000.73 306.1 m E Pg      2012/05/02 07:00:32.1  -0.5                          T                                        4934678
ORIF  000.73 306.1 m E Sg      2012/05/02 07:00:41.9  -0.1                          T                7.3  .20        Md 2.0  4934665
SBF   000.82 139.9 m E Pg      2012/05/02 07:00:34.2  -0.2                          T                                        4934671
SBF   000.82 139.9 m E Sg      2012/05/02 07:00:44.9  -0.1                          T                9.1  .24        Md 2.1  4934670
FRF   000.93 182.6 m E Pg      2012/05/02 07:00:36.7   0.4                          T                                        4934674
FRF   000.93 182.6 m E Sg      2012/05/02 07:00:48.0  -0.4                          T                6.8  .20 Ml 2.4         4934669
SMRF  000.96 237.9 m E Pg      2012/05/02 07:00:37.7   0.8                          T                                        4934675
SMRF  000.96 237.9 m E Sg      2012/05/02 07:00:49.3  -0.1                          T                7.6  .34 Ml 2.1         4934668
LPG   001.00 001.9 m E Pg      2012/05/02 07:00:37.9  -0.1                          T                                        4934676
LPG   001.00 001.9 m E Sg      2012/05/02 07:00:51.2   0.2                          T                4.6  .26 Ml 2.1         4934667
LPL   001.02 001.1 m E Pg      2012/05/02 07:00:38.4   0.2                          T                                        4934677
LPL   001.02 001.1 m E Sg      2012/05/02 07:00:51.6   0.1                          T                5.4  .36 Ml 2.0         4934666
LMR   001.17 187.0 m E Pg      2012/05/02 07:00:40.5  -0.1                          T                                        4934673
LMR   001.17 187.0 m E Sg      2012/05/02 07:00:55.6  -0.1                          T                8.8  .30 Ml 2.4         4934672
VIVF  001.49 284.7 m E Pn      2012/05/02 07:00:45.3   0.3                          T                                        4934663
VIVF  001.49 284.7 m E Sn      2012/05/02 07:01:03.9   0.0                          T                2.9  .30 Ml 2.0         4934662
PGF   002.56 138.6 m E Pn      2012/05/02 07:00:59.9   0.3                          T                                        4934661
PGF   002.56 138.6 m E Sn      2012/05/02 07:01:30.3   0.8                          T                                        4934660

.
EVENT     275492
    Date      Time       Latitude Longitude    Depth    Ndef Nsta Gap    Mag1  N    Mag2  N    Mag3  N   Author         ID
       rms   OT_Error      Smajor Sminor Az        Err   mdist  Mdist     Err        Err        Err      Quality

2012/05/02 07:00:24.1     44.4907    6.7027      2.0      11    6 175  Ml 2.1  3                         bulletin    275592
                                                                                                         _ldg
      0.19   +-  0.08       2.9    1.2  100.58 +-  0.0    0.24   1.16   +-0.0                            m i ke

FRANCE
Sta     Dist  EvAz     Phase      Date       Time     TRes  Azim  AzRes  Slow  SRes Def   SNR       Amp   Per   Mag1   Mag2       ID
MBDF  000.24 011.7 m E Pg      2012/05/02 07:00:29.0  -0.1                          T                                        4937787
MBDF  000.24 011.7 m E Sg      2012/05/02 07:00:32.5   0.1                          T               28.1  .30                4937786
ORIF  000.73 306.4 m E Pg      2012/05/02 07:00:37.3  -0.7                          T                                        4937794
ORIF  000.73 306.4 m E Sg      2012/05/02 07:00:47.1  -0.3                          T               18.6  .44                4937793
SMRF  000.96 238.0 m E Pg      2012/05/02 07:00:43.0   0.9                          T                                        4937789
SMRF  000.96 238.0 m E Sg      2012/05/02 07:00:54.9   0.3                          T                3.9  .22 Ml 2.0         4940151
LPG   001.01 001.9 m E Pg      2012/05/02 07:00:43.2  -0.2                          T                                        4937791
LPG   001.01 001.9 m E Sg      2012/05/02 07:00:56.8   0.3                          T                4.6  .26 Ml 2.1         4937790
LPL   001.03 001.2 m E Pg      2012/05/02 07:00:43.8   0.2                          T                                        4937792
LMR   001.16 187.0 m E Pg      2012/05/02 07:00:45.9   0.0                          T                                        4937788
LMR   001.16 187.0 m E Sg      2012/05/02 07:01:01.0   0.0                          T                3.2  .20 Ml 2.1         4937785

.
