EVENT     263425
    Date      Time       Latitude Longitude    Depth    Ndef Nsta Gap    Mag1  N    Mag2  N    Mag3  N   Author         ID
       rms   OT_Error      Smajor Sminor Az        Err   mdist  Mdist     Err        Err        Err      Quality

2011/09/01 06:38:07.6     51.5358    6.6421      1.0 f    30   11 248  Ml 2.9  9                         js067245    263425

      0.55   +-  0.16       2.5    1.6    4.57 +-  0.0    0.29   5.77   +-0.2                            m i sr

GERMANY
Sta     Dist  EvAz     Phase      Date       Time     TRes  Azim  AzRes  Slow  SRes Def   SNR       Amp   Per   Mag1   Mag2       ID
GIVF  001.84 219.5 m E Pn      2011/09/01 06:38:38.8   0.2                          T                                        4743586
GIVF  001.84 219.5 m E Sn      2011/09/01 06:39:00.6  -0.6                          T                                        4743585
GIVF  001.84 219.5 m E Sg      2011/09/01 06:39:05.6   0.0                          T               16.4  .23 Ml 3.0         4743582
RUP   001.86 171.6 m E P       2011/09/01 06:38:40.8  -0.2                          T                                        4755607
RUP   001.86 171.6 m E Sn      2011/09/01 06:39:02.1   0.6                          T                                        4755608
BAIF  002.14 227.2 m E Pg      2011/09/01 06:38:46.9  -0.3                          T                                        4743569
BAIF  002.14 227.2 m E Sn      2011/09/01 06:39:08.2   0.0                          T                                        4743580
BAIF  002.14 227.2 m E Sg      2011/09/01 06:39:14.5  -0.3                          T                9.6  .31 Ml 2.7         4743581
PAGF  003.04 191.6 m E Pg      2011/09/01 06:39:03.9  -0.1                          T                                        4743570
PAGF  003.04 191.6 m E Sg      2011/09/01 06:39:43.0  -0.1  17.6  6.7               T                7.1  .72 Ml 2.4         4743579
LOR   004.64 204.1 m E Pn      2011/09/01 06:39:16.8   0.1  21.7  -0.3              T                                        4743583
LOR   004.64 204.1 m E Sn      2011/09/01 06:40:08.1   0.0  26.6  4.6               T                                        4743574
LOR   004.64 204.1 m E Sg      2011/09/01 06:40:32.8  -0.2  15.5  -6.6              T                5.2  .42 Ml 2.9         4743573
SSF   004.93 205.8 m E Pn      2011/09/01 06:39:20.7   0.1                          T                                        4743584
SSF   004.93 205.8 m E Sn      2011/09/01 06:40:15.7   0.8                          T                                        4743571
SSF   004.93 205.8 m E Sg      2011/09/01 06:40:41.9   0.0                          T                6.8  .40 Ml 3.2         4743572
AVF   005.22 205.7 m E Pn      2011/09/01 06:39:24.3  -0.2                          T                                        4743577
FLN   005.36 241.6 m E Pn      2011/09/01 06:39:26.8   0.5                          T                                        4755606
MEZF  003.21 199.3 m E Sg      2011/09/01 06:39:48.1   0.0                          T               12.5  .37 Ml 3.0         4743578
HAU   003.54 183.2 m E Sg      2011/09/01 06:39:58.6   0.1                          T                8.7  .44 Ml 2.6         4743576
GRR   005.77 239.9 m E Sn      2011/09/01 06:40:34.9  -0.2                          T                5.1  .35 Ml 3.1         4743575

.
EVENT     263427
    Date      Time       Latitude Longitude    Depth    Ndef Nsta Gap    Mag1  N    Mag2  N    Mag3  N   Author         ID
       rms   OT_Error      Smajor Sminor Az        Err   mdist  Mdist     Err        Err        Err      Quality

2011/09/01 08:48:27.9     51.4593    6.6110      1.0 f    21   11 290  Ml 2.7  7                         js067245    263427

      0.76   +-  0.45      10.7    7.5  126.63 +-  0.0    1.77   5.93   +-0.3                            m i sr

GERMANY
Sta     Dist  EvAz     Phase      Date       Time     TRes  Azim  AzRes  Slow  SRes Def   SNR       Amp   Per   Mag1   Mag2       ID
GIVF  001.77 220.6 m E Pn      2011/09/01 08:48:57.8  -0.1                          T                                        4743604
GIVF  001.77 220.6 m E Sn      2011/09/01 08:49:20.0   0.3                          T               18.1  .26 Ml 3.0         4743603
RUP   001.78 170.6 m E P       2011/09/01 08:48:59.6  -0.6                          T                                        4755610
RUP   001.78 170.6 m E Sn      2011/09/01 08:49:21.4   1.3                          T                                        4755611
BAIF  002.07 228.4 m E Sn      2011/09/01 08:49:28.1   1.2                          T                                        4743601
BAIF  002.07 228.4 m E Sg      2011/09/01 08:49:33.6   0.6                          T                9.5  .31 Ml 2.7         4743602
LOR   004.56 204.3 m E Pn      2011/09/01 08:49:36.3   0.3                          T                                        4743600
LOR   004.56 204.3 m E Sn      2011/09/01 08:50:26.2  -0.3                          T                                        4743597
LOR   004.56 204.3 m E Sg      2011/09/01 08:50:50.3  -0.6                          T                3.2  .36 Ml 2.7         4743596
SSF   004.85 206.0 m E Pn      2011/09/01 08:49:40.0   0.2                          T                                        4743599
AVF   005.14 205.9 m E Pn      2011/09/01 08:49:43.7  -0.1                          T                                        4743594
SMF   005.15 201.8 m E Pn      2011/09/01 08:49:44.2   0.3                          T                                        4743593
SMF   005.15 201.8 m E Sg      2011/09/01 08:51:08.6  -0.6                          T                2.5  .36 Ml 2.8         4743608
GRR   005.72 240.4 m E Pn      2011/09/01 08:49:47.2  -4.5                          T                                        4755609
BGF   005.49 208.2 m E Pn      2011/09/01 08:49:48.6   0.0                          T                                        4743592
TCF   005.93 211.0 m E Pn      2011/09/01 08:49:54.3  -0.3                          T                                        4743598
TCF   005.93 211.0 m E Sn      2011/09/01 08:50:56.9  -2.4                          T                1.0  .28 Ml 2.7         4743595
PAGF  002.96 191.5 m E Sg      2011/09/01 08:50:02.9   2.0                          T                1.4  .38 Ml 2.0         4743609

.
EVENT     263432
    Date      Time       Latitude Longitude    Depth    Ndef Nsta Gap    Mag1  N    Mag2  N    Mag3  N   Author         ID
       rms   OT_Error      Smajor Sminor Az        Err   mdist  Mdist     Err        Err        Err      Quality

2011/09/01 22:42:17.6     43.3950    -.6740      2.0      30    8 112  Ml 1.7  7  Md 2.0  2              js067245    263432

      0.32   +-  0.07       1.5    1.0  122.94 +-  0.0    0.31   3.23   +-0.2      +-0.0                 m i ke

PYRENEES
Sta     Dist  EvAz     Phase      Date       Time     TRes  Azim  AzRes  Slow  SRes Def   SNR       Amp   Per   Mag1   Mag2       ID
ETSF  000.50 170.3 m E Pg      2011/09/01 22:42:26.3  -1.0                          T                                        4743700
ETSF  000.50 170.3 m E Sg      2011/09/01 22:42:33.6  -0.3                          T                2.7  .22        Md 2.0  4743695
SJPF  000.49 235.2 m E Pg      2011/09/01 22:42:27.3   0.3                          T                                        4743698
SJPF  000.49 235.2 m E Sg      2011/09/01 22:42:33.9   0.4                          T                4.3  .30        Md 1.9  4743696
EPF   000.83 115.8 m E Pg      2011/09/01 22:42:33.2   0.0                          T                                        4743699
EPF   000.83 115.8 m E Sg      2011/09/01 22:42:44.6   0.6                          T                3.9  .25                4743697
LFF   001.85 032.9 m E Pg      2011/09/01 22:42:52.0   0.1                          T                                        4743688
LFF   001.85 032.9 m E Sg      2011/09/01 22:43:15.7  -0.1                          T                1.7  .30 Ml 1.7         4743682
MTLF  002.11 090.5 m E Pn      2011/09/01 22:42:52.2   0.1                          T                                        4743694
MTLF  002.11 090.5 m E Pg      2011/09/01 22:42:56.6  -0.1                          T                                        4743686
MTLF  002.11 090.5 m E Sn      2011/09/01 22:43:17.4   0.0                          T                                        4743684
MTLF  002.11 090.5 m E Sg      2011/09/01 22:43:23.9   0.0                          T                 .7  .25 Ml 1.7         4743685
RJF   002.47 038.7 m E Pg      2011/09/01 22:43:03.4  -0.1                          T                                        4743689
RJF   002.47 038.7 m E Sn      2011/09/01 22:43:25.9  -0.1                          T                                        4743683
RJF   002.47 038.7 m E Sg      2011/09/01 22:43:35.0  -0.3                          T                 .7  .20 Ml 1.5         4743692
CAF   002.50 051.2 m E Pg      2011/09/01 22:43:04.2   0.3                          T                                        4743687
CAF   002.50 051.2 m E Sg      2011/09/01 22:43:36.0  -0.1                          T                 .4  .18 Ml 1.7         4743693
MFF   003.23 006.5 m E Pg      2011/09/01 22:43:17.5   0.1                          T                                        4743690
MFF   003.23 006.5 m E Sn      2011/09/01 22:43:44.1   0.0                          T                                        4743681
MFF   003.23 006.5 m E Sg      2011/09/01 22:43:58.4  -0.5                          T                 .4  .23 Ml 1.9         4743691

.
EVENT     263540
    Date      Time       Latitude Longitude    Depth    Ndef Nsta Gap    Mag1  N    Mag2  N    Mag3  N   Author         ID
       rms   OT_Error      Smajor Sminor Az        Err   mdist  Mdist     Err        Err        Err      Quality

2011/09/02 05:06:40.9     47.5056    7.6643     10.0      22    6 087  Ml 1.6  5                         js067245    263540

      0.30   +-  0.06       1.1     .9  154.56 +-  0.0    0.17   1.67   +-0.1                            m i ke

SWITZERLAND
Sta     Dist  EvAz     Phase      Date       Time     TRes  Azim  AzRes  Slow  SRes Def   SNR       Amp   Per   Mag1   Mag2       ID
HINF  000.63 299.9 m E Pg      2011/09/02 05:06:52.9  -0.1                          T                                        4755648
HINF  000.63 299.9 m E Sg      2011/09/02 05:07:00.9  -0.5                          T                                        4755649
HINF  000.63 299.9 m E Sn      2011/09/02 05:07:03.2  -0.8                          T                4.6  .19                4755650
CDF   000.94 344.1 m E Pg      2011/09/02 05:06:58.7  -0.1                          T                                        4755640
CDF   000.94 344.1 m E Sg      2011/09/02 05:07:11.3   0.2                          T                1.9  .26 Ml 1.8         4755641
HAU   001.02 299.9 m E Pg      2011/09/02 05:06:59.9  -0.2                          T                                        4755642
HAU   001.02 299.9 m E Sg      2011/09/02 05:07:13.6   0.2                          T                3.2  .27 Ml 1.7         4755647
THEF  001.34 303.4 m E Pg      2011/09/02 05:07:06.0   0.1                          T                                        4755645
THEF  001.34 303.4 m E Sg      2011/09/02 05:07:23.4   0.1                          T                1.4  .23 Ml 1.7         4755646
CABF  001.40 230.9 m E Pg      2011/09/02 05:07:07.2   0.0                          T                                        4755643
CABF  001.40 230.9 m E Sg      2011/09/02 05:07:25.5   0.1                          T                 .7  .20 Ml 1.5         4755644
PAGF  001.67 309.6 m E Sg      2011/09/02 05:07:33.9   0.2                          T                 .9  .40 Ml 1.5         4755639

.
EVENT     263433
    Date      Time       Latitude Longitude    Depth    Ndef Nsta Gap    Mag1  N    Mag2  N    Mag3  N   Author         ID
       rms   OT_Error      Smajor Sminor Az        Err   mdist  Mdist     Err        Err        Err      Quality

2011/09/02 05:25:51.1     36.6891   -7.3859     30.0      54    3 193                                    js067245    263433

      1.58   +-  0.50      12.0    5.7   18.73 +-  0.0    0.76   8.68                                    m i ke

STRAIT OF GIBRALTAR
Sta     Dist  EvAz     Phase      Date       Time     TRes  Azim  AzRes  Slow  SRes Def   SNR       Amp   Per   Mag1   Mag2       ID
SJPF  007.97 034.5 m E P       2011/09/02 05:27:47.5  -0.4                          T                                        4743703
ETSF  008.13 038.2 m E P       2011/09/02 05:27:49.6  -0.5                          T                                        4743702
EPF   008.68 040.8 m E P       2011/09/02 05:27:57.8   0.0                          T                                        4743701

.
EVENT     263440
    Date      Time       Latitude Longitude    Depth    Ndef Nsta Gap    Mag1  N    Mag2  N    Mag3  N   Author         ID
       rms   OT_Error      Smajor Sminor Az        Err   mdist  Mdist     Err        Err        Err      Quality

2011/09/02 09:52:48.1     43.0406     .0363      2.0      70    9 044  Ml 2.5  7  Md 2.7  2              js067245    263440

      0.50   +-  0.06       1.3     .8  175.90 +-  0.0    0.09   3.56   +-0.2      +-0.1                 m i ke

FRANCE
Sta     Dist  EvAz     Phase      Date       Time     TRes  Azim  AzRes  Slow  SRes Def   SNR       Amp   Per   Mag1   Mag2       ID
EPF   000.22 092.5 m E Pg      2011/09/02 09:52:52.0  -0.5                          T                                        4743744
EPF   000.22 092.5 m E Sg      2011/09/02 09:52:55.9   0.2                          T              105.1  .22        Md 2.7  4743740
ETSF  000.46 252.2 m E Pg      2011/09/02 09:52:56.1  -0.8                          T                                        4743743
ETSF  000.46 252.2 m E Sg      2011/09/02 09:53:02.2  -0.8                          T               61.2  .24        Md 2.6  4743739
SJPF  000.93 274.9 m E Pg      2011/09/02 09:53:04.9  -0.6                          T                                        4743733
SJPF  000.93 274.9 m E Pn      2011/09/02 09:53:06.1  -0.4                          T                                        4743724
SJPF  000.93 274.9 m E Sg      2011/09/02 09:53:16.7  -0.8                          T                5.0  .22 Ml 2.1         4743732
MTLF  001.62 078.6 m E Pn      2011/09/02 09:53:16.1   0.1                          T                                        4743725
MTLF  001.62 078.6 m E Pg      2011/09/02 09:53:18.6   0.3                          T                                        4743742
MTLF  001.62 078.6 m E Sg      2011/09/02 09:53:39.1  -0.2                          T                8.6  .21 Ml 2.7         4743738
LFF   001.97 014.7 m E Pg      2011/09/02 09:53:24.5   0.0                          T                                        4743736
LFF   001.97 014.7 m E Sn      2011/09/02 09:53:44.9   0.5                          T                                        4743727
LFF   001.97 014.7 m E Sg      2011/09/02 09:53:50.2   0.3                          T                8.7  .28 Ml 2.5         4743728
CAF   002.39 037.1 m E Pg      2011/09/02 09:53:32.3  -0.1                          T                                        4743737
CAF   002.39 037.1 m E Sg      2011/09/02 09:54:03.2   0.1                          T                3.5  .22 Ml 2.5         4743730
RJF   002.50 024.7 m E Pg      2011/09/02 09:53:34.2  -0.2                          T                                        4743735
RJF   002.50 024.7 m E Sg      2011/09/02 09:54:07.1   0.5                          T                3.8  .20 Ml 2.3         4743729
LASF  002.96 068.3 m E Pg      2011/09/02 09:53:42.6  -0.4                          T                                        4743741
LASF  002.96 068.3 m E Sn      2011/09/02 09:54:08.6   0.3                          T                                        4743731
LASF  002.96 068.3 m E Sg      2011/09/02 09:54:21.7   0.6                          T                2.8  .24 Ml 2.5         4743726
MFF   003.56 358.0 m E Pg      2011/09/02 09:53:53.9  -0.1                          T                                        4743734

.
EVENT     263451
    Date      Time       Latitude Longitude    Depth    Ndef Nsta Gap    Mag1  N    Mag2  N    Mag3  N   Author         ID
       rms   OT_Error      Smajor Sminor Az        Err   mdist  Mdist     Err        Err        Err      Quality

2011/09/02 15:51:53.2     43.1058    -.0983      1.5       7    4 170  Ml 1.6  1  Md 1.7  2              js067245    263451

      0.13   +-  0.09       5.1    1.2  174.21 +-  1.6    0.33   1.71   +-         +-0.1                 m i ke

PYRENEES
Sta     Dist  EvAz     Phase      Date       Time     TRes  Azim  AzRes  Slow  SRes Def   SNR       Amp   Per   Mag1   Mag2       ID
EPF   000.33 103.1 m E Pg      2011/09/02 15:51:59.5  -0.1                          T                                        4755667
EPF   000.33 103.1 m E Sg      2011/09/02 15:52:04.1   0.0                          T                9.2  .28        Md 1.6  4755668
ETSF  000.40 238.7 m E Pg      2011/09/02 15:52:01.0   0.1                          T                                        4755665
ETSF  000.40 238.7 m E Sg      2011/09/02 15:52:05.9  -0.3                          T                6.2  .28        Md 1.8  4755666
SJPF  000.83 270.9 m E Pg      2011/09/02 15:52:08.7  -0.1                          T                                        4755663
SJPF  000.83 270.9 m E Sn      2011/09/02 15:52:22.3   0.0                          T                 .6  .24                4755664
MTLF  001.71 081.3 m E Sg      2011/09/02 15:52:47.1   0.1                          T                 .7  .24 Ml 1.6         4755662

.
