EVENT     288177
    Date      Time       Latitude Longitude    Depth    Ndef Nsta Gap    Mag1  N    Mag2  N    Mag3  N   Author         ID
       rms   OT_Error      Smajor Sminor Az        Err   mdist  Mdist     Err        Err        Err      Quality

2012/12/09 04:35:47.3     43.7385    7.5767      7.0 f    50    9 190  Ml 2.1  8  Md 2.0  2              bulletin    288277
                                                                                                         _ldg
      0.46   +-  0.11       2.0    1.2  154.79 +-  0.0    0.08   2.37   +-0.3      +-0.3                 m i ke

NEAR SOUTH COAST OF FRANCE
Sta     Dist  EvAz     Phase      Date       Time     TRes  Azim  AzRes  Slow  SRes Def   SNR       Amp   Per   Mag1   Mag2       ID
SBF   000.16 320.6 m E Pg      2012/12/09 04:35:50.9  -0.1                          T                                        5133994
SBF   000.16 320.6 m E Sg      2012/12/09 04:35:53.2  -0.2                          T              306.7  .30        Md 1.8  5133993
FRF   000.70 255.6 m E Pg      2012/12/09 04:36:00.3  -0.3                          T                                        5133991
FRF   000.70 255.6 m E Sg      2012/12/09 04:36:09.7   0.0                          T                8.8  .22        Md 2.2  5133990
LMR   000.88 242.8 m E Pg      2012/12/09 04:36:03.3  -0.6                          T                                        5133992
LMR   000.88 242.8 m E Sg      2012/12/09 04:36:14.8  -0.4                          T               16.5  .20 Ml 2.7         5133989
MBDF  001.15 329.9 m E Pg      2012/12/09 04:36:08.9  -0.1                          T                                        5133978
MBDF  001.15 329.9 m E Sg      2012/12/09 04:36:24.2   0.3                          T                4.3  .29 Ml 2.0         5133977
SMRF  001.47 280.0 m E Pn      2012/12/09 04:36:13.1   0.4                          T                                        5133988
SMRF  001.47 280.0 m E Sn      2012/12/09 04:36:32.0   1.1                          T                3.9  .21 Ml 2.3         5133987
ORIF  001.70 314.7 m E Pg      2012/12/09 04:36:19.0   0.0                          T                                        5133981
ORIF  001.70 314.7 m E Sn      2012/12/09 04:36:37.4   0.9                          T                                        5133980
ORIF  001.70 314.7 m E Sg      2012/12/09 04:36:41.0   0.1                          T                1.5  .17 Ml 2.1         5133979
LPG   001.86 341.8 m E Pn      2012/12/09 04:36:19.1   0.9                          T                                        5133986
LPG   001.86 341.8 m E Sn      2012/12/09 04:36:41.5   1.0                          T                1.7  .30 Ml 1.9         5133985
LPL   001.88 341.6 m E Pn      2012/12/09 04:36:19.4   1.0                          T                                        5133984
LPL   001.88 341.6 m E Pg      2012/12/09 04:36:22.6   0.1                          T                                        5133983
LPL   001.88 341.6 m E Sg      2012/12/09 04:36:46.9   0.1                          T                 .6  .24 Ml 1.6         5133982
VIVF  002.37 299.2 m E Pn      2012/12/09 04:36:25.6   0.8                          T                                        5133976
VIVF  002.37 299.2 m E Sn      2012/12/09 04:36:53.2   0.8                          T                1.1  .20 Ml 2.1         5133975

.
EVENT     288178
    Date      Time       Latitude Longitude    Depth    Ndef Nsta Gap    Mag1  N    Mag2  N    Mag3  N   Author         ID
       rms   OT_Error      Smajor Sminor Az        Err   mdist  Mdist     Err        Err        Err      Quality

2012/12/09 05:42:08.2     47.9289    7.3514      5.0 f    31    9 035  Ml 1.6  6  Md 1.7  2              bulletin    288278
                                                                                                         _ldg
      0.46   +-  0.05       1.2     .9    1.71 +-  0.0    0.17   2.75   +-0.2      +-0.0                 m i ke

SWITZERLAND
Sta     Dist  EvAz     Phase      Date       Time     TRes  Azim  AzRes  Slow  SRes Def   SNR       Amp   Per   Mag1   Mag2       ID
HINF  000.35 251.7 m E Pg      2012/12/09 05:42:14.8  -0.4                          T                                        5134013
HINF  000.35 251.7 m E Sg      2012/12/09 05:42:19.4  -0.6                          T                4.5  .26        Md 1.7  5134012
CDF   000.49 354.1 m E Pg      2012/12/09 05:42:17.5  -0.2                          T                                        5134017
CDF   000.49 354.1 m E Sg      2012/12/09 05:42:23.8  -0.4                          T                2.6  .18        Md 1.7  5134016
HAU   000.68 276.9 m E Pg      2012/12/09 05:42:21.1  -0.1                          T                                        5134014
HAU   000.68 276.9 m E Sg      2012/12/09 05:42:30.0  -0.1                          T                2.4  .18                5134015
PAGF  001.25 300.6 m E Pn      2012/12/09 05:42:31.3   0.5                          T                                        5133998
PAGF  001.25 300.6 m E Sn      2012/12/09 05:42:47.7   0.6                          T                 .8  .17 Ml 1.6         5133997
CABF  001.57 213.6 m E Pn      2012/12/09 05:42:35.4   0.2                          T                                        5133996
CABF  001.57 213.6 m E Sn      2012/12/09 05:42:55.1   0.3                          T                 .4  .19 Ml 1.3         5133995
SFTF  001.58 281.0 m E Pn      2012/12/09 05:42:35.5   0.4                          T                                        5134005
SFTF  001.58 281.0 m E Pg      2012/12/09 05:42:37.5  -0.1                          T                                        5134004
SFTF  001.58 281.0 m E Sn      2012/12/09 05:42:55.2   0.4                          T                                        5134003
SFTF  001.58 281.0 m E Sg      2012/12/09 05:42:57.9   0.0                          T                 .7  .17 Ml 1.7         5134002
MEZF  001.64 291.3 m E Pn      2012/12/09 05:42:36.1   0.0                          T                                        5134001
MEZF  001.64 291.3 m E Sn      2012/12/09 05:42:57.0   0.7                          T                                        5134000
MEZF  001.64 291.3 m E Sg      2012/12/09 05:42:59.9   0.0                          T                 .5  .19 Ml 1.5         5133999
LOR   002.45 255.7 m E Pn      2012/12/09 05:42:47.5   0.4                          T                                        5134010
LOR   002.45 255.7 m E Pg      2012/12/09 05:42:53.7  -0.1  77.7  4.6               T                                        5134011
LOR   002.45 255.7 m E Sn      2012/12/09 05:43:16.0   0.2                          T                                        5134009
LOR   002.45 255.7 m E Sg      2012/12/09 05:43:25.3  -0.1  75.6  2.5               T                 .7  .20 Ml 1.8         5134008
SSF   002.75 253.0 m E Pg      2012/12/09 05:42:59.4   0.2                          T                                        5134007
SSF   002.75 253.0 m E Sg      2012/12/09 05:43:34.2  -0.3                          T                 .2  .18 Ml 1.4         5134006

.
EVENT     288179
    Date      Time       Latitude Longitude    Depth    Ndef Nsta Gap    Mag1  N    Mag2  N    Mag3  N   Author         ID
       rms   OT_Error      Smajor Sminor Az        Err   mdist  Mdist     Err        Err        Err      Quality

2012/12/09 05:49:23.0     47.9299    7.3419      4.0 f    71   20 030  Ml 2.1 15  Md 2.0  3              bulletin    288279
                                                                                                         _ldg
      0.51   +-  0.04        .9     .7  163.60 +-  0.0    0.16   3.87   +-0.4      +-0.0                 m i ke

SWITZERLAND
Sta     Dist  EvAz     Phase      Date       Time     TRes  Azim  AzRes  Slow  SRes Def   SNR       Amp   Per   Mag1   Mag2       ID
HINF  000.35 251.2 m E Pg      2012/12/09 05:49:29.4  -0.4                          T                                        5134050
HINF  000.35 251.2 m E Sn      2012/12/09 05:49:34.1  -0.4                          T               31.7  .24        Md 2.0  5134049
CDF   000.48 354.8 m E Pg      2012/12/09 05:49:32.1  -0.3                          T                                        5134073
CDF   000.48 354.8 m E Sg      2012/12/09 05:49:38.4  -0.4                          T               17.1  .18        Md 2.0  5134072
HAU   000.67 276.8 m E Pg      2012/12/09 05:49:35.5  -0.2                          T                                        5134075
HAU   000.67 276.8 m E Sg      2012/12/09 05:49:44.3  -0.2                          T                                Md 2.0  5134074
THEF  000.95 288.8 m E Pg      2012/12/09 05:49:40.9   0.0                          T                                        5135398
THEF  000.95 288.8 m E Sg      2012/12/09 05:49:53.5   0.3                          T                                        5135397
PAGF  001.25 300.7 m E Pg      2012/12/09 05:49:46.5   0.1                          T                                        5134059
PAGF  001.25 300.7 m E Sg      2012/12/09 05:50:02.1  -0.4                          T                7.4  .24 Ml 2.4         5134058
MEZF  001.63 291.3 m E Pn      2012/12/09 05:49:51.0   0.2                          T                                        5134057
MEZF  001.63 291.3 m E Pg      2012/12/09 05:49:53.4   0.0 113.6  3.9               T                                        5134056
MEZF  001.63 291.3 m E Sn      2012/12/09 05:50:11.3   0.3                          T                                        5134055
MEZF  001.63 291.3 m E Sg      2012/12/09 05:50:14.3  -0.2                          T                2.2  .20 Ml 2.1         5134054
SFTF  001.57 281.0 m E Pg      2012/12/09 05:49:52.2  -0.1                          T                                        5134053
SFTF  001.57 281.0 m E Sn      2012/12/09 05:50:09.7   0.2                          T                                        5134051
SFTF  001.57 281.0 m E Sg      2012/12/09 05:50:12.5   0.0                          T                7.3  .21 Ml 2.6         5134052
CABF  001.57 213.4 m E Pg      2012/12/09 05:49:52.4   0.0                          T                                        5134048
CABF  001.57 213.4 m E Sn      2012/12/09 05:50:10.1   0.4                          T                                        5134047
CABF  001.57 213.4 m E Sg      2012/12/09 05:50:13.0   0.3                          T                2.3  .22 Ml 2.1         5134046
LOR   002.45 255.6 m E Pn      2012/12/09 05:50:02.4   0.5                          T                                        5134067
LOR   002.45 255.6 m E Pg      2012/12/09 05:50:08.4   0.0  78.6  5.6               T                                        5134069
LOR   002.45 255.6 m E Sn      2012/12/09 05:50:31.0   0.5                          T                                        5134066
LOR   002.45 255.6 m E Sg      2012/12/09 05:50:39.5  -0.5  77.5  4.5               T                3.5  .20 Ml 2.6         5134068
LPG   002.47 189.7 m E Pn      2012/12/09 05:50:02.8   0.3                          T                                        5134036
LPG   002.47 189.7 m E Sn      2012/12/09 05:50:32.0   0.7                          T                                        5134035
LPG   002.47 189.7 m E Sg      2012/12/09 05:50:41.2   0.3                          T                 .8  .29 Ml 1.8         5134034
SMF   002.71 243.0 m E Pn      2012/12/09 05:50:05.8   0.4                          T                                        5134044
SMF   002.71 243.0 m E Pg      2012/12/09 05:50:13.1  -0.1                          T                                        5134045
SMF   002.71 243.0 m E Sn      2012/12/09 05:50:37.1   0.4                          T                                        5134043
SMF   002.71 243.0 m E Sg      2012/12/09 05:50:47.7  -0.3                          T                1.6  .27 Ml 2.1         5134042
GIVF  002.73 323.6 m E Pn      2012/12/09 05:50:05.8   0.0                          T                                        5134061
GIVF  002.73 323.6 m E Sn      2012/12/09 05:50:37.4   0.1                          T                                        5134060
AVF   002.94 248.7 m E Pn      2012/12/09 05:50:08.8   0.2                          T                                        5134025
AVF   002.94 248.7 m E Pg      2012/12/09 05:50:17.4  -0.1                          T                                        5134026
AVF   002.94 248.7 m E Sn      2012/12/09 05:50:42.7   0.5                          T                                        5134027
AVF   002.94 248.7 m E Sg      2012/12/09 05:50:54.9  -0.4                          T                 .5  .24 Ml 1.8         5134028
BAIF  002.97 317.1 m E Pn      2012/12/09 05:50:09.2   0.3                          T                                        5134065
BAIF  002.97 317.1 m E Pg      2012/12/09 05:50:18.1   0.2                          T                                        5134064
BAIF  002.97 317.1 m E Sn      2012/12/09 05:50:43.0   0.2                          T                                        5134063
BAIF  002.97 317.1 m E Sg      2012/12/09 05:50:55.9  -0.2                          T                 .3  .23 Ml 1.6         5134062
ORIF  003.18 199.1 m E Pn      2012/12/09 05:50:12.8   0.9                          T                                        5134032
ORIF  003.18 199.1 m E Sg      2012/12/09 05:51:02.5  -0.3                          T                 .4  .19 Ml 1.8         5134031
HYF   003.25 260.0 m E Pn      2012/12/09 05:50:13.4   0.6                          T                                        5134041
HYF   003.25 260.0 m E Pg      2012/12/09 05:50:23.1  -0.1                          T                                        5134040
HYF   003.25 260.0 m E Sg      2012/12/09 05:51:04.7  -0.3                          T                                        5134039
SSF   002.74 252.9 m E Pg      2012/12/09 05:50:14.0   0.1                          T                                        5134071
SSF   002.74 252.9 m E Sg      2012/12/09 05:50:48.5  -0.5                          T                4.6  .40 Ml 2.5         5134070
BGF   003.36 247.5 m E Pn      2012/12/09 05:50:14.6   0.4                          T                                        5134029
BGF   003.36 247.5 m E Pg      2012/12/09 05:50:25.1   0.0                          T                                        5134037
BGF   003.36 247.5 m E Sn      2012/12/09 05:50:52.6   0.4                          T                                        5134030
BGF   003.36 247.5 m E Sg      2012/12/09 05:51:08.1  -0.2                          T                3.5  .38 Ml 2.5         5134038
TCF   003.87 246.8 m E Pn      2012/12/09 05:50:21.6   0.3                          T                                        5134021
TCF   003.87 246.8 m E Pg      2012/12/09 05:50:34.5  -0.2                          T                                        5134024
TCF   003.87 246.8 m E Sn      2012/12/09 05:51:04.5   0.0                          T                                        5134023
TCF   003.87 246.8 m E Sg      2012/12/09 05:51:24.4   0.1                          T                 .3  .17 Ml 1.9         5134022
LPL   002.45 190.1 m E Sg      2012/12/09 05:50:40.6   0.4                          T                 .7  .26 Ml 1.7         5134033

.
EVENT     288180
    Date      Time       Latitude Longitude    Depth    Ndef Nsta Gap    Mag1  N    Mag2  N    Mag3  N   Author         ID
       rms   OT_Error      Smajor Sminor Az        Err   mdist  Mdist     Err        Err        Err      Quality

2012/12/09 06:13:56.8     44.4000    7.2556      2.0      23    8 136  Ml 1.6  7  Md 1.7  2              bulletin    288280
                                                                                                         _ldg
      0.31   +-  0.07       1.7     .9   71.27 +-  0.0    0.10   1.28   +-0.4      +-0.0                 m i ke

NORTHERN ITALY
Sta     Dist  EvAz     Phase      Date       Time     TRes  Azim  AzRes  Slow  SRes Def   SNR       Amp   Per   Mag1   Mag2       ID
MBDF  000.48 313.5 m E Pg      2012/12/09 06:14:05.7  -0.3                          T                                        5134160
MBDF  000.48 313.5 m E Sg      2012/12/09 06:14:12.3   0.0                          T                4.1  .24        Md 1.6  5134159
SBF   000.55 166.4 m E Pg      2012/12/09 06:14:07.2  -0.2                          T                                        5134154
SBF   000.55 166.4 m E Sg      2012/12/09 06:14:14.8   0.2                          T                3.9  .23        Md 1.7  5134153
FRF   000.95 207.9 m E Pg      2012/12/09 06:14:14.3  -0.2                          T                                        5134156
FRF   000.95 207.9 m E Sg      2012/12/09 06:14:27.1   0.2                          T                1.9  .18 Ml 1.9         5134155
ORIF  001.11 298.3 m E Pg      2012/12/09 06:14:17.6  -0.1                          T                                        5134158
ORIF  001.11 298.3 m E Sg      2012/12/09 06:14:31.6  -0.4                          T                 .9  .19 Ml 1.5         5134157
LPG   001.15 342.1 m E Pg      2012/12/09 06:14:18.8   0.1                          T                                        5134148
LPG   001.15 342.1 m E Sg      2012/12/09 06:14:33.6  -0.1                          T                 .4  .20 Ml 1.2         5134147
LMR   001.19 207.1 m E Pn      2012/12/09 06:14:18.9   0.1                          T                                        5134152
LMR   001.19 207.1 m E Sn      2012/12/09 06:14:34.9   0.3                          T                3.7  .20 Ml 2.2         5134151
LPL   001.18 341.8 m E Pg      2012/12/09 06:14:19.1   0.0                          T                                        5134146
LPL   001.18 341.8 m E Sg      2012/12/09 06:14:34.2  -0.1                          T                 .2  .16 Ml 1           5134145
SMRF  001.28 251.3 m E Pn      2012/12/09 06:14:20.2   0.1                          T                                        5134150
SMRF  001.28 251.3 m E Sn      2012/12/09 06:14:36.8   0.0                          T                 .9  .16 Ml 1.7         5134149

.
