EVENT     275453
    Date      Time       Latitude Longitude    Depth    Ndef Nsta Gap    Mag1  N    Mag2  N    Mag3  N   Author         ID
       rms   OT_Error      Smajor Sminor Az        Err   mdist  Mdist     Err        Err        Err      Quality

2012/05/03 14:16:24.4     37.2756   -7.8087     10.0 f    78    3 135  Ml 3.5  3                         bulletin    275553
                                                                                                         _ldg
      0.70   +-  0.12       2.4    1.8   23.59 +-  0.0    0.10   8.48   +-0.2                            m i ke

PORTUGAL
Sta     Dist  EvAz     Phase      Date       Time     TRes  Azim  AzRes  Slow  SRes Def   SNR       Amp   Per   Mag1   Mag2       ID
SJPF  007.70 038.8 m E Pn      2012/05/03 14:18:14.7   0.5                          T                                        4937030
SJPF  007.70 038.8 m E Sn      2012/05/03 14:19:36.4  -0.1                          T                                        4937027
SJPF  007.70 038.8 m E Sg      2012/05/03 14:20:25.1  -0.3                          T                9.1  .55 Ml 3.6         4937024
ETSF  007.90 042.4 m E Pn      2012/05/03 14:18:16.8  -0.2                          T                                        4937029
ETSF  007.90 042.4 m E Sn      2012/05/03 14:19:41.0  -0.2                          T                                        4937026
ETSF  007.90 042.4 m E Sg      2012/05/03 14:20:30.3  -1.3                          T                3.1  .38 Ml 3.3         4937023
EPF   008.48 044.8 m E Pn      2012/05/03 14:18:23.8  -1.0                          T                                        4937028
EPF   008.48 044.8 m E Sn      2012/05/03 14:19:54.4  -0.7                          T                3.6  .28 Ml 3.6         4937025

.
EVENT     275414
    Date      Time       Latitude Longitude    Depth    Ndef Nsta Gap    Mag1  N    Mag2  N    Mag3  N   Author         ID
       rms   OT_Error      Smajor Sminor Az        Err   mdist  Mdist     Err        Err        Err      Quality

2012/05/03 14:28:09.0     48.1977   -2.6093       .0 f    10    5 157  Ml 2.0  2  Md 2.0  3              bulletin    275514
                                                                                                         _ldg
      0.17   +-  0.07       2.8    1.2  159.68 +-  0.0    0.07   1.70   +-0.2      +-0.2                 m i km

FRANCE
Sta     Dist  EvAz     Phase      Date       Time     TRes  Azim  AzRes  Slow  SRes Def   SNR       Amp   Per   Mag1   Mag2       ID
SGMF  000.07 031.8 m E Pg      2012/05/03 14:28:10.3  -0.4                          T                                        4936621
SGMF  000.07 031.8 m E Sg      2012/05/03 14:28:12.0   0.2                          T                                Md 1.8  4936620
QUIF  000.47 233.2 m E Pg      2012/05/03 14:28:18.1  -0.1                          T                                        4936619
QUIF  000.47 233.2 m E Sg      2012/05/03 14:28:24.4  -0.1                          T                2.2  .17        Md 2.0  4936618
ROSF  000.47 287.6 m E Pg      2012/05/03 14:28:18.3   0.1                          T                                        4936615
ROSF  000.47 287.6 m E Sg      2012/05/03 14:28:24.6   0.1                          T                1.6  .15        Md 2.1  4936614
FLN   001.52 067.4 m E Pn      2012/05/03 14:28:36.0   0.1                          T                                        4936616
FLN   001.52 067.4 m E Sn      2012/05/03 14:28:55.4  -0.1                          T                4.0  .20 Ml 2.2         4936617
LDF   001.70 075.6 m E Pn      2012/05/03 14:28:38.5   0.1                          T                                        4936613
LDF   001.70 075.6 m E Sn      2012/05/03 14:28:59.9   0.2                          T                1.4  .22 Ml 1.9         4936612

.
EVENT     275415
    Date      Time       Latitude Longitude    Depth    Ndef Nsta Gap    Mag1  N    Mag2  N    Mag3  N   Author         ID
       rms   OT_Error      Smajor Sminor Az        Err   mdist  Mdist     Err        Err        Err      Quality

2012/05/03 14:57:17.0     42.9490    -.9609      2.0       6    3 210  Ml 1.1  1  Md 1.7  2              bulletin    275515
                                                                                                         _ldg
      0.73   +-  1.05      50.8    7.2   21.13 +-  0.0    0.25   0.96   +-         +-0.0                 m i ke

PYRENEES
Sta     Dist  EvAz     Phase      Date       Time     TRes  Azim  AzRes  Slow  SRes Def   SNR       Amp   Per   Mag1   Mag2       ID
SJPF  000.25 310.4 m E Pg      2012/05/03 14:57:22.1   0.0                          T                                        4936627
SJPF  000.25 310.4 m E Sg      2012/05/03 14:57:24.6  -0.9                          T                5.4  .23        Md 1.7  4936626
ETSF  000.30 099.5 m E Pg      2012/05/03 14:57:22.3  -0.7                          T                                        4936624
ETSF  000.30 099.5 m E Sg      2012/05/03 14:57:27.5   0.5                          T                1.6  .24        Md 1.7  4936625
EPF   000.96 084.7 m E Pg      2012/05/03 14:57:35.8   0.8                          T                                        4936623
EPF   000.96 084.7 m E Sg      2012/05/03 14:57:46.2  -1.3                          T                 .3  .19 Ml 1.1         4936622

.
EVENT     275416
    Date      Time       Latitude Longitude    Depth    Ndef Nsta Gap    Mag1  N    Mag2  N    Mag3  N   Author         ID
       rms   OT_Error      Smajor Sminor Az        Err   mdist  Mdist     Err        Err        Err      Quality

2012/05/03 15:01:07.0     43.0573   -1.3229      2.0       6    3 306  Ml 1.3  1  Md 1.4  2              bulletin    275516
                                                                                                         _ldg
      0.10   +-  0.16       2.9    1.7   71.59 +-  0.0    0.09   1.22   +-         +-0.3                 m i ke

PYRENEES
Sta     Dist  EvAz     Phase      Date       Time     TRes  Azim  AzRes  Slow  SRes Def   SNR       Amp   Per   Mag1   Mag2       ID
SJPF  000.09 052.0 m E Pg      2012/05/03 15:01:09.1   0.0                          T                                        4936631
SJPF  000.09 052.0 m E Sg      2012/05/03 15:01:10.3  -0.2                          T               13.9  .18        Md 1.6  4936630
ETSF  000.58 105.5 m E Pg      2012/05/03 15:01:18.2   0.0                          T                                        4936628
ETSF  000.58 105.5 m E Sg      2012/05/03 15:01:25.8   0.0                          T                2.2  .22        Md 1.2  4936629
EPF   001.22 090.7 m E Pg      2012/05/03 15:01:29.8  -0.1                          T                                        4942017
EPF   001.22 090.7 m E Sg      2012/05/03 15:01:45.8   0.1                          T                 .5  .22 Ml 1.3         4942018

.
EVENT     275409
    Date      Time       Latitude Longitude    Depth    Ndef Nsta Gap    Mag1  N    Mag2  N    Mag3  N   Author         ID
       rms   OT_Error      Smajor Sminor Az        Err   mdist  Mdist     Err        Err        Err      Quality

2012/05/03 15:34:30.9     47.6090    6.8481       .0 f     9    4 188  Ml 1.8  1  Md 1.7  2              bulletin    275509
                                                                                                         _ldg
      0.16   +-  0.08       2.7    1.3  106.18 +-  0.0    0.21   1.13   +-         +-0.1                 m i km

FRANCE
Sta     Dist  EvAz     Phase      Date       Time     TRes  Azim  AzRes  Slow  SRes Def   SNR       Amp   Per   Mag1   Mag2       ID
HINF  000.21 000.9 m E Pg      2012/05/03 15:34:35.1  -0.3                          T                                        4936581
HINF  000.21 000.9 m E Sg      2012/05/03 15:34:38.6   0.2                          T               88.7  .86        Md 1.6  4936580
HAU   000.52 319.8 m E Pg      2012/05/03 15:34:41.2   0.1                          T                                        4936578
HAU   000.52 319.8 m E Sg      2012/05/03 15:34:48.2   0.0                          T                 .8  .21        Md 1.8  4936579
CDF   000.85 019.5 m E Pg      2012/05/03 15:34:47.4   0.0                          T                                        4942021
CDF   000.85 019.5 m E P       2012/05/03 15:34:49.2   0.0                          T                                        4942023
CDF   000.85 019.5 m E Sn      2012/05/03 15:35:01.9   0.4                          T                2.0  .35                4942022
CABF  001.13 207.8 m E Pg      2012/05/03 15:34:52.4   0.0                          T                                        4942019
CABF  001.13 207.8 m E Sn      2012/05/03 15:35:08.0   0.0                          T                4.4  .58 Ml 1.8         4942020

.
EVENT     275417
    Date      Time       Latitude Longitude    Depth    Ndef Nsta Gap    Mag1  N    Mag2  N    Mag3  N   Author         ID
       rms   OT_Error      Smajor Sminor Az        Err   mdist  Mdist     Err        Err        Err      Quality

2012/05/03 15:40:35.3     42.8532   -1.2565       .0 f     6    3 280  Ml 1.7  1  Md 1.4  2              bulletin    275517
                                                                                                         _ldg
      0.65   +-  1.34      28.4    8.8   42.38 +-  0.0    0.26   1.19   +-         +-0.2                 m i sm

PYRENEES
Sta     Dist  EvAz     Phase      Date       Time     TRes  Azim  AzRes  Slow  SRes Def   SNR       Amp   Per   Mag1   Mag2       ID
SJPF  000.26 005.1 m E Pg      2012/05/03 15:40:40.5  -0.3                          T                                        4936635
SJPF  000.26 005.1 m E Sg      2012/05/03 15:40:44.4  -0.1                          T                2.9  .24        Md 1.6  4936634
ETSF  000.51 084.7 m E Pg      2012/05/03 15:40:45.1  -0.4                          T                                        4936633
ETSF  000.51 084.7 m E Sg      2012/05/03 15:40:53.6   1.1                          T                 .5  .18        Md 1.3  4936632
EPF   001.19 080.9 m E Pg      2012/05/03 15:40:58.3   0.5                          T                                        4942024
EPF   001.19 080.9 m E Sg      2012/05/03 15:41:12.1  -1.3                          T                1.3  .23 Ml 1.7         4942025

.
EVENT     275418
    Date      Time       Latitude Longitude    Depth    Ndef Nsta Gap    Mag1  N    Mag2  N    Mag3  N   Author         ID
       rms   OT_Error      Smajor Sminor Az        Err   mdist  Mdist     Err        Err        Err      Quality

2012/05/03 15:49:24.2     49.1184    -.9420       .0 f    17    6 249  Ml 1.7  3  Md 2.0  3              bulletin    275518
                                                                                                         _ldg
      0.38   +-  0.11       2.4    1.1    5.04 +-  0.0    0.47   1.91   +-0.2      +-0.0                 m i km

FRANCE
Sta     Dist  EvAz     Phase      Date       Time     TRes  Azim  AzRes  Slow  SRes Def   SNR       Amp   Per   Mag1   Mag2       ID
FLN   000.47 139.4 m E Pg      2012/05/03 15:49:33.3   0.0 321.9  2.1               T                                        4942035
FLN   000.47 139.4 m E P       2012/05/03 15:49:34.2   0.1 320.5  0.8               T                                        4936647
FLN   000.47 139.4 m E Sg      2012/05/03 15:49:39.8   0.1 324.1  4.3               T               42.0  .86        Md 2.0  4936642
GRR   000.73 175.6 m E Pg      2012/05/03 15:49:38.5   0.3                          T                                        4936645
GRR   000.73 175.6 m E Sg      2012/05/03 15:49:47.4  -0.6                          T                7.3  .20        Md 2.0  4936644
LDF   000.75 133.8 m E Pg      2012/05/03 15:49:38.6   0.0                          T                                        4936646
LDF   000.75 133.8 m E Sg      2012/05/03 15:49:48.6  -0.1                          T               89.1 1.26        Md 2.1  4936641
SGMF  001.38 231.7 m E Pn      2012/05/03 15:49:49.2   0.1                          T                                        4936643
SGMF  001.38 231.7 m E Pg      2012/05/03 15:49:50.2   0.1                          T                                        4942032
SGMF  001.38 231.7 m E P       2012/05/03 15:49:50.9   0.2                          T                                        4942033
SGMF  001.38 231.7 m E Sg      2012/05/03 15:50:08.0  -0.1                          T                 .7  .22 Ml 1.5         4936638
ROSF  001.73 244.0 m E Pn      2012/05/03 15:49:53.9  -0.1                          T                                        4936639
ROSF  001.73 244.0 m E Pg      2012/05/03 15:49:56.8   0.1                          T                                        4942034
ROSF  001.73 244.0 m E Sg      2012/05/03 15:50:18.9  -0.3                          T                 .9  .20 Ml 1.8         4936640
QUIF  001.91 231.7 m E Pn      2012/05/03 15:49:56.1  -0.2                          T                                        4936636
QUIF  001.91 231.7 m E Pg      2012/05/03 15:49:59.7  -0.2                          T                                        4942031
QUIF  001.91 231.7 m E Sg      2012/05/03 15:50:24.2  -0.5                          T                1.1  .25 Ml 1.8         4936637

.
EVENT     275410
    Date      Time       Latitude Longitude    Depth    Ndef Nsta Gap    Mag1  N    Mag2  N    Mag3  N   Author         ID
       rms   OT_Error      Smajor Sminor Az        Err   mdist  Mdist     Err        Err        Err      Quality

2012/05/03 17:08:15.5     48.2163    8.7831       .0 f     9    5 293  Ml 2.3  4  Md 2.4  1              bulletin    275510
                                                                                                         _ldg
      0.12   +-  0.16       3.0    1.8   92.45 +-  0.0    1.00   2.07   +-0.1      +-                    m i km

GERMANY
Sta     Dist  EvAz     Phase      Date       Time     TRes  Azim  AzRes  Slow  SRes Def   SNR       Amp   Per   Mag1   Mag2       ID
LANF  001.00 320.0 m E Pg      2012/05/03 17:08:34.6   0.0                          T                                        4936587
LANF  001.00 320.0 m E Sg      2012/05/03 17:08:47.7  -0.1                          T               10.5  .41 Ml 2.2 Md 2.4  4936588
CDF   001.02 281.6 m E Pg      2012/05/03 17:08:35.1   0.1                          T                                        4936590
CDF   001.02 281.6 m E Sg      2012/05/03 17:08:48.3  -0.2                          T                4.7  .25 Ml 2.2         4936589
HINF  001.36 253.6 m E Pn      2012/05/03 17:08:40.1  -0.1                          T                                        4936584
HINF  001.36 253.6 m E Sn      2012/05/03 17:08:58.1   0.1                          T               12.4  .45 Ml 2.4         4936586
HAU   001.65 263.5 m E Pn      2012/05/03 17:08:44.1   0.0                          T                                        4936583
HAU   001.65 263.5 m E Sn      2012/05/03 17:09:05.2   0.3                          T                9.6  .39 Ml 2.3         4936585
PAGF  002.07 280.6 m E Pg      2012/05/03 17:08:54.1  -0.1                          T                                        4936582

.
EVENT     275411
    Date      Time       Latitude Longitude    Depth    Ndef Nsta Gap    Mag1  N    Mag2  N    Mag3  N   Author         ID
       rms   OT_Error      Smajor Sminor Az        Err   mdist  Mdist     Err        Err        Err      Quality

2012/05/03 19:46:09.6     47.6749    6.9310       .0 f    10    5 313  Ml 1.7  2  Md 2.0  2              bulletin    275511
                                                                                                         _ldg
      0.17   +-  0.23       4.4    3.6   83.83 +-  0.0    0.15   1.51   +-0.1      +-0.1                 m i km

FRANCE
Sta     Dist  EvAz     Phase      Date       Time     TRes  Azim  AzRes  Slow  SRes Def   SNR       Amp   Per   Mag1   Mag2       ID
HINF  000.15 339.7 m E Pg      2012/05/03 19:46:13.1   0.1                          T                                        4936600
HINF  000.15 339.7 m E Sg      2012/05/03 19:46:15.5   0.1                          T                3.5  .36        Md 1.9  4936597
HAU   000.51 310.3 m E Pg      2012/05/03 19:46:19.7   0.0                          T                                        4936599
HAU   000.51 310.3 m E Sg      2012/05/03 19:46:26.7   0.1                          T                5.0  .31        Md 2.1  4936598
THEF  000.84 311.7 m E Pg      2012/05/03 19:46:25.3  -0.3                          T                                        4936595
THEF  000.84 311.7 m E Sg      2012/05/03 19:46:36.7  -0.1                          T                1.7  .30                4936596
SFTF  001.38 293.3 m E Pn      2012/05/03 19:46:34.8   0.2                          T                                        4936592
SFTF  001.38 293.3 m E Sn      2012/05/03 19:46:52.8   0.1                          T                1.3  .31 Ml 1.6         4936591
MEZF  001.51 304.0 m E Pn      2012/05/03 19:46:36.2  -0.1                          T                                        4936594
MEZF  001.51 304.0 m E Sn      2012/05/03 19:46:55.9   0.2                          T                2.0  .36 Ml 1.8         4936593

.
