EVENT     279207
    Date      Time       Latitude Longitude    Depth    Ndef Nsta Gap    Mag1  N    Mag2  N    Mag3  N   Author         ID
       rms   OT_Error      Smajor Sminor Az        Err   mdist  Mdist     Err        Err        Err      Quality

2012/07/06 11:50:01.8     42.8031   -2.7810       .0 f    12    4 348  Ml 2.0  3                         bulletin    279307
                                                                                                         _ldg
      0.25   +-  0.34      21.6    5.9  171.84 +-  0.0    1.18   3.70   +-0.2                            m i km

SPAIN
Sta     Dist  EvAz     Phase      Date       Time     TRes  Azim  AzRes  Slow  SRes Def   SNR       Amp   Per   Mag1   Mag2       ID
SJPF  001.18 074.3 m E Pn      2012/07/06 11:50:24.1   0.0                          T                                        5020889
SJPF  001.18 074.3 m E Sg      2012/07/06 11:50:39.5  -0.2                          T                                        5020886
ETSF  001.64 085.9 m E Pn      2012/07/06 11:50:30.6   0.2                          T                                        5020891
ETSF  001.64 085.9 m E Pg      2012/07/06 11:50:32.7   0.1                          T                                        5020888
ETSF  001.64 085.9 m E Sn      2012/07/06 11:50:51.1   0.0                          T                5.5  .39 Ml 2.3         5020896
ETSF  001.64 085.9 m E Sg      2012/07/06 11:50:54.0   0.0                          T                                        5020885
EPF   002.30 083.3 m E Pn      2012/07/06 11:50:39.3  -0.2                          T                                        5020890
EPF   002.30 083.3 m E Pg      2012/07/06 11:50:44.4  -0.5                          T                                        5020887
EPF   002.30 083.3 m E Sn      2012/07/06 11:51:05.8  -1.2                          T                1.4  .26 Ml 2.0         5020895
MTLF  003.70 080.0 m E Pn      2012/07/06 11:50:58.4   0.0                          T                                        5020892
MTLF  003.70 080.0 m E Pg      2012/07/06 11:51:10.9   0.3                          T                                        5020893
MTLF  003.70 080.0 m E Sn      2012/07/06 11:51:40.7   0.4                          T                 .2  .14 Ml 1.8         5020894

.
EVENT     279213
    Date      Time       Latitude Longitude    Depth    Ndef Nsta Gap    Mag1  N    Mag2  N    Mag3  N   Author         ID
       rms   OT_Error      Smajor Sminor Az        Err   mdist  Mdist     Err        Err        Err      Quality

2012/07/06 18:49:50.3     44.9732    6.1099      4.0 f    21    9 134  Ml 1.6  6  Md 2.0  2              bulletin    279314
                                                                                                         _ldg
      1.03   +-  0.12       2.2    2.0   96.25 +-  0.0    0.17   1.66   +-0.2      +-0.2                 m i ke

FRANCE
Sta     Dist  EvAz     Phase      Date       Time     TRes  Azim  AzRes  Slow  SRes Def   SNR       Amp   Per   Mag1   Mag2       ID
ORIF  000.17 251.5 m E Pg      2012/07/06 18:49:53.9  -0.1                          T                                Md 1.8  5021005
ORIF  000.17 251.5 m E Sg      2012/07/06 18:49:55.9  -0.6                          T               15.9  .23        Md 2.1  5021000
MBDF  000.53 117.4 m E Pg      2012/07/06 18:50:00.0  -0.6                          T                                        5021004
MBDF  000.53 117.4 m E Sg      2012/07/06 18:50:06.6  -1.0                          T                4.8  .28                5021008
LPG   000.69 040.6 m E Pg      2012/07/06 18:50:04.0   0.2                          T                                        5027884
LPG   000.69 040.6 m E Sg      2012/07/06 18:50:14.5   1.6                          T                1.4  .19                5027885
LPL   000.70 038.8 m E Pg      2012/07/06 18:50:04.2   0.4                          T                                        5027882
LPL   000.70 038.8 m E Sg      2012/07/06 18:50:13.2   0.2                          T                 .9  .22                5027883
VIVF  001.03 264.0 m E Pg      2012/07/06 18:50:09.9   0.3                          T                                        5021016
VIVF  001.03 264.0 m E Sg      2012/07/06 18:50:23.9   0.9                          T                2.0  .28 Ml 1.7         5021007
SMRF  001.07 201.2 m E Pg      2012/07/06 18:50:10.4   0.1                          T                                        5021006
SMRF  001.07 201.2 m E Sg      2012/07/06 18:50:24.0  -0.2                          T                2.3  .46 Ml 1.5         5021014
FRF   001.46 164.5 m E Pn      2012/07/06 18:50:15.9   0.1                          T                                        5021015
FRF   001.46 164.5 m E Pg      2012/07/06 18:50:17.6   0.0                          T                                        5021001
FRF   001.46 164.5 m E Sn      2012/07/06 18:50:34.1  -0.2                          T                1.0  .29 Ml 1.6         5021013
FRF   001.46 164.5 m E Sg      2012/07/06 18:50:36.2  -0.3                          T                1.6  .25 Ml 1.9         5021009
LMR   001.66 169.9 m E Pg      2012/07/06 18:50:21.0  -0.2                          T                                        5027886
LMR   001.66 169.9 m E Sn      2012/07/06 18:50:38.8  -0.3                          T                 .5  .22 Ml 1.4         5021017
SBF   001.46 139.0 m E Sn      2012/07/06 18:50:34.1  -0.2                          T                 .5  .20 Ml 1.4         5021018

.
EVENT     279233
    Date      Time       Latitude Longitude    Depth    Ndef Nsta Gap    Mag1  N    Mag2  N    Mag3  N   Author         ID
       rms   OT_Error      Smajor Sminor Az        Err   mdist  Mdist     Err        Err        Err      Quality

2012/07/06 21:31:09.8     43.9552    7.4935     15.0      10    5 238  Ml 1.4  3  Md 1.5  3              bulletin    279334
                                                                                                         _ldg
      0.18   +-  0.15       3.2    1.7   93.07 +-  0.0    0.10   1.39   +-0.4      +-0.1                 m i ke

NEAR SOUTH COAST OF FRANCE
Sta     Dist  EvAz     Phase      Date       Time     TRes  Azim  AzRes  Slow  SRes Def   SNR       Amp   Per   Mag1   Mag2       ID
SBF   000.10 204.6 m E Pg      2012/07/06 21:31:13.1  -0.2                          T                                        5027929
SBF   000.10 204.6 m E Sg      2012/07/06 21:31:15.4  -0.3                          T               20.3  .22        Md 1.6  5027930
FRF   000.73 237.6 m E Pg      2012/07/06 21:31:23.9   0.1                          T                                        5027925
FRF   000.73 237.6 m E Sg      2012/07/06 21:31:33.2  -0.3                          T                2.6  .25        Md 1.5  5027926
MBDF  000.93 326.4 m E Pg      2012/07/06 21:31:27.6   0.0                          T                                        5027931
MBDF  000.93 326.4 m E Sg      2012/07/06 21:31:39.6  -0.2                          T                 .6  .26 Ml 1.1         5027932
LMR   000.95 229.3 m E Pg      2012/07/06 21:31:27.8   0.0                          T                                        5027927
LMR   000.95 229.3 m E Sg      2012/07/06 21:31:40.2   0.0                          T                2.2  .23 Ml 1.8 Md 1.5  5027928
SMRF  001.39 271.5 m E Pn      2012/07/06 21:31:33.3   0.2                          T                                        5027934
SMRF  001.39 271.5 m E Sg      2012/07/06 21:31:53.5  -0.3                          T                 .4  .28 Ml 1.2         5027933

.
EVENT     279214
    Date      Time       Latitude Longitude    Depth    Ndef Nsta Gap    Mag1  N    Mag2  N    Mag3  N   Author         ID
       rms   OT_Error      Smajor Sminor Az        Err   mdist  Mdist     Err        Err        Err      Quality

2012/07/07 03:27:52.9     43.9841    7.4468      2.0     103   19 030  Ml 2.8 17  Md 3.0  2              bulletin    279315
                                                                                                         _ldg
      0.51   +-  0.05        .9     .8   46.04 +-  0.0    0.08   5.26   +-0.4      +-0.0                 m i ke

NEAR SOUTH COAST OF FRANCE
Sta     Dist  EvAz     Phase      Date       Time     TRes  Azim  AzRes  Slow  SRes Def   SNR       Amp   Per   Mag1   Mag2       ID
SBF   000.12 184.0 m E Pg      2012/07/07 03:27:55.2  -0.4                          T                                        5021061
SBF   000.12 184.0 m E Sg      2012/07/07 03:27:56.9  -0.4                          T             1996.3  .29        Md 3.0  5021062
FRF   000.72 234.1 m E Pg      2012/07/07 03:28:06.3  -0.2                          T                                        5027951
FRF   000.72 234.1 m E Pn      2012/07/07 03:28:08.4   0.0                          T                                        5021059
FRF   000.72 234.1 m E Sg      2012/07/07 03:28:15.7  -0.1                          T               96.9  .20                5021055
MBDF  000.89 327.1 m E Pg      2012/07/07 03:28:09.4  -0.4                          T                                        5021049
MBDF  000.89 327.1 m E Sg      2012/07/07 03:28:21.3   0.0                          T               35.2  .23 Ml 3.0 Md 3.0  5021042
LMR   000.94 226.6 m E Pg      2012/07/07 03:28:10.2  -0.3                          T                                        5021060
LMR   000.94 226.6 m E Sg      2012/07/07 03:28:22.4  -0.4                          T              229.7  .24 Ml 3.8         5021056
SMRF  001.35 270.3 m E Pg      2012/07/07 03:28:18.5   0.3                          T                                        5021053
SMRF  001.35 270.3 m E Sg      2012/07/07 03:28:35.7   0.1                          T              110.3  .30 Ml 3.5         5021054
ORIF  001.46 310.3 m E Pg      2012/07/07 03:28:19.8  -0.5                          T                                        5021050
ORIF  001.46 310.3 m E Sg      2012/07/07 03:28:39.4   0.3                          T               28.6  .24 Ml 3.1         5021041
PGF   001.83 141.1 m E Pn      2012/07/07 03:28:22.0  -1.8                          T                                        5021058
PGF   001.83 141.1 m E Sn      2012/07/07 03:28:43.9  -2.2                          T               13.4  .24 Ml 3.2         5021057
LPG   001.59 342.1 m E Pg      2012/07/07 03:28:22.2  -0.8                          T                                        5021052
LPG   001.59 342.1 m E Sg      2012/07/07 03:28:43.7   0.2                          T               14.6  .29 Ml 2.8         5021039
LPL   001.61 341.9 m E Pg      2012/07/07 03:28:22.6  -0.6                          T                                        5021051
LPL   001.61 341.9 m E Sg      2012/07/07 03:28:44.0  -0.2                          T               18.9  .39 Ml 2.8         5021040
VIVF  002.17 294.6 m E P       2012/07/07 03:28:29.8  -0.8                          T                                        5021048
VIVF  002.17 294.6 m E Sn      2012/07/07 03:28:54.4   0.2                          T                5.2  .16 Ml 2.8         5021043
LASF  002.59 273.3 m E Pn      2012/07/07 03:28:34.1   0.0                          T                                        5021047
LASF  002.59 273.3 m E Sn      2012/07/07 03:29:04.4   0.1                          T                7.4  .18 Ml 3.0         5021044
CABF  002.80 340.4 m E Pg      2012/07/07 03:28:45.4   0.5                          T                                        5027942
CABF  002.80 340.4 m E Sg      2012/07/07 03:29:20.9   0.1                          T                2.7  .43 Ml 2.2         5027941
SMF   003.68 317.6 m E Pn      2012/07/07 03:28:48.7  -0.2                          T                                        5027947
SMF   003.68 317.6 m E P       2012/07/07 03:28:51.6  -0.6                          T                                        5027946
SMF   003.68 317.6 m E Sn      2012/07/07 03:29:31.1   0.8                          T                1.6  .20 Ml 2.5         5027940
MTLF  003.85 262.2 m E Pn      2012/07/07 03:28:51.9   0.8                          T                                        5021046
MTLF  003.85 262.2 m E Sn      2012/07/07 03:29:34.5   0.2                          T                2.4  .24 Ml 2.6         5021045
CAF   003.97 285.6 m E P       2012/07/07 03:28:54.0  -2.2                          T                                        5027949
CAF   003.97 285.6 m E Sn      2012/07/07 03:29:37.5   0.4                          T                1.5  .32 Ml 2.3         5027939
LOR   004.14 323.8 m E Pn      2012/07/07 03:28:55.3   0.2                          T                                        5027945
LOR   004.14 323.8 m E Sn      2012/07/07 03:29:41.5   0.3                          T                2.5  .32 Ml 2.6         5027944
BGF   004.14 310.0 m E P       2012/07/07 03:28:57.5  -1.2                          T                                        5027948
EPF   005.26 262.0 m E Pn      2012/07/07 03:29:10.6   0.3                          T                                        5027950
HINF  003.86 354.0 m E Sn      2012/07/07 03:29:34.4  -0.1                          T                2.4  .42 Ml 2.4         5027943

.
EVENT     279215
    Date      Time       Latitude Longitude    Depth    Ndef Nsta Gap    Mag1  N    Mag2  N    Mag3  N   Author         ID
       rms   OT_Error      Smajor Sminor Az        Err   mdist  Mdist     Err        Err        Err      Quality

2012/07/07 05:17:07.7     44.6379    6.6913      2.0      17    5 077  Ml 2.2  1  Md 2.6  2              bulletin    279316
                                                                                                         _ldg
      0.27   +-  0.07       1.7    1.4   75.34 +-  0.0    0.11   1.31   +-         +-0.1                 m i ke

FRANCE
Sta     Dist  EvAz     Phase      Date       Time     TRes  Azim  AzRes  Slow  SRes Def   SNR       Amp   Per   Mag1   Mag2       ID
MBDF  000.11 032.7 m E Pg      2012/07/07 05:17:10.1  -0.1                          T                                        5021080
MBDF  000.11 032.7 m E Sg      2012/07/07 05:17:12.2   0.4                          T                                Md 2.6  5021078
ORIF  000.64 296.2 m E Pg      2012/07/07 05:17:19.8  -0.2                          T                                        5021079
ORIF  000.64 296.2 m E Sg      2012/07/07 05:17:27.9  -0.5                          T                2.6  .25        Md 2.7  5021077
SMRF  001.04 230.8 m E Pg      2012/07/07 05:17:27.4   0.2                          T                                        5021081
SMRF  001.04 230.8 m E Sn      2012/07/07 05:17:42.1   0.1                          T                                        5021072
FRF   001.08 181.7 m E Pg      2012/07/07 05:17:28.1   0.2                          T                                        5021076
FRF   001.08 181.7 m E Sg      2012/07/07 05:17:42.1   0.2                          T                                        5021074
LMR   001.31 185.8 m E Pn      2012/07/07 05:17:32.3   1.0                          T                                        5021075
LMR   001.31 185.8 m E Sn      2012/07/07 05:17:48.7   0.4                          T               19.9 1.18 Ml 2.2         5021073

.
EVENT     279216
    Date      Time       Latitude Longitude    Depth    Ndef Nsta Gap    Mag1  N    Mag2  N    Mag3  N   Author         ID
       rms   OT_Error      Smajor Sminor Az        Err   mdist  Mdist     Err        Err        Err      Quality

2012/07/07 05:33:03.5     43.8467    7.5762      2.0       8    4 317  Ml 2.1  2  Md 2.4  3              bulletin    279317
                                                                                                         _ldg
      0.25   +-  0.41       7.3    5.3  101.51 +-  0.0    0.10   1.45   +-0.1      +-0.4                 m i ke

NEAR SOUTH COAST OF FRANCE
Sta     Dist  EvAz     Phase      Date       Time     TRes  Azim  AzRes  Slow  SRes Def   SNR       Amp   Per   Mag1   Mag2       ID
SBF   000.10 279.2 m E Pg      2012/07/07 05:33:05.7  -0.1                          T                                        5021108
SBF   000.10 279.2 m E Sg      2012/07/07 05:33:07.9   0.5                          T               29.6  .18        Md 1.9  5021105
FRF   000.73 247.3 m E Pg      2012/07/07 05:33:17.0  -0.2                          T                                        5021107
FRF   000.73 247.3 m E Sg      2012/07/07 05:33:26.4  -0.5                          T                1.7  .19        Md 2.6  5021103
LMR   000.93 236.9 m E Pg      2012/07/07 05:33:21.2   0.3                          T                                        5021106
LMR   000.93 236.9 m E Sg      2012/07/07 05:33:33.1   0.1                          T                6.9  .26 Ml 2.2 Md 2.6  5021104
SMRF  001.45 275.8 m E Pn      2012/07/07 05:33:29.1   0.0                          T                                        5021102
SMRF  001.45 275.8 m E Sn      2012/07/07 05:33:47.7   0.1                          T                2.9  .29 Ml 2.0         5021101

.
