EVENT     260508
    Date      Time       Latitude Longitude    Depth    Ndef Nsta Gap    Mag1  N    Mag2  N    Mag3  N   Author         ID
       rms   OT_Error      Smajor Sminor Az        Err   mdist  Mdist     Err        Err        Err      Quality

2011/06/19 16:49:02.9     44.0783   10.8748     10.0 f    80   29 055  Ml 3.4 20                         js067245    260508

      0.60   +-  0.09       2.4    1.6  167.68 +-  0.0    0.20   7.73   +-0.3                            m i ke

NORTHERN ITALY
Sta     Dist  EvAz     Phase      Date       Time     TRes  Azim  AzRes  Slow  SRes Def   SNR       Amp   Per   Mag1   Mag2       ID
PGF   002.05 222.5 m E Pn      2011/06/19 16:49:36.5   0.6                          T   001.0                                4708874
PGF   002.05 222.5 m E Sn      2011/06/19 16:50:00.2   0.3                          T               42.2  .43 Ml 3.4         4710437
SBF   002.49 266.2 m E Pn      2011/06/19 16:49:41.9   0.1                          T   001.0                                4708875
SBF   002.49 266.2 m E Sn      2011/06/19 16:50:10.5   0.1                          T   001.0      127.4  .44 Ml 3.8         4708876
MBDF  003.01 283.9 m E Pn      2011/06/19 16:49:48.5  -0.4                          T   001.0                                4708885
MBDF  003.01 283.9 m E Sn      2011/06/19 16:50:22.7  -0.3                          T   001.0       44.9  .56 Ml 3.3         4708886
FRF   003.10 261.9 m E Pn      2011/06/19 16:49:49.4  -0.6                          T                                        4710439
FRF   003.10 261.9 m E P       2011/06/19 16:49:52.8  -0.2                          T   001.0                                4708862
FRF   003.10 261.9 m E Sn      2011/06/19 16:50:24.5  -0.4                          T   001.0       30.8  .32 Ml 3.5         4708863
LMR   003.25 258.3 m E Pn      2011/06/19 16:49:51.5  -0.5                          T                                        4710438
LMR   003.25 258.3 m E P       2011/06/19 16:49:54.8  -0.3                          T   001.0                                4708867
LMR   003.25 258.3 m E Sn      2011/06/19 16:50:28.5   0.0                          T   001.0       53.2  .36 Ml 3.7         4708868
LPG   003.26 297.2 m E Pn      2011/06/19 16:49:51.8  -0.7                          T                                        4710441
LPG   003.26 297.2 m E P       2011/06/19 16:49:55.6  -0.1                          T   001.0                                4708871
LPG   003.26 297.2 m E Sn      2011/06/19 16:50:28.5  -0.6                          T   001.0       27.2  .44 Ml 3.3         4708872
LPL   003.28 297.4 m E Pn      2011/06/19 16:49:52.6  -0.1                          T                                        4710442
LPL   003.28 297.4 m E P       2011/06/19 16:49:56.0   0.1                          T   001.0                                4708873
LPL   003.28 297.4 m E Sn      2011/06/19 16:50:30.8   1.4                          T               30.0  .42 Ml 3.3         4710435
ORIF  003.67 285.0 m E P       2011/06/19 16:50:00.0  -1.2                          T   001.0                                4708890
ORIF  003.67 285.0 m E Sn      2011/06/19 16:50:38.2  -0.4                          T               35.5  .56 Ml 3.4         4710434
SMRF  003.82 270.3 m E Pn      2011/06/19 16:50:01.1   1.2                          T                                        4710440
SMRF  003.82 270.3 m E P       2011/06/19 16:50:03.6   0.3                          T   001.0                                4708893
SMRF  003.82 270.3 m E Sn      2011/06/19 16:50:42.2   0.0                          T               18.7  .52 Ml 3.2         4710436
CABF  004.22 308.6 m E Pn      2011/06/19 16:50:06.5   1.2                          T   001.0                                4708882
CABF  004.22 308.6 m E Sn      2011/06/19 16:50:50.9  -0.8                          T               19.3  .64 Ml 3.2         4710431
VIVF  004.51 282.1 m E Pn      2011/06/19 16:50:09.4   0.2                          T   001.0                                4708891
VIVF  004.51 282.1 m E Sn      2011/06/19 16:50:59.0   0.5                          T   001.0        4.9  .36 Ml 2.9         4708892
HINF  004.67 324.5 m E Pn      2011/06/19 16:50:11.4  -0.1                          T   001.0                                4708883
HINF  004.67 324.5 m E Sn      2011/06/19 16:51:03.2   0.7                          T   001.0       37.8  .48 Ml 3.7         4708884
CDF   005.00 331.3 m E Pn      2011/06/19 16:50:15.9   0.0                          T   001.0                                4708861
CDF   005.00 331.3 m E Sn      2011/06/19 16:51:10.5   0.0                          T               17.4  .42 Ml 3.6         4710430
HAU   005.04 322.9 m E Pn      2011/06/19 16:50:16.4   0.0                          T   001.0                                4708864
HAU   005.04 322.9 m E Sn      2011/06/19 16:51:11.7   0.6                          T   001.0       72.6  .40 Ml 3.9         4708865
LASF  005.06 272.4 m E Pn      2011/06/19 16:50:16.4  -0.2                          T   001.0                                4708866
LANF  005.34 337.7 m E Pn      2011/06/19 16:50:20.4  -0.2                          T                                        4710448
SMF   005.58 299.8 m E Pn      2011/06/19 16:50:24.4   0.6                          T   001.0                                4708878
SMF   005.58 299.8 m E Sn      2011/06/19 16:51:24.7   0.6                          T               13.7  .46 Ml 3.5         4710433
PAGF  005.72 323.3 m E Pn      2011/06/19 16:50:26.2   0.5                          T                                        4710447
PAGF  005.72 323.3 m E Sn      2011/06/19 16:51:27.8   0.2                          T                3.4  .49 Ml 2.9         4710429
SFTF  005.79 317.6 m E Pn      2011/06/19 16:50:27.0   0.5 130.8  -2.5              T                                        4710446
LOR   005.86 305.4 m E Pn      2011/06/19 16:50:28.0   0.5 123.2  2.8               T   001.0                                4708869
LOR   005.86 305.4 m E Sn      2011/06/19 16:51:31.2   0.4                          T   001.0       13.5  .32 Ml 3.7         4708870
AVF   005.95 299.8 m E Pn      2011/06/19 16:50:28.0   0.3                          T   001.0                                4708859
AVF   005.95 299.8 m E Sn      2011/06/19 16:51:33.1   0.2                          T                5.4  .43 Ml 3.2         4710432
SSF   005.97 302.5 m E Pn      2011/06/19 16:50:29.6   0.5                          T   001.0                                4708879
SSF   005.97 302.5 m E Sn      2011/06/19 16:51:33.3  -0.2                          T   001.0          7  .48 Ml 3.3         4708880
MEZF  005.99 319.7 m E Pn      2011/06/19 16:50:30.0   0.7 140.3  4.8               T   001.0                                4708887
BGF   006.18 296.5 m E Pn      2011/06/19 16:50:32.0   0.1                          T                                        4710445
RUP   006.20 336.4 m E Pn      2011/06/19 16:50:32.6   0.3                          T                                        4710449
MTLF  006.32 266.3 m E Pn      2011/06/19 16:50:33.9   0.1                          T                                        4710443
MTLF  006.32 266.3 m E P       2011/06/19 16:50:38.2  -0.3                          T   001.0                                4708888
MTLF  006.32 266.3 m E Sn      2011/06/19 16:51:43.3   1.5                          T   001.0        1.8  .36 Ml 2.9         4708889
CAF   006.36 280.7 m E Pn      2011/06/19 16:50:34.7   0.3                          T   001.0                                4708860
TCF   006.51 292.9 m E Pn      2011/06/19 16:50:36.5   0.1                          T   001.0                                4708881
EPF   007.73 265.9 m E Pn      2011/06/19 16:50:53.7   0.6                          T                                        4710444

.
EVENT     260556
    Date      Time       Latitude Longitude    Depth    Ndef Nsta Gap    Mag1  N    Mag2  N    Mag3  N   Author         ID
       rms   OT_Error      Smajor Sminor Az        Err   mdist  Mdist     Err        Err        Err      Quality

2011/06/19 17:36:02.3     42.3298     .7764      2.0      25    4 081  Ml 1.4  3  Md 1.6  1              js067245    260556

      0.98   +-  0.16       3.9    2.6   15.47 +-  0.0    0.01   1.67   +-0.1      +-                    m i ke

PYRENEES
Sta     Dist  EvAz     Phase      Date       Time     TRes  Azim  AzRes  Slow  SRes Def   SNR       Amp   Per   Mag1   Mag2       ID
EPF   000.77 335.5 m E Pg      2011/06/19 17:36:16.6  -0.3                          T                                        4710457
EPF   000.77 335.5 m E Sg      2011/06/19 17:36:26.3  -0.6                          T                1.0  .26        Md 1.6  4710458
ETSF  001.14 300.4 m E Pg      2011/06/19 17:36:23.7   0.1                          T                                        4710452
ETSF  001.14 300.4 m E Sg      2011/06/19 17:36:38.7   0.3                          T                 .9  .29 Ml 1.4         4710456
MTLF  001.46 045.9 m E Pg      2011/06/19 17:36:29.5  -0.1                          T                                        4710450
MTLF  001.46 045.9 m E Sg      2011/06/19 17:36:48.2  -0.3                          T                 .5  .28 Ml 1.2         4710451
SJPF  001.67 298.6 m E Pg      2011/06/19 17:36:33.5   0.1                          T                                        4710453
SJPF  001.67 298.6 m E Sn      2011/06/19 17:36:51.5  -0.1                          T                                        4710454
SJPF  001.67 298.6 m E Sg      2011/06/19 17:36:54.9  -0.1                          T                 .7  .26 Ml 1.5         4710455

.
EVENT     260558
    Date      Time       Latitude Longitude    Depth    Ndef Nsta Gap    Mag1  N    Mag2  N    Mag3  N   Author         ID
       rms   OT_Error      Smajor Sminor Az        Err   mdist  Mdist     Err        Err        Err      Quality

2011/06/19 18:39:12.2     42.8389   -1.4277      2.0      34    3 099  Ml 1.0  1  Md 1.2  2              js067245    260558

      0.42   +-  0.09       1.9    1.3   40.86 +-  0.0    0.03   1.31   +-         +-0.2                 m i ke

PYRENEES
Sta     Dist  EvAz     Phase      Date       Time     TRes  Azim  AzRes  Slow  SRes Def   SNR       Amp   Per   Mag1   Mag2       ID
SJPF  000.31 028.4 m E Pg      2011/06/19 18:39:18.6   0.3                          T                                        4710463
SJPF  000.31 028.4 m E Sg      2011/06/19 18:39:23.3   0.8                          T                2.1  .22        Md 1.1  4710464
ETSF  000.64 084.4 m E Pg      2011/06/19 18:39:24.5   0.1                          T                                        4710461
ETSF  000.64 084.4 m E Sg      2011/06/19 18:39:32.6  -0.3                          T                1.1  .28        Md 1.3  4710462
EPF   001.31 081.0 m E Pg      2011/06/19 18:39:36.8   0.0                          T                                        4710459
EPF   001.31 081.0 m E Sg      2011/06/19 18:39:53.8   0.0                          T                 .3  .23 Ml 1.0         4710460

.
EVENT     260512
    Date      Time       Latitude Longitude    Depth    Ndef Nsta Gap    Mag1  N    Mag2  N    Mag3  N   Author         ID
       rms   OT_Error      Smajor Sminor Az        Err   mdist  Mdist     Err        Err        Err      Quality

2011/06/19 19:05:38.8     44.0737   10.8549     10.0 f    24   13 250  Ml 2.6  7                         js067245    260512

      0.49   +-  0.50      11.1    4.4  103.65 +-  0.0    2.04   5.03   +-0.3                            m i ke

NORTHERN ITALY
Sta     Dist  EvAz     Phase      Date       Time     TRes  Azim  AzRes  Slow  SRes Def   SNR       Amp   Per   Mag1   Mag2       ID
PGF   002.04 222.3 m E Pn      2011/06/19 19:06:12.0   0.4                          T                                        4710472
PGF   002.04 222.3 m E Sn      2011/06/19 19:06:35.9   0.4                          T                5.3  .27 Ml 2.7         4710471
SBF   002.48 266.3 m E Pn      2011/06/19 19:06:17.4  -0.1                          T                                        4710473
SBF   002.48 266.3 m E Sn      2011/06/19 19:06:46.2   0.2                          T                5.7  .32 Ml 2.6         4710470
MBDF  003.00 284.0 m E Pn      2011/06/19 19:06:24.3  -0.5                          T                                        4710484
FRF   003.09 261.9 m E Pn      2011/06/19 19:06:25.2  -0.6                          T                                        4710476
FRF   003.09 261.9 m E P       2011/06/19 19:06:28.9   0.1                          T                                        4710477
FRF   003.09 261.9 m E Sn      2011/06/19 19:07:00.1  -0.4                          T                1.0  .21 Ml 2.2         4710468
LMR   003.24 258.3 m E Pn      2011/06/19 19:06:27.1  -0.6                          T                                        4710474
LMR   003.24 258.3 m E P       2011/06/19 19:06:30.5  -0.4                          T                                        4710475
LMR   003.24 258.3 m E Sn      2011/06/19 19:07:03.9  -0.1                          T                1.4  .23 Ml 2.3         4710469
LPL   003.27 297.6 m E Pn      2011/06/19 19:06:28.2  -0.3                          T                                        4710481
LPL   003.27 297.6 m E P       2011/06/19 19:06:31.8   0.2                          T                                        4710482
LPG   003.25 297.4 m E Pn      2011/06/19 19:06:31.4   3.1                          T                                        4710480
ORIF  003.66 285.1 m E P       2011/06/19 19:06:35.4  -1.6                          T                                        4710483
SMRF  003.81 270.4 m E Pn      2011/06/19 19:06:36.6   1.0                          T                                        4710478
SMRF  003.81 270.4 m E P       2011/06/19 19:06:39.3   0.3                          T                                        4710479
CABF  004.21 308.7 m E Pn      2011/06/19 19:06:42.3   1.2                          T                                        4710485
HINF  004.67 324.7 m E Pn      2011/06/19 19:06:47.3   0.0                          T                                        4710486
HINF  004.67 324.7 m E Sn      2011/06/19 19:07:38.7   0.3                          T                4.4  .46 Ml 2.8         4710467
CDF   005.00 331.5 m E Pn      2011/06/19 19:06:51.6  -0.3                          T                                        4710488
CDF   005.00 331.5 m E Sn      2011/06/19 19:07:46.2  -0.1                          T                1.5  .35 Ml 2.6         4710465
HAU   005.03 323.0 m E Pn      2011/06/19 19:06:51.7  -0.5                          T                                        4710487
HAU   005.03 323.0 m E Sn      2011/06/19 19:07:47.4   0.5                          T                4.6  .30 Ml 2.8         4710466

.
EVENT     260511
    Date      Time       Latitude Longitude    Depth    Ndef Nsta Gap    Mag1  N    Mag2  N    Mag3  N   Author         ID
       rms   OT_Error      Smajor Sminor Az        Err   mdist  Mdist     Err        Err        Err      Quality

2011/06/19 19:42:35.0     44.3623    7.6348      2.0      16    8 224  Ml 1.8  6  Md 1.7  2              js067245    260511

      0.18   +-  0.11       2.2     .8   87.90 +-  0.0    0.52   1.53   +-0.3      +-0.2                 m i ke

NORTHERN ITALY
Sta     Dist  EvAz     Phase      Date       Time     TRes  Azim  AzRes  Slow  SRes Def   SNR       Amp   Per   Mag1   Mag2       ID
SBF   000.52 196.1 m E Pg      2011/06/19 19:42:45.1   0.2                          T                                        4710497
SBF   000.52 196.1 m E Sg      2011/06/19 19:42:51.7  -0.1                          T               31.5  .41        Md 1.9  4710498
MBDF  000.72 300.9 m E Pg      2011/06/19 19:42:48.7   0.0                          T                                        4710503
MBDF  000.72 300.9 m E Sg      2011/06/19 19:42:58.2   0.1                          T                4.7  .25        Md 1.6  4710504
FRF   001.07 222.0 m E Pg      2011/06/19 19:42:55.8   0.7                          T                                        4710500
FRF   001.07 222.0 m E Sg      2011/06/19 19:43:09.6   0.6                          T                4.4  .23 Ml 2.2         4710502
LMR   001.31 218.8 m E Pg      2011/06/19 19:42:59.3  -0.2                          T                                        4710499
LMR   001.31 218.8 m E Sg      2011/06/19 19:43:16.0  -0.4                          T                4.3  .26 Ml 2.2         4710501
LPG   001.30 331.4 m E Pg      2011/06/19 19:42:59.5   0.0                          T                                        4710491
LPG   001.30 331.4 m E Sg      2011/06/19 19:43:16.5   0.2                          T                 .7  .20 Ml 1.5         4710492
LPL   001.32 331.3 m E Pg      2011/06/19 19:42:59.8   0.0                          T                                        4710493
LPL   001.32 331.3 m E Sg      2011/06/19 19:43:16.9  -0.1                          T                 .9  .26 Ml 1.5         4710494
ORIF  001.37 294.5 m E Pg      2011/06/19 19:43:00.6   0.0                          T                                        4710495
ORIF  001.37 294.5 m E Sn      2011/06/19 19:43:17.2   0.0                          T                1.1  .24 Ml 1.6         4710496
SMRF  001.53 256.1 m E Pg      2011/06/19 19:43:03.5   0.0                          T                                        4710489
SMRF  001.53 256.1 m E Sg      2011/06/19 19:43:23.3  -0.1                          T                 .6  .17 Ml 1.6         4710490

.
EVENT     260531
    Date      Time       Latitude Longitude    Depth    Ndef Nsta Gap    Mag1  N    Mag2  N    Mag3  N   Author         ID
       rms   OT_Error      Smajor Sminor Az        Err   mdist  Mdist     Err        Err        Err      Quality

2011/06/19 20:36:28.8     42.8481     .0301      2.0       7    4 204  Ml 0.9  2  Md 1.4  2              js067245    260531

      0.25   +-  0.23      10.1    1.8  171.77 +-  0.0    0.29   1.68   +-0.2      +-0.2                 m i ke

PYRENEES
Sta     Dist  EvAz     Phase      Date       Time     TRes  Azim  AzRes  Slow  SRes Def   SNR       Amp   Per   Mag1   Mag2       ID
EPF   000.29 051.2 m E Pg      2011/06/19 20:36:34.4  -0.2                          T                                        4710510
EPF   000.29 051.2 m E Sg      2011/06/19 20:36:38.8   0.3                          T                2.1  .26        Md 1.5  4710511
ETSF  000.44 276.8 m E Pg      2011/06/19 20:36:37.4   0.1                          T                                        4710508
ETSF  000.44 276.8 m E Sg      2011/06/19 20:36:42.4  -0.6                          T                2.1  .22        Md 1.2  4710509
SJPF  000.96 286.5 m E Sg      2011/06/19 20:36:59.4   0.2                          T                 .5  .26 Ml 1.1         4710505
MTLF  001.68 072.2 m E Pg      2011/06/19 20:37:00.0   0.0                          T                                        4710506
MTLF  001.68 072.2 m E Sg      2011/06/19 20:37:21.7   0.0                          T                 .1  .13 Ml  .8         4710507

.
