EVENT     293318
    Date      Time       Latitude Longitude    Depth    Ndef Nsta Gap    Mag1  N    Mag2  N    Mag3  N   Author         ID
       rms   OT_Error      Smajor Sminor Az        Err   mdist  Mdist     Err        Err        Err      Quality

2013/03/07 02:04:17.2     42.7390   -1.7429      2.0      17    3 155  Ml 1.6  2  Md 1.6  2              bulletin    293418
                                                                                                         _ldg
      0.27   +-  0.12       2.5    1.4   10.41 +-  0.0    0.12   1.56   +-0.2      +-0.1                 m i ke

PYRENEES
Sta     Dist  EvAz     Phase      Date       Time     TRes  Azim  AzRes  Slow  SRes Def   SNR       Amp   Per   Mag1   Mag2       ID
SJPF  000.53 045.3 m E Pg      2013/03/07 02:04:27.4  -0.1                          T                                        5218447
SJPF  000.53 045.3 m E Sg      2013/03/07 02:04:34.4  -0.1                          T                3.1  .23        Md 1.7  5218446
ETSF  000.89 079.2 m E Pg      2013/03/07 02:04:34.0   0.0                          T                                        5218445
ETSF  000.89 079.2 m E Sg      2013/03/07 02:04:45.6   0.1                          T                1.4  .25 Ml 1.5 Md 1.6  5218444
EPF   001.56 078.5 m E Pg      2013/03/07 02:04:46.3  -0.1                          T                                        5218443
EPF   001.56 078.5 m E Sg      2013/03/07 02:05:06.4  -0.1                          T                1.8  .32 Ml 1.8         5218442

.
EVENT     293319
    Date      Time       Latitude Longitude    Depth    Ndef Nsta Gap    Mag1  N    Mag2  N    Mag3  N   Author         ID
       rms   OT_Error      Smajor Sminor Az        Err   mdist  Mdist     Err        Err        Err      Quality

2013/03/07 03:28:08.8     45.0837    6.5184      2.0      11    5 131  Ml 1.1  1  Md 1.3  2              bulletin    293419
                                                                                                         _ldg
      0.30   +-  0.06       1.3     .9  126.09 +-  0.0    0.40   1.33   +-         +-0.1                 m i ke

FRANCE
Sta     Dist  EvAz     Phase      Date       Time     TRes  Azim  AzRes  Slow  SRes Def   SNR       Amp   Per   Mag1   Mag2       ID
MBDF  000.40 153.2 m E Pg      2013/03/07 03:28:16.7   0.0                          T                                        5218436
MBDF  000.40 153.2 m E Sg      2013/03/07 03:28:21.9  -0.1                          T                1.2  .19        Md 1.2  5218435
LPG   000.45 021.6 m E Pg      2013/03/07 03:28:17.5  -0.2                          T                                        5218441
LPG   000.45 021.6 m E Sg      2013/03/07 03:28:24.1   0.5                          T                1.1  .20        Md 1.3  5218440
LPL   000.46 019.2 m E Pg      2013/03/07 03:28:17.8   0.0                          T                                        5218439
LPL   000.46 019.2 m E Sg      2013/03/07 03:28:24.3   0.3                          T                 .7  .20                5218434
ORIF  000.48 250.2 m E Pg      2013/03/07 03:28:18.2   0.0                          T                                        5218438
ORIF  000.48 250.2 m E Sg      2013/03/07 03:28:24.4  -0.1                          T                3.2  .24                5218437
VIVF  001.33 260.8 m E Sg      2013/03/07 03:28:51.0   0.1                          T                 .2  .15 Ml 1.1         5223615

.
EVENT     293336
    Date      Time       Latitude Longitude    Depth    Ndef Nsta Gap    Mag1  N    Mag2  N    Mag3  N   Author         ID
       rms   OT_Error      Smajor Sminor Az        Err   mdist  Mdist     Err        Err        Err      Quality

2013/03/07 04:40:17.4     43.1244    -.5285      2.0       6    3 189             Md 1.3  2              bulletin    293436
                                                                                                         _ldg
      0.21   +-  0.10       2.9    1.6    2.59 +-  0.0    0.23   0.64              +-0.1                 m i ke

PYRENEES
Sta     Dist  EvAz     Phase      Date       Time     TRes  Azim  AzRes  Slow  SRes Def   SNR       Amp   Per   Mag1   Mag2       ID
ETSF  000.23 185.7 m E Pg      2013/03/07 04:40:21.9  -0.1                          T                                        5218451
ETSF  000.23 185.7 m E Sg      2013/03/07 04:40:25.0  -0.2                          T                2.3  .21        Md 1.4  5218450
SJPF  000.51 269.0 m E Pg      2013/03/07 04:40:27.2   0.0                          T                                        5218448
SJPF  000.51 269.0 m E Sg      2013/03/07 04:40:33.4  -0.5                          T                 .7  .26        Md 1.3  5218449
EPF   000.64 098.1 m E Pg      2013/03/07 04:40:29.5  -0.2                          T                                        5218452
EPF   000.64 098.1 m E Sg      2013/03/07 04:40:38.1   0.0                          T                 .4  .23                5218453

.
EVENT     293338
    Date      Time       Latitude Longitude    Depth    Ndef Nsta Gap    Mag1  N    Mag2  N    Mag3  N   Author         ID
       rms   OT_Error      Smajor Sminor Az        Err   mdist  Mdist     Err        Err        Err      Quality

2013/03/07 06:13:51.6     42.9658    -.3614     15.0      12    5 162  Ml 1.4  3  Md 1.4  2              bulletin    293438
                                                                                                         _ldg
      1.08   +-  0.11       4.6    1.8  172.43 +-  0.0    0.16   2.13   +-0.1      +-0.1                 m i ke

PYRENEES
Sta     Dist  EvAz     Phase      Date       Time     TRes  Azim  AzRes  Slow  SRes Def   SNR       Amp   Per   Mag1   Mag2       ID
ETSF  000.16 245.2 m E Pg      2013/03/07 06:13:55.7  -0.1                          T                                        5218626
ETSF  000.16 245.2 m E Sg      2013/03/07 06:13:58.8   0.1                          T                2.4  .18        Md 1.5  5218625
EPF   000.52 082.6 m E Pg      2013/03/07 06:14:01.8  -0.1                          T                                        5218621
EPF   000.52 082.6 m E Sg      2013/03/07 06:14:08.9   0.1                          T                 .3  .17        Md 1.3  5218624
SJPF  000.65 283.4 m E Pg      2013/03/07 06:14:04.2   0.0                          T                                        5218622
SJPF  000.65 283.4 m E Sg      2013/03/07 06:14:13.0   0.2                          T                 .3  .21                5218623
MTLF  001.92 077.9 m E Pn      2013/03/07 06:14:22.3   0.2                          T                                        5218628
MTLF  001.92 077.9 m E Sn      2013/03/07 06:14:44.4  -0.2                          T                 .7  .29 Ml 1.5         5218627
LFF   002.13 021.6 m E Pn      2013/03/07 06:14:24.6  -0.2                          T                                        5218632
LFF   002.13 021.6 m E Sn      2013/03/07 06:14:49.4   0.0                          T                 .4  .22 Ml 1.3         5218631

.
EVENT     293373
    Date      Time       Latitude Longitude    Depth    Ndef Nsta Gap    Mag1  N    Mag2  N    Mag3  N   Author         ID
       rms   OT_Error      Smajor Sminor Az        Err   mdist  Mdist     Err        Err        Err      Quality

2013/03/07 13:48:53.9     44.4365    7.2798     13.0 f    48    9 084  Ml 2.0  7  Md 2.1  1              bulletin    293473
                                                                                                         _ldg
      0.22   +-  0.03        .8     .5   52.58 +-  0.0    0.07   1.91   +-0.2      +-                    m i ke

NORTHERN ITALY
Sta     Dist  EvAz     Phase      Date       Time     TRes  Azim  AzRes  Slow  SRes Def   SNR       Amp   Per   Mag1   Mag2       ID
MBDF  000.47 308.8 m E Pg      2013/03/07 13:49:03.4   0.2                          T                                        5218863
MBDF  000.47 308.8 m E Sg      2013/03/07 13:49:09.6   0.0                          T                                Md 2.1  5218859
SBF   000.58 168.9 m E Pg      2013/03/07 13:49:05.7   0.5                          T                                        5218860
SBF   000.58 168.9 m E Sg      2013/03/07 13:49:13.1   0.1                          T                5.4  .14                5218856
FRF   000.99 207.8 m E Pg      2013/03/07 13:49:12.7   0.2                          T                                        5218861
FRF   000.99 207.8 m E Sn      2013/03/07 13:49:25.0   0.2                          T                4.4  .20 Ml 2.2         5218857
ORIF  001.11 296.2 m E Pg      2013/03/07 13:49:14.8  -0.1                          T                                        5218862
ORIF  001.11 296.2 m E Sg      2013/03/07 13:49:29.2  -0.1                          T                2.2  .22 Ml 1.9         5218858
LPG   001.13 340.7 m E Pg      2013/03/07 13:49:15.6   0.2                          T                                        5218865
LPG   001.13 340.7 m E Sg      2013/03/07 13:49:30.2   0.1                          T                1.7  .20 Ml 1.8         5218864
LPL   001.15 340.4 m E Pg      2013/03/07 13:49:15.7  -0.1                          T                                        5218905
LPL   001.15 340.4 m E Sg      2013/03/07 13:49:30.2  -0.5                          T                1.4  .19 Ml 1.7         5218904
LMR   001.24 207.1 m E Pg      2013/03/07 13:49:17.0   0.0                          T                                        5219430
LMR   001.24 207.1 m E Sg      2013/03/07 13:49:33.1   0.0                          T                4.1  .20 Ml 2.2         5218854
SMRF  001.31 250.0 m E Pg      2013/03/07 13:49:18.5   0.0                          T                                        5219429
SMRF  001.31 250.0 m E Sg      2013/03/07 13:49:35.6   0.1                          T                4.1  .30 Ml 2.1         5218852
VIVF  001.91 283.6 m E Pn      2013/03/07 13:49:24.4  -0.1                          T                                        5219428
VIVF  001.91 283.6 m E Sg      2013/03/07 13:49:54.2   0.1                          T                1.6  .33 Ml 1.9         5219431

.
EVENT     293375
    Date      Time       Latitude Longitude    Depth    Ndef Nsta Gap    Mag1  N    Mag2  N    Mag3  N   Author         ID
       rms   OT_Error      Smajor Sminor Az        Err   mdist  Mdist     Err        Err        Err      Quality

2013/03/07 14:46:20.8     47.5416    8.1985       .0 f    16    3 079  Ml 1.9  3                         bulletin    293475
                                                                                                         _ldg
      0.46   +-  0.11       2.9    2.4   48.54 +-  0.0    0.06   1.38   +-0.3                            m i km

SWITZERLAND
Sta     Dist  EvAz     Phase      Date       Time     TRes  Azim  AzRes  Slow  SRes Def   SNR       Amp   Per   Mag1   Mag2       ID
HINF  000.95 287.3 m E Pg      2013/03/07 14:46:39.5   0.5                          T                                        5218934
HINF  000.95 287.3 m E Sg      2013/03/07 14:46:53.1   1.6                          T                4.5  .17 Ml 2.2         5218952
CDF   001.07 324.9 m E Pg      2013/03/07 14:46:41.4   0.2                          T                                        5218933
CDF   001.07 324.9 m E Sg      2013/03/07 14:46:55.3   0.0                          T                 .8  .18 Ml 1.6         5218932
HAU   001.33 291.1 m E Pn      2013/03/07 14:46:44.7  -0.5                          T                                        5218951
HAU   001.33 291.1 m E Sn      2013/03/07 14:47:02.4  -0.4                          T                3.1  .27 Ml 1.8         5218950

.
EVENT     293376
    Date      Time       Latitude Longitude    Depth    Ndef Nsta Gap    Mag1  N    Mag2  N    Mag3  N   Author         ID
       rms   OT_Error      Smajor Sminor Az        Err   mdist  Mdist     Err        Err        Err      Quality

2013/03/07 14:47:38.0     47.5645    8.1736       .0 f    11    3 091  Ml 1.6  3                         bulletin    293476
                                                                                                         _ldg
      0.20   +-  0.08       1.9    1.5   57.91 +-  0.0    0.05   1.31   +-0.2                            m i km

SWITZERLAND
Sta     Dist  EvAz     Phase      Date       Time     TRes  Azim  AzRes  Slow  SRes Def   SNR       Amp   Per   Mag1   Mag2       ID
HINF  000.93 286.3 m E Pg      2013/03/07 14:47:56.3   0.6                          T                                        5218945
HINF  000.93 286.3 m E Sg      2013/03/07 14:48:08.4   0.4                          T                2.6  .24 Ml 1.8         5218944
CDF   001.04 324.9 m E Pg      2013/03/07 14:47:58.2   0.3                          T                                        5218947
CDF   001.04 324.9 m E Sg      2013/03/07 14:48:11.6   0.0                          T                 .9  .19 Ml 1.6         5218946
HAU   001.31 290.4 m E Pn      2013/03/07 14:48:02.1   0.0                          T                                        5218948
HAU   001.31 290.4 m E Sn      2013/03/07 14:48:19.4   0.0                          T                1.1  .23 Ml 1.4         5218949

.
EVENT     293379
    Date      Time       Latitude Longitude    Depth    Ndef Nsta Gap    Mag1  N    Mag2  N    Mag3  N   Author         ID
       rms   OT_Error      Smajor Sminor Az        Err   mdist  Mdist     Err        Err        Err      Quality

2013/03/07 18:56:40.3     47.9769    7.2001      2.0 f    28    9 052  Ml 2.0  4  Md 1.8  2              bulletin    293479
                                                                                                         _ldg
      0.54   +-  0.07       1.5    1.2  168.43 +-  0.0    0.13   2.67   +-0.2      +-0.2                 m i ke

SWITZERLAND
Sta     Dist  EvAz     Phase      Date       Time     TRes  Azim  AzRes  Slow  SRes Def   SNR       Amp   Per   Mag1   Mag2       ID
HINF  000.28 235.7 m E Pg      2013/03/07 18:56:45.9   0.0                          T                                        5218970
HINF  000.28 235.7 m E Sg      2013/03/07 18:56:49.6  -0.1                          T                                Md 1.9  5219436
CDF   000.44 006.6 m E Pg      2013/03/07 18:56:48.9   0.1                          T                                        5219432
CDF   000.44 006.6 m E Sg      2013/03/07 18:56:54.3  -0.3                          T                                        5219433
HAU   000.57 273.2 m E Pg      2013/03/07 18:56:50.4  -0.7                          T                                        5218968
HAU   000.57 273.2 m E Sg      2013/03/07 18:56:58.7   0.0                          T                2.6  .20        Md 1.7  5218967
PAGF  001.14 301.0 m E Pg      2013/03/07 18:57:01.5  -0.2                          T                                        5218974
PAGF  001.14 301.0 m E Sn      2013/03/07 18:57:18.2   1.2                          T                1.7  .16 Ml 1.9         5218973
SFTF  001.47 279.8 m E Pn      2013/03/07 18:57:06.2   0.1                          T                                        5218972
SFTF  001.47 279.8 m E Pg      2013/03/07 18:57:07.6   0.0                          T                                        5219440
SFTF  001.47 279.8 m E Sn      2013/03/07 18:57:24.8   0.1                          T                2.7  .24 Ml 2.1         5218971
SFTF  001.47 279.8 m E Sg      2013/03/07 18:57:26.6   0.0                          T                2.8  .23 Ml 2.1         5219503
CABF  001.56 209.4 m E Pn      2013/03/07 18:57:07.4   0.0                          T                                        5219193
CABF  001.56 209.4 m E Pg      2013/03/07 18:57:09.1  -0.3                          T                                        5219501
CABF  001.56 209.4 m E Sn      2013/03/07 18:57:27.1   0.0                          T                                        5219192
CABF  001.56 209.4 m E Sg      2013/03/07 18:57:29.7   0.1                          T                  1  .22 Ml 1.7         5219502
THEF  000.85 287.7 m E Sg      2013/03/07 18:57:08.7   1.4                          T                                        5219493
THEF  000.85 287.7 m E Sn      2013/03/07 18:57:10.8   0.9                          T                                        5219494
LOR   002.37 253.8 m E Pg      2013/03/07 18:57:24.1  -0.2                          T                                        5219505
LOR   002.37 253.8 m E Sg      2013/03/07 18:57:54.6  -0.1                          T                                        5219504
SSF   002.67 251.3 m E Pg      2013/03/07 18:57:29.2  -0.5                          T                                        5219499
SSF   002.67 251.3 m E Sg      2013/03/07 18:58:03.1  -0.9                          T                                        5219500

.
EVENT     293380
    Date      Time       Latitude Longitude    Depth    Ndef Nsta Gap    Mag1  N    Mag2  N    Mag3  N   Author         ID
       rms   OT_Error      Smajor Sminor Az        Err   mdist  Mdist     Err        Err        Err      Quality

2013/03/07 20:17:37.7     42.7176   -1.7505      2.0      18    3 135  Ml 2.2  2  Md 2.1  2              bulletin    293480
                                                                                                         _ldg
      0.79   +-  0.26       4.5    3.6   36.78 +-  0.0    0.14   2.54   +-0.2      +-0.0                 m i ke

PYRENEES
Sta     Dist  EvAz     Phase      Date       Time     TRes  Azim  AzRes  Slow  SRes Def   SNR       Amp   Per   Mag1   Mag2       ID
SJPF  000.55 044.1 m E Pg      2013/03/07 20:17:47.3  -0.9                          T                                        5218980
SJPF  000.55 044.1 m E Sg      2013/03/07 20:17:54.6  -0.9                          T               13.2  .24        Md 2.0  5218979
ETSF  000.90 077.9 m E Pg      2013/03/07 20:17:54.8   0.2                          T                                        5218978
ETSF  000.90 077.9 m E Sg      2013/03/07 20:18:07.5   1.2                          T                4.6  .24 Ml 2.0 Md 2.1  5218977
EPF   001.57 077.8 m E Pg      2013/03/07 20:18:07.4   0.4                          T                                        5218976
EPF   001.57 077.8 m E Sg      2013/03/07 20:18:29.0   1.8                          T                3.9  .20 Ml 2.3         5218975

.
