EVENT     265870
    Date      Time       Latitude Longitude    Depth    Ndef Nsta Gap    Mag1  N    Mag2  N    Mag3  N   Author         ID
       rms   OT_Error      Smajor Sminor Az        Err   mdist  Mdist     Err        Err        Err      Quality

2011/11/02 19:15:50.5     44.1809   11.4495     14.1      63   21 130  Ml 3.1 10  Md 3.1  5              js067245    265890

      0.64   +-  0.11       2.4    1.8   83.11 +-  0.8    0.14   6.74   +-0.3      +-0.1                 m i ke

NORTHERN ITALY
Sta     Dist  EvAz     Phase      Date       Time     TRes  Azim  AzRes  Slow  SRes Def   SNR       Amp   Per   Mag1   Mag2       ID
PGF   002.42 228.4 m E Pn      2011/11/02 19:16:27.6  -0.4                          T                                        4780704
PGF   002.42 228.4 m E Sn      2011/11/02 19:16:55.8   0.2                          T               15.3  .47 Ml 3.1 Md 2.8  4780691
PGF   002.42 228.4 m E S       2011/11/02 19:17:00.4  -0.1                          T                                        4780845
SBF   002.91 265.1 m E Pn      2011/11/02 19:16:35.2   0.5                          T                                        4780697
SBF   002.91 265.1 m E Sg      2011/11/02 19:17:21.9  -0.2                          T                                        4780853
MBDF  003.39 280.9 m E Pn      2011/11/02 19:16:41.8   0.5                          T                                        4780703
MBDF  003.39 280.9 m E P       2011/11/02 19:16:44.4  -0.2                          T                                        4780772
FRF   003.53 261.5 m E Pn      2011/11/02 19:16:43.2   0.3                          T                                        4780699
FRF   003.53 261.5 m E P       2011/11/02 19:16:46.6   0.3                          T                                        4780771
FRF   003.53 261.5 m E Sn      2011/11/02 19:17:22.3   0.4                          T                5.2  .30 Ml 2.8 Md 3.1  4780854
LPG   003.59 293.1 m E Pn      2011/11/02 19:16:44.3   0.1                          T                                        4780700
LPG   003.59 293.1 m E P       2011/11/02 19:16:47.6   0.0                          T                                        4780774
LPG   003.59 293.1 m E Pg      2011/11/02 19:16:56.3  -1.1                          T                                        4780846
LPL   003.61 293.3 m E Pn      2011/11/02 19:16:44.7   0.3                          T                                        4780701
LPL   003.61 293.3 m E P       2011/11/02 19:16:47.0  -0.7                          T                                        4780770
LMR   003.68 258.4 m E Pn      2011/11/02 19:16:44.8  -0.2                          T                                        4780698
LMR   003.68 258.4 m E Sn      2011/11/02 19:17:25.4  -0.1                          T                7.7  .50 Ml 2.8         4780844
ORIF  004.05 282.4 m E Pn      2011/11/02 19:16:50.8   0.6                          T                                        4780702
ORIF  004.05 282.4 m E P       2011/11/02 19:16:54.1   0.3                          T                                        4780773
SMRF  004.24 269.3 m E Pn      2011/11/02 19:16:52.6  -0.1                          T                                        4780769
SMRF  004.24 269.3 m E P       2011/11/02 19:16:56.5   0.1                          T                                        4780768
CABF  004.49 304.6 m E Pn      2011/11/02 19:16:56.9   0.7                          T                                        4780766
HINF  004.85 320.2 m E Pn      2011/11/02 19:17:00.4  -0.5                          T                                        4780696
HINF  004.85 320.2 m E Sn      2011/11/02 19:17:53.6   0.1                          T                5.3  .32 Ml 3.1 Md 3.1  4780765
VIVF  004.89 280.3 m E Pn      2011/11/02 19:17:02.1   0.5                          T                                        4780767
CDF   005.13 327.1 m E Pn      2011/11/02 19:17:04.5  -0.3                          T                                        4780694
HAU   005.22 318.9 m E Pn      2011/11/02 19:17:05.5  -0.5                          T                                        4780695
HAU   005.22 318.9 m E Pg      2011/11/02 19:17:27.2   0.2                          T                                        4780850
HAU   005.22 318.9 m E Sn      2011/11/02 19:18:02.5   0.1                          T               12.6  .42 Ml 3.2 Md 3.2  4780764
PAGF  005.90 319.9 m E Pn      2011/11/02 19:17:14.7  -0.6 135.0  -0.7              T                                        4780848
SMF   005.90 297.4 m E Pn      2011/11/02 19:17:15.0  -0.2                          T                                        4780776
SMF   005.90 297.4 m E Sn      2011/11/02 19:18:17.9  -0.6                          T                4.2  .40 Ml 3.1 Md 3.1  4780763
SFTF  006.00 314.4 m E Pn      2011/11/02 19:17:17.1   0.5 130.3  0.5               T                                        4780849
LOR   006.14 302.8 m E Pn      2011/11/02 19:17:18.4  -0.3 123.7  6.3               T                                        4780693
LOR   006.14 302.8 m E Sn      2011/11/02 19:18:25.5   0.9                          T               10.8  .41 Ml 3.6         4780692
SSF   006.27 300.1 m E Pn      2011/11/02 19:17:20.5   0.2                          T                                        4780847
SSF   006.27 300.1 m E Sn      2011/11/02 19:18:28.0   0.5                          T                5.6  .50 Ml 3.3         4780777
BGF   006.51 294.4 m E Pn      2011/11/02 19:17:23.4  -0.2                          T                                        4780775
MTLF  006.74 266.0 m E Pn      2011/11/02 19:17:28.5   1.8                          T                                        4780852

.
EVENT     265871
    Date      Time       Latitude Longitude    Depth    Ndef Nsta Gap    Mag1  N    Mag2  N    Mag3  N   Author         ID
       rms   OT_Error      Smajor Sminor Az        Err   mdist  Mdist     Err        Err        Err      Quality

2011/11/03 01:35:52.5     46.8709   -1.4885      2.0      18    9 172  Ml 2.0  8  Md 2.4  3              js067245    265891

      0.77   +-  0.21       6.1    2.8   43.53 +-  0.0    0.96   2.61   +-0.4      +-0.2                 m i ke

FRANCE
Sta     Dist  EvAz     Phase      Date       Time     TRes  Azim  AzRes  Slow  SRes Def   SNR       Amp   Per   Mag1   Mag2       ID
MFF   000.96 105.7 m E Pn      2011/11/03 01:36:11.4   0.0                          T                                        4781042
MFF   000.96 105.7 m E Sn      2011/11/03 01:36:24.5  -0.3                          T               11.0  .21 Ml 2.7 Md 2.2  4781054
SGMF  001.56 332.8 m E Pn      2011/11/03 01:36:19.1  -0.5                          T                                        4781047
SGMF  001.56 332.8 m E Sn      2011/11/03 01:36:39.2   0.0                          T                1.4  .18 Ml 1.9 Md 2.5  4781048
QUIF  001.55 313.2 m E Pn      2011/11/03 01:36:19.2  -0.1                          T                                        4781050
QUIF  001.55 313.2 m E Sn      2011/11/03 01:36:38.0  -0.8                          T                1.8  .19 Ml 2.0 Md 2.5  4781049
GRR   001.58 015.5 m E Pn      2011/11/03 01:36:19.5  -0.2                          T                                        4781051
GRR   001.58 015.5 m E Sn      2011/11/03 01:36:38.7  -0.9                          T                4.5  .16 Ml 2.4         4781053
ROSF  001.90 321.2 m E Pn      2011/11/03 01:36:24.9   0.8                          T                                        4781045
ROSF  001.90 321.2 m E Sn      2011/11/03 01:36:47.5   0.3                          T                 .4  .16 Ml 1.6         4781044
FLN   002.01 019.3 m E Pn      2011/11/03 01:36:25.0  -0.6                          T                                        4782908
FLN   002.01 019.3 m E Sn      2011/11/03 01:36:50.7   0.8                          T                                        4781046
LDF   001.95 027.6 m E Pn      2011/11/03 01:36:25.6   0.7                          T                                        4782907
LDF   001.95 027.6 m E Sn      2011/11/03 01:36:49.8   1.2                          T                1.6  .25 Ml 2.0         4781052
LFF   002.48 140.3 m E Sg      2011/11/03 01:37:10.5   0.0                          T                1.6  .25 Ml 2.0         4782906
RJF   002.61 125.8 m E Sg      2011/11/03 01:37:14.5  -0.1                          T                 .6  .18 Ml 1.5         4782905

.
EVENT     265876
    Date      Time       Latitude Longitude    Depth    Ndef Nsta Gap    Mag1  N    Mag2  N    Mag3  N   Author         ID
       rms   OT_Error      Smajor Sminor Az        Err   mdist  Mdist     Err        Err        Err      Quality

2011/11/03 05:06:51.7     48.1837    7.6761      7.0 f    14    6 051  Ml 1.6  3  Md 1.5  1              js067245    265896

      0.31   +-  0.07       1.2    1.1   38.50 +-  0.0    0.28   1.76   +-0.3      +-                    m i ke

FRANCE
Sta     Dist  EvAz     Phase      Date       Time     TRes  Azim  AzRes  Slow  SRes Def   SNR       Amp   Per   Mag1   Mag2       ID
CDF   000.35 310.7 m E Pg      2011/11/03 05:06:58.6  -0.2                          T                                        4781261
CDF   000.35 310.7 m E Sg      2011/11/03 05:07:03.3  -0.3                          T                1.7  .20        Md 1.5  4781260
HINF  000.66 236.7 m E Pg      2011/11/03 05:07:04.7   0.3                          T                                        4781264
HINF  000.66 236.7 m E Sg      2011/11/03 05:07:13.3   0.2                          T                 .5  .18                4781263
LANF  000.80 006.1 m E Pg      2011/11/03 05:07:06.9   0.0                          T                                        4782921
LANF  000.80 006.1 m E Sg      2011/11/03 05:07:17.4   0.0                          T                1.3  .14                4782922
HAU   000.91 259.2 m E Sg      2011/11/03 05:07:20.8   0.1                          T                2.1  .31 Ml 1.4         4782920
THEF  001.13 272.9 m E Sg      2011/11/03 05:07:27.6   0.1                          T                 .8  .17 Ml 1.5         4781262
SFTF  001.76 271.7 m E Sg      2011/11/03 05:07:47.3  -0.1                          T                1.4  .26 Ml 1.9         4782919

.
EVENT     265878
    Date      Time       Latitude Longitude    Depth    Ndef Nsta Gap    Mag1  N    Mag2  N    Mag3  N   Author         ID
       rms   OT_Error      Smajor Sminor Az        Err   mdist  Mdist     Err        Err        Err      Quality

2011/11/03 07:47:03.5     36.5444    7.4082      2.0      54   12 128  Ml 3.4  5                         js067245    265898

      0.81   +-  0.17       4.5    3.3   26.79 +-  0.0    0.72  12.21   +-0.2                            m i ke

NORTHERN ALGERIA
Sta     Dist  EvAz     Phase      Date       Time     TRes  Azim  AzRes  Slow  SRes Def   SNR       Amp   Per   Mag1   Mag2       ID
LMR   006.82 354.5 m E Pn      2011/11/03 07:48:42.2   0.1                          T                                        4781271
LMR   006.82 354.5 m E Sn      2011/11/03 07:49:54.3  -1.4                          T                6.3  .27 Ml 3.6         4781270
SMRF  007.55 349.9 m E Pn      2011/11/03 07:48:53.4   1.2                          T                                        4781266
MTLF  007.87 331.2 m E Pn      2011/11/03 07:48:55.3  -1.1                          T                                        4781276
EPF   008.46 322.2 m E Pn      2011/11/03 07:49:05.6   1.1                          T                                        4781275
VIVF  008.56 346.8 m E Pn      2011/11/03 07:49:05.8  -0.1                          T                                        4781277
VIVF  008.56 346.8 m E Sn      2011/11/03 07:50:37.3  -0.1                          T                2.1  .29 Ml 3.4         4781267
ETSF  008.83 318.4 m E Pn      2011/11/03 07:49:09.5  -0.1                          T                                        4781274
LPG   008.96 357.0 m E Pn      2011/11/03 07:49:11.5  -0.1                          T                                        4781272
SJPF  009.33 317.3 m E Pn      2011/11/03 07:49:18.3   2.0                          T                                        4781273
PGF   006.12 011.1 m E Sn      2011/11/03 07:49:39.6   0.4                          T                6.9  .45 Ml 3.5         4781265
FRF   007.03 355.5 m E Sn      2011/11/03 07:50:00.4  -0.5                          T                7.8  .35 Ml 3.6         4781268
SBF   007.31 000.2 m E Sn      2011/11/03 07:50:07.4  -0.2                          T                                        4781269
MBDF  008.19 356.8 m E Sn      2011/11/03 07:50:29.4   0.7                          T                1.1  .29 Ml 3.0         4782953

.
EVENT     265877
    Date      Time       Latitude Longitude    Depth    Ndef Nsta Gap    Mag1  N    Mag2  N    Mag3  N   Author         ID
       rms   OT_Error      Smajor Sminor Az        Err   mdist  Mdist     Err        Err        Err      Quality

2011/11/03 11:48:53.6     36.0316  -10.5112     10.0 f    34    8 318  Ml 4.2  3                         js067245    265897

      0.32   +-  0.22       4.9    3.9  150.34 +-  0.0    1.75  14.20   +-0.2                            m i ke

NORTH ATLANTIC OCEAN
Sta     Dist  EvAz     Phase      Date       Time     TRes  Azim  AzRes  Slow  SRes Def   SNR       Amp   Per   Mag1   Mag2       ID
SJPF  010.06 042.5 m E Pn      2011/11/03 11:51:16.4   0.8                          T                                        4781286
SJPF  010.06 042.5 m E Sn      2011/11/03 11:53:01.0  -1.0                          T                4.8  .23 Ml 4.1         4781282
ETSF  010.30 045.3 m E Pn      2011/11/03 11:51:19.2   0.3                          T                                        4781285
ETSF  010.30 045.3 m E Sn      2011/11/03 11:53:07.8   0.0                          T                8.4  .38 Ml 4.1         4781283
EPF   010.91 046.9 m E Pn      2011/11/03 11:51:27.5   0.4                          T                                        4781284
EPF   010.91 046.9 m E Sn      2011/11/03 11:53:21.5  -0.7                          T               11.1  .37 Ml 4.3         4781280
MTLF  012.22 049.4 m E Pn      2011/11/03 11:51:44.2  -0.7                          T                                        4783020
LFF   012.34 040.4 m E Pn      2011/11/03 11:51:46.5   0.0                          T                                        4781279
RJF   012.99 040.9 m E Pn      2011/11/03 11:51:55.1  -0.3                          T                                        4781278
CAF   013.05 043.2 m E Pn      2011/11/03 11:51:55.9  -0.3                          T                                        4781281
MFF   013.11 033.2 m E Pn      2011/11/03 11:51:56.9  -0.2                          T                                        4783021

.
EVENT     265924
    Date      Time       Latitude Longitude    Depth    Ndef Nsta Gap    Mag1  N    Mag2  N    Mag3  N   Author         ID
       rms   OT_Error      Smajor Sminor Az        Err   mdist  Mdist     Err        Err        Err      Quality

2011/11/03 18:41:44.5     42.9265     .1558      2.0       5    3 214  Ml 1.3  1  Md 1.1  2              js067245    265944

      0.07   +-  0.10       5.1     .7  162.79 +-  0.0    0.17   1.03   +-         +-0.3                 m i ke

PYRENEES
Sta     Dist  EvAz     Phase      Date       Time     TRes  Azim  AzRes  Slow  SRes Def   SNR       Amp   Per   Mag1   Mag2       ID
EPF   000.17 052.4 m E Pg      2011/11/03 18:41:48.1   0.0                          T                                        4781288
EPF   000.17 052.4 m E Sg      2011/11/03 18:41:50.3  -0.1                          T               21.4  .24        Md 1.3  4781287
ETSF  000.53 267.2 m E Pg      2011/11/03 18:41:54.6   0.0                          T                                        4783024
ETSF  000.53 267.2 m E Sg      2011/11/03 18:42:01.5   0.0                          T                2.7  .29        Md 1.0  4783025
SJPF  001.03 280.9 m E Sg      2011/11/03 18:42:17.2   0.1                          T                 .7  .23 Ml 1.3         4783023

.
