EVENT     265820
    Date      Time       Latitude Longitude    Depth    Ndef Nsta Gap    Mag1  N    Mag2  N    Mag3  N   Author         ID
       rms   OT_Error      Smajor Sminor Az        Err   mdist  Mdist     Err        Err        Err      Quality

2011/10/30 03:49:36.9     45.7259   10.9877     10.0 f    61   22 057  Ml 2.7 10                         js067245    265840

      1.23   +-  0.23       5.3    4.2  146.55 +-  0.0    0.26   6.34   +-0.2                            m i ke

NORTHERN ITALY
Sta     Dist  EvAz     Phase      Date       Time     TRes  Azim  AzRes  Slow  SRes Def   SNR       Amp   Per   Mag1   Mag2       ID
LPG   002.98 267.1 m E Pn      2011/10/30 03:50:21.4  -1.3                          T   001.0                                4778124
LPL   002.99 267.5 m E Pn      2011/10/30 03:50:21.9  -0.9                          T   001.0                                4778125
MBDF  003.14 253.0 m E Pn      2011/10/30 03:50:22.9  -1.9                          T   001.0                                4778106
MBDF  003.14 253.0 m E Sn      2011/10/30 03:50:58.0  -1.1                          T   001.0       10.8  .72 Ml 2.6         4778107
SBF   003.14 234.9 m E Pn      2011/10/30 03:50:25.4   0.8                          T   001.0                                4778127
SBF   003.14 234.9 m E Sn      2011/10/30 03:50:57.5  -2.4                          T   001.0       10.5  .28 Ml 3.0         4778128
CABF  003.52 286.3 m E Pn      2011/10/30 03:50:29.9   0.1                          T   001.0                                4778133
CABF  003.52 286.3 m E Sn      2011/10/30 03:51:10.6   1.6                          T   001.0                                4778102
CABF  003.52 286.3 m E Sg      2011/10/30 03:51:27.6   0.3                          T   001.0        2.4  .32 Ml 2.4         4778103
PGF   003.48 205.0 m E Pn      2011/10/30 03:50:30.9   1.6                          T   001.0                                4778126
HINF  003.53 307.8 m E Pn      2011/10/30 03:50:30.9   1.0                          T   001.0                                4778104
HINF  003.53 307.8 m E Sn      2011/10/30 03:51:11.6   2.4                          T   001.0        4.6  .36 Ml 2.7         4778105
FRF   003.78 236.6 m E Pn      2011/10/30 03:50:33.5   0.3                          T   001.0                                4778118
CDF   003.70 318.0 m E Pn      2011/10/30 03:50:34.0   1.8                          T   001.0                                4778116
ORIF  003.69 259.2 m E Pn      2011/10/30 03:50:34.0   1.8                          T   001.0                                4778108
CDF   003.70 318.0 m E Sn      2011/10/30 03:51:15.1   1.9                          T   001.0        8.1  .52 Ml 2.9         4778117
HAU   003.92 307.3 m E Pn      2011/10/30 03:50:37.0   1.9                          T   001.0                                4778119
SMRF  004.23 247.5 m E Pn      2011/10/30 03:50:40.5   1.1                          T   001.0                                4778111
SMRF  004.23 247.5 m E Sn      2011/10/30 03:51:25.1  -0.8                          T   001.0        2.6  .44 Ml 2.5         4778112
VIVF  004.54 261.2 m E Pn      2011/10/30 03:50:43.0   0.4                          T   001.0                                4778109
VIVF  004.54 261.2 m E Sn      2011/10/30 03:51:34.2   0.9                          T   001.0        1.5  .48 Ml 2.3         4778110
SMF   005.05 283.1 m E Pn      2011/10/30 03:50:51.0   0.5                          T   001.0                                4778129
SMF   005.05 283.1 m E Sn      2011/10/30 03:51:46.2   0.8                          T   001.0        2.3  .28 Ml 2.8         4778130
LOR   005.16 290.0 m E Pn      2011/10/30 03:50:52.5   0.5                          T   001.0                                4778122
LOR   005.16 290.0 m E Sn      2011/10/30 03:51:49.2   1.1                          T   001.0        2.2  .32 Ml 2.8         4778123
SSF   005.35 287.1 m E Pn      2011/10/30 03:50:55.0   0.4                          T   001.0                                4778131
LASF  005.33 254.5 m E Pn      2011/10/30 03:50:55.0   0.7                          T   001.0                                4778120
AVF   005.40 284.1 m E Pn      2011/10/30 03:50:55.0  -0.3                          T   001.0                                4778113
BGF   005.72 281.3 m E Pn      2011/10/30 03:51:00.5   0.8                          T   001.0                                4778114
TCF   006.14 278.4 m E Pn      2011/10/30 03:51:04.6  -0.8                          T   001.0                                4778132
CAF   006.34 265.9 m E Pn      2011/10/30 03:51:09.1   0.9                          T   001.0                                4778115
LMR   004.00 234.8 m E Sn      2011/10/30 03:51:20.1  -0.2                          T   001.0        3.2  .32 Ml 2.7         4778121

.
EVENT     265821
    Date      Time       Latitude Longitude    Depth    Ndef Nsta Gap    Mag1  N    Mag2  N    Mag3  N   Author         ID
       rms   OT_Error      Smajor Sminor Az        Err   mdist  Mdist     Err        Err        Err      Quality

2011/10/30 06:12:32.1     45.9506    6.9995      2.0      26   15 167  Ml 2.7 13  Md 2.6  3              js067245    265841

      0.31   +-  0.10       2.6    1.1   95.30 +-  0.0    0.47   2.88   +-0.2      +-0.0                 m i ke

FRANCE
Sta     Dist  EvAz     Phase      Date       Time     TRes  Azim  AzRes  Slow  SRes Def   SNR       Amp   Per   Mag1   Mag2       ID
LPL   000.47 203.4 m E Pg      2011/10/30 06:12:40.1  -1.3                          T                                        4779544
LPL   000.47 203.4 m E Sg      2011/10/30 06:12:47.7   0.0                          T               45.2  .36        Md 2.6  4779545
LPG   000.49 201.1 m E Pg      2011/10/30 06:12:40.7  -1.0                          T                                        4779542
LPG   000.49 201.1 m E Sn      2011/10/30 06:12:50.5   0.2                          T               76.5  .60        Md 2.6  4779543
CABF  000.91 316.6 m E P       2011/10/30 06:12:51.1  -0.3                          T                                        4779535
CABF  000.91 316.6 m E Sg      2011/10/30 06:12:59.7  -1.6                          T               57.9  .52 Ml 2.8 Md 2.7  4779536
MBDF  001.23 187.6 m E Pg      2011/10/30 06:12:54.7  -0.7                          T                                        4779540
MBDF  001.23 187.6 m E Sg      2011/10/30 06:13:12.1   0.8                          T               41.9  .62 Ml 2.7         4779541
ORIF  001.30 217.8 m E Pg      2011/10/30 06:12:56.8   0.4                          T                                        4779854
ORIF  001.30 217.8 m E Sn      2011/10/30 06:13:12.4  -0.2                          T               42.6  .58 Ml 2.8         4779546
HINF  001.87 357.0 m E Pg      2011/10/30 06:13:07.0   0.1                          T                                        4779550
HINF  001.87 357.0 m E Sg      2011/10/30 06:13:31.0   0.0                          T               16.5  .38 Ml 2.8         4779551
VIVF  001.97 237.1 m E Pg      2011/10/30 06:13:08.8   0.1                          T                                        4779538
VIVF  001.97 237.1 m E Sg      2011/10/30 06:13:34.0  -0.2                          T                8.4  .31 Ml 2.6         4779539
HAU   002.10 348.0 m E Pg      2011/10/30 06:13:11.3   0.1                          T                                        4779549
HAU   002.10 348.0 m E Sg      2011/10/30 06:13:38.3   0.0                          T               12.4  .44 Ml 2.5         4779552
SMF   002.30 288.7 m E Pg      2011/10/30 06:13:14.7  -0.1                          T                                        4779547
SMF   002.30 288.7 m E Sg      2011/10/30 06:13:44.0  -0.4                          T                9.1  .46 Ml 2.6         4779548
CDF   002.47 004.3 m E Pg      2011/10/30 06:13:18.2   0.2                          T                                        4779556
CDF   002.47 004.3 m E Sg      2011/10/30 06:13:49.4  -0.4                          T                7.7  .54 Ml 2.6         4779557
PAGF  002.75 342.0 m E Pg      2011/10/30 06:13:22.9  -0.2                          T                                        4779554
PAGF  002.75 342.0 m E Sg      2011/10/30 06:13:58.6   0.3                          T                2.1  .46 Ml 2.0         4779555
SBF   002.11 171.4 m E Sg      2011/10/30 06:13:39.0   0.5                          T               36.0  .65 Ml 3.0         4779537
LOR   002.53 302.5 m E Sg      2011/10/30 06:13:52.1   0.3                          T                8.5  .42 Ml 2.6         4779558
SFTF  002.62 330.0 m E Sg      2011/10/30 06:13:54.5   0.0                          T               14.1  .58 Ml 2.7         4779553
MEZF  002.88 333.2 m E Sg      2011/10/30 06:14:02.8   0.4                          T               16.5  .56 Ml 2.9         4779534

.
EVENT     265827
    Date      Time       Latitude Longitude    Depth    Ndef Nsta Gap    Mag1  N    Mag2  N    Mag3  N   Author         ID
       rms   OT_Error      Smajor Sminor Az        Err   mdist  Mdist     Err        Err        Err      Quality

2011/10/30 12:56:54.0     42.9440   13.7281     30.0      42   12 143  Ml 3.4  8                         js067245    265847

      0.65   +-  0.19       5.7    3.0   65.48 +-  0.0    0.19   8.21   +-0.2                            m i ke

CENTRAL ITALY
Sta     Dist  EvAz     Phase      Date       Time     TRes  Azim  AzRes  Slow  SRes Def   SNR       Amp   Per   Mag1   Mag2       ID
PGF   003.51 265.1 m E P       2011/10/30 12:57:49.6   1.6                          T                                        4779871
SBF   004.68 283.5 m E P       2011/10/30 12:58:05.5   0.9                          T                                        4779870
FRF   005.21 279.2 m E P       2011/10/30 12:58:14.4   2.4                          T                                        4779868
LMR   005.30 276.7 m E P       2011/10/30 12:58:15.1   1.8                          T                                        4779869
LPG   005.63 299.4 m E P       2011/10/30 12:58:17.8  -0.4                          T                                        4779866
LPG   005.63 299.4 m E Sn      2011/10/30 12:59:13.9  -0.1                          T                6.3  .32 Ml 3.3         4779865
LPL   005.65 299.5 m E P       2011/10/30 12:58:18.6   0.2                          T                                        4779867
LPL   005.65 299.5 m E Sn      2011/10/30 12:59:13.7  -0.7                          T                7.9  .42 Ml 3.3         4779864
HINF  006.87 317.6 m E Pn      2011/10/30 12:58:30.7  -0.1                          T                                        4779855
HINF  006.87 317.6 m E P       2011/10/30 12:58:34.7  -0.7                          T                                        4779873
HINF  006.87 317.6 m E Sn      2011/10/30 12:59:43.7   0.4                          T                9.9  .36 Ml 3.7         4779863
CABF  006.56 306.6 m E P       2011/10/30 12:58:31.1   0.0                          T                                        4779872
CABF  006.56 306.6 m E Sn      2011/10/30 12:59:36.0   0.0                          T                2.2  .36 Ml 3.0         4779861
HAU   007.25 316.8 m E Pn      2011/10/30 12:58:36.0   0.1                          T                                        4779856
HAU   007.25 316.8 m E P       2011/10/30 12:58:39.9  -0.7                          T                                        4779874
HAU   007.25 316.8 m E Sn      2011/10/30 12:59:52.6   0.2                          T               12.9  .42 Ml 3.6         4779860
CDF   007.09 322.7 m E P       2011/10/30 12:58:38.0  -0.6                          T                                        4779875
CDF   007.09 322.7 m E Sn      2011/10/30 12:59:48.9   0.2                          T                3.3  .28 Ml 3.4         4779858
LOR   008.21 305.2 m E Pn      2011/10/30 12:58:49.0   0.0                          T                                        4779857
LOR   008.21 305.2 m E P       2011/10/30 12:58:53.4  -0.7                          T                                        4779876
LOR   008.21 305.2 m E Sn      2011/10/30 13:00:15.7   0.3                          T                3.5  .30 Ml 3.5         4779859
SMF   007.95 301.1 m E Sn      2011/10/30 13:00:09.0   0.0                          T                2.4  .32 Ml 3.3         4779862

.
EVENT     265828
    Date      Time       Latitude Longitude    Depth    Ndef Nsta Gap    Mag1  N    Mag2  N    Mag3  N   Author         ID
       rms   OT_Error      Smajor Sminor Az        Err   mdist  Mdist     Err        Err        Err      Quality

2011/10/30 14:00:25.5     43.9375    7.6814      2.0      10    5 274  Ml 1.9  3  Md 1.8  1              js067245    265848

      0.24   +-  0.29       5.2    2.3  102.96 +-  0.0    0.19   1.52   +-0.3      +-                    m i ke

NEAR SOUTH COAST OF FRANCE
Sta     Dist  EvAz     Phase      Date       Time     TRes  Azim  AzRes  Slow  SRes Def   SNR       Amp   Per   Mag1   Mag2       ID
SBF   000.19 247.4 m E Pg      2011/10/30 14:00:29.7   0.2                          T                                        4780304
SBF   000.19 247.4 m E Sg      2011/10/30 14:00:32.0  -0.2                          T               37.9  .18        Md 1.8  4780305
FRF   000.84 243.7 m E Pg      2011/10/30 14:00:41.3   0.0                          T                                        4780300
FRF   000.84 243.7 m E Sg      2011/10/30 14:00:52.2  -0.1                          T                3.6  .21                4780301
LMR   001.04 235.1 m E Pg      2011/10/30 14:00:44.9  -0.2                          T                                        4780302
LMR   001.04 235.1 m E Sg      2011/10/30 14:00:58.6   0.0                          T                2.8  .17 Ml 2.1         4780303
MBDF  001.02 320.7 m E Pg      2011/10/30 14:00:45.0   0.1                          T                                        4780296
MBDF  001.02 320.7 m E Sg      2011/10/30 14:00:57.6  -0.6                          T                1.3  .22 Ml 1.6         4780297
SMRF  001.52 272.2 m E Pg      2011/10/30 14:00:53.1  -0.8                          T                                        4780298
SMRF  001.52 272.2 m E Sg      2011/10/30 14:01:14.0   0.4                          T                1.7  .18 Ml 2.0         4780299

.
EVENT     265829
    Date      Time       Latitude Longitude    Depth    Ndef Nsta Gap    Mag1  N    Mag2  N    Mag3  N   Author         ID
       rms   OT_Error      Smajor Sminor Az        Err   mdist  Mdist     Err        Err        Err      Quality

2011/10/30 14:40:33.1     42.2885   13.3130     10.0      40   12 051  Ml 3.2  5                         js067245    265849

      0.60   +-  0.10       2.4    2.0   54.53 +-  0.0    0.09   7.54   +-0.1                            m i ke

CENTRAL ITALY
Sta     Dist  EvAz     Phase      Date       Time     TRes  Azim  AzRes  Slow  SRes Def   SNR       Amp   Per   Mag1   Mag2       ID
PGF   003.20 276.1 m E P       2011/10/30 14:41:24.8  -0.1                          T                                        4780311
SBF   004.58 292.1 m E P       2011/10/30 14:41:44.0  -0.5                          T                                        4780312
FRF   005.06 286.8 m E P       2011/10/30 14:41:50.6  -0.5                          T                                        4780314
MBDF  005.35 299.3 m E Pn      2011/10/30 14:41:50.8  -0.3                          T                                        4780318
MBDF  005.35 299.3 m E P       2011/10/30 14:41:55.1  -0.2                          T                                        4780319
MBDF  005.35 299.3 m E Sn      2011/10/30 14:42:47.5  -1.5                          T               15.6  .92 Ml 3.2         4780309
LMR   005.11 284.1 m E P       2011/10/30 14:41:51.1  -0.7                          T                                        4780313
LPG   005.72 306.3 m E P       2011/10/30 14:42:00.8   0.0                          T                                        4780315
LPG   005.72 306.3 m E Sn      2011/10/30 14:42:58.5   0.3                          T                8.4  .69 Ml 3.1         4780310
LPL   005.75 306.4 m E P       2011/10/30 14:42:02.0   0.9                          T                                        4780317
ORIF  006.00 298.5 m E P       2011/10/30 14:42:04.9   0.5                          T                                        4780316
VIVF  006.78 295.2 m E P       2011/10/30 14:42:15.3  -0.1                          T                                        4780320
HINF  007.17 322.6 m E Pn      2011/10/30 14:42:16.8   1.0                          T                                        4780321
HINF  007.17 322.6 m E Sn      2011/10/30 14:43:32.7   0.2                          T                3.5  .38 Ml 3.2         4780307
CDF   007.45 327.3 m E Pn      2011/10/30 14:42:22.2   2.5                          T                                        4780323
CDF   007.45 327.3 m E Sn      2011/10/30 14:43:38.7  -0.6                          T                3.0  .44 Ml 3.3         4780306
HAU   007.54 321.7 m E Pn      2011/10/30 14:42:22.7   1.9                          T                                        4780322
HAU   007.54 321.7 m E Sn      2011/10/30 14:43:41.2  -0.2                          T                5.4  .38 Ml 3.3         4780308

.
EVENT     265932
    Date      Time       Latitude Longitude    Depth    Ndef Nsta Gap    Mag1  N    Mag2  N    Mag3  N   Author         ID
       rms   OT_Error      Smajor Sminor Az        Err   mdist  Mdist     Err        Err        Err      Quality

2011/10/31 03:08:41.3     41.7062    2.9533      2.0      10    2 260  Ml 1.5  2                         js067245    265952

      0.29   +-  0.23       3.7    1.7  131.24 +-  0.0    0.39   2.35   +-0.1                            m i ke

SPAIN
Sta     Dist  EvAz     Phase      Date       Time     TRes  Azim  AzRes  Slow  SRes Def   SNR       Amp   Per   Mag1   Mag2       ID
MTLF  001.72 341.8 m E Pg      2011/10/31 03:09:13.4   0.1                          T                                        4780351
MTLF  001.72 341.8 m E Sn      2011/10/31 03:09:32.1   0.3                          T                 .3  .14 Ml 1.4         4780352
MTLF  001.72 341.8 m E Sg      2011/10/31 03:09:35.4  -0.1                          T                                        4780353
EPF   002.35 305.2 m E Sg      2011/10/31 03:09:54.9  -0.1                          T                 .5  .24 Ml 1.6         4780350

.
