EVENT     257334
    Date      Time       Latitude Longitude    Depth    Ndef Nsta Gap    Mag1  N    Mag2  N    Mag3  N   Author         ID
       rms   OT_Error      Smajor Sminor Az        Err   mdist  Mdist     Err        Err        Err      Quality

2011/03/19 17:05:09.7     44.3723   11.6721      2.0      65   23 093  Ml 3.2 25                         js067245    257334

      0.58   +-  0.11       2.6    2.2   51.34 +-  0.0    0.15   6.94   +-0.4                            m i ke

NORTHERN ITALY
Sta     Dist  EvAz     Phase      Date       Time     TRes  Azim  AzRes  Slow  SRes Def   SNR       Amp   Per   Mag1   Mag2       ID
PGF   002.67 227.8 m E Pn      2011/03/19 17:05:52.4   0.5                          T                                        4661936
PGF   002.67 227.8 m E Sn      2011/03/19 17:06:23.0   0.0                          T              174.7  .74 Ml 4.0         4661935
SBF   003.09 262.0 m E Pn      2011/03/19 17:05:57.7  -0.1                          T                                        4661914
SBF   003.09 262.0 m E Sn      2011/03/19 17:06:33.1   0.0                          T               69.0  .58 Ml 3.5         4661913
MBDF  003.52 277.5 m E Pn      2011/03/19 17:06:03.7   0.0                          T                                        4661921
MBDF  003.52 277.5 m E Sn      2011/03/19 17:06:43.5   0.1                          T               32.1  .66 Ml 3.2         4661908
LPG   003.67 289.6 m E Pn      2011/03/19 17:06:05.3  -0.6                          T                                        4661918
LPG   003.67 289.6 m E Sn      2011/03/19 17:06:47.0  -0.2                          T               23.9  .84 Ml 3.0         4661911
LPL   003.69 289.8 m E Pn      2011/03/19 17:06:06.1   0.1                          T                                        4661919
LPL   003.69 289.8 m E Sn      2011/03/19 17:06:47.5   0.0                          T               11.5  .46 Ml 3.0         4661910
FRF   003.72 259.1 m E Pn      2011/03/19 17:06:06.3   0.2                          T                                        4661916
FRF   003.72 259.1 m E Sn      2011/03/19 17:06:47.9   0.0                          T               15.9  .33 Ml 3.3         4661934
LMR   003.88 256.3 m E Pn      2011/03/19 17:06:08.5   0.2                          T                                        4661915
LMR   003.88 256.3 m E Sn      2011/03/19 17:06:51.7   0.0                          T               18.8  .44 Ml 3.3         4661933
ORIF  004.17 279.5 m E Pn      2011/03/19 17:06:12.5   0.1                          T                                        4661920
ORIF  004.17 279.5 m E Sn      2011/03/19 17:06:58.7  -0.1                          T               21.8  .62 Ml 3.2         4661909
SMRF  004.40 267.0 m E Pn      2011/03/19 17:06:15.5   0.0                          T                                        4661917
SMRF  004.40 267.0 m E Sn      2011/03/19 17:07:04.5   0.1                          T                7.1  .43 Ml 3.0         4661912
CABF  004.52 301.6 m E Pn      2011/03/19 17:06:18.2   1.0                          T                                        4661929
HINF  004.81 317.5 m E Pn      2011/03/19 17:06:21.3   0.3                          T                                        4661930
HINF  004.81 317.5 m E Sn      2011/03/19 17:07:13.9  -0.1                          T                8.9  .34 Ml 3.2         4661903
VIVF  005.02 278.0 m E Pn      2011/03/19 17:06:23.9  -0.1                          T                                        4661922
VIVF  005.02 278.0 m E Sn      2011/03/19 17:07:19.2   0.0                          T                1.5  .31 Ml 2.6         4661907
CDF   005.06 324.6 m E Pn      2011/03/19 17:06:25.1   0.6                          T                                        4661932
CDF   005.06 324.6 m E Sn      2011/03/19 17:07:19.6  -0.5                          T                6.4  .38 Ml 3.2         4661899
HAU   005.18 316.4 m E Pn      2011/03/19 17:06:26.5   0.4                          T                                        4661931
HAU   005.18 316.4 m E Sn      2011/03/19 17:07:23.0   0.0                          T               22.6  .36 Ml 3.5         4661902
THEF  005.51 316.4 m E Pn      2011/03/19 17:06:30.7   0.1                          T                                        4661894
THEF  005.51 316.4 m E Sn      2011/03/19 17:07:30.7  -0.1                          T                6.7  .46 Ml 3.1         4661901
LASF  005.62 269.7 m E Pn      2011/03/19 17:06:32.1   0.0                          T                                        4661893
LASF  005.62 269.7 m E Sn      2011/03/19 17:07:33.6   0.1                          T                1.2  .51 Ml 2.4         4661892
PAGF  005.86 317.6 m E Pn      2011/03/19 17:06:35.3   0.0                          T                                        4661895
PAGF  005.86 317.6 m E Sn      2011/03/19 17:07:38.4  -0.8                          T                1.3  .44 Ml 2.5         4661900
SMF   005.95 295.2 m E Pn      2011/03/19 17:06:36.7   0.1                          T                                        4661925
SMF   005.95 295.2 m E Sn      2011/03/19 17:07:41.1  -0.3                          T                 10  .46 Ml 3.4         4661905
LOR   006.18 300.7 m E Pn      2011/03/19 17:06:40.0   0.3                          T                                        4661928
LOR   006.18 300.7 m E Sn      2011/03/19 17:07:46.8   0.0                          T               13.1  .54 Ml 3.5         4661898
AVF   006.32 295.4 m E Pn      2011/03/19 17:06:41.7   0.2                          T                                        4661924
AVF   006.32 295.4 m E Sn      2011/03/19 17:07:49.9  -0.2                          T                  1  .31 Ml 2.7         4661904
SSF   006.32 298.1 m E Pn      2011/03/19 17:06:41.9   0.3                          T                                        4661927
SSF   006.32 298.1 m E Sn      2011/03/19 17:07:49.9  -0.1                          T                6.9  .50 Ml 3.4         4661897
BGF   006.58 292.5 m E Pn      2011/03/19 17:06:45.3   0.1                          T                                        4661923
BGF   006.58 292.5 m E Sn      2011/03/19 17:07:56.2  -0.1                          T                8.4  .51 Ml 3.4         4661906
TCF   006.94 289.3 m E Pn      2011/03/19 17:06:50.1   0.1                          T                                        4661926
TCF   006.94 289.3 m E Sn      2011/03/19 17:08:04.6  -0.4                          T                5.5  .52 Ml 3.3         4661896

.
EVENT     257335
    Date      Time       Latitude Longitude    Depth    Ndef Nsta Gap    Mag1  N    Mag2  N    Mag3  N   Author         ID
       rms   OT_Error      Smajor Sminor Az        Err   mdist  Mdist     Err        Err        Err      Quality

2011/03/19 18:01:41.4     47.1469    1.5364      2.0      53   22 067  Ml 2.5 24  Md 2.5  3              js067245    257335

      0.17   +-  0.03        .6     .5  172.93 +-  0.0    0.76   4.07   +-0.3      +-0.1                 m i ke

FRANCE
Sta     Dist  EvAz     Phase      Date       Time     TRes  Azim  AzRes  Slow  SRes Def   SNR       Amp   Per   Mag1   Mag2       ID
HYF   000.76 080.4 m E Pg      2011/03/19 18:01:55.8   0.0                          T                                        4661957
HYF   000.76 080.4 m E Sg      2011/03/19 18:02:05.7  -0.1                          T                                Md 2.6  4661956
TCF   000.98 151.4 m E Pg      2011/03/19 18:02:00.0   0.2                          T                                        4661979
TCF   000.98 151.4 m E Sg      2011/03/19 18:02:12.4   0.0                          T                8.8  .16 Ml 2.6 Md 2.5  4661968
BGF   001.08 122.8 m E Pg      2011/03/19 18:02:02.2   0.6                          T                                        4661983
BGF   001.08 122.8 m E Sg      2011/03/19 18:02:15.5   0.0                          T               58.7  .28 Ml 3.2 Md 2.5  4661974
MFF   001.28 245.3 m E Pg      2011/03/19 18:02:05.4   0.2                          T                                        4661984
MFF   001.28 245.3 m E Sg      2011/03/19 18:02:21.5  -0.3                          T                7.0  .18 Ml 2.7         4661976
AVF   001.29 105.3 m E Pg      2011/03/19 18:02:05.7   0.1                          T                                        4661981
AVF   001.29 105.3 m E Sg      2011/03/19 18:02:22.3   0.0                          T               15.5  .22 Ml 2.8         4661972
SSF   001.35 092.9 m E Pg      2011/03/19 18:02:06.4  -0.2                          T                                        4661978
SSF   001.35 092.9 m E Sg      2011/03/19 18:02:24.0   0.0                          T               12.7  .30 Ml 2.7         4661969
LOR   001.59 084.8 m E Pn      2011/03/19 18:02:09.6   0.7                          T                                        4661970
LOR   001.59 084.8 m E Pg      2011/03/19 18:02:11.1   0.1                          T                                        4661977
LOR   001.59 084.8 m E Sg      2011/03/19 18:02:31.5  -0.1                          T               13.9  .24 Ml 2.8         4661971
SMF   001.66 106.8 m E Pn      2011/03/19 18:02:09.8   0.0                          T                                        4661955
SMF   001.66 106.8 m E Pg      2011/03/19 18:02:12.2  -0.1                          T                                        4661980
SMF   001.66 106.8 m E Sg      2011/03/19 18:02:33.6  -0.1                          T                8.2  .20 Ml 2.7         4661973
LDF   001.83 323.0 m E Pg      2011/03/19 18:02:15.5   0.1                          T                                        4661952
LDF   001.83 323.0 m E Sg      2011/03/19 18:02:39.0   0.1                          T                4.6  .25 Ml 2.4         4661943
RJF   001.84 180.4 m E Pg      2011/03/19 18:02:15.6  -0.1                          T                                        4661950
RJF   001.84 180.4 m E Sg      2011/03/19 18:02:38.9  -0.6                          T               11.1  .20 Ml 2.6         4661945
GRR   002.04 308.4 m E Pg      2011/03/19 18:02:19.2  -0.1                          T                                        4661951
GRR   002.04 308.4 m E Sg      2011/03/19 18:02:45.7   0.2                          T                5.0  .24 Ml 2.4         4661944
FLN   002.11 320.7 m E Pg      2011/03/19 18:02:20.2  -0.4                          T                                        4661953
FLN   002.11 320.7 m E Sg      2011/03/19 18:02:47.9   0.1                          T                6.3  .33 Ml 2.4         4661942
CAF   002.25 170.4 m E Pg      2011/03/19 18:02:22.9  -0.4                          T                                        4661948
CAF   002.25 170.4 m E Sg      2011/03/19 18:02:52.4   0.2                          T                3.8  .18 Ml 2.6         4661947
LFF   002.28 194.4 m E Pg      2011/03/19 18:02:23.7   0.0                          T                                        4661949
LFF   002.28 194.4 m E Sg      2011/03/19 18:02:53.1   0.2                          T                8.7  .26 Ml 2.6         4661946
MEZF  002.73 058.9 m E Pn      2011/03/19 18:02:24.4   0.0                          T                                        4662728
MEZF  002.73 058.9 m E Pg      2011/03/19 18:02:32.1   0.0                          T                                        4661967
MEZF  002.73 058.9 m E Sg      2011/03/19 18:03:07.0  -0.1                          T                3.0  .29 Ml 2.4         4661964
PAGF  003.15 061.9 m E Pn      2011/03/19 18:02:30.2   0.0                          T                                        4662729
PAGF  003.15 061.9 m E Pg      2011/03/19 18:02:39.9   0.1                          T                                        4661966
PAGF  003.15 061.9 m E Sg      2011/03/19 18:03:20.2  -0.1                          T                 .3  .28 Ml 1.5         4661965
CABF  003.17 098.1 m E Pn      2011/03/19 18:02:30.6   0.1                          T                                        4662723
CABF  003.17 098.1 m E Sg      2011/03/19 18:03:20.8  -0.1                          T                1.8  .35 Ml 2.2         4662722
THEF  003.20 068.6 m E Pn      2011/03/19 18:02:30.8   0.0                          T                                        4661958
THEF  003.20 068.6 m E Sg      2011/03/19 18:03:21.8   0.0                          T                9.6  .46 Ml 2.8         4661963
HAU   003.37 073.5 m E Pn      2011/03/19 18:02:33.3   0.2                          T                                        4661959
HAU   003.37 073.5 m E Sg      2011/03/19 18:03:26.9  -0.2                          T                2.3  .25 Ml 2.2         4661962
BAIF  003.41 030.3 m E Pn      2011/03/19 18:02:33.6  -0.1                          T                                        4662724
BAIF  003.41 030.3 m E Sg      2011/03/19 18:03:28.4   0.0                          T                1.8  .37 Ml 2.2         4662725
HINF  003.67 077.5 m E Pn      2011/03/19 18:02:37.0  -0.2                          T                                        4661960
HINF  003.67 077.5 m E Sg      2011/03/19 18:03:36.4  -0.1                          T                2.5  .30 Ml 2.5         4661961
CDF   004.07 069.8 m E Pn      2011/03/19 18:02:42.8   0.0                          T                                        4662727
CDF   004.07 069.8 m E Sg      2011/03/19 18:03:49.1   0.0                          T                 .9  .21 Ml 2.4         4662726

.
EVENT     257346
    Date      Time       Latitude Longitude    Depth    Ndef Nsta Gap    Mag1  N    Mag2  N    Mag3  N   Author         ID
       rms   OT_Error      Smajor Sminor Az        Err   mdist  Mdist     Err        Err        Err      Quality

2011/03/20 03:06:35.5     43.0458     .1303      2.0      30    5 094  Ml 1.8  5  Md 2.0  3              js067245    257346

      0.28   +-  0.05       1.4     .7  170.36 +-  0.0    0.15   2.34   +-0.1      +-0.0                 m i ke

FRANCE
Sta     Dist  EvAz     Phase      Date       Time     TRes  Azim  AzRes  Slow  SRes Def   SNR       Amp   Per   Mag1   Mag2       ID
EPF   000.15 095.7 m E Pg      2011/03/20 03:06:38.5  -0.3                          T                                        4662078
EPF   000.15 095.7 m E Sg      2011/03/20 03:06:41.2   0.2                          T               31.4  .24        Md 1.9  4662074
SJPF  001.00 274.3 m E Pg      2011/03/20 03:06:54.2   0.1                          T                                        4662070
SJPF  001.00 274.3 m E Sg      2011/03/20 03:07:06.9  -0.2                          T                4.5  .32 Ml 2.0 Md 2.0  4662077
MTLF  001.55 078.3 m E Pg      2011/03/20 03:07:04.6   0.1                          T                                        4662069
MTLF  001.55 078.3 m E Sg      2011/03/20 03:07:24.6   0.0                          T                1.4  .26 Ml 1.8 Md 2.0  4662073
LFF   001.94 012.9 m E Pg      2011/03/20 03:07:11.5  -0.1                          T                                        4662072
LFF   001.94 012.9 m E Sg      2011/03/20 03:07:36.5  -0.2                          T                2.2  .31 Ml 1.9         4662075
CAF   002.34 035.9 m E Pg      2011/03/20 03:07:19.2   0.2                          T                                        4662071
CAF   002.34 035.9 m E Sg      2011/03/20 03:07:48.8  -0.3                          T                 .7  .27 Ml 1.7         4662076

.
EVENT     257336
    Date      Time       Latitude Longitude    Depth    Ndef Nsta Gap    Mag1  N    Mag2  N    Mag3  N   Author         ID
       rms   OT_Error      Smajor Sminor Az        Err   mdist  Mdist     Err        Err        Err      Quality

2011/03/20 06:51:17.3     44.4842    6.8993      2.0      22    9 142  Ml 1.9  6  Md 1.9  3              js067245    257336

      0.28   +-  0.06       1.5     .7   76.41 +-  0.0    0.26   1.63   +-0.4      +-0.0                 m i ke

FRANCE
Sta     Dist  EvAz     Phase      Date       Time     TRes  Azim  AzRes  Slow  SRes Def   SNR       Amp   Per   Mag1   Mag2       ID
MBDF  000.26 339.4 m E Pg      2011/03/20 06:51:22.6   0.0                          T                                        4662098
MBDF  000.26 339.4 m E Sg      2011/03/20 06:51:26.4   0.2                          T               17.0  .18        Md 1.9  4662092
SBF   000.73 148.0 m E Pg      2011/03/20 06:51:30.5  -0.8                          T                                        4662093
SBF   000.73 148.0 m E Sg      2011/03/20 06:51:40.7   0.0                          T                4.1  .21        Md 1.9  4662087
ORIF  000.85 301.2 m E Pg      2011/03/20 06:51:33.7   0.3                          T                                        4662097
ORIF  000.85 301.2 m E Sg      2011/03/20 06:51:43.8  -0.6                          T                3.2  .26        Md 1.9  4662091
FRF   000.94 191.2 m E Pg      2011/03/20 06:51:35.1   0.1                          T                                        4662095
FRF   000.94 191.2 m E Sg      2011/03/20 06:51:46.7  -0.5                          T                6.3  .21 Ml 2.3         4662089
LPG   001.02 354.1 m E Pg      2011/03/20 06:51:36.8   0.0                          T                                        4662084
LPG   001.02 354.1 m E Sg      2011/03/20 06:51:50.0   0.0                          T                2.6  .33 Ml 1.7         4662086
LPL   001.04 353.5 m E Pg      2011/03/20 06:51:36.9  -0.2                          T                                        4662096
LPL   001.04 353.5 m E Sg      2011/03/20 06:51:50.5  -0.1                          T                4.1  .55 Ml 1.7         4662090
SMRF  001.08 242.4 m E Pg      2011/03/20 06:51:37.9   0.3                          T                                        4662083
SMRF  001.08 242.4 m E Sg      2011/03/20 06:51:51.6   0.0                          T                1.2  .33 Ml 1.4         4662085
LMR   001.18 193.9 m E Pg      2011/03/20 06:51:39.4  -0.1                          T                                        4662094
LMR   001.18 193.9 m E Sg      2011/03/20 06:51:54.7  -0.1                          T                8.5  .22 Ml 2.5         4662088
VIVF  001.63 284.0 m E Pg      2011/03/20 06:51:47.0  -0.8                          T                                        4662082
VIVF  001.63 284.0 m E Sg      2011/03/20 06:52:08.8   0.0                          T                1.7  .27 Ml 1.9         4662081

.
