BEGIN GSE2.0
MSG_TYPE DATA
MSG_ID 21-DEC-1116:28:23  FRA_NDC
E-MAIL
DATA_TYPE BULLETIN
Reviewed Bulletin (REB) # P2011-050  from French NDC for regional phases     PERIOD 14 DEC 2011 TO 20 DEC 2011 S M., J-P S.
EVENT     267434
    Date      Time       Latitude Longitude    Depth    Ndef Nsta Gap    Mag1  N    Mag2  N    Mag3  N   Author         ID
       rms   OT_Error      Smajor Sminor Az        Err   mdist  Mdist     Err        Err        Err      Quality

2011/12/14 01:03:17.0     41.7901    2.8835      9.0 f    23    3 214  Ml 1.7  3                         js067245    267454

      0.42   +-  0.20       3.3    1.7  141.20 +-  0.0    0.10   2.78   +-0.2                            m i ke

SPAIN
Sta     Dist  EvAz     Phase      Date       Time     TRes  Azim  AzRes  Slow  SRes Def   SNR       Amp   Per   Mag1   Mag2       ID
MTLF  001.63 342.6 m E Pg      2011/12/14 01:03:47.5   0.2                          T                                        4800113
MTLF  001.63 342.6 m E Sn      2011/12/14 01:04:03.3  -0.7                          T                                        4800112
MTLF  001.63 342.6 m E Sg      2011/12/14 01:04:08.2  -0.1                          T                 .5  .19 Ml 1.5         4800116
EPF   002.25 304.2 m E Pg      2011/12/14 01:03:58.7  -0.2                          T                                        4800110
EPF   002.25 304.2 m E Sg      2011/12/14 01:04:28.0   0.0                          T                1.0  .21 Ml 1.9         4800115
ETSF  002.78 294.6 m E Pg      2011/12/14 01:04:07.7  -1.0                          T                                        4800111
ETSF  002.78 294.6 m E Sg      2011/12/14 01:04:44.9   0.4                          T                 .5  .19 Ml 1.8         4800114

.
EVENT     267435
    Date      Time       Latitude Longitude    Depth    Ndef Nsta Gap    Mag1  N    Mag2  N    Mag3  N   Author         ID
       rms   OT_Error      Smajor Sminor Az        Err   mdist  Mdist     Err        Err        Err      Quality

2011/12/14 04:46:53.2     48.1460   -2.1567      6.7      28    7 128  Ml 2.3  5  Md 1.9  3              js067245    267455

      0.78   +-  0.08       2.1    1.0    5.35 +-  1.0    0.29   2.06   +-0.2      +-0.0                 m i ke

FRANCE
Sta     Dist  EvAz     Phase      Date       Time     TRes  Azim  AzRes  Slow  SRes Def   SNR       Amp   Per   Mag1   Mag2       ID
SGMF  000.29 292.2 m E Pg      2011/12/14 04:46:58.6  -0.4                          T                                        4800136
SGMF  000.29 292.2 m E Sg      2011/12/14 04:47:02.6  -0.4                          T               24.4  .28        Md 1.8  4800135
QUIF  000.71 251.7 m E Pg      2011/12/14 04:47:07.0   0.2                          T                                        4800131
QUIF  000.71 251.7 m E Pn      2011/12/14 04:47:08.8   0.6                          T                                        4800129
QUIF  000.71 251.7 m E Sg      2011/12/14 04:47:16.2   0.0                          T               13.7  .16        Md 1.8  4800134
QUIF  000.71 251.7 m E Sn      2011/12/14 04:47:19.2   0.4                          T                                        4800130
ROSF  000.77 284.7 m E Pg      2011/12/14 04:47:07.7  -0.1                          T                                        4800133
ROSF  000.77 284.7 m E Pn      2011/12/14 04:47:09.2   0.2                          T                                        4800152
ROSF  000.77 284.7 m E Sg      2011/12/14 04:47:17.6  -0.3                          T               11.6  .25        Md 1.9  4800128
ROSF  000.77 284.7 m E Sn      2011/12/14 04:47:20.1  -0.1                          T                                        4800127
GRR   000.90 073.9 m E Pg      2011/12/14 04:47:10.2   0.0                          T                                        4800125
GRR   000.90 073.9 m E Sg      2011/12/14 04:47:21.5  -0.4                          T                7.2  .25 Ml 2.1         4800124
GRR   000.90 073.9 m E Sn      2011/12/14 04:47:22.8  -0.5                          T                                        4800155
GRR   000.90 073.9 m E S       2011/12/14 04:47:25.6  -0.3                          T                                        4800154
FLN   001.27 060.4 m E Pg      2011/12/14 04:47:17.0  -0.1 241.7  0.0               T                                        4800148
FLN   001.27 060.4 m E Sg      2011/12/14 04:47:33.8   0.2 244.9  3.3               T                7.3  .29 Ml 2.2         4800132
LDF   001.43 071.0 m E Pg      2011/12/14 04:47:20.3   0.4                          T                                        4800147
LDF   001.43 071.0 m E Sg      2011/12/14 04:47:38.4   0.0                          T                6.4  .20 Ml 2.5         4800156
MFF   002.06 137.8 m E Pn      2011/12/14 04:47:26.2  -0.4                          T                                        4800122
MFF   002.06 137.8 m E Sn      2011/12/14 04:47:50.8  -0.2                          T                                        4800153
MFF   002.06 137.8 m E Sg      2011/12/14 04:47:58.4   0.3                          T                1.8  .18 Ml 2.4         4800123

.
EVENT     267441
    Date      Time       Latitude Longitude    Depth    Ndef Nsta Gap    Mag1  N    Mag2  N    Mag3  N   Author         ID
       rms   OT_Error      Smajor Sminor Az        Err   mdist  Mdist     Err        Err        Err      Quality

2011/12/14 08:09:19.4     44.2725    7.4011      2.0      20    6 120  Ml 1.7  4  Md 1.5  1              js067245    267461

      0.31   +-  0.08       1.9    1.2   52.66 +-  0.0    0.05   1.35   +-0.1      +-                    m i ke

NORTHERN ITALY
Sta     Dist  EvAz     Phase      Date       Time     TRes  Azim  AzRes  Slow  SRes Def   SNR       Amp   Per   Mag1   Mag2       ID
SBF   000.41 176.5 m E Pg      2011/12/14 08:09:27.2  -0.2                          T                                        4800164
SBF   000.41 176.5 m E Sg      2011/12/14 08:09:32.8   0.0                          T                7.6  .29        Md 1.5  4800158
MBDF  000.64 315.5 m E Pg      2011/12/14 08:09:31.9   0.2                          T                                        4800163
MBDF  000.64 315.5 m E Sg      2011/12/14 08:09:41.5   1.4                          T                1.6  .20                4800157
FRF   000.90 217.7 m E Pn      2011/12/14 08:09:37.4   0.0                          T                                        4800161
FRF   000.90 217.7 m E Sn      2011/12/14 08:09:49.9  -0.3                          T                1.3  .16 Ml 1.7         4800159
LMR   001.14 214.8 m E Pn      2011/12/14 08:09:41.3   0.6                          T                                        4800162
LMR   001.14 214.8 m E Sn      2011/12/14 08:09:56.4   0.5                          T                1.5  .19 Ml 1.8         4800160
ORIF  001.26 301.2 m E Sg      2011/12/14 08:09:59.4  -0.1                          T                 .9  .23 Ml 1.5         4801201
SMRF  001.35 257.9 m E Sg      2011/12/14 08:10:02.0  -0.1                          T                1.0  .23 Ml 1.6         4801202

.
EVENT     267443
    Date      Time       Latitude Longitude    Depth    Ndef Nsta Gap    Mag1  N    Mag2  N    Mag3  N   Author         ID
       rms   OT_Error      Smajor Sminor Az        Err   mdist  Mdist     Err        Err        Err      Quality

2011/12/14 09:24:24.1     43.7997    7.3293       .0 f    29    6 152  Ml 1.9  2  Md 1.9  2              js067245    267463

      0.26   +-  0.06       1.4     .9  132.68 +-  0.0    0.04   1.77   +-0.1      +-0.1                 m i km

NEAR SOUTH COAST OF FRANCE
Sta     Dist  EvAz     Phase      Date       Time     TRes  Azim  AzRes  Slow  SRes Def   SNR       Amp   Per   Mag1   Mag2       ID
SBF   000.10 050.4 m E Pg      2011/12/14 09:24:26.3  -0.3                          T                                        4800179
SBF   000.10 050.4 m E Sg      2011/12/14 09:24:28.3   0.1                          T              369.2  .44        Md 2.0  4800178
FRF   000.55 244.5 m E Pg      2011/12/14 09:24:35.2   0.4                          T                                        4800175
FRF   000.55 244.5 m E P       2011/12/14 09:24:36.2   0.4                          T                                        4800168
FRF   000.55 244.5 m E Sg      2011/12/14 09:24:42.0  -0.2                          T                5.3  .24        Md 1.8  4800172
LMR   000.76 232.3 m E Pg      2011/12/14 09:24:38.5  -0.1                          T                                        4800176
LMR   000.76 232.3 m E Pn      2011/12/14 09:24:40.2  -0.4                          T                                        4800170
LMR   000.76 232.3 m E Sg      2011/12/14 09:24:48.5  -0.1                          T                                        4800173
LMR   000.76 232.3 m E Sn      2011/12/14 09:24:52.3   0.1                          T                4.9  .18                4800177
MBDF  001.01 336.8 m E Pn      2011/12/14 09:24:44.1  -0.2                          T                                        4800169
MBDF  001.01 336.8 m E Sg      2011/12/14 09:24:57.4   0.7                          T                                        4800180
MBDF  001.01 336.8 m E Sn      2011/12/14 09:24:58.5   0.0                          T                7.8  .54 Ml 2.0         4800171
ORIF  001.53 317.6 m E Pg      2011/12/14 09:24:54.6   1.7                          T                                        4800674
LPL   001.77 346.3 m E Pg      2011/12/14 09:24:57.7   0.1                          T                                        4800673
LPL   001.77 346.3 m E Sg      2011/12/14 09:25:20.5  -0.1                          T                1.1  .20 Ml 1.9         4800672

.
EVENT     267446
    Date      Time       Latitude Longitude    Depth    Ndef Nsta Gap    Mag1  N    Mag2  N    Mag3  N   Author         ID
       rms   OT_Error      Smajor Sminor Az        Err   mdist  Mdist     Err        Err        Err      Quality

2011/12/14 09:43:22.3     44.4023    7.3287      2.0      82   20 029  Ml 3.0 14  Md 2.9  2              js067245    267466

      0.79   +-  0.06       1.6    1.1   57.55 +-  0.0    0.12   6.04   +-0.4      +-0.0                 m i ke

NORTHERN ITALY
Sta     Dist  EvAz     Phase      Date       Time     TRes  Azim  AzRes  Slow  SRes Def   SNR       Amp   Per   Mag1   Mag2       ID
MBDF  000.51 309.4 m E Pg      2011/12/14 09:43:31.8  -0.4                          T   001.0                                4800050
MBDF  000.51 309.4 m E Sg      2011/12/14 09:43:39.2   0.2                          T              142.0  .20        Md 2.9  4800191
SBF   000.54 171.9 m E Pg      2011/12/14 09:43:33.0   0.2                          T   001.0                                4800042
SBF   000.54 171.9 m E Sg      2011/12/14 09:43:40.7   0.9                          T   001.0      265.9  .24        Md 2.9  4800043
FRF   000.97 210.6 m E Pg      2011/12/14 09:43:40.8   0.3                          T   001.0                                4800030
FRF   000.97 210.6 m E Sg      2011/12/14 09:43:53.5   0.3                          T   001.0         75  .20 Ml 3.4         4800031
FRF   000.97 210.6 m E Sn      2011/12/14 09:43:55.1   0.2                          T                                        4800198
LPG   001.17 339.7 m E Pn      2011/12/14 09:43:43.7  -0.6                          T                                        4800197
LPG   001.17 339.7 m E Sn      2011/12/14 09:43:59.9  -0.1                          T                                        4800194
ORIF  001.16 297.0 m E Pn      2011/12/14 09:43:44.0   0.1                          T   001.0                                4800053
ORIF  001.16 297.0 m E Sn      2011/12/14 09:43:59.4   0.1                          T              105.3  .48 Ml 3.2         4800196
LPL   001.19 339.4 m E Pn      2011/12/14 09:43:44.2  -0.4                          T                                        4800199
LPL   001.19 339.4 m E Sn      2011/12/14 09:44:00.3  -0.1                          T                                        4800195
LMR   001.22 209.3 m E Pg      2011/12/14 09:43:45.6   0.6                          T   001.0      121.5  .18 Ml 3.8         4800035
LMR   001.22 209.3 m E Sn      2011/12/14 09:44:00.9   0.1                          T   001.0                                4800037
SMRF  001.33 251.9 m E P       2011/12/14 09:43:48.5   0.5                          T                                        4800190
SMRF  001.33 251.9 m E Sg      2011/12/14 09:44:04.5   0.1                          T               42.1  .27 Ml 3.2         4800189
VIVF  001.95 284.4 m E Pn      2011/12/14 09:43:55.4   0.8                          T   001.0                                4800054
VIVF  001.95 284.4 m E P       2011/12/14 09:43:57.1   0.3                          T                                        4800192
VIVF  001.95 284.4 m E Sn      2011/12/14 09:44:18.4   0.1                          T   001.0        8.1  .27 Ml 2.7         4800055
VIVF  001.95 284.4 m E Sg      2011/12/14 09:44:23.9   0.3                          T               15.4  .38 Ml 2.8         4801203
PGF   002.22 146.1 m E Pn      2011/12/14 09:43:58.0  -0.4                          T   001.0                                4800040
PGF   002.22 146.1 m E Pg      2011/12/14 09:44:03.4  -0.2                          T                                        4800193
PGF   002.22 146.1 m E Sn      2011/12/14 09:44:23.5  -1.2                          T   001.0       14.9  .24 Ml 3.3         4800041
LASF  002.52 263.8 m E P       2011/12/14 09:44:04.1  -0.8                          T   001.0                                4800033
LASF  002.52 263.8 m E Sn      2011/12/14 09:44:31.0   0.2                          T   001.0        2.7  .26 Ml 2.3         4800034
CABF  002.38 338.9 m E Pg      2011/12/14 09:44:06.7   0.2                          T   001.0                                4800047
SMF   003.32 313.7 m E P       2011/12/14 09:44:16.6   0.2                          T                                        4800188
HAU   003.67 349.7 m E Pn      2011/12/14 09:44:18.8   0.8                          T   001.0                                4800032
HAU   003.67 349.7 m E Sn      2011/12/14 09:44:59.5   0.2                          T                9.7  .31 Ml 2.8         4801204
AVF   003.67 312.0 m E Pn      2011/12/14 09:44:19.8   1.7                          T   001.0                                4800027
LOR   003.75 321.0 m E Pn      2011/12/14 09:44:22.3   3.1 144.0  5.5               T   001.0                                4800038
LOR   003.75 321.0 m E Sn      2011/12/14 09:45:03.1   1.8 145.8  7.3               T   001.0        2.2  .28 Ml 2.5         4800039
MTLF  003.85 255.8 m E Pn      2011/12/14 09:44:22.8   2.4                          T   001.0                                4800051
MTLF  003.85 255.8 m E Sn      2011/12/14 09:45:03.9   0.3                          T   001.0        2.0  .28 Ml 2.5         4800052
BGF   003.82 305.9 m E P       2011/12/14 09:44:23.7   0.3                          T   001.0                                4800028
BAIF  006.04 340.5 m E Pn      2011/12/14 09:44:51.9   1.6                          T   001.0                                4800046
HINF  003.43 354.6 m E Sn      2011/12/14 09:44:53.5  -0.2                          T   001.0        2.9  .26 Ml 2.6         4800049

.
