EVENT     268600
    Date      Time       Latitude Longitude    Depth    Ndef Nsta Gap    Mag1  N    Mag2  N    Mag3  N   Author         ID
       rms   OT_Error      Smajor Sminor Az        Err   mdist  Mdist     Err        Err        Err      Quality

2012/01/14 18:16:41.1     45.0294    7.3067     10.0 f    21    6 189  Ml 1.6  3  Md 1.6  1              js067245    268620

      0.29   +-  0.10       2.3    1.1   85.60 +-  0.0    0.13   1.54   +-0.2      +-                    m i ke

NORTHERN ITALY
Sta     Dist  EvAz     Phase      Date       Time     TRes  Azim  AzRes  Slow  SRes Def   SNR       Amp   Per   Mag1   Mag2       ID
MBDF  000.49 231.7 m E Pg      2012/01/14 18:16:50.9   0.2                          T                                        4815798
MBDF  000.49 231.7 m E Sg      2012/01/14 18:16:56.5  -0.7                          T                8.5  .30        Md 1.6  4815799
LPG   000.61 320.3 m E Pg      2012/01/14 18:16:53.0  -0.1                          T                                        4815797
LPG   000.61 320.3 m E Sg      2012/01/14 18:17:01.2   0.0                          T                1.6  .29                4815791
LPL   000.63 320.4 m E Pg      2012/01/14 18:16:53.4   0.0                          T                                        4815795
LPL   000.63 320.4 m E Sg      2012/01/14 18:17:01.6  -0.2                          T                1.4  .27                4815792
ORIF  001.02 264.2 m E Pg      2012/01/14 18:17:00.5   0.2                          T                                        4815796
ORIF  001.02 264.2 m E Sg      2012/01/14 18:17:13.6   0.0                          T                1.5  .28 Ml 1.6         4815793
SBF   001.17 175.4 m E Pg      2012/01/14 18:17:03.0   0.0                          T                                        4815794
SBF   001.17 175.4 m E Sg      2012/01/14 18:17:18.2  -0.1                          T                1.5  .19 Ml 1.8         4815789
FRF   001.54 198.1 m E Sg      2012/01/14 18:17:29.8   0.0                          T                 .5  .21 Ml 1.5         4815790

.
EVENT     268601
    Date      Time       Latitude Longitude    Depth    Ndef Nsta Gap    Mag1  N    Mag2  N    Mag3  N   Author         ID
       rms   OT_Error      Smajor Sminor Az        Err   mdist  Mdist     Err        Err        Err      Quality

2012/01/14 18:29:33.3     44.4276    7.2877     10.0      92   17 062  Ml 2.7 14  Md 2.8  2              js067245    268621

      0.53   +-  0.04       1.0     .6   51.90 +-  0.0    0.08   3.82   +-0.4      +-0.0                 m i ke

NORTHERN ITALY
Sta     Dist  EvAz     Phase      Date       Time     TRes  Azim  AzRes  Slow  SRes Def   SNR       Amp   Per   Mag1   Mag2       ID
MBDF  000.48 309.2 m E Pg      2012/01/14 18:29:42.5  -0.2                          T   001.0                                4815826
MBDF  000.48 309.2 m E Sg      2012/01/14 18:29:49.4   0.4                          T   001.0       86.9  .24        Md 2.8  4815827
SBF   000.57 169.3 m E Pg      2012/01/14 18:29:44.2  -0.1                          T   001.0                                4815822
SBF   000.57 169.3 m E Sg      2012/01/14 18:29:51.6  -0.3                          T   001.0       89.8  .24        Md 2.8  4815823
FRF   000.98 208.3 m E Pn      2012/01/14 18:29:51.4  -0.1                          T                                        4815848
FRF   000.98 208.3 m E Pg      2012/01/14 18:29:51.8   0.1                          T   001.0                                4815806
FRF   000.98 208.3 m E Sg      2012/01/14 18:30:04.0  -0.6                          T   001.0       55.4  .16 Ml 3.4         4815807
LPG   001.14 340.6 m E Pn      2012/01/14 18:29:54.2   0.2                          T   001.0                                4815814
LPG   001.14 340.6 m E Pg      2012/01/14 18:29:55.2   0.2                          T   001.0                                4815815
LPG   001.14 340.6 m E Sg      2012/01/14 18:30:09.9   0.3                          T   001.0       12.1  .28 Ml 2.5         4815816
ORIF  001.12 296.5 m E Pn      2012/01/14 18:29:54.2   0.7                          T   001.0                                4815830
ORIF  001.12 296.5 m E Pg      2012/01/14 18:29:54.4   0.1                          T                                        4815833
ORIF  001.12 296.5 m E Sn      2012/01/14 18:30:08.1   0.0                          T               29.5  .34 Ml 2.8         4815851
LPL   001.16 340.3 m E Pn      2012/01/14 18:29:54.2   0.0                          T                                        4815849
LPL   001.16 340.3 m E Pg      2012/01/14 18:29:55.4   0.2                          T   001.0                                4815817
LPL   001.16 340.3 m E Sg      2012/01/14 18:30:10.6   0.3                          T   001.0       10.1  .26 Ml 2.5         4815818
LMR   001.23 207.5 m E Pn      2012/01/14 18:29:55.5   0.6                          T                                        4815847
LMR   001.23 207.5 m E Pg      2012/01/14 18:29:56.3   0.0                          T   001.0                                4815811
LMR   001.23 207.5 m E Sn      2012/01/14 18:30:11.0   0.5                          T   001.0       51.3  .16 Ml 3.4         4815812
SMRF  001.31 250.5 m E Pg      2012/01/14 18:29:58.1   0.3                          T   001.0                                4815801
SMRF  001.31 250.5 m E Sg      2012/01/14 18:30:15.1   0.3                          T   001.0       41.1  .28 Ml 3.1         4815802
VIVF  001.92 283.8 m E P       2012/01/14 18:30:06.4  -0.1                          T   001.0                                4815831
VIVF  001.92 283.8 m E Sn      2012/01/14 18:30:27.0   0.0                          T   001.0        8.4  .32 Ml 2.6         4815832
VIVF  001.92 283.8 m E Sg      2012/01/14 18:30:34.1   0.5                          T                7.3  .27 Ml 2.6         4815850
PGF   002.25 145.9 m E Pn      2012/01/14 18:30:08.4  -0.6                          T   001.0                                4815820
PGF   002.25 145.9 m E Sn      2012/01/14 18:30:35.2   0.0                          T   001.0        2.6  .16 Ml 2.7         4815821
LASF  002.49 263.1 m E Pn      2012/01/14 18:30:12.5   0.4                          T   001.0                                4815808
LASF  002.49 263.1 m E Sn      2012/01/14 18:30:40.1  -0.6                          T   001.0                                4815809
LASF  002.49 263.1 m E Sg      2012/01/14 18:30:52.2   0.6                          T   001.0        4.7  .56 Ml 2.2         4815810
SMF   003.28 313.7 m E P       2012/01/14 18:30:26.0   0.0                          T                                        4815845
SMF   003.28 313.7 m E Sn      2012/01/14 18:30:59.9   0.2                          T   001.0                                4815824
SMF   003.28 313.7 m E Sg      2012/01/14 18:31:17.2   0.9                          T   001.0        4.2  .60 Ml 2.3         4815825
CAF   003.76 279.4 m E Pn      2012/01/14 18:30:29.5   0.1                          T                                        4815846
CAF   003.76 279.4 m E P       2012/01/14 18:30:32.3  -0.5                          T   001.0                                4815805
MTLF  003.82 255.3 m E Pn      2012/01/14 18:30:30.7   0.4                          T   001.0                                4815828
MTLF  003.82 255.3 m E Sn      2012/01/14 18:31:13.0   0.5                          T   001.0        2.2  .60 Ml 2.2         4815829
AVF   003.63 311.9 m E P       2012/01/14 18:30:31.0   0.0                          T   001.0                                4815803
LOR   003.72 321.1 m E P       2012/01/14 18:30:32.4   0.2                          T   001.0                                4815813
BGF   003.78 305.9 m E P       2012/01/14 18:30:32.6  -0.5                          T   001.0                                4815804

.
EVENT     268602
    Date      Time       Latitude Longitude    Depth    Ndef Nsta Gap    Mag1  N    Mag2  N    Mag3  N   Author         ID
       rms   OT_Error      Smajor Sminor Az        Err   mdist  Mdist     Err        Err        Err      Quality

2012/01/14 21:26:57.5     43.1362    -.6832      2.0       6    3 190             Md 1.3  2              js067245    268622

      0.52   +-  0.33      10.5    4.8   10.01 +-  0.0    0.25   0.76              +-0.2                 m i ke

PYRENEES
Sta     Dist  EvAz     Phase      Date       Time     TRes  Azim  AzRes  Slow  SRes Def   SNR       Amp   Per   Mag1   Mag2       ID
ETSF  000.25 159.0 m E Pg      2012/01/14 21:27:02.8   0.2                          T                                        4815856
ETSF  000.25 159.0 m E Sg      2012/01/14 21:27:05.8  -0.3                          T                8.6  .20        Md 1.5  4815857
SJPF  000.40 266.9 m E Pg      2012/01/14 21:27:05.5   0.3                          T                                        4815854
SJPF  000.40 266.9 m E Sg      2012/01/14 21:27:09.2  -1.2                          T                1.9  .30        Md 1.2  4815855
EPF   000.76 097.7 m E Pg      2012/01/14 21:27:11.9   0.1                          T                                        4815852
EPF   000.76 097.7 m E Sg      2012/01/14 21:27:21.0  -0.7                          T                 .7  .24                4815853

.
EVENT     268605
    Date      Time       Latitude Longitude    Depth    Ndef Nsta Gap    Mag1  N    Mag2  N    Mag3  N   Author         ID
       rms   OT_Error      Smajor Sminor Az        Err   mdist  Mdist     Err        Err        Err      Quality

2012/01/15 02:24:07.5     41.7983    2.8985      2.0      12    3 253  Ml 1.5  3                         js067245    268625

      0.22   +-  0.16       2.7    1.2  130.67 +-  0.0    0.35   3.24   +-0.0                            m i ke

SPAIN
Sta     Dist  EvAz     Phase      Date       Time     TRes  Azim  AzRes  Slow  SRes Def   SNR       Amp   Per   Mag1   Mag2       ID
MTLF  001.62 342.2 m E Pg      2012/01/15 02:24:37.6  -0.1                          T                                        4815989
MTLF  001.62 342.2 m E Sg      2012/01/15 02:24:58.8   0.2                          T                 .6  .26 Ml 1.5         4815990
EPF   002.26 303.9 m E Pg      2012/01/15 02:24:49.5   0.0                          T                                        4815991
EPF   002.26 303.9 m E Sg      2012/01/15 02:25:18.2  -0.4                          T                 .4  .23 Ml 1.5         4815992
ETSF  002.79 294.4 m E Sg      2012/01/15 02:25:35.2   0.1                          T                 .3  .20 Ml 1.5         4815988

.
EVENT     268613
    Date      Time       Latitude Longitude    Depth    Ndef Nsta Gap    Mag1  N    Mag2  N    Mag3  N   Author         ID
       rms   OT_Error      Smajor Sminor Az        Err   mdist  Mdist     Err        Err        Err      Quality

2012/01/15 03:38:56.8     47.8791    7.9206     19.3      14    5 071  Ml 1.3  4  Md 1.6  1              js067245    268633

      0.18   +-  0.04        .8     .6  171.35 +-  0.3    0.06   1.96   +-0.5      +-                    m i ke

SWITZERLAND
Sta     Dist  EvAz     Phase      Date       Time     TRes  Azim  AzRes  Slow  SRes Def   SNR       Amp   Per   Mag1   Mag2       ID
HINF  000.72 265.4 m E Pn      2012/01/15 03:39:10.6   0.0                          T                                        4816002
HINF  000.72 265.4 m E Sg      2012/01/15 03:39:20.4  -0.2                          T                 .7  .23        Md 1.6  4815993
HAU   001.06 277.4 m E Pn      2012/01/15 03:39:15.3   0.0                          T                                        4816001
HAU   001.06 277.4 m E Pg      2012/01/15 03:39:17.0  -0.1                          T                                        4816000
HAU   001.06 277.4 m E Sg      2012/01/15 03:39:31.0   0.0                          T                 .7  .27 Ml 1.1         4815994
THEF  001.34 285.8 m E Pg      2012/01/15 03:39:22.0  -0.1                          T                                        4815999
THEF  001.34 285.8 m E Sg      2012/01/15 03:39:39.7   0.2                          T                 .8  .19 Ml 1.6         4815995
SFTF  001.96 280.6 m E Pg      2012/01/15 03:39:33.4   0.0                          T                                        4815998
SFTF  001.96 280.6 m E Sg      2012/01/15 03:39:58.9   0.1                          T                1.1  .26 Ml 1.8         4815996
PAGF  001.62 295.5 m E Sg      2012/01/15 03:39:48.2   0.1                          T                 .1  .18 Ml  .7         4815997

.
EVENT     268606
    Date      Time       Latitude Longitude    Depth    Ndef Nsta Gap    Mag1  N    Mag2  N    Mag3  N   Author         ID
       rms   OT_Error      Smajor Sminor Az        Err   mdist  Mdist     Err        Err        Err      Quality

2012/01/15 13:45:41.8     35.4590    -.7049     30.0      89    9 169  Ml 3.1  2                         js067245    268626

      1.12   +-  0.29       6.6    4.0  150.41 +-  0.0    0.19  12.58   +-0.0                            m i ke

NORTHERN ALGERIA
Sta     Dist  EvAz     Phase      Date       Time     TRes  Azim  AzRes  Slow  SRes Def   SNR       Amp   Per   Mag1   Mag2       ID
EPF   007.60 005.8 m E Pn      2012/01/15 13:47:28.6   0.0                          T                                        4816023
EPF   007.60 005.8 m E P       2012/01/15 13:47:33.6   0.1                          T                                        4816016
EPF   007.60 005.8 m E Sn      2012/01/15 13:48:48.7   0.0                          T                2.8  .42 Ml 3.2         4816009
SJPF  007.65 357.1 m E Pn      2012/01/15 13:47:28.9  -0.4                          T                                        4816024
ETSF  007.43 000.8 m E P       2012/01/15 13:47:31.6   0.6                          T                                        4816015
ETSF  007.43 000.8 m E Sn      2012/01/15 13:48:44.1  -0.5                          T                3.4  .54 Ml 3.1         4816010
MTLF  008.19 015.1 m E Pn      2012/01/15 13:47:35.9  -0.6                          T                                        4816018
MTLF  008.19 015.1 m E P       2012/01/15 13:47:42.0   0.4                          T                                        4816017
LFF   009.53 006.2 m E Pn      2012/01/15 13:47:54.6  -0.2                          T                                        4816013
LFF   009.53 006.2 m E P       2012/01/15 13:48:00.3   0.1                          T                                        4816012
LMR   009.64 033.2 m E Pn      2012/01/15 13:47:56.1  -0.1                          T                                        4816021
LMR   009.64 033.2 m E P       2012/01/15 13:48:02.1   0.5                          T                                        4816020
CAF   009.69 011.8 m E Pn      2012/01/15 13:47:56.6  -0.4                          T                                        4816022
CAF   009.69 011.8 m E P       2012/01/15 13:48:02.1  -0.2                          T                                        4816014
FRF   009.88 032.8 m E P       2012/01/15 13:48:04.5  -0.5                          T                                        4816019
QUIF  012.58 352.4 m E P       2012/01/15 13:48:41.4  -0.1                          T                                        4816011

.
EVENT     268603
    Date      Time       Latitude Longitude    Depth    Ndef Nsta Gap    Mag1  N    Mag2  N    Mag3  N   Author         ID
       rms   OT_Error      Smajor Sminor Az        Err   mdist  Mdist     Err        Err        Err      Quality

2012/01/15 17:08:32.5     44.2091    7.5902      2.0      33    9 083  Ml 1.5  7  Md 1.7  2              js067245    268623

      0.15   +-  0.03        .6     .4   42.62 +-  0.0    0.12   1.95   +-0.3      +-0.0                 m i ke

NORTHERN ITALY
Sta     Dist  EvAz     Phase      Date       Time     TRes  Azim  AzRes  Slow  SRes Def   SNR       Amp   Per   Mag1   Mag2       ID
SBF   000.36 198.0 m E Pg      2012/01/15 17:08:39.6   0.0                          T                                        4816044
SBF   000.36 198.0 m E Sg      2012/01/15 17:08:44.6   0.1                          T                7.2  .24        Md 1.7  4816045
MBDF  000.78 311.7 m E Pg      2012/01/15 17:08:47.4   0.0                          T                                        4816043
MBDF  000.78 311.7 m E Sg      2012/01/15 17:08:57.6   0.0                          T                1.5  .24        Md 1.7  4816029
FRF   000.94 226.8 m E Pn      2012/01/15 17:08:51.0  -0.1                          T                                        4816039
FRF   000.94 226.8 m E Sg      2012/01/15 17:09:02.2  -0.2                          T                1.5  .25 Ml 1.6         4816034
LMR   001.17 222.2 m E Pg      2012/01/15 17:08:54.5   0.1                          T                                        4816038
LMR   001.17 222.2 m E Sg      2012/01/15 17:09:09.7   0.1                          T                1.8  .24 Ml 1.8         4816035
ORIF  001.41 300.7 m E Pg      2012/01/15 17:08:59.2   0.3                          T                                        4816042
ORIF  001.41 300.7 m E Sg      2012/01/15 17:09:17.1  -0.1                          T                 .4  .20 Ml 1.4         4816030
LPL   001.44 335.3 m E Pg      2012/01/15 17:08:59.8   0.1                          T                                        4816041
LPL   001.44 335.3 m E Sg      2012/01/15 17:09:18.2  -0.1                          T                 .5  .19 Ml 1.4         4816031
SMRF  001.47 261.6 m E Pg      2012/01/15 17:09:00.0   0.1                          T                                        4816040
SMRF  001.47 261.6 m E Sg      2012/01/15 17:09:19.1   0.1                          T                 .3  .17 Ml 1.3         4816033
PGF   001.95 147.8 m E Pn      2012/01/15 17:09:04.9  -0.1                          T                                        4816037
PGF   001.95 147.8 m E Sn      2012/01/15 17:09:28.9   0.2                          T                 .7  .24 Ml 1.9         4816036
LPG   001.42 335.4 m E Sg      2012/01/15 17:09:17.4  -0.2                          T                 .3  .21 Ml 1.2         4816032

.
EVENT     268607
    Date      Time       Latitude Longitude    Depth    Ndef Nsta Gap    Mag1  N    Mag2  N    Mag3  N   Author         ID
       rms   OT_Error      Smajor Sminor Az        Err   mdist  Mdist     Err        Err        Err      Quality

2012/01/15 17:42:59.3     43.1298    -.8898      2.0       5    3 189  Ml 1.1  1  Md 1.1  2              js067245    268627

      0.45   +-  0.51      22.5    5.0   14.34 +-  0.0    0.25   0.91   +-         +-0.1                 m i ke

PYRENEES
Sta     Dist  EvAz     Phase      Date       Time     TRes  Azim  AzRes  Slow  SRes Def   SNR       Amp   Per   Mag1   Mag2       ID
SJPF  000.25 266.3 m E Pg      2012/01/15 17:43:04.3   0.1                          T                                        4816047
SJPF  000.25 266.3 m E Sg      2012/01/15 17:43:06.9  -0.7                          T                2.2  .29        Md 1.1  4816048
ETSF  000.33 133.5 m E Pg      2012/01/15 17:43:06.2   0.3                          T                                        4816049
ETSF  000.33 133.5 m E Sg      2012/01/15 17:43:09.7  -0.7                          T                5.0  .16        Md 1.1  4816050
EPF   000.91 095.9 m E Sg      2012/01/15 17:43:27.8  -0.4                          T                 .5  .21 Ml 1.1         4816046

.
