EVENT     261717
    Date      Time       Latitude Longitude    Depth    Ndef Nsta Gap    Mag1  N    Mag2  N    Mag3  N   Author         ID
       rms   OT_Error      Smajor Sminor Az        Err   mdist  Mdist     Err        Err        Err      Quality

2011/07/24 01:38:27.4     42.8985    -.8576      2.0      28    6 089  Ml 2.0  4  Md 2.2  3              js067245    261717

      0.62   +-  0.11       3.0    1.6    2.07 +-  0.0    0.22   2.93   +-0.1      +-0.1                 m i ke

PYRENEES
Sta     Dist  EvAz     Phase      Date       Time     TRes  Azim  AzRes  Slow  SRes Def   SNR       Amp   Per   Mag1   Mag2       ID
ETSF  000.22 089.9 m E Pg      2011/07/24 01:38:30.8  -1.0                          T                                        4726533
ETSF  000.22 089.9 m E Sg      2011/07/24 01:38:34.7  -0.1                          T               25.9  .19        Md 2.2  4726527
SJPF  000.34 308.7 m E Pg      2011/07/24 01:38:33.7  -0.3                          T                                        4726534
SJPF  000.34 308.7 m E Sg      2011/07/24 01:38:38.5  -0.2                          T               48.2  .29        Md 2.2  4726530
EPF   000.89 081.1 m E Pg      2011/07/24 01:38:43.6  -0.5                          T                                        4726532
EPF   000.89 081.1 m E Sg      2011/07/24 01:38:56.2   0.5                          T                5.3  .21 Ml 2.2 Md 2.1  4726529
MTLF  002.29 077.8 m E Pn      2011/07/24 01:39:04.6   0.2                          T                                        4728276
MTLF  002.29 077.8 m E Pg      2011/07/24 01:39:10.0   0.0                          T                                        4728275
MTLF  002.29 077.8 m E Sg      2011/07/24 01:39:39.5   0.0                          T                1.3  .27 Ml 1.9         4728277
CAF   002.93 045.2 m E Pn      2011/07/24 01:39:14.8   1.7                          T                                        4726531
CAF   002.93 045.2 m E Sn      2011/07/24 01:39:46.8   0.1                          T                 .8  .21 Ml 2.0         4726528
LFF   002.34 029.0 m E Sg      2011/07/24 01:39:40.4  -0.6                          T                1.9  .30 Ml 1.9         4728278

.
EVENT     261763
    Date      Time       Latitude Longitude    Depth    Ndef Nsta Gap    Mag1  N    Mag2  N    Mag3  N   Author         ID
       rms   OT_Error      Smajor Sminor Az        Err   mdist  Mdist     Err        Err        Err      Quality

2011/07/24 06:42:11.6     50.3320    7.6439      8.0 f    17    8 084  Ml 2.0  6  Md 2.2  1              js067245    261763

      0.39   +-  0.10       1.7    1.5   81.37 +-  0.0    0.23   3.96   +-0.1      +-                    m i ke

GERMANY
Sta     Dist  EvAz     Phase      Date       Time     TRes  Azim  AzRes  Slow  SRes Def   SNR       Amp   Per   Mag1   Mag2       ID
RUP   000.73 211.0 m E Pg      2011/07/24 06:42:24.8  -0.8                          T                                        4726859
RUP   000.73 211.0 m E Sg      2011/07/24 06:42:35.2   0.0                          T                                Md 2.2  4726858
LANF  001.36 175.5 m E Pn      2011/07/24 06:42:35.1  -0.1                          T                                        4728280
LANF  001.36 175.5 m E Pg      2011/07/24 06:42:36.9  -0.1                          T                                        4728279
LANF  001.36 175.5 m E Sg      2011/07/24 06:42:54.5   0.0                          T                3.2  .29 Ml 2.0         4728281
CDF   001.94 187.3 m E Pn      2011/07/24 06:42:43.7   0.5                          T                                        4726855
CDF   001.94 187.3 m E Sn      2011/07/24 06:43:07.3   1.0                          T                                        4726857
CDF   001.94 187.3 m E Sg      2011/07/24 06:43:12.4  -0.3                          T                1.6  .24 Ml 2.1         4726854
BAIF  002.23 264.3 m E Sg      2011/07/24 06:43:20.8  -0.7                          T                1.9  .29 Ml 2.1         4726856
HAU   002.48 200.6 m E Sg      2011/07/24 06:43:29.5   0.0                          T                1.2  .20 Ml 1.9         4728284
MEZF  002.49 223.7 m E Sg      2011/07/24 06:43:30.2   0.2                          T                 .8  .22 Ml 1.9         4728282
SFTF  002.73 219.7 m E Sg      2011/07/24 06:43:37.4   0.2                          T                1.9  .27 Ml 2.2         4728283
LOR   003.96 220.7 m E Sn      2011/07/24 06:43:53.6  -0.8                          T                                        4728285

.
EVENT     261720
    Date      Time       Latitude Longitude    Depth    Ndef Nsta Gap    Mag1  N    Mag2  N    Mag3  N   Author         ID
       rms   OT_Error      Smajor Sminor Az        Err   mdist  Mdist     Err        Err        Err      Quality

2011/07/24 07:18:13.4     42.9168    -.7688      2.0      10    3 156             Md 1.7  3              js067245    261720

      0.30   +-  0.11       3.3    1.3   16.94 +-  0.0    0.16   1.50              +-0.1                 m i ke

PYRENEES
Sta     Dist  EvAz     Phase      Date       Time     TRes  Azim  AzRes  Slow  SRes Def   SNR       Amp   Per   Mag1   Mag2       ID
ETSF  000.16 096.7 m E Pg      2011/07/24 07:18:16.4  -0.4                          T                                        4726540
ETSF  000.16 096.7 m E Sg      2011/07/24 07:18:19.0   0.0                          T               11.0  .26        Md 1.7  4726535
SJPF  000.39 300.6 m E Pg      2011/07/24 07:18:21.0   0.1                          T                                        4726537
SJPF  000.39 300.6 m E Sg      2011/07/24 07:18:26.0  -0.1                          T                3.7  .22        Md 1.8  4726536
EPF   000.82 081.7 m E Pg      2011/07/24 07:18:28.8  -0.2                          T                                        4726539
EPF   000.82 081.7 m E Sg      2011/07/24 07:18:40.1   0.5                          T                1.1  .23        Md 1.7  4726538

.
EVENT     261721
    Date      Time       Latitude Longitude    Depth    Ndef Nsta Gap    Mag1  N    Mag2  N    Mag3  N   Author         ID
       rms   OT_Error      Smajor Sminor Az        Err   mdist  Mdist     Err        Err        Err      Quality

2011/07/24 07:48:33.3     42.6662   -1.2999     10.0      16    3 093  Ml 2.3  1  Md 2.1  3              js067245    261721

      0.44   +-  0.12       2.3    1.8   28.80 +-  0.0    0.23   1.93   +-         +-0.1                 m i ke

PYRENEES
Sta     Dist  EvAz     Phase      Date       Time     TRes  Azim  AzRes  Slow  SRes Def   SNR       Amp   Per   Mag1   Mag2       ID
SJPF  000.45 007.0 m E Pg      2011/07/24 07:48:42.5   0.4                          T                                        4726546
SJPF  000.45 007.0 m E Sg      2011/07/24 07:48:47.8  -0.4                          T               11.1  .26        Md 2.1  4726543
ETSF  000.59 066.7 m E Pg      2011/07/24 07:48:44.3  -0.5                          T                                        4726545
ETSF  000.59 066.7 m E Sg      2011/07/24 07:48:53.5   0.8                          T                7.3  .34        Md 2.1  4726541
EPF   001.26 072.7 m E Pg      2011/07/24 07:48:56.9  -0.1                          T                                        4726544
EPF   001.26 072.7 m E Sg      2011/07/24 07:49:13.2  -0.2                          T               10.3  .41 Ml 2.3 Md 2.0  4726542

.
EVENT     261724
    Date      Time       Latitude Longitude    Depth    Ndef Nsta Gap    Mag1  N    Mag2  N    Mag3  N   Author         ID
       rms   OT_Error      Smajor Sminor Az        Err   mdist  Mdist     Err        Err        Err      Quality

2011/07/24 12:55:49.1     45.2777    6.8956      3.0 f    17    8 189  Ml 2.0  4  Md 1.8  2              js067245    261724

      0.20   +-  0.07       1.8     .8   79.25 +-  0.0    0.24   1.96   +-0.5      +-0.1                 m i ke

FRANCE
Sta     Dist  EvAz     Phase      Date       Time     TRes  Azim  AzRes  Slow  SRes Def   SNR       Amp   Per   Mag1   Mag2       ID
LPG   000.24 335.3 m E Pg      2011/07/24 12:55:54.2  -0.1                          T                                        4726558
LPG   000.24 335.3 m E Sg      2011/07/24 12:55:57.4  -0.2                          T                7.4  .20        Md 1.9  4726555
LPL   000.26 334.3 m E Pg      2011/07/24 12:55:54.7   0.1                          T                                        4726560
LPL   000.26 334.3 m E Sg      2011/07/24 12:55:58.3   0.1                          T               26.8  .26        Md 1.8  4726548
MBDF  000.56 189.1 m E Pg      2011/07/24 12:55:59.9   0.1                          T                                        4726559
MBDF  000.56 189.1 m E Sg      2011/07/24 12:56:07.5   0.3                          T               13.0  .25                4726556
ORIF  000.80 243.8 m E Pg      2011/07/24 12:56:04.0  -0.3                          T                                        4726557
ORIF  000.80 243.8 m E Sg      2011/07/24 12:56:15.5   0.7                          T                4.4  .34                4726549
SBF   001.47 164.6 m E Pg      2011/07/24 12:56:16.4  -0.1                          T                                        4728287
SBF   001.47 164.6 m E Sg      2011/07/24 12:56:35.5   0.0                          T                7.8  .24 Ml 2.5         4726552
VIVF  001.63 255.8 m E Pg      2011/07/24 12:56:19.4  -0.1                          T                                        4728290
VIVF  001.63 255.8 m E Sg      2011/07/24 12:56:40.6   0.1                          T                 .5  .23 Ml 1.4         4728286
FRF   001.73 186.0 m E P       2011/07/24 12:56:20.4   0.1                          T                                        4728288
FRF   001.73 186.0 m E Sg      2011/07/24 12:56:43.4  -0.1                          T                1.5  .18 Ml 2.1         4726554
LMR   001.96 188.3 m E Pg      2011/07/24 12:56:24.8  -0.8                          T                                        4728289
LMR   001.96 188.3 m E Sg      2011/07/24 12:56:50.8  -0.1                          T                 .8  .20 Ml 1.8         4726553

.
EVENT     261722
    Date      Time       Latitude Longitude    Depth    Ndef Nsta Gap    Mag1  N    Mag2  N    Mag3  N   Author         ID
       rms   OT_Error      Smajor Sminor Az        Err   mdist  Mdist     Err        Err        Err      Quality

2011/07/24 13:44:03.1     46.3867    2.7018      5.0 f    22    9 112  Ml 1.9  5  Md 1.8  3              js067245    261722

      1.35   +-  0.08       2.4    1.2  135.97 +-  0.0    0.20   1.98   +-0.2      +-0.0                 m i ke

FRANCE
Sta     Dist  EvAz     Phase      Date       Time     TRes  Azim  AzRes  Slow  SRes Def   SNR       Amp   Per   Mag1   Mag2       ID
BGF   000.20 030.2 m E Pg      2011/07/24 13:44:07.3   0.1                          T                                        4726577
BGF   000.20 030.2 m E Sg      2011/07/24 13:44:10.1   0.1                          T               17.8  .23        Md 1.8  4726565
TCF   000.35 254.0 m E Pg      2011/07/24 13:44:10.1   0.1                          T                                        4726575
TCF   000.35 254.0 m E Sg      2011/07/24 13:44:15.8   1.0                          T                5.8  .18        Md 1.8  4726570
AVF   000.60 047.8 m E Pg      2011/07/24 13:44:14.6   0.0                          T                                        4726574
AVF   000.60 047.8 m E Sg      2011/07/24 13:44:22.7   0.2                          T                2.2  .24                4726561
AVF   000.60 047.8 m E Sn      2011/07/24 13:44:26.4   0.1                          T                                        4728295
SMF   000.83 071.4 m E Pg      2011/07/24 13:44:18.8   0.0                          T                                        4726573
SMF   000.83 071.4 m E Pn      2011/07/24 13:44:19.7  -0.2                          T                                        4728293
SMF   000.83 071.4 m E Sg      2011/07/24 13:44:29.7   0.1                          T                7.8  .20                4726568
SMF   000.83 071.4 m E Sn      2011/07/24 13:44:32.1   0.3                          T                                        4728294
SSF   000.87 039.0 m E Pg      2011/07/24 13:44:19.6   0.0                          T                                        4726576
SSF   000.87 039.0 m E Sg      2011/07/24 13:44:31.0   0.1                          T                3.0  .19 Ml 2.1         4726571
LOR   001.19 041.6 m E Pg      2011/07/24 13:44:25.3  -0.1 225.7  3.3               T                                        4726566
LOR   001.19 041.6 m E Sn      2011/07/24 13:44:40.2  -0.2 197.9  -24.5             T                                        4728296
LOR   001.19 041.6 m E Sg      2011/07/24 13:44:40.8   0.1                          T                3.4  .20 Ml 2.1         4726569
RJF   001.36 217.9 m E Pg      2011/07/24 13:44:28.7   0.1                          T                                        4728298
RJF   001.36 217.9 m E Sg      2011/07/24 13:44:46.3   0.1                          T                2.6  .24 Ml 1.7         4726564
CAF   001.53 197.2 m E Pg      2011/07/24 13:44:31.6   0.0                          T                                        4728299
CAF   001.53 197.2 m E Sg      2011/07/24 13:44:51.4   0.1                          T                1.6  .20 Ml 2.0         4726562
MFF   001.98 277.3 m E Pg      2011/07/24 13:44:39.6  -0.3                          T                                        4728297
MFF   001.98 277.3 m E Sg      2011/07/24 13:45:05.0  -0.5                          T                 .6  .19 Ml 1.8         4726563

.
EVENT     261725
    Date      Time       Latitude Longitude    Depth    Ndef Nsta Gap    Mag1  N    Mag2  N    Mag3  N   Author         ID
       rms   OT_Error      Smajor Sminor Az        Err   mdist  Mdist     Err        Err        Err      Quality

2011/07/24 19:02:14.9     45.1560    6.5615      2.0      10    5 139  Ml 1.8  1  Md 1.4  3              js067245    261725

      0.31   +-  0.09       2.5    1.5  122.47 +-  0.0    0.37   1.37   +-         +-0.1                 m i ke

FRANCE
Sta     Dist  EvAz     Phase      Date       Time     TRes  Azim  AzRes  Slow  SRes Def   SNR       Amp   Per   Mag1   Mag2       ID
LPL   000.38 018.4 m E Pg      2011/07/24 19:02:22.2  -0.3                          T                                        4726585
LPL   000.38 018.4 m E Sg      2011/07/24 19:02:27.9   0.4                          T                2.5  .16        Md 1.3  4726580
LPG   000.37 021.3 m E Pg      2011/07/24 19:02:22.3  -0.1                          T                                        4726584
LPG   000.37 021.3 m E Sg      2011/07/24 19:02:26.9  -0.4                          T                2.7  .17        Md 1.3  4726579
MBDF  000.45 160.8 m E Pg      2011/07/24 19:02:23.7  -0.1                          T                                        4726587
MBDF  000.45 160.8 m E Sg      2011/07/24 19:02:30.1   0.3                          T                1.3  .17        Md 1.5  4726582
ORIF  000.54 244.0 m E Pg      2011/07/24 19:02:25.2   0.0                          T                                        4726586
ORIF  000.54 244.0 m E Sg      2011/07/24 19:02:31.4  -1.0                          T                3.8  .20                4726581
VIVF  001.37 258.1 m E Pg      2011/07/24 19:02:40.6   0.0                          T                                        4726583
VIVF  001.37 258.1 m E Sg      2011/07/24 19:02:58.4   0.0                          T                2.5  .34 Ml 1.8         4726578

.
EVENT     261719
    Date      Time       Latitude Longitude    Depth    Ndef Nsta Gap    Mag1  N    Mag2  N    Mag3  N   Author         ID
       rms   OT_Error      Smajor Sminor Az        Err   mdist  Mdist     Err        Err        Err      Quality

2011/07/24 19:35:24.7     43.0604    -.4091      2.0      16    4 159  Ml 1.8  1  Md 1.9  3              js067245    261719

      0.31   +-  0.09       2.6    1.1    5.97 +-  0.0    0.20   1.94   +-         +-0.1                 m i ke

PYRENEES
Sta     Dist  EvAz     Phase      Date       Time     TRes  Azim  AzRes  Slow  SRes Def   SNR       Amp   Per   Mag1   Mag2       ID
ETSF  000.20 214.3 m E Pg      2011/07/24 19:35:28.6  -0.1                          T                                        4726595
ETSF  000.20 214.3 m E Sg      2011/07/24 19:35:31.6   0.2                          T                6.4  .16        Md 1.9  4726592
EPF   000.55 092.9 m E Pg      2011/07/24 19:35:35.9   0.7                          T                                        4726594
EPF   000.55 092.9 m E Sg      2011/07/24 19:35:43.0   0.5                          T                3.5  .20        Md 1.8  4726591
SJPF  000.60 275.3 m E Pg      2011/07/24 19:35:36.3   0.2                          T                                        4726593
SJPF  000.60 275.3 m E Sg      2011/07/24 19:35:43.6  -0.4                          T                 .9  .20        Md 1.9  4726590
MTLF  001.94 080.8 m E Pg      2011/07/24 19:36:00.6  -0.2                          T                                        4726588
MTLF  001.94 080.8 m E Sg      2011/07/24 19:36:26.4   0.6                          T                  1  .25 Ml 1.8         4726589

.
