EVENT     300026
    Date      Time       Latitude Longitude    Depth    Ndef Nsta Gap    Mag1  N    Mag2  N    Mag3  N   Author         ID
       rms   OT_Error      Smajor Sminor Az        Err   mdist  Mdist     Err        Err        Err      Quality

2013/05/30 12:32:05.0     48.0513    7.3687      6.0 f    92   22 024  Ml 3.0 18  Md 3.1  4              bulletin    300126
                                                                                                         _ldg
      0.48   +-  0.03        .8     .6  146.75 +-  0.0    0.22   5.31   +-0.3      +-0.2                 m i ke

FRANCE
Sta     Dist  EvAz     Phase      Date       Time     TRes  Azim  AzRes  Slow  SRes Def   SNR       Amp   Per   Mag1   Mag2       ID
CDF   000.37 350.3 m E Pg      2013/05/30 12:32:12.1  -0.2                          T                                        5298092
CDF   000.37 350.3 m E Sg      2013/05/30 12:32:16.8  -0.4                          T               75.8  .26        Md 3.3  5298090
HINF  000.42 236.1 m E Pg      2013/05/30 12:32:12.8  -0.4                          T   001.0                                5298037
HINF  000.42 236.1 m E Sg      2013/05/30 12:32:18.6  -0.2                          T   001.0      198.5  .20        Md 3.2  5298038
HAU   000.69 266.6 m E Pg      2013/05/30 12:32:18.2   0.2                          T   001.0                                5298031
HAU   000.69 266.6 m E Sg      2013/05/30 12:32:26.3  -0.7                          T   001.0      241.6  .36                5298032
THEF  000.94 281.4 m E Pg      2013/05/30 12:32:23.1   0.4                          T                                        5301673
THEF  000.94 281.4 m E Pn      2013/05/30 12:32:23.9   0.8                          T                                        5301674
LANF  000.97 017.2 m E Pg      2013/05/30 12:32:23.1  -0.2                          T                                        5301675
LANF  000.97 017.2 m E Sg      2013/05/30 12:32:36.8   0.8                          T                                        5301676
PAGF  001.21 295.3 m E Pg      2013/05/30 12:32:27.5  -0.1                          T                                        5302460
PAGF  001.21 295.3 m E P       2013/05/30 12:32:28.5   0.0 110.2  -3.9              T                                        5298088
PAGF  001.21 295.3 m E Sg      2013/05/30 12:32:42.0  -1.2                          T               48.4  .23 Ml 3.2 Md 3.0  5298089
MEZF  001.61 287.1 m E Pn      2013/05/30 12:32:31.8  -0.5                          T                                        5298112
MEZF  001.61 287.1 m E Pg      2013/05/30 12:32:35.1   0.1                          T   001.0                                5298039
MEZF  001.61 287.1 m E Sg      2013/05/30 12:32:55.6  -0.3                          T               35.0  .26 Ml 3.2         5298111
SFTF  001.57 276.5 m E Pn      2013/05/30 12:32:32.1   0.4                          T                                        5302461
SFTF  001.57 276.5 m E Pg      2013/05/30 12:32:35.3   1.0  96.2  1.5               T                                        5298110
SFTF  001.57 276.5 m E Sg      2013/05/30 12:32:54.6   0.1                          T               23.5  .22 Ml 3.1         5298109
CABF  001.68 211.6 m E Pn      2013/05/30 12:32:33.5   0.1                          T   001.0                                5298027
CABF  001.68 211.6 m E Sn      2013/05/30 12:32:54.4   0.4                          T   001.0       13.0  .21 Ml 2.9         5298028
RUP   001.66 353.1 m E Pg      2013/05/30 12:32:36.0  -0.1                          T                                        5301708
LOR   002.50 253.0 m E Pn      2013/05/30 12:32:44.1  -0.3                          T   001.0                                5298034
LOR   002.50 253.0 m E Pg      2013/05/30 12:32:51.8   0.5                          T                                        5298091
LOR   002.50 253.0 m E Sg      2013/05/30 12:33:23.7   0.2                          T   001.0       19.9  .20 Ml 3.3 Md 2.9  5298035
LPL   002.57 190.0 m E Pn      2013/05/30 12:32:45.5  -0.1                          T                                        5298099
LPL   002.57 190.0 m E Pg      2013/05/30 12:32:53.1   0.1                          T   001.0                                5298014
LPL   002.57 190.0 m E Sg      2013/05/30 12:33:25.9  -0.2                          T                3.4  .27 Ml 2.4         5298096
SMF   002.78 240.9 m E Pn      2013/05/30 12:32:48.2  -0.1                          T                                        5298104
SMF   002.78 240.9 m E Pg      2013/05/30 12:32:56.2  -0.4                          T                                        5298105
SMF   002.78 240.9 m E Sn      2013/05/30 12:33:20.1   0.0                          T   001.0                                5298015
SMF   002.78 240.9 m E Sg      2013/05/30 12:33:31.8  -0.5                          T   001.0       28.9  .41 Ml 3.2         5298016
SSF   002.80 250.7 m E Pn      2013/05/30 12:32:48.7   0.3                          T   001.0                                5298017
SSF   002.80 250.7 m E Pg      2013/05/30 12:32:57.0   0.2                          T   001.0                                5298018
SSF   002.80 250.7 m E Sn      2013/05/30 12:33:21.1   0.7                          T   001.0                                5298019
SSF   002.80 250.7 m E Sg      2013/05/30 12:33:32.2  -0.6                          T   001.0       12.1  .26 Ml 3.1         5298024
GIVF  002.65 321.8 m E P       2013/05/30 12:32:48.9  -0.1                          T   001.0                                5298029
GIVF  002.65 321.8 m E Pg      2013/05/30 12:32:54.8   0.6                          T   001.0                                5298033
GIVF  002.65 321.8 m E Sg      2013/05/30 12:33:26.7  -1.4                          T   001.0        8.9  .27 Ml 2.9         5298036
AVF   003.00 246.7 m E Pn      2013/05/30 12:32:50.4  -0.8                          T   001.0                                5298020
AVF   003.00 246.7 m E Pg      2013/05/30 12:33:01.0   0.4                          T                                        5298106
AVF   003.00 246.7 m E Sn      2013/05/30 12:33:25.0  -0.4                          T   001.0        3.7  .21 Ml 2.7         5298021
AVF   003.00 246.7 m E Sg      2013/05/30 12:33:38.1  -1.2                          T   001.0                                5298022
BAIF  002.89 315.2 m E P       2013/05/30 12:32:52.4  -0.2                          T                                        5302459
ORIF  003.30 198.7 m E Pn      2013/05/30 12:32:55.6   0.2                          T                                        5298098
ORIF  003.30 198.7 m E Pg      2013/05/30 12:33:06.2   0.0                          T                                        5298097
ORIF  003.30 198.7 m E Sg      2013/05/30 12:33:48.6   0.0                          T   001.0        4.5  .31 Ml 2.7         5298040
BGF   003.42 245.8 m E Pn      2013/05/30 12:32:56.4  -0.5                          T   001.0                                5298023
BGF   003.42 245.8 m E Pg      2013/05/30 12:33:08.1  -0.3                          T                                        5298103
BGF   003.42 245.8 m E Sg      2013/05/30 12:33:51.7  -0.6                          T   001.0       40.0  .50 Ml 3.4         5298030
VIVF  003.70 211.2 m E Pn      2013/05/30 12:33:00.8   0.0                          T                                        5298102
VIVF  003.70 211.2 m E Sn      2013/05/30 12:33:41.8  -0.2                          T                                        5298101
VIVF  003.70 211.2 m E Sg      2013/05/30 12:34:00.1  -0.9                          T   001.0        4.9  .28 Ml 2.8         5298041
TCF   003.94 245.3 m E Pn      2013/05/30 12:33:04.4   0.4                          T                                        5298107
TCF   003.94 245.3 m E Pg      2013/05/30 12:33:17.8  -0.1                          T                                        5298108
TCF   003.94 245.3 m E Sn      2013/05/30 12:33:48.1   0.4                          T   001.0                                5298025
TCF   003.94 245.3 m E Sg      2013/05/30 12:34:08.1  -0.3                          T   001.0       14.9  .64 Ml 3.0         5298026
MBDF  003.35 187.3 m E Pg      2013/05/30 12:33:07.7   0.5                          T                                        5298100

.
EVENT     300029
    Date      Time       Latitude Longitude    Depth    Ndef Nsta Gap    Mag1  N    Mag2  N    Mag3  N   Author         ID
       rms   OT_Error      Smajor Sminor Az        Err   mdist  Mdist     Err        Err        Err      Quality

2013/05/30 13:01:28.2     45.6910     .3599     15.0      18    6 178  Ml 2.0  5  Md 2.1  1              bulletin    300129
                                                                                                         _ldg
      0.09   +-  0.03        .8     .4   53.96 +-  0.0    0.80   2.82   +-0.2      +-                    m i ke

FRANCE
Sta     Dist  EvAz     Phase      Date       Time     TRes  Azim  AzRes  Slow  SRes Def   SNR       Amp   Per   Mag1   Mag2       ID
LFF   000.80 160.2 m E Pg      2013/05/30 13:01:43.4  -0.1                          T                                        5298177
LFF   000.80 160.2 m E Sg      2013/05/30 13:01:54.1   0.1                          T                4.9  .21        Md 2.1  5298176
RJF   000.90 115.0 m E Pg      2013/05/30 13:01:45.4   0.1                          T                                        5298178
RJF   000.90 115.0 m E Sg      2013/05/30 13:01:56.9  -0.2                          T                5.4  .24 Ml 1.8         5298175
MFF   000.98 339.1 m E Pn      2013/05/30 13:01:45.9   0.0                          T                                        5298186
MFF   000.98 339.1 m E Sn      2013/05/30 13:01:58.7   0.1                          T                3.3  .20 Ml 2.2         5298185
CAF   001.43 121.9 m E Pn      2013/05/30 13:01:52.1   0.0                          T                                        5298181
CAF   001.43 121.9 m E P       2013/05/30 13:01:54.0   0.0                          T                                        5298180
CAF   001.43 121.9 m E Sn      2013/05/30 13:02:09.3   0.0                          T                                        5298179
CAF   001.43 121.9 m E Sg      2013/05/30 13:02:13.4   0.0                          T                3.1  .22 Ml 2.2         5298182
TCF   001.42 064.5 m E Pn      2013/05/30 13:01:52.1   0.1                          T                                        5298187
TCF   001.42 064.5 m E Pg      2013/05/30 13:01:54.8  -0.1                          T                                        5298183
TCF   001.42 064.5 m E Sg      2013/05/30 13:02:13.3  -0.1                          T                2.2  .21 Ml 2.1         5298184
GRR   002.82 343.3 m E Pg      2013/05/30 13:02:20.6   0.0                          T                                        5298189
GRR   002.82 343.3 m E Sn      2013/05/30 13:02:42.8   0.1                          T                 .7  .23 Ml 1.7         5298188

.
EVENT     300033
    Date      Time       Latitude Longitude    Depth    Ndef Nsta Gap    Mag1  N    Mag2  N    Mag3  N   Author         ID
       rms   OT_Error      Smajor Sminor Az        Err   mdist  Mdist     Err        Err        Err      Quality

2013/05/30 13:50:07.9     44.7966    7.2551     10.0      25    5 112  Ml 1.8  3  Md 1.8  1              bulletin    300133
                                                                                                         _ldg
      0.52   +-  0.12       2.6    1.9   80.64 +-  0.0    0.04   1.93   +-0.1      +-                    m i ke

NORTHERN ITALY
Sta     Dist  EvAz     Phase      Date       Time     TRes  Azim  AzRes  Slow  SRes Def   SNR       Amp   Per   Mag1   Mag2       ID
MBDF  000.35 258.7 m E Pg      2013/05/30 13:50:15.1   0.1                          T                                        5298216
MBDF  000.35 258.7 m E Sg      2013/05/30 13:50:20.0   0.2                          T               11.2  .16        Md 1.8  5298215
LPG   000.79 333.2 m E Pg      2013/05/30 13:50:21.5  -1.6                          T                                        5298212
LPG   000.79 333.2 m E Sg      2013/05/30 13:50:31.6  -1.8                          T                2.3  .26                5298211
LPL   000.81 333.0 m E Pg      2013/05/30 13:50:23.7   0.3                          T                                        5298213
LPL   000.81 333.0 m E Sg      2013/05/30 13:50:33.7  -0.3                          T                4.3  .26                5298210
ORIF  000.99 277.6 m E Pn      2013/05/30 13:50:26.6   0.3                          T                                        5298214
ORIF  000.99 277.6 m E Sg      2013/05/30 13:50:38.6  -0.8                          T                2.9  .26 Ml 1.9         5298217
SMRF  001.46 236.3 m E Sg      2013/05/30 13:50:53.6  -0.4                          T                 .9  .24 Ml 1.6         5298219

.
EVENT     300036
    Date      Time       Latitude Longitude    Depth    Ndef Nsta Gap    Mag1  N    Mag2  N    Mag3  N   Author         ID
       rms   OT_Error      Smajor Sminor Az        Err   mdist  Mdist     Err        Err        Err      Quality

2013/05/30 14:13:14.2     44.7838    7.2514     17.1      20    3 158  Ml 1.5  1  Md 1.5  2              bulletin    300136
                                                                                                         _ldg
      0.26   +-  0.08       1.9    1.2   89.02 +-  0.7    0.05   0.98   +-         +-0.1                 m i ke

NORTHERN ITALY
Sta     Dist  EvAz     Phase      Date       Time     TRes  Azim  AzRes  Slow  SRes Def   SNR       Amp   Per   Mag1   Mag2       ID
MBDF  000.35 260.7 m E Pg      2013/05/30 14:13:21.8   0.1                          T                                        5298269
MBDF  000.35 260.7 m E Sg      2013/05/30 14:13:26.8   0.1                          T                7.7  .20        Md 1.6  5298268
LPL   000.82 333.6 m E Pn      2013/05/30 14:13:29.8   0.1                          T                                        5298266
LPL   000.82 333.6 m E Sg      2013/05/30 14:13:40.5  -0.5                          T                2.2  .29        Md 1.4  5298264
ORIF  000.98 278.3 m E Pn      2013/05/30 14:13:31.8   0.0                          T                                        5298267
ORIF  000.98 278.3 m E Sg      2013/05/30 14:13:45.8  -0.1                          T                 .8  .17 Ml 1.5         5298265

.
EVENT     300034
    Date      Time       Latitude Longitude    Depth    Ndef Nsta Gap    Mag1  N    Mag2  N    Mag3  N   Author         ID
       rms   OT_Error      Smajor Sminor Az        Err   mdist  Mdist     Err        Err        Err      Quality

2013/05/30 14:23:14.4     46.3556    4.7638       .0 f    23    8 187  Ml 2.1  8  Md 2.1  1              bulletin    300134
                                                                                                         _ldg
      0.18   +-  0.08       1.8    1.1  175.43 +-  0.0    0.70   1.86   +-0.2      +-                    m i km

FRANCE
Sta     Dist  EvAz     Phase      Date       Time     TRes  Azim  AzRes  Slow  SRes Def   SNR       Amp   Per   Mag1   Mag2       ID
SMF   000.70 294.8 m E Pg      2013/05/30 14:23:27.9   0.0                          T                                Md 2.1  5298238
SMF   000.70 294.8 m E P       2013/05/30 14:23:29.3   0.0                          T                                        5302475
SMF   000.70 294.8 m E Pn      2013/05/30 14:23:30.0  -0.1                          T                                        5302474
SMF   000.70 294.8 m E Sg      2013/05/30 14:23:37.3   0.1                          T                                        5302479
SMF   000.70 294.8 m E Sn      2013/05/30 14:23:41.1  -0.1                          T               19.1  .22                5298236
CABF  000.95 073.9 m E P       2013/05/30 14:23:34.6  -0.1                          T                                        5298248
CABF  000.95 073.9 m E Sn      2013/05/30 14:23:47.1  -0.2                          T                4.8  .32 Ml 2.0         5298247
AVF   001.07 294.6 m E Pg      2013/05/30 14:23:34.8   0.2                          T                                        5298237
AVF   001.07 294.6 m E Pn      2013/05/30 14:23:35.5   0.4                          T                                        5302476
AVF   001.07 294.6 m E Sn      2013/05/30 14:23:49.9   0.0                          T                4.5  .28 Ml 2.1         5298235
LOR   001.10 326.1 m E Pg      2013/05/30 14:23:35.3  -0.1                          T                                        5298243
LOR   001.10 326.1 m E Pn      2013/05/30 14:23:35.5  -0.1                          T                                        5302477
LOR   001.10 326.1 m E Sg      2013/05/30 14:23:49.9   0.0                          T                7.0  .26 Ml 2.3         5298242
SSF   001.12 309.7 m E Pg      2013/05/30 14:23:35.6   0.1                          T                                        5298244
SSF   001.12 309.7 m E P       2013/05/30 14:23:36.9  -0.3                          T                                        5302478
SSF   001.12 309.7 m E Sg      2013/05/30 14:23:50.0  -0.2                          T                5.0  .22 Ml 2.3         5298241
BGF   001.34 279.4 m E Pg      2013/05/30 14:23:39.8   0.1                          T                                        5298239
BGF   001.34 279.4 m E Sg      2013/05/30 14:23:57.2   0.0                          T                8.0  .30 Ml 2.4         5298240
TCF   001.77 268.7 m E Pn      2013/05/30 14:23:44.6  -0.1                          T                                        5298251
TCF   001.77 268.7 m E Sn      2013/05/30 14:24:05.7  -1.1                          T                  1  .24 Ml 1.8         5298234
SFTF  001.86 005.7 m E Pn      2013/05/30 14:23:46.3   0.3                          T                                        5298246

.
EVENT     300039
    Date      Time       Latitude Longitude    Depth    Ndef Nsta Gap    Mag1  N    Mag2  N    Mag3  N   Author         ID
       rms   OT_Error      Smajor Sminor Az        Err   mdist  Mdist     Err        Err        Err      Quality

2013/05/30 17:43:54.1     42.8761    -.0249      2.0       6    3 200  Ml 1.5  1  Md 1.4  2              bulletin    300139
                                                                                                         _ldg
      0.03   +-  0.02       1.7     .2  169.70 +-  0.0    0.31   1.71   +-         +-0.0                 m i ke

PYRENEES
Sta     Dist  EvAz     Phase      Date       Time     TRes  Azim  AzRes  Slow  SRes Def   SNR       Amp   Per   Mag1   Mag2       ID
EPF   000.31 060.0 m E Pg      2013/05/30 17:44:00.2   0.0                          T                                        5298417
EPF   000.31 060.0 m E Sg      2013/05/30 17:44:04.4   0.0                          T                4.6  .18        Md 1.4  5298415
ETSF  000.39 273.5 m E Pg      2013/05/30 17:44:01.8   0.0                          T                                        5298416
ETSF  000.39 273.5 m E Sg      2013/05/30 17:44:07.1   0.0                          T               10.4  .22        Md 1.4  5298414
MTLF  001.71 073.4 m E Pn      2013/05/30 17:44:23.2   0.0                          T                                        5298419
MTLF  001.71 073.4 m E Sn      2013/05/30 17:44:44.4   0.1                          T                 .7  .30 Ml 1.5         5298418

.
