EVENT     281359
    Date      Time       Latitude Longitude    Depth    Ndef Nsta Gap    Mag1  N    Mag2  N    Mag3  N   Author         ID
       rms   OT_Error      Smajor Sminor Az        Err   mdist  Mdist     Err        Err        Err      Quality

2012/08/18 05:50:36.8     42.9747     .1285      2.0      52    7 051  Ml 2.2  6  Md 2.2  2              bulletin    281459
                                                                                                         _ldg
      0.72   +-  0.09       2.1    1.5   12.45 +-  0.0    0.08   3.78   +-0.2      +-0.1                 m i ke

PYRENEES
Sta     Dist  EvAz     Phase      Date       Time     TRes  Azim  AzRes  Slow  SRes Def   SNR       Amp   Per   Mag1   Mag2       ID
EPF   000.16 070.2 m E Pg      2012/08/18 05:50:39.8  -0.5                          T                                        5047905
EPF   000.16 070.2 m E Sg      2012/08/18 05:50:42.3  -0.3                          T               59.7  .20        Md 2.3  5047896
ETSF  000.51 261.7 m E Pg      2012/08/18 05:50:46.3  -0.3                          T                                        5047904
ETSF  000.51 261.7 m E Sg      2012/08/18 05:50:52.7  -0.6                          T               19.4  .22        Md 2.1  5047899
MTLF  001.57 075.8 m E Pn      2012/08/18 05:51:05.6   1.6                          T                                        5047903
MTLF  001.57 075.8 m E Sn      2012/08/18 05:51:25.7   1.9                          T                5.9  .34 Ml 2.3         5047898
CAF   002.40 035.0 m E Pn      2012/08/18 05:51:16.3   1.0                          T                                        5047895
CAF   002.40 035.0 m E Sn      2012/08/18 05:51:45.2   1.6                          T                1.5  .16 Ml 2.3         5047894
RJF   002.53 022.7 m E Pn      2012/08/18 05:51:18.1   1.0                          T                                        5047907
RJF   002.53 022.7 m E Sn      2012/08/18 05:51:47.8   1.1                          T                5.0  .52 Ml 2.0         5047906
LASF  002.93 066.6 m E Pn      2012/08/18 05:51:22.6   0.1                          T                                        5051261
LASF  002.93 066.6 m E Pg      2012/08/18 05:51:31.2   0.1                          T                                        5051260
LASF  002.93 066.6 m E Sg      2012/08/18 05:52:08.2  -0.5                          T                1.9  .22 Ml 2.3         5051259
VIVF  003.78 058.6 m E Pn      2012/08/18 05:51:34.0  -0.1                          T                                        5051258
VIVF  003.78 058.6 m E Sg      2012/08/18 05:52:35.3  -0.1                          T                  1  .33 Ml 2.1         5051257

.
EVENT     281360
    Date      Time       Latitude Longitude    Depth    Ndef Nsta Gap    Mag1  N    Mag2  N    Mag3  N   Author         ID
       rms   OT_Error      Smajor Sminor Az        Err   mdist  Mdist     Err        Err        Err      Quality

2012/08/18 07:07:27.5     43.9660    7.4704      2.0      18    4 082  Ml 1.6  3  Md 2.0  1              bulletin    281460
                                                                                                         _ldg
      0.24   +-  0.05       1.1    1.0    2.84 +-  0.0    0.06   1.37   +-0.4      +-                    m i ke

NEAR SOUTH COAST OF FRANCE
Sta     Dist  EvAz     Phase      Date       Time     TRes  Azim  AzRes  Slow  SRes Def   SNR       Amp   Per   Mag1   Mag2       ID
FRF   000.72 236.1 m E Pg      2012/08/18 07:07:41.1   0.0                          T                                        5047911
FRF   000.72 236.1 m E Sg      2012/08/18 07:07:50.6   0.0                          T                3.2  .20        Md 2.0  5047909
MBDF  000.91 326.9 m E Pg      2012/08/18 07:07:44.8   0.0                          T                                        5055560
MBDF  000.91 326.9 m E Sg      2012/08/18 07:07:56.6  -0.1                          T                1.2  .29 Ml 1.4         5055561
LMR   000.94 228.2 m E Pg      2012/08/18 07:07:45.0  -0.1                          T                                        5047910
LMR   000.94 228.2 m E Sg      2012/08/18 07:07:57.5   0.1                          T                4.1  .26 Ml 2.0         5047908
SMRF  001.37 271.1 m E Sg      2012/08/18 07:08:10.7  -0.1                          T                 .6  .24 Ml 1.4         5055559

.
EVENT     281361
    Date      Time       Latitude Longitude    Depth    Ndef Nsta Gap    Mag1  N    Mag2  N    Mag3  N   Author         ID
       rms   OT_Error      Smajor Sminor Az        Err   mdist  Mdist     Err        Err        Err      Quality

2012/08/18 09:42:00.2     44.8194    6.6719      2.0      16    7 137  Ml 1.7  4  Md 1.7  2              bulletin    281461
                                                                                                         _ldg
      1.13   +-  0.17       3.5    1.9   47.53 +-  0.0    0.12   1.49   +-0.2      +-0.0                 m i ke

FRANCE
Sta     Dist  EvAz     Phase      Date       Time     TRes  Azim  AzRes  Slow  SRes Def   SNR       Amp   Per   Mag1   Mag2       ID
MBDF  000.12 142.5 m E Pg      2012/08/18 09:42:02.7  -0.2                          T                                        5047919
MBDF  000.12 142.5 m E Sg      2012/08/18 09:42:04.5  -0.2                          T               32.5  .26        Md 1.8  5047916
ORIF  000.57 280.2 m E Pg      2012/08/18 09:42:11.2   0.0                          T                                        5047918
ORIF  000.57 280.2 m E Sg      2012/08/18 09:42:18.8   0.1                          T                4.6  .22        Md 1.7  5047915
LPG   000.68 004.7 m E Sg      2012/08/18 09:42:21.8  -0.5                          T                2.1  .28                5055591
SMRF  001.15 223.4 m E Pg      2012/08/18 09:42:22.0   0.3                          T                                        5055584
SMRF  001.15 223.4 m E P       2012/08/18 09:42:23.6   0.2                          T                                        5055585
SMRF  001.15 223.4 m E Sn      2012/08/18 09:42:37.2   0.1                          T                2.2  .33 Ml 1.7         5055590
FRF   001.26 180.8 m E Pg      2012/08/18 09:42:23.8   0.1                          T                                        5055586
FRF   001.26 180.8 m E P       2012/08/18 09:42:24.8   0.0                          T                                        5055587
FRF   001.26 180.8 m E Sg      2012/08/18 09:42:40.1   0.1                          T                2.4  .28 Ml 1.9         5055589
VIVF  001.42 272.2 m E Pg      2012/08/18 09:42:26.7  -0.1                          T                                        5055582
VIVF  001.42 272.2 m E Sn      2012/08/18 09:42:43.0  -0.6                          T                 .6  .29 Ml 1.4         5055583
LMR   001.49 184.6 m E Sg      2012/08/18 09:42:47.3   0.1                          T                  1  .25 Ml 1.6         5055588

.
EVENT     281363
    Date      Time       Latitude Longitude    Depth    Ndef Nsta Gap    Mag1  N    Mag2  N    Mag3  N   Author         ID
       rms   OT_Error      Smajor Sminor Az        Err   mdist  Mdist     Err        Err        Err      Quality

2012/08/18 13:41:38.3     45.5273    2.7592       .0 f    22   10 185  Ml 1.9  7  Md 1.9  5              bulletin    281463
                                                                                                         _ldg
      0.24   +-  0.10       2.6     .9  126.13 +-  0.0    0.59   2.29   +-0.3      +-0.0                 m i km

FRANCE
Sta     Dist  EvAz     Phase      Date       Time     TRes  Azim  AzRes  Slow  SRes Def   SNR       Amp   Per   Mag1   Mag2       ID
CAF   000.78 219.5 m E Pg      2012/08/18 13:41:53.1  -0.1                          T                                        5048062
CAF   000.78 219.5 m E Sg      2012/08/18 13:42:03.4  -0.2                          T                                        5055607
CAF   000.78 219.5 m E Sn      2012/08/18 13:42:05.4  -1.5                          T                9.8  .28        Md 1.8  5048061
TCF   000.85 333.5 m E Pg      2012/08/18 13:41:54.5  -0.1                          T                                        5048067
TCF   000.85 333.5 m E Sg      2012/08/18 13:42:05.8  -0.1                          T                1.7  .12        Md 1.9  5048068
RJF   000.90 256.2 m E Pg      2012/08/18 13:41:55.4  -0.1                          T                                        5048064
RJF   000.90 256.2 m E Sg      2012/08/18 13:42:06.2  -1.2                          T                                        5055606
RJF   000.90 256.2 m E Sn      2012/08/18 13:42:09.1  -0.8                          T                6.0  .30 Ml 1.7 Md 1.9  5048063
BGF   001.03 003.3 m E Pg      2012/08/18 13:41:57.8  -0.1                          T                                        5048066
BGF   001.03 003.3 m E Sg      2012/08/18 13:42:11.7   0.2                          T               14.2  .34 Ml 2.4 Md 1.9  5048065
AVF   001.33 017.9 m E Pg      2012/08/18 13:42:03.1  -0.2                          T                                        5048060
AVF   001.33 017.9 m E Sg      2012/08/18 13:42:20.8   0.0                          T                1.6  .27 Ml 1.7         5048059
SMF   001.35 033.6 m E Pg      2012/08/18 13:42:03.8   0.1                          T                                        5048078
SMF   001.35 033.6 m E Sg      2012/08/18 13:42:20.8  -0.5                          T                 .7  .18 Ml 1.6         5048077
LFF   001.54 248.3 m E Pn      2012/08/18 13:42:05.8   0.3                          T                                        5048070
LFF   001.54 248.3 m E Pg      2012/08/18 13:42:07.4   0.1                          T                                        5048071
LFF   001.54 248.3 m E Sg      2012/08/18 13:42:27.5   0.1                          T                3.3  .25 Ml 2.0         5048069
HYF   001.74 357.3 m E Pn      2012/08/18 13:42:08.5   0.2                          T                                        5048072
SSF   001.62 018.4 m E Pg      2012/08/18 13:42:08.7   0.0                          T                                        5048076
SSF   001.62 018.4 m E Sg      2012/08/18 13:42:29.6  -0.3                          T                 .9  .20 Ml 1.8         5048075
MFF   002.29 299.0 m E Pn      2012/08/18 13:42:15.9   0.2                          T                                        5048074
MFF   002.29 299.0 m E Sn      2012/08/18 13:42:42.8  -0.3                          T                1.4  .37 Ml 2.0         5048073

.
EVENT     281366
    Date      Time       Latitude Longitude    Depth    Ndef Nsta Gap    Mag1  N    Mag2  N    Mag3  N   Author         ID
       rms   OT_Error      Smajor Sminor Az        Err   mdist  Mdist     Err        Err        Err      Quality

2012/08/18 22:39:15.6     44.3307    7.4130     10.0      19    3 117  Ml 1.3  2  Md 1.4  1              bulletin    281466
                                                                                                         _ldg
      0.22   +-  0.05       1.2     .8   57.72 +-  0.0    0.10   1.19   +-0.1      +-                    m i ke

NORTHERN ITALY
Sta     Dist  EvAz     Phase      Date       Time     TRes  Azim  AzRes  Slow  SRes Def   SNR       Amp   Per   Mag1   Mag2       ID
MBDF  000.61 311.0 m E Pg      2012/08/18 22:39:27.5   0.2                          T                                        5048117
MBDF  000.61 311.0 m E Pn      2012/08/18 22:39:28.7  -0.2                          T                                        5048112
MBDF  000.61 311.0 m E Sg      2012/08/18 22:39:35.5   0.1                          T                 .7  .20        Md 1.4  5048113
FRF   000.95 216.0 m E Pg      2012/08/18 22:39:33.6   0.2                          T                                        5048116
FRF   000.95 216.0 m E Sg      2012/08/18 22:39:45.8   0.0                          T                 .4  .15 Ml 1.2         5048114
LMR   001.19 213.6 m E Pn      2012/08/18 22:39:36.5  -0.2                          T                                        5048111
LMR   001.19 213.6 m E Sg      2012/08/18 22:39:53.4   0.0                          T                 .5  .19 Ml 1.3         5048115

.
EVENT     281367
    Date      Time       Latitude Longitude    Depth    Ndef Nsta Gap    Mag1  N    Mag2  N    Mag3  N   Author         ID
       rms   OT_Error      Smajor Sminor Az        Err   mdist  Mdist     Err        Err        Err      Quality

2012/08/18 23:39:03.0     44.4875    6.6898      2.0      39    9 052  Ml 2.1  6  Md 2.3  2              bulletin    281467
                                                                                                         _ldg
      0.43   +-  0.06       1.3    1.0   56.97 +-  0.0    0.09   2.57   +-0.3      +-0.2                 m i ke

FRANCE
Sta     Dist  EvAz     Phase      Date       Time     TRes  Azim  AzRes  Slow  SRes Def   SNR       Amp   Per   Mag1   Mag2       ID
MBDF  000.25 013.7 m E Pg      2012/08/18 23:39:08.0   0.0                          T                                        5048125
MBDF  000.25 013.7 m E Sg      2012/08/18 23:39:11.1  -0.3                          T               25.8  .36        Md 2.5  5048130
ORIF  000.72 307.0 m E Pg      2012/08/18 23:39:16.5  -0.1                          T                                        5048124
ORIF  000.72 307.0 m E Sg      2012/08/18 23:39:25.4  -0.7                          T                                        5048129
FRF   000.93 181.9 m E Pg      2012/08/18 23:39:20.4   0.1                          T                                        5048120
FRF   000.93 181.9 m E Sg      2012/08/18 23:39:32.6   0.2                          T                9.3  .26 Ml 2.4         5048139
SMRF  000.95 237.8 m E Pn      2012/08/18 23:39:22.0   0.3                          T                                        5048121
SMRF  000.95 237.8 m E Sg      2012/08/18 23:39:32.9  -0.3                          T                7.7  .34 Ml 2.1 Md 2.2  5048131
LPG   001.01 002.5 m E Pg      2012/08/18 23:39:22.3   0.1                          T                                        5048122
LPG   001.01 002.5 m E Sg      2012/08/18 23:39:35.0  -0.4                          T                3.9  .30 Ml 1.9         5048132
LPL   001.03 001.7 m E Pg      2012/08/18 23:39:22.9   0.3                          T                                        5048123
LPL   001.03 001.7 m E Sn      2012/08/18 23:39:37.1  -0.2                          T                3.4  .37 Ml 1.8         5048126
LMR   001.16 186.5 m E Pg      2012/08/18 23:39:25.2   0.6                          T                                        5048119
LMR   001.16 186.5 m E Sg      2012/08/18 23:39:40.2   0.5                          T                5.4  .19 Ml 2.4         5048140
VIVF  001.49 285.1 m E Pn      2012/08/18 23:39:29.1   0.0                          T                                        5048128
VIVF  001.49 285.1 m E Pg      2012/08/18 23:39:30.2  -0.5                          T                                        5048118
VIVF  001.49 285.1 m E Sg      2012/08/18 23:39:49.7  -0.1                          T                1.7  .29 Ml 1.8         5048127
PGF   002.57 138.3 m E Pn      2012/08/18 23:39:44.6   0.8                          T                                        5048138
PGF   002.57 138.3 m E Sn      2012/08/18 23:40:14.1   0.3                          T                                        5048137

.
EVENT     281368
    Date      Time       Latitude Longitude    Depth    Ndef Nsta Gap    Mag1  N    Mag2  N    Mag3  N   Author         ID
       rms   OT_Error      Smajor Sminor Az        Err   mdist  Mdist     Err        Err        Err      Quality

2012/08/18 23:45:45.5     46.6007    8.3892      9.0 f    36   10 056  Ml 2.0  9  Md 2.5  2              bulletin    281468
                                                                                                         _ldg
      0.26   +-  0.04       1.0     .8  138.68 +-  0.0    0.05   3.18   +-0.2      +-0.2                 m i ke

SWITZERLAND
Sta     Dist  EvAz     Phase      Date       Time     TRes  Azim  AzRes  Slow  SRes Def   SNR       Amp   Per   Mag1   Mag2       ID
HINF  001.61 319.8 m E P       2012/08/18 23:46:14.0  -0.4                          T                                        5048145
HINF  001.61 319.8 m E Sg      2012/08/18 23:46:35.7  -0.5                          T                1.5  .22 Ml 1.9 Md 2.6  5048154
LPG   001.59 226.5 m E Pg      2012/08/18 23:46:15.1  -0.3                          T                                        5048141
LPG   001.59 226.5 m E Sg      2012/08/18 23:46:35.7  -0.3                          T                1.7  .22 Ml 2.0         5048158
LPL   001.58 227.4 m E Pg      2012/08/18 23:46:15.3   0.1                          T                                        5048142
LPL   001.58 227.4 m E Sg      2012/08/18 23:46:36.4   0.7                          T                1.0  .27 Ml 1.6 Md 2.3  5048159
CABF  001.59 271.2 m E Pg      2012/08/18 23:46:15.5   0.3                          T                                        5048146
CABF  001.59 271.2 m E Sg      2012/08/18 23:46:35.9   0.2                          T                2.7  .21 Ml 2.2         5048155
HAU   001.98 316.1 m E Pn      2012/08/18 23:46:17.1  -0.3                          T                                        5055632
HAU   001.98 316.1 m E P       2012/08/18 23:46:19.3  -0.4                          T                                        5048163
HAU   001.98 316.1 m E Pg      2012/08/18 23:46:22.1  -0.1                          T                                        5055631
HAU   001.98 316.1 m E Sn      2012/08/18 23:46:40.6  -0.2                          T                                        5048165
HAU   001.98 316.1 m E Sg      2012/08/18 23:46:48.0   0.2                          T                1.7  .24 Ml 1.8         5048164
CDF   001.96 337.8 m E P       2012/08/18 23:46:18.8  -0.8                          T                                        5048144
CDF   001.96 337.8 m E Sg      2012/08/18 23:46:47.2  -0.3                          T                1.6  .23 Ml 2.1         5048153
MBDF  002.19 211.8 m E Pg      2012/08/18 23:46:25.6  -0.7                          T                                        5048143
MBDF  002.19 211.8 m E Sg      2012/08/18 23:46:53.9  -0.7                          T                2.3  .40 Ml 2.0         5048157
ORIF  002.43 227.1 m E Pg      2012/08/18 23:46:30.9   0.2                          T                                        5048161
ORIF  002.43 227.1 m E Sg      2012/08/18 23:47:01.3  -0.8                          T                1.1  .29 Ml 1.9         5048160
SMF   003.13 272.5 m E Pg      2012/08/18 23:46:43.5  -0.1                          T                                        5048162
SMF   003.13 272.5 m E Sg      2012/08/18 23:47:24.0   0.1                          T                1.2  .21 Ml 2.2         5048156
LOR   003.18 283.8 m E Pg      2012/08/18 23:46:44.5   0.2                          T                                        5055633

.
