EVENT     268592
    Date      Time       Latitude Longitude    Depth    Ndef Nsta Gap    Mag1  N    Mag2  N    Mag3  N   Author         ID
       rms   OT_Error      Smajor Sminor Az        Err   mdist  Mdist     Err        Err        Err      Quality

2012/01/13 20:13:43.2     49.8427   -2.3662     10.0      34   12 153  Ml 2.7 12                         js067245    268612

      1.48   +-  0.18       4.1    2.4   35.01 +-  0.0    0.68   6.03   +-0.2                            m i ke

FRANCE
Sta     Dist  EvAz     Phase      Date       Time     TRes  Azim  AzRes  Slow  SRes Def   SNR       Amp   Per   Mag1   Mag2       ID
FLN   001.64 130.5 m E Pn      2012/01/13 20:14:09.7  -0.7 313.8  1.9               T                                        4815104
FLN   001.64 130.5 m E Pg      2012/01/13 20:14:13.8   0.0 317.1  5.1               T                                        4815107
FLN   001.64 130.5 m E Sg      2012/01/13 20:14:35.5   0.5 313.3  1.3               T               12.6  .24 Ml 2.7         4815099
SGMF  001.59 184.6 m E Pn      2012/01/13 20:14:09.9   0.1                          T                                        4815102
SGMF  001.59 184.6 m E Pg      2012/01/13 20:14:12.5  -0.4                          T                                        4815109
SGMF  001.59 184.6 m E Sg      2012/01/13 20:14:32.4  -1.2                          T                9.9  .28 Ml 2.6         4815101
GRR   001.76 145.2 m E Pn      2012/01/13 20:14:11.7  -0.4                          T                                        4815105
GRR   001.76 145.2 m E Pg      2012/01/13 20:14:15.5  -0.5                          T                                        4815106
GRR   001.76 145.2 m E Sg      2012/01/13 20:14:38.3  -0.4                          T                7.7  .16 Ml 2.7         4815098
LDF   001.93 129.5 m E Pn      2012/01/13 20:14:14.5   0.1                          T                                        4815117
LDF   001.93 129.5 m E Sg      2012/01/13 20:14:44.6   0.5                          T               13.8  .32 Ml 2.8         4815097
QUIF  002.00 195.6 m E Pn      2012/01/13 20:14:15.5   0.1                          T                                        4815103
QUIF  002.00 195.6 m E Pg      2012/01/13 20:14:19.8  -0.5                          T                                        4815108
QUIF  002.00 195.6 m E Sg      2012/01/13 20:14:44.6  -1.5                          T               13.6  .27 Ml 2.9         4815100
MFF   003.57 154.6 m E Pn      2012/01/13 20:14:36.9   0.2                          T                                        4815118
MFF   003.57 154.6 m E Pg      2012/01/13 20:14:49.4   0.1                          T                                        4815119
MFF   003.57 154.6 m E Sg      2012/01/13 20:15:36.0   0.9                          T                2.5  .26 Ml 2.7         4815114
TCF   004.70 137.5 m E Sn      2012/01/13 20:15:42.7  -0.7                          T                2.6  .24 Ml 2.9         4815126
SSF   004.80 123.2 m E Sn      2012/01/13 20:15:44.9  -0.9                          T                                        4815125
SSF   004.80 123.2 m E Sg      2012/01/13 20:16:14.2   0.7                          T                1.4  .33 Ml 2.6         4815115
BGF   004.79 131.3 m E Sn      2012/01/13 20:15:45.2  -0.4                          T                                        4815122
LOR   004.87 119.6 m E Sn      2012/01/13 20:15:47.4  -0.1                          T                                        4815124
LOR   004.87 119.6 m E Sg      2012/01/13 20:16:15.8   0.0 316.8  12.6              T                1.2  .29 Ml 2.5         4815116
LFF   005.34 155.6 m E Sn      2012/01/13 20:15:59.9   1.1                          T                2.2  .32 Ml 2.6         4815120
HAU   006.03 104.4 m E Sn      2012/01/13 20:16:14.3  -1.0                          T                                        4815123

.
EVENT     268593
    Date      Time       Latitude Longitude    Depth    Ndef Nsta Gap    Mag1  N    Mag2  N    Mag3  N   Author         ID
       rms   OT_Error      Smajor Sminor Az        Err   mdist  Mdist     Err        Err        Err      Quality

2012/01/13 22:33:55.9     42.9611     .0756      2.0       8    4 186  Ml 1.1  2  Md 1.5  2              js067245    268613

      0.22   +-  0.14      11.6    1.3  171.90 +-  0.0    0.21   1.61   +-0.6      +-0.1                 m i ke

PYRENEES
Sta     Dist  EvAz     Phase      Date       Time     TRes  Azim  AzRes  Slow  SRes Def   SNR       Amp   Per   Mag1   Mag2       ID
EPF   000.21 070.3 m E Pg      2012/01/13 22:33:59.9  -0.3                          T                                        4815605
EPF   000.21 070.3 m E Sg      2012/01/13 22:34:03.2   0.2                          T               15.3  .24        Md 1.5  4815606
ETSF  000.47 262.6 m E Pg      2012/01/13 22:34:05.0   0.0                          T                                        4815603
ETSF  000.47 262.6 m E Sg      2012/01/13 22:34:11.5   0.3                          T                1.5  .28        Md 1.6  4815604
SJPF  000.97 279.5 m E Pg      2012/01/13 22:34:14.0   0.0                          T                                        4815599
SJPF  000.97 279.5 m E Sg      2012/01/13 22:34:26.5  -0.1                          T                 .2  .21 Ml  .7         4815600
MTLF  001.61 075.7 m E Pg      2012/01/13 22:34:25.9  -0.1                          T                                        4815601
MTLF  001.61 075.7 m E Sg      2012/01/13 22:34:47.3   0.5                          T                 .6  .22 Ml 1.5         4815602

.
EVENT     268742
    Date      Time       Latitude Longitude    Depth    Ndef Nsta Gap    Mag1  N    Mag2  N    Mag3  N   Author         ID
       rms   OT_Error      Smajor Sminor Az        Err   mdist  Mdist     Err        Err        Err      Quality

2012/01/14 00:09:52.1     42.4730    1.8454      5.0 f    17    3 068  Ml 0.9  3                         js067245    268762

      0.27   +-  0.05       1.2     .7   11.43 +-  0.0    0.10   1.82   +-0.1                            m i ke

PYRENEES
Sta     Dist  EvAz     Phase      Date       Time     TRes  Azim  AzRes  Slow  SRes Def   SNR       Amp   Per   Mag1   Mag2       ID
MTLF  000.91 017.4 m E Pn      2012/01/14 00:10:09.9  -0.1                          T                                        4816721
MTLF  000.91 017.4 m E Sg      2012/01/14 00:10:20.9  -0.2                          T                                        4816722
MTLF  000.91 017.4 m E Sn      2012/01/14 00:10:22.8   0.1                          T                 .2  .17 Ml  .9         4816723
EPF   001.24 297.2 m E Pg      2012/01/14 00:10:15.4   0.0                          T                                        4816719
EPF   001.24 297.2 m E Sg      2012/01/14 00:10:31.4  -0.1                          T                 .2  .22 Ml  .9         4816720
ETSF  001.82 284.3 m E Sg      2012/01/14 00:10:49.6  -0.1                          T                 .2  .26 Ml 1.1         4816718

.
EVENT     268594
    Date      Time       Latitude Longitude    Depth    Ndef Nsta Gap    Mag1  N    Mag2  N    Mag3  N   Author         ID
       rms   OT_Error      Smajor Sminor Az        Err   mdist  Mdist     Err        Err        Err      Quality

2012/01/14 01:32:32.4     43.0801    -.2318      2.0       8    4 167  Ml 1.3  1  Md 1.5  2              js067245    268614

      0.25   +-  0.10       5.5    1.5  171.58 +-  0.0    0.30   1.81   +-         +-0.0                 m i ke

PYRENEES
Sta     Dist  EvAz     Phase      Date       Time     TRes  Azim  AzRes  Slow  SRes Def   SNR       Amp   Per   Mag1   Mag2       ID
ETSF  000.30 233.1 m E Pg      2012/01/14 01:32:38.6   0.2                          T                                        4815619
ETSF  000.30 233.1 m E Sg      2012/01/14 01:32:41.9  -0.6                          T                5.4  .22        Md 1.4  4815620
EPF   000.42 096.6 m E Pg      2012/01/14 01:32:40.5  -0.1                          T                                        4815617
EPF   000.42 096.6 m E Sg      2012/01/14 01:32:46.1  -0.1                          T                1.8  .28        Md 1.5  4815618
SJPF  000.73 272.9 m E Pg      2012/01/14 01:32:45.9  -0.3                          T                                        4815615
SJPF  000.73 272.9 m E Sg      2012/01/14 01:32:56.0   0.3                          T                 .6  .26                4815616
MTLF  001.81 080.9 m E Pg      2012/01/14 01:33:06.2   0.0                          T                                        4815613
MTLF  001.81 080.9 m E Sg      2012/01/14 01:33:29.2  -0.2                          T                 .3  .20 Ml 1.3         4815614

.
EVENT     268595
    Date      Time       Latitude Longitude    Depth    Ndef Nsta Gap    Mag1  N    Mag2  N    Mag3  N   Author         ID
       rms   OT_Error      Smajor Sminor Az        Err   mdist  Mdist     Err        Err        Err      Quality

2012/01/14 05:04:18.8     43.1355    -.6435      2.0      14    4 165  Ml 1.0  1  Md 1.4  2              js067245    268615

      0.68   +-  0.26       6.4    3.0  179.69 +-  0.0    0.06   2.10   +-         +-0.1                 m i ke

PYRENEES
Sta     Dist  EvAz     Phase      Date       Time     TRes  Azim  AzRes  Slow  SRes Def   SNR       Amp   Per   Mag1   Mag2       ID
ETSF  000.24 165.3 m E Pg      2012/01/14 05:04:23.2  -0.6                          T                                        4815626
ETSF  000.24 165.3 m E Sg      2012/01/14 05:04:26.1  -1.1                          T               12.3  .22        Md 1.3  4815627
SJPF  000.43 267.2 m E Pg      2012/01/14 05:04:25.6  -1.4                          T                                        4815624
SJPF  000.43 267.2 m E Sg      2012/01/14 05:04:30.7  -2.0                          T                2.8  .22        Md 1.5  4815625
EPF   000.73 098.0 m E Pg      2012/01/14 05:04:32.6  -0.1                          T                                        4815622
EPF   000.73 098.0 m E Sg      2012/01/14 05:04:42.9   0.7                          T                 .7  .26                4815623
MTLF  002.10 083.4 m E Sg      2012/01/14 05:05:24.9   0.0                          T                 .1  .16 Ml 1           4815621

.
EVENT     268596
    Date      Time       Latitude Longitude    Depth    Ndef Nsta Gap    Mag1  N    Mag2  N    Mag3  N   Author         ID
       rms   OT_Error      Smajor Sminor Az        Err   mdist  Mdist     Err        Err        Err      Quality

2012/01/14 05:16:36.7     43.0270    -.1914      2.0       8    4 162  Ml 1.2  1  Md 1.4  2              js067245    268616

      0.18   +-  0.07       5.2    1.1  172.61 +-  0.0    0.30   1.79   +-         +-0.0                 m i ke

PYRENEES
Sta     Dist  EvAz     Phase      Date       Time     TRes  Azim  AzRes  Slow  SRes Def   SNR       Amp   Per   Mag1   Mag2       ID
ETSF  000.30 244.7 m E Pg      2012/01/14 05:16:42.8   0.2                          T                                        4815634
ETSF  000.30 244.7 m E Sg      2012/01/14 05:16:46.1  -0.5                          T                3.8  .27        Md 1.4  4815635
EPF   000.39 089.3 m E Pg      2012/01/14 05:16:44.2   0.0                          T                                        4815632
EPF   000.39 089.3 m E Sg      2012/01/14 05:16:49.6   0.2                          T                3.4  .25        Md 1.4  4815633
SJPF  000.76 276.8 m E Pg      2012/01/14 05:16:51.1   0.0                          T                                        4815628
SJPF  000.76 276.8 m E Sg      2012/01/14 05:17:01.0   0.0                          T                 .5  .21                4815631
MTLF  001.79 079.1 m E Pg      2012/01/14 05:17:09.9  -0.1                          T                                        4815629
MTLF  001.79 079.1 m E Sg      2012/01/14 05:17:33.1   0.0                          T                 .2  .18 Ml 1.2         4815630

.
EVENT     268597
    Date      Time       Latitude Longitude    Depth    Ndef Nsta Gap    Mag1  N    Mag2  N    Mag3  N   Author         ID
       rms   OT_Error      Smajor Sminor Az        Err   mdist  Mdist     Err        Err        Err      Quality

2012/01/14 09:16:59.9     45.0400    7.1659      2.0      14    7 203  Ml 1.8  4  Md 1.7  1              js067245    268617

      0.22   +-  0.11       2.3    1.1   74.91 +-  0.0    0.42   1.78   +-0.3      +-                    m i ke

NORTHERN ITALY
Sta     Dist  EvAz     Phase      Date       Time     TRes  Azim  AzRes  Slow  SRes Def   SNR       Amp   Per   Mag1   Mag2       ID
MBDF  000.42 222.0 m E Pg      2012/01/14 09:17:08.4   0.2                          T                                        4815654
MBDF  000.42 222.0 m E Sg      2012/01/14 09:17:13.7  -0.1                          T                6.0  .26        Md 1.7  4815655
LPG   000.54 327.5 m E Pg      2012/01/14 09:17:10.6   0.0                          T                                        4815649
LPG   000.54 327.5 m E Sg      2012/01/14 09:17:18.0   0.3                          T                3.7  .22                4815650
LPL   000.57 327.4 m E Pg      2012/01/14 09:17:10.8  -0.1                          T                                        4815651
LPL   000.57 327.4 m E Sg      2012/01/14 09:17:18.4   0.0                          T                4.3  .24                4815652
ORIF  000.92 262.9 m E Pg      2012/01/14 09:17:17.2  -0.2                          T                                        4815642
ORIF  000.92 262.9 m E Sg      2012/01/14 09:17:30.0   0.7                          T                2.3  .29 Ml 1.7         4815653
SBF   001.19 170.6 m E Pg      2012/01/14 09:17:22.3   0.1                          T                                        4815645
SBF   001.19 170.6 m E Sg      2012/01/14 09:17:37.9   0.2                          T                3.0  .25 Ml 2.0         4815646
FRF   001.53 194.3 m E Pg      2012/01/14 09:17:28.1  -0.2                          T                                        4815644
FRF   001.53 194.3 m E Sg      2012/01/14 09:17:48.0  -0.1                          T                3.4  .32 Ml 2.1         4815647
VIVF  001.78 264.9 m E Pg      2012/01/14 09:17:32.9  -0.2                          T                                        4815643
VIVF  001.78 264.9 m E Sg      2012/01/14 09:17:55.8  -0.3                          T                 .4  .21 Ml 1.5         4815648

.
EVENT     268598
    Date      Time       Latitude Longitude    Depth    Ndef Nsta Gap    Mag1  N    Mag2  N    Mag3  N   Author         ID
       rms   OT_Error      Smajor Sminor Az        Err   mdist  Mdist     Err        Err        Err      Quality

2012/01/14 10:09:13.7     47.2218    7.7533       .0 f     6    4 287  Ml 2.1  3  Md 2.1  1              js067245    268618

      0.78   +-  1.43      27.2   10.0   90.20 +-  0.0    0.85   1.56   +-0.2      +-                    m i km

SWITZERLAND
Sta     Dist  EvAz     Phase      Date       Time     TRes  Azim  AzRes  Slow  SRes Def   SNR       Amp   Per   Mag1   Mag2       ID
HINF  000.85 314.6 m E Pg      2012/01/14 10:09:30.2   0.2                          T                                        4815658
HINF  000.85 314.6 m E Sg      2012/01/14 10:09:42.7   1.3                          T               13.8  .26        Md 2.1  4815659
CABF  001.30 242.5 m E Pg      2012/01/14 10:09:38.1  -0.2                          T                                        4815656
CABF  001.30 242.5 m E Sg      2012/01/14 10:09:55.9   0.7                          T                3.1  .30 Ml 2.0         4815657
HAU   001.23 310.0 m E Sg      2012/01/14 10:09:51.7  -1.5                          T                6.0  .26 Ml 2.1         4815684
THEF  001.56 310.9 m E Sg      2012/01/14 10:10:03.1  -0.2                          T                4.4  .25 Ml 2.3         4815683

.
EVENT     268599
    Date      Time       Latitude Longitude    Depth    Ndef Nsta Gap    Mag1  N    Mag2  N    Mag3  N   Author         ID
       rms   OT_Error      Smajor Sminor Az        Err   mdist  Mdist     Err        Err        Err      Quality

2012/01/14 12:09:09.6     44.6237    7.4934     25.0       9    6 214  Ml 1.8  4  Md 1.7  2              js067245    268619

      0.18   +-  0.15       2.9    1.3   68.50 +-  0.0    0.53   1.52   +-0.3      +-0.0                 m i ke

NORTHERN ITALY
Sta     Dist  EvAz     Phase      Date       Time     TRes  Azim  AzRes  Slow  SRes Def   SNR       Amp   Per   Mag1   Mag2       ID
MBDF  000.53 281.6 m E Pg      2012/01/14 12:09:20.6   0.0                          T                                        4815776
MBDF  000.53 281.6 m E Sg      2012/01/14 12:09:28.2   0.1                          T                1.4  .19        Md 1.7  4815777
SBF   000.76 183.2 m E Pg      2012/01/14 12:09:24.7   0.1                          T                                        4815772
SBF   000.76 183.2 m E Sg      2012/01/14 12:09:35.0   0.0                          T                3.6  .24        Md 1.6  4815773
FRF   001.23 210.1 m E Pg      2012/01/14 12:09:32.9   0.1                          T                                        4815771
FRF   001.23 210.1 m E Sg      2012/01/14 12:09:48.7  -0.3                          T                1.7  .17 Ml 2.0         4815775
LPL   001.04 329.1 m E Sg      2012/01/14 12:09:43.5  -0.1                          T                1.5  .24 Ml 1.6         4815770
LMR   001.47 209.2 m E Sg      2012/01/14 12:09:56.2  -0.4                          T                3.2  .21 Ml 2.2         4815774
SMRF  001.52 245.5 m E Sg      2012/01/14 12:09:58.5   0.3                          T                 .7  .26 Ml 1.5         4815769

.
EVENT     268612
    Date      Time       Latitude Longitude    Depth    Ndef Nsta Gap    Mag1  N    Mag2  N    Mag3  N   Author         ID
       rms   OT_Error      Smajor Sminor Az        Err   mdist  Mdist     Err        Err        Err      Quality

2012/01/14 17:37:54.5     49.1963    8.1221     10.0      15    6 082  Ml 1.8  5  Md 1.8  1              js067245    268632

      0.35   +-  0.06       1.5    1.0  122.74 +-  0.0    0.01   2.27   +-0.5      +-                    m i ke

GERMANY
Sta     Dist  EvAz     Phase      Date       Time     TRes  Azim  AzRes  Slow  SRes Def   SNR       Amp   Per   Mag1   Mag2       ID
LANF  000.30 224.1 m E Pg      2012/01/14 17:38:00.5  -0.1                          T                                        4815787
LANF  000.30 224.1 m E Sg      2012/01/14 17:38:04.6  -0.1                          T                                Md 1.8  4815788
HINF  001.62 211.9 m E Pg      2012/01/14 17:38:24.6  -0.2                          T                                        4815784
HINF  001.62 211.9 m E Sg      2012/01/14 17:38:45.5  -0.2                          T                1.5  .28 Ml 1.8         4815778
HAU   001.68 225.3 m E Pg      2012/01/14 17:38:25.4  -0.3                          T                                        4815785
HAU   001.68 225.3 m E Sg      2012/01/14 17:38:47.5   0.2                          T                1.8  .27 Ml 1.7         4815779
THEF  001.71 236.3 m E Pg      2012/01/14 17:38:26.3   0.0                          T                                        4815786
THEF  001.71 236.3 m E Sg      2012/01/14 17:38:48.5   0.0                          T                4.3  .24 Ml 2.4         4815780
PAGF  001.71 248.8 m E Pg      2012/01/14 17:38:26.5   0.1                          T                                        4815783
PAGF  001.71 248.8 m E Sg      2012/01/14 17:38:48.5   0.2                          T                 .3  .34 Ml 1.1         4815782
SFTF  002.27 245.3 m E Sg      2012/01/14 17:39:06.2   0.2                          T                1.6  .28 Ml 2.0         4815781

.
