EVENT     268078
    Date      Time       Latitude Longitude    Depth    Ndef Nsta Gap    Mag1  N    Mag2  N    Mag3  N   Author         ID
       rms   OT_Error      Smajor Sminor Az        Err   mdist  Mdist     Err        Err        Err      Quality

2012/01/03 18:22:28.6     47.1053    1.5455      3.0 f    94   30 066  Ml 3.1 37  Md 2.7  5              js067245    268098

      0.68   +-  0.05       1.1     .9   22.24 +-  0.0    0.76   4.16   +-0.3      +-0.1                 m i ke

FRANCE
Sta     Dist  EvAz     Phase      Date       Time     TRes  Azim  AzRes  Slow  SRes Def   SNR       Amp   Per   Mag1   Mag2       ID
HYF   000.76 077.3 m E Pg      2012/01/03 18:22:42.8  -0.2                          T                                        4807907
HYF   000.76 077.3 m E P       2012/01/03 18:22:44.0  -0.7                          T                                        4807922
HYF   000.76 077.3 m E Pn      2012/01/03 18:22:45.0   0.2                          T                                        4807908
HYF   000.76 077.3 m E Sg      2012/01/03 18:22:52.6  -0.4                          T                                Md 2.6  4807884
HYF   000.76 077.3 m E Sn      2012/01/03 18:22:56.7   0.6                          T                                Md 2.6  4807924
TCF   000.94 150.5 m E Pg      2012/01/03 18:22:46.8   0.6                          T                                        4807919
TCF   000.94 150.5 m E Pn      2012/01/03 18:22:47.3   0.1                          T   001.0                                4807229
TCF   000.94 150.5 m E Sg      2012/01/03 18:22:58.5   0.1                          T   001.0       75.3  .28 Ml 3.3 Md 2.9  4807230
BGF   001.05 121.0 m E Pg      2012/01/03 18:22:48.2  -0.1                          T                                        4807906
BGF   001.05 121.0 m E Pn      2012/01/03 18:22:48.8   0.2                          T   001.0                                4807202
BGF   001.05 121.0 m E Sn      2012/01/03 18:23:01.9  -1.0                          T   001.0      218.4  .28 Ml 3.7 Md 2.7  4807203
MFF   001.27 247.2 m E Pn      2012/01/03 18:22:51.7   0.1                          T   001.0                                4807222
MFF   001.27 247.2 m E Pg      2012/01/03 18:22:52.2  -0.1                          T                                        4807898
MFF   001.27 247.2 m E Sn      2012/01/03 18:23:08.0  -0.1                          T   001.0       70.7  .20 Ml 3.7         4807223
AVF   001.28 103.6 m E Pn      2012/01/03 18:22:51.9   0.2                          T   001.0                                4807200
AVF   001.28 103.6 m E Pg      2012/01/03 18:22:52.5   0.1                          T                                        4807909
AVF   001.28 103.6 m E Sn      2012/01/03 18:23:07.7  -0.7                          T   001.0       56.5  .24 Ml 3.3         4807201
AVF   001.28 103.6 m E Sg      2012/01/03 18:23:08.9  -0.1                          T               56.2  .23 Ml 3.3 Md 2.7  4807883
SSF   001.34 091.2 m E Pn      2012/01/03 18:22:52.9   0.3                          T   001.0                                4807228
SSF   001.34 091.2 m E Pg      2012/01/03 18:22:53.5  -0.1                          T                                        4807920
SSF   001.34 091.2 m E Sg      2012/01/03 18:23:10.9  -0.1                          T               37.0  .19 Ml 3.3         4807877
LOR   001.59 083.3 m E Pn      2012/01/03 18:22:56.2   0.2 266.0  1.1               T   001.0                                4807219
LOR   001.59 083.3 m E Pg      2012/01/03 18:22:57.9  -0.3 266.9  2.0               T                                        4807921
LOR   001.59 083.3 m E Sn      2012/01/03 18:23:15.5  -0.3                          T   001.0       72.3  .24 Ml 3.6         4807220
LOR   001.59 083.3 m E Sg      2012/01/03 18:23:19.1   0.4 263.9  -1.1              T               75.4  .24 Ml 3.6         4807876
SMF   001.64 105.5 m E Pn      2012/01/03 18:22:56.8   0.1                          T   001.0                                4807224
SMF   001.64 105.5 m E Pg      2012/01/03 18:22:59.0  -0.2                          T   001.0                                4807225
SMF   001.64 105.5 m E Sn      2012/01/03 18:23:16.0  -0.1                          T   001.0                                4807226
SMF   001.64 105.5 m E Sg      2012/01/03 18:23:20.4   0.0                          T   001.0       33.6  .18 Ml 3.4         4807227
RJF   001.80 180.7 m E Pn      2012/01/03 18:22:58.9   0.1                          T   001.0                                4807198
RJF   001.80 180.7 m E Pg      2012/01/03 18:23:02.3   0.1                          T                                        4807897
RJF   001.80 180.7 m E Sn      2012/01/03 18:23:20.9   0.0                          T   001.0       48.4  .20 Ml 3.2         4807199
RJF   001.80 180.7 m E Sg      2012/01/03 18:23:25.4   0.0                          T               50.8  .20 Ml 3.2         4807889
LDF   001.87 323.6 m E Pn      2012/01/03 18:23:00.1   0.4                          T   001.0                                4807214
LDF   001.87 323.6 m E P       2012/01/03 18:23:02.4   0.6                          T                                        4807900
LDF   001.87 323.6 m E Sn      2012/01/03 18:23:21.9  -0.5                          T   001.0                                4807215
LDF   001.87 323.6 m E Sg      2012/01/03 18:23:26.9  -0.5                          T   001.0       20.5  .24 Ml 3.1         4807216
CAF   002.21 170.4 m E Pn      2012/01/03 18:23:04.5   0.0                          T   001.0                                4807204
CAF   002.21 170.4 m E Pg      2012/01/03 18:23:09.3  -0.4                          T   001.0                                4807205
CAF   002.21 170.4 m E Sn      2012/01/03 18:23:30.6   0.0                          T   001.0       18.1  .32 Ml 3.0         4807206
CAF   002.21 170.4 m E Sg      2012/01/03 18:23:38.4   0.3                          T               10.0  .18 Ml 3.0         4807890
GRR   002.07 309.2 m E P       2012/01/03 18:23:04.8   0.0                          T   001.0                                4807211
GRR   002.07 309.2 m E Pg      2012/01/03 18:23:07.1   0.0                          T                                        4807899
GRR   002.07 309.2 m E Sn      2012/01/03 18:23:30.0   2.8                          T   001.0       16.1  .20 Ml 3.0         4807212
GRR   002.07 309.2 m E Sg      2012/01/03 18:23:33.8   0.1                          T               14.4  .17 Ml 3.0         4807888
LFF   002.24 194.8 m E Pn      2012/01/03 18:23:05.1   0.4                          T                                        4807896
LFF   002.24 194.8 m E Pg      2012/01/03 18:23:09.3  -0.9                          T                                        4807895
LFF   002.24 194.8 m E Sn      2012/01/03 18:23:30.9  -0.4                          T   001.0                                4807217
LFF   002.24 194.8 m E Sg      2012/01/03 18:23:39.2   0.2                          T   001.0         47  .36 Ml 3.2         4807218
FLN   002.15 321.3 m E P       2012/01/03 18:23:05.9   0.0                          T   001.0                                4807209
FLN   002.15 321.3 m E Pg      2012/01/03 18:23:08.5   0.0 144.3  4.5               T                                        4807901
FLN   002.15 321.3 m E Sn      2012/01/03 18:23:29.6   0.5                          T   001.0       15.8  .20 Ml 3.0         4807210
FLN   002.15 321.3 m E Sg      2012/01/03 18:23:36.2   0.0 132.6  -7.2              T               20.1  .24 Ml 3.0         4807887
SFTF  002.60 063.7 m E Pn      2012/01/03 18:23:09.4  -0.4                          T                                        4807916
SFTF  002.60 063.7 m E Pg      2012/01/03 18:23:17.1   0.1 228.6  -17.7             T                                        4807915
SFTF  002.60 063.7 m E Sg      2012/01/03 18:23:50.9   0.5 251.6  5.3               T               17.3  .28 Ml 3.1         4807881
MEZF  002.75 058.1 m E Pn      2012/01/03 18:23:12.4   0.7                          T                                        4807918
MEZF  002.75 058.1 m E Pg      2012/01/03 18:23:19.7   0.1 251.1  10.4              T                                        4807917
MEZF  002.75 058.1 m E Sn      2012/01/03 18:23:42.1  -1.3                          T   001.0                                4807234
MEZF  002.75 058.1 m E Sg      2012/01/03 18:23:53.8  -1.1 242.9  2.2               T   001.0       16.5  .40 Ml 3.0         4807235
SGMF  003.00 294.0 m E Pn      2012/01/03 18:23:15.7   0.6                          T   001.0                                4807239
SGMF  003.00 294.0 m E Pg      2012/01/03 18:23:23.7  -0.5                          T                                        4807903
SGMF  003.00 294.0 m E Sn      2012/01/03 18:23:48.6  -0.9                          T   001.0       20.3  .68 Ml 2.9         4807240
SGMF  003.00 294.0 m E Sg      2012/01/03 18:24:02.6  -0.2                          T                7.8  .30 Ml 2.8         4807923
VIVF  003.13 134.8 m E Pn      2012/01/03 18:23:17.1   0.1                          T                                        4807892
VIVF  003.13 134.8 m E Pg      2012/01/03 18:23:26.3  -0.5                          T                                        4807891
VIVF  003.13 134.8 m E Sg      2012/01/03 18:24:06.3  -0.7                          T   001.0       11.7  .32 Ml 3.0         4807241
CABF  003.16 097.4 m E Pn      2012/01/03 18:23:19.0   1.5                          T                                        4807911
CABF  003.16 097.4 m E Pg      2012/01/03 18:23:27.7   0.5                          T                                        4807910
CABF  003.16 097.4 m E Sg      2012/01/03 18:24:07.7  -0.1                          T   001.0       13.3  .40 Ml 3.0         4807231
QUIF  003.29 286.0 m E Pn      2012/01/03 18:23:19.8   0.6                          T   001.0                                4807238
QUIF  003.29 286.0 m E Pg      2012/01/03 18:23:29.2  -0.5                          T                                        4807902
QUIF  003.29 286.0 m E Sg      2012/01/03 18:24:10.8  -1.2                          T                6.8  .22 Ml 3.0         4807886
MTLF  003.79 172.6 m E Pn      2012/01/03 18:23:26.3   0.3                          T                                        4807894
MTLF  003.79 172.6 m E Sn      2012/01/03 18:24:08.7   0.2                          T   001.0                                4807236
MTLF  003.79 172.6 m E Sg      2012/01/03 18:24:27.7   0.1                          T   001.0        3.6  .28 Ml 2.7         4807237
THEF  003.21 067.9 m E Pg      2012/01/03 18:23:28.0  -0.2                          T                                        4807914
EPF   004.16 192.3 m E Pn      2012/01/03 18:23:30.1  -1.0                          T   001.0                                4807207
EPF   004.16 192.3 m E Sg      2012/01/03 18:24:39.8   0.6                          T   001.0        6.5  .32 Ml 3.0         4807208
HAU   003.37 072.8 m E Pg      2012/01/03 18:23:31.2   0.0                          T                                        4807913
HAU   003.37 072.8 m E Sg      2012/01/03 18:24:14.3  -0.3                          T                9.6  .22 Ml 2.9         4807882
LASF  003.44 151.0 m E Pg      2012/01/03 18:23:31.9  -0.4                          T                                        4807893
LASF  003.44 151.0 m E Sg      2012/01/03 18:24:16.4  -0.1                          T   001.0        6.2  .48 Ml 2.6         4807213
HINF  003.67 076.9 m E Pg      2012/01/03 18:23:36.8   0.1                          T                                        4807912
HINF  003.67 076.9 m E Sn      2012/01/03 18:24:02.9  -2.7                          T   001.0                                4807232
HINF  003.67 076.9 m E Sg      2012/01/03 18:24:23.2  -0.6                          T   001.0        6.7  .24 Ml 3.0         4807233
PAGF  003.17 061.2 m E Sg      2012/01/03 18:24:07.6  -0.4                          T                1.4  .22 Ml 2.3         4807880
BAIF  003.44 029.9 m E Sg      2012/01/03 18:24:16.4  -0.3                          T                2.2  .27 Ml 2.4         4807878
LPG   003.95 112.1 m E Sg      2012/01/03 18:24:32.7  -0.1                          T   001.0        2.2  .28 Ml 2.5         4807221
CDF   004.08 069.2 m E Sg      2012/01/03 18:24:36.4  -0.3                          T                2.8  .25 Ml 2.8         4807879

.
EVENT     268089
    Date      Time       Latitude Longitude    Depth    Ndef Nsta Gap    Mag1  N    Mag2  N    Mag3  N   Author         ID
       rms   OT_Error      Smajor Sminor Az        Err   mdist  Mdist     Err        Err        Err      Quality

2012/01/03 21:26:06.0     44.0569   -7.5341     23.0 f    57   15 169  Ml 3.0 16                         js067245    268109

      1.40   +-  0.27       6.5    3.6  123.71 +-  0.0    0.78   8.60   +-0.3                            m i ke

NORTH ATLANTIC OCEAN
Sta     Dist  EvAz     Phase      Date       Time     TRes  Azim  AzRes  Slow  SRes Def   SNR       Amp   Per   Mag1   Mag2       ID
QUIF  004.92 036.7 m E Pn      2012/01/03 21:27:15.7  -0.7                          T                                        4807356
QUIF  004.92 036.7 m E Sn      2012/01/03 21:28:07.3  -1.7                          T                4.2  .28 Ml 3.0         4807355
ETSF  005.21 100.4 m E Pn      2012/01/03 21:27:20.3  -0.1                          T                                        4807351
ETSF  005.21 100.4 m E P       2012/01/03 21:27:24.6  -0.1                          T                                        4807349
ETSF  005.21 100.4 m E Sn      2012/01/03 21:28:15.7  -0.4                          T                1.7  .18 Ml 2.9         4807340
SGMF  005.44 037.7 m E Pn      2012/01/03 21:27:24.3   0.8                          T                                        4807345
SGMF  005.44 037.7 m E Sn      2012/01/03 21:28:20.7  -0.8                          T                2.6  .24 Ml 3.0         4807344
MFF   005.80 061.4 m E Pn      2012/01/03 21:27:28.4   0.0                          T                                        4807354
MFF   005.80 061.4 m E Sn      2012/01/03 21:28:29.4  -0.6                          T                9.2  .27 Ml 3.8         4807350
EPF   005.81 097.4 m E Pn      2012/01/03 21:27:28.5  -0.2                          T                                        4807348
EPF   005.81 097.4 m E P       2012/01/03 21:27:33.3   0.0                          T                                        4807347
EPF   005.81 097.4 m E Sn      2012/01/03 21:28:28.1  -2.5                          T                 .5  .17 Ml 2.6         4807339
CAF   006.92 079.5 m E Pn      2012/01/03 21:27:44.2   0.5                          T                                        4811412
CAF   006.92 079.5 m E Sn      2012/01/03 21:28:56.4  -0.6                          T                1.1  .35 Ml 2.7         4811405
MTLF  007.10 092.4 m E Pn      2012/01/03 21:27:46.3   0.1                          T                                        4807352
MTLF  007.10 092.4 m E Sn      2012/01/03 21:28:57.6  -3.7                          T                1.5  .36 Ml 2.9         4807338
TCF   007.24 068.7 m E Pn      2012/01/03 21:27:48.8   0.7                          T                                        4811413
TCF   007.24 068.7 m E Sn      2012/01/03 21:29:03.0  -1.6                          T                2.6  .27 Ml 3.3         4811408
AVF   008.13 066.6 m E Pn      2012/01/03 21:28:01.1   1.0                          T                                        4811411
AVF   008.13 066.6 m E Sn      2012/01/03 21:29:22.5  -3.4                          T                 .8  .20 Ml 3.1         4811407
LASF  008.21 085.9 m E Pn      2012/01/03 21:28:01.7   0.5                          T                                        4807346
LASF  008.21 085.9 m E Sn      2012/01/03 21:29:24.4  -3.2                          T                1.0  .39 Ml 2.9         4811404
LOR   008.60 064.1 m E Pn      2012/01/03 21:28:07.5   0.9                          T                                        4811410
LOR   008.60 064.1 m E Sn      2012/01/03 21:29:32.4  -4.7                          T                1.2  .23 Ml 3.2         4811409
GRR   006.34 044.6 m E Sn      2012/01/03 21:28:41.1  -1.9                          T                3.2  .33 Ml 3.0         4807353
RJF   006.57 075.9 m E Sn      2012/01/03 21:28:46.6  -2.0                          T                3.4  .25 Ml 3.0         4807341
FLN   006.77 043.5 m E Sn      2012/01/03 21:28:51.5  -1.9                          T                2.6  .31 Ml 3.0         4807343
LDF   006.85 045.9 m E Sn      2012/01/03 21:28:53.6  -1.6                          T                1.1  .21 Ml 2.9         4807342

.

DATA_TYPE ARRIVAL
Sta     Dist  EvAz     Phase      Date       Time     TRes  Azim  AzRes  Slow  SRes Def   SNR       Amp   Per   Mag1   Mag2       ID
EPF                m E Sg      2012/01/01                                                            6.2  .22                4810188
EPF                m E Pg      2012/01/01                                                                                    4810189

STOP
