EVENT     258299
    Date      Time       Latitude Longitude    Depth    Ndef Nsta Gap    Mag1  N    Mag2  N    Mag3  N   Author         ID
       rms   OT_Error      Smajor Sminor Az        Err   mdist  Mdist     Err        Err        Err      Quality

2011/04/14 19:31:38.6     36.8819    4.4396     30.0      52   18 244  Ml 3.0  9                         js067245    258299

      0.35   +-  0.14       2.9    1.5  153.64 +-  0.0    3.15   8.80   +-0.3                            m i ke

NORTHERN ALGERIA
Sta     Dist  EvAz     Phase      Date       Time     TRes  Azim  AzRes  Slow  SRes Def   SNR       Amp   Per   Mag1   Mag2       ID
LMR   006.64 013.2 m E Pn      2011/04/14 19:33:12.1  -0.1                          T                                        4674024
LMR   006.64 013.2 m E Sn      2011/04/14 19:34:22.5   0.2                          T                3.8  .37 Ml 3.2         4674009
PGF   006.66 030.4 m E Pn      2011/04/14 19:33:12.7   0.0                          T                                        4674021
PGF   006.66 030.4 m E Sn      2011/04/14 19:34:22.9  -0.2                          T                1.9  .23 Ml 3.4         4674006
MTLF  006.67 345.9 m E Pn      2011/04/14 19:33:12.7   0.1                          T                                        4674030
MTLF  006.67 345.9 m E P       2011/04/14 19:33:16.7  -0.4                          T                                        4674033
MTLF  006.67 345.9 m E Sn      2011/04/14 19:34:23.2   0.0                          T                2.1  .47 Ml 2.8         4674011
FRF   006.88 013.5 m E Pn      2011/04/14 19:33:15.5   0.0                          T                                        4674023
FRF   006.88 013.5 m E Sn      2011/04/14 19:34:28.2   0.0                          T                2.4  .28 Ml 3.2         4674008
EPF   006.90 334.1 m E Pn      2011/04/14 19:33:15.7  -0.1                          T                                        4674029
EPF   006.90 334.1 m E P       2011/04/14 19:33:20.8   0.3                          T                                        4674032
EPF   006.90 334.1 m E Sn      2011/04/14 19:34:28.4  -0.3                          T                1.8  .47 Ml 2.8         4674012
ETSF  007.13 329.0 m E Pn      2011/04/14 19:33:19.0   0.0                          T                                        4674028
SMRF  007.14 006.6 m E Pn      2011/04/14 19:33:19.0  -0.1                          T                                        4674022
SMRF  007.14 006.6 m E Sn      2011/04/14 19:34:34.5   0.1                          T                1.8  .41 Ml 2.9         4674007
LASF  007.20 356.6 m E Pn      2011/04/14 19:33:20.2   0.3                          T                                        4674027
LASF  007.20 356.6 m E Sn      2011/04/14 19:34:35.8  -0.1                          T                5.3  .63 Ml 3.2         4674010
SBF   007.34 017.2 m E Pn      2011/04/14 19:33:22.0   0.1                          T                                        4674013
SJPF  007.59 326.8 m E Pn      2011/04/14 19:33:25.2   0.0                          T                                        4674020
VIVF  007.97 001.2 m E Pn      2011/04/14 19:33:30.5   0.2                          T                                        4674026
MBDF  008.03 012.0 m E Pn      2011/04/14 19:33:31.4   0.0                          T                                        4674025
ORIF  008.10 007.3 m E Pn      2011/04/14 19:33:32.2  -0.1                          T                                        4674016
CAF   008.23 348.1 m E Pn      2011/04/14 19:33:34.0   0.0                          T                                        4674019
LFF   008.52 342.0 m E Pn      2011/04/14 19:33:37.8   0.0                          T                                        4674018
LFF   008.52 342.0 m E P       2011/04/14 19:33:43.0   0.1                          T                                        4674031
RJF   008.70 346.2 m E Pn      2011/04/14 19:33:40.4   0.2                          T                                        4674017
LPG   008.78 010.7 m E Pn      2011/04/14 19:33:41.7   0.0                          T                                        4674014
LPL   008.80 010.6 m E Pn      2011/04/14 19:33:42.0   0.1                          T                                        4674015

.
EVENT     258334
    Date      Time       Latitude Longitude    Depth    Ndef Nsta Gap    Mag1  N    Mag2  N    Mag3  N   Author         ID
       rms   OT_Error      Smajor Sminor Az        Err   mdist  Mdist     Err        Err        Err      Quality

2011/04/15 05:40:01.9     46.1583    7.4038      5.0 f    19    5 081  Ml 1.8  3  Md 1.6  2              js067245    258334

      0.11   +-  0.03        .6     .6  124.84 +-  0.0    0.08   1.70   +-0.2      +-0.0                 m i ke

SWITZERLAND
Sta     Dist  EvAz     Phase      Date       Time     TRes  Azim  AzRes  Slow  SRes Def   SNR       Amp   Per   Mag1   Mag2       ID
LPL   000.80 216.4 m E Pg      2011/04/15 05:40:17.4   0.1                          T                                        4675528
LPL   000.80 216.4 m E Sg      2011/04/15 05:40:27.6   0.0                          T                1.4  .23        Md 1.6  4675529
LPG   000.80 214.9 m E Pg      2011/04/15 05:40:17.4  -0.1                          T                                        4675530
LPG   000.80 214.9 m E Sg      2011/04/15 05:40:27.7  -0.2                          T                1.5  .23        Md 1.6  4675531
CABF  001.02 296.9 m E Pg      2011/04/15 05:40:21.1   0.0                          T                                        4675523
CABF  001.02 296.9 m E P       2011/04/15 05:40:23.1   0.2                          T                                        4675524
CABF  001.02 296.9 m E Sg      2011/04/15 05:40:34.3   0.0                          T                2.4  .31 Ml 1.7         4675525
MBDF  001.50 197.5 m E Pg      2011/04/15 05:40:29.9  -0.2                          T                                        4675526
MBDF  001.50 197.5 m E Sg      2011/04/15 05:40:49.5   0.1                          T                1.5  .33 Ml 1.7         4675527
HINF  001.70 347.4 m E Pg      2011/04/15 05:40:33.6  -0.1                          T                                        4675521
HINF  001.70 347.4 m E Sg      2011/04/15 05:40:55.7   0.1                          T                2.1  .22 Ml 2.1         4675522

.
EVENT     258314
    Date      Time       Latitude Longitude    Depth    Ndef Nsta Gap    Mag1  N    Mag2  N    Mag3  N   Author         ID
       rms   OT_Error      Smajor Sminor Az        Err   mdist  Mdist     Err        Err        Err      Quality

2011/04/15 08:56:34.3     48.5146    5.5292       .0 f    16    9 094  Ml 2.1  3  Md 2.1  2              js067245    258314

      0.81   +-  0.14       2.4    2.0   13.54 +-  0.0    0.14   1.77   +-0.2      +-0.1                 m i km

FRANCE
Sta     Dist  EvAz     Phase      Date       Time     TRes  Azim  AzRes  Slow  SRes Def   SNR       Amp   Per   Mag1   Mag2       ID
PAGF  000.14 072.7 m E Pg      2011/04/15 08:56:36.8  -0.6                          T                                        4674108
PAGF  000.14 072.7 m E Sg      2011/04/15 08:56:40.6   1.1 251.3  -1.6              T               76.2 1.07        Md 2.2  4674109
MEZF  000.32 267.9 m E Pg      2011/04/15 08:56:40.9   0.2  81.2  -6.3              T                                        4674102
MEZF  000.32 267.9 m E Sg      2011/04/15 08:56:45.2   0.1  89.1  1.6               T              160.3  .86        Md 2.0  4674107
THEF  000.42 132.6 m E Pg      2011/04/15 08:56:41.9  -0.8                          T                                        4674103
THEF  000.42 132.6 m E Sg      2011/04/15 08:56:48.9   0.4                          T              152.1 1.29                4674104
SFTF  000.45 226.8 m E Pg      2011/04/15 08:56:43.2   0.0                          T                                        4674100
SFTF  000.45 226.8 m E Sg      2011/04/15 08:56:49.2  -0.2  41.9  -4.5              T              295.3 1.27                4674105
HAU   000.75 132.6 m E Pg      2011/04/15 08:56:48.9   0.2                          T                                        4674098
HAU   000.75 132.6 m E Sg      2011/04/15 08:56:58.5  -0.2                          T               28.0 1.00                4674099
HINF  001.13 127.7 m E Pg      2011/04/15 08:56:55.8   0.1                          T                                        4674096
HINF  001.13 127.7 m E Sg      2011/04/15 08:57:10.6   0.0                          T                4.4  .30 Ml 2.0         4674097
CDF   001.17 094.4 m E Pg      2011/04/15 08:56:56.7   0.2                          T                                        4674101
CDF   001.17 094.4 m E Sg      2011/04/15 08:57:12.4   0.6                          T                2.3  .25 Ml 2.0         4674106
RUP   001.56 039.7 m E Sg      2011/04/15 08:57:24.7   0.8                          T                                        4674095
BAIF  001.77 331.3 m E Sg      2011/04/15 08:57:30.9   0.4                          T                2.7  .21 Ml 2.3         4674094

.
EVENT     258333
    Date      Time       Latitude Longitude    Depth    Ndef Nsta Gap    Mag1  N    Mag2  N    Mag3  N   Author         ID
       rms   OT_Error      Smajor Sminor Az        Err   mdist  Mdist     Err        Err        Err      Quality

2011/04/15 12:19:39.3     44.7632    6.7022      2.0      18    7 105  Ml 1.7  3  Md 1.6  2              js067245    258333

      0.21   +-  0.05       1.2     .8   89.49 +-  0.0    0.06   1.44   +-0.3      +-0.5                 m i ke

FRANCE
Sta     Dist  EvAz     Phase      Date       Time     TRes  Azim  AzRes  Slow  SRes Def   SNR       Amp   Per   Mag1   Mag2       ID
MBDF  000.06 126.4 m E Pg      2011/04/15 12:19:41.0  -0.1                          T                                        4674158
MBDF  000.06 126.4 m E Sg      2011/04/15 12:19:41.9  -0.2                          T              190.7  .36        Md 2.0  4674159
ORIF  000.61 285.1 m E Pg      2011/04/15 12:19:51.1   0.2                          T                                        4674172
ORIF  000.61 285.1 m E Sg      2011/04/15 12:19:58.0  -0.9                          T                5.4  .24        Md 1.3  4674157
LPG   000.74 002.7 m E Pg      2011/04/15 12:19:53.6   0.0                          T                                        4674168
LPG   000.74 002.7 m E Sg      2011/04/15 12:20:03.4   0.2                          T                2.1  .24                4674169
LPL   000.75 001.6 m E Pg      2011/04/15 12:19:53.8  -0.1                          T                                        4674170
LPL   000.75 001.6 m E Sg      2011/04/15 12:20:04.0   0.3                          T                3.5  .33                4674171
SMRF  001.13 226.2 m E Pg      2011/04/15 12:20:00.6   0.1                          T                                        4674166
SMRF  001.13 226.2 m E Sg      2011/04/15 12:20:15.0  -0.1                          T                 .7  .22 Ml 1.4         4674167
FRF   001.20 181.9 m E Pg      2011/04/15 12:20:01.8  -0.1                          T                                        4674163
FRF   001.20 181.9 m E Sg      2011/04/15 12:20:17.4   0.0                          T                2.0  .20 Ml 1.9         4674165
LMR   001.44 185.6 m E Pg      2011/04/15 12:20:06.1   0.0                          T                                        4674162
LMR   001.44 185.6 m E Sg      2011/04/15 12:20:24.7   0.0                          T                  1  .17 Ml 1.8         4674164

.
EVENT     258335
    Date      Time       Latitude Longitude    Depth    Ndef Nsta Gap    Mag1  N    Mag2  N    Mag3  N   Author         ID
       rms   OT_Error      Smajor Sminor Az        Err   mdist  Mdist     Err        Err        Err      Quality

2011/04/15 12:29:08.5     50.2751    7.3839      5.0 f    26    9 043  Ml 2.4  8  Md 2.4  1              js067245    258335

      0.36   +-  0.05       1.1    1.0   75.30 +-  0.0    0.08   2.58   +-0.4      +-                    m i ke

GERMANY
Sta     Dist  EvAz     Phase      Date       Time     TRes  Azim  AzRes  Slow  SRes Def   SNR       Amp   Per   Mag1   Mag2       ID
RUP   000.61 200.1 m E Pg      2011/04/15 12:29:19.7  -0.4                          T                                        4675573
RUP   000.61 200.1 m E Sg      2011/04/15 12:29:27.6  -0.6                          T                                Md 2.4  4675574
LANF  001.32 167.9 m E Pn      2011/04/15 12:29:32.4   0.3                          T                                        4675571
LANF  001.32 167.9 m E Sn      2011/04/15 12:29:49.6   0.6                          T               13.8  .28 Ml 2.7         4675572
GIVF  001.65 265.0 m E Pn      2011/04/15 12:29:36.7   0.2                          T                                        4675565
GIVF  001.65 265.0 m E Pg      2011/04/15 12:29:39.6   0.3                          T                                        4675564
GIVF  001.65 265.0 m E Sg      2011/04/15 12:30:00.1  -0.6                          T               12.2  .34 Ml 2.7         4675575
CDF   001.87 182.2 m E Pn      2011/04/15 12:29:39.5   0.0                          T                                        4675563
CDF   001.87 182.2 m E Pg      2011/04/15 12:29:43.3   0.0                          T                                        4675562
CDF   001.87 182.2 m E Sn      2011/04/15 12:30:01.6  -0.4                          T                                        4675570
CDF   001.87 182.2 m E Sg      2011/04/15 12:30:07.0  -0.4                          T                9.5  .36 Ml 2.7         4675569
BAIF  002.05 265.2 m E Pn      2011/04/15 12:29:42.0   0.1                          T                                        4675567
BAIF  002.05 265.2 m E Pg      2011/04/15 12:29:46.4  -0.2                          T                                        4675566
BAIF  002.05 265.2 m E Sn      2011/04/15 12:30:06.6   0.2                          T                5.3  .24 Ml 2.6         4675568
PAGF  002.03 212.8 m E Pg      2011/04/15 12:29:46.2  -0.1                          T                                        4675558
PAGF  002.03 212.8 m E Sg      2011/04/15 12:30:12.5   0.0  29.2  -2.4              T                 .3  .18 Ml 1.5         4675559
SFTF  002.58 217.5 m E Pg      2011/04/15 12:29:56.8   0.4  35.7  0.0               T                                        4675556
SFTF  002.58 217.5 m E Sg      2011/04/15 12:30:29.7   0.2                          T                4.2  .38 Ml 2.4         4675557
HAU   002.37 197.1 m E Sg      2011/04/15 12:30:23.2   0.2                          T                2.8  .20 Ml 2.2         4675560
HINF  002.49 188.3 m E Sg      2011/04/15 12:30:26.6   0.0                          T                2.1  .19 Ml 2.4         4675561

.
EVENT     258398
    Date      Time       Latitude Longitude    Depth    Ndef Nsta Gap    Mag1  N    Mag2  N    Mag3  N   Author         ID
       rms   OT_Error      Smajor Sminor Az        Err   mdist  Mdist     Err        Err        Err      Quality

2011/04/15 16:33:48.5     42.8230   -1.1356      2.0      24    3 091  Ml 1.0  1  Md 1.2  2              js067245    258398

      0.46   +-  0.11       2.2    1.9    9.65 +-  0.0    0.08   1.10   +-         +-0.0                 m i ke

PYRENEES
Sta     Dist  EvAz     Phase      Date       Time     TRes  Azim  AzRes  Slow  SRes Def   SNR       Amp   Per   Mag1   Mag2       ID
SJPF  000.30 347.3 m E Pg      2011/04/15 16:33:54.8   0.4                          T                                        4675580
SJPF  000.30 347.3 m E Sg      2011/04/15 16:33:58.7   0.3                          T                 .8  .23        Md 1.2  4675581
ETSF  000.43 079.7 m E Pg      2011/04/15 16:33:56.7  -0.2                          T                                        4675578
ETSF  000.43 079.7 m E Sg      2011/04/15 16:34:02.7   0.1                          T                 .5  .20        Md 1.2  4675579
EPF   001.10 078.7 m E Pg      2011/04/15 16:34:10.9   1.6                          T                                        4675576
EPF   001.10 078.7 m E Sg      2011/04/15 16:34:23.6   0.0                          T                 .2  .18 Ml 1           4675577

.
EVENT     258339
    Date      Time       Latitude Longitude    Depth    Ndef Nsta Gap    Mag1  N    Mag2  N    Mag3  N   Author         ID
       rms   OT_Error      Smajor Sminor Az        Err   mdist  Mdist     Err        Err        Err      Quality

2011/04/15 23:19:40.3     42.9201     .1870      2.0       7    4 194  Ml 1.1  2                         js067245    258339

      0.08   +-  0.09       3.5     .6  163.74 +-  0.0    0.16   1.54   +-0.1                            m i ke

PYRENEES
Sta     Dist  EvAz     Phase      Date       Time     TRes  Azim  AzRes  Slow  SRes Def   SNR       Amp   Per   Mag1   Mag2       ID
EPF   000.16 045.5 m E Pg      2011/04/15 23:19:43.7   0.0                          T                                        4674203
EPF   000.16 045.5 m E Sg      2011/04/15 23:19:45.8  -0.1                          T                5.6  .16                4674202
ETSF  000.55 268.0 m E Pg      2011/04/15 23:19:50.8  -0.1                          T                                        4675584
ETSF  000.55 268.0 m E Sg      2011/04/15 23:19:58.3   0.2                          T                1.3  .22                4675585
SJPF  001.05 281.0 m E Pg      2011/04/15 23:20:00.1   0.0                          T                                        4675582
SJPF  001.05 281.0 m E Sg      2011/04/15 23:20:13.8   0.1                          T                 .3  .22 Ml 1.0         4675583
MTLF  001.54 073.5 m E Sg      2011/04/15 23:20:29.2   0.1                          T                 .4  .27 Ml 1.2         4674200

.
EVENT     258347
    Date      Time       Latitude Longitude    Depth    Ndef Nsta Gap    Mag1  N    Mag2  N    Mag3  N   Author         ID
       rms   OT_Error      Smajor Sminor Az        Err   mdist  Mdist     Err        Err        Err      Quality

2011/04/16 03:20:45.4     43.1191   -1.1772     11.0 f    24    3 161  Ml 1.4  1  Md 1.5  3              js067245    258347

      0.25   +-  0.07       1.3    1.0    1.16 +-  0.0    0.04   1.12   +-         +-0.0                 m i ke

PYRENEES
Sta     Dist  EvAz     Phase      Date       Time     TRes  Azim  AzRes  Slow  SRes Def   SNR       Amp   Per   Mag1   Mag2       ID
SJPF  000.04 260.6 m E Pg      2011/04/16 03:20:47.9   0.2                          T                                        4674209
SJPF  000.04 260.6 m E Sg      2011/04/16 03:20:49.3   0.0                          T               11.7  .18        Md 1.5  4674206
ETSF  000.50 115.7 m E Pg      2011/04/16 03:20:54.8  -0.5                          T                                        4674208
ETSF  000.50 115.7 m E Sg      2011/04/16 03:21:01.2  -0.8                          T                2.6  .31        Md 1.5  4674205
EPF   001.12 094.0 m E Pg      2011/04/16 03:21:06.8   0.4                          T                                        4674207
EPF   001.12 094.0 m E Sg      2011/04/16 03:21:21.4   0.5                          T                 .9  .26 Ml 1.4 Md 1.4  4674204

.
