BEGIN GSE2.0
MSG_TYPE DATA
MSG_ID 18-JAN-1312:30:35  FRA_NDC
E-MAIL
DATA_TYPE BULLETIN
Reviewed Bulletin (REB) # P2012-052  from French NDC for regional phases     PERIOD 26 DEC 2012 TO 31 DEC 2012 Cenalt JP S
EVENT     289120
    Date      Time       Latitude Longitude    Depth    Ndef Nsta Gap    Mag1  N    Mag2  N    Mag3  N   Author         ID
       rms   OT_Error      Smajor Sminor Az        Err   mdist  Mdist     Err        Err        Err      Quality

2012/12/26 03:30:36.6     42.8865    1.4200      2.0      18    3 125  Ml 1.1  1  Md 1.5  2              bulletin    289220
                                                                                                         _ldg
      0.20   +-  0.04        .7     .6  179.59 +-  0.0    0.25   1.45   +-         +-0.1                 m i ke

PYRENEES
Sta     Dist  EvAz     Phase      Date       Time     TRes  Azim  AzRes  Slow  SRes Def   SNR       Amp   Per   Mag1   Mag2       ID
MTLF  000.74 051.8 m E Pg      2012/12/26 03:30:50.5  -0.1                          T                                        5147676
MTLF  000.74 051.8 m E Sg      2012/12/26 03:31:00.2   0.0                          T                1.3  .21        Md 1.6  5147675
EPF   000.81 280.6 m E Pg      2012/12/26 03:30:51.8  -0.1                          T                                        5147673
EPF   000.81 280.6 m E Pn      2012/12/26 03:30:53.6   0.2                          T                                        5147672
EPF   000.81 280.6 m E Sg      2012/12/26 03:31:02.3   0.0                          T                1.3  .24        Md 1.4  5147674
ETSF  001.45 271.1 m E Pn      2012/12/26 03:31:02.3   0.0                          T                                        5147671
ETSF  001.45 271.1 m E Pg      2012/12/26 03:31:03.8   0.0                          T                                        5147670
ETSF  001.45 271.1 m E Sg      2012/12/26 03:31:22.5  -0.1                          T                 .2  .17 Ml 1.1         5147669

.
EVENT     288996
    Date      Time       Latitude Longitude    Depth    Ndef Nsta Gap    Mag1  N    Mag2  N    Mag3  N   Author         ID
       rms   OT_Error      Smajor Sminor Az        Err   mdist  Mdist     Err        Err        Err      Quality

2012/12/26 05:25:05.3     46.9251    1.6663      2.0      35   10 166  Ml 2.1 13  Md 2.1  7              bulletin    289096
                                                                                                         _ldg
      0.65   +-  0.06       1.4     .8  156.52 +-  0.0    0.75   2.09   +-0.2      +-0.1                 m i ke

FRANCE
Sta     Dist  EvAz     Phase      Date       Time     TRes  Azim  AzRes  Slow  SRes Def   SNR       Amp   Per   Mag1   Mag2       ID
HYF   000.75 062.3 m E Pg      2012/12/26 05:25:19.3   0.0                          T                                        5146813
HYF   000.75 062.3 m E Pn      2012/12/26 05:25:21.1  -0.2                          T                                        5164214
HYF   000.75 062.3 m E Sn      2012/12/26 05:25:32.7   0.2                          T               15.4  .29        Md 1.8  5163629
BGF   000.89 113.9 m E Pg      2012/12/26 05:25:21.7  -0.3                          T                                        5146806
BGF   000.89 113.9 m E P       2012/12/26 05:25:24.1   0.1                          T                                        5163630
BGF   000.89 113.9 m E Sg      2012/12/26 05:25:34.0   0.4                          T               12.9  .34 Ml 2.3 Md 2.0  5146805
AVF   001.17 096.0 m E Pg      2012/12/26 05:25:27.1   0.1                          T                                        5146803
AVF   001.17 096.0 m E Sg      2012/12/26 05:25:41.8  -0.3                          T                3.8  .26 Ml 2.0 Md 2.1  5146804
MFF   001.29 256.1 m E Pn      2012/12/26 05:25:28.4  -0.1                          T                                        5163627
MFF   001.29 256.1 m E Pg      2012/12/26 05:25:29.3   0.0                          T                                        5164227
MFF   001.29 256.1 m E Sg      2012/12/26 05:25:45.3  -0.6                          T                2.3  .19 Ml 2.2 Md 2.2  5146801
SSF   001.27 083.1 m E Pn      2012/12/26 05:25:28.5   0.2                          T                                        5146808
SSF   001.27 083.1 m E Pg      2012/12/26 05:25:29.0   0.1                          T                                        5164215
SSF   001.27 083.1 m E Sg      2012/12/26 05:25:45.2  -0.1                          T                2.6  .26 Ml 2.0 Md 2.1  5146809
LOR   001.54 076.3 m E Pn      2012/12/26 05:25:32.1   0.1 251.3  -6.6              T                                        5146807
LOR   001.54 076.3 m E Pg      2012/12/26 05:25:33.8  -0.1                          T                                        5164213
LOR   001.54 076.3 m E Sn      2012/12/26 05:25:51.8   0.4 252.9  -5.0              T                                        5163628
LOR   001.54 076.3 m E Sg      2012/12/26 05:25:53.9   0.2 252.2  -5.7              T                3.8  .20 Ml 2.3 Md 2.2  5146810
SMF   001.52 099.8 m E Pg      2012/12/26 05:25:33.7   0.1                          T                                        5146814
SMF   001.52 099.8 m E Sn      2012/12/26 05:25:51.1   0.1                          T                2.5  .20 Ml 2.1         5163621
SMF   001.52 099.8 m E Sg      2012/12/26 05:25:53.6   0.4                          T                5.2  .28 Ml 2.3 Md 2.2  5146812
RJF   001.62 183.7 m E Pg      2012/12/26 05:25:35.6   0.1                          T                                        5163625
RJF   001.62 183.7 m E Sn      2012/12/26 05:25:53.8   0.3                          T                                        5163626
RJF   001.62 183.7 m E Sg      2012/12/26 05:25:56.4  -0.1                          T                3.5  .26 Ml 1.9         5146811
LFF   002.09 198.4 m E Pn      2012/12/26 05:25:39.5   0.0                          T                                        5163623
LFF   002.09 198.4 m E Pg      2012/12/26 05:25:44.2   0.1                          T                                        5163624
LFF   002.09 198.4 m E Sg      2012/12/26 05:26:11.0   0.1                          T                1.5  .17 Ml 2.0         5163622
CAF   002.02 171.9 m E Pg      2012/12/26 05:25:42.8  -0.1                          T                                        5164226
CAF   002.02 171.9 m E Sg      2012/12/26 05:26:09.0   0.1                          T                 .9  .22 Ml 1.8         5164225

.
EVENT     288997
    Date      Time       Latitude Longitude    Depth    Ndef Nsta Gap    Mag1  N    Mag2  N    Mag3  N   Author         ID
       rms   OT_Error      Smajor Sminor Az        Err   mdist  Mdist     Err        Err        Err      Quality

2012/12/26 07:19:29.7     45.1017    6.5198      2.0      12    5 132  Ml 1.6  1  Md 1.6  4              bulletin    289097
                                                                                                         _ldg
      0.63   +-  0.08       1.8    1.2  125.16 +-  0.0    0.42   1.33   +-         +-0.1                 m i ke

FRANCE
Sta     Dist  EvAz     Phase      Date       Time     TRes  Azim  AzRes  Slow  SRes Def   SNR       Amp   Per   Mag1   Mag2       ID
MBDF  000.42 154.4 m E Pg      2012/12/26 07:19:37.7  -0.2                          T                                        5146821
MBDF  000.42 154.4 m E Sg      2012/12/26 07:19:43.2  -0.2                          T                2.9  .32        Md 1.6  5146817
LPG   000.43 022.4 m E Pg      2012/12/26 07:19:38.3   0.0                          T                                        5146822
LPG   000.43 022.4 m E Sg      2012/12/26 07:19:44.1   0.1                          T                4.1  .26        Md 1.7  5146818
LPL   000.44 019.8 m E Pg      2012/12/26 07:19:38.5   0.1                          T                                        5146824
LPL   000.44 019.8 m E Sg      2012/12/26 07:19:44.4   0.1                          T                2.1  .20        Md 1.5  5146819
ORIF  000.49 248.2 m E Pg      2012/12/26 07:19:39.2   0.0                          T                                        5146823
ORIF  000.49 248.2 m E Sg      2012/12/26 07:19:45.7   0.0                          T               15.5  .30        Md 1.6  5146820
VIVF  001.33 260.0 m E Sg      2012/12/26 07:20:11.5  -0.4                          T                1.1  .28 Ml 1.6         5164230

.
EVENT     288998
    Date      Time       Latitude Longitude    Depth    Ndef Nsta Gap    Mag1  N    Mag2  N    Mag3  N   Author         ID
       rms   OT_Error      Smajor Sminor Az        Err   mdist  Mdist     Err        Err        Err      Quality

2012/12/26 07:26:48.5     46.2448    7.1379      2.0      77   18 049  Ml 2.4 14  Md 2.3  8              bulletin    289098
                                                                                                         _ldg
      0.27   +-  0.03        .7     .5   73.19 +-  0.0    0.16   3.18   +-0.2      +-0.2                 m i ke

SWITZERLAND
Sta     Dist  EvAz     Phase      Date       Time     TRes  Azim  AzRes  Slow  SRes Def   SNR       Amp   Per   Mag1   Mag2       ID
LPL   000.78 201.4 m E Pg      2012/12/26 07:27:03.4  -0.1                          T                                        5146843
LPL   000.78 201.4 m E Sg      2012/12/26 07:27:13.5  -0.1                          T                5.0  .28        Md 2.0  5146840
LPG   000.79 200.0 m E Pg      2012/12/26 07:27:03.7  -0.1                          T                                        5146842
LPG   000.79 200.0 m E Pn      2012/12/26 07:27:05.5   0.0                          T                                        5147520
LPG   000.79 200.0 m E Sg      2012/12/26 07:27:14.1  -0.1                          T                4.7  .20        Md 2.3  5146841
CABF  000.81 297.1 m E Pg      2012/12/26 07:27:03.9   0.0                          T                                        5164231
CABF  000.81 297.1 m E Pn      2012/12/26 07:27:05.1  -0.3                          T                                        5146830
CABF  000.81 297.1 m E Sg      2012/12/26 07:27:14.5   0.0                          T                2.9  .17        Md 2.0  5146829
MBDF  001.54 189.8 m E Pn      2012/12/26 07:27:15.6   0.2                          T                                        5146838
MBDF  001.54 189.8 m E Pg      2012/12/26 07:27:17.3  -0.1                          T                                        5147524
MBDF  001.54 189.8 m E Sn      2012/12/26 07:27:34.6  -0.2                          T                                        5147523
MBDF  001.54 189.8 m E Sg      2012/12/26 07:27:37.3   0.0                          T                9.4  .68 Ml 2.2 Md 2.2  5146850
ORIF  001.59 214.1 m E Pn      2012/12/26 07:27:15.7  -0.4                          T                                        5146839
ORIF  001.59 214.1 m E Pg      2012/12/26 07:27:18.3   0.0                          T                                        5147522
ORIF  001.59 214.1 m E Sn      2012/12/26 07:27:36.0   0.0                          T                                        5147521
ORIF  001.59 214.1 m E Sg      2012/12/26 07:27:39.2   0.3                          T                3.5  .20 Ml 2.3 Md 2.2  5146851
HINF  001.58 353.0 m E Pn      2012/12/26 07:27:15.7  -0.2                          T                                        5146828
HINF  001.58 353.0 m E Pg      2012/12/26 07:27:18.0   0.0                          T                                        5147418
HINF  001.58 353.0 m E Sn      2012/12/26 07:27:36.0   0.2                          T                                        5146832
HINF  001.58 353.0 m E Sg      2012/12/26 07:27:38.8   0.3                          T               13.2  .20 Ml 2.9         5147419
HAU   001.84 343.3 m E Pn      2012/12/26 07:27:19.2  -0.2                          T                                        5146827
HAU   001.84 343.3 m E Pg      2012/12/26 07:27:22.7   0.0                          T                                        5147416
HAU   001.84 343.3 m E Sn      2012/12/26 07:27:41.9   0.0                          T                                        5146831
HAU   001.84 343.3 m E Sg      2012/12/26 07:27:46.4  -0.1                          T               10.6  .28 Ml 2.5         5147417
CDF   002.17 002.4 m E Pn      2012/12/26 07:27:23.9  -0.1                          T                                        5146846
CDF   002.17 002.4 m E Pg      2012/12/26 07:27:28.8  -0.1                          T                                        5147414
CDF   002.17 002.4 m E Sn      2012/12/26 07:27:49.8   0.0                          T                                        5147415
CDF   002.17 002.4 m E Sg      2012/12/26 07:27:57.2   0.3                          T                3.9  .32 Ml 2.4         5146845
VIVF  002.22 232.2 m E Pn      2012/12/26 07:27:24.6   0.0                          T                                        5146837
VIVF  002.22 232.2 m E Pg      2012/12/26 07:27:30.0   0.2                          T                                        5147411
VIVF  002.22 232.2 m E Sn      2012/12/26 07:27:50.9   0.0                          T                                        5147525
VIVF  002.22 232.2 m E Sg      2012/12/26 07:27:58.4   0.1                          T                5.8  .24 Ml 2.6 Md 2.5  5146849
SMF   002.31 281.2 m E Pn      2012/12/26 07:27:26.2   0.4                          T                                        5146835
SMF   002.31 281.2 m E Pg      2012/12/26 07:27:31.2  -0.3                          T                                        5147528
SMF   002.31 281.2 m E Sn      2012/12/26 07:27:53.0  -0.2                          T                                Md 2.5  5146852
SMF   002.31 281.2 m E Sg      2012/12/26 07:28:01.3   0.0                          T                3.0  .18 Ml 2.5         5147527
SBF   002.39 174.8 m E Pn      2012/12/26 07:27:26.8  -0.1                          T                                        5147519
SBF   002.39 174.8 m E Pg      2012/12/26 07:27:32.6  -0.3                          T                                        5147518
SBF   002.39 174.8 m E Sn      2012/12/26 07:27:55.1   0.1                          T                                        5147517
SBF   002.39 174.8 m E Sg      2012/12/26 07:28:03.6  -0.1                          T                4.7  .30 Ml 2.5         5147516
LOR   002.48 295.6 m E Pn      2012/12/26 07:27:28.3   0.3 120.5  7.2               T                                        5146833
LOR   002.48 295.6 m E Pg      2012/12/26 07:27:34.5   0.0                          T                                        5146870
LOR   002.48 295.6 m E Sg      2012/12/26 07:28:06.7   0.4                          T                1.8  .20 Ml 2.3 Md 2.5  5146844
SSF   002.63 289.4 m E Pn      2012/12/26 07:27:30.2   0.1                          T                                        5146834
SSF   002.63 289.4 m E Pg      2012/12/26 07:27:37.3   0.0                          T                                        5146869
SSF   002.63 289.4 m E Sn      2012/12/26 07:28:00.8   0.1                          T                                        5147533
SSF   002.63 289.4 m E Sg      2012/12/26 07:28:11.2   0.1                          T                1.1  .23 Ml 2.1         5147532
AVF   002.67 283.2 m E Pn      2012/12/26 07:27:31.0   0.4                          T                                        5146836
AVF   002.67 283.2 m E Pg      2012/12/26 07:27:38.0   0.0                          T                                        5147529
AVF   002.67 283.2 m E Sn      2012/12/26 07:28:01.7   0.1                          T                                        5147530
AVF   002.67 283.2 m E Sg      2012/12/26 07:28:12.3   0.0                          T                2.7  .38 Ml 2.2         5146847
MEZF  002.67 328.6 m E Pn      2012/12/26 07:27:31.2   0.7                          T                                        5147511
MEZF  002.67 328.6 m E Sn      2012/12/26 07:28:01.7   0.1                          T                4.5  .33 Ml 2.5         5147531
BGF   002.99 277.6 m E Pn      2012/12/26 07:27:35.2   0.3                          T                                        5146848
BGF   002.99 277.6 m E Pg      2012/12/26 07:27:43.6  -0.2                          T                                        5147526
BGF   002.99 277.6 m E Sn      2012/12/26 07:28:08.6  -0.6                          T                                        5147413
BGF   002.99 277.6 m E Sg      2012/12/26 07:28:21.5  -0.7                          T                4.4  .30 Ml 2.6         5147412
SMRF  002.52 206.6 m E Pg      2012/12/26 07:27:35.3   0.0                          T                                        5147510
LASF  003.18 228.1 m E Pn      2012/12/26 07:27:37.7   0.1                          T                                        5147515
LASF  003.18 228.1 m E Pg      2012/12/26 07:27:47.4   0.1                          T                                        5147514
LASF  003.18 228.1 m E Sn      2012/12/26 07:28:14.2   0.4                          T                                        5147513
LASF  003.18 228.1 m E Sg      2012/12/26 07:28:28.0  -0.1                          T                1.8  .26 Ml 2.3         5147512

.
