EVENT     294364
    Date      Time       Latitude Longitude    Depth    Ndef Nsta Gap    Mag1  N    Mag2  N    Mag3  N   Author         ID
       rms   OT_Error      Smajor Sminor Az        Err   mdist  Mdist     Err        Err        Err      Quality

2013/03/20 15:06:42.6     47.8687    6.5740       .0 f    18    8 089  Ml 1.9  5  Md 1.8  2              bulletin    294464
                                                                                                         _ldg
      0.11   +-  0.03        .6     .5   16.71 +-  0.0    0.20   1.93   +-0.4      +-0.1                 m i km

FRANCE
Sta     Dist  EvAz     Phase      Date       Time     TRes  Azim  AzRes  Slow  SRes Def   SNR       Amp   Per   Mag1   Mag2       ID
HINF  000.20 105.4 m E Pg      2013/03/20 15:06:46.7  -0.1                          T                                        5230940
HINF  000.20 105.4 m E Sg      2013/03/20 15:06:49.5  -0.1                          T                7.9  .26        Md 1.9  5230938
HAU   000.20 312.1 m E Pg      2013/03/20 15:06:46.8  -0.2                          T                                        5230941
HAU   000.20 312.1 m E Sg      2013/03/20 15:06:49.8  -0.1                          T               75.6  .48        Md 1.7  5230939
CDF   000.72 040.6 m E Pg      2013/03/20 15:06:56.6   0.1                          T                                        5237740
CDF   000.72 040.6 m E P       2013/03/20 15:06:58.0   0.1                          T                                        5230950
CDF   000.72 040.6 m E Sg      2013/03/20 15:07:06.3   0.2                          T               26.6  .28                5230949
PAGF  000.89 320.7 m E Pg      2013/03/20 15:06:59.5   0.0                          T                                        5230947
PAGF  000.89 320.7 m E Sg      2013/03/20 15:07:11.2  -0.1                          T                3.0  .33 Ml 1.7         5230951
SFTF  001.08 288.7 m E Pn      2013/03/20 15:07:03.6   0.0                          T                                        5230945
SFTF  001.08 288.7 m E Sn      2013/03/20 15:07:18.6   0.0                          T                3.5  .22 Ml 2.0         5230943
MEZF  001.20 302.4 m E Pg      2013/03/20 15:07:05.2   0.0                          T                                        5237755
MEZF  001.20 302.4 m E Sn      2013/03/20 15:07:21.3   0.0                          T               10.6  .22 Ml 2.6         5230942
CABF  001.30 194.9 m E Pg      2013/03/20 15:07:07.2   0.0                          T                                        5237753
CABF  001.30 194.9 m E P       2013/03/20 15:07:08.0  -0.1                          T                                        5237754
CABF  001.30 194.9 m E Sg      2013/03/20 15:07:24.3   0.1                          T                 .5  .18 Ml 1.4         5230944
LOR   001.93 252.9 m E Pg      2013/03/20 15:07:18.9   0.1                          T                                        5237756
LOR   001.93 252.9 m E Sg      2013/03/20 15:07:44.2   0.2                          T                1.1  .25 Ml 1.8         5237757

.
EVENT     294365
    Date      Time       Latitude Longitude    Depth    Ndef Nsta Gap    Mag1  N    Mag2  N    Mag3  N   Author         ID
       rms   OT_Error      Smajor Sminor Az        Err   mdist  Mdist     Err        Err        Err      Quality

2013/03/20 15:45:57.5     42.7373   -1.7379      2.0      16    3 105  Ml 1.9  2  Md 2.2  1              bulletin    294465
                                                                                                         _ldg
      0.29   +-  0.09       1.6    1.4  136.18 +-  0.0    0.12   1.93   +-0.3      +-                    m i ke

PYRENEES
Sta     Dist  EvAz     Phase      Date       Time     TRes  Azim  AzRes  Slow  SRes Def   SNR       Amp   Per   Mag1   Mag2       ID
SJPF  000.53 044.9 m E Pg      2013/03/20 15:46:07.6   0.0                          T                                        5230969
SJPF  000.53 044.9 m E Sg      2013/03/20 15:46:14.4  -0.2                          T                4.6  .21        Md 2.2  5230966
ETSF  000.88 079.1 m E Pg      2013/03/20 15:46:14.2   0.1                          T                                        5230968
ETSF  000.88 079.1 m E Sg      2013/03/20 15:46:25.5  -0.2                          T                2.2  .23 Ml 1.8         5230965
EPF   001.56 078.4 m E Pg      2013/03/20 15:46:26.6   0.1                          T                                        5230967
EPF   001.56 078.4 m E Sg      2013/03/20 15:46:46.3  -0.3                          T                2.8  .24 Ml 2.1         5230964

.
EVENT     294366
    Date      Time       Latitude Longitude    Depth    Ndef Nsta Gap    Mag1  N    Mag2  N    Mag3  N   Author         ID
       rms   OT_Error      Smajor Sminor Az        Err   mdist  Mdist     Err        Err        Err      Quality

2013/03/20 16:25:28.1     42.9337     .1859      2.0      13    7 192  Ml 1.9  4  Md 1.3  2              bulletin    294466
                                                                                                         _ldg
      0.29   +-  0.16       5.2    1.7  162.94 +-  0.0    0.15   2.56   +-0.3      +-0.0                 m i ke

PYRENEES
Sta     Dist  EvAz     Phase      Date       Time     TRes  Azim  AzRes  Slow  SRes Def   SNR       Amp   Per   Mag1   Mag2       ID
EPF   000.15 049.4 m E Pg      2013/03/20 16:25:31.2  -0.1                          T                                        5230982
EPF   000.15 049.4 m E Sg      2013/03/20 16:25:33.4  -0.1                          T               55.4  .20        Md 1.3  5230980
ETSF  000.55 266.6 m E Pg      2013/03/20 16:25:38.5  -0.2                          T                                        5230981
ETSF  000.55 266.6 m E Sg      2013/03/20 16:25:45.6  -0.2                          T               15.6  .21        Md 1.4  5230979
SJPF  001.05 280.3 m E Pg      2013/03/20 16:25:47.9   0.1                          T                                        5230976
SJPF  001.05 280.3 m E Sg      2013/03/20 16:26:01.7   0.2                          T                1.5  .21 Ml 1.7         5230975
MTLF  001.54 074.0 m E Pn      2013/03/20 16:25:55.0   0.0                          T                                        5230978
MTLF  001.54 074.0 m E Sn      2013/03/20 16:26:14.4   0.0                          T                1.2  .20 Ml 1.8         5230974
LFF   002.04 011.1 m E Pn      2013/03/20 16:26:02.0   0.2                          T                                        5230977
LFF   002.04 011.1 m E Sn      2013/03/20 16:26:26.7   0.3                          T                5.7  .33 Ml 2.3         5230970
CAF   002.41 033.6 m E Pn      2013/03/20 16:26:07.2   0.4                          T                                        5230973
RJF   002.56 021.6 m E Pn      2013/03/20 16:26:08.4  -0.4                          T                                        5230972
RJF   002.56 021.6 m E Sn      2013/03/20 16:26:37.8  -0.8                          T                1.6  .20 Ml 1.9         5230971

.
EVENT     294376
    Date      Time       Latitude Longitude    Depth    Ndef Nsta Gap    Mag1  N    Mag2  N    Mag3  N   Author         ID
       rms   OT_Error      Smajor Sminor Az        Err   mdist  Mdist     Err        Err        Err      Quality

2013/03/20 18:42:57.9     42.7466   -1.7218      2.0      24    4 104  Ml 2.1  2  Md 2.3  1              bulletin    294476
                                                                                                         _ldg
      0.42   +-  0.11       2.1    1.8  138.47 +-  0.0    0.11   3.50   +-0.2      +-                    m i ke

PYRENEES
Sta     Dist  EvAz     Phase      Date       Time     TRes  Azim  AzRes  Slow  SRes Def   SNR       Amp   Per   Mag1   Mag2       ID
SJPF  000.52 044.7 m E Pg      2013/03/20 18:43:07.7   0.0                          T                                        5231008
SJPF  000.52 044.7 m E Sg      2013/03/20 18:43:14.5   0.0                          T               15.9  .34        Md 2.3  5231005
ETSF  000.87 079.5 m E Pg      2013/03/20 18:43:14.2   0.0                          T                                        5231007
ETSF  000.87 079.5 m E Sg      2013/03/20 18:43:25.5  -0.1                          T                3.7  .23 Ml 2.0         5231004
EPF   001.54 078.7 m E Pg      2013/03/20 18:43:26.9   0.2                          T                                        5231006
EPF   001.54 078.7 m E Sg      2013/03/20 18:43:46.4  -0.1                          T                2.7  .20 Ml 2.2         5231003
CAF   003.50 050.2 m E Pn      2013/03/20 18:43:51.3  -0.1                          T                                        5231010
CAF   003.50 050.2 m E Sn      2013/03/20 18:44:30.9   0.0                          T                                        5231009

.
EVENT     294378
    Date      Time       Latitude Longitude    Depth    Ndef Nsta Gap    Mag1  N    Mag2  N    Mag3  N   Author         ID
       rms   OT_Error      Smajor Sminor Az        Err   mdist  Mdist     Err        Err        Err      Quality

2013/03/20 21:55:57.5     42.6986   -1.7265      2.0      21    4 106  Ml 1.4  4                         bulletin    294478
                                                                                                         _ldg
      0.63   +-  0.12       2.2    2.0  144.76 +-  0.0    0.13   2.96   +-0.3                            m i ke

PYRENEES
Sta     Dist  EvAz     Phase      Date       Time     TRes  Azim  AzRes  Slow  SRes Def   SNR       Amp   Per   Mag1   Mag2       ID
SJPF  000.55 041.5 m E Pg      2013/03/20 21:56:08.3   0.3                          T                                        5231077
SJPF  000.55 041.5 m E Sg      2013/03/20 21:56:15.6   0.3                          T                6.5  .29                5231076
ETSF  000.88 076.5 m E Pg      2013/03/20 21:56:14.3   0.2                          T                                        5231075
ETSF  000.88 076.5 m E Sg      2013/03/20 21:56:26.1   0.5                          T                 .6  .16 Ml 1.3         5231074
EPF   001.56 077.0 m E Pg      2013/03/20 21:56:26.4  -0.1                          T                                        5231073
EPF   001.56 077.0 m E Sg      2013/03/20 21:56:46.9   0.3                          T                 .9  .16 Ml 1.8         5231072
MTLF  002.96 076.1 m E Pn      2013/03/20 21:56:43.9   0.2                          T                                        5231079
MTLF  002.96 076.1 m E Sn      2013/03/20 21:57:18.0   0.3                          T                 .2  .22 Ml 1.3         5231078

.
EVENT     294379
    Date      Time       Latitude Longitude    Depth    Ndef Nsta Gap    Mag1  N    Mag2  N    Mag3  N   Author         ID
       rms   OT_Error      Smajor Sminor Az        Err   mdist  Mdist     Err        Err        Err      Quality

2013/03/20 22:31:43.0     44.9701    6.8618      2.0      23    7 136  Ml 1.1  3  Md 1.5  3              bulletin    294479
                                                                                                         _ldg
      0.64   +-  0.12       3.3    1.8   86.07 +-  0.0    0.07   1.66   +-0.2      +-0.0                 m i ke

FRANCE
Sta     Dist  EvAz     Phase      Date       Time     TRes  Azim  AzRes  Slow  SRes Def   SNR       Amp   Per   Mag1   Mag2       ID
MBDF  000.25 194.8 m E Pg      2013/03/20 22:31:48.3   0.1                          T                                        5231133
MBDF  000.25 194.8 m E Sg      2013/03/20 22:31:51.6   0.0                          T                5.2  .24        Md 1.5  5231132
LPG   000.53 351.6 m E Pg      2013/03/20 22:31:53.2  -0.4                          T                                        5231129
LPG   000.53 351.6 m E Sg      2013/03/20 22:32:00.3  -0.3                          T                 .6  .14                5231128
LPL   000.55 350.5 m E Pg      2013/03/20 22:31:53.9   0.0                          T                                        5231131
LPL   000.55 350.5 m E Sg      2013/03/20 22:32:00.9  -0.2                          T                1.2  .25        Md 1.4  5231130
ORIF  000.70 266.1 m E Pg      2013/03/20 22:31:57.2   0.9                          T                                        5231135
ORIF  000.70 266.1 m E Sg      2013/03/20 22:32:06.6   1.1                          T                 .4  .23        Md 1.4  5231134
SBF   001.18 159.4 m E Pg      2013/03/20 22:32:04.8  -0.5                          T                                        5231137
SBF   001.18 159.4 m E Sg      2013/03/20 22:32:19.8  -0.7                          T                 .5  .21 Ml 1.3         5231136
FRF   001.42 186.3 m E Pn      2013/03/20 22:32:08.2   0.1                          T                                        5231142
FRF   001.42 186.3 m E Sn      2013/03/20 22:32:26.6   0.3                          T                 .1  .16 Ml  .9         5231141
LMR   001.66 188.9 m E Pn      2013/03/20 22:32:11.2  -0.2                          T                                        5231140
LMR   001.66 188.9 m E Pg      2013/03/20 22:32:13.9   0.0                          T                                        5231139
LMR   001.66 188.9 m E Sn      2013/03/20 22:32:31.9  -0.1                          T                 .2  .22 Ml 1.2         5231138

.
EVENT     294380
    Date      Time       Latitude Longitude    Depth    Ndef Nsta Gap    Mag1  N    Mag2  N    Mag3  N   Author         ID
       rms   OT_Error      Smajor Sminor Az        Err   mdist  Mdist     Err        Err        Err      Quality

2013/03/20 22:32:06.5     44.9727    7.0782      2.0      46   11 108  Ml 1.9  7  Md 2.1  4              bulletin    294480
                                                                                                         _ldg
      0.44   +-  0.06       1.4    1.0   96.31 +-  0.0    0.22   2.79   +-0.3      +-0.0                 m i ke

NORTHERN ITALY
Sta     Dist  EvAz     Phase      Date       Time     TRes  Azim  AzRes  Slow  SRes Def   SNR       Amp   Per   Mag1   Mag2       ID
MBDF  000.33 221.7 m E Pg      2013/03/20 22:32:12.7  -0.3                          T   001.0                                5231114
MBDF  000.33 221.7 m E Sg      2013/03/20 22:32:17.5   0.0                          T               16.9  .16        Md 2.1  5231120
LPG   000.57 336.4 m E Pg      2013/03/20 22:32:17.5  -0.3                          T   001.0                                5231108
LPG   000.57 336.4 m E Sg      2013/03/20 22:32:24.6  -0.7                          T   001.0       13.1  .19        Md 2.1  5231109
LPL   000.60 335.9 m E Pg      2013/03/20 22:32:17.9  -0.2                          T   001.0                                5231110
LPL   000.60 335.9 m E Sg      2013/03/20 22:32:25.2  -0.7                          T               28.0  .27        Md 2.1  5231118
ORIF  000.85 266.8 m E Pg      2013/03/20 22:32:23.1   0.4                          T   001.0                                5231115
ORIF  000.85 266.8 m E Sg      2013/03/20 22:32:33.2  -0.6                          T                8.8  .21        Md 2.1  5231119
SBF   001.14 166.9 m E Pg      2013/03/20 22:32:27.9   0.0                          T   001.0                                5231111
SBF   001.14 166.9 m E Sg      2013/03/20 22:32:42.6   0.0                          T   001.0        2.4  .21 Ml 1.9         5231112
FRF   001.45 192.5 m E Pg      2013/03/20 22:32:33.7   0.3                          T   001.0                                5231104
FRF   001.45 192.5 m E Sg      2013/03/20 22:32:52.6   0.5                          T   001.0        3.4  .24 Ml 2.2         5231105
SMRF  001.47 227.7 m E Pg      2013/03/20 22:32:34.5   0.7                          T   001.0                                5231117
SMRF  001.47 227.7 m E Sg      2013/03/20 22:32:53.3   0.5                          T                1.2  .31 Ml 1.6         5231121
LMR   001.69 194.2 m E Pg      2013/03/20 22:32:37.0   0.1                          T   001.0                                5231106
LMR   001.69 194.2 m E Sg      2013/03/20 22:33:00.1   0.4                          T   001.0        2.9  .19 Ml 2.3         5231107
VIVF  001.71 266.9 m E Pg      2013/03/20 22:32:39.0   0.6                          T   001.0                                5231116
VIVF  001.71 266.9 m E Sg      2013/03/20 22:33:00.8   0.2                          T                1.5  .32 Ml 1.8         5231124
LASF  002.47 249.9 m E Pn      2013/03/20 22:32:46.2   0.2                          T                                        5231123
LASF  002.47 249.9 m E Sn      2013/03/20 22:33:15.0   0.0                          T                 .2  .17 Ml 1.4         5231122
PGF   002.79 149.5 m E Pn      2013/03/20 22:32:50.5   0.1                          T                                        5231127
PGF   002.79 149.5 m E Sn      2013/03/20 22:33:23.3   0.5                          T                 .3  .20 Ml 1.8         5231126

.
EVENT     294381
    Date      Time       Latitude Longitude    Depth    Ndef Nsta Gap    Mag1  N    Mag2  N    Mag3  N   Author         ID
       rms   OT_Error      Smajor Sminor Az        Err   mdist  Mdist     Err        Err        Err      Quality

2013/03/20 23:16:15.6     43.0514    -.0688      2.0       6    4 164  Ml 0.7  1  Md 1.3  2              bulletin    294481
                                                                                                         _ldg
      0.09   +-  0.03       1.9     .3  172.46 +-  0.0    0.30   1.70   +-         +-0.1                 m i ke

PYRENEES
Sta     Dist  EvAz     Phase      Date       Time     TRes  Azim  AzRes  Slow  SRes Def   SNR       Amp   Per   Mag1   Mag2       ID
EPF   000.30 093.9 m E Pg      2013/03/20 23:16:21.4  -0.1                          T                                        5231148
EPF   000.30 093.9 m E Sg      2013/03/20 23:16:25.5  -0.1                          T                2.2  .17        Md 1.4  5231147
ETSF  000.39 247.2 m E Pg      2013/03/20 23:16:23.2   0.0                          T                                        5231146
ETSF  000.39 247.2 m E Sg      2013/03/20 23:16:28.3  -0.1                          T                1.1  .22        Md 1.2  5231145
SJPF  000.85 274.6 m E Sg      2013/03/20 23:16:42.6   0.0                          T                 .1  .17                5237827
MTLF  001.70 079.4 m E Sg      2013/03/20 23:17:09.1   0.0                          T                 .1  .17 Ml  .7         5237826

.
