EVENT     273098
    Date      Time       Latitude Longitude    Depth    Ndef Nsta Gap    Mag1  N    Mag2  N    Mag3  N   Author         ID
       rms   OT_Error      Smajor Sminor Az        Err   mdist  Mdist     Err        Err        Err      Quality

2012/04/05 10:01:48.1     47.1195    6.5224       .0 f     7    4 189  Ml 2.0  1                         bulletin    273118
                                                                                                         _ldg
      0.63   +-  0.39      21.5    4.4  109.55 +-  0.0    0.59   1.39   +-                               m i km

FRANCE
Sta     Dist  EvAz     Phase      Date       Time     TRes  Azim  AzRes  Slow  SRes Def   SNR       Amp   Per   Mag1   Mag2       ID
CABF  000.59 210.6 m E Pg      2012/04/05 10:01:59.5  -0.2                          T                                        4902813
CABF  000.59 210.6 m E Sg      2012/04/05 10:02:08.4   0.8                          T                3.1  .30                4902812
HINF  000.73 017.7 m E Pg      2012/04/05 10:02:02.3   0.0                          T                                        4902818
HINF  000.73 017.7 m E Sg      2012/04/05 10:02:13.5   1.5                          T               17.8  .32                4902817
HAU   000.89 352.5 m E Pg      2012/04/05 10:02:04.9  -0.3                          T                                        4902815
HAU   000.89 352.5 m E Sg      2012/04/05 10:02:17.3   0.3                          T               10.5  .34 Ml 2.0         4902816
CDF   001.39 021.2 m E Sg      2012/04/05 10:02:31.7  -0.9                          T                                        4902814

.
EVENT     273099
    Date      Time       Latitude Longitude    Depth    Ndef Nsta Gap    Mag1  N    Mag2  N    Mag3  N   Author         ID
       rms   OT_Error      Smajor Sminor Az        Err   mdist  Mdist     Err        Err        Err      Quality

2012/04/05 10:03:28.3     47.1691    4.8973       .0 f     8    4 219  Ml 1.8  1                         bulletin    273119
                                                                                                         _ldg
      0.15   +-  0.16       5.0    1.2    7.48 +-  0.0    0.89   1.12   +-                               m i km

FRANCE
Sta     Dist  EvAz     Phase      Date       Time     TRes  Azim  AzRes  Slow  SRes Def   SNR       Amp   Per   Mag1   Mag2       ID
SMF   000.89 234.5 m E Pg      2012/04/05 10:03:45.2  -0.2                          T                                        4902842
SMF   000.89 234.5 m E Sg      2012/04/05 10:03:57.6   0.4                          T                                        4902839
SSF   000.96 264.0 m E Pg      2012/04/05 10:03:46.6   0.1                          T                                        4902835
SSF   000.96 264.0 m E Sg      2012/04/05 10:03:59.0  -0.1                          T                                        4902836
CABF  000.99 123.9 m E Pg      2012/04/05 10:03:47.3   0.1                          T                                        4902841
CABF  000.99 123.9 m E Sg      2012/04/05 10:04:00.2  -0.1                          T                                        4902837
AVF   001.12 250.9 m E Pg      2012/04/05 10:03:49.5   0.0                          T                                        4902840
AVF   001.12 250.9 m E Sg      2012/04/05 10:04:04.4   0.1                          T                1.9  .25 Ml 1.8         4902838

.
EVENT     273158
    Date      Time       Latitude Longitude    Depth    Ndef Nsta Gap    Mag1  N    Mag2  N    Mag3  N   Author         ID
       rms   OT_Error      Smajor Sminor Az        Err   mdist  Mdist     Err        Err        Err      Quality

2012/04/05 10:04:03.5     48.2872    7.2864       .0 f     6    3 258  Ml 1.3  1                         js067245    273178

      0.11   +-  0.19       4.3    1.4  151.27 +-  0.0    0.13   1.07   +-                               m i km

FRANCE
Sta     Dist  EvAz     Phase      Date       Time     TRes  Azim  AzRes  Slow  SRes Def   SNR       Amp   Per   Mag1   Mag2       ID
CDF   000.13 356.9 m E Pg      2012/04/05 10:04:06.4  -0.1                          T                                        4903547
CDF   000.13 356.9 m E Sg      2012/04/05 10:04:08.7   0.2                          T               69.0  .44                4903546
LANF  000.77 026.2 m E Pg      2012/04/05 10:04:18.5   0.1                          T                                        4903542
LANF  000.77 026.2 m E Sg      2012/04/05 10:04:28.5  -0.2                          T                9.1  .36                4903543
PAGF  001.07 285.0 m E Pg      2012/04/05 10:04:23.9   0.0                          T                                        4903545
PAGF  001.07 285.0 m E Sg      2012/04/05 10:04:38.0   0.0                          T                  1  .31 Ml 1.3         4903544

.
EVENT     273100
    Date      Time       Latitude Longitude    Depth    Ndef Nsta Gap    Mag1  N    Mag2  N    Mag3  N   Author         ID
       rms   OT_Error      Smajor Sminor Az        Err   mdist  Mdist     Err        Err        Err      Quality

2012/04/05 10:06:23.4     48.3972    6.8892       .0 f    26   10 123  Ml 1.9  4  Md 2.0  3              bulletin    273120
                                                                                                         _ldg
      0.90   +-  0.08       2.0    1.3  157.27 +-  0.0    0.26   2.33   +-0.2      +-0.1                 m i km

FRANCE
Sta     Dist  EvAz     Phase      Date       Time     TRes  Azim  AzRes  Slow  SRes Def   SNR       Amp   Per   Mag1   Mag2       ID
CDF   000.26 086.5 m E Pg      2012/04/05 10:06:28.8  -0.1                          T                                        4903553
CDF   000.26 086.5 m E Sg      2012/04/05 10:06:32.5  -0.1                          T               12.0  .26        Md 2.0  4903548
HAU   000.53 222.9 m E Pg      2012/04/05 10:06:34.1   0.3                          T                                        4910567
HAU   000.53 222.9 m E Pn      2012/04/05 10:06:36.8  -0.4                          T                                        4903551
HAU   000.53 222.9 m E Sg      2012/04/05 10:06:41.4   0.4                          T                7.0  .28        Md 2.1  4910550
HINF  000.58 182.4 m E Pg      2012/04/05 10:06:34.9   0.2                          T                                        4910565
HINF  000.58 182.4 m E Pn      2012/04/05 10:06:37.3  -0.3                          T                                        4903550
HINF  000.58 182.4 m E Sg      2012/04/05 10:06:43.0   0.4                          T               56.5 1.08        Md 1.9  4910549
THEF  000.62 254.5 m E Pg      2012/04/05 10:06:35.3  -0.1                          T                                        4910557
THEF  000.62 254.5 m E P       2012/04/05 10:06:36.5   0.0                          T                                        4910559
THEF  000.62 254.5 m E Pn      2012/04/05 10:06:38.0  -0.1                          T                                        4910558
THEF  000.62 254.5 m E Sg      2012/04/05 10:06:43.6  -0.2                          T                6.4  .27                4910551
PAGF  000.79 282.0 m E Pg      2012/04/05 10:06:38.8   0.3 107.0  5.9               T                                        4910566
PAGF  000.79 282.0 m E Pn      2012/04/05 10:06:40.5   0.1  99.0  -2.1              T                                        4903552
PAGF  000.79 282.0 m E Sn      2012/04/05 10:06:52.2  -0.1  97.0  -4.0              T                  1  .21                4910554
LANF  000.84 045.8 m E Pg      2012/04/05 10:06:39.8   0.3                          T                                        4910562
LANF  000.84 045.8 m E P       2012/04/05 10:06:41.0  -0.3                          T                                        4903549
LANF  000.84 045.8 m E Sn      2012/04/05 10:06:53.7   0.1                          T                6.9  .25                4910555
MEZF  001.23 275.6 m E Pg      2012/04/05 10:06:46.6   0.0  97.6  3.4               T                                        4910561
MEZF  001.23 275.6 m E Sg      2012/04/05 10:07:03.0   0.3 101.1  6.9               T                3.7  .31 Ml 2.0         4910553
SFTF  001.25 261.8 m E Pg      2012/04/05 10:06:47.1   0.1  72.5  -7.9              T                                        4910560
SFTF  001.25 261.8 m E Sg      2012/04/05 10:07:03.2  -0.2  75.6  -4.9              T                3.1  .21 Ml 2.1         4910552
LOR   002.33 242.2 m E Pn      2012/04/05 10:07:01.4   0.0                          T                                        4910564
LOR   002.33 242.2 m E Pg      2012/04/05 10:07:06.7  -0.3  62.4  2.5               T                                        4910563
LOR   002.33 242.2 m E Sg      2012/04/05 10:07:37.2   0.0                          T                1.1  .21 Ml 2.0         4910556
CABF  001.87 197.2 m E Sg      2012/04/05 10:07:23.2   0.4                          T                 .6  .20 Ml 1.6         4910548

.
EVENT     273101
    Date      Time       Latitude Longitude    Depth    Ndef Nsta Gap    Mag1  N    Mag2  N    Mag3  N   Author         ID
       rms   OT_Error      Smajor Sminor Az        Err   mdist  Mdist     Err        Err        Err      Quality

2012/04/05 10:41:45.0     48.0978   -1.0104       .0 f    11    6 213  Ml 2.1  3  Md 2.0  1              bulletin    273121
                                                                                                         _ldg
      0.30   +-  0.15       4.0    1.2  155.13 +-  0.0    0.31   1.53   +-0.2      +-                    m i km

FRANCE
Sta     Dist  EvAz     Phase      Date       Time     TRes  Azim  AzRes  Slow  SRes Def   SNR       Amp   Per   Mag1   Mag2       ID
GRR   000.31 019.2 m E Pg      2012/04/05 10:41:50.9  -0.3                          T                                        4903980
GRR   000.31 019.2 m E Sg      2012/04/05 10:41:55.4  -0.1                          T              108.6 1.02        Md 2.0  4903979
FLN   000.75 027.7 m E Pg      2012/04/05 10:41:59.5   0.1 209.0  0.9               T                                        4903977
FLN   000.75 027.7 m E Sg      2012/04/05 10:42:09.1  -0.3 206.1  -2.0              T                2.2  .21                4910571
LDF   000.77 049.7 m E Pg      2012/04/05 10:41:59.8   0.1                          T                                        4903978
LDF   000.77 049.7 m E Sn      2012/04/05 10:42:13.6   0.1                          T                8.0  .29                4910570
SGMF  001.05 279.2 m E Pg      2012/04/05 10:42:04.8   0.0                          T                                        4903975
SGMF  001.05 279.2 m E Sg      2012/04/05 10:42:19.1   0.5                          T                4.8  .25 Ml 2.1         4910574
QUIF  001.46 263.7 m E Pg      2012/04/05 10:42:12.3  -0.1                          T                                        4903976
QUIF  001.46 263.7 m E Sg      2012/04/05 10:42:31.1  -0.3                          T                3.3  .19 Ml 2.2         4910573
ROSF  001.53 279.8 m E Sg      2012/04/05 10:42:34.2   0.4                          T                1.3  .21 Ml 1.8         4910572

.
EVENT     273102
    Date      Time       Latitude Longitude    Depth    Ndef Nsta Gap    Mag1  N    Mag2  N    Mag3  N   Author         ID
       rms   OT_Error      Smajor Sminor Az        Err   mdist  Mdist     Err        Err        Err      Quality

2012/04/05 10:51:41.5     46.0305    5.6099       .0 f    16    7 093  Ml 2.0  2  Md 2.0  1              bulletin    273122
                                                                                                         _ldg
      0.45   +-  0.14       3.8    2.8   67.89 +-  0.0    0.67   1.98   +-0.3      +-                    m i km

FRANCE
Sta     Dist  EvAz     Phase      Date       Time     TRes  Azim  AzRes  Slow  SRes Def   SNR       Amp   Per   Mag1   Mag2       ID
CABF  000.67 029.5 m E Pg      2012/04/05 10:51:54.8   0.2                          T                                        4904374
CABF  000.67 029.5 m E Sn      2012/04/05 10:52:07.1  -0.6                          T                3.2  .38        Md 2.0  4910577
LPL   000.94 122.8 m E Pn      2012/04/05 10:52:01.7   0.9                          T                                        4904363
LPL   000.94 122.8 m E Sn      2012/04/05 10:52:14.3   0.0                          T                                        4904362
ORIF  001.13 170.2 m E Pn      2012/04/05 10:52:02.9  -0.3                          T                                        4904365
ORIF  001.13 170.2 m E Sn      2012/04/05 10:52:18.7   0.0                          T                                        4904364
SMF   001.37 297.3 m E Pn      2012/04/05 10:52:05.7  -0.7                          T                                        4904376
SMF   001.37 297.3 m E Sn      2012/04/05 10:52:25.4   1.0                          T                3.5  .18 Ml 2.3         4904375
VIVF  001.35 209.7 m E Pn      2012/04/05 10:52:06.3   0.2                          T                                        4904367
VIVF  001.35 209.7 m E Sn      2012/04/05 10:52:23.7  -0.1                          T                                        4904366
AVF   001.74 296.8 m E Pn      2012/04/05 10:52:11.4   0.0                          T                                        4904372
AVF   001.74 296.8 m E Sn      2012/04/05 10:52:33.6   0.5                          T                                        4904373
AVF   001.74 296.8 m E Sg      2012/04/05 10:52:36.5  -0.1                          T                1.4  .31 Ml 1.8         4904368
HINF  001.98 025.0 m E Pn      2012/04/05 10:52:13.9  -0.9                          T                                        4904371

.
EVENT     273103
    Date      Time       Latitude Longitude    Depth    Ndef Nsta Gap    Mag1  N    Mag2  N    Mag3  N   Author         ID
       rms   OT_Error      Smajor Sminor Az        Err   mdist  Mdist     Err        Err        Err      Quality

2012/04/05 11:23:03.9     46.7878    6.3568       .0 f    10    5 208  Ml 2.0  4  Md 2.0  1              bulletin    273123
                                                                                                         _ldg
      1.26   +-  0.31       7.4    3.1  129.76 +-  0.0    0.26   1.78   +-0.1      +-                    m i km

SWITZERLAND
Sta     Dist  EvAz     Phase      Date       Time     TRes  Azim  AzRes  Slow  SRes Def   SNR       Amp   Per   Mag1   Mag2       ID
CABF  000.26 226.5 m E Pg      2012/04/05 11:23:09.0  -0.2                          T                                        4910290
CABF  000.26 226.5 m E Sg      2012/04/05 11:23:13.8   0.9                          T               36.7  .50        Md 2.0  4910291
HINF  001.08 018.0 m E Pg      2012/04/05 11:23:24.5   0.0                          T                                        4910285
HINF  001.08 018.0 m E Sg      2012/04/05 11:23:39.6   0.9                          T                2.9  .27 Ml 1.9         4910289
HAU   001.22 359.7 m E Pn      2012/04/05 11:23:26.6  -0.1                          T                                        4910286
HAU   001.22 359.7 m E Sg      2012/04/05 11:23:42.0  -0.9                          T                5.5  .28 Ml 2.0         4910288
SMF   001.74 266.2 m E Pg      2012/04/05 11:23:36.5   0.1                          T                                        4910284
SMF   001.74 266.2 m E Sg      2012/04/05 11:23:58.8  -0.2                          T                3.1  .35 Ml 2.1         4910287
LOR   001.78 286.6 m E Pg      2012/04/05 11:23:37.2   0.0 111.6  6.8               T                                        4910282
LOR   001.78 286.6 m E Sg      2012/04/05 11:24:00.4   0.1 116.0  11.2              T                1.8  .24 Ml 2.0         4910283

.
EVENT     273107
    Date      Time       Latitude Longitude    Depth    Ndef Nsta Gap    Mag1  N    Mag2  N    Mag3  N   Author         ID
       rms   OT_Error      Smajor Sminor Az        Err   mdist  Mdist     Err        Err        Err      Quality

2012/04/05 12:05:35.1     44.4714    6.7017      2.0      38    8 046  Ml 1.7  2  Md 2.1  1              js067245    273127

      0.28   +-  0.05       1.1     .8   45.72 +-  0.0    0.08   1.74   +-0.1      +-                    m i ke

FRANCE
Sta     Dist  EvAz     Phase      Date       Time     TRes  Azim  AzRes  Slow  SRes Def   SNR       Amp   Per   Mag1   Mag2       ID
MBDF  000.26 011.0 m E Pg      2012/04/05 12:05:40.5   0.1                          T                                        4904393
MBDF  000.26 011.0 m E Sg      2012/04/05 12:05:44.2   0.2                          T               13.7  .24        Md 2.1  4904392
ORIF  000.74 307.6 m E Pg      2012/04/05 12:05:49.1  -0.1                          T                                        4904391
ORIF  000.74 307.6 m E Sg      2012/04/05 12:05:58.7  -0.1                          T                4.1  .28                4904390
SBF   000.81 138.8 m E Pg      2012/04/05 12:05:51.0   0.6                          T                                        4904378
SBF   000.81 138.8 m E Sg      2012/04/05 12:06:00.9   0.1                          T                2.6  .22                4904379
FRF   000.91 182.5 m E P       2012/04/05 12:05:54.0  -0.2                          T                                        4904382
FRF   000.91 182.5 m E S       2012/04/05 12:06:09.0   0.3                          T                                        4904383
SMRF  000.95 238.9 m E P       2012/04/05 12:05:54.8  -0.2                          T                                        4904387
SMRF  000.95 238.9 m E S       2012/04/05 12:06:09.1  -0.6                          T                2.8  .24                4904386
LPL   001.05 001.2 m E Pg      2012/04/05 12:05:55.0   0.0                          T                                        4904389
LPL   001.05 001.2 m E Sg      2012/04/05 12:06:08.8   0.2                          T                3.4  .36 Ml 1.8         4904388
LMR   001.15 187.0 m E P       2012/04/05 12:05:58.2   0.1                          T                                        4904385
LMR   001.15 187.0 m E S       2012/04/05 12:06:14.2  -0.4                          T                                        4904384
VIVF  001.50 285.6 m E Pn      2012/04/05 12:06:01.2  -0.2                          T                                        4904381
VIVF  001.50 285.6 m E Sn      2012/04/05 12:06:20.4   0.0                          T                1.4  .32 Ml 1.7         4904380

.
