BEGIN GSE2.0
MSG_TYPE DATA
MSG_ID 12-FEV-1310:36:37  FRA_NDC
E-MAIL
DATA_TYPE BULLETIN
Reviewed Bulletin (REB) # P2013-004  from French NDC for regional phases     PERIOD 23 JAN 2013 TO 29 JAN 2013 Cenalt JP S
EVENT     290738
    Date      Time       Latitude Longitude    Depth    Ndef Nsta Gap    Mag1  N    Mag2  N    Mag3  N   Author         ID
       rms   OT_Error      Smajor Sminor Az        Err   mdist  Mdist     Err        Err        Err      Quality

2013/01/23 00:42:27.1     41.8756    3.5423      9.0 f    78   17 166  Ml 2.3 17  Md 2.3  1              bulletin    290838
                                                                                                         _ldg
      0.69   +-  0.12       2.5    1.4  171.52 +-  0.0    0.48   4.31   +-0.2      +-                    m i ke

SPAIN
Sta     Dist  EvAz     Phase      Date       Time     TRes  Azim  AzRes  Slow  SRes Def   SNR       Amp   Per   Mag1   Mag2       ID
MTLF  001.76 326.7 m E Pn      2013/01/23 00:42:56.3   0.2                          T                                        5175418
MTLF  001.76 326.7 m E Pg      2013/01/23 00:42:59.6  -0.2                          T                                        5175470
MTLF  001.76 326.7 m E Sn      2013/01/23 00:43:18.1   0.8                          T                                        5175407
MTLF  001.76 326.7 m E Sg      2013/01/23 00:43:22.4  -0.3                          T                4.0  .19 Ml 2.5 Md 2.3  5183122
LASF  002.21 005.9 m E Pn      2013/01/23 00:43:02.5   0.3                          T                                        5175417
LASF  002.21 005.9 m E Pg      2013/01/23 00:43:07.2  -1.0                          T                                        5175432
LASF  002.21 005.9 m E Sn      2013/01/23 00:43:28.9   0.9                          T                                        5175408
LASF  002.21 005.9 m E Sg      2013/01/23 00:43:36.4  -0.2                          T                2.2  .19 Ml 2.3         5183121
SMRF  002.58 034.7 m E Pn      2013/01/23 00:43:07.3   0.1                          T                                        5175411
LMR   002.63 055.4 m E Pn      2013/01/23 00:43:07.7  -0.2                          T                                        5175415
LMR   002.63 055.4 m E Pg      2013/01/23 00:43:15.3  -0.6                          T                                        5183112
LMR   002.63 055.4 m E Sn      2013/01/23 00:43:37.7  -0.4                          T                3.5  .25 Ml 2.5         5175413
EPF   002.64 297.0 m E Pn      2013/01/23 00:43:08.7   0.6                          T                                        5175416
EPF   002.64 297.0 m E Pg      2013/01/23 00:43:15.9  -0.2                          T                                        5175406
EPF   002.64 297.0 m E Sn      2013/01/23 00:43:39.0   0.7                          T                                        5175405
EPF   002.64 297.0 m E Sg      2013/01/23 00:43:49.2  -0.8                          T                2.6  .22 Ml 2.4         5183117
FRF   002.84 052.6 m E Pn      2013/01/23 00:43:10.7  -0.1                          T                                        5175414
FRF   002.84 052.6 m E Sn      2013/01/23 00:43:43.1   0.0                          T                1.7  .22 Ml 2.3         5175412
VIVF  003.09 015.1 m E Pn      2013/01/23 00:43:14.6   0.3                          T                                        5175410
VIVF  003.09 015.1 m E Pg      2013/01/23 00:43:23.6  -0.8                          T                                        5183119
VIVF  003.09 015.1 m E Sn      2013/01/23 00:43:49.5   0.4                          T                1.4  .32 Ml 2.1         5175409
VIVF  003.09 015.1 m E Sg      2013/01/23 00:44:04.0  -0.2                          T                1.2  .24 Ml 2.1         5183120
CAF   003.23 341.0 m E Pn      2013/01/23 00:43:16.6   0.4                          T                                        5175402
CAF   003.23 341.0 m E Pg      2013/01/23 00:43:26.7  -0.4                          T                                        5175401
CAF   003.23 341.0 m E Sn      2013/01/23 00:43:53.3   0.7                          T                                        5183116
CAF   003.23 341.0 m E Sg      2013/01/23 00:44:08.4  -0.2                          T                1.8  .22 Ml 2.4         5175400
ETSF  003.21 290.0 m E Pn      2013/01/23 00:43:16.8   1.0                          T                                        5175403
ETSF  003.21 290.0 m E Sn      2013/01/23 00:43:52.7   0.8                          T                                        5175404
ETSF  003.21 290.0 m E Sg      2013/01/23 00:44:07.6  -0.2                          T                3.2  .35 Ml 2.4         5175472
SBF   003.48 053.9 m E Pn      2013/01/23 00:43:19.5  -0.2                          T                                        5175428
SBF   003.48 053.9 m E Sn      2013/01/23 00:43:58.6   0.1                          T                1.1  .27 Ml 2.1         5175427
ORIF  003.49 028.5 m E Pn      2013/01/23 00:43:19.7   0.0                          T                                        5175434
ORIF  003.49 028.5 m E Sn      2013/01/23 00:43:59.3   0.7                          T                 .4  .25 Ml 1.7         5175471
LFF   003.68 327.3 m E Pn      2013/01/23 00:43:22.5   0.3                          T                                        5183113
LFF   003.68 327.3 m E Pg      2013/01/23 00:43:35.0  -0.2                          T                                        5183114
LFF   003.68 327.3 m E Sn      2013/01/23 00:44:04.4   1.3                          T                                        5183115
LFF   003.68 327.3 m E Sg      2013/01/23 00:44:22.4  -0.1                          T                4.8  .33 Ml 2.6         5175423
SJPF  003.74 290.9 m E Pn      2013/01/23 00:43:23.2   0.2                          T                                        5175431
SJPF  003.74 290.9 m E Sn      2013/01/23 00:44:05.3   0.8                          T                 .5  .16 Ml 2.1         5175430
SJPF  003.74 290.9 m E Sg      2013/01/23 00:44:23.9  -0.3                          T                                        5175473
RJF   003.73 337.4 m E Pn      2013/01/23 00:43:23.4   0.5                          T                                        5175435
RJF   003.73 337.4 m E Sg      2013/01/23 00:44:23.7  -0.3                          T                1.8  .18 Ml 2.3         5175424
MBDF  003.70 038.5 m E Pn      2013/01/23 00:43:24.5   1.9                          T                                        5183118
PGF   004.11 078.8 m E Pn      2013/01/23 00:43:28.5   0.3                          T                                        5175425
PGF   004.11 078.8 m E Sn      2013/01/23 00:44:13.4  -0.1                          T                 .9  .18 Ml 2.6         5175426
LPL   004.31 031.4 m E Pn      2013/01/23 00:43:31.0  -0.1                          T                                        5175433

.
EVENT     290740
    Date      Time       Latitude Longitude    Depth    Ndef Nsta Gap    Mag1  N    Mag2  N    Mag3  N   Author         ID
       rms   OT_Error      Smajor Sminor Az        Err   mdist  Mdist     Err        Err        Err      Quality

2013/01/23 01:53:08.5     45.6885    7.0321      7.0 f    35    6 050  Ml 1.6  6  Md 1.6  2              bulletin    290840
                                                                                                         _ldg
      0.41   +-  0.06       1.4    1.1  112.47 +-  0.0    0.10   2.42   +-0.3      +-0.0                 m i ke

NORTHERN ITALY
Sta     Dist  EvAz     Phase      Date       Time     TRes  Azim  AzRes  Slow  SRes Def   SNR       Amp   Per   Mag1   Mag2       ID
LPL   000.27 230.8 m E Pg      2013/01/23 01:53:14.0  -0.3                          T                                        5175467
LPL   000.27 230.8 m E Sg      2013/01/23 01:53:17.9  -0.1                          T                7.0  .28        Md 1.6  5175462
LPG   000.27 226.0 m E Pg      2013/01/23 01:53:14.1  -0.3                          T                                        5175468
LPG   000.27 226.0 m E Sg      2013/01/23 01:53:17.6  -0.6                          T               11.3  .18        Md 1.6  5175461
MBDF  000.98 190.9 m E Pg      2013/01/23 01:53:27.0  -0.1                          T                                        5175466
MBDF  000.98 190.9 m E Sg      2013/01/23 01:53:40.5   0.7                          T                1.2  .22 Ml 1.5         5175464
ORIF  001.12 227.0 m E Pg      2013/01/23 01:53:29.5  -0.1                          T                                        5175465
ORIF  001.12 227.0 m E Sg      2013/01/23 01:53:44.2   0.0                          T                 .8  .26 Ml 1.4         5175463
CABF  001.13 324.9 m E Pg      2013/01/23 01:53:30.0   0.2                          T                                        5175475
CABF  001.13 324.9 m E Sg      2013/01/23 01:53:44.6   0.1                          T                2.1  .27 Ml 1.8         5175474
SMF   002.42 294.5 m E Pn      2013/01/23 01:53:47.0   0.3                          T                                        5175543
SMF   002.42 294.5 m E Pg      2013/01/23 01:53:53.2  -0.2                          T                                        5175541
SMF   002.42 294.5 m E Sn      2013/01/23 01:54:15.2   0.5                          T                 .5  .19 Ml 1.7         5175542
SMF   002.42 294.5 m E Sg      2013/01/23 01:54:24.4  -0.1                          T                 .4  .13 Ml 1.8         5175540

.
EVENT     290754
    Date      Time       Latitude Longitude    Depth    Ndef Nsta Gap    Mag1  N    Mag2  N    Mag3  N   Author         ID
       rms   OT_Error      Smajor Sminor Az        Err   mdist  Mdist     Err        Err        Err      Quality

2013/01/23 04:48:25.5     42.9605    -.7074     25.0       5    3 172             Md 1.1  2              bulletin    290854
                                                                                                         _ldg
      0.24   +-  0.15      14.8    3.4   15.86 +-  0.0    0.13   0.77              +-0.1                 m i ke

PYRENEES
Sta     Dist  EvAz     Phase      Date       Time     TRes  Azim  AzRes  Slow  SRes Def   SNR       Amp   Per   Mag1   Mag2       ID
ETSF  000.13 119.6 m E Pg      2013/01/23 04:48:30.7   0.1                          T                                        5175592
ETSF  000.13 119.6 m E Sg      2013/01/23 04:48:34.0  -0.1                          T               26.0  .20        Md 1.1  5175591
SJPF  000.41 292.1 m E Pg      2013/01/23 04:48:34.2  -0.2                          T                                        5175586
SJPF  000.41 292.1 m E Sg      2013/01/23 04:48:41.1   0.5                          T                  1  .22        Md 1.0  5175585
EPF   000.77 084.5 m E Sg      2013/01/23 04:48:51.2   0.0                          T                 .6  .25                5175593

.
EVENT     290788
    Date      Time       Latitude Longitude    Depth    Ndef Nsta Gap    Mag1  N    Mag2  N    Mag3  N   Author         ID
       rms   OT_Error      Smajor Sminor Az        Err   mdist  Mdist     Err        Err        Err      Quality

2013/01/23 13:28:18.0     47.3427    5.8434       .0 f    30   13 112  Ml 2.2  9  Md 2.1  3              bulletin    290888
                                                                                                         _ldg
      0.78   +-  0.06       1.5     .9  134.71 +-  0.0    0.75   2.84   +-0.3      +-0.2                 m i km

FRANCE
Sta     Dist  EvAz     Phase      Date       Time     TRes  Azim  AzRes  Slow  SRes Def   SNR       Amp   Per   Mag1   Mag2       ID
HAU   000.75 027.0 m E Pg      2013/01/23 13:28:32.4   0.0                          T                                        5175939
HAU   000.75 027.0 m E Sg      2013/01/23 13:28:42.5   0.2                          T               12.3  .24        Md 2.4  5175938
CABF  000.75 167.0 m E Pg      2013/01/23 13:28:32.5  -0.1                          T                                        5175935
CABF  000.75 167.0 m E Sg      2013/01/23 13:28:42.9   0.3                          T                4.9  .24        Md 2.0  5175934
HINF  000.83 054.9 m E Pg      2013/01/23 13:28:34.2   0.2                          T                                        5175937
HINF  000.83 054.9 m E Sg      2013/01/23 13:28:44.9  -0.1                          T               13.5  .22        Md 2.1  5175936
SFTF  001.02 328.1 m E Pg      2013/01/23 13:28:37.4   0.0 145.1  -2.4              T                                        5175954
SFTF  001.02 328.1 m E Sg      2013/01/23 13:28:50.8  -0.1                          T                5.6  .26 Ml 2.2         5175953
PAGF  001.22 356.3 m E Pg      2013/01/23 13:28:40.6  -0.5                          T                                        5175950
PAGF  001.22 356.3 m E Sg      2013/01/23 13:28:56.9  -0.1                          T               39.1  .59 Ml 2.7         5175949
MEZF  001.28 335.6 m E Pn      2013/01/23 13:28:41.9   0.3                          T                                        5175952
MEZF  001.28 335.6 m E Sn      2013/01/23 13:28:58.6   0.0                          T                3.4  .25 Ml 2.1         5175951
LOR   001.35 267.6 m E Pg      2013/01/23 13:28:43.6   0.0  87.4  1.3               T                                        5183128
LOR   001.35 267.6 m E Sg      2013/01/23 13:29:01.2  -0.1 101.7  15.6              T                6.6  .22 Ml 2.5         5175943
CDF   001.44 041.5 m E Pn      2013/01/23 13:28:43.9  -0.1                          T                                        5175948
CDF   001.44 041.5 m E Sn      2013/01/23 13:29:02.8   0.1                          T                3.1  .27 Ml 2.2         5175947
SMF   001.54 243.8 m E Pn      2013/01/23 13:28:45.1  -0.1                          T                                        5175972
SMF   001.54 243.8 m E Pg      2013/01/23 13:28:46.9  -0.1                          T                                        5175971
SMF   001.54 243.8 m E Sn      2013/01/23 13:29:04.9   0.1                          T                                        5175970
SMF   001.54 243.8 m E Sg      2013/01/23 13:29:06.9  -0.1                          T                3.0  .24 Ml 2.2         5175969
SSF   001.62 260.8 m E Pn      2013/01/23 13:28:46.3   0.0                          T                                        5175942
SSF   001.62 260.8 m E Sn      2013/01/23 13:29:06.7  -0.1                          T                                        5175941
SSF   001.62 260.8 m E Sg      2013/01/23 13:29:10.0   0.5                          T                1.6  .25 Ml 2.0         5175940
AVF   001.79 252.9 m E Pn      2013/01/23 13:28:48.4  -0.2                          T                                        5175958
AVF   001.79 252.9 m E Pg      2013/01/23 13:28:51.4  -0.2                          T                                        5175957
AVF   001.79 252.9 m E Sn      2013/01/23 13:29:10.9   0.0                          T                                        5175956
AVF   001.79 252.9 m E Sg      2013/01/23 13:29:14.9   0.1                          T                 .4  .18 Ml 1.5         5175955
HYF   002.18 269.2 m E Pn      2013/01/23 13:28:54.3   0.3                          T                                        5183127
GIVF  002.84 346.6 m E Pn      2013/01/23 13:29:03.2   0.3                          T                                        5175946
GIVF  002.84 346.6 m E Sn      2013/01/23 13:29:35.8  -0.3                          T                2.0  .21 Ml 2.4         5175945

.
