EVENT     265297
    Date      Time       Latitude Longitude    Depth    Ndef Nsta Gap    Mag1  N    Mag2  N    Mag3  N   Author         ID
       rms   OT_Error      Smajor Sminor Az        Err   mdist  Mdist     Err        Err        Err      Quality

2011/10/20 06:10:53.6     44.4032    9.4743     10.0 f    48   26 053  Ml 4.2  5                         js067245    265317

      0.86   +-  0.14       4.2    3.2   26.08 +-  0.0    0.09   9.45   +-0.1                            m i ke

NORTHERN ITALY
Sta     Dist  EvAz     Phase      Date       Time     TRes  Azim  AzRes  Slow  SRes Def   SNR       Amp   Per   Mag1   Mag2       ID
SBF   001.56 250.5 m E Pn      2011/10/20 06:11:19.5  -0.4                          T                                        4773454
SBF   001.56 250.5 m E Sn      2011/10/20 06:11:39.9   1.0                          T              471.0  .43 Ml 4.1         4773520
PGF   001.89 190.7 m E Pn      2011/10/20 06:11:24.8   0.5                          T                                        4773455
MBDF  001.96 280.5 m E Pn      2011/10/20 06:11:25.1  -0.2                          T                                        4773448
FRF   002.21 248.6 m E Pn      2011/10/20 06:11:28.1  -0.4                          T                                        4773452
LPG   002.22 300.5 m E Pn      2011/10/20 06:11:29.8   0.7                          T                                        4773450
LPL   002.24 300.7 m E Pn      2011/10/20 06:11:29.9   0.6                          T                                        4773465
LPL   002.24 300.7 m E Pg      2011/10/20 06:11:33.3  -2.3                          T                                        4774425
LPL   002.24 300.7 m E Sn      2011/10/20 06:11:55.5   0.1                          T                                        4774424
LMR   002.40 244.5 m E Pn      2011/10/20 06:11:30.5  -0.6                          T                                        4773453
LMR   002.40 244.5 m E Pg      2011/10/20 06:11:37.0  -1.1                          T                                        4773526
ORIF  002.62 282.6 m E Pn      2011/10/20 06:11:36.3   2.1                          T                                        4773449
SMRF  002.84 262.7 m E Pn      2011/10/20 06:11:38.0   0.8                          T                                        4773451
SMRF  002.84 262.7 m E Sn      2011/10/20 06:12:11.0   1.7                          T              266.7  .50 Ml 4.1         4775981
CABF  003.25 314.0 m E Pn      2011/10/20 06:11:43.6   0.8                          T                                        4773460
VIVF  003.46 279.2 m E Pn      2011/10/20 06:11:46.2   0.6                          T                                        4773521
HINF  003.87 332.8 m E Pn      2011/10/20 06:11:51.2   0.0                          T                                        4773464
HINF  003.87 332.8 m E Sn      2011/10/20 06:12:35.9   1.9                          T              115.9  .37 Ml 4.1         4775982
LASF  004.05 267.3 m E Pn      2011/10/20 06:11:53.6  -0.1                          T                                        4773522
HAU   004.21 330.0 m E Pn      2011/10/20 06:11:55.9   0.1                          T                                        4773445
HAU   004.21 330.0 m E Sn      2011/10/20 06:12:41.9  -0.2                          T              168.7  .32 Ml 4.2         4775983
CDF   004.29 340.0 m E Pn      2011/10/20 06:11:56.5  -0.5                          T                                        4774430
SMF   004.55 301.5 m E Pn      2011/10/20 06:12:01.1   0.7                          T                                        4773524
LOR   004.86 308.1 m E Pn      2011/10/20 06:12:04.3  -0.4                          T                                        4774431
LOR   004.86 308.1 m E Sn      2011/10/20 06:12:59.0   1.4                          T              117.5  .39 Ml 4.3         4775984
PAGF  004.89 329.4 m E Pn      2011/10/20 06:12:05.2   0.1                          T                                        4773461
SFTF  004.89 322.6 m E Pn      2011/10/20 06:12:05.7   0.6                          T                                        4773463
AVF   004.91 301.2 m E Pn      2011/10/20 06:12:06.1   0.7                          T                                        4773525
MEZF  005.11 324.9 m E Pn      2011/10/20 06:12:08.7   0.6                          T                                        4773462
BGF   005.13 297.1 m E Pn      2011/10/20 06:12:09.1   0.7                          T                                        4773523
MTLF  005.35 261.1 m E Pn      2011/10/20 06:12:10.8  -0.5                          T                                        4774426
CAF   005.31 278.2 m E Pn      2011/10/20 06:12:11.2   0.3                          T                                        4774427
HYF   005.57 303.4 m E Pn      2011/10/20 06:12:14.3   0.0                          T                                        4774429
QUIF  009.45 296.3 m E Pn      2011/10/20 06:13:06.8  -0.3                          T                                        4774428

.
EVENT     265298
    Date      Time       Latitude Longitude    Depth    Ndef Nsta Gap    Mag1  N    Mag2  N    Mag3  N   Author         ID
       rms   OT_Error      Smajor Sminor Az        Err   mdist  Mdist     Err        Err        Err      Quality

2011/10/20 06:11:21.8     44.4746    9.4541     10.0 f   130   40 052  Ml 4.5 41                         js067245    265318

      1.18   +-  0.13       3.3    2.4  178.57 +-  0.0    0.74  21.87   +-0.3                            m i ke

NORTHERN ITALY
Sta     Dist  EvAz     Phase      Date       Time     TRes  Azim  AzRes  Slow  SRes Def   SNR       Amp   Per   Mag1   Mag2       ID
SBF   001.58 247.9 m E Pn      2011/10/20 06:11:46.9  -1.4                          T   001.0                                4773379
SBF   001.58 247.9 m E Pg      2011/10/20 06:11:50.2  -1.0                          T                                        4774511
SBF   001.58 247.9 m E Sn      2011/10/20 06:12:06.6  -0.8                          T   001.0     6444.8  .78 Ml 5.0         4773380
PGF   001.95 189.9 m E Pn      2011/10/20 06:11:51.9  -1.5                          T   001.0                                4773377
PGF   001.95 189.9 m E Sn      2011/10/20 06:12:14.9  -1.6                          T   001.0      351.3  .64 Ml 4.2         4773378
MBDF  001.93 278.4 m E Pn      2011/10/20 06:11:53.5   0.3                          T   001.0                                4773385
MBDF  001.93 278.4 m E Sn      2011/10/20 06:12:16.4   0.3                          T   001.0     4053.6  .76 Ml 4.9         4773386
MBDF  001.93 278.4 m E S       2011/10/20 06:12:20.8   0.6                          T                                        4773615
MBDF  001.93 278.4 m E Sg      2011/10/20 06:12:22.6  -0.3                          T                                        4773595
FRF   002.22 246.7 m E Pn      2011/10/20 06:11:55.2  -1.7                          T   001.0                                4773364
FRF   002.22 246.7 m E Pg      2011/10/20 06:12:01.0  -2.0                          T                                        4774515
FRF   002.22 246.7 m E Sn      2011/10/20 06:12:22.7  -0.1                          T   001.0     1867.8  .68 Ml 4.7         4773365
FRF   002.22 246.7 m E Sg      2011/10/20 06:12:29.3  -2.4                          T                                        4774518
LPL   002.19 299.3 m E Pn      2011/10/20 06:11:57.3   0.4                          T   001.0                                4773375
LPL   002.19 299.3 m E P       2011/10/20 06:12:00.1   0.8                          T                                        4773622
LPL   002.19 299.3 m E Sn      2011/10/20 06:12:23.7   1.2                          T   001.0      844.2  .38 Ml 4.6         4773376
LPL   002.19 299.3 m E S       2011/10/20 06:12:28.3   1.4                          T                                        4773601
LMR   002.41 242.8 m E Pn      2011/10/20 06:11:57.9  -1.7                          T   001.0                                4773369
LMR   002.41 242.8 m E P       2011/10/20 06:12:00.2  -1.9                          T                                        4774513
LMR   002.41 242.8 m E Pg      2011/10/20 06:12:03.7  -2.9                          T                                        4774512
LMR   002.41 242.8 m E Sn      2011/10/20 06:12:25.9  -1.5                          T   001.0      657.6  .56 Ml 4.4         4773370
LMR   002.41 242.8 m E S       2011/10/20 06:12:30.9  -1.3                          T                                        4774514
LMR   002.41 242.8 m E Sg      2011/10/20 06:12:35.4  -2.3                          T                                        4773600
LPG   002.17 299.0 m E Pn      2011/10/20 06:11:57.9   1.3                          T   001.0                                4773373
LPG   002.17 299.0 m E P       2011/10/20 06:11:59.7   0.7                          T                                        4773621
LPG   002.17 299.0 m E Sn      2011/10/20 06:12:23.2   1.2                          T   001.0     1307.6  .50 Ml 4.7         4773374
LPG   002.17 299.0 m E Sg      2011/10/20 06:12:27.7  -2.9                          T                                        4774516
ORIF  002.59 281.1 m E Pn      2011/10/20 06:12:03.3   1.3                          T   001.0                                4773389
ORIF  002.59 281.1 m E Sn      2011/10/20 06:12:31.6  -0.1                          T   001.0     1395.7  .54 Ml 4.7         4773390
SMRF  002.83 261.2 m E Pn      2011/10/20 06:12:04.8  -0.5                          T   001.0                                4773393
SMRF  002.83 261.2 m E Sn      2011/10/20 06:12:36.5  -1.0                          T             2192.4 1.00 Ml 4.7         4773402
CABF  003.19 313.3 m E Pn      2011/10/20 06:12:10.5   0.2                          T   001.0                                4773383
CABF  003.19 313.3 m E Sn      2011/10/20 06:12:47.6   1.5                          T             1173.8  .78 Ml 4.6         4773624
VIVF  003.43 278.1 m E Pn      2011/10/20 06:12:14.1   0.6                          T   001.0                                4773391
VIVF  003.43 278.1 m E P       2011/10/20 06:12:16.0  -0.7                          T                                        4773602
VIVF  003.43 278.1 m E Sn      2011/10/20 06:12:52.8   1.0                          T   001.0      280.0  .53 Ml 4.2         4773392
HINF  003.80 332.5 m E Pn      2011/10/20 06:12:18.1  -0.4                          T   001.0                                4773384
HINF  003.80 332.5 m E Sn      2011/10/20 06:13:01.5   0.9                          T              503.5  .40 Ml 4.7         4773398
LASF  004.04 266.3 m E Pn      2011/10/20 06:12:20.4  -1.4                          T   001.0                                4773368
LASF  004.04 266.3 m E Sn      2011/10/20 06:13:05.1  -1.1                          T               96.3  .51 Ml 3.9         4773401
HAU   004.14 329.7 m E Pn      2011/10/20 06:12:22.9  -0.2                          T   001.0                                4773366
HAU   004.14 329.7 m E P       2011/10/20 06:12:26.8   0.1                          T                                        4773599
HAU   004.14 329.7 m E Sn      2011/10/20 06:13:10.9   2.3                          T   001.0     1919.8  .46 Ml 5.1         4773367
CDF   004.22 339.9 m E Pn      2011/10/20 06:12:23.5  -0.7                          T   001.0                                4773362
CDF   004.22 339.9 m E P       2011/10/20 06:12:27.4  -0.5                          T                                        4773598
CDF   004.22 339.9 m E Sn      2011/10/20 06:13:10.8   0.2                          T   001.0      353.1  .54 Ml 4.6         4773363
SMF   004.50 300.8 m E Pn      2011/10/20 06:12:28.4   0.4                          T   001.0                                4773381
SMF   004.50 300.8 m E Sn      2011/10/20 06:13:19.0   1.7                          T              481.5  .33 Ml 4.9         4773627
LOR   004.80 307.5 m E Pn      2011/10/20 06:12:32.2   0.0 126.9  3.4               T   001.0                                4773371
LOR   004.80 307.5 m E Sn      2011/10/20 06:13:25.4   0.9 123.9  0.3               T   001.0      652.5  .44 Ml 5.0         4773372
PAGF  004.82 329.1 m E Pn      2011/10/20 06:12:32.5   0.0 147.3  0.9               T                                        4773639
PAGF  004.82 329.1 m E P       2011/10/20 06:12:35.3  -1.2                          T                                        4773597
PAGF  004.82 329.1 m E Sn      2011/10/20 06:13:25.8   0.8                          T               62.6  .34 Ml 4.1         4773623
SFTF  004.82 322.2 m E Pn      2011/10/20 06:12:32.7   0.3 130.6  -8.5              T                                        4773641
SFTF  004.82 322.2 m E P       2011/10/20 06:12:35.4  -1.1                          T                                        4773596
SFTF  004.82 322.2 m E Sn      2011/10/20 06:13:25.6   0.6 139.7  0.7               T              249.2  .48 Ml 4.5         4773607
AVF   004.87 300.6 m E Pn      2011/10/20 06:12:33.1   0.1                          T   001.0                                4773359
AVF   004.87 300.6 m E Sn      2011/10/20 06:13:26.4   0.5                          T              179.0  .53 Ml 4.4         4773608
SSF   004.90 304.0 m E Pn      2011/10/20 06:12:33.3  -0.1                          T   001.0                                4773382
SSF   004.90 304.0 m E Sn      2011/10/20 06:13:26.5  -0.3                          T              287.8  .52 Ml 4.7         4773629
MEZF  005.05 324.5 m E Pn      2011/10/20 06:12:35.3  -0.1 141.8  0.5               T                                        4773640
MEZF  005.05 324.5 m E Sn      2011/10/20 06:13:30.6   0.3 144.7  3.4               T              362.3  .70 Ml 4.6         4773606
BGF   005.09 296.5 m E Pn      2011/10/20 06:12:36.5   0.5                          T   001.0                                4773360
BGF   005.09 296.5 m E P       2011/10/20 06:12:40.7   0.5                          T                                        4773618
BGF   005.09 296.5 m E Sn      2011/10/20 06:13:33.2   1.9                          T              545.4  .48 Ml 4.9         4773625
MTLF  005.35 260.3 m E Pn      2011/10/20 06:12:38.8  -0.8                          T   001.0                                4773387
MTLF  005.35 260.3 m E Sn      2011/10/20 06:13:36.8  -0.8                          T   001.0       54.6  .49 Ml 4.0         4773388
CAF   005.29 277.5 m E Pn      2011/10/20 06:12:39.3   0.5                          T   001.0                                4773361
CAF   005.29 277.5 m E Sn      2011/10/20 06:13:37.5   1.4                          T               90.5  .60 Ml 4.1         4773620
TCF   005.42 292.1 m E Pn      2011/10/20 06:12:41.6   1.1                          T                                        4773397
TCF   005.42 292.1 m E Sn      2011/10/20 06:13:40.0   0.8                          T              108.9  .36 Ml 4.5         4773628
HYF   005.52 302.8 m E Pn      2011/10/20 06:12:42.3   0.5                          T                                        4773638
HYF   005.52 302.8 m E Sn      2011/10/20 06:13:43.1   1.5                          T                                        4773626
RJF   005.70 281.1 m E Pn      2011/10/20 06:12:44.2  -0.1                          T                                        4773637
RJF   005.70 281.1 m E P       2011/10/20 06:12:47.0  -1.8                          T                                        4773603
RJF   005.70 281.1 m E Sn      2011/10/20 06:13:47.1   1.1                          T               91.1  .62 Ml 3.9         4774520
GIVF  006.45 332.4 m E Pn      2011/10/20 06:12:54.7   0.1                          T                                        4773631
GIVF  006.45 332.4 m E Sn      2011/10/20 06:14:04.2   0.3                          T              265.5  .88 Ml 4.7         4773604
BAIF  006.63 329.3 m E Pn      2011/10/20 06:12:57.6   0.6                          T                                        4773630
BAIF  006.63 329.3 m E Sn      2011/10/20 06:14:08.9   0.9                          T              233.3  .92 Ml 4.6         4773605
EPF   006.76 260.8 m E Pn      2011/10/20 06:12:58.4  -0.4                          T                                        4773634
MFF   007.07 290.9 m E Pn      2011/10/20 06:13:03.9   0.9                          T                                        4773636
MFF   007.07 290.9 m E Sn      2011/10/20 06:14:19.6   1.0                          T               67.0  .62 Ml 4.5         4773399
ETSF  007.43 261.2 m E Pn      2011/10/20 06:13:08.2   0.3                          T                                        4773633
ETSF  007.43 261.2 m E Sn      2011/10/20 06:14:27.7   0.4                          T               68.0  .84 Ml 4.2         4773400
LDF   007.78 305.3 m E Pn      2011/10/20 06:13:12.2  -0.5                          T                                        4773614
LDF   007.78 305.3 m E Sn      2011/10/20 06:14:36.7   1.0                          T               80.3  .72 Ml 4.4         4774519
SJPF  007.85 263.7 m E Pn      2011/10/20 06:13:12.2  -1.3                          T                                        4773632
FLN   008.07 305.6 m E Pn      2011/10/20 06:13:15.7  -0.9 124.8  6.4               T                                        4773613
FLN   008.07 305.6 m E Sn      2011/10/20 06:14:42.8   0.2 135.0  16.6              T              115.0  .62 Ml 4.6         4773617
GRR   008.13 302.4 m E Pn      2011/10/20 06:13:17.8   0.4                          T                                        4773635
GRR   008.13 302.4 m E P       2011/10/20 06:13:23.2   0.4                          T                                        4773619
GRR   008.13 302.4 m E Sn      2011/10/20 06:14:44.2   0.3                          T                                        4773616
SGMF  009.12 298.7 m E Pn      2011/10/20 06:13:30.8  -0.1                          T                                        4773610
SGMF  009.12 298.7 m E Sn      2011/10/20 06:15:08.2   0.5                          T               47.2  .80 Ml 4.4         4773609
QUIF  009.40 295.9 m E Pn      2011/10/20 06:13:34.1  -0.6                          T                                        4773612
QUIF  009.40 295.9 m E Sn      2011/10/20 06:15:16.7   2.3                          T               20.0  .46 Ml 4.3         4773594
ROSF  009.60 298.2 m E Pn      2011/10/20 06:13:36.7  -0.7                          T                                        4773611
ROSF  009.60 298.2 m E Sn      2011/10/20 06:15:19.5   0.3                          T               37.3  .64 Ml 4.4         4773593

.
