BEGIN GSE2.0
MSG_TYPE DATA
MSG_ID 01-DEC-1115:29:46  FRA_NDC
E-MAIL
DATA_TYPE BULLETIN
Reviewed Bulletin (REB) # P2011-047  from French NDC for regional phases     PERIOD 23 NOV 2011 TO 29 NOV 2011 S M., J-P S.
EVENT     266656
    Date      Time       Latitude Longitude    Depth    Ndef Nsta Gap    Mag1  N    Mag2  N    Mag3  N   Author         ID
       rms   OT_Error      Smajor Sminor Az        Err   mdist  Mdist     Err        Err        Err      Quality

2011/11/23 03:32:44.6     36.6384    3.0204     20.0 f    63   14 087  Ml 3.0 10                         js067245    266676

      0.97   +-  0.19       4.0    3.3  172.58 +-  0.0    0.39   9.30   +-0.3                            m i ke

NORTHERN ALGERIA
Sta     Dist  EvAz     Phase      Date       Time     TRes  Azim  AzRes  Slow  SRes Def   SNR       Amp   Per   Mag1   Mag2       ID
EPF   006.71 342.9 m E Pn      2011/11/23 03:34:20.2   0.4                          T                                        4792135
EPF   006.71 342.9 m E Sn      2011/11/23 03:35:31.5   0.5                          T                1.2  .27 Ml 2.9         4790577
MTLF  006.72 355.0 m E Pn      2011/11/23 03:34:21.1   1.2                          T                                        4790580
MTLF  006.72 355.0 m E Sn      2011/11/23 03:35:30.5  -0.8                          T                 .7  .33 Ml 2.5         4790578
ETSF  006.83 337.3 m E Pn      2011/11/23 03:34:21.5   0.0                          T                                        4790559
ETSF  006.83 337.3 m E Sn      2011/11/23 03:35:34.2   0.1                          T                2.2  .27 Ml 3.1         4790573
SJPF  007.24 334.5 m E Pn      2011/11/23 03:34:26.7  -0.3                          T                                        4790579
SJPF  007.24 334.5 m E Sn      2011/11/23 03:35:44.4   0.7                          T                 .7  .25 Ml 2.7         4790572
LMR   007.20 020.7 m E Pn      2011/11/23 03:34:27.1   0.7                          T                                        4790566
LMR   007.20 020.7 m E Sn      2011/11/23 03:35:43.2   0.4                          T                2.2  .36 Ml 3.1         4790568
FRF   007.45 020.8 m E Pn      2011/11/23 03:34:30.0   0.2                          T                                        4790569
FRF   007.45 020.8 m E Sn      2011/11/23 03:35:49.7   1.0                          T                  1  .21 Ml 3.0         4790567
PGF   007.49 036.2 m E Pn      2011/11/23 03:34:30.6   0.1                          T                                        4792133
PGF   007.49 036.2 m E Sn      2011/11/23 03:35:49.5  -0.4                          T                1.9  .32 Ml 3.4         4790561
SMRF  007.58 014.1 m E Pn      2011/11/23 03:34:31.7   0.0                          T                                        4792134
LASF  007.46 004.7 m E Pn      2011/11/23 03:34:31.9   2.0                          T                                        4790581
LASF  007.46 004.7 m E Sn      2011/11/23 03:35:49.2   0.3                          T                2.1  .42 Ml 3.0         4790562
CAF   008.31 355.3 m E Pn      2011/11/23 03:34:41.6   0.0                          T                                        4790563
CAF   008.31 355.3 m E Sn      2011/11/23 03:36:09.6   0.3                          T                 .3  .26 Ml 2.6         4792131
VIVF  008.30 008.2 m E Pn      2011/11/23 03:34:42.9   1.4                          T                                        4790582
LPL   009.30 016.4 m E Pn      2011/11/23 03:34:55.6   0.3                          T                                        4790571
LPG   009.29 016.5 m E Pn      2011/11/23 03:34:55.7   0.5                          T                                        4790570
SBF   007.97 023.7 m E Sn      2011/11/23 03:36:02.3   1.2                          T                1.6  .27 Ml 3.2         4792132

.
EVENT     266657
    Date      Time       Latitude Longitude    Depth    Ndef Nsta Gap    Mag1  N    Mag2  N    Mag3  N   Author         ID
       rms   OT_Error      Smajor Sminor Az        Err   mdist  Mdist     Err        Err        Err      Quality

2011/11/23 06:10:58.6     43.2596   -1.6907      2.0      41    4 136  Ml 1.8  3  Md 1.9  1              js067245    266677

      0.44   +-  0.13       2.1    1.8   10.77 +-  0.0    0.14   2.43   +-0.2      +-                    m i ke

PYRENEES
Sta     Dist  EvAz     Phase      Date       Time     TRes  Azim  AzRes  Slow  SRes Def   SNR       Amp   Per   Mag1   Mag2       ID
SJPF  000.37 113.1 m E Pg      2011/11/23 06:11:05.9   0.1                          T                                        4790704
SJPF  000.37 113.1 m E Sg      2011/11/23 06:11:10.7   0.0                          T               28.4  .28        Md 1.9  4790703
ETSF  000.90 113.1 m E Pg      2011/11/23 06:11:15.4  -0.3                          T                                        4790702
ETSF  000.90 113.1 m E Sg      2011/11/23 06:11:27.5   0.1                          T                3.3  .21 Ml 2.0         4790701
ETSF  000.90 113.1 m E Sn      2011/11/23 06:11:29.9   0.2                          T                                        4790699
EPF   001.50 098.1 m E Pg      2011/11/23 06:11:26.6  -0.2                          T                                        4790700
EPF   001.50 098.1 m E Sg      2011/11/23 06:11:45.9  -0.2                          T                1.4  .23 Ml 1.8         4792137
LFF   002.43 045.4 m E Sg      2011/11/23 06:12:15.0   0.2                          T                 .7  .24 Ml 1.6         4792136

.
EVENT     266663
    Date      Time       Latitude Longitude    Depth    Ndef Nsta Gap    Mag1  N    Mag2  N    Mag3  N   Author         ID
       rms   OT_Error      Smajor Sminor Az        Err   mdist  Mdist     Err        Err        Err      Quality

2011/11/23 09:22:57.6     42.6763    1.2027     10.0 f    49    9 044  Ml 2.6 10  Md 2.4  4              js067245    266683

      0.89   +-  0.07       1.4    1.2   17.66 +-  0.0    0.09   4.05   +-0.2      +-0.2                 m i ke

PYRENEES
Sta     Dist  EvAz     Phase      Date       Time     TRes  Azim  AzRes  Slow  SRes Def   SNR       Amp   Per   Mag1   Mag2       ID
EPF   000.73 299.4 m E Pg      2011/11/23 09:23:10.4  -1.0                          T   001.0                                4790089
EPF   000.73 299.4 m E Sg      2011/11/23 09:23:19.1  -1.9                          T               28.1  .21        Md 2.2  4790732
MTLF  001.00 047.9 m E Pn      2011/11/23 09:23:16.3   0.2                          T                                        4790728
MTLF  001.00 047.9 m E Pg      2011/11/23 09:23:16.7   0.3                          T   001.0                                4790096
MTLF  001.00 047.9 m E Sg      2011/11/23 09:23:29.4   0.0                          T   001.0        9.5  .26 Ml 2.4 Md 2.4  4790097
ETSF  001.32 280.3 m E Pg      2011/11/23 09:23:22.2  -0.1                          T                                        4790734
ETSF  001.32 280.3 m E Sg      2011/11/23 09:23:39.5   0.2                          T   001.0       10.0  .22 Ml 2.6 Md 2.4  4790094
SJPF  001.84 284.6 m E Pg      2011/11/23 09:23:31.7  -0.1                          T   001.0                                4790098
SJPF  001.84 284.6 m E Sg      2011/11/23 09:23:55.5   0.0                          T   001.0        4.8  .24 Ml 2.5 Md 2.6  4790099
CAF   002.33 015.2 m E Pg      2011/11/23 09:23:40.8  -0.1                          T   001.0                                4790088
CAF   002.33 015.2 m E Sg      2011/11/23 09:24:10.9  -0.1                          T                5.1  .20 Ml 2.7         4790733
LASF  002.39 053.2 m E Pg      2011/11/23 09:23:41.8  -0.2                          T                                        4790731
LASF  002.39 053.2 m E Sg      2011/11/23 09:24:12.7   0.1                          T                4.3  .23 Ml 2.6         4790730
RJF   002.64 004.8 m E Pg      2011/11/23 09:23:46.9   0.4                          T                                        4790724
RJF   002.64 004.8 m E Sg      2011/11/23 09:24:20.9   0.5                          T   001.0        4.4  .21 Ml 2.3         4790087
LFF   002.29 351.7 m E Sg      2011/11/23 09:24:08.9  -0.6                          T   001.0        8.1  .28 Ml 2.6         4790092
BGF   004.05 016.3 m E Sg      2011/11/23 09:25:04.2  -0.5                          T                8.5  .41 Ml 3.0         4790725

.
EVENT     266840
    Date      Time       Latitude Longitude    Depth    Ndef Nsta Gap    Mag1  N    Mag2  N    Mag3  N   Author         ID
       rms   OT_Error      Smajor Sminor Az        Err   mdist  Mdist     Err        Err        Err      Quality

2011/11/23 11:08:32.2     43.0074     .3692       .0 f    10    3 118  Ml 1.5  1  Md 1.4  2              js067245    266860

      0.76   +-  0.21       5.9    3.1   15.41 +-  0.0    0.03   1.39   +-         +-0.2                 m i km

FRANCE
Sta     Dist  EvAz     Phase      Date       Time     TRes  Azim  AzRes  Slow  SRes Def   SNR       Amp   Per   Mag1   Mag2       ID
EPF   000.03 316.9 m E Pg      2011/11/23 11:08:32.4  -0.7                          T                                        4792651
EPF   000.03 316.9 m E Sg      2011/11/23 11:08:32.7  -0.9                          T              301.2  .22        Md 1.5  4792652
ETSF  000.69 261.2 m E Pg      2011/11/23 11:08:45.0  -0.6                          T                                        4792649
ETSF  000.69 261.2 m E Sg      2011/11/23 11:08:53.8  -1.0                          T                2.3  .22        Md 1.3  4792650
MTLF  001.39 075.5 m E Pg      2011/11/23 11:08:59.2   0.7                          T                                        4792647
MTLF  001.39 075.5 m E Sg      2011/11/23 11:09:18.2   1.5                          T                 .8  .24 Ml 1.5         4792648

.
EVENT     266688
    Date      Time       Latitude Longitude    Depth    Ndef Nsta Gap    Mag1  N    Mag2  N    Mag3  N   Author         ID
       rms   OT_Error      Smajor Sminor Az        Err   mdist  Mdist     Err        Err        Err      Quality

2011/11/23 23:21:44.1     50.3285    7.4035     10.0 f    15    6 078  Ml 1.8  5  Md 1.9  1              js067245    266708

      0.47   +-  0.09       1.8    1.5  164.63 +-  0.0    0.23   2.39   +-0.4      +-                    m i ke

GERMANY
Sta     Dist  EvAz     Phase      Date       Time     TRes  Azim  AzRes  Slow  SRes Def   SNR       Amp   Per   Mag1   Mag2       ID
RUP   000.67 199.6 m E Pg      2011/11/23 23:21:56.7  -0.2                          T                                        4792163
RUP   000.67 199.6 m E Sg      2011/11/23 23:22:06.4   0.8                          T                                Md 1.9  4792164
BAIF  002.07 263.7 m E Pn      2011/11/23 23:22:14.7  -2.5                          T                                        4792159
BAIF  002.07 263.7 m E Pg      2011/11/23 23:22:22.1  -0.5                          T                                        4792158
BAIF  002.07 263.7 m E Sg      2011/11/23 23:22:49.2  -0.1                          T                  1  .23 Ml 1.8         4792160
GIVF  001.67 263.2 m E Pg      2011/11/23 23:22:14.8  -0.5                          T                                        4792161
GIVF  001.67 263.2 m E Sg      2011/11/23 23:22:36.8  -0.1                          T                2.2  .21 Ml 2.1         4792162
CDF   001.92 182.5 m E Pg      2011/11/23 23:22:19.2  -0.8                          T                                        4792156
CDF   001.92 182.5 m E Sg      2011/11/23 23:22:44.6  -0.1                          T                 .7  .25 Ml 1.7         4792157
PAGF  002.09 212.3 m E Sg      2011/11/23 23:22:49.8   0.0                          T                 .2  .26 Ml 1.2         4792154
MEZF  002.39 220.9 m E Sg      2011/11/23 23:22:59.2   0.0                          T                2.0  .35 Ml 2.0         4792155

.
EVENT     266682
    Date      Time       Latitude Longitude    Depth    Ndef Nsta Gap    Mag1  N    Mag2  N    Mag3  N   Author         ID
       rms   OT_Error      Smajor Sminor Az        Err   mdist  Mdist     Err        Err        Err      Quality

2011/11/23 23:58:07.5     42.9776     .0852      2.0      36    7 062  Ml 1.8  6  Md 1.8  2              js067245    266702

      0.95   +-  0.09       1.9    1.3   15.28 +-  0.0    0.16   2.54   +-0.2      +-0.2                 m i ke

PYRENEES
Sta     Dist  EvAz     Phase      Date       Time     TRes  Azim  AzRes  Slow  SRes Def   SNR       Amp   Per   Mag1   Mag2       ID
EPF   000.19 074.2 m E Pg      2011/11/23 23:58:11.0  -0.4                          T                                        4790688
EPF   000.19 074.2 m E Sg      2011/11/23 23:58:13.6  -0.6                          T               12.8  .18        Md 2.0  4790685
ETSF  000.48 260.7 m E Pg      2011/11/23 23:58:16.5  -0.3                          T                                        4790687
ETSF  000.48 260.7 m E Sg      2011/11/23 23:58:22.9  -0.2                          T                8.8  .18        Md 1.6  4790686
SJPF  000.97 278.5 m E Pg      2011/11/23 23:58:25.4  -0.3                          T                                        4790697
SJPF  000.97 278.5 m E Sg      2011/11/23 23:58:38.6   0.3                          T                1.6  .28 Ml 1.5         4790696
MTLF  001.60 076.2 m E Pg      2011/11/23 23:58:37.5   0.2                          T                                        4790698
MTLF  001.60 076.2 m E Sg      2011/11/23 23:58:57.9  -0.1                          T                1.0  .20 Ml 1.8         4790684
CAF   002.42 035.6 m E Pg      2011/11/23 23:58:52.4   0.0                          T                                        4790689
CAF   002.42 035.6 m E Sg      2011/11/23 23:59:23.5   0.0                          T                1.1  .24 Ml 2.0         4790695
RJF   002.54 023.4 m E Pg      2011/11/23 23:58:55.0   0.3                          T                                        4790690
RJF   002.54 023.4 m E Sg      2011/11/23 23:59:27.4   0.0                          T                1.2  .22 Ml 1.7         4790693
LFF   002.02 013.3 m E Sg      2011/11/23 23:59:10.8  -0.1                          T                  1  .20 Ml 1.7         4790694

.
