EVENT     255642
    Date      Time       Latitude Longitude    Depth    Ndef Nsta Gap    Mag1  N    Mag2  N    Mag3  N   Author         ID
       rms   OT_Error      Smajor Sminor Az        Err   mdist  Mdist     Err        Err        Err      Quality

2011/02/05 00:39:41.1     45.8871   -1.4662      2.0     221   44 086  Ml 3.9 49  Md 3.9  3              js067245    255662

      1.13   +-  0.06       1.4    1.0  122.33 +-  0.0    0.83   9.48   +-0.3      +-0.0                 m i ke

FRANCE
Sta     Dist  EvAz     Phase      Date       Time     TRes  Azim  AzRes  Slow  SRes Def   SNR       Amp   Per   Mag1   Mag2       ID
MFF   001.16 051.6 m E Pg      2011/02/05 00:40:03.1   0.3                          T                                        4643362
MFF   001.16 051.6 m E Sg      2011/02/05 00:40:17.4  -0.5                          T              619.8  .24 Ml 4.5 Md 3.9  4643298
LFF   001.82 120.6 m E Pn      2011/02/05 00:40:12.1   0.5                          T                                        4643299
LFF   001.82 120.6 m E Pg      2011/02/05 00:40:14.1  -0.8                          T                                        4643361
LFF   001.82 120.6 m E Sg      2011/02/05 00:40:38.3  -0.1                          T              993.4  .52 Ml 4.3 Md 3.8  4643271
RJF   002.17 104.5 m E Pn      2011/02/05 00:40:16.4  -0.1                          T                                        4643333
RJF   002.17 104.5 m E Pg      2011/02/05 00:40:20.3  -1.2                          T                                        4643363
RJF   002.17 104.5 m E Sg      2011/02/05 00:40:49.4  -0.1                          T              332.6  .24 Ml 4.1 Md 3.8  4643272
QUIF  002.34 330.8 m E Pn      2011/02/05 00:40:19.9   1.2                          T                                        4643352
QUIF  002.34 330.8 m E Pg      2011/02/05 00:40:24.2  -0.4                          T                                        4643303
QUIF  002.34 330.8 m E Sg      2011/02/05 00:40:54.9   0.3                          T              227.8  .26 Ml 4.2         4643276
SGMF  002.48 342.9 m E Pn      2011/02/05 00:40:20.9   0.2                          T                                        4643353
SGMF  002.48 342.9 m E Pg      2011/02/05 00:40:27.0  -0.2                          T                                        4643304
SGMF  002.48 342.9 m E Sg      2011/02/05 00:40:59.4   0.3                          T              114.0  .22 Ml 4.0         4643277
GRR   002.54 009.2 m E Pn      2011/02/05 00:40:21.5   0.0                          T                                        4643334
GRR   002.54 009.2 m E Pg      2011/02/05 00:40:27.6  -0.6                          T                                        4643359
GRR   002.54 009.2 m E Sg      2011/02/05 00:41:00.9   0.1                          T              215.1  .36 Ml 4.0         4643273
TCF   002.59 079.8 m E Pn      2011/02/05 00:40:22.4   0.2                          T                                        4643347
TCF   002.59 079.8 m E Pg      2011/02/05 00:40:28.8  -0.4                          T                                        4643314
TCF   002.59 079.8 m E Sg      2011/02/05 00:41:02.4  -0.1                          T              117.2  .30 Ml 4.0         4643295
CAF   002.67 109.9 m E Pn      2011/02/05 00:40:23.3   0.1                          T                                        4643332
CAF   002.67 109.9 m E Pg      2011/02/05 00:40:29.7  -0.9                          T                                        4643302
CAF   002.67 109.9 m E Sg      2011/02/05 00:41:04.7  -0.2                          T              395.3  .40 Ml 4.3         4643270
SJPF  002.78 176.4 m E Pn      2011/02/05 00:40:24.4  -0.4                          T                                        4643331
SJPF  002.78 176.4 m E Pg      2011/02/05 00:40:31.9  -0.7                          T                                        4643360
SJPF  002.78 176.4 m E Sg      2011/02/05 00:41:08.6   0.2                          T               56.0  .22 Ml 3.8         4643269
ROSF  002.74 333.9 m E Pn      2011/02/05 00:40:25.2   1.0                          T                                        4643354
ROSF  002.74 333.9 m E Pg      2011/02/05 00:40:32.1   0.2                          T                                        4643305
ROSF  002.74 333.9 m E Sg      2011/02/05 00:41:07.5   0.3                          T               92.2  .24 Ml 4.0         4643278
LDF   002.86 018.2 m E Pn      2011/02/05 00:40:25.8   0.0                          T                                        4643350
LDF   002.86 018.2 m E Pg      2011/02/05 00:40:34.2   0.1                          T                                        4643241
LDF   002.86 018.2 m E Sg      2011/02/05 00:41:10.8   0.0                          T              134.5  .28 Ml 4.0         4643274
FLN   002.95 012.7 m E Pn      2011/02/05 00:40:26.9  -0.2 192.3  -1.2              T                                        4643351
FLN   002.95 012.7 m E Pg      2011/02/05 00:40:35.5  -0.3 187.9  -5.6              T                                        4643240
FLN   002.95 012.7 m E Sg      2011/02/05 00:41:13.8   0.0 203.1  9.6               T              128.8  .28 Ml 3.9         4643275
ETSF  003.06 167.4 m E Pn      2011/02/05 00:40:27.6  -1.1                          T                                        4643330
ETSF  003.06 167.4 m E Pg      2011/02/05 00:40:36.6  -1.3                          T                                        4643301
ETSF  003.06 167.4 m E Sg      2011/02/05 00:41:17.3   0.1                          T               36.9  .24 Ml 3.6         4643268
BGF   003.07 075.8 m E Pn      2011/02/05 00:40:28.8   0.1                          T                                        4643356
BGF   003.07 075.8 m E Pg      2011/02/05 00:40:37.2  -0.8                          T                                        4643307
BGF   003.07 075.8 m E Sg      2011/02/05 00:41:17.3  -0.1                          T              381.8  .34 Ml 4.5         4643280
EPF   003.14 155.0 m E Pn      2011/02/05 00:40:29.2  -0.5                          T                                        4643329
EPF   003.14 155.0 m E Pg      2011/02/05 00:40:38.0  -1.3                          T                                        4643300
EPF   003.14 155.0 m E Sg      2011/02/05 00:41:19.5  -0.1                          T              123.9  .22 Ml 4.2         4643267
HYF   003.15 062.5 m E Pn      2011/02/05 00:40:30.3   0.4                          T                                        4643357
HYF   003.15 062.5 m E Pg      2011/02/05 00:40:39.4  -0.1                          T                                        4643358
HYF   003.15 062.5 m E Sg      2011/02/05 00:41:19.8  -0.2                          T                                        4643281
SSF   003.63 069.3 m E Pn      2011/02/05 00:40:36.2  -0.2                          T                                        4643348
SSF   003.63 069.3 m E Pg      2011/02/05 00:40:47.4  -0.9                          T                                        4643315
SSF   003.63 069.3 m E Sg      2011/02/05 00:41:34.9  -0.1                          T               45.5  .24 Ml 3.9         4643296
MTLF  003.66 132.8 m E Pn      2011/02/05 00:40:36.9   0.1                          T                                        4643328
MTLF  003.66 132.8 m E Sn      2011/02/05 00:41:18.0   0.0                          T                                        4643252
MTLF  003.66 132.8 m E Sg      2011/02/05 00:41:35.7  -0.1                          T               65.0  .26 Ml 4.0         4643266
SMF   003.76 076.5 m E Pn      2011/02/05 00:40:38.0  -0.2                          T                                        4643335
SMF   003.76 076.5 m E Pg      2011/02/05 00:40:50.8   0.1                          T                                        4643308
SMF   003.76 076.5 m E Sg      2011/02/05 00:41:38.9  -0.1                          T               53.8  .24 Ml 3.9         4643282
LOR   003.92 067.5 m E Pn      2011/02/05 00:40:40.0  -0.3 245.3  -6.1              T                                        4643349
LOR   003.92 067.5 m E Pg      2011/02/05 00:40:53.5  -0.2 254.3  3.0               T                                        4643316
LOR   003.92 067.5 m E Sg      2011/02/05 00:41:44.0  -0.1 242.1  -9.2              T               54.7  .30 Ml 3.9         4643297
LASF  004.19 113.7 m E Pn      2011/02/05 00:40:44.2   0.3                          T                                        4643327
LASF  004.19 113.7 m E Sn      2011/02/05 00:41:29.1  -1.5                          T                                        4643245
LASF  004.19 113.7 m E Sg      2011/02/05 00:41:52.2  -0.2                          T               96.9  .54 Ml 3.9         4643265
VIVF  004.45 101.2 m E Pn      2011/02/05 00:40:47.7   0.1                          T                                        4643326
VIVF  004.45 101.2 m E Pg      2011/02/05 00:41:03.4  -0.1                          T                                        4643242
VIVF  004.45 101.2 m E Sg      2011/02/05 00:42:00.4  -0.1                          T               48.6  .26 Ml 4.0         4643264
SFTF  005.01 060.1 m E Pn      2011/02/05 00:40:54.9  -0.3 230.9  -14.0             T                                        4643340
SFTF  005.01 060.1 m E Sn      2011/02/05 00:41:50.4   0.1 234.1  -10.7             T                                        4643247
SFTF  005.01 060.1 m E Sg      2011/02/05 00:42:18.1  -0.1 221.2  -23.7             T               41.3  .42 Ml 3.9         4643287
MEZF  005.16 057.2 m E Pn      2011/02/05 00:40:56.8  -0.2 239.2  -2.7              T                                        4643341
MEZF  005.16 057.2 m E Pg      2011/02/05 00:41:16.2  -0.2 256.0  14.0              T                                        4643313
MEZF  005.16 057.2 m E Sn      2011/02/05 00:41:54.0   0.4                          T                                        4643248
MEZF  005.16 057.2 m E Sg      2011/02/05 00:42:22.5   0.0 229.9  -12.1             T               52.2  .42 Ml 4.0         4643288
ORIF  005.26 098.0 m E Pn      2011/02/05 00:40:58.9   0.2                          T                                        4643324
ORIF  005.26 098.0 m E Sg      2011/02/05 00:42:25.7  -0.3                          T               42.2  .82 Ml 3.6         4643262
CABF  005.29 079.4 m E Pn      2011/02/05 00:40:59.1   0.1                          T                                        4643336
CABF  005.29 079.4 m E Sg      2011/02/05 00:42:26.8   0.0                          T               52.1  .72 Ml 3.8         4643283
SMRF  005.35 108.4 m E Pn      2011/02/05 00:41:00.6   0.8                          T                                        4643321
SMRF  005.35 108.4 m E Sg      2011/02/05 00:42:28.7   0.0                          T               64.4  .74 Ml 3.9         4643259
PAGF  005.58 058.8 m E Pn      2011/02/05 00:41:02.1  -0.7                          T                                        4643342
PAGF  005.58 058.8 m E Sn      2011/02/05 00:42:03.5  -0.3                          T                                        4643249
PAGF  005.58 058.8 m E Sg      2011/02/05 00:42:35.6  -0.1 225.3  -18.8             T                9.0  .52 Ml 3.2         4643289
THEF  005.61 062.6 m E Pn      2011/02/05 00:41:02.3  -1.0                          T                                        4643339
THEF  005.61 062.6 m E Pg      2011/02/05 00:41:24.8  -0.1                          T                                        4643311
THEF  005.61 062.6 m E Sn      2011/02/05 00:42:04.5   0.0                          T                                        4643246
THEF  005.61 062.6 m E Sg      2011/02/05 00:42:36.5  -0.2                          T               38.1  .35 Ml 4.0         4643286
HAU   005.75 065.6 m E Pn      2011/02/05 00:41:03.7  -1.6                          T                                        4643338
HAU   005.75 065.6 m E Pg      2011/02/05 00:41:27.6   0.1                          T                                        4643310
HAU   005.75 065.6 m E Sg      2011/02/05 00:42:41.0  -0.3                          T               29.9  .36 Ml 3.7         4643285
BAIF  005.65 040.3 m E Pn      2011/02/05 00:41:04.1   0.3                          T                                        4643345
BAIF  005.65 040.3 m E Sn      2011/02/05 00:42:04.2  -1.3                          T                                        4643250
BAIF  005.65 040.3 m E Sg      2011/02/05 00:42:37.9  -0.1                          T               46.3  .70 Ml 3.8         4643293
LPL   005.76 090.8 m E Pn      2011/02/05 00:41:05.9   0.3                          T                                        4643323
LPL   005.76 090.8 m E Pg      2011/02/05 00:41:27.5  -0.2                          T                                        4643243
LPL   005.76 090.8 m E Sg      2011/02/05 00:42:41.4  -0.1                          T               44.4 1.04 Ml 3.7         4643261
LPG   005.77 090.9 m E Pn      2011/02/05 00:41:06.3   0.4                          T                                        4643322
LPG   005.77 090.9 m E Pg      2011/02/05 00:41:28.1  -0.1                          T                                        4643244
LPG   005.77 090.9 m E Sg      2011/02/05 00:42:42.1   0.0                          T               14.6  .42 Ml 3.6         4643260
HINF  006.02 068.3 m E Pn      2011/02/05 00:41:07.7  -1.3                          T                                        4643337
HINF  006.02 068.3 m E Pg      2011/02/05 00:41:32.5   0.0                          T                                        4643309
HINF  006.02 068.3 m E Sg      2011/02/05 00:42:49.6  -0.1                          T               16.6  .32 Ml 3.8         4643284
MBDF  005.93 098.3 m E Pn      2011/02/05 00:41:08.2   0.4                          T                                        4643325
MBDF  005.93 098.3 m E Sg      2011/02/05 00:42:46.6  -0.2                          T               60.3 1.30 Ml 3.7         4643263
GIVF  005.97 042.7 m E Pn      2011/02/05 00:41:08.4   0.2                          T                                        4643346
GIVF  005.97 042.7 m E Sn      2011/02/05 00:42:13.6   0.6                          T                                        4643251
GIVF  005.97 042.7 m E Sg      2011/02/05 00:42:47.7  -0.2                          T               33.9  .56 Ml 3.9         4643294
LMR   006.24 111.3 m E Pn      2011/02/05 00:41:11.8   0.0                          T                                        4643319
LMR   006.24 111.3 m E Sn      2011/02/05 00:42:19.4  -0.2                          T                                        4643253
LMR   006.24 111.3 m E Sg      2011/02/05 00:42:56.2  -0.1                          T               13.5  .57 Ml 3.5         4643257
FRF   006.23 109.0 m E Pn      2011/02/05 00:41:12.3   0.6                          T                                        4643320
FRF   006.23 109.0 m E Sn      2011/02/05 00:42:19.3  -0.1                          T                                        4643254
FRF   006.23 109.0 m E Sg      2011/02/05 00:42:55.6  -0.5                          T                9.5  .45 Ml 3.5         4643258
CDF   006.47 063.9 m E Pn      2011/02/05 00:41:13.2  -2.0                          T                                        4643343
CDF   006.47 063.9 m E Pg      2011/02/05 00:41:40.7  -0.2                          T                                        4643312
CDF   006.47 063.9 m E Sg      2011/02/05 00:43:03.7  -0.1                          T               16.1  .40 Ml 3.9         4643290
SBF   006.64 104.6 m E Pn      2011/02/05 00:41:17.6   0.2                          T                                        4643318
SBF   006.64 104.6 m E Sg      2011/02/05 00:43:08.7  -0.2                          T               21.4  .68 Ml 3.7         4643256
RUP   006.89 053.3 m E Pn      2011/02/05 00:41:20.2  -0.7                          T                                        4643344
RUP   006.89 053.3 m E Sg      2011/02/05 00:43:16.8  -0.1                          T                                        4643292
PGF   008.22 110.2 m E Pn      2011/02/05 00:41:39.0   0.0                          T                                        4643317
PGF   008.22 110.2 m E Sn      2011/02/05 00:43:06.9  -0.2                          T                2.9  .44 Ml 3.5         4643255
EVOP  008.86 216.2 m E Pn      2011/02/05 00:41:47.3  -0.2                          T                                        4643945
EVOP  008.86 216.2 m E Sn      2011/02/05 00:43:21.7  -0.4                          T                1.8  .23 Ml 3.4         4643944
LANF  007.01 060.5 m E Sg      2011/02/05 00:43:20.4   0.1                          T               26.8  .60 Ml 3.9         4643291

.
EVENT     255643
    Date      Time       Latitude Longitude    Depth    Ndef Nsta Gap    Mag1  N    Mag2  N    Mag3  N   Author         ID
       rms   OT_Error      Smajor Sminor Az        Err   mdist  Mdist     Err        Err        Err      Quality

2011/02/05 06:54:16.0     44.5713    7.3190      2.0      18    8 196  Ml 1.8  7  Md 1.8  3              js067245    255663

      0.19   +-  0.09       1.8     .8   77.31 +-  0.0    0.42   1.39   +-0.2      +-0.0                 m i ke

NORTHERN ITALY
Sta     Dist  EvAz     Phase      Date       Time     TRes  Azim  AzRes  Slow  SRes Def   SNR       Amp   Per   Mag1   Mag2       ID
MBDF  000.42 291.9 m E Pg      2011/02/05 06:54:24.6   0.3                          T                                        4643381
MBDF  000.42 291.9 m E Sg      2011/02/05 06:54:29.9   0.0                          T               13.0  .18        Md 1.8  4643377
SBF   000.71 173.2 m E Pg      2011/02/05 06:54:29.5   0.0                          T                                        4643378
SBF   000.71 173.2 m E Sg      2011/02/05 06:54:38.8  -0.1                          T                3.5  .21        Md 1.8  4643376
LPG   001.01 336.7 m E Pg      2011/02/05 06:54:35.3   0.0                          T                                        4643368
LPG   001.01 336.7 m E Sg      2011/02/05 06:54:48.1  -0.3                          T                2.5  .24 Ml 1.8 Md 1.8  4643370
LPL   001.03 336.5 m E Pg      2011/02/05 06:54:35.7   0.0                          T                                        4643367
LPL   001.03 336.5 m E Sg      2011/02/05 06:54:48.7  -0.3                          T                1.4  .21 Ml 1.7         4643371
ORIF  001.08 289.2 m E Pg      2011/02/05 06:54:36.4   0.0                          T                                        4643366
ORIF  001.08 289.2 m E Sg      2011/02/05 06:54:49.8  -0.6                          T                1.3  .24 Ml 1.6         4643372
FRF   001.12 205.9 m E Pg      2011/02/05 06:54:37.2   0.2                          T                                        4643380
FRF   001.12 205.9 m E Sg      2011/02/05 06:54:51.3  -0.2                          T                2.5  .29 Ml 1.9         4643375
LMR   001.37 205.6 m E Pg      2011/02/05 06:54:41.3  -0.2                          T                                        4643379
LMR   001.37 205.6 m E Sg      2011/02/05 06:54:59.1  -0.1                          T                4.5  .32 Ml 2.2         4643374
SMRF  001.39 245.2 m E Pg      2011/02/05 06:54:41.9   0.0                          T                                        4643369
SMRF  001.39 245.2 m E Sg      2011/02/05 06:54:59.8   0.0                          T                2.3  .31 Ml 1.9         4643373

.
