EVENT     261134
    Date      Time       Latitude Longitude    Depth    Ndef Nsta Gap    Mag1  N    Mag2  N    Mag3  N   Author         ID
       rms   OT_Error      Smajor Sminor Az        Err   mdist  Mdist     Err        Err        Err      Quality

2011/07/06 18:17:30.4     44.1051    6.9254      2.0      12    6 133  Ml 1.8  1  Md 1.8  3              js067245    261134

      0.71   +-  0.26       5.9    4.4   73.10 +-  0.0    0.44   1.10   +-         +-0.1                 m i ke

FRANCE
Sta     Dist  EvAz     Phase      Date       Time     TRes  Azim  AzRes  Slow  SRes Def   SNR       Amp   Per   Mag1   Mag2       ID
SBF   000.44 123.1 m E Pg      2011/07/06 18:17:39.7   0.8                          T                                        4720786
SBF   000.44 123.1 m E Sg      2011/07/06 18:17:44.7   0.0                          T               10.4  .48        Md 1.7  4720787
FRF   000.58 200.4 m E Pg      2011/07/06 18:17:40.9  -0.5                          T                                        4715955
FRF   000.58 200.4 m E Sg      2011/07/06 18:17:47.9  -1.1                          T                2.7  .18        Md 1.9  4715949
MBDF  000.63 350.0 m E Pg      2011/07/06 18:17:42.1  -0.4                          T                                        4715953
MBDF  000.63 350.0 m E Sg      2011/07/06 18:17:50.6  -0.2                          T                6.2  .42        Md 1.7  4715952
LMR   000.83 201.5 m E Pg      2011/07/06 18:17:45.5  -0.4                          T                                        4715956
LMR   000.83 201.5 m E Sg      2011/07/06 18:17:55.8  -0.9                          T                4.5  .24                4715948
SMRF  000.98 262.9 m E Pg      2011/07/06 18:17:49.7   0.8                          T                                        4720784
SMRF  000.98 262.9 m E P       2011/07/06 18:17:50.5  -0.5                          T                                        4715954
SMRF  000.98 262.9 m E Sg      2011/07/06 18:18:03.3   1.7                          T                2.9  .26 Ml 1.8         4715950
ORIF  001.10 317.8 m E Pg      2011/07/06 18:17:50.9  -0.3                          T                                        4720785

.
EVENT     261135
    Date      Time       Latitude Longitude    Depth    Ndef Nsta Gap    Mag1  N    Mag2  N    Mag3  N   Author         ID
       rms   OT_Error      Smajor Sminor Az        Err   mdist  Mdist     Err        Err        Err      Quality

2011/07/06 21:34:52.3     42.4592   13.2657     10.0 f   100   13 025  Ml 3.1  5                         js067245    261135

      0.96   +-  0.11       3.7    2.6   28.60 +-  0.0    0.15   9.01   +-0.3                            m i ke

CENTRAL ITALY
Sta     Dist  EvAz     Phase      Date       Time     TRes  Azim  AzRes  Slow  SRes Def   SNR       Amp   Per   Mag1   Mag2       ID
PTF   002.20 313.8 m E P       2011/07/06 21:35:29.7   0.1                          T                                        4715692
PGF   003.16 273.1 m E P       2011/07/06 21:35:43.4   0.0                          T                                        4715964
SBF   004.49 290.2 m E Pn      2011/07/06 21:35:58.1  -0.3                          T                                        4715963
SBF   004.49 290.2 m E Sn      2011/07/06 21:36:48.6   1.0                          T                4.7  .49 Ml 2.7         4720913
FRF   004.98 285.0 m E Pn      2011/07/06 21:36:05.7   0.6                          T                                        4715961
LMR   005.04 282.3 m E Pn      2011/07/06 21:36:07.7   1.9                          T                                        4715962
MBDF  005.23 297.9 m E P       2011/07/06 21:36:13.0   0.1                          T                                        4720914
LPL   005.62 305.2 m E Pn      2011/07/06 21:36:14.3   0.3                          T                                        4715958
LPL   005.62 305.2 m E Sn      2011/07/06 21:37:15.1   0.3                          T                2.3  .37 Ml 2.8         4720912
LPG   005.60 305.1 m E P       2011/07/06 21:36:18.4   0.2                          T                                        4715959
SMRF  005.82 287.7 m E P       2011/07/06 21:36:20.8  -0.3                          T                                        4715960
ORIF  005.89 297.2 m E P       2011/07/06 21:36:22.6   0.5                          T                                        4715957
HINF  007.02 322.0 m E Pn      2011/07/06 21:36:32.5  -0.4                          T                                        4720915
HINF  007.02 322.0 m E Sn      2011/07/06 21:37:48.0   0.1                          T                3.4  .40 Ml 3.2         4720910
CDF   007.29 326.8 m E Pn      2011/07/06 21:36:36.7   0.1                          T                                        4720917
CDF   007.29 326.8 m E Sn      2011/07/06 21:37:55.2   0.6                          T                3.4  .32 Ml 3.4         4720909
HAU   007.39 321.0 m E Pn      2011/07/06 21:36:37.7  -0.1                          T                                        4720916
HAU   007.39 321.0 m E Sn      2011/07/06 21:37:57.2   0.4                          T                8.5  .46 Ml 3.4         4720911

.
EVENT     261136
    Date      Time       Latitude Longitude    Depth    Ndef Nsta Gap    Mag1  N    Mag2  N    Mag3  N   Author         ID
       rms   OT_Error      Smajor Sminor Az        Err   mdist  Mdist     Err        Err        Err      Quality

2011/07/07 00:45:12.7     46.7504    1.2180      5.0 f    24   11 159  Ml 2.1 11  Md 2.0  3              js067245    261136

      0.80   +-  0.13       2.8    1.7  162.13 +-  0.0    0.83   1.92   +-0.2      +-0.0                 m i ke

FRANCE
Sta     Dist  EvAz     Phase      Date       Time     TRes  Azim  AzRes  Slow  SRes Def   SNR       Amp   Per   Mag1   Mag2       ID
TCF   000.83 123.7 m E Pg      2011/07/07 00:45:28.9   0.6                          T                                        4715984
TCF   000.83 123.7 m E Sg      2011/07/07 00:45:39.7   0.7                          T                3.2  .22        Md 2.1  4715981
MFF   000.95 261.5 m E Pg      2011/07/07 00:45:30.8   0.3                          T                                        4715976
MFF   000.95 261.5 m E Sg      2011/07/07 00:45:42.5  -0.4                          T                6.7  .18 Ml 2.5 Md 2.0  4715969
HYF   001.10 061.4 m E Pg      2011/07/07 00:45:33.7   0.3                          T                                        4717056
HYF   001.10 061.4 m E Sg      2011/07/07 00:45:48.0   0.3                          T                                        4717054
BGF   001.14 099.2 m E Pg      2011/07/07 00:45:34.6   0.6                          T                                        4715979
BGF   001.14 099.2 m E Sg      2011/07/07 00:45:49.1   0.4                          T               12.0  .39 Ml 2.4 Md 2.0  4715967
RJF   001.46 171.7 m E Pg      2011/07/07 00:45:39.6  -0.3                          T                                        4715975
RJF   001.46 171.7 m E Sg      2011/07/07 00:45:58.5  -0.3                          T                6.5  .23 Ml 2.1         4715970
AVF   001.47 087.7 m E Pg      2011/07/07 00:45:40.0  -0.1                          T                                        4715980
AVF   001.47 087.7 m E Sg      2011/07/07 00:45:58.3  -0.7                          T                1.6  .30 Ml 1.8         4715965
SSF   001.60 077.9 m E Pg      2011/07/07 00:45:42.3  -0.2                          T                                        4717057
SSF   001.60 077.9 m E Sg      2011/07/07 00:46:02.6  -0.5                          T                2.0  .43 Ml 1.8         4717055
SMF   001.81 092.4 m E Pg      2011/07/07 00:45:46.0  -0.3                          T                                        4715978
SMF   001.81 092.4 m E Sg      2011/07/07 00:46:09.1  -0.6                          T                1.3  .19 Ml 2.0         4715966
LFF   001.84 190.6 m E Pg      2011/07/07 00:45:46.4  -0.5                          T                                        4715974
LFF   001.84 190.6 m E Sg      2011/07/07 00:46:11.5   0.8                          T                5.4  .29 Ml 2.3         4715971
LOR   001.88 073.0 m E Pg      2011/07/07 00:45:47.0  -0.6 249.1  -5.9              T                                        4715983
LOR   001.88 073.0 m E Sg      2011/07/07 00:46:10.9  -1.0 247.2  -7.8              T                2.1  .24 Ml 2.1         4715982
CAF   001.92 161.7 m E Pg      2011/07/07 00:45:48.4   0.0                          T                                        4715973
CAF   001.92 161.7 m E Sg      2011/07/07 00:46:12.3  -0.8                          T                1.8  .29 Ml 2.0         4715972

.
EVENT     261137
    Date      Time       Latitude Longitude    Depth    Ndef Nsta Gap    Mag1  N    Mag2  N    Mag3  N   Author         ID
       rms   OT_Error      Smajor Sminor Az        Err   mdist  Mdist     Err        Err        Err      Quality

2011/07/07 01:47:37.7     41.5604    2.2598      5.0 f    21    4 168  Ml 1.8  4  Md 1.9  1              js067245    261137

      0.38   +-  0.13       2.2    1.2  160.81 +-  0.0    0.24   3.01   +-0.5      +-                    m i ke

SPAIN
Sta     Dist  EvAz     Phase      Date       Time     TRes  Azim  AzRes  Slow  SRes Def   SNR       Amp   Per   Mag1   Mag2       ID
MTLF  001.78 359.0 m E Pg      2011/07/07 01:48:10.6  -0.2                          T                                        4715991
MTLF  001.78 359.0 m E Sg      2011/07/07 01:48:33.0  -0.8                          T                 .5  .20 Ml 1.5 Md 1.9  4715990
EPF   002.05 316.5 m E Pg      2011/07/07 01:48:15.6  -0.2                          T                                        4715986
EPF   002.05 316.5 m E Sg      2011/07/07 01:48:41.6  -0.6                          T                5.2  .32 Ml 2.4         4715989
ETSF  002.48 303.5 m E Pg      2011/07/07 01:48:23.6  -0.3                          T                                        4715985
ETSF  002.48 303.5 m E Sg      2011/07/07 01:48:55.2  -0.7                          T                1.6  .36 Ml 1.9         4715988
SJPF  003.01 302.2 m E Sg      2011/07/07 01:49:11.7  -0.6                          T                 .2  .18 Ml 1.4         4715987

.
EVENT     261151
    Date      Time       Latitude Longitude    Depth    Ndef Nsta Gap    Mag1  N    Mag2  N    Mag3  N   Author         ID
       rms   OT_Error      Smajor Sminor Az        Err   mdist  Mdist     Err        Err        Err      Quality

2011/07/07 08:01:23.8     45.6475   10.9451      2.0      65   19 060  Ml 3.2 15  Md 2.9  4              js067245    261151

      0.70   +-  0.08       2.4    1.4  168.26 +-  0.0    0.26   6.12   +-0.1      +-0.1                 m i ke

NORTHERN ITALY
Sta     Dist  EvAz     Phase      Date       Time     TRes  Azim  AzRes  Slow  SRes Def   SNR       Amp   Per   Mag1   Mag2       ID
LPL   002.96 269.0 m E Pn      2011/07/07 08:02:10.6   0.4                          T   001.0                                4716045
LPL   002.96 269.0 m E Sg      2011/07/07 08:02:57.5   0.5                          T   001.0       19.1  .39 Ml 3.1 Md 2.9  4716046
LPG   002.95 268.6 m E Pn      2011/07/07 08:02:10.8   0.7                          T                                        4717058
LPG   002.95 268.6 m E Sn      2011/07/07 08:02:43.7  -0.3                          T               15.0  .31 Ml 3.1         4720921
MBDF  003.09 254.2 m E Pn      2011/07/07 08:02:11.8   0.0                          T                                        4717060
MBDF  003.09 254.2 m E Sn      2011/07/07 08:02:46.9  -0.3                          T               16.7  .46 Ml 3.0         4720920
SBF   003.07 235.7 m E Pn      2011/07/07 08:02:12.2   0.8                          T   001.0                                4716049
SBF   003.07 235.7 m E Sn      2011/07/07 08:02:46.5  -0.1                          T   001.0                                4716050
SBF   003.07 235.7 m E Sg      2011/07/07 08:03:00.1  -0.1                          T   001.0       11.6  .21 Ml 3.2 Md 2.9  4716051
PGF   003.40 205.0 m E Pn      2011/07/07 08:02:15.4  -0.6                          T   001.0                                4716047
PGF   003.40 205.0 m E Sn      2011/07/07 08:02:55.0   0.5                          T   001.0       10.5  .44 Ml 3.1         4716048
CABF  003.51 287.7 m E Pn      2011/07/07 08:02:17.5   0.0                          T   001.0                                4716056
HINF  003.55 309.1 m E Pn      2011/07/07 08:02:18.3   0.3                          T   001.0                                4716057
HINF  003.55 309.1 m E Sn      2011/07/07 08:02:58.2   0.1                          T   001.0       10.5  .24 Ml 3.2         4716058
HINF  003.55 309.1 m E Sg      2011/07/07 08:03:15.5   0.3                          T   001.0       12.7  .36 Ml 3.1 Md 2.9  4716059
FRF   003.71 237.3 m E Pn      2011/07/07 08:02:20.2   0.1                          T                                        4717059
CDF   003.73 319.1 m E Pn      2011/07/07 08:02:21.3   0.8                          T   001.0                                4716036
CDF   003.73 319.1 m E Sg      2011/07/07 08:03:20.8  -0.1                          T               29.5  .70 Ml 3.3         4720922
LMR   003.93 235.5 m E Pn      2011/07/07 08:02:23.4   0.4                          T   001.0                                4716041
LMR   003.93 235.5 m E Sn      2011/07/07 08:03:07.1   0.2                          T   001.0        9.1  .42 Ml 3.0         4716042
HAU   003.94 308.4 m E Pn      2011/07/07 08:02:23.6   0.3                          T   001.0                                4716038
HAU   003.94 308.4 m E Sn      2011/07/07 08:03:07.1  -0.2                          T   001.0       20.1  .34 Ml 3.2         4716039
HAU   003.94 308.4 m E Sg      2011/07/07 08:03:26.4  -0.9                          T   001.0       19.6  .44 Ml 3.1 Md 3.0  4716040
THEF  004.26 309.1 m E Pn      2011/07/07 08:02:28.6   1.0                          T                                        4717061
THEF  004.26 309.1 m E Sn      2011/07/07 08:03:14.8  -0.2                          T               10.2  .28 Ml 3.3         4717062
VIVF  004.50 262.1 m E Pn      2011/07/07 08:02:31.5   0.6                          T   001.0                                4716061
SMF   005.04 284.0 m E Pn      2011/07/07 08:02:37.9  -0.2                          T   001.0                                4716052
SMF   005.04 284.0 m E Sn      2011/07/07 08:03:35.1   1.6                          T   001.0        7.3  .34 Ml 3.2         4716053
LOR   005.16 290.9 m E Pn      2011/07/07 08:02:39.5  -0.3 113.7  7.9               T   001.0                                4716043
LOR   005.16 290.9 m E Sn      2011/07/07 08:03:37.6   1.2                          T   001.0        8.3  .26 Ml 3.4         4716044
SSF   005.34 288.0 m E Pn      2011/07/07 08:02:42.1  -0.1                          T   001.0                                4716054
AVF   005.39 285.0 m E Pn      2011/07/07 08:02:42.7  -0.2                          T   001.0                                4716034
BGF   005.71 282.1 m E Pn      2011/07/07 08:02:47.3   0.0                          T   001.0                                4716035
TCF   006.12 279.1 m E Sn      2011/07/07 08:04:00.5   1.1                          T   001.0        1.6  .23 Ml 3.0         4716055

.
EVENT     261154
    Date      Time       Latitude Longitude    Depth    Ndef Nsta Gap    Mag1  N    Mag2  N    Mag3  N   Author         ID
       rms   OT_Error      Smajor Sminor Az        Err   mdist  Mdist     Err        Err        Err      Quality

2011/07/07 08:05:16.9     42.9819   -1.2181      2.0       6    3 258  Ml 1.6  1  Md 1.6  2              js067245    261154

      0.22   +-  0.42      10.4    2.6   44.51 +-  0.0    0.13   1.14   +-         +-0.0                 m i ke

PYRENEES
Sta     Dist  EvAz     Phase      Date       Time     TRes  Azim  AzRes  Slow  SRes Def   SNR       Amp   Per   Mag1   Mag2       ID
SJPF  000.13 357.8 m E Pg      2011/07/07 08:05:19.6  -0.2                          T                                        4717067
SJPF  000.13 357.8 m E Sg      2011/07/07 08:05:21.9   0.3                          T               76.3  .28        Md 1.6  4717064
ETSF  000.49 099.5 m E Pg      2011/07/07 08:05:26.5   0.1                          T                                        4717066
ETSF  000.49 099.5 m E Sg      2011/07/07 08:05:32.3  -0.5                          T                5.3  .31        Md 1.6  4717063
EPF   001.14 087.0 m E Pg      2011/07/07 08:05:38.4   0.1                          T                                        4720923
EPF   001.14 087.0 m E Sg      2011/07/07 08:05:53.3   0.1                          T                1.4  .26 Ml 1.6         4717065

.
EVENT     261152
    Date      Time       Latitude Longitude    Depth    Ndef Nsta Gap    Mag1  N    Mag2  N    Mag3  N   Author         ID
       rms   OT_Error      Smajor Sminor Az        Err   mdist  Mdist     Err        Err        Err      Quality

2011/07/07 08:43:41.8     42.8972    -.0278      2.0      10    6 196  Ml 2.1  4  Md 2.1  2              js067245    261152

      0.14   +-  0.07       2.3     .7  167.68 +-  0.0    0.30   2.65   +-0.2      +-0.1                 m i ke

PYRENEES
Sta     Dist  EvAz     Phase      Date       Time     TRes  Azim  AzRes  Slow  SRes Def   SNR       Amp   Per   Mag1   Mag2       ID
EPF   000.30 063.6 m E Pg      2011/07/07 08:43:47.7  -0.1                          T                                        4717074
EPF   000.30 063.6 m E Sg      2011/07/07 08:43:51.7  -0.1                          T               33.7  .27        Md 2.1  4717072
ETSF  000.39 270.4 m E Pg      2011/07/07 08:43:49.4   0.0                          T                                        4717075
ETSF  000.39 270.4 m E Sg      2011/07/07 08:43:54.8   0.1                          T               28.2  .18        Md 2.0  4717073
SJPF  000.90 284.2 m E Pg      2011/07/07 08:44:00.5   1.7                          T                                        4720926
SJPF  000.90 284.2 m E Sg      2011/07/07 08:44:10.7   0.1                          T                2.0  .21 Ml 1.8         4720927
MTLF  001.70 074.1 m E Pg      2011/07/07 08:44:13.5   0.0                          T                                        4720928
MTLF  001.70 074.1 m E Sg      2011/07/07 08:44:35.9   0.4                          T                3.7  .28 Ml 2.3         4720929
CAF   002.53 036.0 m E Sg      2011/07/07 08:45:01.2  -0.2                          T                1.7  .22 Ml 2.2         4720925
RJF   002.65 024.3 m E Sg      2011/07/07 08:45:05.2   0.1                          T                2.1  .21 Ml 2.0         4720924

.
