EVENT     273086
    Date      Time       Latitude Longitude    Depth    Ndef Nsta Gap    Mag1  N    Mag2  N    Mag3  N   Author         ID
       rms   OT_Error      Smajor Sminor Az        Err   mdist  Mdist     Err        Err        Err      Quality

2012/04/05 08:42:56.6     47.4826    4.1028       .0 f    10    5 327  Ml 2.1  3  Md 2.2  1              bulletin    273106
                                                                                                         _ldg
      0.67   +-  0.54       7.9    3.8   36.30 +-  0.0    0.27   1.26   +-0.3      +-                    m i km

FRANCE
Sta     Dist  EvAz     Phase      Date       Time     TRes  Azim  AzRes  Slow  SRes Def   SNR       Amp   Per   Mag1   Mag2       ID
LOR   000.27 217.8 m E Pg      2012/04/05 08:43:02.0  -0.2  39.2  1.6               T                                Md 2.2  4902423
LOR   000.27 217.8 m E Sg      2012/04/05 08:43:05.2  -0.9  31.8  -5.9              T                                        4902412
SSF   000.59 224.2 m E Pg      2012/04/05 08:43:08.0   0.0                          T                                        4902417
SSF   000.59 224.2 m E Sg      2012/04/05 08:43:15.7  -0.2                          T               29.7  .82                4902411
SMF   000.86 192.1 m E Pg      2012/04/05 08:43:13.1   0.1                          T                                        4902422
SMF   000.86 192.1 m E Sg      2012/04/05 08:43:24.9   0.6                          T               57.9 1.32 Ml 2.4         4902415
AVF   000.86 216.8 m E Pg      2012/04/05 08:43:13.3   0.2                          T                                        4902418
AVF   000.86 216.8 m E Sg      2012/04/05 08:43:25.4   1.0                          T                3.4  .28 Ml 1.8         4902416
BGF   001.26 223.4 m E Pg      2012/04/05 08:43:20.1  -0.4                          T                                        4902420
BGF   001.26 223.4 m E Sg      2012/04/05 08:43:36.7  -0.3                          T                4.7  .30 Ml 2.1         4902419

.
EVENT     273087
    Date      Time       Latitude Longitude    Depth    Ndef Nsta Gap    Mag1  N    Mag2  N    Mag3  N   Author         ID
       rms   OT_Error      Smajor Sminor Az        Err   mdist  Mdist     Err        Err        Err      Quality

2012/04/05 08:47:25.9     47.4329    4.3842       .0 f    11    5 319  Ml 2.0  3  Md 2.0  1              bulletin    273107
                                                                                                         _ldg
      0.21   +-  0.26       4.1    3.7  179.66 +-  0.0    0.39   1.37   +-0.1      +-                    m i km

FRANCE
Sta     Dist  EvAz     Phase      Date       Time     TRes  Azim  AzRes  Slow  SRes Def   SNR       Amp   Per   Mag1   Mag2       ID
LOR   000.39 245.4 m E Pg      2012/04/05 08:47:33.6  -0.1                          T                                        4902451
LOR   000.39 245.4 m E Sg      2012/04/05 08:47:38.9  -0.2                          T               74.0  .94        Md 2.0  4902446
SSF   000.70 238.5 m E Pg      2012/04/05 08:47:39.2  -0.2                          T                                        4902450
SSF   000.70 238.5 m E Sg      2012/04/05 08:47:49.0   0.2                          T               58.7 1.18                4902445
SMF   000.87 205.4 m E Pg      2012/04/05 08:47:42.4  -0.1                          T                                        4902793
SMF   000.87 205.4 m E Sg      2012/04/05 08:47:54.2   0.2                          T                4.7  .20 Ml 2.1         4902449
AVF   000.95 228.0 m E Pg      2012/04/05 08:47:44.1   0.1                          T                                        4902452
AVF   000.95 228.0 m E Sg      2012/04/05 08:47:56.8   0.2                          T                                        4902448
AVF   000.95 228.0 m E Sn      2012/04/05 08:47:58.6  -0.2                          T                2.5  .21 Ml 1.9         4902460
BGF   001.37 230.8 m E Pg      2012/04/05 08:47:51.8   0.2                          T                                        4902447
BGF   001.37 230.8 m E Sg      2012/04/05 08:48:09.0  -0.6                          T                4.2  .31 Ml 2.1         4902792

.
EVENT     273088
    Date      Time       Latitude Longitude    Depth    Ndef Nsta Gap    Mag1  N    Mag2  N    Mag3  N   Author         ID
       rms   OT_Error      Smajor Sminor Az        Err   mdist  Mdist     Err        Err        Err      Quality

2012/04/05 08:56:50.5     46.3049    2.2834       .0 f    16    8 122  Ml 2.0  2                         bulletin    273108
                                                                                                         _ldg
      0.25   +-  0.09       3.1    1.4  133.09 +-  0.0    0.05   1.39   +-0.3                            m i km

FRANCE
Sta     Dist  EvAz     Phase      Date       Time     TRes  Azim  AzRes  Slow  SRes Def   SNR       Amp   Per   Mag1   Mag2       ID
TCF   000.05 251.7 m E Pg      2012/04/05 08:56:51.6  -0.2                          T                                        4902505
TCF   000.05 251.7 m E Sg      2012/04/05 08:56:52.8   0.0                          T                                        4902494
BGF   000.46 056.8 m E Pg      2012/04/05 08:56:59.3  -0.4                          T                                        4902493
BGF   000.46 056.8 m E Sg      2012/04/05 08:57:06.4   0.4                          T                                        4902492
AVF   000.88 056.3 m E Pg      2012/04/05 08:57:07.5   0.2                          T                                        4902504
AVF   000.88 056.3 m E Pn      2012/04/05 08:57:08.5  -0.2                          T                                        4902491
AVF   000.88 056.3 m E Sg      2012/04/05 08:57:19.2   0.2                          T                                        4902498
HYF   000.99 014.1 m E Pg      2012/04/05 08:57:09.8   0.4                          T                                        4902502
HYF   000.99 014.1 m E Sg      2012/04/05 08:57:22.3  -0.2                          T                                        4902501
SSF   001.13 047.6 m E Pn      2012/04/05 08:57:11.8  -0.3                          T                                        4902496
SSF   001.13 047.6 m E Sn      2012/04/05 08:57:25.3  -2.3                          T                1.4  .22 Ml 1.8         4902495
SMF   001.13 071.9 m E Pg      2012/04/05 08:57:12.1   0.2                          T                                        4902503
SMF   001.13 071.9 m E Sg      2012/04/05 08:57:26.7   0.0                          T                                        4902497
RJF   001.14 208.5 m E Pn      2012/04/05 08:57:12.5   0.3                          T                                        4902499
CAF   001.39 186.4 m E Pn      2012/04/05 08:57:15.6   0.0                          T                                        4902500
CAF   001.39 186.4 m E Sg      2012/04/05 08:57:34.8   0.0                          T                3.6  .23 Ml 2.2         4902490

.
EVENT     273089
    Date      Time       Latitude Longitude    Depth    Ndef Nsta Gap    Mag1  N    Mag2  N    Mag3  N   Author         ID
       rms   OT_Error      Smajor Sminor Az        Err   mdist  Mdist     Err        Err        Err      Quality

2012/04/05 09:06:31.4     44.2889    7.4978       .0 f    31    6 117  Ml 2.2  4  Md 2.0  2              bulletin    273109
                                                                                                         _ldg
      0.31   +-  0.07       1.3     .9   40.46 +-  0.0    0.08   1.42   +-0.2      +-0.2                 m i km

NORTHERN ITALY
Sta     Dist  EvAz     Phase      Date       Time     TRes  Azim  AzRes  Slow  SRes Def   SNR       Amp   Per   Mag1   Mag2       ID
SBF   000.43 186.1 m E Pg      2012/04/05 09:06:40.1   0.2                          T                                        4902489
SBF   000.43 186.1 m E Sg      2012/04/05 09:06:46.3   0.5                          T               48.5  .37        Md 2.1  4902488
MBDF  000.68 310.4 m E Pg      2012/04/05 09:06:44.7   0.1                          T                                        4902482
MBDF  000.68 310.4 m E Sg      2012/04/05 09:06:53.8   0.1                          T               16.7  .26        Md 1.9  4902483
FRF   000.95 220.5 m E Pg      2012/04/05 09:06:49.8   0.2                          T                                        4903439
FRF   000.95 220.5 m E P       2012/04/05 09:06:51.6   0.1                          T                                        4902485
FRF   000.95 220.5 m E Sg      2012/04/05 09:07:02.1   0.0                          T                4.8  .22 Ml 2.2         4902484
LMR   001.19 217.2 m E Pg      2012/04/05 09:06:54.3   0.4                          T                                        4902486
LMR   001.19 217.2 m E Sg      2012/04/05 09:07:10.5   1.0                          T                6.6  .22 Ml 2.4         4902487
SMRF  001.42 257.9 m E Pg      2012/04/05 09:06:58.2   0.1                          T                                        4902481
SMRF  001.42 257.9 m E Sg      2012/04/05 09:07:17.2   0.5                          T                2.3  .28 Ml 1.9         4902480
ORIF  001.32 299.1 m E Sg      2012/04/05 09:07:13.9   0.4                          T                4.7  .32 Ml 2.1         4903440

.
EVENT     273090
    Date      Time       Latitude Longitude    Depth    Ndef Nsta Gap    Mag1  N    Mag2  N    Mag3  N   Author         ID
       rms   OT_Error      Smajor Sminor Az        Err   mdist  Mdist     Err        Err        Err      Quality

2012/04/05 09:14:25.0     48.2663   -2.3463       .0 f    10    5 155  Ml 2.4  2  Md 2.0  3              bulletin    273110
                                                                                                         _ldg
      0.49   +-  0.19      12.7    2.5  170.37 +-  0.0    0.14   1.34   +-0.1      +-0.3                 m i km

FRANCE
Sta     Dist  EvAz     Phase      Date       Time     TRes  Azim  AzRes  Slow  SRes Def   SNR       Amp   Per   Mag1   Mag2       ID
SGMF  000.14 265.2 m E Pg      2012/04/05 09:14:27.8  -0.3                          T                                        4902755
SGMF  000.14 265.2 m E Sg      2012/04/05 09:14:30.0  -0.3                          T                                Md 1.7  4902754
ROSF  000.62 276.8 m E Pg      2012/04/05 09:14:36.9  -0.1                          T                                        4902752
ROSF  000.62 276.8 m E Sg      2012/04/05 09:14:46.3   0.9                          T                3.6  .24        Md 2.1  4902753
QUIF  000.65 237.8 m E Pg      2012/04/05 09:14:38.8   1.3                          T                                        4902751
QUIF  000.65 237.8 m E Sg      2012/04/05 09:14:46.6   0.4                          T                3.7  .19        Md 2.2  4902750
GRR   001.00 082.4 m E Pg      2012/04/05 09:14:43.7  -0.3                          T                                        4902748
GRR   001.00 082.4 m E Sg      2012/04/05 09:14:58.4   1.2                          T               14.6  .26 Ml 2.4         4902749
FLN   001.34 067.5 m E Pg      2012/04/05 09:14:49.9  -0.2                          T                                        4902834
FLN   001.34 067.5 m E Sg      2012/04/05 09:15:07.9   0.3                          T                9.2  .29 Ml 2.3         4902833

.
EVENT     273106
    Date      Time       Latitude Longitude    Depth    Ndef Nsta Gap    Mag1  N    Mag2  N    Mag3  N   Author         ID
       rms   OT_Error      Smajor Sminor Az        Err   mdist  Mdist     Err        Err        Err      Quality

2012/04/05 09:14:55.2     45.3737    1.2663       .0 f    11    6 101  Ml 2.2  4  Md 2.0  1              js067245    273126

      0.18   +-  0.06       1.1    1.1  144.96 +-  0.0    0.19   1.62   +-0.0      +-                    m i km

FRANCE
Sta     Dist  EvAz     Phase      Date       Time     TRes  Azim  AzRes  Slow  SRes Def   SNR       Amp   Per   Mag1   Mag2       ID
RJF   000.19 111.4 m E Pg      2012/04/05 09:14:59.3   0.0                          T                                        4903458
RJF   000.19 111.4 m E Sg      2012/04/05 09:15:01.7  -0.4                          T               44.3  .30        Md 2.0  4903459
LFF   000.57 220.8 m E Pg      2012/04/05 09:15:06.3   0.0                          T                                        4903447
LFF   000.57 220.8 m E Sg      2012/04/05 09:15:14.1   0.1                          T               26.8  .90                4903448
CAF   000.72 128.1 m E Pg      2012/04/05 09:15:09.0  -0.1                          T                                        4903456
CAF   000.72 128.1 m E Sg      2012/04/05 09:15:19.0   0.3                          T                3.9  .20                4903457
TCF   001.13 035.5 m E Pg      2012/04/05 09:15:16.8   0.2                          T                                        4903451
TCF   001.13 035.5 m E Sn      2012/04/05 09:15:32.4   0.1                          T                4.5  .20 Ml 2.3         4903452
MFF   001.57 321.8 m E Pg      2012/04/05 09:15:24.7  -0.1                          T                                        4903449
MFF   001.57 321.8 m E Sg      2012/04/05 09:15:45.2  -0.1                          T                1.9  .22 Ml 2.2         4903450
BGF   001.62 042.4 m E Sg      2012/04/05 09:15:46.4  -0.3                          T                3.5  .29 Ml 2.2         4903453

.
EVENT     273092
    Date      Time       Latitude Longitude    Depth    Ndef Nsta Gap    Mag1  N    Mag2  N    Mag3  N   Author         ID
       rms   OT_Error      Smajor Sminor Az        Err   mdist  Mdist     Err        Err        Err      Quality

2012/04/05 09:39:44.1     44.1117    2.3289       .0 f    11    4 160  Ml 2.0  2  Md 1.9  1              bulletin    273112
                                                                                                         _ldg
      1.48   +-  0.19       5.0    3.2   95.03 +-  0.0    0.77   1.84   +-0.2      +-                    m i km

FRANCE
Sta     Dist  EvAz     Phase      Date       Time     TRes  Azim  AzRes  Slow  SRes Def   SNR       Amp   Per   Mag1   Mag2       ID
MTLF  000.77 186.0 m E Pg      2012/04/05 09:39:59.2   0.2                          T                                        4903498
MTLF  000.77 186.0 m E P       2012/04/05 09:40:00.6   0.1                          T                                        4903503
MTLF  000.77 186.0 m E Sg      2012/04/05 09:40:09.5   0.3                          T                6.2  .30        Md 1.9  4903504
CAF   000.84 347.0 m E Pg      2012/04/05 09:39:59.9  -0.2                          T                                        4903497
CAF   000.84 347.0 m E Pn      2012/04/05 09:40:01.7  -0.1                          T                                        4903505
CAF   000.84 347.0 m E Sg      2012/04/05 09:40:11.3   0.1                          T                8.1  .30                4903506
LASF  001.10 091.3 m E Pg      2012/04/05 09:40:05.4   0.4                          T                                        4903501
LASF  001.10 091.3 m E Sg      2012/04/05 09:40:19.8   0.2                          T                8.8  .46 Ml 2.1         4903502
VIVF  001.84 065.3 m E Sg      2012/04/05 09:40:42.5   0.0                          T                1.7  .34 Ml 1.9         4903496

.
EVENT     273096
    Date      Time       Latitude Longitude    Depth    Ndef Nsta Gap    Mag1  N    Mag2  N    Mag3  N   Author         ID
       rms   OT_Error      Smajor Sminor Az        Err   mdist  Mdist     Err        Err        Err      Quality

2012/04/05 09:44:02.1     43.2746    5.5963       .0 f    10    5 218  Ml 1.9  2  Md 2.1  1              js067245    273116

      0.21   +-  0.25       5.2    2.2   25.73 +-  0.0    0.67   1.49   +-0.5      +-                    m i km

NEAR SOUTH COAST OF FRANCE
Sta     Dist  EvAz     Phase      Date       Time     TRes  Azim  AzRes  Slow  SRes Def   SNR       Amp   Per   Mag1   Mag2       ID
LMR   000.67 084.6 m E Pg      2012/04/05 09:44:14.6  -0.3                          T                                        4902797
LMR   000.67 084.6 m E Sg      2012/04/05 09:44:23.9   0.0                          T               10.0  .44                4902796
SMRF  000.70 358.8 m E Pg      2012/04/05 09:44:15.5  -0.1                          T                                        4902801
SMRF  000.70 358.8 m E Sg      2012/04/05 09:44:24.8  -0.1                          T                6.8  .39        Md 2.1  4902800
FRF   000.82 069.2 m E Pg      2012/04/05 09:44:18.0   0.4                          T                                        4902798
FRF   000.82 069.2 m E Sg      2012/04/05 09:44:28.2  -0.3                          T               12.2  .26                4902799
SBF   001.46 065.6 m E Pn      2012/04/05 09:44:28.2   0.0                          T                                        4902803
SBF   001.46 065.6 m E Pg      2012/04/05 09:44:29.7   0.1                          T                                        4902802
SBF   001.46 065.6 m E Sg      2012/04/05 09:44:48.9   0.2                          T                5.4  .36 Ml 2.2         4902804
LASF  001.49 303.0 m E Sn      2012/04/05 09:44:48.1   0.2                          T                 .7  .21 Ml 1.5         4903507

.
EVENT     273097
    Date      Time       Latitude Longitude    Depth    Ndef Nsta Gap    Mag1  N    Mag2  N    Mag3  N   Author         ID
       rms   OT_Error      Smajor Sminor Az        Err   mdist  Mdist     Err        Err        Err      Quality

2012/04/05 09:46:40.6     47.5692    8.1700       .0 f     7    4 271  Ml 2.3  2                         js067245    273117

      0.16   +-  0.25       4.5    2.4  100.61 +-  0.0    0.92   1.72   +-0.0                            m i km

SWITZERLAND
Sta     Dist  EvAz     Phase      Date       Time     TRes  Azim  AzRes  Slow  SRes Def   SNR       Amp   Per   Mag1   Mag2       ID
HINF  000.92 286.0 m E Pg      2012/04/05 09:46:58.2  -0.1                          T                                        4902808
HINF  000.92 286.0 m E Sg      2012/04/05 09:47:10.3  -0.2                          T               12.7  .38 Ml 2.3         4902809
CDF   001.04 324.9 m E Pg      2012/04/05 09:47:00.5   0.1                          T                                        4902811
CDF   001.04 324.9 m E Sg      2012/04/05 09:47:15.5   1.4                          T                7.2  .30 Ml 2.3         4902810
CABF  001.72 236.8 m E Pg      2012/04/05 09:47:12.9  -0.1                          T                                        4902806
CABF  001.72 236.8 m E Sg      2012/04/05 09:47:35.6   0.4                          T                                        4902805
HAU   001.30 290.2 m E Sg      2012/04/05 09:47:22.5   0.1                          T                                        4902807

.
