BEGIN GSE2.0
MSG_TYPE DATA
MSG_ID 13-APR-1214:04:33  FRA_NDC
E-MAIL
DATA_TYPE BULLETIN
Reviewed Bulletin (REB) # P2012-014  from French NDC for regional phases     PERIOD 04 APR 2012 TO 10 APR 2012 S M., J-P S
EVENT     273025
    Date      Time       Latitude Longitude    Depth    Ndef Nsta Gap    Mag1  N    Mag2  N    Mag3  N   Author         ID
       rms   OT_Error      Smajor Sminor Az        Err   mdist  Mdist     Err        Err        Err      Quality

2012/04/04 00:51:32.5     44.6166    8.6453     10.0      34    8 146  Ml 1.8  8  Md 2.1  2              js067245    273045

      0.24   +-  0.07       1.2    1.0   52.14 +-  0.0    0.10   2.30   +-0.3      +-0.0                 m i ke

NORTHERN ITALY
Sta     Dist  EvAz     Phase      Date       Time     TRes  Azim  AzRes  Slow  SRes Def   SNR       Amp   Per   Mag1   Mag2       ID
SBF   001.15 229.5 m E Pg      2012/04/04 00:51:54.6   0.4                          T                                        4901499
SBF   001.15 229.5 m E Sg      2012/04/04 00:52:09.3   0.2                          T                7.1  .31 Ml 2.2 Md 2.1  4901500
MBDF  001.34 275.4 m E Pn      2012/04/04 00:51:55.8  -0.1                          T                                        4901516
MBDF  001.34 275.4 m E Pg      2012/04/04 00:51:57.7  -0.2                          T                                        4901522
MBDF  001.34 275.4 m E Sg      2012/04/04 00:52:15.5   0.3                          T                1.7  .27 Ml 1.8 Md 2.1  4901523
LPG   001.61 303.9 m E Pg      2012/04/04 00:52:02.8   0.0                          T                                        4901519
LPG   001.61 303.9 m E Sg      2012/04/04 00:52:23.2  -0.4                          T                 .5  .22 Ml 1.5         4901526
LPL   001.63 304.2 m E Pg      2012/04/04 00:52:03.2   0.1                          T                                        4901520
LPL   001.63 304.2 m E Sg      2012/04/04 00:52:24.1  -0.1                          T                 .6  .24 Ml 1.5         4901525
FRF   001.79 234.5 m E Pg      2012/04/04 00:52:05.6  -0.1                          T                                        4901518
FRF   001.79 234.5 m E Sg      2012/04/04 00:52:28.7  -0.1                          T                1.8  .24 Ml 2.1         4901497
LMR   002.01 231.0 m E Pg      2012/04/04 00:52:09.5  -0.3                          T                                        4901517
LMR   002.01 231.0 m E Sg      2012/04/04 00:52:35.9   0.2                          T                2.2  .26 Ml 2.1         4901498
ORIF  001.99 279.7 m E Pg      2012/04/04 00:52:09.6  -0.1                          T                                        4901521
ORIF  001.99 279.7 m E Sg      2012/04/04 00:52:35.3  -0.1                          T                  1  .31 Ml 1.7         4901524
SMRF  002.30 254.9 m E Sn      2012/04/04 00:52:35.4   0.0                          T                                        4901528
SMRF  002.30 254.9 m E Sg      2012/04/04 00:52:44.4  -0.4                          T                  1  .33 Ml 1.7         4901527

.
EVENT     273026
    Date      Time       Latitude Longitude    Depth    Ndef Nsta Gap    Mag1  N    Mag2  N    Mag3  N   Author         ID
       rms   OT_Error      Smajor Sminor Az        Err   mdist  Mdist     Err        Err        Err      Quality

2012/04/04 02:44:34.1     43.4480    -.5449     10.0 f    18    7 139  Ml 1.5  4  Md 1.7  2              js067245    273046

      0.43   +-  0.13       2.6    1.7  147.81 +-  0.0    0.38   2.39   +-0.2      +-0.1                 m i ke

PYRENEES
Sta     Dist  EvAz     Phase      Date       Time     TRes  Azim  AzRes  Slow  SRes Def   SNR       Amp   Per   Mag1   Mag2       ID
ETSF  000.55 181.1 m E Pg      2012/04/04 02:44:44.3  -0.4                          T                                        4901531
ETSF  000.55 181.1 m E Sg      2012/04/04 02:44:52.1   0.0                          T                3.0  .26        Md 1.6  4901532
SJPF  000.60 236.3 m E Pg      2012/04/04 02:44:45.6   0.1                          T                                        4901533
SJPF  000.60 236.3 m E Sg      2012/04/04 02:44:52.7  -0.8                          T                2.8  .23        Md 1.7  4901534
EPF   000.77 122.5 m E Pg      2012/04/04 02:44:48.5  -0.2                          T                                        4901529
EPF   000.77 122.5 m E Sg      2012/04/04 02:44:59.7   0.8                          T                3.1  .28                4901530
LFF   001.75 031.4 m E Sg      2012/04/04 02:45:29.3  -0.1                          T                1.2  .23 Ml 1.7         4901536
MTLF  002.02 092.1 m E Sg      2012/04/04 02:45:38.0   0.4                          T                 .4  .30 Ml 1.4         4901543
RJF   002.37 037.8 m E Sg      2012/04/04 02:45:49.0   0.3                          T                 .4  .18 Ml 1.4         4901535
CAF   002.39 050.9 m E Sg      2012/04/04 02:45:49.0  -0.2                          T                 .2  .17 Ml 1.4         4901537

.
EVENT     273045
    Date      Time       Latitude Longitude    Depth    Ndef Nsta Gap    Mag1  N    Mag2  N    Mag3  N   Author         ID
       rms   OT_Error      Smajor Sminor Az        Err   mdist  Mdist     Err        Err        Err      Quality

2012/04/04 05:03:18.9     44.5811    7.2659      2.0      18    2 129  Ml 1.2  1  Md 1.6  1              bulletin    273065
                                                                                                         _ldg
      0.21   +-  0.06       1.5     .9   59.14 +-  0.0    0.14   1.04   +-         +-                    m i ke

NORTHERN ITALY
Sta     Dist  EvAz     Phase      Date       Time     TRes  Azim  AzRes  Slow  SRes Def   SNR       Amp   Per   Mag1   Mag2       ID
MBDF  000.38 292.6 m E Pg      2012/04/04 05:03:26.5   0.1                          T                                        4901564
MBDF  000.38 292.6 m E Sg      2012/04/04 05:03:31.5  -0.1                          T                1.8  .17        Md 1.6  4901565
ORIF  001.04 289.3 m E Pg      2012/04/04 05:03:38.8   0.3                          T                                        4901562
ORIF  001.04 289.3 m E Sg      2012/04/04 05:03:51.7  -0.4                          T                 .4  .17 Ml 1.2         4901563

.
EVENT     273030
    Date      Time       Latitude Longitude    Depth    Ndef Nsta Gap    Mag1  N    Mag2  N    Mag3  N   Author         ID
       rms   OT_Error      Smajor Sminor Az        Err   mdist  Mdist     Err        Err        Err      Quality

2012/04/04 07:08:50.3     43.4266   13.5003     42.9      89   25 114                                    js067245    273050

                                               +-         0.14   8.56                                    m i ke

CENTRAL ITALY
Sta     Dist  EvAz     Phase      Date       Time     TRes  Azim  AzRes  Slow  SRes Def   SNR       Amp   Per   Mag1   Mag2       ID
PGF   003.42 256.7 m E P       2012/04/04 07:09:43.1   0.4                          T   001.0                                4901180
PGF   003.42 256.7 m E Sn      2012/04/04 07:10:18.2   0.3                          T   001.0        3.8  .32                4901181
SBF   004.42 277.7 m E Pn      2012/04/04 07:09:54.6   0.5                          T                                        4901575
SBF   004.42 277.7 m E P       2012/04/04 07:09:56.8   0.0                          T   001.0                                4901182
SBF   004.42 277.7 m E Sn      2012/04/04 07:10:42.8   1.0                          T   001.0       14.5  .52                4901183
MBDF  005.02 287.3 m E Pn      2012/04/04 07:10:02.9   0.6                          T   001.0                                4901192
MBDF  005.02 287.3 m E Sn      2012/04/04 07:10:56.0   0.0                          T                5.2  .29                4901571
LMR   005.10 271.4 m E Pn      2012/04/04 07:10:03.5   0.4                          T                                        4901576
LMR   005.10 271.4 m E P       2012/04/04 07:10:06.5   0.3                          T   001.0                                4901174
LMR   005.10 271.4 m E Sn      2012/04/04 07:10:58.0   0.3                          T                2.7  .22                4901574
FRF   004.99 273.9 m E P       2012/04/04 07:10:04.4  -0.4                          T   001.0                                4901171
FRF   004.99 273.9 m E Sn      2012/04/04 07:10:55.7   0.6                          T                6.0  .26                4901573
LPG   005.26 295.5 m E Pn      2012/04/04 07:10:05.7   0.0                          T                                        4901577
LPG   005.26 295.5 m E P       2012/04/04 07:10:08.9   0.0                          T   001.0                                4901176
LPG   005.26 295.5 m E Sn      2012/04/04 07:11:01.7  -0.2                          T   001.0        9.6  .40                4901177
LPL   005.27 295.7 m E Pn      2012/04/04 07:10:05.8  -0.1                          T                                        4901578
LPL   005.27 295.7 m E P       2012/04/04 07:10:09.1   0.0                          T   001.0                                4901178
LPL   005.27 295.7 m E Sn      2012/04/04 07:11:01.9  -0.3                          T   001.0        8.9  .32                4901179
ORIF  005.68 287.8 m E Pn      2012/04/04 07:10:12.6   1.4                          T   001.0                                4901193
ORIF  005.68 287.8 m E Sn      2012/04/04 07:11:11.8   0.1                          T                4.5  .36                4901572
SMRF  005.77 278.2 m E P       2012/04/04 07:10:15.4  -0.4                          T   001.0                                4901195
CABF  006.14 303.8 m E Pn      2012/04/04 07:10:18.4   1.0                          T   001.0                                4901187
HINF  006.40 315.6 m E Pn      2012/04/04 07:10:21.6   0.7                          T   001.0                                4901190
HINF  006.40 315.6 m E Sn      2012/04/04 07:11:27.7  -1.1                          T   001.0        6.1  .20                4901191
VIVF  006.51 285.7 m E Pn      2012/04/04 07:10:23.7   1.4                          T   001.0                                4901194
VIVF  006.51 285.7 m E Sn      2012/04/04 07:11:31.7   0.3                          T                1.4  .23                4901570
CDF   006.61 321.1 m E Pn      2012/04/04 07:10:24.7   0.9                          T   001.0                                4901170
CDF   006.61 321.1 m E Sn      2012/04/04 07:11:32.5  -1.3                          T                2.8  .24                4901569
HAU   006.78 314.9 m E Pn      2012/04/04 07:10:25.0  -0.1                          T   001.0                                4901172
HAU   006.78 314.9 m E Sn      2012/04/04 07:11:36.7  -1.2                          T   001.0        9.9  .24                4901173
THEF  007.11 315.1 m E Pn      2012/04/04 07:10:31.8   1.3                          T                                        4901584
PAGF  007.46 316.2 m E Pn      2012/04/04 07:10:37.0   1.8                          T                                        4901587
SMF   007.56 298.5 m E Pn      2012/04/04 07:10:37.0   0.4                          T                                        4901583
SFTF  007.60 311.9 m E Pn      2012/04/04 07:10:37.7   0.5 126.4  0.6               T                                        4901585
MEZF  007.77 313.7 m E Pn      2012/04/04 07:10:39.4   0.0                          T                                        4901586
LOR   007.80 302.8 m E Pn      2012/04/04 07:10:40.0   0.1 122.7  6.7               T   001.0                                4901175
LOR   007.80 302.8 m E Sn      2012/04/04 07:12:02.1   0.0                          T                4.1  .27                4901568
SSF   007.93 300.7 m E Pn      2012/04/04 07:10:41.5  -0.1                          T   001.0                                4901184
SSF   007.93 300.7 m E Sn      2012/04/04 07:12:04.3  -1.0                          T   001.0        2.7  .24                4901185
AVF   007.93 298.6 m E Pn      2012/04/04 07:10:42.0   0.5                          T   001.0                                4901167
BGF   008.17 296.2 m E Pn      2012/04/04 07:10:44.4  -0.5                          T                                        4901581
CAF   008.36 284.3 m E Pn      2012/04/04 07:10:47.5   0.1                          T                                        4901579
HYF   008.56 300.4 m E Pn      2012/04/04 07:10:50.8   0.7                          T                                        4901582

.
EVENT     273029
    Date      Time       Latitude Longitude    Depth    Ndef Nsta Gap    Mag1  N    Mag2  N    Mag3  N   Author         ID
       rms   OT_Error      Smajor Sminor Az        Err   mdist  Mdist     Err        Err        Err      Quality

2012/04/04 07:23:56.3     45.1614    2.9832       .0 f    28   11 082  Ml 2.4 12  Md 2.3  1              bulletin    273049
                                                                                                         _ldg
      1.69   +-  0.15       3.5    2.3  101.65 +-  0.0    0.69   2.19   +-0.3      +-                    m i km

FRANCE
Sta     Dist  EvAz     Phase      Date       Time     TRes  Azim  AzRes  Slow  SRes Def   SNR       Amp   Per   Mag1   Mag2       ID
CAF   000.69 250.4 m E Pg      2012/04/04 07:24:11.1   1.5                          T                                        4901203
CAF   000.69 250.4 m E Sg      2012/04/04 07:24:19.1   0.2                          T                3.9  .27        Md 2.3  4901204
RJF   001.05 278.4 m E Pg      2012/04/04 07:24:15.5  -0.6                          T                                        4901092
RJF   001.05 278.4 m E Sg      2012/04/04 07:24:29.1  -0.8                          T               38.6  .85 Ml 2.2         4901099
TCF   001.25 334.6 m E Pg      2012/04/04 07:24:19.5  -0.4                          T                                        4901091
TCF   001.25 334.6 m E Sg      2012/04/04 07:24:37.3   1.0                          T               53.8  .80 Ml 2.8         4901090
VIVF  001.24 103.7 m E Pg      2012/04/04 07:24:20.0   0.3                          T                                        4901103
VIVF  001.24 103.7 m E Sg      2012/04/04 07:24:36.7   0.8                          T               50.8  .68 Ml 2.8         4901100
LASF  001.25 149.8 m E Pg      2012/04/04 07:24:20.1   0.1                          T                                        4901102
LASF  001.25 149.8 m E Sg      2012/04/04 07:24:36.8   0.4                          T               39.9  .61 Ml 2.7         4901101
BGF   001.40 356.1 m E Pg      2012/04/04 07:24:22.7   0.0                          T                                        4901098
BGF   001.40 356.1 m E Sg      2012/04/04 07:24:41.6   0.6                          T               18.5  .35 Ml 2.7         4901097
SMF   001.60 021.7 m E Pn      2012/04/04 07:24:24.5   0.3                          T                                        4902176
SMF   001.60 021.7 m E Pg      2012/04/04 07:24:25.8  -0.5                          T                                        4901095
SMF   001.60 021.7 m E Sn      2012/04/04 07:24:44.4  -0.2                          T                                        4902175
SMF   001.60 021.7 m E Sg      2012/04/04 07:24:47.4   0.2                          T                4.6  .38 Ml 2.2         4901096
AVF   001.65 008.9 m E Pg      2012/04/04 07:24:26.8  -0.4                          T                                        4901094
AVF   001.65 008.9 m E Sg      2012/04/04 07:24:49.0   0.3                          T               13.3  .68 Ml 2.4         4901093
MTLF  001.90 197.1 m E Pg      2012/04/04 07:24:31.8  -0.1                          T                                        4902183
MTLF  001.90 197.1 m E Sg      2012/04/04 07:24:56.4  -0.2                          T               19.4  .86 Ml 2.5         4902182
SSF   001.94 010.6 m E Pg      2012/04/04 07:24:32.5   0.0                          T                                        4902167
SSF   001.94 010.6 m E Sg      2012/04/04 07:24:58.3   0.6                          T                1.7  .25 Ml 2.1         4902177
LOR   002.19 015.8 m E Pg      2012/04/04 07:24:37.3   0.0 177.1  -19.3             T                                        4902166
LOR   002.19 015.8 m E Sg      2012/04/04 07:25:05.6  -0.2 187.3  -9.1              T                1.3  .22 Ml 2.0         4902165

.
EVENT     273032
    Date      Time       Latitude Longitude    Depth    Ndef Nsta Gap    Mag1  N    Mag2  N    Mag3  N   Author         ID
       rms   OT_Error      Smajor Sminor Az        Err   mdist  Mdist     Err        Err        Err      Quality

2012/04/04 08:13:51.6     45.9532    4.0652       .0 f    14    6 164  Ml 2.0  5                         bulletin    273052
                                                                                                         _ldg
      1.64   +-  0.24       8.5    3.4   69.63 +-  0.0    0.71   1.32   +-0.3                            m i km

FRANCE
Sta     Dist  EvAz     Phase      Date       Time     TRes  Azim  AzRes  Slow  SRes Def   SNR       Amp   Per   Mag1   Mag2       ID
SMF   000.71 347.4 m E Pg      2012/04/04 08:14:05.3   0.0                          T                                        4901323
SMF   000.71 347.4 m E Sg      2012/04/04 08:14:15.0   0.3                          T                2.7  .22                4901321
AVF   000.97 329.8 m E Pg      2012/04/04 08:14:10.1   0.1                          T                                        4901324
AVF   000.97 329.8 m E Sg      2012/04/04 08:14:23.4   0.5                          T                2.4  .16 Ml 2.0         4901320
BGF   001.04 306.0 m E Pg      2012/04/04 08:14:10.4  -0.9                          T                                        4901322
BGF   001.04 306.0 m E Sg      2012/04/04 08:14:24.8  -0.2                          T               19.5  .42 Ml 2.5         4901319
VIVF  001.18 158.5 m E Pg      2012/04/04 08:14:14.0   0.1                          T                                        4902199
VIVF  001.18 158.5 m E Sg      2012/04/04 08:14:29.4   0.1                          T                                        4902198
SSF   001.17 341.0 m E Pg      2012/04/04 08:14:14.0   0.3                          T                                        4901316
SSF   001.17 341.0 m E Sg      2012/04/04 08:14:29.8   0.6                          T                2.1  .29 Ml 1.8         4901315
LOR   001.32 353.9 m E Pg      2012/04/04 08:14:16.7   0.1 159.3  -14.5             T                                        4901314
LOR   001.32 353.9 m E Sg      2012/04/04 08:14:33.4  -0.5 177.9  4.1               T                2.3  .29 Ml 1.9         4901313

.
