EVENT     277148
    Date      Time       Latitude Longitude    Depth    Ndef Nsta Gap    Mag1  N    Mag2  N    Mag3  N   Author         ID
       rms   OT_Error      Smajor Sminor Az        Err   mdist  Mdist     Err        Err        Err      Quality

2012/05/30 02:12:13.0     44.9999   11.1783      2.0      42   19 117  Ml 3.1  9                         bulletin    277248
                                                                                                         _ldg
      1.16   +-  0.33       8.6    6.0   67.85 +-  0.0    0.19   6.42   +-0.2                            m i ke

NORTHERN ITALY
Sta     Dist  EvAz     Phase      Date       Time     TRes  Azim  AzRes  Slow  SRes Def   SNR       Amp   Per   Mag1   Mag2       ID
SBF   002.91 248.3 m E Pn      2012/05/30 02:12:58.2  -0.4                          T   001.0                                4975876
SBF   002.91 248.3 m E Sn      2012/05/30 02:13:33.2   1.1                          T               31.6  .32 Ml 3.4         4975892
PGF   002.91 213.5 m E Pn      2012/05/30 02:12:59.2   0.6                          T                                        4975893
PGF   002.91 213.5 m E Sn      2012/05/30 02:13:30.9  -1.3                          T   001.0         15  .52 Ml 3.1         4975875
LPG   003.17 280.6 m E Pn      2012/05/30 02:13:02.6   0.3                          T   001.0                                4975874
LPG   003.17 280.6 m E Sn      2012/05/30 02:13:37.8  -0.7                          T               15.1  .50 Ml 2.9         4975890
LPL   003.18 280.9 m E Pn      2012/05/30 02:13:02.7   0.2                          T                                        4975889
FRF   003.56 247.7 m E Pn      2012/05/30 02:13:07.7   0.5                          T   001.0                                4975865
FRF   003.56 247.7 m E Sn      2012/05/30 02:13:48.0   0.5                          T   001.0       10.1  .32 Ml 3.1         4975866
LMR   003.75 245.3 m E Pn      2012/05/30 02:13:10.1   0.2                          T   001.0                                4975871
LMR   003.75 245.3 m E Sn      2012/05/30 02:13:51.2  -0.7                          T   001.0       10.9  .32 Ml 3.1         4975872
ORIF  003.76 270.6 m E Pn      2012/05/30 02:13:10.5   0.3                          T   001.0                                4975884
CABF  003.91 296.2 m E Pn      2012/05/30 02:13:13.2   1.0                          T   001.0                                4975880
HINF  004.11 314.8 m E Pn      2012/05/30 02:13:15.5   0.6                          T   001.0                                4975881
HINF  004.11 314.8 m E Sn      2012/05/30 02:14:02.7   2.1                          T   001.0        5.5  .40 Ml 2.8         4975882
SMRF  004.14 257.6 m E Pn      2012/05/30 02:13:16.2   1.0                          T                                        4975891
CDF   004.34 323.2 m E Pn      2012/05/30 02:13:19.4   1.3                          T                                        4975888
CDF   004.34 323.2 m E Sn      2012/05/30 02:14:09.0   2.7                          T   001.0        3.9  .28 Ml 3.0         4975864
HAU   004.49 313.8 m E Pn      2012/05/30 02:13:20.8   0.8                          T   001.0                                4975868
HAU   004.49 313.8 m E Sn      2012/05/30 02:14:10.5   0.7                          T   001.0          9  .24 Ml 3.1         4975869
VIVF  004.62 270.5 m E Pn      2012/05/30 02:13:21.4  -0.4                          T   001.0                                4975886
LASF  005.31 262.6 m E Pn      2012/05/30 02:13:30.3  -0.9                          T   001.0                                4975870
SMF   005.39 290.4 m E Pn      2012/05/30 02:13:32.3   0.1                          T   001.0                                4975877
LOR   005.57 296.6 m E Pn      2012/05/30 02:13:35.8   1.1                          T   001.0                                4975873
LOR   005.57 296.6 m E Sn      2012/05/30 02:14:36.5   1.0                          T                3.4  .32 Ml 3.0         4975894
SSF   005.73 293.8 m E Pn      2012/05/30 02:13:36.3  -0.5                          T   001.0                                4975878
AVF   005.75 290.9 m E Pn      2012/05/30 02:13:36.8  -0.3                          T   001.0                                4975862
TCF   006.42 284.7 m E Pn      2012/05/30 02:13:47.1   0.8                          T   001.0                                4975879

.
EVENT     277149
    Date      Time       Latitude Longitude    Depth    Ndef Nsta Gap    Mag1  N    Mag2  N    Mag3  N   Author         ID
       rms   OT_Error      Smajor Sminor Az        Err   mdist  Mdist     Err        Err        Err      Quality

2012/05/30 02:42:11.5     44.9253   11.1472      2.0      61   21 085  Ml 3.1 19                         bulletin    277249
                                                                                                         _ldg
      0.58   +-  0.12       3.1    2.2   59.38 +-  0.0    0.17   6.42   +-0.3                            m i ke

NORTHERN ITALY
Sta     Dist  EvAz     Phase      Date       Time     TRes  Azim  AzRes  Slow  SRes Def   SNR       Amp   Per   Mag1   Mag2       ID
PGF   002.84 214.0 m E Pn      2012/05/30 02:42:56.4   0.3                          T   001.0                                4975937
PGF   002.84 214.0 m E Sn      2012/05/30 02:43:29.0   0.1                          T   001.0       24.5  .44 Ml 3.4         4975938
SBF   002.86 249.5 m E Pn      2012/05/30 02:42:56.7   0.3                          T   001.0                                4975939
SBF   002.86 249.5 m E Sn      2012/05/30 02:43:30.0   0.6                          T   001.0       40.7  .32 Ml 3.5         4975940
MBDF  003.12 267.9 m E Pn      2012/05/30 02:42:59.8  -0.2                          T   001.0                                4975951
LPG   003.16 282.0 m E Pn      2012/05/30 02:43:01.0   0.3                          T   001.0                                4975934
LPG   003.16 282.0 m E Sn      2012/05/30 02:43:36.2  -0.6                          T   001.0       12.7  .40 Ml 3.0         4975935
LPL   003.18 282.3 m E Pn      2012/05/30 02:43:01.2   0.4                          T                                        4975960
LPL   003.18 282.3 m E Sn      2012/05/30 02:43:37.3   0.3                          T   001.0        7.9  .32 Ml 2.9         4975936
FRF   003.51 248.7 m E Pn      2012/05/30 02:43:05.7   0.6                          T   001.0                                4975927
FRF   003.51 248.7 m E Sn      2012/05/30 02:43:46.1   1.3                          T   001.0       14.6  .20 Ml 3.4         4975928
LMR   003.70 246.2 m E Pn      2012/05/30 02:43:08.0   0.3                          T   001.0                                4975931
LMR   003.70 246.2 m E Sn      2012/05/30 02:43:49.5   0.3                          T               21.9  .25 Ml 3.5         4975961
ORIF  003.74 271.7 m E Pn      2012/05/30 02:43:08.9   0.5                          T   001.0                                4975952
ORIF  003.74 271.7 m E Sn      2012/05/30 02:43:50.5   0.1                          T   001.0        9.4  .52 Ml 2.8         4975953
CABF  003.92 297.2 m E Pn      2012/05/30 02:43:11.2   0.3                          T   001.0                                4975947
CABF  003.92 297.2 m E Sn      2012/05/30 02:43:55.1   0.4                          T   001.0        5.8  .36 Ml 2.8         4975948
SMRF  004.10 258.6 m E Pn      2012/05/30 02:43:13.4   0.2                          T   001.0                                4975956
SMRF  004.10 258.6 m E Sn      2012/05/30 02:43:58.9  -0.1                          T                3.4  .45 Ml 2.6         4975962
HINF  004.15 315.7 m E Pn      2012/05/30 02:43:13.8  -0.1                          T   001.0                                4975949
HINF  004.15 315.7 m E Sn      2012/05/30 02:43:59.3  -0.7                          T   001.0        5.4  .24 Ml 3.0         4975950
CDF   004.39 324.0 m E Pn      2012/05/30 02:43:17.4   0.2                          T   001.0                                4975925
CDF   004.39 324.0 m E Sn      2012/05/30 02:44:06.0   0.1                          T   001.0        3.6  .20 Ml 3.1         4975926
HAU   004.53 314.6 m E Pn      2012/05/30 02:43:18.9   0.0                          T   001.0                                4975929
HAU   004.53 314.6 m E Sn      2012/05/30 02:44:08.3  -0.8                          T   001.0       14.2  .24 Ml 3.3         4975930
VIVF  004.60 271.4 m E Pn      2012/05/30 02:43:19.4  -0.6                          T   001.0                                4975954
VIVF  004.60 271.4 m E Sn      2012/05/30 02:44:10.6  -0.3                          T   001.0        1.9  .28 Ml 2.6         4975955
THEF  004.85 314.7 m E Pn      2012/05/30 02:43:24.0   0.6                          T                                        4975958
THEF  004.85 314.7 m E Sn      2012/05/30 02:44:16.0  -0.9                          T                8.7  .24 Ml 3.4         4975957
SMF   005.39 291.2 m E Pn      2012/05/30 02:43:30.5  -0.2                          T   001.0                                4975941
SMF   005.39 291.2 m E Sn      2012/05/30 02:44:29.7   0.0                          T   001.0        6.9  .36 Ml 3.2         4975942
LOR   005.58 297.4 m E Pn      2012/05/30 02:43:33.4   0.0                          T   001.0                                4975932
LOR   005.58 297.4 m E Sn      2012/05/30 02:44:34.3   0.0                          T   001.0        5.4  .32 Ml 3.2         4975933
AVF   005.75 291.7 m E Pn      2012/05/30 02:43:35.2  -0.4                          T   001.0                                4975923
SSF   005.74 294.6 m E Pn      2012/05/30 02:43:35.3  -0.1                          T   001.0                                4975943
SSF   005.74 294.6 m E Sn      2012/05/30 02:44:38.2   0.2                          T   001.0          2  .32 Ml 2.9         4975944
BGF   006.03 288.6 m E Pn      2012/05/30 02:43:39.5   0.0                          T   001.0                                4975924
BGF   006.03 288.6 m E Sn      2012/05/30 02:44:46.1   1.0                          T               13.4  .42 Ml 3.6         4975959
TCF   006.42 285.4 m E Pn      2012/05/30 02:43:45.5   0.8                          T   001.0                                4975945
TCF   006.42 285.4 m E Sn      2012/05/30 02:44:54.3   0.1                          T   001.0        2.1  .32 Ml 3.0         4975946

.
EVENT     277150
    Date      Time       Latitude Longitude    Depth    Ndef Nsta Gap    Mag1  N    Mag2  N    Mag3  N   Author         ID
       rms   OT_Error      Smajor Sminor Az        Err   mdist  Mdist     Err        Err        Err      Quality

2012/05/30 02:46:37.2     44.9089   11.2336      2.0      70   26 094  Ml 3.4 20                         bulletin    277250
                                                                                                         _ldg
      0.54   +-  0.11       2.8    2.0   55.59 +-  0.0    0.26   6.51   +-0.2                            m i ke

NORTHERN ITALY
Sta     Dist  EvAz     Phase      Date       Time     TRes  Azim  AzRes  Slow  SRes Def   SNR       Amp   Per   Mag1   Mag2       ID
PGF   002.86 215.2 m E Pn      2012/05/30 02:47:22.3   0.2                          T   001.0                                4976009
PGF   002.86 215.2 m E Sn      2012/05/30 02:47:55.8   0.6                          T   001.0       27.7  .44 Ml 3.4         4976010
SBF   002.92 250.3 m E Pn      2012/05/30 02:47:23.1   0.2                          T   001.0                                4976011
SBF   002.92 250.3 m E Sn      2012/05/30 02:47:55.6  -0.8                          T   001.0      104.8  .56 Ml 3.7         4976012
MBDF  003.18 268.3 m E Pn      2012/05/30 02:47:26.2  -0.3                          T   001.0                                4976023
MBDF  003.18 268.3 m E Sn      2012/05/30 02:48:02.7  -0.1                          T               64.1  .72 Ml 3.4         4976029
LPL   003.24 282.4 m E Pn      2012/05/30 02:47:27.6   0.2                          T                                        4976039
LPL   003.24 282.4 m E Sn      2012/05/30 02:48:04.8   0.5                          T                                        4976038
LPG   003.22 282.1 m E Pn      2012/05/30 02:47:27.9   0.7                          T   001.0                                4976006
LPG   003.22 282.1 m E Sn      2012/05/30 02:48:04.2   0.3                          T   001.0       75.2  .72 Ml 3.5         4976007
FRF   003.56 249.4 m E Pn      2012/05/30 02:47:31.9   0.4                          T   001.0                                4975998
FRF   003.56 249.4 m E Sn      2012/05/30 02:48:10.0  -0.7                          T   001.0       68.0  .80 Ml 3.5         4975999
LMR   003.75 246.8 m E Pn      2012/05/30 02:47:33.9  -0.2                          T   001.0                                4976002
LMR   003.75 246.8 m E Sn      2012/05/30 02:48:16.0  -0.1                          T   001.0       13.5  .32 Ml 3.2         4976003
ORIF  003.80 272.0 m E Pn      2012/05/30 02:47:35.4   0.5                          T   001.0                                4976024
ORIF  003.80 272.0 m E Sn      2012/05/30 02:48:17.3  -0.3                          T               38.2  .80 Ml 3.3         4976028
CABF  003.98 297.1 m E Pn      2012/05/30 02:47:37.7   0.3                          T   001.0                                4976018
CABF  003.98 297.1 m E Sn      2012/05/30 02:48:21.3  -0.6                          T   001.0       56.3  .82 Ml 3.5         4976019
SMRF  004.16 259.0 m E Pn      2012/05/30 02:47:39.4  -0.3                          T   001.0                                4976027
SMRF  004.16 259.0 m E Sn      2012/05/30 02:48:26.2   0.1                          T               18.9  .63 Ml 3.2         4976040
HINF  004.20 315.4 m E Pn      2012/05/30 02:47:40.9   0.6                          T   001.0                                4976020
HINF  004.20 315.4 m E Sn      2012/05/30 02:48:26.9  -0.2                          T   001.0                                4976021
CDF   004.44 323.5 m E Pn      2012/05/30 02:47:43.4  -0.2                          T   001.0                                4975996
CDF   004.44 323.5 m E Sn      2012/05/30 02:48:32.1  -0.7                          T   001.0       10.3  .40 Ml 3.3         4975997
HAU   004.58 314.3 m E Pn      2012/05/30 02:47:45.9   0.4                          T   001.0                                4976000
HAU   004.58 314.3 m E Sn      2012/05/30 02:48:36.0  -0.1                          T               41.7  .50 Ml 3.5         4976037
VIVF  004.66 271.7 m E Pn      2012/05/30 02:47:46.4  -0.2                          T   001.0                                4976025
VIVF  004.66 271.7 m E Sn      2012/05/30 02:48:38.1   0.0                          T   001.0        8.5  .60 Ml 2.9         4976026
PAGF  005.26 315.9 m E Pn      2012/05/30 02:47:55.1   0.5                          T                                        4976036
PAGF  005.26 315.9 m E Sn      2012/05/30 02:48:51.9  -0.3                          T               10.5  .75 Ml 3.1         4976035
SFTF  005.40 309.9 m E Pn      2012/05/30 02:47:57.1   0.5                          T                                        4976034
SFTF  005.40 309.9 m E Sn      2012/05/30 02:48:56.1   0.5                          T               29.0  .78 Ml 3.5         4976033
SMF   005.45 291.2 m E Pn      2012/05/30 02:47:57.2  -0.1                          T   001.0                                4976013
SMF   005.45 291.2 m E Sn      2012/05/30 02:48:56.9  -0.1                          T   001.0       15.9  .44 Ml 3.5         4976014
LOR   005.65 297.3 m E Pn      2012/05/30 02:47:59.8  -0.1                          T   001.0                                4976004
LOR   005.65 297.3 m E Sn      2012/05/30 02:49:01.4  -0.1                          T   001.0        8.4  .36 Ml 3.4         4976005
AVF   005.82 291.7 m E Pn      2012/05/30 02:48:02.2  -0.1                          T   001.0                                4975991
AVF   005.82 291.7 m E Sn      2012/05/30 02:49:05.8   0.2                          T   001.0        6.9  .56 Ml 3.1         4975992
SSF   005.80 294.5 m E Pn      2012/05/30 02:48:02.5   0.5                          T   001.0                                4976015
BGF   006.10 288.6 m E Pn      2012/05/30 02:48:06.4   0.3                          T   001.0                                4975993
BGF   006.10 288.6 m E Sn      2012/05/30 02:49:12.7   0.3                          T   001.0                                4975994
HYF   006.43 294.6 m E Pn      2012/05/30 02:48:10.2  -0.3                          T                                        4976031
HYF   006.43 294.6 m E Sn      2012/05/30 02:49:20.5   0.3                          T                                        4976030
TCF   006.48 285.5 m E Pn      2012/05/30 02:48:11.7   0.4                          T   001.0                                4976016
TCF   006.48 285.5 m E Sn      2012/05/30 02:49:21.2  -0.3                          T   001.0       18.9  .84 Ml 3.6         4976017
CAF   006.51 273.4 m E Pn      2012/05/30 02:48:12.0   0.3                          T   001.0                                4975995
LASF  005.34 263.6 m E Sn      2012/05/30 02:48:55.2   0.9                          T   001.0        3.6  .40 Ml 2.9         4976001
MEZF  005.57 312.4 m E Sn      2012/05/30 02:49:00.0   0.4                          T               21.5  .58 Ml 3.6         4976032

.
