EVENT     289403
    Date      Time       Latitude Longitude    Depth    Ndef Nsta Gap    Mag1  N    Mag2  N    Mag3  N   Author         ID
       rms   OT_Error      Smajor Sminor Az        Err   mdist  Mdist     Err        Err        Err      Quality

2013/01/02 21:42:04.4     43.0061    -.2020      2.0       7    4 161  Ml 1.3  1  Md 1.5  2              bulletin    289503
                                                                                                         _ldg
      0.27   +-  0.12       8.4    1.8  173.70 +-  0.0    0.28   1.80   +-         +-0.1                 m i ke

PYRENEES
Sta     Dist  EvAz     Phase      Date       Time     TRes  Azim  AzRes  Slow  SRes Def   SNR       Amp   Per   Mag1   Mag2       ID
ETSF  000.28 247.8 m E Pg      2013/01/02 21:42:10.0  -0.1                          T                                        5153877
ETSF  000.28 247.8 m E Sg      2013/01/02 21:42:14.0   0.1                          T               13.5  .24        Md 1.5  5153876
EPF   000.40 086.3 m E Pg      2013/01/02 21:42:12.1  -0.1                          T                                        5153875
EPF   000.40 086.3 m E Sg      2013/01/02 21:42:18.1   0.6                          T                2.2  .19        Md 1.4  5153874
SJPF  000.76 278.5 m E Pg      2013/01/02 21:42:18.8   0.1                          T                                        5153878
SJPF  000.76 278.5 m E Sg      2013/01/02 21:42:28.4  -0.2                          T                 .6  .19                5153873
MTLF  001.80 078.5 m E Sg      2013/01/02 21:43:00.7  -0.5                          T                 .3  .23 Ml 1.3         5176020

.
EVENT     289435
    Date      Time       Latitude Longitude    Depth    Ndef Nsta Gap    Mag1  N    Mag2  N    Mag3  N   Author         ID
       rms   OT_Error      Smajor Sminor Az        Err   mdist  Mdist     Err        Err        Err      Quality

2013/01/02 23:56:16.6     44.7173    6.6286      5.0 f   143   38 032  Ml 3.4 30  Md 3.4  4              bulletin    289535
                                                                                                         _ldg
      0.85   +-  0.04       1.0     .8   53.44 +-  0.0    0.09   7.50   +-0.3      +-0.1                 m i ke

FRANCE
Sta     Dist  EvAz     Phase      Date       Time     TRes  Azim  AzRes  Slow  SRes Def   SNR       Amp   Per   Mag1   Mag2       ID
MBDF  000.10 084.6 m E Pg      2013/01/02 23:56:18.7  -0.6                          T                                        5154376
MBDF  000.10 084.6 m E Sg      2013/01/02 23:56:20.5  -0.4                          T             7950.0  .36        Md 3.3  5154371
ORIF  000.57 290.9 m E Pg      2013/01/02 23:56:27.3  -0.2                          T                                        5154375
ORIF  000.57 290.9 m E Sg      2013/01/02 23:56:34.3  -0.7                          T              494.3  .24        Md 3.4  5154370
LPG   000.79 006.3 m E Pg      2013/01/02 23:56:31.7   0.0                          T                                        5154373
LPG   000.79 006.3 m E Sg      2013/01/02 23:56:42.2   0.2                          T             1134.9  .58                5154368
LPL   000.80 005.2 m E Pg      2013/01/02 23:56:31.8  -0.2                          T                                        5154374
LPL   000.80 005.2 m E Sg      2013/01/02 23:56:43.2   0.7                          T             1286.5  .56        Md 3.4  5154369
SBF   001.03 145.6 m E Pg      2013/01/02 23:56:35.9  -0.2                          T                                        5154344
SBF   001.03 145.6 m E Sg      2013/01/02 23:56:49.5   0.1                          T              809.3  .66 Ml 3.9         5154343
SMRF  001.06 225.9 m E P       2013/01/02 23:56:38.1   0.0                          T                                        5154367
SMRF  001.06 225.9 m E Sg      2013/01/02 23:56:49.9  -0.3                          T              336.6  .88 Ml 3.4         5154427
SMRF  001.06 225.9 m E S       2013/01/02 23:56:53.7   0.2                          T                                        5154428
LMR   001.39 183.6 m E P       2013/01/02 23:56:43.0   0.3                          T                                        5154345
LMR   001.39 183.6 m E S       2013/01/02 23:57:02.0   0.3                          T                                        5154340
VIVF  001.40 276.4 m E P       2013/01/02 23:56:43.2   0.2                          T                                        5154372
VIVF  001.40 276.4 m E Sg      2013/01/02 23:57:00.6  -0.2                          T              131.2  .32 Ml 3.6 Md 3.3  5154485
CABF  001.93 348.9 m E P       2013/01/02 23:56:51.1   0.4                          T                                        5154355
CABF  001.93 348.9 m E Sg      2013/01/02 23:57:18.0   0.5                          T              338.7  .88 Ml 3.8         5154475
LASF  002.09 253.1 m E P       2013/01/02 23:56:52.1  -0.7                          T                                        5154366
LASF  002.09 253.1 m E S       2013/01/02 23:57:19.6   0.0                          T                                        5154418
LASF  002.09 253.1 m E Sg      2013/01/02 23:57:22.0  -0.3                          T               85.9  .82 Ml 3.2         5154430
SMF   002.75 315.6 m E P       2013/01/02 23:57:02.3   0.1                          T                                        5154359
SMF   002.75 315.6 m E Pg      2013/01/02 23:57:07.8   0.3                          T                                        5154445
SMF   002.75 315.6 m E Sg      2013/01/02 23:57:43.0   0.2                          T              102.9  .55 Ml 3.6         5154478
PGF   002.77 140.7 m E P       2013/01/02 23:57:02.7   0.1                          T                                        5154342
PGF   002.77 140.7 m E Sn      2013/01/02 23:57:32.3   0.6                          T               14.9  .30 Ml 3.3         5154429
PGF   002.77 140.7 m E S       2013/01/02 23:57:37.2   0.3                          T                                        5154341
HINF  003.10 002.8 m E P       2013/01/02 23:57:06.7  -0.7                          T                                        5154354
HINF  003.10 002.8 m E Sg      2013/01/02 23:57:54.1   0.1                          T               32.5  .44 Ml 3.3         5154474
AVF   003.09 313.3 m E P       2013/01/02 23:57:07.4   0.3                          T                                        5154358
AVF   003.09 313.3 m E Pg      2013/01/02 23:57:14.9   1.1                          T                                        5154446
AVF   003.09 313.3 m E Sg      2013/01/02 23:57:53.5  -0.1                          T               56.2  .72 Ml 3.3         5154477
LOR   003.20 323.9 m E P       2013/01/02 23:57:08.6   0.0 139.7  -2.2              T                                        5154347
LOR   003.20 323.9 m E Pg      2013/01/02 23:57:15.8  -0.1 140.8  -1.1              T                                        5154464
LOR   003.20 323.9 m E S       2013/01/02 23:57:48.1   0.3 149.4  7.5               T                                        5154465
LOR   003.20 323.9 m E Sg      2013/01/02 23:57:56.7  -0.3 151.7  9.8               T               28.1  .39 Ml 3.3         5154468
SSF   003.20 318.2 m E P       2013/01/02 23:57:08.7   0.1                          T                                        5154346
SSF   003.20 318.2 m E Pg      2013/01/02 23:57:16.1   0.2                          T                                        5154463
SSF   003.20 318.2 m E S       2013/01/02 23:57:47.9   0.0                          T                                        5154466
SSF   003.20 318.2 m E Sg      2013/01/02 23:57:57.0  -0.1                          T               40.1  .42 Ml 3.5         5154467
BGF   003.23 306.1 m E P       2013/01/02 23:57:09.2   0.1                          T                                        5154361
BGF   003.23 306.1 m E Pg      2013/01/02 23:57:16.5   0.1                          T                                        5154442
BGF   003.23 306.1 m E S       2013/01/02 23:57:47.7  -0.8                          T                                        5154441
BGF   003.23 306.1 m E Sg      2013/01/02 23:57:57.6  -0.3                          T              158.3  .52 Ml 4.0         5154480
CAF   003.25 275.3 m E P       2013/01/02 23:57:09.4  -0.1                          T                                        5154364
CAF   003.25 275.3 m E S       2013/01/02 23:57:48.9  -0.3                          T                                        5154437
CAF   003.25 275.3 m E Sg      2013/01/02 23:57:58.6  -0.1                          T               10.6  .34 Ml 3.0         5154438
HAU   003.30 356.7 m E P       2013/01/02 23:57:10.2   0.1                          T                                        5154353
HAU   003.30 356.7 m E Pg      2013/01/02 23:57:18.0   0.4                          T                                        5154457
HAU   003.30 356.7 m E S       2013/01/02 23:57:49.3  -0.9                          T                                        5154456
HAU   003.30 356.7 m E Sg      2013/01/02 23:57:59.9  -0.1                          T               27.3  .41 Ml 3.1         5154455
MTLF  003.47 248.2 m E P       2013/01/02 23:57:12.0  -0.5                          T                                        5154365
MTLF  003.47 248.2 m E Pg      2013/01/02 23:57:22.1   1.4                          T                                        5154484
MTLF  003.47 248.2 m E S       2013/01/02 23:57:53.8  -0.7                          T                                        5154417
MTLF  003.47 248.2 m E Sg      2013/01/02 23:58:05.2  -0.1                          T               24.6  .68 Ml 3.1         5154431
TCF   003.48 298.4 m E P       2013/01/02 23:57:12.7   0.0                          T                                        5154357
TCF   003.48 298.4 m E Sn      2013/01/02 23:57:49.0   0.4                          T                                        5154448
TCF   003.48 298.4 m E Sg      2013/01/02 23:58:05.6  -0.2                          T               48.4  .72 Ml 3.4         5154447
CDF   003.72 006.7 m E P       2013/01/02 23:57:15.0  -1.3                          T                                        5154349
CDF   003.72 006.7 m E Pg      2013/01/02 23:57:25.9   0.3                          T                                        5154459
CDF   003.72 006.7 m E S       2013/01/02 23:58:02.1   1.0                          T                                        5154422
CDF   003.72 006.7 m E Sg      2013/01/02 23:58:13.7   0.3                          T               19.3  .48 Ml 3.3         5154470
SFTF  003.66 343.1 m E P       2013/01/02 23:57:15.4   0.2 154.8  -7.1              T                                        5154352
SFTF  003.66 343.1 m E Pg      2013/01/02 23:57:24.8   0.5 161.0  -0.9              T                                        5154458
SFTF  003.66 343.1 m E S       2013/01/02 23:57:59.9   0.5                          T                                        5154423
SFTF  003.66 343.1 m E Sg      2013/01/02 23:58:11.4   0.1                          T               56.0  .69 Ml 3.5         5154473
RJF   003.67 281.0 m E P       2013/01/02 23:57:16.0   0.6                          T                                        5154362
RJF   003.67 281.0 m E Pg      2013/01/02 23:57:24.2  -0.4                          T                                        5154483
RJF   003.67 281.0 m E S       2013/01/02 23:57:59.3  -0.5                          T                                        5154440
RJF   003.67 281.0 m E Sg      2013/01/02 23:58:11.8   0.1                          T               42.6  .62 Ml 3.1         5154481
HYF   003.77 314.0 m E P       2013/01/02 23:57:17.2   0.4                          T                                        5154360
HYF   003.77 314.0 m E Pg      2013/01/02 23:57:27.9   1.4                          T                                        5154444
HYF   003.77 314.0 m E S       2013/01/02 23:58:02.3   0.0                          T                                        5154443
HYF   003.77 314.0 m E Sg      2013/01/02 23:58:15.0   0.1                          T                                        5154479
PAGF  003.89 351.1 m E P       2013/01/02 23:57:18.6   0.2 170.9  0.5               T                                        5154350
PAGF  003.89 351.1 m E S       2013/01/02 23:58:05.7   0.4                          T                                        5154424
PAGF  003.89 351.1 m E Sg      2013/01/02 23:58:18.8   0.4 168.9  -1.5              T              127.8  .96 Ml 3.7         5154471
MEZF  003.94 344.5 m E P       2013/01/02 23:57:19.3   0.1 164.4  1.0               T                                        5154351
MEZF  003.94 344.5 m E Sg      2013/01/02 23:58:20.3   0.3                          T               52.4  .58 Ml 3.6         5154472
LFF   004.20 275.1 m E P       2013/01/02 23:57:22.9   0.2                          T                                        5154363
LFF   004.20 275.1 m E Pg      2013/01/02 23:57:33.8  -0.4                          T                                        5154439
LFF   004.20 275.1 m E Sg      2013/01/02 23:58:27.4  -0.6                          T               34.5  .54 Ml 3.3         5154482
MFF   005.11 294.0 m E P       2013/01/02 23:57:35.0  -0.7                          T                                        5154356
MFF   005.11 294.0 m E Sg      2013/01/02 23:58:56.4  -0.2                          T               27.3  .80 Ml 3.6         5154476
ETSF  005.51 253.2 m E P       2013/01/02 23:57:41.3  -0.2                          T                                        5154434
ETSF  005.51 253.2 m E Pg      2013/01/02 23:57:58.3  -0.2                          T                                        5154435
ETSF  005.51 253.2 m E S       2013/01/02 23:58:46.3   0.1                          T                                        5154436
GIVF  005.53 347.8 m E P       2013/01/02 23:57:41.5  -0.1                          T                                        5154462
GIVF  005.53 347.8 m E Pg      2013/01/02 23:57:58.4  -0.3                          T                                        5154461
GIVF  005.53 347.8 m E S       2013/01/02 23:58:47.1   0.6                          T                                        5154419
GIVF  005.53 347.8 m E Sg      2013/01/02 23:59:09.8   0.3                          T               13.7  .49 Ml 3.4         5154469
BAIF  005.59 343.8 m E P       2013/01/02 23:57:41.6  -0.9                          T                                        5154348
BAIF  005.59 343.8 m E Pg      2013/01/02 23:58:00.4   0.5                          T                                        5154460
BAIF  005.59 343.8 m E S       2013/01/02 23:58:48.3   0.2                          T                                        5154421
BAIF  005.59 343.8 m E Sg      2013/01/02 23:59:11.6   0.1                          T               12.5  .72 Ml 3.2         5154420
EPF   004.85 251.8 m E Pg      2013/01/02 23:57:46.1  -0.2                          T                                        5154432
EPF   004.85 251.8 m E Sg      2013/01/02 23:58:47.7  -0.8                          T               15.7  .70 Ml 3.2         5154433
LDF   006.05 312.2 m E P       2013/01/02 23:57:48.1  -0.9                          T                                        5154425
LDF   006.05 312.2 m E Sg      2013/01/02 23:59:26.3   0.3                          T               11.3  .64 Ml 3.3         5154452
GRR   006.33 308.1 m E P       2013/01/02 23:57:51.7  -1.3                          T                                        5154454
GRR   006.33 308.1 m E Sg      2013/01/02 23:59:33.9  -0.8                          T                4.9  .41 Ml 3.1         5154451
FLN   006.34 312.2 m E P       2013/01/02 23:57:52.8  -0.3 132.3  5.3               T                                        5154426
FLN   006.34 312.2 m E Sg      2013/01/02 23:59:35.3   0.2 143.5  16.5              T                5.4  .41 Ml 3.1         5154453
SGMF  007.26 302.4 m E P       2013/01/02 23:58:04.3  -1.8                          T                                        5154450
QUIF  007.50 298.7 m E P       2013/01/02 23:58:08.7  -0.6                          T                                        5154449

.
EVENT     289423
    Date      Time       Latitude Longitude    Depth    Ndef Nsta Gap    Mag1  N    Mag2  N    Mag3  N   Author         ID
       rms   OT_Error      Smajor Sminor Az        Err   mdist  Mdist     Err        Err        Err      Quality

2013/01/03 00:01:29.4     44.7120    6.6265      2.0      10    5 146  Ml 1.1  1  Md 1.4  2              bulletin    289523
                                                                                                         _ldg
      0.23   +-  0.11       2.5    1.8   48.42 +-  0.0    0.10   1.03   +-         +-0.2                 m i ke

FRANCE
Sta     Dist  EvAz     Phase      Date       Time     TRes  Azim  AzRes  Slow  SRes Def   SNR       Amp   Per   Mag1   Mag2       ID
MBDF  000.10 081.7 m E Pg      2013/01/03 00:01:31.5  -0.4                          T                                        5154069
MBDF  000.10 081.7 m E Sg      2013/01/03 00:01:33.3  -0.1                          T               18.9  .30        Md 1.5  5154068
ORIF  000.57 291.5 m E Pg      2013/01/03 00:01:40.2  -0.1                          T                                        5154067
ORIF  000.57 291.5 m E Sg      2013/01/03 00:01:47.5  -0.3                          T                2.2  .22        Md 1.2  5154066
LPG   000.79 006.4 m E Pg      2013/01/03 00:01:44.9   0.2                          T                                        5154064
LPG   000.79 006.4 m E Sg      2013/01/03 00:01:54.8  -0.2                          T                 .6  .18                5154062
LPL   000.81 005.3 m E Pg      2013/01/03 00:01:45.1   0.2                          T                                        5154065
LPL   000.81 005.3 m E Sg      2013/01/03 00:01:55.2  -0.2                          T                 .9  .27                5154063
SBF   001.03 145.3 m E Pg      2013/01/03 00:01:48.9   0.2                          T                                        5154061
SBF   001.03 145.3 m E Sn      2013/01/03 00:02:03.6   0.2                          T                 .4  .21 Ml 1.1         5154060

.
