EVENT     275867
    Date      Time       Latitude Longitude    Depth    Ndef Nsta Gap    Mag1  N    Mag2  N    Mag3  N   Author         ID
       rms   OT_Error      Smajor Sminor Az        Err   mdist  Mdist     Err        Err        Err      Quality

2012/05/11 08:50:57.2     45.8870    4.6491       .0 f    16    8 119  Ml 2.2  8  Md 2.0  1              bulletin    275967
                                                                                                         _ldg
      0.57   +-  0.08       2.0    1.3   42.74 +-  0.0    0.94   1.52   +-0.2      +-                    m i km

FRANCE
Sta     Dist  EvAz     Phase      Date       Time     TRes  Azim  AzRes  Slow  SRes Def   SNR       Amp   Per   Mag1   Mag2       ID
SMF   000.94 323.8 m E Pg      2012/05/11 08:51:15.3   0.1                          T                                        4943503
SMF   000.94 323.8 m E Sg      2012/05/11 08:51:28.2   0.5                          T                9.6  .20 Ml 2.5 Md 2.0  4943504
VIVF  001.03 179.1 m E Pg      2012/05/11 08:51:17.0   0.2                          T                                        4943521
VIVF  001.03 179.1 m E Sg      2012/05/11 08:51:30.3  -0.1                          T                4.9  .27 Ml 2.1         4943520
CABF  001.23 053.5 m E Pg      2012/05/11 08:51:21.0   0.3                          T                                        4943514
CABF  001.23 053.5 m E Sg      2012/05/11 08:51:36.9   0.1                          T                2.6  .25 Ml 1.9         4943515
AVF   001.27 315.6 m E Pg      2012/05/11 08:51:21.1  -0.1                          T                                        4943502
AVF   001.27 315.6 m E Sg      2012/05/11 08:51:38.2   0.2                          T                3.0  .24 Ml 2.0         4943511
BGF   001.42 298.8 m E Pg      2012/05/11 08:51:23.8  -0.2                          T                                        4943506
BGF   001.42 298.8 m E Sg      2012/05/11 08:51:42.8   0.2                          T                5.0  .25 Ml 2.3         4943505
SSF   001.42 326.5 m E Pg      2012/05/11 08:51:23.8  -0.1                          T                                        4943508
SSF   001.42 326.5 m E Sg      2012/05/11 08:51:42.2  -0.2                          T                6.5  .28 Ml 2.5         4943509
LOR   001.49 338.8 m E Pg      2012/05/11 08:51:25.0  -0.2 152.6  -5.6              T                                        4943507
LOR   001.49 338.8 m E Sg      2012/05/11 08:51:44.4  -0.1 156.4  -1.8              T                5.2  .28 Ml 2.3         4943510
LPG   001.52 104.0 m E Pg      2012/05/11 08:51:26.1  -0.1                          T                                        4943554
LPG   001.52 104.0 m E Sg      2012/05/11 08:51:45.7  -0.4                          T                1.7  .22 Ml 1.9         4943553

.
EVENT     275872
    Date      Time       Latitude Longitude    Depth    Ndef Nsta Gap    Mag1  N    Mag2  N    Mag3  N   Author         ID
       rms   OT_Error      Smajor Sminor Az        Err   mdist  Mdist     Err        Err        Err      Quality

2012/05/11 09:44:48.7     43.8479    3.7360       .0 f    12    5 212  Ml 2.0  5  Md 2.1  1              bulletin    275972
                                                                                                         _ldg
      0.51   +-  0.13       2.8    1.5  137.12 +-  0.0    0.24   2.15   +-0.1      +-                    m i km

NEAR SOUTH COAST OF FRANCE
Sta     Dist  EvAz     Phase      Date       Time     TRes  Azim  AzRes  Slow  SRes Def   SNR       Amp   Per   Mag1   Mag2       ID
LASF  000.24 020.9 m E Pg      2012/05/11 09:44:53.3  -0.4                          T                                        4943674
LASF  000.24 020.9 m E Sg      2012/05/11 09:44:57.4   0.2                          T               14.5  .22        Md 2.1  4943672
MTLF  001.21 245.9 m E Pn      2012/05/11 09:45:11.6   0.2                          T                                        4943673
MTLF  001.21 245.9 m E Sn      2012/05/11 09:45:27.6  -0.1                          T                1.9  .20 Ml 1.9         4943671
VIVF  001.21 033.4 m E Pg      2012/05/11 09:45:11.9   0.3                          T                                        4946106
VIVF  001.21 033.4 m E Sn      2012/05/11 09:45:27.9   0.2                          T                3.3  .22 Ml 2.1         4943676
CAF   001.61 312.5 m E Pg      2012/05/11 09:45:18.9   0.0                          T                                        4946109
CAF   001.61 312.5 m E Sg      2012/05/11 09:45:40.2   0.2                          T                2.0  .19 Ml 2.1         4946110
RJF   002.15 313.3 m E Pg      2012/05/11 09:45:28.9   0.0                          T                                        4946107
RJF   002.15 313.3 m E Sg      2012/05/11 09:45:56.9   0.0                          T                2.8  .24 Ml 2.0         4946108

.
EVENT     275871
    Date      Time       Latitude Longitude    Depth    Ndef Nsta Gap    Mag1  N    Mag2  N    Mag3  N   Author         ID
       rms   OT_Error      Smajor Sminor Az        Err   mdist  Mdist     Err        Err        Err      Quality

2012/05/11 09:45:46.6     49.4580    5.9871       .0 f    16    8 160  Ml 2.4  8  Md 2.4  2              bulletin    275971
                                                                                                         _ldg
      0.41   +-  0.06       1.5     .9   48.69 +-  0.0    0.92   1.47   +-0.3      +-0.1                 m i km

FRANCE
Sta     Dist  EvAz     Phase      Date       Time     TRes  Azim  AzRes  Slow  SRes Def   SNR       Amp   Per   Mag1   Mag2       ID
PAGF  000.92 190.9 m E Pg      2012/05/11 09:46:04.2   0.0   7.9  -2.8              T                                        4943686
PAGF  000.92 190.9 m E Sn      2012/05/11 09:46:18.6  -0.1  15.1  4.4               T                9.1  .72 Ml 1.9 Md 2.5  4943685
GIVF  000.99 311.0 m E Pg      2012/05/11 09:46:05.2  -0.3                          T                                        4946114
GIVF  000.99 311.0 m E Sn      2012/05/11 09:46:20.6   0.2                          T               23.3  .60 Ml 2.4 Md 2.4  4943693
THEF  001.23 179.8 m E Pg      2012/05/11 09:46:10.0   0.0                          T                                        4946115
THEF  001.23 179.8 m E Sg      2012/05/11 09:46:26.0   0.0                          T               60.7  .57 Ml 2.9         4946118
BAIF  001.30 298.2 m E Pn      2012/05/11 09:46:10.7   0.2                          T                                        4946113
BAIF  001.30 298.2 m E Sg      2012/05/11 09:46:28.5   0.3                          T               17.5  .58 Ml 2.4         4943691
LANF  001.28 111.2 m E Pg      2012/05/11 09:46:11.0   0.1                          T                                        4946119
LANF  001.28 111.2 m E Sg      2012/05/11 09:46:27.8   0.1                          T               13.1  .37 Ml 2.5         4946112
CDF   001.35 140.4 m E Pg      2012/05/11 09:46:12.1  -0.1                          T                                        4943695
CDF   001.35 140.4 m E Sg      2012/05/11 09:46:29.8   0.0                          T               16.6  .60 Ml 2.5         4943696
SFTF  001.40 206.9 m E Pg      2012/05/11 09:46:13.1   0.1                          T                                        4946116
SFTF  001.40 206.9 m E Sg      2012/05/11 09:46:31.5   0.2  26.0  -0.2              T                6.3  .29 Ml 2.3         4946117
HAU   001.47 170.5 m E Pg      2012/05/11 09:46:14.3  -0.1                          T                                        4943687
HAU   001.47 170.5 m E Sg      2012/05/11 09:46:33.4  -0.2                          T                9.1  .39 Ml 2.2         4943688

.
EVENT     275934
    Date      Time       Latitude Longitude    Depth    Ndef Nsta Gap    Mag1  N    Mag2  N    Mag3  N   Author         ID
       rms   OT_Error      Smajor Sminor Az        Err   mdist  Mdist     Err        Err        Err      Quality

2012/05/11 09:50:53.5     43.1101   -1.0637     11.0 f    58    7 105  Ml 2.4  4  Md 2.8  2              bulletin    276034
                                                                                                         _ldg
      0.62   +-  0.08       2.0    1.4  173.46 +-  0.0    0.12   5.17   +-0.1      +-0.1                 m i ke

PYRENEES
Sta     Dist  EvAz     Phase      Date       Time     TRes  Azim  AzRes  Slow  SRes Def   SNR       Amp   Per   Mag1   Mag2       ID
SJPF  000.12 271.6 m E Pg      2012/05/11 09:50:56.6  -0.1                          T                                        4946126
SJPF  000.12 271.6 m E Sg      2012/05/11 09:50:59.0   0.1                          T              390.9  .20        Md 2.8  4946127
ETSF  000.43 119.6 m E Pg      2012/05/11 09:51:01.9  -0.1                          T                                        4946124
ETSF  000.43 119.6 m E Sg      2012/05/11 09:51:08.0   0.3                          T              167.4  .22        Md 2.7  4946125
EPF   001.03 094.0 m E Pg      2012/05/11 09:51:12.8  -0.2                          T                                        4946136
EPF   001.03 094.0 m E P       2012/05/11 09:51:14.2   0.1                          T                                        4946122
EPF   001.03 094.0 m E Sg      2012/05/11 09:51:28.4   2.0                          T                                        4946123
MTLF  002.41 083.4 m E Pn      2012/05/11 09:51:30.6  -0.5                          T                                        4946135
MTLF  002.41 083.4 m E Pg      2012/05/11 09:51:38.3   0.0                          T                                        4946134
MTLF  002.41 083.4 m E Sn      2012/05/11 09:51:58.8   0.0                          T                                        4946129
MTLF  002.41 083.4 m E Sg      2012/05/11 09:52:09.5   0.2                          T                2.7  .26 Ml 2.3         4946128
LFF   002.24 034.8 m E Pg      2012/05/11 09:51:35.3   0.0                          T                                        4946131
LFF   002.24 034.8 m E Sg      2012/05/11 09:52:04.3   0.1                          T                9.7  .38 Ml 2.5         4946132
CAF   002.90 050.1 m E Pn      2012/05/11 09:51:37.4  -0.5                          T                                        4946120
CAF   002.90 050.1 m E P       2012/05/11 09:51:40.8   0.1                          T                                        4946133
CAF   002.90 050.1 m E Sn      2012/05/11 09:52:10.6   0.1                          T                2.9  .22 Ml 2.5         4946121
RJF   002.87 039.3 m E Pg      2012/05/11 09:51:46.7  -0.2                          T                                        4946137
RJF   002.87 039.3 m E Sg      2012/05/11 09:52:23.9   0.2                          T                2.7  .19 Ml 2.2         4946130

.
EVENT     275899
    Date      Time       Latitude Longitude    Depth    Ndef Nsta Gap    Mag1  N    Mag2  N    Mag3  N   Author         ID
       rms   OT_Error      Smajor Sminor Az        Err   mdist  Mdist     Err        Err        Err      Quality

2012/05/11 09:56:40.3     44.4649    6.6749      2.0      20    6 124  Ml 1.5  4  Md 1.3  1              bulletin    275999
                                                                                                         _ldg
      0.19   +-  0.06       1.0     .7   90.66 +-  0.0    0.10   1.14   +-0.3      +-                    m i ke

FRANCE
Sta     Dist  EvAz     Phase      Date       Time     TRes  Azim  AzRes  Slow  SRes Def   SNR       Amp   Per   Mag1   Mag2       ID
MBDF  000.27 014.7 m E Pg      2012/05/11 09:56:45.8  -0.1                          T                                        4943919
MBDF  000.27 014.7 m E Sg      2012/05/11 09:56:49.3  -0.2                          T                2.8  .20        Md 1.3  4943918
SBF   000.81 137.5 m E Pg      2012/05/11 09:56:55.7   0.0                          T                                        4946142
FRF   000.90 181.3 m E Pn      2012/05/11 09:56:58.4   0.0                          T                                        4943917
FRF   000.90 181.3 m E Sg      2012/05/11 09:57:09.1   0.0                          T                2.3  .26 Ml 1.8         4946139
SMRF  000.93 238.7 m E Sg      2012/05/11 09:57:10.1   0.2                          T                 .6  .27 Ml 1.1         4946140
LPG   001.03 003.0 m E Sg      2012/05/11 09:57:13.6   0.1                          T                1.0  .22 Ml 1.5         4946141
LMR   001.14 186.1 m E Sg      2012/05/11 09:57:16.2  -0.1                          T                1.2  .34 Ml 1.4         4946138

.
EVENT     275883
    Date      Time       Latitude Longitude    Depth    Ndef Nsta Gap    Mag1  N    Mag2  N    Mag3  N   Author         ID
       rms   OT_Error      Smajor Sminor Az        Err   mdist  Mdist     Err        Err        Err      Quality

2012/05/11 10:14:31.1     43.9713    8.4449      7.0 f    16    3 239  Ml 1.4  2  Md 1.9  1              bulletin    275983
                                                                                                         _ldg
      0.22   +-  0.14       2.6    1.2  127.86 +-  0.0    0.31   1.54   +-0.2      +-                    m i ke

CORSICA, FRANCE
Sta     Dist  EvAz     Phase      Date       Time     TRes  Azim  AzRes  Slow  SRes Def   SNR       Amp   Per   Mag1   Mag2       ID
SBF   000.74 261.9 m E Pg      2012/05/11 10:14:44.5  -0.7                          T                                        4943802
SBF   000.74 261.9 m E Sg      2012/05/11 10:14:55.2   0.3                          T                5.7  .23        Md 1.9  4943801
FRF   001.37 253.1 m E Pn      2012/05/11 10:14:55.2   0.2                          T                                        4943806
FRF   001.37 253.1 m E Sn      2012/05/11 10:15:12.6   0.4                          T                 .8  .25 Ml 1.5         4943805
LMR   001.54 246.3 m E Pn      2012/05/11 10:14:57.6   0.2                          T                                        4943803
LMR   001.54 246.3 m E Sn      2012/05/11 10:15:16.4   0.0                          T                 .3  .17 Ml 1.3         4943804

.
EVENT     275879
    Date      Time       Latitude Longitude    Depth    Ndef Nsta Gap    Mag1  N    Mag2  N    Mag3  N   Author         ID
       rms   OT_Error      Smajor Sminor Az        Err   mdist  Mdist     Err        Err        Err      Quality

2012/05/11 11:55:00.3     47.8204    5.9015       .0 f    23   14 115  Ml 2.7  9  Md 2.3  6              bulletin    275979
                                                                                                         _ldg
      0.96   +-  0.09       1.8    1.2  138.97 +-  0.0    0.35   2.44   +-0.2      +-0.2                 m i km

FRANCE
Sta     Dist  EvAz     Phase      Date       Time     TRes  Azim  AzRes  Slow  SRes Def   SNR       Amp   Per   Mag1   Mag2       ID
HAU   000.35 058.2 m E Pg      2012/05/11 11:55:06.9  -0.6                          T                                        4944006
HAU   000.35 058.2 m E Sg      2012/05/11 11:55:12.2  -0.2                          T              170.6  .74        Md 2.1  4944005
THEF  000.41 008.6 m E Pg      2012/05/11 11:55:08.4  -0.1                          T                                        4944003
THEF  000.41 008.6 m E Sg      2012/05/11 11:55:13.9  -0.3                          T              128.9  .60        Md 2.2  4944004
SFTF  000.70 303.9 m E Pg      2012/05/11 11:55:13.9   0.2 128.6  5.3               T                                        4943998
SFTF  000.70 303.9 m E Sg      2012/05/11 11:55:22.8  -0.1                          T               35.8  .45        Md 2.3  4943997
PAGF  000.74 350.9 m E Pg      2012/05/11 11:55:14.6   0.0                          T                                        4944008
PAGF  000.74 350.9 m E Sn      2012/05/11 11:55:27.9  -0.2 171.4  0.6               T                7.8  .55        Md 2.4  4944007
MEZF  000.89 320.5 m E Pg      2012/05/11 11:55:17.2   0.0 145.0  5.2               T                                        4943999
MEZF  000.89 320.5 m E Sg      2012/05/11 11:55:28.8  -0.2 127.6  -12.3             T               28.5  .40 Ml 2.6 Md 2.6  4944000
CDF   001.10 056.8 m E Pg      2012/05/11 11:55:21.6   0.4                          T                                        4943995
CDF   001.10 056.8 m E Sg      2012/05/11 11:55:36.0   0.4                          T               27.8  .52 Ml 2.7         4943996
CABF  001.22 173.9 m E Pg      2012/05/11 11:55:23.2  -0.2                          T                                        4944002
CABF  001.22 173.9 m E Sg      2012/05/11 11:55:39.8   0.4                          T               34.6  .54 Ml 2.7 Md 2.3  4944001
LOR   001.49 249.0 m E Pn      2012/05/11 11:55:27.0   0.2  66.4  -1.1              T                                        4946144
LOR   001.49 249.0 m E Sg      2012/05/11 11:55:48.0   0.2  70.0  2.5               T               19.1  .46 Ml 2.7         4946145
SSF   001.79 245.9 m E Sn      2012/05/11 11:55:53.0  -0.2                          T                                        4946147
SSF   001.79 245.9 m E Sg      2012/05/11 11:55:57.2   0.0                          T               15.5  .48 Ml 2.8         4946146
LANF  001.72 046.8 m E Sg      2012/05/11 11:55:55.1   0.2                          T               14.7  .56 Ml 2.6         4946143
SMF   001.83 230.8 m E Sg      2012/05/11 11:55:58.6   0.2                          T               22.4  .44 Ml 2.9         4946151
AVF   002.02 240.2 m E Sg      2012/05/11 11:56:04.6   0.4                          T                3.7  .43 Ml 2.1         4946150
HYF   002.28 257.2 m E Sg      2012/05/11 11:56:12.0  -0.4                          T                                        4946149
BGF   002.44 239.9 m E Sg      2012/05/11 11:56:17.2  -0.1                          T               18.7  .34 Ml 3.0         4946148

.
EVENT     275880
    Date      Time       Latitude Longitude    Depth    Ndef Nsta Gap    Mag1  N    Mag2  N    Mag3  N   Author         ID
       rms   OT_Error      Smajor Sminor Az        Err   mdist  Mdist     Err        Err        Err      Quality

2012/05/11 11:59:01.2     47.9368    7.7776       .0 f     8    4 309  Ml 2.1  3  Md 2.1  1              bulletin    275980
                                                                                                         _ldg
      0.15   +-  0.27       5.0    3.4  115.30 +-  0.0    0.58   1.86   +-0.3      +-                    m i km

SWITZERLAND
Sta     Dist  EvAz     Phase      Date       Time     TRes  Azim  AzRes  Slow  SRes Def   SNR       Amp   Per   Mag1   Mag2       ID
CDF   000.58 325.0 m E Pg      2012/05/11 11:59:12.7   0.0                          T                                        4944016
CDF   000.58 325.0 m E Sg      2012/05/11 11:59:20.5   0.0                          T               10.0  .40        Md 2.1  4944015
HAU   000.96 274.6 m E Pg      2012/05/11 11:59:19.8   0.2                          T                                        4944013
HAU   000.96 274.6 m E Sg      2012/05/11 11:59:32.2  -0.1                          T               17.7  .36 Ml 2.3         4944014
PAGF  001.50 295.0 m E Pn      2012/05/11 11:59:28.0   0.1                          T                                        4944012
PAGF  001.50 295.0 m E Sn      2012/05/11 11:59:47.2  -0.1                          T                1.8  .34 Ml 1.8         4944011
SFTF  001.86 279.3 m E Pn      2012/05/11 11:59:32.5  -0.2                          T                                        4944009
SFTF  001.86 279.3 m E Sn      2012/05/11 11:59:55.4  -0.2                          T                6.2  .36 Ml 2.4         4944010

.
