EVENT     258933
    Date      Time       Latitude Longitude    Depth    Ndef Nsta Gap    Mag1  N    Mag2  N    Mag3  N   Author         ID
       rms   OT_Error      Smajor Sminor Az        Err   mdist  Mdist     Err        Err        Err      Quality

2011/05/05 00:49:39.7     44.5602    6.9838      2.0      34   10 124  Ml 2.3 10  Md 2.2  3              js067245    258933

      0.65   +-  0.08       1.9    1.1   68.80 +-  0.0    0.15   2.49   +-0.3      +-0.2                 m i ke

FRANCE
Sta     Dist  EvAz     Phase      Date       Time     TRes  Azim  AzRes  Slow  SRes Def   SNR       Amp   Per   Mag1   Mag2       ID
MBDF  000.23 317.8 m E Pg      2011/05/05 00:49:44.3  -0.1                          T                                        4684551
MBDF  000.23 317.8 m E Sg      2011/05/05 00:49:47.3  -0.2                          T              103.2  .26        Md 2.3  4684543
SBF   000.77 154.9 m E Pg      2011/05/05 00:49:54.7   0.4                          T                                        4684544
SBF   000.77 154.9 m E Sg      2011/05/05 00:50:04.1  -0.2                          T               12.1  .16        Md 2.4  4684536
ORIF  000.86 294.9 m E Pg      2011/05/05 00:49:55.7  -0.4                          T                                        4684550
ORIF  000.86 294.9 m E Sg      2011/05/05 00:50:06.8  -0.5                          T                7.3  .20 Ml 2.3 Md 2.0  4684542
LPG   000.95 350.1 m E Pg      2011/05/05 00:49:57.6  -0.3                          T                                        4684548
LPG   000.95 350.1 m E Sg      2011/05/05 00:50:09.7  -0.6                          T                6.9  .26 Ml 2.2         4684540
LPL   000.97 349.5 m E Pg      2011/05/05 00:49:58.1  -0.1                          T                                        4684549
LPL   000.97 349.5 m E Sg      2011/05/05 00:50:10.3  -0.6                          T                6.4  .26 Ml 2.2         4684541
FRF   001.03 193.8 m E Pg      2011/05/05 00:49:58.9  -0.1                          T                                        4684546
FRF   001.03 193.8 m E Sg      2011/05/05 00:50:12.2  -0.1                          T               21.3  .30 Ml 2.7         4684538
SMRF  001.17 240.5 m E Pg      2011/05/05 00:50:02.3   0.7                          T                                        4684547
SMRF  001.17 240.5 m E Sg      2011/05/05 00:50:18.1   1.3                          T                8.0  .30 Ml 2.3         4684539
LMR   001.27 195.8 m E Pg      2011/05/05 00:50:03.5   0.0                          T                                        4684545
LMR   001.27 195.8 m E Sg      2011/05/05 00:50:19.9   0.0                          T                5.8  .18 Ml 2.5         4684537
VIVF  001.67 281.0 m E Pn      2011/05/05 00:50:08.4   0.0                          T                                        4684534
VIVF  001.67 281.0 m E Sn      2011/05/05 00:50:29.2   0.1                          T                1.0  .28 Ml 1.7         4684535
PGF   002.49 143.2 m E Pn      2011/05/05 00:50:19.4  -0.1                          T                                        4684533
PGF   002.49 143.2 m E Sn      2011/05/05 00:50:48.6  -0.1                          T                2.8  .31 Ml 2.5         4684532

.
EVENT     258934
    Date      Time       Latitude Longitude    Depth    Ndef Nsta Gap    Mag1  N    Mag2  N    Mag3  N   Author         ID
       rms   OT_Error      Smajor Sminor Az        Err   mdist  Mdist     Err        Err        Err      Quality

2011/05/05 02:35:27.8     44.3235    7.3840      2.0      26    9 166  Ml 1.8  8  Md 1.8  2              js067245    258934

      0.17   +-  0.05       1.0     .6   68.97 +-  0.0    0.09   2.13   +-0.4      +-0.2                 m i ke

NORTHERN ITALY
Sta     Dist  EvAz     Phase      Date       Time     TRes  Azim  AzRes  Slow  SRes Def   SNR       Amp   Per   Mag1   Mag2       ID
SBF   000.46 175.4 m E Pg      2011/05/05 02:35:36.8   0.0                          T                                        4684556
SBF   000.46 175.4 m E Sg      2011/05/05 02:35:42.8   0.0                          T                9.3  .24        Md 1.9  4684552
MBDF  000.60 312.8 m E Pg      2011/05/05 02:35:39.4   0.1                          T                                        4684559
MBDF  000.60 312.8 m E Sg      2011/05/05 02:35:47.1  -0.1                          T                6.8  .22        Md 1.7  4684555
FRF   000.93 215.2 m E Pg      2011/05/05 02:35:45.1  -0.2                          T                                        4684558
FRF   000.93 215.2 m E Sg      2011/05/05 02:35:57.4   0.0                          T                6.4  .24 Ml 2.2         4684554
LMR   001.17 212.9 m E Pg      2011/05/05 02:35:49.8   0.0                          T                                        4684557
LMR   001.17 212.9 m E Sg      2011/05/05 02:36:05.3   0.3                          T               12.1  .30 Ml 2.5         4684553
ORIF  001.23 299.5 m E Pg      2011/05/05 02:35:51.1   0.2                          T                                        4684586
ORIF  001.23 299.5 m E Sg      2011/05/05 02:36:06.8   0.0                          T                  1  .21 Ml 1.6         4684590
LPG   001.26 339.3 m E Pg      2011/05/05 02:35:51.6  -0.1                          T                                        4684584
LPG   001.26 339.3 m E Sg      2011/05/05 02:36:07.8  -0.1                          T                 .6  .21 Ml 1.4         4684588
LPL   001.28 339.0 m E Pg      2011/05/05 02:35:52.0   0.0                          T                                        4684585
LPL   001.28 339.0 m E Sg      2011/05/05 02:36:08.5   0.0                          T                1.9  .46 Ml 1.5         4684589
SMRF  001.35 255.7 m E Pg      2011/05/05 02:35:53.1   0.0                          T                                        4684583
SMRF  001.35 255.7 m E Sg      2011/05/05 02:36:10.5   0.0                          T                2.1  .28 Ml 1.8         4684587
PGF   002.13 145.9 m E Pn      2011/05/05 02:36:02.8   0.0                          T                                        4684582
PGF   002.13 145.9 m E Sn      2011/05/05 02:36:28.3   0.1                          T                1.5  .39 Ml 2.0         4684581

.
EVENT     258935
    Date      Time       Latitude Longitude    Depth    Ndef Nsta Gap    Mag1  N    Mag2  N    Mag3  N   Author         ID
       rms   OT_Error      Smajor Sminor Az        Err   mdist  Mdist     Err        Err        Err      Quality

2011/05/05 03:41:20.1     42.9666     .0057      2.0       8    4 184  Ml 1.2  2  Md 1.4  2              js067245    258935

      0.08   +-  0.04       4.0     .5  172.89 +-  0.0    0.25   1.66   +-0.3      +-0.2                 m i ke

PYRENEES
Sta     Dist  EvAz     Phase      Date       Time     TRes  Azim  AzRes  Slow  SRes Def   SNR       Amp   Per   Mag1   Mag2       ID
EPF   000.25 075.3 m E Pg      2011/05/05 03:41:25.1  -0.1                          T                                        4684598
EPF   000.25 075.3 m E Sg      2011/05/05 03:41:28.8   0.1                          T                4.6  .20        Md 1.5  4684595
ETSF  000.42 260.9 m E Pg      2011/05/05 03:41:28.4   0.1                          T                                        4684597
ETSF  000.42 260.9 m E Sg      2011/05/05 03:41:33.7  -0.2                          T                4.6  .40        Md 1.2  4684596
SJPF  000.91 279.6 m E Pg      2011/05/05 03:41:37.3   0.0                          T                                        4684591
SJPF  000.91 279.6 m E Sg      2011/05/05 03:41:49.1  -0.1                          T                 .5  .31 Ml 1.0         4684593
MTLF  001.66 076.2 m E Pg      2011/05/05 03:41:51.0  -0.1                          T                                        4684592
MTLF  001.66 076.2 m E Sg      2011/05/05 03:42:12.5   0.0                          T                 .5  .23 Ml 1.5         4684594

.
EVENT     258949
    Date      Time       Latitude Longitude    Depth    Ndef Nsta Gap    Mag1  N    Mag2  N    Mag3  N   Author         ID
       rms   OT_Error      Smajor Sminor Az        Err   mdist  Mdist     Err        Err        Err      Quality

2011/05/05 08:38:58.9     44.6038    7.2364      2.0      36   10 145  Ml 2.2 10  Md 2.0  3              js067245    258949

      0.28   +-  0.06       1.3     .7   66.81 +-  0.0    0.30   2.42   +-0.3      +-0.1                 m i ke

NORTHERN ITALY
Sta     Dist  EvAz     Phase      Date       Time     TRes  Azim  AzRes  Slow  SRes Def   SNR       Amp   Per   Mag1   Mag2       ID
MBDF  000.35 290.5 m E Pg      2011/05/05 08:39:06.4   0.4                          T                                        4684644
MBDF  000.35 290.5 m E Sg      2011/05/05 08:39:10.7   0.0                          T               31.8  .18        Md 2.0  4684639
SBF   000.75 169.0 m E Pg      2011/05/05 08:39:13.3   0.0                          T                                        4684632
SBF   000.75 169.0 m E Sg      2011/05/05 08:39:23.3   0.2                          T                6.6  .22        Md 2.1  4684633
LPL   000.98 338.8 m E Pg      2011/05/05 08:39:17.2  -0.4                          T                                        4684642
LPL   000.98 338.8 m E Sg      2011/05/05 08:39:29.8  -0.5                          T                6.2  .28 Ml 2.1         4684637
LPG   000.96 339.1 m E Pg      2011/05/05 08:39:17.3   0.0                          T                                        4684641
LPG   000.96 339.1 m E Sg      2011/05/05 08:39:29.0  -0.7                          T                7.0  .28 Ml 2.2 Md 2.0  4684636
ORIF  001.02 288.5 m E Pg      2011/05/05 08:39:18.2   0.1                          T                                        4684643
ORIF  001.02 288.5 m E Sg      2011/05/05 08:39:30.5  -0.8                          T                3.2  .24 Ml 1.9         4684638
FRF   001.13 202.4 m E Pg      2011/05/05 08:39:20.2   0.2                          T                                        4684640
FRF   001.13 202.4 m E Sg      2011/05/05 08:39:34.3  -0.3                          T               12.4  .24 Ml 2.6         4684635
SMRF  001.35 242.8 m E Pg      2011/05/05 08:39:24.2   0.0                          T                                        4684630
SMRF  001.35 242.8 m E Sg      2011/05/05 08:39:41.8   0.2                          T                5.1  .36 Ml 2.1         4684627
LMR   001.37 202.7 m E Pg      2011/05/05 08:39:24.6   0.0                          T                                        4684631
LMR   001.37 202.7 m E Sg      2011/05/05 08:39:41.9  -0.4                          T               11.8  .34 Ml 2.5         4684634
VIVF  001.84 278.8 m E Pg      2011/05/05 08:39:33.5   0.2                          T                                        4684629
VIVF  001.84 278.8 m E Sg      2011/05/05 08:39:57.0  -0.1                          T                1.4  .31 Ml 1.8         4684628
PGF   002.42 147.4 m E Pn      2011/05/05 08:39:37.7  -0.1                          T                                        4684648
PGF   002.42 147.4 m E Sn      2011/05/05 08:40:06.5   0.2                          T                  1  .26 Ml 2.1         4684647

.
EVENT     258952
    Date      Time       Latitude Longitude    Depth    Ndef Nsta Gap    Mag1  N    Mag2  N    Mag3  N   Author         ID
       rms   OT_Error      Smajor Sminor Az        Err   mdist  Mdist     Err        Err        Err      Quality

2011/05/05 09:45:58.4     45.6972    5.2978       .0 f    35   16 068  Ml 2.4 18  Md 2.1  3              js067245    258952

      0.74   +-  0.04        .9     .7   50.49 +-  0.0    0.88   3.23   +-0.3      +-0.0                 m i km

FRANCE
Sta     Dist  EvAz     Phase      Date       Time     TRes  Azim  AzRes  Slow  SRes Def   SNR       Amp   Per   Mag1   Mag2       ID
ORIF  000.88 152.0 m E Pg      2011/05/05 09:46:15.4   0.0                          T                                        4684808
ORIF  000.88 152.0 m E P       2011/05/05 09:46:17.2   0.0                          T                                        4684686
ORIF  000.88 152.0 m E Sg      2011/05/05 09:46:27.0  -0.1                          T               19.3  .20 Ml 2.7 Md 2.1  4684833
VIVF  000.95 207.9 m E Pg      2011/05/05 09:46:16.3  -0.2                          T                                        4684687
VIVF  000.95 207.9 m E Sg      2011/05/05 09:46:29.1   0.0                          T               14.0  .22 Ml 2.6 Md 2.2  4684832
LPL   001.02 099.7 m E Pn      2011/05/05 09:46:18.8   0.0                          T                                        4684685
LPL   001.02 099.7 m E P       2011/05/05 09:46:20.1  -0.1                          T                                        4684809
LPL   001.02 099.7 m E Sn      2011/05/05 09:46:33.3   0.1                          T                6.7  .25 Ml 2.3         4684830
LPG   001.04 100.5 m E Pn      2011/05/05 09:46:19.2   0.0                          T                                        4684684
LPG   001.04 100.5 m E Sn      2011/05/05 09:46:33.7   0.0                          T               10.7  .28 Ml 2.4         4684831
CABF  001.07 030.7 m E Pn      2011/05/05 09:46:19.2   0.0                          T                                        4684803
CABF  001.07 030.7 m E Sn      2011/05/05 09:46:34.0  -0.1                          T                8.1  .22 Ml 2.4 Md 2.1  4684804
SMF   001.39 313.7 m E Pn      2011/05/05 09:46:23.4  -0.2                          T                                        4684827
SMF   001.39 313.7 m E Pg      2011/05/05 09:46:24.7   0.1                          T                                        4684826
SMF   001.39 313.7 m E Sg      2011/05/05 09:46:42.8   0.1                          T               15.3  .24 Ml 2.8         4684825
MBDF  001.42 132.4 m E Pg      2011/05/05 09:46:25.6   0.1                          T                                        4684815
MBDF  001.42 132.4 m E Sg      2011/05/05 09:46:43.8  -0.2                          T                2.1  .24 Ml 1.9         4684818
BGF   001.91 297.7 m E Pn      2011/05/05 09:46:30.5  -0.2                          T                                        4684807
BGF   001.91 297.7 m E Pg      2011/05/05 09:46:34.3   0.1                          T                                        4684806
BGF   001.91 297.7 m E Sg      2011/05/05 09:46:59.0  -0.1                          T                7.9  .36 Ml 2.5         4684821
LASF  001.92 212.8 m E Pn      2011/05/05 09:46:30.6  -0.1                          T                                        4684829
LASF  001.92 212.8 m E Pg      2011/05/05 09:46:34.7   0.3                          T                                        4684828
LASF  001.92 212.8 m E Sg      2011/05/05 09:46:59.3   0.0                          T                4.7  .22 Ml 2.5         4684819
AVF   001.74 309.7 m E Pg      2011/05/05 09:46:31.0   0.0                          T                                        4684805
AVF   001.74 309.7 m E Sg      2011/05/05 09:46:53.6   0.0                          T                5.8  .44 Ml 2.3         4684822
SMRF  001.73 173.4 m E Pg      2011/05/05 09:46:31.2   0.2                          T                                        4684816
SMRF  001.73 173.4 m E Sg      2011/05/05 09:46:53.6   0.0                          T                1.0  .21 Ml 1.8         4684817
SSF   001.84 318.4 m E Sg      2011/05/05 09:46:57.3   0.3                          T                3.5  .24 Ml 2.4         4684811
LOR   001.86 328.2 m E Sg      2011/05/05 09:46:57.5   0.1                          T                3.5  .24 Ml 2.3         4684824
MTLF  003.23 224.2 m E Pg      2011/05/05 09:46:58.4   0.0                          T                                        4684813
MTLF  003.23 224.2 m E Sg      2011/05/05 09:47:40.1   0.0                          T                1.6  .32 Ml 2.2         4684814
HINF  002.37 026.2 m E Sg      2011/05/05 09:47:13.6   0.0                          T                2.6  .26 Ml 2.3         4684823
HAU   002.42 017.0 m E Sg      2011/05/05 09:47:14.9   0.0                          T                2.2  .15 Ml 2.2         4684810

.
EVENT     258953
    Date      Time       Latitude Longitude    Depth    Ndef Nsta Gap    Mag1  N    Mag2  N    Mag3  N   Author         ID
       rms   OT_Error      Smajor Sminor Az        Err   mdist  Mdist     Err        Err        Err      Quality

2011/05/05 10:03:37.7     43.2702   -1.1877      2.0      16    3 242  Ml 1.3  1  Md 1.7  3              js067245    258953

      0.15   +-  0.14       2.4    1.1  154.93 +-  0.0    0.16   1.14   +-         +-0.1                 m i ke

PYRENEES
Sta     Dist  EvAz     Phase      Date       Time     TRes  Azim  AzRes  Slow  SRes Def   SNR       Amp   Per   Mag1   Mag2       ID
SJPF  000.16 189.9 m E Pg      2011/05/05 10:03:40.2  -0.8                          T                                        4684775
SJPF  000.16 189.9 m E Sg      2011/05/05 10:03:41.8  -1.5                          T              101.8  .24        Md 1.8  4684772
ETSF  000.59 128.7 m E Pg      2011/05/05 10:03:49.0   0.0                          T                                        4684774
ETSF  000.59 128.7 m E Sg      2011/05/05 10:03:56.5  -0.2                          T                4.5  .35        Md 1.6  4684773
EPF   001.14 101.6 m E Pg      2011/05/05 10:03:59.1   0.0                          T                                        4684771
EPF   001.14 101.6 m E Sg      2011/05/05 10:04:13.9   0.0                          T                 .6  .26 Ml 1.3 Md 1.6  4684770

.
