EVENT     290441
    Date      Time       Latitude Longitude    Depth    Ndef Nsta Gap    Mag1  N    Mag2  N    Mag3  N   Author         ID
       rms   OT_Error      Smajor Sminor Az        Err   mdist  Mdist     Err        Err        Err      Quality

2013/01/17 05:49:07.8     34.9907    9.3508      2.0      64   23 099  Ml 3.4 16                         bulletin    290541
                                                                                                         _ldg
      0.88   +-  0.31       8.7    4.8   96.57 +-  0.0    0.51  91.18   +-0.3                            m i ke

TUNISIA
Sta     Dist  EvAz     Phase      Date       Time     TRes  Azim  AzRes  Slow  SRes Def   SNR       Amp   Per   Mag1   Mag2       ID
BTHT  000.78 079.3 mCI Pg      2013/01/17 05:49:19.3  -3.1                          T                                        5170832
PGF   007.55 358.0 m E Pn      2013/01/17 05:50:58.0   1.5                          T                                        5170569
PGF   007.55 358.0 m E Sn      2013/01/17 05:52:18.2   0.5                          T               23.1  .81 Ml 4.0         5170568
LMR   008.62 346.0 m E Pn      2013/01/17 05:51:11.3   0.4                          T                                        5170565
LMR   008.62 346.0 m E Sn      2013/01/17 05:52:42.8  -0.2                          T                3.9  .30 Ml 3.6         5170564
FRF   008.81 347.1 m E Pn      2013/01/17 05:51:14.2   0.7                          T                                        5170563
FRF   008.81 347.1 m E Sn      2013/01/17 05:52:49.3   1.6                          T                1.1  .26 Ml 3.2         5170562
SBF   008.98 351.1 m E Pn      2013/01/17 05:51:16.4   0.4                          T                                        5170567
SBF   008.98 351.1 m E Sn      2013/01/17 05:52:51.8   0.0                          T                3.1  .39 Ml 3.5         5170566
SMRF  009.43 343.1 m E Pn      2013/01/17 05:51:22.3   0.3                          T                                        5170561
SMRF  009.43 343.1 m E Sn      2013/01/17 05:53:02.7   0.1                          T                1.4  .34 Ml 3.3         5170560
MTLF  010.01 328.6 m E Pn      2013/01/17 05:51:28.7  -1.1                          T                                        5170575
MTLF  010.01 328.6 m E Sn      2013/01/17 05:53:15.8  -0.5                          T                7.0  .49 Ml 3.9         5170574
MBDF  009.92 349.3 m E Pn      2013/01/17 05:51:30.1   1.2                          T                                        5170555
MBDF  009.92 349.3 m E Sn      2013/01/17 05:53:15.3   0.8                          T                 .2  .24 Ml 2.7         5170554
LASF  010.01 336.6 m E Pn      2013/01/17 05:51:30.1   0.2                          T                                        5170551
LASF  010.01 336.6 m E Sn      2013/01/17 05:53:16.6   0.2                          T                2.2  .41 Ml 3.4         5170550
VIVF  010.48 341.4 m E Pn      2013/01/17 05:51:36.5   0.2                          T                                        5170553
VIVF  010.48 341.4 m E Sn      2013/01/17 05:53:28.1   0.4                          T                 .5  .20 Ml 3.2         5170552
EPF   010.65 321.6 m E Pn      2013/01/17 05:51:38.4  -0.3                          T                                        5170573
EPF   010.65 321.6 m E Sn      2013/01/17 05:53:30.9  -0.8                          T                 .6  .30 Ml 3.1         5170572
LPG   010.68 350.1 m E Pn      2013/01/17 05:51:40.0   0.6                          T                                        5170559
LPG   010.68 350.1 m E Sn      2013/01/17 05:53:33.3   0.6                          T                 .3  .21 Ml 3.0         5170558
LPL   010.70 350.0 m E Pn      2013/01/17 05:51:40.5   0.9                          T                                        5170557
LPL   010.70 350.0 m E Sn      2013/01/17 05:53:34.4   1.3                          T                 .3  .17 Ml 3.1         5170556
ETSF  011.03 318.6 m E Pn      2013/01/17 05:51:43.9   0.0                          T                                        5170571
SJPF  011.54 317.8 m E Pn      2013/01/17 05:51:50.8   0.1                          T                                        5170570
LFF   011.92 329.0 m E Pn      2013/01/17 05:51:55.2  -0.7                          T                                        5170586
LFF   011.92 329.0 m E Sn      2013/01/17 05:54:00.9  -1.1                          T                1.3  .26 Ml 3.5         5170585
RJF   011.91 332.2 m E Pn      2013/01/17 05:51:55.6  -0.2                          T                                        5170584
SMF   012.36 342.0 m E Pn      2013/01/17 05:52:02.4   0.5                          T                                        5170581
TCF   012.51 336.6 m E Pn      2013/01/17 05:52:04.6   0.6                          T                                        5170579
BGF   012.56 338.9 m E Pn      2013/01/17 05:52:04.8   0.2                          T                                        5170583
BGF   012.56 338.9 m E Sn      2013/01/17 05:54:17.1   0.0                          T                 .6  .21 Ml 3.5         5170582
AVF   012.63 340.8 m E Pn      2013/01/17 05:52:05.9   0.4                          T                                        5170580
HYF   013.26 339.7 m E Pn      2013/01/17 05:52:14.3   0.2                          T                                        5170578
QUIF  015.93 327.9 m E Pn      2013/01/17 05:52:50.8   0.3                          T                                        5170577
QUIF  015.93 327.9 m E P       2013/01/17 05:52:54.2  -0.4                          T                                        5170576

.
EVENT     290454
    Date      Time       Latitude Longitude    Depth    Ndef Nsta Gap    Mag1  N    Mag2  N    Mag3  N   Author         ID
       rms   OT_Error      Smajor Sminor Az        Err   mdist  Mdist     Err        Err        Err      Quality

2013/01/17 08:33:19.7     43.0877    -.7633      2.0      41    9 064  Ml 2.0  8  Md 2.0  3              bulletin    290554
                                                                                                         _ldg
      0.31   +-  0.05       1.2     .8    1.92 +-  0.0    0.05   4.72   +-0.4      +-0.2                 m i ke

PYRENEES
Sta     Dist  EvAz     Phase      Date       Time     TRes  Azim  AzRes  Slow  SRes Def   SNR       Amp   Per   Mag1   Mag2       ID
ETSF  000.24 141.5 m E Pg      2013/01/17 08:33:24.3  -0.3                          T                                        5170982
ETSF  000.24 141.5 m E Sg      2013/01/17 08:33:27.8  -0.1                          T               96.2  .25        Md 2.0  5170981
SJPF  000.34 274.5 m E Pg      2013/01/17 08:33:26.2  -0.1                          T                                        5170980
SJPF  000.34 274.5 m E Sg      2013/01/17 08:33:31.0   0.1                          T               88.8  .33        Md 1.8  5170979
EPF   000.81 093.7 m E Pg      2013/01/17 08:33:35.3   0.2                          T                                        5170978
EPF   000.81 093.7 m E Sg      2013/01/17 08:33:45.5  -0.2                          T                6.4  .17        Md 2.2  5170977
LFF   002.15 029.8 m E Pn      2013/01/17 08:33:55.0   0.3                          T                                        5171016
LFF   002.15 029.8 m E Pg      2013/01/17 08:33:59.5   0.0                          T                                        5171015
LFF   002.15 029.8 m E Sg      2013/01/17 08:34:27.4   0.2                          T                7.1  .32 Ml 2.4         5171014
MTLF  002.19 082.4 m E Pn      2013/01/17 08:33:55.7   0.3                          T                                        5171022
MTLF  002.19 082.4 m E Pg      2013/01/17 08:34:00.3  -0.2                          T                                        5171021
MTLF  002.19 082.4 m E Sg      2013/01/17 08:34:29.0   0.3                          T                1.3  .20 Ml 2.1         5171020
CAF   002.75 047.0 m E Pn      2013/01/17 08:34:02.6  -0.4                          T                                        5171019
CAF   002.75 047.0 m E Pg      2013/01/17 08:34:10.4  -0.3                          T                                        5171018
CAF   002.75 047.0 m E Sn      2013/01/17 08:34:34.7   0.0                          T                 .9  .18 Ml 2.1         5171017
RJF   002.76 035.7 m E Pn      2013/01/17 08:34:03.1   0.0                          T                                        5171013
RJF   002.76 035.7 m E Sn      2013/01/17 08:34:34.9  -0.1                          T                                        5171012
RJF   002.76 035.7 m E Sg      2013/01/17 08:34:46.1  -0.2                          T                1.8  .25 Ml 1.9         5171011
TCF   003.84 032.5 m E Pn      2013/01/17 08:34:18.4   0.5                          T                                        5171010
TCF   003.84 032.5 m E Sn      2013/01/17 08:35:01.7   0.8                          T                                        5171009
TCF   003.84 032.5 m E Sg      2013/01/17 08:35:19.8  -0.3                          T                1.4  .26 Ml 2.4         5171008
AVF   004.72 036.9 m E Pn      2013/01/17 08:34:30.1   0.4                          T                                        5171007
AVF   004.72 036.9 m E Sn      2013/01/17 08:35:21.1  -0.7                          T                 .2  .22 Ml 1.9         5171006

.
EVENT     290451
    Date      Time       Latitude Longitude    Depth    Ndef Nsta Gap    Mag1  N    Mag2  N    Mag3  N   Author         ID
       rms   OT_Error      Smajor Sminor Az        Err   mdist  Mdist     Err        Err        Err      Quality

2013/01/17 09:32:47.3     49.0824    5.3906       .0 f    23   10 137  Ml 2.0  8  Md 2.2  2              bulletin    290551
                                                                                                         _ldg
      0.19   +-  0.05       1.3     .8   65.12 +-  0.0    0.57   2.38   +-0.2      +-0.0                 m i km

FRANCE
Sta     Dist  EvAz     Phase      Date       Time     TRes  Azim  AzRes  Slow  SRes Def   SNR       Amp   Per   Mag1   Mag2       ID
PAGF  000.57 157.1 m E Pg      2013/01/17 09:32:58.7   0.2                          T                                        5170918
PAGF  000.57 157.1 m E Sg      2013/01/17 09:33:05.8  -0.4                          T                2.0  .15        Md 2.1  5170960
MEZF  000.62 201.2 m E Pg      2013/01/17 09:32:59.4   0.0                          T                                        5170959
MEZF  000.62 201.2 m E Sg      2013/01/17 09:33:07.5  -0.2                          T                4.2  .25        Md 2.2  5170958
SFTF  000.91 195.0 m E Pg      2013/01/17 09:33:04.7   0.0                          T                                        5170915
SFTF  000.91 195.0 m E Sg      2013/01/17 09:33:16.7   0.0                          T                3.0  .18 Ml 2.0         5170911
GIVF  001.09 340.3 m E Pg      2013/01/17 09:33:08.1   0.2                          T                                        5170957
GIVF  001.09 340.3 m E Sg      2013/01/17 09:33:22.1  -0.1                          T                3.6  .24 Ml 2.0         5170956
BAIF  001.24 322.2 m E Pg      2013/01/17 09:33:10.7  -0.1                          T                                        5170955
BAIF  001.24 322.2 m E Sg      2013/01/17 09:33:26.9  -0.2                          T                1.1  .18 Ml 1.7         5170954
HAU   001.25 149.1 m E Pg      2013/01/17 09:33:10.8  -0.2                          T                                        5170917
HAU   001.25 149.1 m E Sg      2013/01/17 09:33:27.1  -0.3                          T                4.5  .21 Ml 2.0         5170916
CDF   001.42 117.5 m E Pn      2013/01/17 09:33:12.8  -0.1                          T                                        5170913
CDF   001.42 117.5 m E Sn      2013/01/17 09:33:31.6   0.2                          T                3.8  .33 Ml 2.2         5170912
HINF  001.60 141.9 m E Pn      2013/01/17 09:33:15.4   0.0                          T                                        5170947
HINF  001.60 141.9 m E Pg      2013/01/17 09:33:17.5   0.1                          T                                        5170946
HINF  001.60 141.9 m E Sn      2013/01/17 09:33:35.9   0.2                          T                 .8  .16 Ml 1.8         5170948
HINF  001.60 141.9 m E Sg      2013/01/17 09:33:38.2   0.0                          T                                        5170914
LOR   002.08 210.0 m E Pn      2013/01/17 09:33:22.1   0.2                          T                                        5170953
LOR   002.08 210.0 m E Sn      2013/01/17 09:33:47.0  -0.2                          T                 .8  .20 Ml 1.8         5170952
SSF   002.38 212.7 m E Pn      2013/01/17 09:33:25.7  -0.3                          T                                        5170951
SSF   002.38 212.7 m E Pg      2013/01/17 09:33:32.1   0.2                          T                                        5170950
SSF   002.38 212.7 m E Sn      2013/01/17 09:33:54.5   0.1                          T                 .7  .17 Ml 2.0         5170949

.
EVENT     290480
    Date      Time       Latitude Longitude    Depth    Ndef Nsta Gap    Mag1  N    Mag2  N    Mag3  N   Author         ID
       rms   OT_Error      Smajor Sminor Az        Err   mdist  Mdist     Err        Err        Err      Quality

2013/01/17 13:10:18.9     47.9478    8.9837       .0 f    18    7 304  Ml 2.5  6                         bulletin    290580
                                                                                                         _ldg
      0.30   +-  0.26       4.6    4.1  178.99 +-  0.0    1.23   3.53   +-0.4                            m i km

SWITZERLAND
Sta     Dist  EvAz     Phase      Date       Time     TRes  Azim  AzRes  Slow  SRes Def   SNR       Amp   Per   Mag1   Mag2       ID
CDF   001.23 292.8 m E Pn      2013/01/17 13:10:42.2   0.2                          T                                        5171737
CDF   001.23 292.8 m E P       2013/01/17 13:10:43.7   0.2                          T                                        5171738
CDF   001.23 292.8 m E Sg      2013/01/17 13:10:58.7   0.2                          T               22.8  .32 Ml 2.9         5171739
HINF  001.44 265.6 m E Pn      2013/01/17 13:10:44.8   0.1                          T                                        5171735
HINF  001.44 265.6 m E Pg      2013/01/17 13:10:46.2   0.2                          T                                        5171734
HINF  001.44 265.6 m E Sg      2013/01/17 13:11:04.9   0.0                          T               15.6  .36 Ml 2.6         5171732
HAU   001.77 272.8 m E Pn      2013/01/17 13:10:48.8  -0.4                          T                                        5171731
HAU   001.77 272.8 m E Pg      2013/01/17 13:10:52.9   0.8                          T                                        5171730
HAU   001.77 272.8 m E Sn      2013/01/17 13:11:11.0  -0.3                          T                                        5171729
HAU   001.77 272.8 m E Sg      2013/01/17 13:11:14.9  -0.3                          T                9.0  .26 Ml 2.5         5171728
CABF  002.38 236.9 m E Pn      2013/01/17 13:10:56.7  -0.9                          T                                        5171743
CABF  002.38 236.9 m E Pg      2013/01/17 13:11:03.9   0.4                          T                                        5171742
CABF  002.38 236.9 m E Sg      2013/01/17 13:11:34.1  -0.2                          T                1.3  .31 Ml 1.9         5171740
LOR   003.53 260.8 m E Pn      2013/01/17 13:11:12.6  -0.6                          T                                        5171746
LOR   003.53 260.8 m E Pg      2013/01/17 13:11:25.2   0.6                          T                                        5171745
LOR   003.53 260.8 m E Sg      2013/01/17 13:12:10.3   0.2                          T                3.8  .40 Ml 2.5         5171747
PAGF  002.26 286.8 m E Sg      2013/01/17 13:11:30.6   0.2                          T                                        5187459
SFTF  002.66 277.0 m E Sg      2013/01/17 13:11:42.6  -0.2                          T               10.7  .34 Ml 2.8         5187458

.
EVENT     290473
    Date      Time       Latitude Longitude    Depth    Ndef Nsta Gap    Mag1  N    Mag2  N    Mag3  N   Author         ID
       rms   OT_Error      Smajor Sminor Az        Err   mdist  Mdist     Err        Err        Err      Quality

2013/01/17 13:11:05.9     43.1129    -.6355      2.0      13    4 162  Ml 1.3  1  Md 1.5  2              bulletin    290573
                                                                                                         _ldg
      0.21   +-  0.08       2.2     .9    9.13 +-  0.0    0.05   2.10   +-         +-0.0                 m i ke

PYRENEES
Sta     Dist  EvAz     Phase      Date       Time     TRes  Azim  AzRes  Slow  SRes Def   SNR       Amp   Per   Mag1   Mag2       ID
ETSF  000.22 165.3 m E Pg      2013/01/17 13:11:10.4   0.0                          T                                        5171555
ETSF  000.22 165.3 m E Sg      2013/01/17 13:11:13.6   0.2                          T                5.1  .31        Md 1.6  5171554
SJPF  000.43 270.3 m E Pg      2013/01/17 13:11:14.3   0.1                          T                                        5171553
SJPF  000.43 270.3 m E Sg      2013/01/17 13:11:19.8  -0.1                          T                2.3  .20        Md 1.5  5171552
EPF   000.72 096.3 m E Pg      2013/01/17 13:11:19.6   0.1                          T                                        5171551
EPF   000.72 096.3 m E Sg      2013/01/17 13:11:28.8  -0.1                          T                  1  .25                5171550
MTLF  002.10 082.8 m E Sg      2013/01/17 13:12:11.7  -0.2                          T                 .3  .21 Ml 1.3         5187460

.
