EVENT     271053
    Date      Time       Latitude Longitude    Depth    Ndef Nsta Gap    Mag1  N    Mag2  N    Mag3  N   Author         ID
       rms   OT_Error      Smajor Sminor Az        Err   mdist  Mdist     Err        Err        Err      Quality

2012/02/29 23:45:16.9     49.9114    8.6536      9.0 f    23    7 119  Ml 2.1  7  Md 2.5  1              js067245    271074

      0.41   +-  0.09       1.8    1.2   64.56 +-  0.0    0.32   2.87   +-0.4      +-                    m i ke

GERMANY
Sta     Dist  EvAz     Phase      Date       Time     TRes  Azim  AzRes  Slow  SRes Def   SNR       Amp   Per   Mag1   Mag2       ID
LANF  001.08 211.0 m E Pg      2012/02/29 23:45:37.0  -0.2                          T                                        4863687
LANF  001.08 211.0 m E Sg      2012/02/29 23:45:51.3  -0.1                          T                8.5  .25 Ml 2.4 Md 2.5  4863685
CDF   001.75 211.6 m E Pg      2012/02/29 23:45:49.4  -0.2                          T                                        4863688
CDF   001.75 211.6 m E Sg      2012/02/29 23:46:11.8  -0.4                          T                3.6  .24 Ml 2.4         4863693
PAGF  002.35 235.8 m E Pn      2012/02/29 23:45:53.9   0.0                          T                                        4863683
PAGF  002.35 235.8 m E Pg      2012/02/29 23:46:00.4  -0.2                          T                                        4863684
PAGF  002.35 235.8 m E Sg      2012/02/29 23:46:30.5  -0.3                          T                 .2  .24 Ml 1.3         4863679
HINF  002.41 210.2 m E Pn      2012/02/29 23:45:55.3   0.5                          T                                        4863689
HINF  002.41 210.2 m E Pg      2012/02/29 23:46:01.7   0.0                          T                                        4863690
HINF  002.41 210.2 m E Sg      2012/02/29 23:46:32.6  -0.1                          T                3.4  .30 Ml 2.4         4863691
THEF  002.43 227.1 m E Pn      2012/02/29 23:45:55.5   0.5                          T                                        4863681
THEF  002.43 227.1 m E Pg      2012/02/29 23:46:02.2   0.2                          T                                        4863682
THEF  002.43 227.1 m E Sg      2012/02/29 23:46:31.5  -1.7                          T                2.5  .23 Ml 2.3         4863680
BAIF  002.87 274.6 m E Pg      2012/02/29 23:46:10.6   0.5                          T                                        4863686
BAIF  002.87 274.6 m E Sn      2012/02/29 23:46:35.9   2.3                          T                                        4863677
BAIF  002.87 274.6 m E Sg      2012/02/29 23:46:45.6  -1.5                          T                1.2  .25 Ml 2.1         4863678
HAU   002.44 219.4 m E Sg      2012/02/29 23:46:33.7   0.1                          T                2.3  .20 Ml 2.1         4863692

.
EVENT     271055
    Date      Time       Latitude Longitude    Depth    Ndef Nsta Gap    Mag1  N    Mag2  N    Mag3  N   Author         ID
       rms   OT_Error      Smajor Sminor Az        Err   mdist  Mdist     Err        Err        Err      Quality

2012/02/29 23:59:07.9     44.6604    6.8233      2.0      38    9 056  Ml 1.8  6  Md 1.9  3              js067245    271076

      0.59   +-  0.08       1.9    1.3   69.12 +-  0.0    0.08   1.54   +-0.2      +-0.1                 m i ke

FRANCE
Sta     Dist  EvAz     Phase      Date       Time     TRes  Azim  AzRes  Slow  SRes Def   SNR       Amp   Per   Mag1   Mag2       ID
MBDF  000.08 330.9 m E Pg      2012/02/29 23:59:09.8  -0.1                          T                                        4863702
MBDF  000.08 330.9 m E Sg      2012/02/29 23:59:11.5   0.3                          T               97.6  .24        Md 1.9  4863694
ORIF  000.72 291.3 m E Pg      2012/02/29 23:59:21.5  -0.1                          T                                        4863701
ORIF  000.72 291.3 m E Sg      2012/02/29 23:59:30.1  -1.0                          T                2.5  .20                4863910
LPG   000.84 356.5 m E Pg      2012/02/29 23:59:24.5   0.4                          T                                        4863699
LPG   000.84 356.5 m E Sn      2012/02/29 23:59:37.7   0.0                          T                3.5  .44                4863908
LPL   000.86 355.7 m E Pg      2012/02/29 23:59:24.7   0.3                          T                                        4863700
LPL   000.86 355.7 m E Sn      2012/02/29 23:59:38.3   0.1                          T                2.3  .28 Ml 1.7 Md 1.9  4863909
SBF   000.91 150.9 m E Pg      2012/02/29 23:59:25.4   0.3                          T                                        4863903
SBF   000.91 150.9 m E Sg      2012/02/29 23:59:37.1   0.1                          T                1.8  .25 Ml 1.6 Md 1.7  4863902
SMRF  001.13 233.1 m E Pg      2012/02/29 23:59:29.1   0.0                          T                                        4863698
SMRF  001.13 233.1 m E Sn      2012/02/29 23:59:44.7   0.4                          T                3.6  .40 Ml 1.8         4863907
FRF   001.11 186.7 m E Pg      2012/02/29 23:59:29.2   0.5                          T                                        4863697
FRF   001.11 186.7 m E Sg      2012/02/29 23:59:43.4   0.4                          T                3.0  .22 Ml 2.0         4863906
LMR   001.35 189.8 m E Pg      2012/02/29 23:59:33.5   0.5                          T                                        4863696
LMR   001.35 189.8 m E Sg      2012/02/29 23:59:50.8   0.4                          T                2.6  .24 Ml 2.0         4863695
VIVF  001.54 278.0 m E Pg      2012/02/29 23:59:36.6  -0.2                          T                                        4863905
VIVF  001.54 278.0 m E Sg      2012/02/29 23:59:57.2   0.4                          T                 .8  .25 Ml 1.6         4863904

.
EVENT     271056
    Date      Time       Latitude Longitude    Depth    Ndef Nsta Gap    Mag1  N    Mag2  N    Mag3  N   Author         ID
       rms   OT_Error      Smajor Sminor Az        Err   mdist  Mdist     Err        Err        Err      Quality

2012/03/01 00:43:00.4     44.4950    6.7071      2.0      45    9 046  Ml 1.8  6  Md 1.8  3              js067245    271077

      0.47   +-  0.07       1.6    1.2   58.71 +-  0.0    0.08   1.50   +-0.3      +-0.1                 m i ke

FRANCE
Sta     Dist  EvAz     Phase      Date       Time     TRes  Azim  AzRes  Slow  SRes Def   SNR       Amp   Per   Mag1   Mag2       ID
MBDF  000.24 011.2 m E Pg      2012/03/01 00:43:05.5   0.1                          T                                        4863931
MBDF  000.24 011.2 m E Sg      2012/03/01 00:43:09.1   0.6                          T                8.9  .28        Md 1.8  4863932
ORIF  000.73 306.0 m E Pg      2012/03/01 00:43:13.9  -0.4                          T                                        4863930
ORIF  000.73 306.0 m E Sg      2012/03/01 00:43:22.2  -1.5                          T                3.3  .21        Md 1.7  4863924
SBF   000.82 140.1 m E Pg      2012/03/01 00:43:16.3   0.3                          T                                        4863917
SBF   000.82 140.1 m E Sg      2012/03/01 00:43:27.2   0.6                          T                6.7  .37        Md 1.9  4863918
FRF   000.94 182.7 m E Pg      2012/03/01 00:43:18.4   0.4                          T                                        4863926
FRF   000.94 182.7 m E Sg      2012/03/01 00:43:30.0  -0.1                          T                5.1  .22 Ml 2.2         4863916
SMRF  000.96 237.9 m E Pn      2012/03/01 00:43:19.5   0.1                          T                                        4863927
SMRF  000.96 237.9 m E Sn      2012/03/01 00:43:32.5  -0.4                          T                2.1  .27 Ml 1.7         4863920
LPG   001.00 001.8 m E Pg      2012/03/01 00:43:19.7   0.1                          T                                        4863928
LPG   001.00 001.8 m E Pn      2012/03/01 00:43:20.4   0.1                          T                                        4863936
LPG   001.00 001.8 m E Sg      2012/03/01 00:43:32.1  -0.6                          T                1.2  .23 Ml 1.5         4863921
LPL   001.02 001.0 m E Pg      2012/03/01 00:43:20.1   0.2                          T                                        4863929
LPL   001.02 001.0 m E Sg      2012/03/01 00:43:33.2   0.0                          T                1.5  .32 Ml 1.5         4863922
LMR   001.17 187.1 m E Pg      2012/03/01 00:43:23.2   0.9                          T                                        4863925
LMR   001.17 187.1 m E Sg      2012/03/01 00:43:37.4   0.0                          T                2.9  .20 Ml 2.1         4863919
VIVF  001.50 284.7 m E Pg      2012/03/01 00:43:28.8   0.4                          T                                        4863915
VIVF  001.50 284.7 m E Sg      2012/03/01 00:43:46.9  -0.8                          T                1.7  .40 Ml 1.7         4863923

.
EVENT     271058
    Date      Time       Latitude Longitude    Depth    Ndef Nsta Gap    Mag1  N    Mag2  N    Mag3  N   Author         ID
       rms   OT_Error      Smajor Sminor Az        Err   mdist  Mdist     Err        Err        Err      Quality

2012/03/01 01:59:25.6     47.1218    1.5249      3.0 f    15    8 197  Ml 1.6 10  Md 1.7  1              js067245    271079

      0.78   +-  0.24       4.9    2.4  170.68 +-  0.0    0.96   1.82   +-0.2      +-                    m i ke

FRANCE
Sta     Dist  EvAz     Phase      Date       Time     TRes  Azim  AzRes  Slow  SRes Def   SNR       Amp   Per   Mag1   Mag2       ID
TCF   000.96 150.3 m E Pg      2012/03/01 01:59:43.5  -0.1                          T                                        4864105
TCF   000.96 150.3 m E Sg      2012/03/01 01:59:56.3   0.2                          T                 .7  .17 Ml 1.4 Md 1.7  4864104
BGF   001.07 121.4 m E Pg      2012/03/01 01:59:46.1   0.4                          T                                        4864110
BGF   001.07 121.4 m E Sg      2012/03/01 01:59:59.1  -0.4                          T                2.1  .22 Ml 1.8         4864100
AVF   001.30 104.2 m E Pg      2012/03/01 01:59:50.6   0.8                          T                                        4864099
AVF   001.30 104.2 m E Sg      2012/03/01 02:00:06.3  -0.2                          T                 .7  .23 Ml 1.5         4864101
MFF   001.26 246.2 m E Sg      2012/03/01 02:00:06.3   0.9                          T                 .5  .16 Ml 1.6         4864098
SSF   001.35 091.8 m E Sg      2012/03/01 02:00:09.1   0.7                          T                 .8  .21 Ml 1.6         4864111
LOR   001.60 083.9 m E Sg      2012/03/01 02:00:15.6  -0.5                          T                1.2  .26 Ml 1.7         4864102
SMF   001.66 105.9 m E Sg      2012/03/01 02:00:17.4  -0.5                          T                                        4864114
RJF   001.82 180.2 m E Sg      2012/03/01 02:00:21.7  -1.2                          T                 .6  .20 Ml 1.3         4864103

.
EVENT     271059
    Date      Time       Latitude Longitude    Depth    Ndef Nsta Gap    Mag1  N    Mag2  N    Mag3  N   Author         ID
       rms   OT_Error      Smajor Sminor Az        Err   mdist  Mdist     Err        Err        Err      Quality

2012/03/01 05:44:38.4     48.2142    7.5622     15.0      10    6 200  Ml 1.8  2  Md 1.6  2              js067245    271080

      0.26   +-  0.18       4.1    1.7  120.12 +-  0.0    0.28   1.89   +-0.1      +-0.1                 m i ke

FRANCE
Sta     Dist  EvAz     Phase      Date       Time     TRes  Azim  AzRes  Slow  SRes Def   SNR       Amp   Per   Mag1   Mag2       ID
CDF   000.28 316.2 m E Pg      2012/03/01 05:44:44.4  -0.1                          T                                        4864117
CDF   000.28 316.2 m E Sg      2012/03/01 05:44:48.3  -0.2                          T                4.6  .24        Md 1.6  4864119
HINF  000.62 230.4 m E Pg      2012/03/01 05:44:50.7   0.2                          T                                        4864116
HINF  000.62 230.4 m E Sg      2012/03/01 05:44:58.6  -0.1                          T                6.0  .48        Md 1.5  4864118
LANF  000.78 011.8 m E Pg      2012/03/01 05:44:53.5   0.1                          T                                        4864286
LANF  000.78 011.8 m E Sg      2012/03/01 05:45:03.3  -0.4                          T                1.1  .16                4864285
THEF  001.05 271.4 m E Pg      2012/03/01 05:44:58.3   0.1                          T                                        4864283
THEF  001.05 271.4 m E Sn      2012/03/01 05:45:10.7   0.2                          T                2.0  .27 Ml 1.7         4864284
HAU   000.84 256.1 m E Sg      2012/03/01 05:45:05.5   0.0                          T                2.4  .32                4864287
CABF  001.89 212.5 m E Sg      2012/03/01 05:45:37.4  -0.7                          T                1.1  .26 Ml 1.8         4864282

.
EVENT     271118
    Date      Time       Latitude Longitude    Depth    Ndef Nsta Gap    Mag1  N    Mag2  N    Mag3  N   Author         ID
       rms   OT_Error      Smajor Sminor Az        Err   mdist  Mdist     Err        Err        Err      Quality

2012/03/01 11:08:08.9     43.6452    7.0460       .0 f    33   10 130  Ml 2.2  6                         js067245    271139

      0.64   +-  0.15       3.1    1.8  138.73 +-  0.0    0.03   2.35   +-0.3                            m i km

NEAR SOUTH COAST OF FRANCE
Sta     Dist  EvAz     Phase      Date       Time     TRes  Azim  AzRes  Slow  SRes Def   SNR       Amp   Per   Mag1   Mag2       ID
FRF   000.30 253.9 m E Pg      2012/03/01 11:08:14.4  -0.6                          T                                        4864321
FRF   000.30 253.9 m E Sg      2012/03/01 11:08:18.7  -0.6                          T               70.3  .45                4864306
SBF   000.36 052.2 m E P       2012/03/01 11:08:16.8   0.3                          T                                        4864320
SBF   000.36 052.2 m E Sg      2012/03/01 11:08:21.4   0.3                          T               25.0  .26                4864319
LMR   000.50 231.6 m E Pg      2012/03/01 11:08:18.6   0.0                          T                                        4864324
LMR   000.50 231.6 m E Sg      2012/03/01 11:08:25.4   0.0                          T                7.1  .20                4864323
SMRF  001.11 287.8 m E Pg      2012/03/01 11:08:30.2   0.1                          T                                        4864322
MBDF  001.10 349.7 m E Pg      2012/03/01 11:08:30.2   0.3                          T                                        4864315
MBDF  001.10 349.7 m E Sg      2012/03/01 11:08:44.1  -0.3                          T               16.1  .50 Ml 2.4         4864309
ORIF  001.52 327.1 m E Pg      2012/03/01 11:08:37.7   0.0                          T                                        4864316
ORIF  001.52 327.1 m E Sg      2012/03/01 11:08:58.1   0.6                          T               13.8  .52 Ml 2.5         4864305
VIVF  002.09 306.2 m E Pn      2012/03/01 11:08:43.6   0.0                          T                                        4866695
VIVF  002.09 306.2 m E Sn      2012/03/01 11:09:08.5  -0.4                          T                3.6  .44 Ml 2.1         4864314
LPG   001.86 353.6 m E Pg      2012/03/01 11:08:44.5   0.3                          T                                        4864307
LPL   001.88 353.3 m E Pg      2012/03/01 11:08:45.0   0.5                          T                                        4864304
LASF  002.35 281.7 m E Pn      2012/03/01 11:08:47.3   0.2                          T                                        4866714
LASF  002.35 281.7 m E Pg      2012/03/01 11:08:52.4  -0.3                          T                                        4864308
LASF  002.35 281.7 m E Sn      2012/03/01 11:09:14.2  -0.9                          T                 .9  .25 Ml 1.8         4864313
LASF  002.35 281.7 m E Sg      2012/03/01 11:09:22.9  -0.2                          T                1.3  .28 Ml 1.9         4864312

.
EVENT     271119
    Date      Time       Latitude Longitude    Depth    Ndef Nsta Gap    Mag1  N    Mag2  N    Mag3  N   Author         ID
       rms   OT_Error      Smajor Sminor Az        Err   mdist  Mdist     Err        Err        Err      Quality

2012/03/01 12:34:11.8     42.4939    -.3218      2.0       8    5 248  Ml 2.2  3  Md 2.1  3              js067245    271140

      0.75   +-  1.21      24.0    6.5    2.82 +-  0.0    0.44   3.44   +-0.2      +-0.2                 m i ke

PYRENEES
Sta     Dist  EvAz     Phase      Date       Time     TRes  Azim  AzRes  Slow  SRes Def   SNR       Amp   Per   Mag1   Mag2       ID
ETSF  000.44 336.7 m E Pg      2012/03/01 12:34:19.4  -0.9                          T                                        4864332
ETSF  000.44 336.7 m E Sg      2012/03/01 12:34:26.5   0.3                          T               11.8  .28        Md 2.3  4864329
EPF   000.72 042.1 m E Pg      2012/03/01 12:34:25.6   0.1                          T                                        4864327
EPF   000.72 042.1 m E Sg      2012/03/01 12:34:35.0   0.0                          T               10.5  .32        Md 2.0  4864328
SJPF  000.91 313.3 m E Pg      2012/03/01 12:34:29.2   0.4                          T                                        4864331
SJPF  000.91 313.3 m E Sg      2012/03/01 12:34:41.1   0.4                          T                6.6  .26 Ml 2.2 Md 2.0  4864330
MTLF  002.05 064.7 m E Sg      2012/03/01 12:35:15.1  -1.1                          T                2.6  .40 Ml 2.0         4864326
LASF  003.44 061.2 m E Sg      2012/03/01 12:36:01.2   1.6                          T                2.1  .26 Ml 2.4         4864325

.
EVENT     271141
    Date      Time       Latitude Longitude    Depth    Ndef Nsta Gap    Mag1  N    Mag2  N    Mag3  N   Author         ID
       rms   OT_Error      Smajor Sminor Az        Err   mdist  Mdist     Err        Err        Err      Quality

2012/03/01 15:02:52.1     43.0809    -.6712      2.0       5    3 178             Md 1.3  3              js067245    271162

      0.15   +-  0.07       2.3     .9   24.47 +-  0.0    0.20   0.74              +-0.2                 m i ke

PYRENEES
Sta     Dist  EvAz     Phase      Date       Time     TRes  Azim  AzRes  Slow  SRes Def   SNR       Amp   Per   Mag1   Mag2       ID
ETSF  000.20 155.7 m E Pg      2012/03/01 15:02:56.2  -0.1                          T                                        4864341
ETSF  000.20 155.7 m E Sg      2012/03/01 15:02:58.8  -0.2                          T               33.0  .28        Md 1.5  4864338
SJPF  000.41 274.8 m E Pg      2012/03/01 15:02:59.9   0.0                          T                                        4864340
SJPF  000.41 274.8 m E Sg      2012/03/01 15:03:05.1  -0.3                          T                5.8  .26        Md 1.3  4864339
EPF   000.74 093.6 m E Sg      2012/03/01 15:03:15.8  -0.1                          T                2.3  .28        Md 1.2  4864337

.
