EVENT     267278
    Date      Time       Latitude Longitude    Depth    Ndef Nsta Gap    Mag1  N    Mag2  N    Mag3  N   Author         ID
       rms   OT_Error      Smajor Sminor Az        Err   mdist  Mdist     Err        Err        Err      Quality

2011/12/10 17:17:26.5     43.7484   16.7940      2.0     159   21 040  Ml 3.6 13                         js067245    267298

      1.14   +-  0.09       2.7    2.2   22.29 +-  0.0    1.04  10.63   +-0.2                            m i ke

NORTHWESTERN BALKAN PEN.
Sta     Dist  EvAz     Phase      Date       Time     TRes  Azim  AzRes  Slow  SRes Def   SNR       Amp   Per   Mag1   Mag2       ID
PGF   005.83 260.8 m E Pn      2011/12/10 17:18:54.2   2.4                          T   001.0                                4797766
SBF   006.77 274.2 m E Pn      2011/12/10 17:19:06.0   1.4                          T                                        4798764
MBDF  007.27 281.2 m E Pn      2011/12/10 17:19:11.7   0.2                          T   001.0                                4797772
MBDF  007.27 281.2 m E Sn      2011/12/10 17:20:29.3  -0.4                          T                7.4  .36 Ml 3.6         4798760
LPG   007.38 287.2 m E Pn      2011/12/10 17:19:12.7  -0.4                          T   001.0                                4797764
LPG   007.38 287.2 m E Sn      2011/12/10 17:20:34.5   2.0                          T               15.6  .50 Ml 3.8         4798762
LPL   007.39 287.3 m E Pn      2011/12/10 17:19:13.6   0.3                          T   001.0                                4797765
LPL   007.39 287.3 m E Sn      2011/12/10 17:20:32.7  -0.1                          T               13.2  .38 Ml 3.9         4798761
FRF   007.36 272.0 m E Pn      2011/12/10 17:19:14.5   1.9                          T   001.0                                4797757
LMR   007.49 270.4 m E Pn      2011/12/10 17:19:15.9   1.6                          T   001.0                                4797761
LMR   007.49 270.4 m E Sn      2011/12/10 17:20:36.9   2.2                          T   001.0        2.9  .30 Ml 3.3         4797762
ORIF  007.91 282.3 m E Pn      2011/12/10 17:19:21.1   0.9                          T   001.0                                4797773
ORIF  007.91 282.3 m E Sn      2011/12/10 17:20:45.9   0.8                          T   001.0       12.7  .52 Ml 3.8         4797774
CDF   008.09 308.5 m E Pn      2011/12/10 17:19:22.9   0.3                          T   001.0                                4797756
CABF  008.09 294.4 m E Pn      2011/12/10 17:19:23.5   0.9                          T   001.0                                4797771
CABF  008.09 294.4 m E Sn      2011/12/10 17:20:51.2   2.0                          T                6.3  .52 Ml 3.5         4798758
HINF  008.05 303.8 m E Pn      2011/12/10 17:19:24.7   2.7                          T                                        4798766
HINF  008.05 303.8 m E Sn      2011/12/10 17:20:49.9   1.6                          T                8.3  .59 Ml 3.6         4798759
HAU   008.44 303.9 m E Pn      2011/12/10 17:19:29.2   1.9                          T   001.0                                4797758
HAU   008.44 303.9 m E Sn      2011/12/10 17:21:00.3   2.7                          T   001.0        8.3  .46 Ml 3.5         4797759
THEF  008.75 304.6 m E Pn      2011/12/10 17:19:32.1   0.6                          T                                        4798755
VIVF  008.77 281.5 m E Pn      2011/12/10 17:19:32.1   0.4                          T   001.0                                4797775
VIVF  008.77 281.5 m E Sn      2011/12/10 17:21:05.3  -0.1                          T   001.0        2.7  .42 Ml 3.3         4797776
RUP   008.95 315.1 m E Pn      2011/12/10 17:19:37.5   3.3                          T                                        4798763
SMF   009.59 292.1 m E Pn      2011/12/10 17:19:43.9   0.9                          T   001.0                                4797767
SMF   009.59 292.1 m E Sn      2011/12/10 17:21:27.1   1.9                          T   001.0        6.0  .40 Ml 3.8         4797768
LOR   009.74 295.7 m E Pn      2011/12/10 17:19:45.6   0.7 115.6  9.1               T   001.0                                4797763
LOR   009.74 295.7 m E Sn      2011/12/10 17:21:28.8   0.2                          T                6.0  .39 Ml 3.9         4798756
SSF   009.92 294.1 m E Pn      2011/12/10 17:19:48.1   0.8                          T   001.0                                4797769
AVF   009.95 292.5 m E Pn      2011/12/10 17:19:48.6   0.7                          T   001.0                                4797755
AVF   009.95 292.5 m E Sn      2011/12/10 17:21:32.9  -0.8                          T                2.7  .45 Ml 3.5         4798754
BGF   010.25 290.8 m E Pn      2011/12/10 17:19:52.7   0.9                          T                                        4798765
TCF   010.63 288.9 m E Pn      2011/12/10 17:19:56.6  -0.6                          T   001.0                                4797770
TCF   010.63 288.9 m E Sn      2011/12/10 17:21:50.7   0.6                          T                2.4  .42 Ml 3.6         4798757

.
EVENT     267272
    Date      Time       Latitude Longitude    Depth    Ndef Nsta Gap    Mag1  N    Mag2  N    Mag3  N   Author         ID
       rms   OT_Error      Smajor Sminor Az        Err   mdist  Mdist     Err        Err        Err      Quality

2011/12/10 18:44:30.3     43.0179   -1.1642      2.0      17    3 103  Ml 1.5  1  Md 1.5  2              js067245    267292

      0.26   +-  0.06       1.2    1.0  165.42 +-  0.0    0.11   1.81   +-         +-0.1                 m i ke

PYRENEES
Sta     Dist  EvAz     Phase      Date       Time     TRes  Azim  AzRes  Slow  SRes Def   SNR       Amp   Per   Mag1   Mag2       ID
SJPF  000.11 335.0 m E Pg      2011/12/10 18:44:32.6   0.0                          T                                        4798770
SJPF  000.11 335.0 m E Sg      2011/12/10 18:44:34.3   0.2                          T               35.1  .30        Md 1.5  4798769
ETSF  000.46 104.8 m E Pg      2011/12/10 18:44:38.4  -0.8                          T                                        4798767
ETSF  000.46 104.8 m E Sg      2011/12/10 18:44:45.0  -0.3                          T                4.9  .28        Md 1.4  4798768
EPF   001.10 088.8 m E Pg      2011/12/10 18:44:50.7  -0.3                          T                                        4798771
EPF   001.10 088.8 m E Sg      2011/12/10 18:45:05.6   0.3                          T                 .8  .18 Ml 1.5         4798772

.
EVENT     267277
    Date      Time       Latitude Longitude    Depth    Ndef Nsta Gap    Mag1  N    Mag2  N    Mag3  N   Author         ID
       rms   OT_Error      Smajor Sminor Az        Err   mdist  Mdist     Err        Err        Err      Quality

2011/12/10 18:49:16.9     43.6395    7.6183      2.0      32    6 212  Ml 1.7  5  Md 1.5  2              js067245    267297

      0.42   +-  0.14       2.4    1.4  139.30 +-  0.0    0.22   1.79   +-0.1      +-0.1                 m i ke

NEAR SOUTH COAST OF FRANCE
Sta     Dist  EvAz     Phase      Date       Time     TRes  Azim  AzRes  Slow  SRes Def   SNR       Amp   Per   Mag1   Mag2       ID
SBF   000.26 329.4 m E Pg      2011/12/10 18:49:22.5   0.4                          T                                        4799294
SBF   000.26 329.4 m E Sg      2011/12/10 18:49:26.2   0.5                          T               23.7  .20        Md 1.6  4799293
FRF   000.71 264.0 m E Pg      2011/12/10 18:49:30.5   0.1                          T                                        4799291
FRF   000.71 264.0 m E Sg      2011/12/10 18:49:40.4   0.8                          T                6.9  .18        Md 1.5  4799290
LMR   000.86 249.7 m E Pg      2011/12/10 18:49:32.9  -0.2                          T                                        4799289
LMR   000.86 249.7 m E Pn      2011/12/10 18:49:34.5   0.0                          T                                        4799284
LMR   000.86 249.7 m E Sg      2011/12/10 18:49:44.0  -0.4                          T                1.7  .25 Ml 1.6         4799292
LMR   000.86 249.7 m E Sn      2011/12/10 18:49:46.7  -0.2                          T                                        4799296
MBDF  001.25 331.0 m E Pn      2011/12/10 18:49:40.2   0.3                          T                                        4799287
MBDF  001.25 331.0 m E Sn      2011/12/10 18:49:56.3   0.0                          T                                        4799295
MBDF  001.25 331.0 m E Sg      2011/12/10 18:49:56.9   0.3                          T                1.3  .26 Ml 1.6         4799286
SMRF  001.52 283.5 m E Pg      2011/12/10 18:49:44.9  -0.4                          T                                        4799285
SMRF  001.52 283.5 m E Sg      2011/12/10 18:50:06.6   1.8                          T                1.0  .20 Ml 1.8         4799288
ORIF  001.79 316.3 m E Sg      2011/12/10 18:50:13.0  -0.3                          T                1.2  .33 Ml 1.7         4799283

.
EVENT     267279
    Date      Time       Latitude Longitude    Depth    Ndef Nsta Gap    Mag1  N    Mag2  N    Mag3  N   Author         ID
       rms   OT_Error      Smajor Sminor Az        Err   mdist  Mdist     Err        Err        Err      Quality

2011/12/10 23:33:29.3     45.7691   10.8789      2.0     103   32 044  Ml 3.1 24                         js067245    267299

      1.29   +-  0.10       2.5    2.2  144.97 +-  0.0    0.18   9.51   +-0.2                            m i ke

NORTHERN ITALY
Sta     Dist  EvAz     Phase      Date       Time     TRes  Azim  AzRes  Slow  SRes Def   SNR       Amp   Per   Mag1   Mag2       ID
LPG   002.91 266.1 m E Pn      2011/12/10 23:34:14.5  -0.5                          T                                        4799327
LPG   002.91 266.1 m E P       2011/12/10 23:34:17.7  -0.2                          T                                        4799366
LPL   002.92 266.5 m E Pn      2011/12/10 23:34:15.6   0.5                          T                                        4799328
MBDF  003.08 251.7 m E Pn      2011/12/10 23:34:15.6  -1.6                          T   001.0                                4797745
SBF   003.10 233.4 m E Pn      2011/12/10 23:34:16.9  -0.5                          T   001.0                                4797731
SBF   003.10 233.4 m E Sg      2011/12/10 23:35:06.7   0.0                          T   001.0       29.9  .34 Ml 3.4         4797732
CABF  003.43 285.9 m E Pn      2011/12/10 23:34:21.5  -0.4                          T   001.0                                4797740
CABF  003.43 285.9 m E Sn      2011/12/10 23:35:01.6   0.8                          T   001.0       15.5  .50 Ml 3.0         4797741
PGF   003.49 203.4 m E Pn      2011/12/10 23:34:21.9  -0.8                          T   001.0                                4797717
PGF   003.49 203.4 m E Sn      2011/12/10 23:35:02.2  -0.1                          T   001.0       10.2  .29 Ml 3.3         4797728
HINF  003.44 308.0 m E Pn      2011/12/10 23:34:23.1   1.1                          T   001.0                                4797743
HINF  003.44 308.0 m E Sn      2011/12/10 23:35:02.1   1.2                          T   001.0       13.7  .28 Ml 3.2         4797744
FRF   003.74 235.3 m E Pn      2011/12/10 23:34:25.0  -1.0                          T   001.0                                4797725
FRF   003.74 235.3 m E Sg      2011/12/10 23:35:25.1  -1.4                          T               16.8  .46 Ml 3.2         4799365
CDF   003.61 318.4 m E Pn      2011/12/10 23:34:25.5   1.2                          T   001.0                                4797723
CDF   003.61 318.4 m E Sn      2011/12/10 23:35:06.3   1.2                          T   001.0        6.9  .26 Ml 3.1         4797724
ORIF  003.63 258.2 m E Pn      2011/12/10 23:34:25.9   1.4                          T   001.0                                4797749
HAU   003.83 307.4 m E Pn      2011/12/10 23:34:28.0   0.8                          T   001.0                                4797727
HAU   003.83 307.4 m E Sn      2011/12/10 23:35:10.0  -0.2                          T   001.0       29.1  .39 Ml 3.3         4797729
LMR   003.96 233.6 m E Pn      2011/12/10 23:34:28.1  -0.9                          T   001.0                                4797752
SMRF  004.17 246.5 m E Pn      2011/12/10 23:34:33.5   1.6                          T   001.0                                4797753
VIVF  004.47 260.4 m E Pn      2011/12/10 23:34:35.5  -0.5                          T   001.0                                4797750
VIVF  004.47 260.4 m E Sn      2011/12/10 23:35:25.4  -0.1                          T                3.4  .28 Ml 2.8         4799364
PAGF  004.49 310.3 m E Pn      2011/12/10 23:34:38.2   2.1                          T                                        4799332
SFTF  004.68 303.5 m E Pn      2011/12/10 23:34:39.9   1.1 129.4  10.2              T                                        4799331
SFTF  004.68 303.5 m E Sn      2011/12/10 23:35:34.0   3.6                          T                5.1  .23 Ml 3.1         4799361
MEZF  004.83 306.6 m E Pn      2011/12/10 23:34:42.3   1.5 127.1  4.7               T   001.0                                4797746
MEZF  004.83 306.6 m E Sn      2011/12/10 23:35:34.3   0.4                          T   001.0        4.3  .33 Ml 2.9         4797747
SMF   004.96 282.7 m E Pn      2011/12/10 23:34:42.6  -0.1                          T   001.0                                4797733
SMF   004.96 282.7 m E Sn      2011/12/10 23:35:37.5   0.2                          T   001.0        7.8  .30 Ml 3.3         4797734
LOR   005.07 289.7 m E Pn      2011/12/10 23:34:44.3   0.2 116.8  12.2              T   001.0                                4797713
LOR   005.07 289.7 m E Sn      2011/12/10 23:35:41.4   1.6 120.4  15.8              T                6.8  .24 Ml 3.4         4799360
LASF  005.27 253.7 m E Pn      2011/12/10 23:34:46.2  -0.6                          T   001.0                                4797730
LASF  005.27 253.7 m E Sn      2011/12/10 23:35:44.2  -0.3                          T   001.0        1.9  .26 Ml 2.8         4797751
SSF   005.26 286.9 m E Pn      2011/12/10 23:34:47.2   0.5                          T   001.0                                4797735
SSF   005.26 286.9 m E Sn      2011/12/10 23:35:44.6   0.3                          T                3.4  .34 Ml 3.0         4799359
SSF   005.26 286.9 m E Sg      2011/12/10 23:36:13.8  -0.1                          T   001.0        3.9  .44 Ml 3.0         4797736
AVF   005.32 283.8 m E Pn      2011/12/10 23:34:47.3  -0.1                          T   001.0                                4797718
AVF   005.32 283.8 m E Sn      2011/12/10 23:35:46.2   0.5                          T   001.0        2.6  .29 Ml 2.9         4797719
BGF   005.64 280.9 m E Pn      2011/12/10 23:34:51.8   0.0                          T   001.0                                4797720
BGF   005.64 280.9 m E Sn      2011/12/10 23:35:53.6   0.3                          T   001.0        6.8  .30 Ml 3.4         4797721
HYF   005.88 287.7 m E Pn      2011/12/10 23:34:55.6   0.5                          T                                        4799329
HYF   005.88 287.7 m E Sn      2011/12/10 23:36:02.4   3.2                          T                                        4799358
TCF   006.06 278.0 m E Pn      2011/12/10 23:34:57.3  -0.3                          T   001.0                                4797737
TCF   006.06 278.0 m E Sn      2011/12/10 23:36:03.1  -0.3                          T   001.0        3.6  .30 Ml 3.2         4797738
CAF   006.27 265.4 m E Pn      2011/12/10 23:35:01.3   0.8                          T   001.0                                4797722
MTLF  006.65 251.7 m E Pn      2011/12/10 23:35:05.5  -0.1                          T   001.0                                4797748
MFF   007.70 280.2 m E Pn      2011/12/10 23:35:19.1  -0.7                          T                                        4799325
MFF   007.70 280.2 m E Sn      2011/12/10 23:36:41.6  -1.0                          T   001.0        2.4  .38 Ml 3.3         4797716
FLN   008.29 295.3 m E Pn      2011/12/10 23:35:28.9   1.0 115.8  8.9               T                                        4799363
GRR   008.43 292.3 m E Pn      2011/12/10 23:35:30.3   0.5                          T                                        4799326
GRR   008.43 292.3 m E Sn      2011/12/10 23:37:00.1   0.1                          T                2.3  .37 Ml 3.2         4799357
SGMF  009.51 290.0 m E Pn      2011/12/10 23:35:44.5   0.0                          T                                        4799362
BAIF  006.21 316.2 m E Sn      2011/12/10 23:36:09.2   2.3                          T   001.0        2.1  .30 Ml 3.0         4797739

.
EVENT     267432
    Date      Time       Latitude Longitude    Depth    Ndef Nsta Gap    Mag1  N    Mag2  N    Mag3  N   Author         ID
       rms   OT_Error      Smajor Sminor Az        Err   mdist  Mdist     Err        Err        Err      Quality

2011/12/10 23:34:57.1     45.4385    6.5419      2.0      10    5 172  Ml 1.8  1  Md 1.5  2              js067245    267452

      0.14   +-  0.06       1.9     .8  145.42 +-  0.0    0.16   1.45   +-         +-0.2                 m i ke

FRANCE
Sta     Dist  EvAz     Phase      Date       Time     TRes  Azim  AzRes  Slow  SRes Def   SNR       Amp   Per   Mag1   Mag2       ID
LPG   000.16 068.0 m E Pg      2011/12/10 23:35:00.6  -0.2                          T                                        4799344
LPG   000.16 068.0 m E Sg      2011/12/10 23:35:03.0  -0.1                          T               65.9  .20        Md 1.6  4799345
LPL   000.16 059.8 m E Pg      2011/12/10 23:35:00.7   0.1                          T                                        4799347
LPL   000.16 059.8 m E Sg      2011/12/10 23:35:02.8   0.0                          T               92.1  .16        Md 1.4  4799346
ORIF  000.70 222.2 m E Pg      2011/12/10 23:35:10.4  -0.1                          T                                        4799343
ORIF  000.70 222.2 m E Sg      2011/12/10 23:35:19.3  -0.4                          T               18.9  .32                4799342
MBDF  000.73 167.0 m E Pg      2011/12/10 23:35:11.2   0.1                          T                                        4799338
MBDF  000.73 167.0 m E Sg      2011/12/10 23:35:20.6  -0.1                          T               19.8  .38                4799339
VIVF  001.45 246.9 m E Pg      2011/12/10 23:35:24.2   0.1                          T                                        4799340
VIVF  001.45 246.9 m E Sg      2011/12/10 23:35:42.8   0.0                          T                  1  .14 Ml 1.8         4799341

.
