EVENT     292436
    Date      Time       Latitude Longitude    Depth    Ndef Nsta Gap    Mag1  N    Mag2  N    Mag3  N   Author         ID
       rms   OT_Error      Smajor Sminor Az        Err   mdist  Mdist     Err        Err        Err      Quality

2013/02/21 06:27:47.6     42.8352   -1.3209      2.0      19    3 102  Ml 2.1  1  Md 2.0  2              bulletin    292536
                                                                                                         _ldg
      0.46   +-  0.11       2.3    1.8    6.08 +-  0.0    0.06   1.87   +-         +-0.0                 m i ke

PYRENEES
Sta     Dist  EvAz     Phase      Date       Time     TRes  Azim  AzRes  Slow  SRes Def   SNR       Amp   Per   Mag1   Mag2       ID
SJPF  000.29 014.2 m E Pg      2013/02/21 06:27:53.2   0.0                          T                                        5203169
SJPF  000.29 014.2 m E Sg      2013/02/21 06:27:57.1   0.0                          T               54.0  .51        Md 2.0  5203168
ETSF  000.56 083.3 m E Pg      2013/02/21 06:27:58.2  -0.2                          T                                        5203167
ETSF  000.56 083.3 m E Sg      2013/02/21 06:28:06.1   0.3                          T                9.6  .36        Md 2.0  5203166
EPF   001.24 080.4 m E Pg      2013/02/21 06:28:10.8   0.1                          T                                        5203165
EPF   001.24 080.4 m E Sg      2013/02/21 06:28:26.4  -0.3                          T                3.9  .28 Ml 2.1         5203164

.
EVENT     292443
    Date      Time       Latitude Longitude    Depth    Ndef Nsta Gap    Mag1  N    Mag2  N    Mag3  N   Author         ID
       rms   OT_Error      Smajor Sminor Az        Err   mdist  Mdist     Err        Err        Err      Quality

2013/02/21 07:10:57.9     40.9023    1.3300     10.0 f    27    2 200  Ml 2.1  2                         bulletin    292543
                                                                                                         _ldg
      0.74   +-  0.26       4.5    2.6  150.78 +-  0.0    0.49   2.44   +-0.2                            m i ke

BALEARIC ISLANDS, SPAIN
Sta     Dist  EvAz     Phase      Date       Time     TRes  Azim  AzRes  Slow  SRes Def   SNR       Amp   Per   Mag1   Mag2       ID
EPF   002.25 341.2 m E Pn      2013/02/21 07:11:33.7   0.2                          T                                        5203695
EPF   002.25 341.2 m E Sn      2013/02/21 07:12:00.4   0.7                          T                2.1  .23 Ml 2.2         5203694
ETSF  002.44 325.4 m E Pn      2013/02/21 07:11:37.1   0.9                          T                                        5203697
ETSF  002.44 325.4 m E Sn      2013/02/21 07:12:05.3   1.0                          T                1.1  .23 Ml 2.0         5203696

.
EVENT     292479
    Date      Time       Latitude Longitude    Depth    Ndef Nsta Gap    Mag1  N    Mag2  N    Mag3  N   Author         ID
       rms   OT_Error      Smajor Sminor Az        Err   mdist  Mdist     Err        Err        Err      Quality

2013/02/21 12:56:53.6     42.1748   -2.7239     20.0 f    20    3 086  Ml 2.3  3                         bulletin    292579
                                                                                                         _ldg
      1.62   +-  0.38       8.5    6.4  151.57 +-  0.0    1.04   2.42   +-0.1                            m i ke

SPAIN
Sta     Dist  EvAz     Phase      Date       Time     TRes  Azim  AzRes  Slow  SRes Def   SNR       Amp   Per   Mag1   Mag2       ID
SJPF  001.45 049.2 m E Pn      2013/02/21 12:57:19.0   1.8                          T                                        5203986
SJPF  001.45 049.2 m E Sn      2013/02/21 12:57:37.3   2.9                          T                4.4  .26 Ml 2.2         5203983
ETSF  001.76 064.9 m E Pn      2013/02/21 12:57:23.2   1.8                          T                                        5203985
ETSF  001.76 064.9 m E Sn      2013/02/21 12:57:44.7   2.9                          T                5.4  .49 Ml 2.2         5203982
EPF   002.42 068.3 m E Pn      2013/02/21 12:57:32.8   2.4                          T                                        5203984
EPF   002.42 068.3 m E Sn      2013/02/21 12:58:01.8   4.3                          T                4.6  .36 Ml 2.4         5203981

.
EVENT     292480
    Date      Time       Latitude Longitude    Depth    Ndef Nsta Gap    Mag1  N    Mag2  N    Mag3  N   Author         ID
       rms   OT_Error      Smajor Sminor Az        Err   mdist  Mdist     Err        Err        Err      Quality

2013/02/21 13:27:53.3     42.7339   -1.7375      2.0      47   10 086  Ml 2.8  7  Md 2.9  2              bulletin    292580
                                                                                                         _ldg
      0.58   +-  0.10       2.1    1.7  157.78 +-  0.0    0.12   5.03   +-0.3      +-0.1                 m i ke

PYRENEES
Sta     Dist  EvAz     Phase      Date       Time     TRes  Azim  AzRes  Slow  SRes Def   SNR       Amp   Per   Mag1   Mag2       ID
SJPF  000.53 044.6 m E Pg      2013/02/21 13:28:02.9  -0.5                          T                                        5203992
SJPF  000.53 044.6 m E Sg      2013/02/21 13:28:10.5   0.0                          T               73.3  .39        Md 2.8  5203989
ETSF  000.88 078.8 m E Pg      2013/02/21 13:28:09.3  -0.6                          T                                        5203991
ETSF  000.88 078.8 m E Sg      2013/02/21 13:28:21.3  -0.1                          T               14.1  .19 Ml 2.6 Md 3.0  5203988
EPF   001.56 078.3 m E Pn      2013/02/21 13:28:21.6   1.3                          T                                        5203990
EPF   001.56 078.3 m E Sn      2013/02/21 13:28:39.9   0.0                          T               34.9  .29 Ml 3.1         5203987
LFF   002.84 038.3 m E Pn      2013/02/21 13:28:37.8   0.0                          T                                        5204074
MTLF  002.96 076.8 m E Pn      2013/02/21 13:28:39.5   0.0                          T                                        5204072
RJF   003.48 041.3 m E Pn      2013/02/21 13:28:47.0   0.5                          T                                        5204075
RJF   003.48 041.3 m E Sn      2013/02/21 13:29:25.6  -0.2                          T                7.3  .30 Ml 2.6         5204067
CAF   003.52 050.2 m E Pn      2013/02/21 13:28:47.1   0.1                          T                                        5204076
CAF   003.52 050.2 m E Sn      2013/02/21 13:29:26.7  -0.1                          T                4.7  .26 Ml 2.8         5204066
LASF  004.29 069.9 m E Pn      2013/02/21 13:28:57.5   0.0                          T                                        5204073
LASF  004.29 069.9 m E Sn      2013/02/21 13:29:45.0  -0.2                          T                1.6  .28 Ml 2.5         5204065
TCF   004.54 037.1 m E Pn      2013/02/21 13:29:00.9  -0.1                          T                                        5204070
TCF   004.54 037.1 m E Sn      2013/02/21 13:29:51.0  -0.1                          T                2.9  .27 Ml 2.8         5204069
BGF   005.03 039.0 m E Pn      2013/02/21 13:29:07.7   0.1                          T                                        5204071
BGF   005.03 039.0 m E Sn      2013/02/21 13:30:02.9   0.1                          T                9.8  .34 Ml 3.3         5204068

.
EVENT     292481
    Date      Time       Latitude Longitude    Depth    Ndef Nsta Gap    Mag1  N    Mag2  N    Mag3  N   Author         ID
       rms   OT_Error      Smajor Sminor Az        Err   mdist  Mdist     Err        Err        Err      Quality

2013/02/21 13:30:16.7     42.7263   -1.7138      2.0      41    6 084  Ml 2.5  5  Md 2.6  2              bulletin    292581
                                                                                                         _ldg
      0.54   +-  0.08       1.8    1.3  143.76 +-  0.0    0.11   3.75   +-0.2      +-0.1                 m i ke

PYRENEES
Sta     Dist  EvAz     Phase      Date       Time     TRes  Azim  AzRes  Slow  SRes Def   SNR       Amp   Per   Mag1   Mag2       ID
SJPF  000.53 042.7 m E Pg      2013/02/21 13:30:26.3  -0.5                          T                                        5203998
SJPF  000.53 042.7 m E Sg      2013/02/21 13:30:33.8   0.1                          T               31.6  .36        Md 2.5  5203996
ETSF  000.87 078.2 m E Pg      2013/02/21 13:30:32.9  -0.1                          T                                        5203997
ETSF  000.87 078.2 m E Sg      2013/02/21 13:30:44.4   0.1                          T                8.7  .25 Ml 2.3 Md 2.7  5203994
EPF   001.54 077.9 m E Pn      2013/02/21 13:30:43.4  -0.1                          T                                        5203995
EPF   001.54 077.9 m E Sn      2013/02/21 13:31:02.7  -0.2                          T               15.2  .28 Ml 2.8         5203993
LFF   002.84 037.9 m E Pn      2013/02/21 13:31:01.1   0.0                          T                                        5204061
LFF   002.84 037.9 m E Sn      2013/02/21 13:31:33.9   0.0                          T                6.7  .35 Ml 2.5         5204060
CAF   003.51 049.9 m E Pn      2013/02/21 13:31:10.4   0.1                          T                                        5204062
CAF   003.51 049.9 m E Sn      2013/02/21 13:31:50.3   0.3                          T                1.9  .19 Ml 2.5         5204063
RJF   003.47 041.0 m E Pn      2013/02/21 13:31:10.8   1.0                          T                                        5204003
RJF   003.47 041.0 m E Sn      2013/02/21 13:31:49.4   0.3                          T                3.7  .24 Ml 2.4         5204064

.
EVENT     292482
    Date      Time       Latitude Longitude    Depth    Ndef Nsta Gap    Mag1  N    Mag2  N    Mag3  N   Author         ID
       rms   OT_Error      Smajor Sminor Az        Err   mdist  Mdist     Err        Err        Err      Quality

2013/02/21 14:26:52.1     42.7328   -1.7137      2.0      25    3 085  Ml 2.4  2  Md 2.4  2              bulletin    292582
                                                                                                         _ldg
      0.62   +-  0.15       2.8    2.3  151.53 +-  0.0    0.11   2.77   +-0.3      +-0.1                 m i ke

PYRENEES
Sta     Dist  EvAz     Phase      Date       Time     TRes  Azim  AzRes  Slow  SRes Def   SNR       Amp   Per   Mag1   Mag2       ID
SJPF  000.52 043.2 m E Pg      2013/02/21 14:27:02.2   0.2                          T                                        5204023
SJPF  000.52 043.2 m E Sg      2013/02/21 14:27:09.0   0.1                          T               28.1  .40        Md 2.4  5204019
ETSF  000.87 078.6 m E Pg      2013/02/21 14:27:08.2  -0.2                          T                                        5204022
ETSF  000.87 078.6 m E Sg      2013/02/21 14:27:19.8   0.1                          T                7.0  .29 Ml 2.1 Md 2.5  5204059
EPF   001.54 078.2 m E Pn      2013/02/21 14:27:19.3   0.4                          T                                        5204021
EPF   001.54 078.2 m E Sn      2013/02/21 14:27:38.4   0.1                          T               17.7  .48 Ml 2.6         5204020

.
EVENT     292485
    Date      Time       Latitude Longitude    Depth    Ndef Nsta Gap    Mag1  N    Mag2  N    Mag3  N   Author         ID
       rms   OT_Error      Smajor Sminor Az        Err   mdist  Mdist     Err        Err        Err      Quality

2013/02/21 15:16:07.5     42.7432   -1.7342      2.0      41    6 087  Ml 2.4  3  Md 2.3  2              bulletin    292585
                                                                                                         _ldg
      0.58   +-  0.09       2.1    1.5  150.88 +-  0.0    0.12   3.79   +-0.3      +-0.0                 m i ke

PYRENEES
Sta     Dist  EvAz     Phase      Date       Time     TRes  Azim  AzRes  Slow  SRes Def   SNR       Amp   Per   Mag1   Mag2       ID
SJPF  000.53 045.1 m E Pg      2013/02/21 15:16:17.3  -0.3                          T                                        5204131
SJPF  000.53 045.1 m E Sg      2013/02/21 15:16:24.6   0.1                          T               25.3  .33        Md 2.3  5204129
ETSF  000.88 079.4 m E Pg      2013/02/21 15:16:24.0  -0.2                          T                                        5204130
ETSF  000.88 079.4 m E Sg      2013/02/21 15:16:35.5  -0.1                          T               25.5  .46 Ml 2.5 Md 2.3  5204128
EPF   001.55 078.6 m E Pn      2013/02/21 15:16:34.5   0.0                          T                                        5204127
EPF   001.55 078.6 m E Sn      2013/02/21 15:16:53.9  -0.1                          T               10.9  .28 Ml 2.6         5204122
LFF   002.83 038.3 m E Pn      2013/02/21 15:16:51.4  -0.5                          T                                        5204126
RJF   003.47 041.4 m E Pn      2013/02/21 15:17:00.8   0.1                          T                                        5204125
RJF   003.47 041.4 m E Sn      2013/02/21 15:17:40.2   0.3                          T                2.1  .26 Ml 2.1         5204123
CAF   003.51 050.3 m E Pn      2013/02/21 15:17:01.2   0.0                          T                                        5204124

.
EVENT     292493
    Date      Time       Latitude Longitude    Depth    Ndef Nsta Gap    Mag1  N    Mag2  N    Mag3  N   Author         ID
       rms   OT_Error      Smajor Sminor Az        Err   mdist  Mdist     Err        Err        Err      Quality

2013/02/21 16:33:29.6     42.7278   -1.7440      2.0      20    3 105  Ml 1.9  2  Md 1.8  2              bulletin    292593
                                                                                                         _ldg
      0.50   +-  0.15       2.6    2.2    4.20 +-  0.0    0.13   1.92   +-0.2      +-0.1                 m i ke

PYRENEES
Sta     Dist  EvAz     Phase      Date       Time     TRes  Azim  AzRes  Slow  SRes Def   SNR       Amp   Per   Mag1   Mag2       ID
SJPF  000.54 044.5 m E Pg      2013/02/21 16:33:39.8  -0.1                          T                                        5204174
SJPF  000.54 044.5 m E Sg      2013/02/21 16:33:47.1   0.1                          T                5.6  .29        Md 1.9  5204171
ETSF  000.89 078.5 m E Pg      2013/02/21 16:33:46.3   0.0                          T                                        5204173
ETSF  000.89 078.5 m E Sg      2013/02/21 16:33:57.7  -0.2                          T                2.5  .24 Ml 1.8 Md 1.7  5204170
EPF   001.56 078.1 m E Pn      2013/02/21 16:33:56.5  -0.2                          T                                        5204172
EPF   001.56 078.1 m E Sn      2013/02/21 16:34:16.1  -0.2                          T                2.4  .26 Ml 2.0         5204169

.
