EVENT     294850
    Date      Time       Latitude Longitude    Depth    Ndef Nsta Gap    Mag1  N    Mag2  N    Mag3  N   Author         ID
       rms   OT_Error      Smajor Sminor Az        Err   mdist  Mdist     Err        Err        Err      Quality

2013/03/27 11:11:10.3     43.6760    6.9728       .0 f    21    6 154  Ml 2.0  4  Md 2.4  3              bulletin    294950
                                                                                                         _ldg
      0.86   +-  0.28       5.8    3.9  145.79 +-  0.0    0.09   3.32   +-0.1      +-0.0                 m i km

NEAR SOUTH COAST OF FRANCE
Sta     Dist  EvAz     Phase      Date       Time     TRes  Azim  AzRes  Slow  SRes Def   SNR       Amp   Per   Mag1   Mag2       ID
FRF   000.26 244.2 m E Pg      2013/03/27 11:11:14.9  -0.7                          T                                        5237885
FRF   000.26 244.2 m E Sg      2013/03/27 11:11:20.1   0.6                          T               39.1  .67        Md 2.4  5237884
SBF   000.38 060.7 m E Pg      2013/03/27 11:11:17.4  -0.6                          T                                        5237881
SBF   000.38 060.7 m E Sg      2013/03/27 11:11:25.0   1.7                          T               21.4  .55        Md 2.4  5237880
LMR   000.48 224.8 m E Pg      2013/03/27 11:11:19.2  -0.5                          T                                        5237883
LMR   000.48 224.8 m E Sg      2013/03/27 11:11:26.3   0.1                          T                1.5  .22        Md 2.3  5237882
MBDF  001.06 352.2 m E Pg      2013/03/27 11:11:30.2  -0.3                          T                                        5237907
MBDF  001.06 352.2 m E Sg      2013/03/27 11:11:44.4  -0.1                          T                7.0  .68 Ml 1.9         5237906
SMRF  001.05 287.0 m E Pg      2013/03/27 11:11:31.0   0.6                          T                                        5237905
SMRF  001.05 287.0 m E Sg      2013/03/27 11:11:46.0   1.8                          T                6.5  .39 Ml 2.1         5237904
ORIF  001.47 328.1 m E Pg      2013/03/27 11:11:37.8  -0.2                          T                                        5237909
ORIF  001.47 328.1 m E Sg      2013/03/27 11:11:57.6   0.4                          T                5.1  .65 Ml 1.9         5237908

.
EVENT     294852
    Date      Time       Latitude Longitude    Depth    Ndef Nsta Gap    Mag1  N    Mag2  N    Mag3  N   Author         ID
       rms   OT_Error      Smajor Sminor Az        Err   mdist  Mdist     Err        Err        Err      Quality

2013/03/27 12:02:53.7     42.7011   -1.6675      2.0      22    4 103  Ml 2.1  3  Md 2.4  2              bulletin    294952
                                                                                                         _ldg
      0.66   +-  0.16       3.3    2.4  134.40 +-  0.0    0.10   2.92   +-0.2      +-0.0                 m i ke

PYRENEES
Sta     Dist  EvAz     Phase      Date       Time     TRes  Azim  AzRes  Slow  SRes Def   SNR       Amp   Per   Mag1   Mag2       ID
SJPF  000.52 038.1 m E Pg      2013/03/27 12:03:04.4   0.7                          T                                Md 2.5  5237926
SJPF  000.52 038.1 m E Sg      2013/03/27 12:03:11.4   0.7                          T               26.9  .25                5237925
ETSF  000.84 076.0 m E Pg      2013/03/27 12:03:09.4  -0.2                          T                                Md 2.4  5237922
ETSF  000.84 076.0 m E Sg      2013/03/27 12:03:21.3   0.8                          T                7.8  .36                5237921
EPF   001.51 076.8 m E Pg      2013/03/27 12:03:22.4   0.5                          T                                        5237924
EPF   001.51 076.8 m E Sg      2013/03/27 12:03:42.4   0.9                          T                8.1  .39 Ml 2.4         5237923
MTLF  002.92 076.0 m E Pn      2013/03/27 12:03:39.7   0.4                          T                                        5244308
MTLF  002.92 076.0 m E Sn      2013/03/27 12:04:12.7  -0.1                          T                                        5244307
MTLF  002.92 076.0 m E Sg      2013/03/27 12:04:25.3  -0.1                          T                 .9  .26 Ml 1.9         5244306

.
EVENT     294858
    Date      Time       Latitude Longitude    Depth    Ndef Nsta Gap    Mag1  N    Mag2  N    Mag3  N   Author         ID
       rms   OT_Error      Smajor Sminor Az        Err   mdist  Mdist     Err        Err        Err      Quality

2013/03/27 13:14:14.1     43.3752    -.9745      2.0       6    3 254  Ml 1.5  1  Md 1.5  2              bulletin    294958
                                                                                                         _ldg
      0.06   +-  0.08       1.7     .6  165.86 +-  0.0    0.32   1.02   +-         +-0.0                 m i ke

PYRENEES
Sta     Dist  EvAz     Phase      Date       Time     TRes  Azim  AzRes  Slow  SRes Def   SNR       Amp   Per   Mag1   Mag2       ID
SJPF  000.32 215.1 m E Pg      2013/03/27 13:14:20.4   0.0                          T                                        5237959
SJPF  000.32 215.1 m E Sg      2013/03/27 13:14:24.5  -0.1                          T                8.2  .25        Md 1.5  5237958
ETSF  000.57 147.3 m E Pg      2013/03/27 13:14:24.9   0.0                          T                                        5237957
ETSF  000.57 147.3 m E Sg      2013/03/27 13:14:32.4   0.0                          T                2.5  .31        Md 1.4  5237956
EPF   001.02 109.3 m E Pg      2013/03/27 13:14:33.3   0.0                          T                                        5237961
EPF   001.02 109.3 m E Sg      2013/03/27 13:14:46.5  -0.1                          T                1.1  .23 Ml 1.5         5237960

.
EVENT     294926
    Date      Time       Latitude Longitude    Depth    Ndef Nsta Gap    Mag1  N    Mag2  N    Mag3  N   Author         ID
       rms   OT_Error      Smajor Sminor Az        Err   mdist  Mdist     Err        Err        Err      Quality

2013/03/27 17:47:02.4     50.4391    5.8109     20.0 f    21    4 088  Ml 2.1  3  Md 2.1  2              bulletin    295026
                                                                                                         _ldg
      0.17   +-  0.04        .9     .9  105.75 +-  0.0    0.15   2.00   +-0.5      +-0.0                 m i ke

BELGIUM
Sta     Dist  EvAz     Phase      Date       Time     TRes  Azim  AzRes  Slow  SRes Def   SNR       Amp   Per   Mag1   Mag2       ID
GIVF  000.72 242.4 m E Pg      2013/03/27 17:47:16.4   0.0                          T                                        5238827
GIVF  000.72 242.4 m E Sg      2013/03/27 17:47:25.7  -0.3                          T                2.9  .21        Md 2.1  5238828
BAIF  001.10 250.3 m E Pn      2013/03/27 17:47:21.2   0.1                          T                                        5238825
BAIF  001.10 250.3 m E Sn      2013/03/27 17:47:34.8   0.0                          T                1.3  .23 Ml 1.6 Md 2.1  5238826
PAGF  001.89 181.7 m E Pn      2013/03/27 17:47:32.0   0.1                          T                                        5238823
PAGF  001.89 181.7 m E Sn      2013/03/27 17:47:53.5  -0.1                          T                3.3  .35 Ml 2.2         5238824
MEZF  002.00 194.6 m E Pn      2013/03/27 17:47:33.5   0.1                          T                                        5238821
MEZF  002.00 194.6 m E Sn      2013/03/27 17:47:56.4   0.1                          T                5.0  .23 Ml 2.5         5238822

.
EVENT     294877
    Date      Time       Latitude Longitude    Depth    Ndef Nsta Gap    Mag1  N    Mag2  N    Mag3  N   Author         ID
       rms   OT_Error      Smajor Sminor Az        Err   mdist  Mdist     Err        Err        Err      Quality

2013/03/27 22:42:52.7     46.8909    7.3924      2.0      12    6 064  Ml 1.6  6  Md 1.8  2              bulletin    294977
                                                                                                         _ldg
      0.27   +-  0.08       1.6    1.3   94.95 +-  0.0    0.28   2.44   +-0.4      +-0.1                 m i ke

SWITZERLAND
Sta     Dist  EvAz     Phase      Date       Time     TRes  Azim  AzRes  Slow  SRes Def   SNR       Amp   Per   Mag1   Mag2       ID
CABF  000.94 253.1 m E Pg      2013/03/27 22:43:10.5   0.1                          T                                        5238092
CABF  000.94 253.1 m E Sg      2013/03/27 22:43:22.4  -0.3                          T                 .5  .17 Ml 1.2 Md 1.7  5238091
HINF  001.00 338.6 m E Pg      2013/03/27 22:43:11.6   0.1                          T                                        5238171
HINF  001.00 338.6 m E Sg      2013/03/27 22:43:24.4   0.0                          T                                        5245890
HINF  001.00 338.6 m E Sn      2013/03/27 22:43:26.2   0.2                          T                2.5  .20 Ml 1.9 Md 1.9  5238090
HAU   001.32 327.9 m E Pg      2013/03/27 22:43:17.5   0.1                          T                                        5245891
HAU   001.32 327.9 m E Sg      2013/03/27 22:43:34.6   0.1                          T                2.7  .22 Ml 1.8         5245894
CDF   001.52 357.1 m E Pg      2013/03/27 22:43:21.0  -0.3                          T                                        5245892
CDF   001.52 357.1 m E Sg      2013/03/27 22:43:41.2   0.2                          T                1.4  .21 Ml 2.0         5238094
LPL   001.45 198.7 m E Sg      2013/03/27 22:43:38.0  -0.8                          T                 .3  .25 Ml 1.1         5245889
LOR   002.44 280.2 m E Sg      2013/03/27 22:44:09.6   0.0                          T                 .5  .20 Ml 1.7         5245893

.
EVENT     294932
    Date      Time       Latitude Longitude    Depth    Ndef Nsta Gap    Mag1  N    Mag2  N    Mag3  N   Author         ID
       rms   OT_Error      Smajor Sminor Az        Err   mdist  Mdist     Err        Err        Err      Quality

2013/03/27 22:57:50.0     46.0468    6.8281      2.0      14    5 143  Ml 1.3  3  Md 1.5  2              bulletin    295032
                                                                                                         _ldg
      0.13   +-  0.05       1.5     .6  120.55 +-  0.0    0.14   1.93   +-0.3      +-0.0                 m i ke

SWITZERLAND
Sta     Dist  EvAz     Phase      Date       Time     TRes  Azim  AzRes  Slow  SRes Def   SNR       Amp   Per   Mag1   Mag2       ID
LPL   000.53 187.2 m E Pg      2013/03/27 22:58:00.4  -0.1                          T                                        5238936
LPL   000.53 187.2 m E Sg      2013/03/27 22:58:07.6   0.0                          T                 .9  .31        Md 1.5  5238935
LPG   000.55 185.6 m E Pg      2013/03/27 22:58:00.8  -0.1                          T                                        5238938
LPG   000.55 185.6 m E Sg      2013/03/27 22:58:08.1   0.0                          T                1.0  .19        Md 1.5  5238937
ORIF  001.31 210.9 m E Pg      2013/03/27 22:58:14.7   0.0                          T                                        5238929
ORIF  001.31 210.9 m E Sg      2013/03/27 22:58:31.7   0.1                          T                 .5  .26 Ml 1.2         5238930
MBDF  001.32 181.8 m E Pg      2013/03/27 22:58:15.0   0.1                          T                                        5238932
MBDF  001.32 181.8 m E Sg      2013/03/27 22:58:32.3   0.3                          T                 .3  .20 Ml 1.1         5238931
VIVF  001.93 232.6 m E Pg      2013/03/27 22:58:25.9  -0.1                          T                                        5238934
VIVF  001.93 232.6 m E Sg      2013/03/27 22:58:50.7  -0.1                          T                 .6  .19 Ml 1.7         5238933

.
EVENT     294878
    Date      Time       Latitude Longitude    Depth    Ndef Nsta Gap    Mag1  N    Mag2  N    Mag3  N   Author         ID
       rms   OT_Error      Smajor Sminor Az        Err   mdist  Mdist     Err        Err        Err      Quality

2013/03/27 22:59:38.3     45.9470    6.8531      2.0      21    7 086  Ml 1.3  4  Md 1.5  2              bulletin    294978
                                                                                                         _ldg
      0.40   +-  0.08       2.7    1.3  107.43 +-  0.0    0.21   1.88   +-0.3      +-0.2                 m i ke

FRANCE
Sta     Dist  EvAz     Phase      Date       Time     TRes  Azim  AzRes  Slow  SRes Def   SNR       Amp   Per   Mag1   Mag2       ID
LPL   000.44 191.1 m E Pg      2013/03/27 22:59:46.4  -0.6                          T                                        5238102
LPL   000.44 191.1 m E Sg      2013/03/27 22:59:52.4  -0.4                          T                2.0  .43        Md 1.7  5238100
LPG   000.46 189.0 m E Pg      2013/03/27 22:59:46.9  -0.5                          T                                        5238103
LPG   000.46 189.0 m E Sg      2013/03/27 22:59:54.2   0.8                          T                2.1  .27        Md 1.4  5238101
CABF  000.85 321.6 m E Pg      2013/03/27 22:59:54.1  -0.3                          T                                        5244314
CABF  000.85 321.6 m E Sg      2013/03/27 23:00:05.2  -0.3                          T                 .4  .22                5244313
MBDF  001.22 182.7 m E Pn      2013/03/27 23:00:01.1   0.2                          T                                        5244310
MBDF  001.22 182.7 m E Sn      2013/03/27 23:00:16.9  -0.2                          T                 .2  .19 Ml  .9         5244309
ORIF  001.24 214.0 m E Pn      2013/03/27 23:00:01.2   0.2                          T                                        5238099
ORIF  001.24 214.0 m E Sn      2013/03/27 23:00:17.5   0.1                          T                 .5  .23 Ml 1.3         5238098
HINF  001.87 360.0 m E Pn      2013/03/27 23:00:09.9   0.3                          T                                        5244312
HINF  001.87 360.0 m E Sn      2013/03/27 23:00:32.7   0.2                          T                 .3  .18 Ml 1.4         5244311
VIVF  001.88 235.4 m E Pn      2013/03/27 23:00:10.3   0.5                          T                                        5238152
VIVF  001.88 235.4 m E Sn      2013/03/27 23:00:33.1   0.4                          T                 .8  .25 Ml 1.7         5238151

.
EVENT     294879
    Date      Time       Latitude Longitude    Depth    Ndef Nsta Gap    Mag1  N    Mag2  N    Mag3  N   Author         ID
       rms   OT_Error      Smajor Sminor Az        Err   mdist  Mdist     Err        Err        Err      Quality

2013/03/27 23:19:20.6     44.4830    7.0683      5.0 f    35    8 045  Ml 1.5  6  Md 1.7  2              bulletin    294979
                                                                                                         _ldg
      0.22   +-  0.04        .9     .6   67.59 +-  0.0    0.03   1.22   +-0.2      +-0.0                 m i ke

NORTHERN ITALY
Sta     Dist  EvAz     Phase      Date       Time     TRes  Azim  AzRes  Slow  SRes Def   SNR       Amp   Per   Mag1   Mag2       ID
MBDF  000.32 319.1 m E Pg      2013/03/27 23:19:27.2   0.0                          T                                        5238130
MBDF  000.32 319.1 m E Sg      2013/03/27 23:19:31.8   0.3                          T                5.1  .25        Md 1.7  5238134
SBF   000.67 156.8 m E Pg      2013/03/27 23:19:33.8   0.3                          T                                        5238157
SBF   000.67 156.8 m E Sg      2013/03/27 23:19:42.5   0.2                          T                                Md 1.7  5238158
ORIF  000.95 297.6 m E Pg      2013/03/27 23:19:38.2  -0.4                          T                                        5238153
ORIF  000.95 297.6 m E Sg      2013/03/27 23:19:51.0   0.0                          T                 .8  .26 Ml 1.3         5238154
FRF   000.97 198.4 m E Pg      2013/03/27 23:19:39.2   0.4                          T                                        5238127
FRF   000.97 198.4 m E Sg      2013/03/27 23:19:51.6   0.1                          T                2.2  .24 Ml 1.8         5238132
LPL   001.06 347.1 m E Pg      2013/03/27 23:19:40.3  -0.4                          T                                        5238129
LPL   001.06 347.1 m E Sg      2013/03/27 23:19:54.6   0.1                          T                  1  .29 Ml 1.4         5238133
LPG   001.04 347.6 m E Pg      2013/03/27 23:19:40.4   0.0                          T                                        5238128
LPG   001.04 347.6 m E Sg      2013/03/27 23:19:54.0   0.1                          T                 .7  .18 Ml 1.4         5238159
SMRF  001.19 245.2 m E Pg      2013/03/27 23:19:42.7  -0.2                          T                                        5238155
SMRF  001.19 245.2 m E Sg      2013/03/27 23:19:58.2  -0.1                          T                 .6  .21 Ml 1.4         5238156
LMR   001.22 199.6 m E Pg      2013/03/27 23:19:43.5   0.2                          T                                        5238126
LMR   001.22 199.6 m E Sg      2013/03/27 23:19:59.1   0.0                          T                1.0  .17 Ml 1.7         5238131

.
EVENT     294880
    Date      Time       Latitude Longitude    Depth    Ndef Nsta Gap    Mag1  N    Mag2  N    Mag3  N   Author         ID
       rms   OT_Error      Smajor Sminor Az        Err   mdist  Mdist     Err        Err        Err      Quality

2013/03/28 00:53:51.8     42.7027   -1.7642      2.0      25    3 107  Ml 1.6  2  Md 1.7  2              bulletin    294980
                                                                                                         _ldg
      0.60   +-  0.15       2.7    2.3  106.19 +-  0.0    0.15   2.53   +-0.3      +-0.0                 m i ke

PYRENEES
Sta     Dist  EvAz     Phase      Date       Time     TRes  Azim  AzRes  Slow  SRes Def   SNR       Amp   Per   Mag1   Mag2       ID
SJPF  000.57 043.8 m E Pg      2013/03/28 00:54:02.7   0.1                          T                                        5238137
SJPF  000.57 043.8 m E Sg      2013/03/28 00:54:09.9  -0.2                          T                3.6  .21        Md 1.7  5238140
ETSF  000.91 077.1 m E Pg      2013/03/28 00:54:09.0   0.1                          T                                        5238136
ETSF  000.91 077.1 m E Sg      2013/03/28 00:54:20.6  -0.1                          T                 .9  .22 Ml 1.4 Md 1.7  5238139
EPF   001.58 077.3 m E Pg      2013/03/28 00:54:21.5   0.3                          T                                        5238135
EPF   001.58 077.3 m E Sg      2013/03/28 00:54:41.7   0.0                          T                1.2  .20 Ml 1.9         5238138

.
