EVENT     286187
    Date      Time       Latitude Longitude    Depth    Ndef Nsta Gap    Mag1  N    Mag2  N    Mag3  N   Author         ID
       rms   OT_Error      Smajor Sminor Az        Err   mdist  Mdist     Err        Err        Err      Quality

2012/10/22 18:11:56.8     43.2720   10.8185     10.0 f    18    4 150  Ml 2.1  5  Md 2.2  1              bulletin    286287
                                                                                                         _ldg
      0.49   +-  0.13       2.9    1.9   96.18 +-  0.0    0.68   3.15   +-0.4      +-                    m i ke

CENTRAL ITALY
Sta     Dist  EvAz     Phase      Date       Time     TRes  Azim  AzRes  Slow  SRes Def   SNR       Amp   Per   Mag1   Mag2       ID
PGF   001.52 242.2 m E Pn      2012/10/22 18:12:22.8   0.3                          T                                        5108233
PGF   001.52 242.2 m E Sn      2012/10/22 18:12:41.1  -0.1                          T                8.2  .34 Ml 2.7 Md 2.2  5108232
SBF   002.53 284.7 m E Pn      2012/10/22 18:12:36.1  -0.2                          T                                        5108231
SBF   002.53 284.7 m E Sn      2012/10/22 18:13:05.3   0.1                          T                1.5  .28 Ml 2.0         5108230
FRF   003.05 276.8 m E Pn      2012/10/22 18:12:43.9   0.6                          T                                        5108227
FRF   003.05 276.8 m E Sn      2012/10/22 18:13:18.3   0.6                          T                 .4  .22 Ml 1.8         5108226
LMR   003.15 272.6 m E Pn      2012/10/22 18:12:44.9   0.3                          T                                        5108229
LMR   003.15 272.6 m E Sn      2012/10/22 18:13:19.4  -0.5                          T                 .3  .19 Ml 1.6         5108228

.
EVENT     285595
    Date      Time       Latitude Longitude    Depth    Ndef Nsta Gap    Mag1  N    Mag2  N    Mag3  N   Author         ID
       rms   OT_Error      Smajor Sminor Az        Err   mdist  Mdist     Err        Err        Err      Quality

2012/10/22 19:46:51.1     44.4710    6.9795      5.0 f    45    8 047  Ml 1.9  8  Md 2.2  2              bulletin    285695
                                                                                                         _ldg
      0.30   +-  0.04        .9     .6   52.14 +-  0.0    0.09   2.42   +-0.5      +-0.0                 m i ke

FRANCE
Sta     Dist  EvAz     Phase      Date       Time     TRes  Azim  AzRes  Slow  SRes Def   SNR       Amp   Per   Mag1   Mag2       ID
MBDF  000.30 329.9 m E Pg      2012/10/22 19:46:56.9  -0.3                          T                                        5102555
MBDF  000.30 329.9 m E Sg      2012/10/22 19:47:01.6   0.3                          T                8.1  .20        Md 2.2  5102550
SBF   000.69 151.5 m E Pg      2012/10/22 19:47:04.0  -0.3                          T                                        5102551
SBF   000.69 151.5 m E Pn      2012/10/22 19:47:06.4   0.3                          T                                        5109373
SBF   000.69 151.5 m E Sg      2012/10/22 19:47:13.2  -0.1                          T                4.8  .23                5102545
SBF   000.69 151.5 m E Sn      2012/10/22 19:47:17.0   0.5                          T                                Md 2.2  5109374
ORIF  000.90 300.1 m E Pg      2012/10/22 19:47:08.1  -0.1                          T                                        5102554
ORIF  000.90 300.1 m E Sg      2012/10/22 19:47:19.9  -0.1                          T                2.7  .24 Ml 1.8         5102549
LPG   001.04 351.1 m E Pg      2012/10/22 19:47:11.0   0.0                          T                                        5109379
LPG   001.04 351.1 m E Sg      2012/10/22 19:47:24.6   0.1                          T                2.0  .26 Ml 1.7         5109378
LPL   001.06 350.6 m E Pg      2012/10/22 19:47:11.2  -0.1                          T                                        5102553
LPL   001.06 350.6 m E Sg      2012/10/22 19:47:25.2   0.1                          T                2.2  .30 Ml 1.7         5102557
SMRF  001.12 244.4 m E Pg      2012/10/22 19:47:12.5   0.3                          T                                        5102546
SMRF  001.12 244.4 m E Sg      2012/10/22 19:47:26.6  -0.2                          T                1.1  .19 Ml 1.6         5102548
LMR   001.19 196.8 m E Pg      2012/10/22 19:47:13.4   0.1                          T                                        5102552
LMR   001.19 196.8 m E Sg      2012/10/22 19:47:28.6  -0.1                          T                9.7  .22 Ml 2.6         5102547
VIVF  001.69 284.0 m E Pn      2012/10/22 19:47:19.9   0.2                          T                                        5109377
VIVF  001.69 284.0 m E Pg      2012/10/22 19:47:22.6  -0.1                          T                                        5109376
VIVF  001.69 284.0 m E Sn      2012/10/22 19:47:40.9   0.5                          T                 .5  .24 Ml 1.5         5109375

.
EVENT     285596
    Date      Time       Latitude Longitude    Depth    Ndef Nsta Gap    Mag1  N    Mag2  N    Mag3  N   Author         ID
       rms   OT_Error      Smajor Sminor Az        Err   mdist  Mdist     Err        Err        Err      Quality

2012/10/22 20:14:17.3     45.6537    6.1954      2.0      31   10 114  Ml 1.7  9  Md 2.0  3              bulletin    285696
                                                                                                         _ldg
      0.50   +-  0.06       1.5    1.0   62.12 +-  0.0    0.40   2.29   +-0.3      +-0.1                 m i ke

FRANCE
Sta     Dist  EvAz     Phase      Date       Time     TRes  Azim  AzRes  Slow  SRes Def   SNR       Amp   Per   Mag1   Mag2       ID
LPL   000.40 109.8 m E Pg      2012/10/22 20:14:25.6   0.2                          T                                        5102565
LPL   000.40 109.8 m E Sg      2012/10/22 20:14:30.6  -0.1                          T                1.1  .27        Md 2.1  5102562
ORIF  000.77 197.0 m E Pg      2012/10/22 20:14:31.4  -0.6                          T                                        5102561
ORIF  000.77 197.0 m E Sg      2012/10/22 20:14:42.2   0.2                          T                1.7  .26        Md 1.9  5102560
CABF  000.96 355.6 m E Pg      2012/10/22 20:14:34.5  -1.0                          T                                        5102580
CABF  000.96 355.6 m E Pn      2012/10/22 20:14:36.2  -0.1                          T                                        5109385
CABF  000.96 355.6 m E Sg      2012/10/22 20:14:47.5  -0.4                          T                2.0  .21 Ml 1.8         5102558
CABF  000.96 355.6 m E Sn      2012/10/22 20:14:49.3  -0.4                          T                                        5109386
MBDF  001.01 156.1 m E Pg      2012/10/22 20:14:36.7   0.2                          T                                        5102579
MBDF  001.01 156.1 m E Pn      2012/10/22 20:14:37.4   0.3                          T                                        5109383
MBDF  001.01 156.1 m E Sg      2012/10/22 20:14:49.7   0.1                          T                 .5  .24 Ml 1.1         5102578
VIVF  001.34 234.0 m E Pn      2012/10/22 20:14:41.5   0.1                          T                                        5102564
VIVF  001.34 234.0 m E Pg      2012/10/22 20:14:42.4   0.0                          T                                        5102577
VIVF  001.34 234.0 m E Sn      2012/10/22 20:14:58.9   0.1                          T                1.3  .16 Ml 1.9         5102563
SMF   001.91 302.1 m E Pn      2012/10/22 20:14:49.3   0.0                          T                                        5102576
SMF   001.91 302.1 m E Pg      2012/10/22 20:14:53.1   0.1                          T                                        5102575
SMF   001.91 302.1 m E Sn      2012/10/22 20:15:12.6   0.2                          T                1.8  .21 Ml 2.1         5102574
SBF   002.00 153.3 m E Pn      2012/10/22 20:14:50.2  -0.2                          T                                        5102571
SBF   002.00 153.3 m E Sn      2012/10/22 20:15:14.6   0.1                          T                 .6  .24 Ml 1.6         5102570
LOR   002.28 315.8 m E Pn      2012/10/22 20:14:54.1  -0.2                          T                                        5102582
LOR   002.28 315.8 m E Sn      2012/10/22 20:15:21.1  -0.3                          T                1.1  .30 Ml 1.9         5102581
AVF   002.28 301.0 m E Pn      2012/10/22 20:14:54.4   0.2                          T                                        5102573
AVF   002.28 301.0 m E Pg      2012/10/22 20:14:59.8   0.2                          T                                        5109384
AVF   002.28 301.0 m E Sn      2012/10/22 20:15:21.0  -0.1                          T                 .2  .18 Ml 1.3         5102572
LASF  002.29 227.3 m E Pn      2012/10/22 20:14:54.6   0.2                          T                                        5109382
LASF  002.29 227.3 m E Sn      2012/10/22 20:15:21.7   0.2                          T                                        5109380
LASF  002.29 227.3 m E Sg      2012/10/22 20:15:29.7   0.3                          T                 .9  .27 Ml 1.8         5109381

.
EVENT     285597
    Date      Time       Latitude Longitude    Depth    Ndef Nsta Gap    Mag1  N    Mag2  N    Mag3  N   Author         ID
       rms   OT_Error      Smajor Sminor Az        Err   mdist  Mdist     Err        Err        Err      Quality

2012/10/22 22:18:39.8     42.9291    -.2950      2.0      12    5 183  Ml 1.0  3  Md 1.2  3              bulletin    285697
                                                                                                         _ldg
      0.19   +-  0.08       4.4    1.1  173.23 +-  0.0    0.20   2.62   +-0.5      +-0.1                 m i ke

PYRENEES
Sta     Dist  EvAz     Phase      Date       Time     TRes  Azim  AzRes  Slow  SRes Def   SNR       Amp   Per   Mag1   Mag2       ID
ETSF  000.20 261.2 m E Pg      2012/10/22 22:18:43.7  -0.1                          T                                        5102586
ETSF  000.20 261.2 m E Sg      2012/10/22 22:18:46.2  -0.3                          T                4.0  .18        Md 1.3  5102585
EPF   000.48 077.5 m E Pg      2012/10/22 22:18:48.7  -0.3                          T                                        5102584
EPF   000.48 077.5 m E Sg      2012/10/22 22:18:55.1  -0.2                          T                 .7  .20        Md 1.2  5102583
SJPF  000.71 285.4 m E Pg      2012/10/22 22:18:53.2   0.0                          T                                        5102590
SJPF  000.71 285.4 m E Sg      2012/10/22 22:19:02.4   0.1                          T                 .2  .22        Md 1.1  5102587
MTLF  001.88 076.5 m E Pn      2012/10/22 22:19:11.2   0.0                          T                                        5102589
MTLF  001.88 076.5 m E Sn      2012/10/22 22:19:34.5   0.3                          T                 .2  .24 Ml 1.1         5102588
CAF   002.62 039.7 m E Pn      2012/10/22 22:19:21.4   0.0                          T                                        5102594
CAF   002.62 039.7 m E Sn      2012/10/22 22:19:51.9  -0.1                          T                 .2  .19 Ml 1.4         5102593

.
EVENT     285600
    Date      Time       Latitude Longitude    Depth    Ndef Nsta Gap    Mag1  N    Mag2  N    Mag3  N   Author         ID
       rms   OT_Error      Smajor Sminor Az        Err   mdist  Mdist     Err        Err        Err      Quality

2012/10/23 01:17:19.3     43.1281    -.4065      2.0      10    5 115  Ml 1.1  2  Md 1.3  3              bulletin    285700
                                                                                                         _ldg
      0.39   +-  0.13       4.0    2.5  161.25 +-  0.0    0.26   1.99   +-0.5      +-0.1                 m i ke

PYRENEES
Sta     Dist  EvAz     Phase      Date       Time     TRes  Azim  AzRes  Slow  SRes Def   SNR       Amp   Per   Mag1   Mag2       ID
ETSF  000.26 206.1 m E Pg      2012/10/23 01:17:24.2  -0.2                          T                                        5102600
ETSF  000.26 206.1 m E Sg      2012/10/23 01:17:28.8   0.9                          T                 .5  .15        Md 1.4  5102599
EPF   000.56 099.9 m E Pg      2012/10/23 01:17:29.8  -0.1                          T                                        5102597
EPF   000.56 099.9 m E Sg      2012/10/23 01:17:36.9  -0.3                          T                 .4  .20        Md 1.3  5102598
SJPF  000.60 268.9 m E Pg      2012/10/23 01:17:30.5  -0.2                          T                                        5102596
SJPF  000.60 268.9 m E Sg      2012/10/23 01:17:38.4  -0.1                          T                 .2  .23        Md 1.1  5102595
MTLF  001.93 082.8 m E Pn      2012/10/23 01:17:51.8   0.5                          T                                        5102602
MTLF  001.93 082.8 m E Sn      2012/10/23 01:18:14.0  -0.8                          T                 .1  .21 Ml  .7         5102601
LFF   001.99 024.2 m E Pn      2012/10/23 01:17:52.3   0.1                          T                                        5102604
LFF   001.99 024.2 m E Sn      2012/10/23 01:18:16.2   0.0                          T                 .4  .18 Ml 1.4         5102603

.
EVENT     285602
    Date      Time       Latitude Longitude    Depth    Ndef Nsta Gap    Mag1  N    Mag2  N    Mag3  N   Author         ID
       rms   OT_Error      Smajor Sminor Az        Err   mdist  Mdist     Err        Err        Err      Quality

2012/10/23 02:15:39.3     37.1637  -12.9874     20.0 f    48    3 297  Ml 3.5  3                         bulletin    285702
                                                                                                         _ldg
      0.80   +-  0.48       9.6    6.5   61.15 +-  0.0    3.32  12.77   +-0.1                            m i ke

NORTH ATLANTIC OCEAN
Sta     Dist  EvAz     Phase      Date       Time     TRes  Azim  AzRes  Slow  SRes Def   SNR       Amp   Per   Mag1   Mag2       ID
SJPF  010.78 052.9 m E Pn      2012/10/23 02:18:10.0   0.0                          T                                        5102649
SJPF  010.78 052.9 m E Sn      2012/10/23 02:20:04.6   1.4                          T                1.8  .37 Ml 3.5         5102806
ETSF  011.11 055.1 m E Pn      2012/10/23 02:18:14.5  -0.1                          T                                        5102648
ETSF  011.11 055.1 m E Sn      2012/10/23 02:20:12.3   1.2                          T                  1  .26 Ml 3.5         5102805
EPF   011.76 056.0 m E Pn      2012/10/23 02:18:24.4   1.0                          T                                        5102647
EPF   011.76 056.0 m E Sn      2012/10/23 02:20:26.8   0.1                          T                1.5  .37 Ml 3.6         5102804

.
EVENT     285603
    Date      Time       Latitude Longitude    Depth    Ndef Nsta Gap    Mag1  N    Mag2  N    Mag3  N   Author         ID
       rms   OT_Error      Smajor Sminor Az        Err   mdist  Mdist     Err        Err        Err      Quality

2012/10/23 02:16:21.0     37.2487  -12.8755     20.0 f    40    4 295  Ml 3.4  3                         bulletin    285703
                                                                                                         _ldg
      0.77   +-  0.45       7.8    6.9   54.27 +-  0.0    3.24  11.64   +-0.1                            m i ke

NORTH ATLANTIC OCEAN
Sta     Dist  EvAz     Phase      Date       Time     TRes  Azim  AzRes  Slow  SRes Def   SNR       Amp   Per   Mag1   Mag2       ID
ALMR  001.00 180.0 m E Sn      2012/10/23 02:18:00.8 *****                          T                                        5115759
SJPF  010.66 053.1 m E Pn      2012/10/23 02:18:50.9   0.9                          T                                        5102674
SJPF  010.66 053.1 m E Sn      2012/10/23 02:20:42.3   0.3                          T                 .6  .20 Ml 3.3         5102803
ETSF  010.99 055.3 m E Pn      2012/10/23 02:18:55.0   0.4                          T                                        5102673
ETSF  010.99 055.3 m E Sn      2012/10/23 02:20:50.2   0.4                          T                 .7  .27 Ml 3.3         5102802
EPF   011.64 056.2 m E Pn      2012/10/23 02:19:04.5   1.0                          T                                        5102672
EPF   011.64 056.2 m E Sn      2012/10/23 02:21:05.7   0.3                          T                1.2  .33 Ml 3.5         5102801

.
EVENT     286207
    Date      Time       Latitude Longitude    Depth    Ndef Nsta Gap    Mag1  N    Mag2  N    Mag3  N   Author         ID
       rms   OT_Error      Smajor Sminor Az        Err   mdist  Mdist     Err        Err        Err      Quality

2012/10/23 04:08:35.9     48.2505    9.1111     10.0      14    2 114  Ml 1.8  2  Md 1.9  2              bulletin    286307
                                                                                                         _ldg
      0.43   +-  0.11       2.0    1.5  105.16 +-  0.0    0.18   1.58   +-0.1      +-0.0                 m i ke

GERMANY
Sta     Dist  EvAz     Phase      Date       Time     TRes  Azim  AzRes  Slow  SRes Def   SNR       Amp   Per   Mag1   Mag2       ID
CDF   001.24 278.2 m E Pn      2012/10/23 04:08:57.8   0.1                          T                                        5108998
CDF   001.24 278.2 m E Sn      2012/10/23 04:09:13.6   0.2                          T                                        5108999
CDF   001.24 278.2 m E Sg      2012/10/23 04:09:15.0  -0.2                          T                1.4  .22 Ml 1.8 Md 1.9  5108994
HINF  001.58 254.9 m E Pn      2012/10/23 04:09:02.5   0.2                          T                                        5108997
HINF  001.58 254.9 m E Sn      2012/10/23 04:09:21.6   0.0                          T                                        5108996
HINF  001.58 254.9 m E Sg      2012/10/23 04:09:25.7  -0.1                          T                  1  .23 Ml 1.7 Md 1.9  5108995

.
