BEGIN GSE2.0
MSG_TYPE DATA
MSG_ID 08-JUN-1108:55:44  FRA_NDC
E-MAIL
DATA_TYPE BULLETIN
Reviewed Bulletin (REB) # P2011-021  from French NDC for regional phases     PERIOD 25 MAY 2011 TO 31 MAY 2011 P R., J-P S
EVENT     259701
    Date      Time       Latitude Longitude    Depth    Ndef Nsta Gap    Mag1  N    Mag2  N    Mag3  N   Author         ID
       rms   OT_Error      Smajor Sminor Az        Err   mdist  Mdist     Err        Err        Err      Quality

2011/05/25 00:05:43.8     43.7431   12.0867     10.0 f    68   27 089  Ml 3.4 24                         js067245    259701

      1.28   +-  0.17       4.4    3.3   19.26 +-  0.0    0.22   7.51   +-0.3                            m i ke

CENTRAL ITALY
Sta     Dist  EvAz     Phase      Date       Time     TRes  Azim  AzRes  Slow  SRes Def   SNR       Amp   Per   Mag1   Mag2       ID
PGF   002.56 243.2 m E Pn      2011/05/25 00:06:23.6   0.0                          T                                        4697380
PGF   002.56 243.2 m E Sn      2011/05/25 00:06:52.6  -0.3                          T               27.7  .36 Ml 3.5         4697382
SBF   003.37 273.6 m E Pn      2011/05/25 00:06:33.5  -1.2                          T                                        4697379
SBF   003.37 273.6 m E Sn      2011/05/25 00:07:11.3  -1.0                          T               80.3  .50 Ml 3.7         4697383
FRF   003.95 269.2 m E Pn      2011/05/25 00:06:42.1  -0.4                          T                                        4697377
FRF   003.95 269.2 m E Sn      2011/05/25 00:07:25.0  -1.2                          T               15.5  .32 Ml 3.4         4697385
LMR   004.08 266.2 m E Pn      2011/05/25 00:06:43.4  -0.8                          T                                        4697378
LMR   004.08 266.2 m E Sn      2011/05/25 00:07:27.8  -1.3                          T                8.1  .28 Ml 3.1         4697384
MBDF  003.94 286.3 m E Pn      2011/05/25 00:06:43.7   1.1                          T                                        4697372
LPG   004.19 296.6 m E Pn      2011/05/25 00:06:45.7  -0.5                          T                                        4697375
LPG   004.19 296.6 m E Sn      2011/05/25 00:07:34.5   2.2                          T               23.7  .58 Ml 3.3         4697386
LPL   004.21 296.7 m E Pn      2011/05/25 00:06:46.4   0.1                          T                                        4697374
LPL   004.21 296.7 m E Sn      2011/05/25 00:07:35.7   3.0                          T               15.6  .52 Ml 3.2         4697387
ORIF  004.61 286.9 m E Pn      2011/05/25 00:06:52.0   0.5                          T                                        4697373
ORIF  004.61 286.9 m E Sn      2011/05/25 00:07:45.2   3.2                          T               19.6  .52 Ml 3.4         4697388
SMRF  004.71 275.1 m E Pn      2011/05/25 00:06:53.4   0.4                          T                                        4697376
SMRF  004.71 275.1 m E Sn      2011/05/25 00:07:45.5   1.0                          T               10.1  .53 Ml 3.1         4697397
CABF  005.12 306.1 m E Pn      2011/05/25 00:06:58.8   0.2                          T                                        4697362
CABF  005.12 306.1 m E Sn      2011/05/25 00:07:57.0   2.8                          T               23.6  .76 Ml 3.4         4697391
HINF  005.48 319.9 m E Pn      2011/05/25 00:07:02.3  -1.0                          T                                        4697368
HINF  005.48 319.9 m E Sn      2011/05/25 00:08:05.0   2.3                          T               20.7  .40 Ml 3.7         4697392
VIVF  005.44 284.4 m E Pn      2011/05/25 00:07:02.4  -0.4                          T                                        4697371
VIVF  005.44 284.4 m E Sn      2011/05/25 00:08:03.2   1.4                          T                2.9  .41 Ml 2.8         4697381
CDF   005.74 326.1 m E Pn      2011/05/25 00:07:05.8  -1.3                          T                                        4697369
CDF   005.74 326.1 m E Sn      2011/05/25 00:08:09.1  -0.1                          T               23.5  .56 Ml 3.8         4697394
HAU   005.85 318.8 m E Pn      2011/05/25 00:07:07.5  -0.9                          T                                        4697367
HAU   005.85 318.8 m E Sn      2011/05/25 00:08:12.4   0.9                          T               48.6  .38 Ml 3.9         4697393
LASF  005.96 276.0 m E Pn      2011/05/25 00:07:09.3  -0.6                          T                                        4697356
LASF  005.96 276.0 m E Sn      2011/05/25 00:08:13.7  -0.4                          T                4.3  .58 Ml 3.0         4697445
SMF   006.51 299.3 m E Pn      2011/05/25 00:07:17.0  -0.4                          T                                        4697360
SMF   006.51 299.3 m E Sn      2011/05/25 00:08:29.3   2.0                          T               28.2  .70 Ml 3.8         4697390
PAGF  006.53 319.7 m E Pn      2011/05/25 00:07:17.4  -0.3                          T                                        4697364
PAGF  006.53 319.7 m E Sn      2011/05/25 00:08:28.4   0.6                          T                5.1  .67 Ml 3.1         4697403
SFTF  006.63 314.7 m E Pn      2011/05/25 00:07:19.8   0.8 128.9  -0.8              T                                        4697365
SFTF  006.63 314.7 m E Sn      2011/05/25 00:08:30.1  -0.1                          T               13.2  .56 Ml 3.6         4697449
LOR   006.77 304.2 m E Pn      2011/05/25 00:07:20.7  -0.2 120.1  1.7               T                                        4697366
LOR   006.77 304.2 m E Sn      2011/05/25 00:08:34.7   1.2                          T               23.8  .64 Ml 3.8         4697396
MEZF  006.82 316.7 m E Pn      2011/05/25 00:07:21.5  -0.1                          T                                        4697358
MEZF  006.82 316.7 m E Sn      2011/05/25 00:08:35.4   0.7                          T                6.6  .34 Ml 3.5         4697402
AVF   006.87 299.3 m E Pn      2011/05/25 00:07:21.8  -0.6                          T                                        4697361
AVF   006.87 299.3 m E Sn      2011/05/25 00:08:35.7  -0.3                          T               10.3  .85 Ml 3.3         4697448
SSF   006.89 301.8 m E Pn      2011/05/25 00:07:22.1  -0.5                          T                                        4697363
SSF   006.89 301.8 m E Sn      2011/05/25 00:08:36.0  -0.4                          T                3.8  .48 Ml 3.2         4697395
BGF   007.11 296.5 m E Pn      2011/05/25 00:07:25.7   0.1                          T                                        4697359
BGF   007.11 296.5 m E Sn      2011/05/25 00:08:43.1   1.4                          T               13.8  .64 Ml 3.6         4697389
MTLF  007.18 270.2 m E Pn      2011/05/25 00:07:26.6   0.1                          T                                        4697370
TCF   007.45 293.4 m E Pn      2011/05/25 00:07:28.3  -1.9                          T                                        4697400
TCF   007.45 293.4 m E Sn      2011/05/25 00:08:52.7   3.0                          T                3.7  .45 Ml 3.3         4697401
CAF   007.28 282.8 m E Pn      2011/05/25 00:07:28.4   0.4                          T                                        4697357
HYF   007.51 301.3 m E Pn      2011/05/25 00:07:31.3   0.2                          T                                        4697447
HYF   007.51 301.3 m E Sn      2011/05/25 00:08:53.3   1.9                          T                                        4697446

.
EVENT     259702
    Date      Time       Latitude Longitude    Depth    Ndef Nsta Gap    Mag1  N    Mag2  N    Mag3  N   Author         ID
       rms   OT_Error      Smajor Sminor Az        Err   mdist  Mdist     Err        Err        Err      Quality

2011/05/25 00:07:59.2     43.7098   12.1914     10.0 f    58   28 278  Ml 3.3 26                         js067245    259702

      1.05   +-  0.39       7.5    5.6   98.48 +-  0.0    0.30   9.33   +-0.3                            m i ke

CENTRAL ITALY
Sta     Dist  EvAz     Phase      Date       Time     TRes  Azim  AzRes  Slow  SRes Def   SNR       Amp   Per   Mag1   Mag2       ID
PGF   002.61 244.7 m E Pn      2011/05/25 00:08:40.2   0.5                          T                                        4697544
PGF   002.61 244.7 m E Sn      2011/05/25 00:09:10.2   0.6                          T               24.2  .54 Ml 3.2         4697519
SBF   003.45 274.2 m E Pn      2011/05/25 00:08:50.3  -0.8                          T                                        4697543
SBF   003.45 274.2 m E Sn      2011/05/25 00:09:28.0  -1.6                          T               64.4  .50 Ml 3.6         4697518
FRF   004.03 269.8 m E Pn      2011/05/25 00:08:58.5  -0.4                          T                                        4697541
FRF   004.03 269.8 m E Sn      2011/05/25 00:09:42.2  -1.2                          T               17.3  .40 Ml 3.3         4697516
MBDF  004.03 286.5 m E Pn      2011/05/25 00:08:59.5   0.4                          T                                        4697536
MBDF  004.03 286.5 m E Sn      2011/05/25 00:09:44.6   1.0                          T               45.1  .68 Ml 3.5         4697749
LMR   004.15 266.8 m E Pn      2011/05/25 00:08:59.8  -0.8                          T                                        4697542
LMR   004.15 266.8 m E Sn      2011/05/25 00:09:43.8  -2.4                          T               10.5  .46 Ml 3.1         4697517
LPG   004.28 296.6 m E Pn      2011/05/25 00:09:02.4  -0.3                          T                                        4697539
LPG   004.28 296.6 m E Sn      2011/05/25 00:09:51.5   1.8                          T               18.0  .54 Ml 3.2         4697747
LPL   004.30 296.8 m E Pn      2011/05/25 00:09:03.0   0.1                          T                                        4697538
LPL   004.30 296.8 m E Sn      2011/05/25 00:09:51.8   1.7                          T               14.4  .51 Ml 3.2         4697748
ORIF  004.69 287.1 m E Pn      2011/05/25 00:09:09.3   1.3                          T                                        4697537
ORIF  004.69 287.1 m E Sn      2011/05/25 00:10:01.9   2.6                          T               17.5  .54 Ml 3.3         4697515
SMRF  004.79 275.5 m E Pn      2011/05/25 00:09:10.0   0.5                          T                                        4697540
SMRF  004.79 275.5 m E Sn      2011/05/25 00:10:02.0   0.3                          T                7.6  .50 Ml 3.0         4697750
CABF  005.20 306.0 m E Pn      2011/05/25 00:09:15.0  -0.1                          T                                        4697533
CABF  005.20 306.0 m E Sn      2011/05/25 00:10:13.8   2.2                          T               18.1  .66 Ml 3.4         4697556
HINF  005.55 319.6 m E Pn      2011/05/25 00:09:19.2  -0.6                          T                                        4697531
HINF  005.55 319.6 m E Sn      2011/05/25 00:10:20.4   0.6                          T               24.6  .44 Ml 3.7         4697514
VIVF  005.52 284.6 m E Pn      2011/05/25 00:09:19.3   0.0                          T                                        4697520
VIVF  005.52 284.6 m E Sn      2011/05/25 00:10:18.3  -0.8                          T                5.4  .61 Ml 2.9         4697746
CDF   005.81 325.7 m E Pn      2011/05/25 00:09:22.3  -1.1                          T                                        4697529
CDF   005.81 325.7 m E Sn      2011/05/25 00:10:25.5  -0.7                          T               25.7  .60 Ml 3.8         4697561
HAU   005.92 318.5 m E Pn      2011/05/25 00:09:24.0  -0.8                          T                                        4697532
HAU   005.92 318.5 m E Sn      2011/05/25 00:10:28.5  -0.2                          T               48.8  .54 Ml 3.8         4697513
LASF  006.03 276.4 m E Pn      2011/05/25 00:09:26.4   0.1                          T                                        4697521
LASF  006.03 276.4 m E Sn      2011/05/25 00:10:30.5  -0.8                          T                4.4  .61 Ml 3.0         4697745
SMF   006.59 299.3 m E Pn      2011/05/25 00:09:33.8  -0.1                          T                                        4697534
SMF   006.59 299.3 m E Sn      2011/05/25 00:10:44.7   0.0                          T               15.7  .68 Ml 3.5         4697512
PAGF  006.61 319.4 m E Pn      2011/05/25 00:09:34.2   0.1                          T                                        4697526
PAGF  006.61 319.4 m E Sn      2011/05/25 00:10:45.3   0.3                          T                3.4  .50 Ml 3.0         4697560
SFTF  006.71 314.5 m E Pn      2011/05/25 00:09:36.0   0.4 119.9  -9.5              T                                        4697530
SFTF  006.71 314.5 m E Sn      2011/05/25 00:10:46.5  -1.0                          T                8.7  .47 Ml 3.5         4697558
LOR   006.85 304.2 m E Pn      2011/05/25 00:09:37.1  -0.4                          T                                        4697528
LOR   006.85 304.2 m E Sn      2011/05/25 00:10:50.7  -0.2                          T               11.8  .44 Ml 3.7         4697563
SSF   006.97 301.7 m E Pn      2011/05/25 00:09:38.4  -0.7                          T                                        4697527
SSF   006.97 301.7 m E Sn      2011/05/25 00:10:53.5  -0.2                          T                3.3  .48 Ml 3.2         4697562
AVF   006.96 299.3 m E Pn      2011/05/25 00:09:39.1   0.2                          T                                        4697524
AVF   006.96 299.3 m E Sn      2011/05/25 00:10:52.7  -0.7                          T                4.5  .59 Ml 3.1         4697555
MEZF  006.90 316.5 m E Pn      2011/05/25 00:09:39.3   1.2                          T                                        4697525
MEZF  006.90 316.5 m E Sn      2011/05/25 00:10:51.9  -0.1                          T                3.6  .28 Ml 3.3         4697559
BGF   007.20 296.6 m E Pn      2011/05/25 00:09:42.3   0.2                          T                                        4697523
BGF   007.20 296.6 m E Sn      2011/05/25 00:11:00.6   1.5                          T                9.7  .50 Ml 3.6         4697554
MTLF  007.26 270.5 m E Pn      2011/05/25 00:09:43.2   0.2                          T                                        4697535
MTLF  007.26 270.5 m E Sn      2011/05/25 00:10:59.7  -1.0                          T                2.1  .49 Ml 2.9         4697744
CAF   007.37 283.0 m E Pn      2011/05/25 00:09:44.3  -0.2                          T                                        4697743
HYF   007.60 301.3 m E Pn      2011/05/25 00:09:47.3  -0.3                          T                                        4697741
ETSF  009.33 269.4 m E Pn      2011/05/25 00:10:12.2   0.9                          T                                        4697742
TCF   007.53 293.5 m E Sn      2011/05/25 00:11:09.5   2.4                          T                3.3  .42 Ml 3.3         4697557

.
EVENT     259703
    Date      Time       Latitude Longitude    Depth    Ndef Nsta Gap    Mag1  N    Mag2  N    Mag3  N   Author         ID
       rms   OT_Error      Smajor Sminor Az        Err   mdist  Mdist     Err        Err        Err      Quality

2011/05/25 00:22:27.9     44.3317    5.7881      2.0       8    4 162  Ml 1.6  2  Md 1.8  3              js067245    259703

      0.33   +-  0.15       5.0    2.4   86.37 +-  0.0    0.39   1.13   +-0.0      +-0.1                 m i ke

FRANCE
Sta     Dist  EvAz     Phase      Date       Time     TRes  Azim  AzRes  Slow  SRes Def   SNR       Amp   Per   Mag1   Mag2       ID
SMRF  000.39 203.4 m E Pg      2011/05/25 00:22:35.2  -0.3                          T                                        4697756
SMRF  000.39 203.4 m E Sg      2011/05/25 00:22:41.2   0.6                          T               13.0  .32        Md 1.7  4697753
ORIF  000.59 006.4 m E Pg      2011/05/25 00:22:39.1  -0.2                          T                                        4701336
ORIF  000.59 006.4 m E Sg      2011/05/25 00:22:47.1   0.1                          T                 .4  .19                4697757
FRF   000.99 140.9 m E Pg      2011/05/25 00:22:46.8   0.3                          T                                        4697755
FRF   000.99 140.9 m E Sg      2011/05/25 00:22:59.0  -0.3                          T                1.4  .23 Ml 1.6 Md 1.8  4697752
LMR   001.13 152.1 m E Pg      2011/05/25 00:22:48.9   0.0                          T                                        4697754
LMR   001.13 152.1 m E Sg      2011/05/25 00:23:02.9  -0.7                          T                1.4  .28 Ml 1.6 Md 1.9  4697751

.
