EVENT     259200
    Date      Time       Latitude Longitude    Depth    Ndef Nsta Gap    Mag1  N    Mag2  N    Mag3  N   Author         ID
       rms   OT_Error      Smajor Sminor Az        Err   mdist  Mdist     Err        Err        Err      Quality

2011/05/11 19:40:26.8     43.0497    -.2436      2.0      64   12 080  Ml 2.3 12  Md 2.2  3              js067245    259200

      0.23   +-  0.03        .7     .4  151.14 +-  0.0    0.28   4.62   +-0.2      +-0.2                 m i ke

PYRENEES
Sta     Dist  EvAz     Phase      Date       Time     TRes  Azim  AzRes  Slow  SRes Def   SNR       Amp   Per   Mag1   Mag2       ID
ETSF  000.28 237.0 m E Pg      2011/05/11 19:40:32.1  -0.2                          T                                        4689703
ETSF  000.28 237.0 m E Sg      2011/05/11 19:40:35.3  -0.8                          T               44.7  .22        Md 2.4  4689699
EPF   000.43 092.4 m E Pg      2011/05/11 19:40:34.9  -0.3                          T                                        4689702
EPF   000.43 092.4 m E Sg      2011/05/11 19:40:40.7  -0.1                          T               18.4  .22        Md 2.1  4689698
SJPF  000.72 275.4 m E Pg      2011/05/11 19:40:41.0   0.5                          T                                        4689701
SJPF  000.72 275.4 m E Sg      2011/05/11 19:40:49.9   0.0                          T                6.5  .20        Md 2.1  4689697
MTLF  001.82 080.0 m E Pn      2011/05/11 19:40:57.4  -0.1                          T                                        4689679
MTLF  001.82 080.0 m E Pg      2011/05/11 19:41:00.8   0.1                          T                                        4689678
MTLF  001.82 080.0 m E Sg      2011/05/11 19:41:24.3   0.1                          T                3.3  .30 Ml 2.2         4689677
LFF   002.02 020.3 m E Pn      2011/05/11 19:41:00.1   0.0                          T                                        4689682
LFF   002.02 020.3 m E Pg      2011/05/11 19:41:04.3   0.0                          T                                        4689700
LFF   002.02 020.3 m E Sg      2011/05/11 19:41:30.2  -0.1                          T               10.0  .38 Ml 2.5         4689695
CAF   002.51 040.8 m E Pn      2011/05/11 19:41:06.8   0.0                          T                                        4689680
CAF   002.51 040.8 m E Pg      2011/05/11 19:41:13.5   0.0                          T                                        4689681
CAF   002.51 040.8 m E Sg      2011/05/11 19:41:45.7   0.1                          T                3.0  .28 Ml 2.4         4689696
RJF   002.59 028.7 m E Pn      2011/05/11 19:41:07.7  -0.1                          T                                        4689683
RJF   002.59 028.7 m E Sg      2011/05/11 19:41:48.0  -0.1                          T                3.5  .22 Ml 2.2         4689694
LASF  003.15 069.6 m E Pn      2011/05/11 19:41:15.5  -0.1                          T                                        4689674
LASF  003.15 069.6 m E Pg      2011/05/11 19:41:25.3   0.0                          T                                        4689675
LASF  003.15 069.6 m E Sn      2011/05/11 19:41:51.7   0.1                          T                                        4689673
LASF  003.15 069.6 m E Sg      2011/05/11 19:42:05.7  -0.1                          T                1.3  .49 Ml 1.9         4689676
MFF   003.55 001.1 m E Pn      2011/05/11 19:41:21.1   0.1                          T                                        4689684
MFF   003.55 001.1 m E Sg      2011/05/11 19:42:18.2   0.0                          T                1.1  .24 Ml 2.4         4689693
BGF   004.14 031.0 m E Pn      2011/05/11 19:41:29.1   0.1                          T                                        4689686
BGF   004.14 031.0 m E Sg      2011/05/11 19:42:36.5  -0.1                          T                4.7  .32 Ml 2.8         4689691
AVF   004.53 033.1 m E Pn      2011/05/11 19:41:34.3   0.1                          T                                        4689688
AVF   004.53 033.1 m E Sg      2011/05/11 19:42:48.7   0.0                          T                 .9  .34 Ml 2.2         4689689
SMF   004.62 037.5 m E Pn      2011/05/11 19:41:35.6   0.0                          T                                        4689687
SMF   004.62 037.5 m E Sg      2011/05/11 19:42:51.6   0.0                          T                 .7  .25 Ml 2.2         4689690

.
EVENT     259201
    Date      Time       Latitude Longitude    Depth    Ndef Nsta Gap    Mag1  N    Mag2  N    Mag3  N   Author         ID
       rms   OT_Error      Smajor Sminor Az        Err   mdist  Mdist     Err        Err        Err      Quality

2011/05/11 19:54:11.4     48.4932    -.0737      5.0 f    16    7 199  Ml 1.8  4  Md 1.8  3              js067245    259201

      0.81   +-  0.17       3.4    2.3   72.20 +-  0.0    0.11   2.15   +-0.2      +-0.2                 m i ke

FRANCE
Sta     Dist  EvAz     Phase      Date       Time     TRes  Azim  AzRes  Slow  SRes Def   SNR       Amp   Per   Mag1   Mag2       ID
LDF   000.11 342.2 m E Pg      2011/05/11 19:54:13.6  -0.3                          T                                        4689717
LDF   000.11 342.2 m E Sg      2011/05/11 19:54:14.9  -0.6                          T               25.1  .22        Md 2.0  4689712
FLN   000.38 315.0 m E Pg      2011/05/11 19:54:18.9   0.1 139.4  4.7               T                                        4689716
FLN   000.38 315.0 m E Sg      2011/05/11 19:54:23.7  -0.2 125.3  -9.4              T                2.7  .20        Md 1.7  4689713
GRR   000.53 258.9 m E Pg      2011/05/11 19:54:21.7   0.2                          T                                        4689715
GRR   000.53 258.9 m E Sg      2011/05/11 19:54:28.4  -0.2                          T                1.5  .20        Md 1.7  4689714
MFF   001.89 181.5 m E Pn      2011/05/11 19:54:41.9  -0.7                          T                                        4689706
MFF   001.89 181.5 m E Pg      2011/05/11 19:54:46.4  -0.2                          T                                        4701069
MFF   001.89 181.5 m E Sg      2011/05/11 19:55:11.3   0.4                          T                1.1  .24 Ml 2.0         4689710
SGMF  001.67 262.7 m E Pg      2011/05/11 19:54:42.9   0.4                          T                                        4701071
SGMF  001.67 262.7 m E Sg      2011/05/11 19:55:04.3   0.2                          T                2.0  .33 Ml 1.9         4689711
QUIF  002.15 255.6 m E Pg      2011/05/11 19:54:50.8  -0.4                          T                                        4701070
QUIF  002.15 255.6 m E Sg      2011/05/11 19:55:19.0   0.1                          T                 .5  .21 Ml 1.6         4689709
ROSF  002.14 267.0 m E Pg      2011/05/11 19:54:51.0  -0.1                          T                                        4701072

.
EVENT     259212
    Date      Time       Latitude Longitude    Depth    Ndef Nsta Gap    Mag1  N    Mag2  N    Mag3  N   Author         ID
       rms   OT_Error      Smajor Sminor Az        Err   mdist  Mdist     Err        Err        Err      Quality

2011/05/11 20:37:45.4     37.6530   -1.6375      2.0     187   30 082  Ml 4.1 30                         bulletin    259212
                                                                                                         _ldg
      0.80   +-  0.09       2.4    1.1  144.18 +-  0.0    0.37  43.54   +-0.3                            m i ke

SPAIN
Sta     Dist  EvAz     Phase      Date       Time     TRes  Azim  AzRes  Slow  SRes Def   SNR       Amp   Per   Mag1   Mag2       ID
ETSF  005.30 008.6 m E Pn      2011/05/11 20:39:04.1   0.5                          T                                        4689781
ETSF  005.30 008.6 m E Sg      2011/05/11 20:40:31.4  -0.2                          T              251.9 1.08 Ml 4.3         4689753
SJPF  005.46 003.2 m E Pn      2011/05/11 20:39:06.4   0.7                          T                                        4689782
SJPF  005.46 003.2 m E Sg      2011/05/11 20:40:36.5   0.0                          T              200.0 1.01 Ml 4.3         4689754
EPF   005.58 015.1 m E Pn      2011/05/11 20:39:08.0   0.7                          T                                        4689780
EPF   005.58 015.1 m E Sg      2011/05/11 20:40:39.7  -0.4                          T               64.9  .50 Ml 4.1         4689752
MTLF  006.40 026.1 m E Pn      2011/05/11 20:39:18.9   0.5                          T                                        4689779
MTLF  006.40 026.1 m E Sg      2011/05/11 20:41:05.1  -0.5                          T               34.6  .70 Ml 3.9         4689751
LFF   007.50 013.1 m E Pn      2011/05/11 20:39:34.0   0.7                          T                                        4689769
LFF   007.50 013.1 m E Sg      2011/05/11 20:41:39.7  -0.2                          T               53.1  .98 Ml 3.9         4689748
LASF  007.65 031.2 m E Pn      2011/05/11 20:39:35.9   0.5                          T                                        4689777
LASF  007.65 031.2 m E Sg      2011/05/11 20:41:44.6  -0.1                          T               37.6 1.10 Ml 3.9         4689750
CAF   007.78 019.8 m E Pn      2011/05/11 20:39:37.8   0.6                          T                                        4689778
CAF   007.78 019.8 m E Sg      2011/05/11 20:41:48.2  -0.7                          T               44.1 1.04 Ml 4.0         4689747
RJF   008.00 016.2 m E Pn      2011/05/11 20:39:40.6   0.3                          T                                        4689768
SMRF  008.35 038.6 m E Pn      2011/05/11 20:39:45.5   0.4                          T                                        4689733
LMR   008.41 045.0 m E Pn      2011/05/11 20:39:46.6   0.9                          T                                        4689773
VIVF  008.62 031.4 m E Pn      2011/05/11 20:39:49.5   0.8                          T                                        4689776
VIVF  008.62 031.4 m E Sg      2011/05/11 20:42:14.8  -0.3                          T               17.0  .82 Ml 3.8         4689749
FRF   008.63 044.3 m E Pn      2011/05/11 20:39:51.3   2.6                          T                                        4689772
MFF   009.01 006.6 m E Pn      2011/05/11 20:39:54.2   0.2                          T                                        4689767
MFF   009.01 006.6 m E Sg      2011/05/11 20:42:27.1   0.0                          T               15.1  .74 Ml 4.0         4689746
TCF   009.09 017.1 m E Pn      2011/05/11 20:39:55.3   0.2                          T                                        4689756
TCF   009.09 017.1 m E Sg      2011/05/11 20:42:29.7   0.0                          T               36.6 1.18 Ml 4.1         4689736
ORIF  009.20 035.6 m E Pn      2011/05/11 20:39:56.5  -0.2                          T                                        4689732
ORIF  009.20 035.6 m E Sg      2011/05/11 20:42:32.8  -0.4                          T                6.1  .90 Ml 3.4         4690808
SBF   009.26 045.1 m E Pn      2011/05/11 20:39:59.6   2.2                          T                                        4689774
BGF   009.50 019.1 m E Pn      2011/05/11 20:40:01.2   0.6                          T                                        4689761
BGF   009.50 019.1 m E Sg      2011/05/11 20:42:42.2  -0.2                          T               31.0  .78 Ml 4.2         4689741
PGF   009.50 055.7 m E Pn      2011/05/11 20:40:02.6   1.8                          T                                        4689775
PGF   009.50 055.7 m E Sn      2011/05/11 20:41:41.6  -0.4                          T               14.7  .82 Ml 4.1         4689731
AVF   009.85 020.4 m E Pn      2011/05/11 20:40:04.7  -0.6                          T                                        4689758
AVF   009.85 020.4 m E Sg      2011/05/11 20:42:52.9  -0.5                          T                8.1  .61 Ml 3.8         4689738
SMF   009.86 022.6 m E Pn      2011/05/11 20:40:05.6   0.0                          T                                        4689759
SMF   009.86 022.6 m E Sg      2011/05/11 20:42:53.4  -0.4                          T                5.9  .61 Ml 3.7         4689739
HYF   010.11 016.8 m E Pn      2011/05/11 20:40:09.2   0.2                          T                                        4689760
HYF   010.11 016.8 m E Sg      2011/05/11 20:43:01.3  -0.3                          T                                        4689740
SSF   010.14 020.4 m E Pn      2011/05/11 20:40:09.2  -0.2                          T                                        4689734
SSF   010.14 020.4 m E Sg      2011/05/11 20:43:01.9  -0.5                          T               37.1 1.30 Ml 4.3         4689735
LPL   010.05 035.9 m E P       2011/05/11 20:40:11.5  -2.7                          T                                        4689770
LPL   010.05 035.9 m E Sg      2011/05/11 20:42:59.4  -0.4                          T                1.6  .49 Ml 3.3         4690807
LPG   010.04 036.1 m E P       2011/05/11 20:40:11.9  -2.3                          T                                        4689771
LPG   010.04 036.1 m E Sg      2011/05/11 20:42:59.4  -0.3                          T                9.7 1.21 Ml 3.6         4690806
QUIF  010.32 354.3 m E Pn      2011/05/11 20:40:12.1   0.4                          T                                        4689766
QUIF  010.32 354.3 m E Sn      2011/05/11 20:42:01.2  -0.2                          T               11.4  .47 Ml 4.2         4689745
LOR   010.43 021.1 m E Pn      2011/05/11 20:40:13.8   0.5                          T                                        4689757
LOR   010.43 021.1 m E Sg      2011/05/11 20:43:10.9  -0.5                          T               35.1 1.21 Ml 4.3         4689755
SGMF  010.62 356.7 m E Pn      2011/05/11 20:40:15.9   0.1                          T                                        4689764
SGMF  010.62 356.7 m E Sn      2011/05/11 20:42:08.0  -0.5                          T               30.2 1.00 Ml 4.3         4689744
ROSF  010.74 354.1 m E Pn      2011/05/11 20:40:18.0   0.4                          T                                        4689763
ROSF  010.74 354.1 m E Sn      2011/05/11 20:42:11.2  -0.3                          T               21.6  .80 Ml 4.3         4689743
FLN   011.14 004.0 m E Pn      2011/05/11 20:40:22.8   0.0 187.8  3.1               T                                        4689765
CABF  010.63 030.2 m E Sg      2011/05/11 20:43:17.9   0.2                          T               67.6 1.36 Ml 4.5         4689737

.
EVENT     259202
    Date      Time       Latitude Longitude    Depth    Ndef Nsta Gap    Mag1  N    Mag2  N    Mag3  N   Author         ID
       rms   OT_Error      Smajor Sminor Az        Err   mdist  Mdist     Err        Err        Err      Quality

2011/05/11 21:48:22.9     36.7232   -9.7430     20.0 f    54    4 274  Ml 3.2  4                         js067245    259202

      0.53   +-  0.23       4.2    2.7   40.34 +-  0.0    0.84  11.30   +-0.2                            m i ke

WEST OF GIBRALTAR
Sta     Dist  EvAz     Phase      Date       Time     TRes  Azim  AzRes  Slow  SRes Def   SNR       Amp   Per   Mag1   Mag2       ID
SJPF  009.14 043.1 m E Pn      2011/05/11 21:50:31.8   0.7                          T                                        4689805
SJPF  009.14 043.1 m E Sn      2011/05/11 21:52:06.9  -0.5                          T                1.7  .37 Ml 3.2         4689800
ETSF  009.38 046.1 m E Pn      2011/05/11 21:50:34.9   0.5                          T                                        4689804
ETSF  009.38 046.1 m E Sn      2011/05/11 21:52:12.6  -0.5                          T                1.3  .37 Ml 3.2         4689802
EPF   009.98 047.8 m E Pn      2011/05/11 21:50:43.3   0.7                          T                                        4689803
EPF   009.98 047.8 m E Sn      2011/05/11 21:52:27.1  -0.5                          T                1.7  .30 Ml 3.5         4689801
MTLF  011.30 050.5 m E Pn      2011/05/11 21:50:59.7  -0.8                          T                                        4701074
MTLF  011.30 050.5 m E Sn      2011/05/11 21:52:58.7  -0.2                          T                 .3  .24 Ml 3.0         4701073

.
