EVENT     271862
    Date      Time       Latitude Longitude    Depth    Ndef Nsta Gap    Mag1  N    Mag2  N    Mag3  N   Author         ID
       rms   OT_Error      Smajor Sminor Az        Err   mdist  Mdist     Err        Err        Err      Quality

2012/03/14 10:00:02.6     44.7344    6.6417      2.0      20    4 079  Ml 1.5  1  Md 1.1  2              js067245    271882

      0.23   +-  0.06       1.3     .9   21.39 +-  0.0    0.09   1.41   +-         +-0.2                 m i ke

FRANCE
Sta     Dist  EvAz     Phase      Date       Time     TRes  Azim  AzRes  Slow  SRes Def   SNR       Amp   Per   Mag1   Mag2       ID
MBDF  000.09 094.6 m E Pg      2012/03/14 10:00:05.6   0.6                          T                                        4879178
MBDF  000.09 094.6 m E Sg      2012/03/14 10:00:07.0   0.7                          T               28.4  .26        Md 1.2  4879177
ORIF  000.57 289.0 m E Pg      2012/03/14 10:00:13.9   0.3                          T                                        4879176
ORIF  000.57 289.0 m E Sg      2012/03/14 10:00:20.7  -0.4                          T                3.3  .26        Md 1.0  4879175
VIVF  001.41 275.7 m E Pg      2012/03/14 10:00:28.0  -0.9                          T                                        4881737
SMRF  001.08 225.6 m E Sn      2012/03/14 10:00:38.0   0.2                          T                1.6  .37 Ml 1.5         4879185

.
EVENT     271977
    Date      Time       Latitude Longitude    Depth    Ndef Nsta Gap    Mag1  N    Mag2  N    Mag3  N   Author         ID
       rms   OT_Error      Smajor Sminor Az        Err   mdist  Mdist     Err        Err        Err      Quality

2012/03/14 10:03:37.2     41.5079    -.9377      2.0      22    4 108  Ml 2.1  4  Md 2.2  2              js067245    271997

      0.68   +-  0.17       3.4    2.5   81.97 +-  0.0    0.41   2.97   +-0.2      +-0.0                 m i ke

SPAIN
Sta     Dist  EvAz     Phase      Date       Time     TRes  Azim  AzRes  Slow  SRes Def   SNR       Amp   Per   Mag1   Mag2       ID
ETSF  001.42 011.3 m E Pg      2012/03/14 10:04:04.0   0.3                          T                                        4879192
ETSF  001.42 011.3 m E Sg      2012/03/14 10:04:22.6   0.5                          T                2.1  .26 Ml 1.9 Md 2.2  4879189
SJPF  001.62 352.5 m E Pg      2012/03/14 10:04:07.3  -0.1                          T                                        4879191
SJPF  001.62 352.5 m E Sn      2012/03/14 10:04:25.4   0.1                          T                                        4879194
SJPF  001.62 352.5 m E Sg      2012/03/14 10:04:28.5   0.2                          T                4.5  .44 Ml 2.1 Md 2.2  4879190
EPF   001.79 031.5 m E Pn      2012/03/14 10:04:07.3  -0.2                          T                                        4879188
EPF   001.79 031.5 m E Sn      2012/03/14 10:04:28.8  -0.7                          T                                        4879187
EPF   001.79 031.5 m E Sg      2012/03/14 10:04:33.0  -0.7                          T                5.2  .30 Ml 2.4         4879193
MTLF  002.97 050.8 m E Sg      2012/03/14 10:05:11.1   0.7                          T                1.6  .34 Ml 2.1         4879186

.
EVENT     271867
    Date      Time       Latitude Longitude    Depth    Ndef Nsta Gap    Mag1  N    Mag2  N    Mag3  N   Author         ID
       rms   OT_Error      Smajor Sminor Az        Err   mdist  Mdist     Err        Err        Err      Quality

2012/03/14 10:40:48.1     48.9527    7.9711     10.0      26   10 048  Ml 2.4  7  Md 2.2  2              js067245    271887

      0.48   +-  0.05       1.1     .9  100.17 +-  0.0    0.11   3.62   +-0.3      +-0.1                 m i ke

FRANCE
Sta     Dist  EvAz     Phase      Date       Time     TRes  Azim  AzRes  Slow  SRes Def   SNR       Amp   Per   Mag1   Mag2       ID
LANF  000.11 284.4 m E Pg      2012/03/14 10:40:50.7  -0.4                          T                                        4871202
LANF  000.11 284.4 m E Sg      2012/03/14 10:40:52.8  -0.4                          T              100.2  .25        Md 2.2  4871199
CDF   000.71 220.7 m E Pg      2012/03/14 10:41:01.3  -0.5                          T                                        4871201
CDF   000.71 220.7 m E Sg      2012/03/14 10:41:10.9  -0.2                          T                                        4879216
CDF   000.71 220.7 m E Sn      2012/03/14 10:41:12.8  -0.4                          T               12.8  .22        Md 2.1  4871200
HINF  001.36 213.7 m E Pg      2012/03/14 10:41:13.9   0.2                          T                                        4871194
HINF  001.36 213.7 m E Sg      2012/03/14 10:41:31.0  -0.2                          T                5.3  .32 Ml 2.2         4871195
HAU   001.44 229.3 m E Pg      2012/03/14 10:41:15.1   0.0                          T                                        4871197
HAU   001.44 229.3 m E Sg      2012/03/14 10:41:33.8   0.2                          T                6.7  .20 Ml 2.3         4871198
THEF  001.50 241.8 m E Pg      2012/03/14 10:41:16.6   0.4                          T                                        4879221
THEF  001.50 241.8 m E Sg      2012/03/14 10:41:35.6   0.1                          T               12.3  .23 Ml 2.8         4871193
MEZF  001.98 258.0 m E Pg      2012/03/14 10:41:23.4  -1.6  76.3  0.6               T                                        4879222
PAGF  001.54 255.9 m E Sg      2012/03/14 10:41:36.4  -0.4  72.0  -2.2              T                2.1  .30 Ml 1.9         4871196
SMF   003.62 231.9 m E Pn      2012/03/14 10:41:42.2  -0.1                          T                                        4879219
SMF   003.62 231.9 m E Sn      2012/03/14 10:42:22.0  -0.5                          T                                        4879220
LOR   003.23 240.1 m E Pg      2012/03/14 10:41:48.4   0.4  63.9  6.9               T                                        4879223
LOR   003.23 240.1 m E Sg      2012/03/14 10:42:29.4  -0.1                          T                1.7  .20 Ml 2.4         4879224
SFTF  002.09 250.1 m E Sg      2012/03/14 10:41:53.9   0.0                          T                3.4  .19 Ml 2.5         4871192

.
EVENT     271938
    Date      Time       Latitude Longitude    Depth    Ndef Nsta Gap    Mag1  N    Mag2  N    Mag3  N   Author         ID
       rms   OT_Error      Smajor Sminor Az        Err   mdist  Mdist     Err        Err        Err      Quality

2012/03/14 13:45:02.5     43.3886    -.5929      2.0       7    4 210  Ml 1.8  1  Md 1.6  2              js067245    271958

      0.35   +-  0.34       8.0    3.2  173.12 +-  0.0    0.49   2.05   +-         +-0.1                 m i ke

PYRENEES
Sta     Dist  EvAz     Phase      Date       Time     TRes  Azim  AzRes  Slow  SRes Def   SNR       Amp   Per   Mag1   Mag2       ID
ETSF  000.49 177.1 m E Pg      2012/03/14 13:45:11.7  -0.3                          T                                        4881316
ETSF  000.49 177.1 m E Sg      2012/03/14 13:45:19.0   0.6                          T                2.4  .20        Md 1.7  4881313
SJPF  000.54 239.4 m E Pg      2012/03/14 13:45:12.9   0.1                          T                                        4881317
SJPF  000.54 239.4 m E Sg      2012/03/14 13:45:19.7  -0.1                          T                6.6  .28        Md 1.6  4881312
EPF   000.77 117.4 m E Pg      2012/03/14 13:45:16.7  -0.3                          T                                        4881315
EPF   000.77 117.4 m E Sg      2012/03/14 13:45:27.0  -0.1                          T                8.4  .36                4881314
MTLF  002.05 090.4 m E Sg      2012/03/14 13:46:07.6   0.6                          T                  1  .23 Ml 1.8         4881311

.
EVENT     271939
    Date      Time       Latitude Longitude    Depth    Ndef Nsta Gap    Mag1  N    Mag2  N    Mag3  N   Author         ID
       rms   OT_Error      Smajor Sminor Az        Err   mdist  Mdist     Err        Err        Err      Quality

2012/03/14 13:55:36.6     44.5113    6.7268     10.0      21    6 082  Ml 1.3  2  Md 1.2  1              js067245    271959

      0.34   +-  0.07       2.2    1.1   46.41 +-  0.0    0.07   1.19   +-0.2      +-                    m i ke

FRANCE
Sta     Dist  EvAz     Phase      Date       Time     TRes  Azim  AzRes  Slow  SRes Def   SNR       Amp   Per   Mag1   Mag2       ID
MBDF  000.22 008.4 m E Pg      2012/03/14 13:55:41.4   0.0                          T                                        4881335
MBDF  000.22 008.4 m E Sg      2012/03/14 13:55:44.7   0.1                          T                1.2  .24        Md 1.2  4881323
ORIF  000.73 304.3 m E Pg      2012/03/14 13:55:50.5   0.0                          T                                        4881324
ORIF  000.73 304.3 m E Sg      2012/03/14 13:55:59.4  -0.7                          T                                        4881318
LPL   001.01 000.2 m E P       2012/03/14 13:55:57.0  -0.1                          T                                        4881322
LPL   001.01 000.2 m E Sg      2012/03/14 13:56:08.7  -0.2                          T                                        4881321
SBF   000.82 141.6 m E Sg      2012/03/14 13:56:03.6   0.5                          T                2.0  .22                4881739
SMRF  000.99 237.5 m E Sn      2012/03/14 13:56:08.1  -0.1                          T                 .5  .27 Ml 1.1         4881738
LMR   001.19 187.7 m E Sg      2012/03/14 13:56:13.8  -0.4                          T                 .9  .27 Ml 1.5         4881740

.
EVENT     271940
    Date      Time       Latitude Longitude    Depth    Ndef Nsta Gap    Mag1  N    Mag2  N    Mag3  N   Author         ID
       rms   OT_Error      Smajor Sminor Az        Err   mdist  Mdist     Err        Err        Err      Quality

2012/03/14 13:57:47.9     44.5024    6.7048     10.0      19    6 077  Ml 1.4  3  Md 1.6  1              js067245    271960

      0.29   +-  0.07       1.8    1.0   47.88 +-  0.0    0.08   1.18   +-0.1      +-                    m i ke

FRANCE
Sta     Dist  EvAz     Phase      Date       Time     TRes  Azim  AzRes  Slow  SRes Def   SNR       Amp   Per   Mag1   Mag2       ID
MBDF  000.23 011.9 m E Pg      2012/03/14 13:57:53.1   0.1                          T                                        4881345
MBDF  000.23 011.9 m E Sg      2012/03/14 13:57:56.2  -0.1                          T                2.6  .22        Md 1.6  4881344
ORIF  000.72 305.6 m E Pg      2012/03/14 13:58:01.7   0.0                          T                                        4881346
ORIF  000.72 305.6 m E Sg      2012/03/14 13:58:11.3   0.1                          T                1.7  .27                4881347
SBF   000.83 140.3 m E Sg      2012/03/14 13:58:15.1   0.6                          T                1.7  .20                4881742
FRF   000.94 182.6 m E Sg      2012/03/14 13:58:17.6  -0.4                          T                1.2  .26 Ml 1.5         4881744
SMRF  000.97 237.4 m E Sn      2012/03/14 13:58:19.4   0.4                          T                1.1  .36 Ml 1.3         4881741
LMR   001.18 187.0 m E Sg      2012/03/14 13:58:25.3   0.0                          T                1.0  .25 Ml 1.5         4881743

.
EVENT     271941
    Date      Time       Latitude Longitude    Depth    Ndef Nsta Gap    Mag1  N    Mag2  N    Mag3  N   Author         ID
       rms   OT_Error      Smajor Sminor Az        Err   mdist  Mdist     Err        Err        Err      Quality

2012/03/14 14:32:40.0     44.3573    6.9215      2.0      12    7 200  Ml 1.7  5  Md 1.6  1              js067245    271961

      0.28   +-  0.18       3.9    2.0   90.97 +-  0.0    0.38   1.68   +-0.1      +-                    m i ke

FRANCE
Sta     Dist  EvAz     Phase      Date       Time     TRes  Azim  AzRes  Slow  SRes Def   SNR       Amp   Per   Mag1   Mag2       ID
MBDF  000.38 343.9 m E Pg      2012/03/14 14:32:47.9   0.3                          T                                        4881378
MBDF  000.38 343.9 m E Sg      2012/03/14 14:32:52.5  -0.2                          T                6.5  .32        Md 1.6  4881377
FRF   000.82 194.1 m E Pg      2012/03/14 14:32:55.4   0.0                          T                                        4881473
ORIF  000.93 307.4 m E Pg      2012/03/14 14:32:57.5  -0.1                          T                                        4881375
ORIF  000.93 307.4 m E Sg      2012/03/14 14:33:10.1   0.4                          T                3.8  .50 Ml 1.7         4881374
VIVF  001.68 288.0 m E P       2012/03/14 14:33:10.6  -0.2                          T                                        4881477
VIVF  001.68 288.0 m E Sg      2012/03/14 14:33:32.6  -0.5                          T                1.9  .40 Ml 1.8         4881475
SMRF  001.04 249.0 m E Sg      2012/03/14 14:33:13.2   0.1                          T                1.2  .22 Ml 1.6         4881376
LPG   001.15 354.0 m E Sg      2012/03/14 14:33:16.2  -0.5                          T                                        4881474
LPL   001.17 353.5 m E Sg      2012/03/14 14:33:17.1  -0.2                          T                2.9  .28 Ml 1.9         4881476

.
EVENT     271945
    Date      Time       Latitude Longitude    Depth    Ndef Nsta Gap    Mag1  N    Mag2  N    Mag3  N   Author         ID
       rms   OT_Error      Smajor Sminor Az        Err   mdist  Mdist     Err        Err        Err      Quality

2012/03/14 15:21:43.9     47.6844    6.0219       .0 f    15    8 101  Ml 2.0  4  Md 2.1  3              js067245    271965

      0.57   +-  0.13       2.4    2.1  107.15 +-  0.0    0.39   1.82   +-0.3      +-0.1                 m i km

FRANCE
Sta     Dist  EvAz     Phase      Date       Time     TRes  Azim  AzRes  Slow  SRes Def   SNR       Amp   Per   Mag1   Mag2       ID
HAU   000.39 034.2 m E Pg      2012/03/14 15:21:51.3  -0.4                          T                                        4881539
HAU   000.39 034.2 m E Sg      2012/03/14 15:21:56.8  -0.3                          T               47.2  .78        Md 2.0  4881534
THEF  000.54 358.0 m E Pg      2012/03/14 15:21:54.2  -0.3                          T                                        4881536
THEF  000.54 358.0 m E Sg      2012/03/14 15:22:01.5  -0.4                          T              104.0  .96        Md 2.2  4881582
HINF  000.58 076.4 m E Pg      2012/03/14 15:21:55.3   0.1                          T                                        4881538
HINF  000.58 076.4 m E Sg      2012/03/14 15:22:03.7   0.7                          T                4.1  .23        Md 2.0  4881535
SFTF  000.84 308.6 m E Pg      2012/03/14 15:22:00.4   0.4 131.1  3.2               T                                        4881580
SFTF  000.84 308.6 m E Sg      2012/03/14 15:22:11.3   0.2                          T               11.8  .35                4881745
PAGF  000.89 347.3 m E Pg      2012/03/14 15:22:01.5   0.5 170.2  3.2               T                                        4881579
PAGF  000.89 347.3 m E Sg      2012/03/14 15:22:12.3  -0.5                          T                3.3  .42 Ml 1.7         4881746
CABF  001.07 177.6 m E Pg      2012/03/14 15:22:04.5   0.1                          T                                        4881537
CABF  001.07 177.6 m E Sg      2012/03/14 15:22:18.5  -0.1                          T                9.9  .37 Ml 2.3         4881578
CDF   001.11 048.7 m E Pg      2012/03/14 15:22:05.0  -0.2                          T                                        4881581
CDF   001.11 048.7 m E Sg      2012/03/14 15:22:19.8   0.1                          T                9.2  .56 Ml 2.2         4881747
SMF   001.82 235.9 m E Sg      2012/03/14 15:22:40.8  -0.7                          T                2.0  .29 Ml 2.0         4881577

.
EVENT     271944
    Date      Time       Latitude Longitude    Depth    Ndef Nsta Gap    Mag1  N    Mag2  N    Mag3  N   Author         ID
       rms   OT_Error      Smajor Sminor Az        Err   mdist  Mdist     Err        Err        Err      Quality

2012/03/14 15:40:25.9     44.0708    7.6580      2.0      35    7 051  Ml 2.5  4  Md 2.3  1              js067245    271964

      0.66   +-  0.13       2.4    2.2   82.97 +-  0.0    0.11   3.46   +-0.3      +-                    m i ke

NORTHERN ITALY
Sta     Dist  EvAz     Phase      Date       Time     TRes  Azim  AzRes  Slow  SRes Def   SNR       Amp   Per   Mag1   Mag2       ID
SBF   000.26 217.8 m E Pg      2012/03/14 15:40:31.6   0.4                          T                                        4881755
SBF   000.26 217.8 m E Sg      2012/03/14 15:40:34.2  -0.6                          T               69.5  .30        Md 2.3  4881586
FRF   000.89 235.5 m E Pg      2012/03/14 15:40:42.8   0.1                          T                                        4881588
FRF   000.89 235.5 m E Sg      2012/03/14 15:40:54.9   0.6                          T                                        4881584
MBDF  000.91 316.2 m E Pg      2012/03/14 15:40:43.3   0.0                          T                                        4881587
MBDF  000.91 316.2 m E Sg      2012/03/14 15:40:55.8   0.6                          T                8.8  .36 Ml 2.2         4881753
LMR   001.11 228.9 m E Pg      2012/03/14 15:40:47.0   0.3                          T                                        4881590
LMR   001.11 228.9 m E Sg      2012/03/14 15:41:01.0  -0.1                          T               30.1  .42 Ml 2.7         4881589
SMRF  001.51 267.1 m E Pg      2012/03/14 15:40:54.4   0.3                          T                                        4881583
SMRF  001.51 267.1 m E Sg      2012/03/14 15:41:13.9   0.4                          T               21.5  .44 Ml 2.7         4881754
ORIF  001.53 304.3 m E Pg      2012/03/14 15:40:54.5  -0.1                          T                                        4881585
ORIF  001.53 304.3 m E Sg      2012/03/14 15:41:15.7   1.4                          T                5.5  .39 Ml 2.2         4881752
VIVF  002.28 291.2 m E P       2012/03/14 15:41:05.2   0.0                          T                                        4881751

.
