EVENT     294927
    Date      Time       Latitude Longitude    Depth    Ndef Nsta Gap    Mag1  N    Mag2  N    Mag3  N   Author         ID
       rms   OT_Error      Smajor Sminor Az        Err   mdist  Mdist     Err        Err        Err      Quality

2013/03/28 16:04:22.9     47.8193    6.7753      2.0      34    8 072  Ml 2.0  6  Md 2.0  3              bulletin    295027
                                                                                                         _ldg
      0.61   +-  0.07       1.8    1.3  169.89 +-  0.0    0.05   2.35   +-0.4      +-0.0                 m i ke

FRANCE
Sta     Dist  EvAz     Phase      Date       Time     TRes  Azim  AzRes  Slow  SRes Def   SNR       Amp   Per   Mag1   Mag2       ID
HINF  000.05 092.9 m E Pg      2013/03/28 16:04:23.4  -1.0                          T                                        5238880
HINF  000.05 092.9 m E Sg      2013/03/28 16:04:24.2  -1.0                          T               98.6  .19        Md 2.0  5238879
HAU   000.34 303.1 m E Pg      2013/03/28 16:04:29.8   0.2                          T                                        5238878
HAU   000.34 303.1 m E Sg      2013/03/28 16:04:35.3   1.1                          T                3.9  .19        Md 2.0  5238896
CDF   000.68 029.3 m E Pg      2013/03/28 16:04:35.8   0.0                          T                                        5245896
CDF   000.68 029.3 m E P       2013/03/28 16:04:36.9  -0.4                          T                                        5238877
CDF   000.68 029.3 m E Pn      2013/03/28 16:04:37.7  -0.4                          T                                        5238911
CDF   000.68 029.3 m E Sg      2013/03/28 16:04:44.4  -0.4                          T                                Md 2.0  5238909
CDF   000.68 029.3 m E Sn      2013/03/28 16:04:48.7   0.0                          T                3.0  .22                5238910
PAGF  001.02 316.7 m E Pn      2013/03/28 16:04:42.5   0.0                          T                                        5238900
PAGF  001.02 316.7 m E Sn      2013/03/28 16:04:57.2   0.7                          T                2.2  .18 Ml 1.9         5238899
CABF  001.30 201.5 m E Pn      2013/03/28 16:04:45.8  -0.6                          T                                        5238876
CABF  001.30 201.5 m E Pg      2013/03/28 16:04:46.5  -0.7                          T                                        5245895
CABF  001.30 201.5 m E Sg      2013/03/28 16:05:03.4  -0.6                          T                  1  .27 Ml 1.5         5238895
MEZF  001.34 301.3 m E Pn      2013/03/28 16:04:46.9   0.0                          T                                        5238898
MEZF  001.34 301.3 m E Sn      2013/03/28 16:05:05.3   1.0                          T               10.1  .25 Ml 2.6         5238897
LOR   002.05 255.5 m E Pn      2013/03/28 16:04:56.6   0.0                          T                                        5238907
LOR   002.05 255.5 m E Pg      2013/03/28 16:05:00.9  -0.1                          T                                        5238906
LOR   002.05 255.5 m E Sn      2013/03/28 16:05:21.1  -0.2                          T                                        5238908
LOR   002.05 255.5 m E Sg      2013/03/28 16:05:27.8   0.4                          T                1.0  .23 Ml 1.9         5238905
SSF   002.35 252.3 m E Pn      2013/03/28 16:05:00.2  -0.4                          T                                        5238902
SSF   002.35 252.3 m E Pg      2013/03/28 16:05:06.1  -0.3                          T                                        5238901
SSF   002.35 252.3 m E Sn      2013/03/28 16:05:27.9  -0.4                          T                                        5238904
SSF   002.35 252.3 m E Sg      2013/03/28 16:05:37.0   0.4                          T                2.5  .40 Ml 2.2         5238903

.
EVENT     294925
    Date      Time       Latitude Longitude    Depth    Ndef Nsta Gap    Mag1  N    Mag2  N    Mag3  N   Author         ID
       rms   OT_Error      Smajor Sminor Az        Err   mdist  Mdist     Err        Err        Err      Quality

2013/03/28 16:13:39.3     42.3112   18.9007     25.0      39   18 086  Ml 3.9 11                         bulletin    295025
                                                                                                         _ldg
      0.77   +-  0.17       4.4    2.5  178.62 +-  0.0    0.01  11.96   +-0.4                            m i ke

NORTHWESTERN BALKAN PEN.
Sta     Dist  EvAz     Phase      Date       Time     TRes  Azim  AzRes  Slow  SRes Def   SNR       Amp   Per   Mag1   Mag2       ID
PGF   007.33 275.2 m E P       2013/03/28 16:15:28.8   1.1                          T                                        5238774
SBF   008.53 284.3 m E P       2013/03/28 16:15:44.6   0.2                          T                                        5238777
SBF   008.53 284.3 m E Sn      2013/03/28 16:17:07.4  -1.1                          T                1.2  .20 Ml 3.3         5244427
FRF   009.08 282.0 m E P       2013/03/28 16:15:51.0  -0.9                          T                                        5238776
FRF   009.08 282.0 m E Sn      2013/03/28 16:17:20.1  -1.3                          T                3.0  .43 Ml 3.5         5244425
MBDF  009.14 289.4 m E P       2013/03/28 16:15:52.3  -0.6                          T                                        5238781
MBDF  009.14 289.4 m E Sn      2013/03/28 16:17:22.6  -0.5                          T               38.5 1.16 Ml 4.1         5238790
LMR   009.17 280.6 m E P       2013/03/28 16:15:53.9   0.8                          T                                        5238775
LMR   009.17 280.6 m E Sn      2013/03/28 16:17:22.4  -1.1                          T                4.0  .49 Ml 3.5         5244426
LPG   009.33 294.1 m E P       2013/03/28 16:15:56.1   0.3                          T                                        5238778
LPG   009.33 294.1 m E Sn      2013/03/28 16:17:27.1  -0.7                          T               15.8  .57 Ml 4.1         5238800
LPL   009.35 294.2 m E P       2013/03/28 16:15:56.4   0.5                          T                                        5238779
LPL   009.35 294.2 m E Sn      2013/03/28 16:17:28.3   0.1                          T                                        5244423
LPL   009.35 294.2 m E S       2013/03/28 16:17:42.8   1.3                          T               25.4  .62                5238799
ORIF  009.80 289.8 m E P       2013/03/28 16:16:01.8  -0.2                          T                                        5238780
ORIF  009.80 289.8 m E Sn      2013/03/28 16:17:38.8   0.1                          T               12.7  .65 Ml 4.0         5244422
SMRF  009.88 284.2 m E P       2013/03/28 16:16:02.6  -0.5                          T                                        5244424
CABF  010.12 299.5 m E P       2013/03/28 16:16:06.1  -0.2                          T                                        5238785
CABF  010.12 299.5 m E Sn      2013/03/28 16:17:46.9   0.5                          T               27.7 1.03 Ml 4.2         5238793
CDF   010.20 310.7 m E P       2013/03/28 16:16:07.5   0.0                          T                                        5238788
HINF  010.14 307.0 m E P       2013/03/28 16:16:08.0   1.4                          T               26.9  .98                5238773
HINF  010.14 307.0 m E Sn      2013/03/28 16:17:47.3   0.3                          T               26.4  .92 Ml 4.2         5238794
HAU   010.53 307.0 m E P       2013/03/28 16:16:13.0   1.0                          T                                        5238789
HAU   010.53 307.0 m E Sn      2013/03/28 16:17:56.5   0.3                          T               26.6  .70 Ml 4.2         5238795
VIVF  010.63 288.7 m E P       2013/03/28 16:16:13.4   0.1                          T                                        5244420
SMF   011.60 297.1 m E P       2013/03/28 16:16:26.9   0.5                          T                                        5238782
SMF   011.60 297.1 m E S       2013/03/28 16:18:35.1  -1.2                          T               30.4  .96                5238792
LOR   011.78 300.0 m E P       2013/03/28 16:16:27.9  -1.0                          T                                        5238786
LOR   011.78 300.0 m E Sn      2013/03/28 16:18:26.6   0.7                          T               25.0  .92 Ml 4.4         5238797
SSF   011.94 298.7 m E P       2013/03/28 16:16:30.2  -0.8                          T                                        5238787
SSF   011.94 298.7 m E Sn      2013/03/28 16:18:30.5   0.7                          T                3.2  .45 Ml 3.9         5244421
AVF   011.96 297.3 m E P       2013/03/28 16:16:30.6  -0.7                          T                                        5238783
AVF   011.96 297.3 m E S       2013/03/28 16:18:46.7   1.7                          T                 10  .94                5238791

.
EVENT     294928
    Date      Time       Latitude Longitude    Depth    Ndef Nsta Gap    Mag1  N    Mag2  N    Mag3  N   Author         ID
       rms   OT_Error      Smajor Sminor Az        Err   mdist  Mdist     Err        Err        Err      Quality

2013/03/28 20:17:50.6     36.9121    5.1419     30.0      31   11 245  Ml 3.0  6                         bulletin    295028
                                                                                                         _ldg
      0.86   +-  0.54      11.6    6.5  144.31 +-  0.0    3.39   8.68   +-0.2                            m i ke

NORTHERN ALGERIA
Sta     Dist  EvAz     Phase      Date       Time     TRes  Azim  AzRes  Slow  SRes Def   SNR       Amp   Per   Mag1   Mag2       ID
PGF   006.37 026.6 m E Pn      2013/03/28 20:19:20.3  -0.3                          T                                        5238866
PGF   006.37 026.6 m E Sn      2013/03/28 20:20:25.5  -2.5                          T                2.0  .22 Ml 3.4         5238867
LMR   006.50 008.8 m E Pn      2013/03/28 20:19:22.8   0.5                          T                                        5238872
LMR   006.50 008.8 m E Sn      2013/03/28 20:20:30.7  -0.3                          T                3.3  .43 Ml 3.1         5238865
FRF   006.74 009.4 m E Pn      2013/03/28 20:19:25.8   0.2                          T                                        5238871
FRF   006.74 009.4 m E Sn      2013/03/28 20:20:34.8  -2.0                          T                 .9  .24 Ml 2.8         5238864
MTLF  006.80 341.7 m E Pn      2013/03/28 20:19:27.1   0.7                          T                                        5238873
MTLF  006.80 341.7 m E Sn      2013/03/28 20:20:38.2  -0.1                          T                 .5  .19 Ml 2.6         5238862
SMRF  007.06 002.5 m E Pn      2013/03/28 20:19:31.6   1.5                          T                                        5238870
SBF   007.16 013.4 m E Pn      2013/03/28 20:19:32.3   0.9                          T                                        5238858
SBF   007.16 013.4 m E Sn      2013/03/28 20:20:44.7  -2.3                          T                1.1  .20 Ml 3.0         5238859
EPF   007.14 330.4 m E Pn      2013/03/28 20:19:32.5   1.4                          T                                        5238875
EPF   007.14 330.4 m E Sn      2013/03/28 20:20:46.1  -0.3                          T                1.6  .30 Ml 3.0         5238861
LASF  007.22 352.6 m E Pn      2013/03/28 20:19:32.8   0.6                          T                                        5238869
LASF  007.22 352.6 m E Sn      2013/03/28 20:20:46.3  -2.1                          T                                        5238863
ETSF  007.41 325.5 m E Pn      2013/03/28 20:19:35.5   0.7                          T                                        5238874
SJPF  007.89 323.7 m E Pn      2013/03/28 20:19:41.9   0.7                          T                                        5238868
LFF   008.68 338.8 m E Pn      2013/03/28 20:19:51.2  -0.8                          T                                        5238860

.
EVENT     294931
    Date      Time       Latitude Longitude    Depth    Ndef Nsta Gap    Mag1  N    Mag2  N    Mag3  N   Author         ID
       rms   OT_Error      Smajor Sminor Az        Err   mdist  Mdist     Err        Err        Err      Quality

2013/03/28 21:40:53.6     42.7268   -1.7874      2.0      20    4 157  Ml 1.8  3  Md 1.9  2              bulletin    295031
                                                                                                         _ldg
      0.21   +-  0.08       1.5    1.1   11.92 +-  0.0    0.16   2.87   +-0.1      +-0.0                 m i ke

PYRENEES
Sta     Dist  EvAz     Phase      Date       Time     TRes  Azim  AzRes  Slow  SRes Def   SNR       Amp   Per   Mag1   Mag2       ID
SJPF  000.57 046.7 m E Pg      2013/03/28 21:41:04.1  -0.3                          T                                        5238921
SJPF  000.57 046.7 m E Sg      2013/03/28 21:41:11.7  -0.1                          T                7.0  .31        Md 1.9  5238920
ETSF  000.92 078.8 m E Pg      2013/03/28 21:41:11.0   0.0                          T                                        5238919
ETSF  000.92 078.8 m E Sg      2013/03/28 21:41:23.0   0.1                          T                2.8  .29 Ml 1.8 Md 1.9  5238918
EPF   001.59 078.3 m E Pg      2013/03/28 21:41:23.3   0.0                          T                                        5238917
EPF   001.59 078.3 m E Sg      2013/03/28 21:41:44.0   0.1                          T                1.5  .29 Ml 1.8         5238916
LFF   002.87 038.7 m E Pn      2013/03/28 21:41:38.6   0.2                          T                                        5238912
LFF   002.87 038.7 m E Pg      2013/03/28 21:41:46.7  -0.1                          T                                        5238915
LFF   002.87 038.7 m E Sn      2013/03/28 21:42:12.0   0.5                          T                                        5238913
LFF   002.87 038.7 m E Sg      2013/03/28 21:42:23.6  -0.1                          T                1.4  .26 Ml 2.0         5238914

.
