EVENT     297308
    Date      Time       Latitude Longitude    Depth    Ndef Nsta Gap    Mag1  N    Mag2  N    Mag3  N   Author         ID
       rms   OT_Error      Smajor Sminor Az        Err   mdist  Mdist     Err        Err        Err      Quality

2013/05/02 11:11:41.5     43.1416    -.5671      2.0     125   22 046  Ml 2.6 40  Md 2.6  3              bulletin    297408
                                                                                                         _ldg
      0.81   +-  0.06       1.3    1.1  114.05 +-  0.0    0.11   5.53   +-0.3      +-0.1                 m i ke

PYRENEES
Sta     Dist  EvAz     Phase      Date       Time     TRes  Azim  AzRes  Slow  SRes Def   SNR       Amp   Per   Mag1   Mag2       ID
ETSF  000.24 178.6 m E Pg      2013/05/02 11:11:45.2  -1.2                          T   001.0                                5273160
ETSF  000.24 178.6 m E Sg      2013/05/02 11:11:47.9  -1.8                          T              231.9  .17        Md 2.5  5273211
SJPF  000.48 266.9 m E Pg      2013/05/02 11:11:49.9  -0.8                          T   001.0                                5273164
SJPF  000.48 266.9 m E Sg      2013/05/02 11:11:56.1  -1.0                          T               91.4  .25        Md 2.6  5273214
EPF   000.67 099.2 m E Pg      2013/05/02 11:11:54.1  -0.2                          T   001.0                                5273145
EPF   000.67 099.2 m E Sg      2013/05/02 11:12:04.1   1.1                          T               72.8  .21        Md 2.7  5273213
MTLF  002.04 083.5 m E Pn      2013/05/02 11:12:15.1   0.0                          T                                        5283808
MTLF  002.04 083.5 m E Pg      2013/05/02 11:12:19.0  -0.4                          T                                        5283726
MTLF  002.04 083.5 m E Sn      2013/05/02 11:12:39.8   0.1                          T                2.2  .24 Ml 2.2         5283725
MTLF  002.04 083.5 m E Sg      2013/05/02 11:12:46.0   0.2                          T                5.5  .21 Ml 2.6         5283800
LFF   002.03 027.2 m E Pg      2013/05/02 11:12:19.7   0.5                          T                                        5283734
LFF   002.03 027.2 m E Sg      2013/05/02 11:12:45.7   0.4                          T               20.9  .29 Ml 2.9         5283733
RJF   002.63 034.0 m E Pn      2013/05/02 11:12:22.1  -0.9                          T                                        5283747
RJF   002.63 034.0 m E Pg      2013/05/02 11:12:30.3   0.1                          T                                        5283796
RJF   002.63 034.0 m E Sn      2013/05/02 11:12:53.7   0.0                          T                3.4  .26 Ml 2.1         5283797
RJF   002.63 034.0 m E Sg      2013/05/02 11:13:04.7   0.6                          T                7.8  .18 Ml 2.6         5283798
CAF   002.60 045.9 m E Pn      2013/05/02 11:12:22.7  -0.1                          T                                        5283742
CAF   002.60 045.9 m E Sn      2013/05/02 11:12:52.8  -0.4                          T                3.0  .21 Ml 2.5         5283741
CAF   002.60 045.9 m E Sg      2013/05/02 11:13:03.9   0.6                          T                5.3  .19 Ml 2.8         5283799
LASF  003.35 072.3 m E Pn      2013/05/02 11:12:33.0   0.1                          T                                        5283738
LASF  003.35 072.3 m E Pg      2013/05/02 11:12:43.6   0.2                          T                                        5283801
LASF  003.35 072.3 m E Sn      2013/05/02 11:13:11.0   0.2                          T                1.2  .23 Ml 2.2         5283737
LASF  003.35 072.3 m E Sg      2013/05/02 11:13:26.5   0.0                          T                2.0  .17 Ml 2.6         5283736
MFF   003.47 004.8 m E Pn      2013/05/02 11:12:33.9  -0.6                          T                                        5283731
MFF   003.47 004.8 m E Pg      2013/05/02 11:12:45.9   0.1                          T                                        5283779
MFF   003.47 004.8 m E Sn      2013/05/02 11:13:14.0   0.2                          T                1.4  .18 Ml 2.6         5283780
MFF   003.47 004.8 m E Sg      2013/05/02 11:13:30.2  -0.2                          T                4.2  .22 Ml 3.0         5283781
TCF   003.72 031.2 m E Pn      2013/05/02 11:12:38.1   0.2                          T                                        5283728
TCF   003.72 031.2 m E Pg      2013/05/02 11:12:51.1   0.8                          T                  6  .32 Ml 2.9         5283727
TCF   003.72 031.2 m E Sn      2013/05/02 11:13:20.1   0.4                          T                1.1  .16 Ml 2.5         5283782
TCF   003.72 031.2 m E Sg      2013/05/02 11:13:37.9  -0.1                          T                2.1  .21 Ml 2.6         5283783
BGF   004.19 034.2 m E Pn      2013/05/02 11:12:44.2  -0.1                          T                                        5283744
BGF   004.19 034.2 m E Pg      2013/05/02 11:12:59.0   0.0                          T                                        5283794
BGF   004.19 034.2 m E Sn      2013/05/02 11:13:30.9   0.0                          T                1.9  .20 Ml 2.7         5283743
BGF   004.19 034.2 m E Sg      2013/05/02 11:13:52.8   0.1                          T               11.5  .32 Ml 3.3         5283795
VIVF  004.15 063.8 m E Pn      2013/05/02 11:12:44.5   0.7                          T                                        5283802
VIVF  004.15 063.8 m E Pg      2013/05/02 11:12:58.1  -0.2                          T                                        5283803
VIVF  004.15 063.8 m E Sn      2013/05/02 11:13:30.3   0.2                          T                 .9  .24 Ml 2.3         5283723
VIVF  004.15 063.8 m E Sg      2013/05/02 11:13:51.8   0.2                          T                  1  .22 Ml 2.3         5283804
AVF   004.59 036.0 m E Pn      2013/05/02 11:12:49.0   0.3                          T                                        5283746
AVF   004.59 036.0 m E Pg      2013/05/02 11:13:06.2  -0.1                          T                2.8  .32 Ml 2.7         5283745
AVF   004.59 036.0 m E Sn      2013/05/02 11:13:40.8   0.4                          T                 .4  .20 Ml 2.1         5283784
AVF   004.59 036.0 m E Sg      2013/05/02 11:14:05.4   0.2                          T                3.1  .40 Ml 2.7         5283785
HYF   004.71 027.7 m E Pn      2013/05/02 11:12:50.6  -0.7                          T                                        5283790
HYF   004.71 027.7 m E Pg      2013/05/02 11:13:08.5  -0.1                          T                                        5283791
HYF   004.71 027.7 m E Sn      2013/05/02 11:13:43.3   0.0                          T                                        5283792
HYF   004.71 027.7 m E Sg      2013/05/02 11:14:09.0   0.1                          T                                        5283793
SMF   004.70 040.3 m E Pn      2013/05/02 11:12:51.7   0.5                          T                                        5283786
SMF   004.70 040.3 m E Pg      2013/05/02 11:13:09.4   1.0                          T                                        5283787
SMF   004.70 040.3 m E Sn      2013/05/02 11:13:43.0  -0.1                          T                 .7  .23 Ml 2.3         5283788
SMF   004.70 040.3 m E Sg      2013/05/02 11:14:08.6  -0.1                          T                 .8  .21 Ml 2.4         5283789
SSF   004.87 034.9 m E Pn      2013/05/02 11:12:53.3  -0.3                          T                                        5283730
SSF   004.87 034.9 m E Sn      2013/05/02 11:13:47.1   0.0                          T                 .6  .26 Ml 2.3         5283729
SSF   004.87 034.9 m E Sg      2013/05/02 11:14:13.7  -0.1                          T                2.3  .36 Ml 2.7         5283748
QUIF  005.11 340.0 m E Pn      2013/05/02 11:12:56.6  -0.2                          T                                        5283775
QUIF  005.11 340.0 m E Pg      2013/05/02 11:13:15.4  -0.5                          T                                        5283776
QUIF  005.11 340.0 m E Sn      2013/05/02 11:13:53.0   0.0                          T                1.3  .23 Ml 2.6         5283777
QUIF  005.11 340.0 m E Sg      2013/05/02 11:14:21.2  -0.3                          T                1.7  .27 Ml 2.7         5283778
LOR   005.18 035.6 m E Pn      2013/05/02 11:12:58.0   0.2 208.4  -10.4             T                                        5283807
LOR   005.18 035.6 m E Pg      2013/05/02 11:13:17.0  -0.2 202.3  -16.5             T                                        5283806
LOR   005.18 035.6 m E Sn      2013/05/02 11:13:54.1  -0.4                          T                 .5  .24 Ml 2.2         5283805
LOR   005.18 035.6 m E Sg      2013/05/02 11:14:23.4  -0.2                          T                3.1  .37 Ml 2.8         5283732
GRR   005.25 357.9 m E Pn      2013/05/02 11:12:58.7   0.0                          T                                        5283740
GRR   005.25 357.9 m E Pg      2013/05/02 11:13:18.1  -0.4                          T                                        5283766
GRR   005.25 357.9 m E Sn      2013/05/02 11:13:56.1  -0.2                          T                2.7  .31 Ml 2.7         5283739
GRR   005.25 357.9 m E Sg      2013/05/02 11:14:25.6  -0.2                          T                1.6  .23 Ml 2.6         5283767
SGMF  005.30 345.4 m E Pn      2013/05/02 11:12:59.4   0.0                          T                                        5283771
SGMF  005.30 345.4 m E Pg      2013/05/02 11:13:19.4   0.0                          T                                        5283772
SGMF  005.30 345.4 m E Sn      2013/05/02 11:13:57.2  -0.3                          T                 .7  .18 Ml 2.5         5283773
SGMF  005.30 345.4 m E Sg      2013/05/02 11:14:27.1  -0.3                          T                 .8  .18 Ml 2.6         5283774
LDF   005.46 003.1 m E Pn      2013/05/02 11:13:00.7  -0.9                          T                                        5283749
LDF   005.46 003.1 m E Pg      2013/05/02 11:13:26.0   3.6                          T                                        5283750
LDF   005.46 003.1 m E Sg      2013/05/02 11:14:32.2  -0.2                          T                1.1  .22 Ml 2.6         5283735
ROSF  005.53 340.9 m E Pn      2013/05/02 11:13:02.4  -0.2                          T                                        5283724
ROSF  005.53 340.9 m E Pg      2013/05/02 11:13:23.9   0.2                          T                                        5283768
ROSF  005.53 340.9 m E Sn      2013/05/02 11:14:02.8  -0.2                          T                 .6  .20 Ml 2.5         5283769
ROSF  005.53 340.9 m E Sg      2013/05/02 11:14:34.4  -0.2                          T                 .7  .18 Ml 2.6         5283770

.
EVENT     297315
    Date      Time       Latitude Longitude    Depth    Ndef Nsta Gap    Mag1  N    Mag2  N    Mag3  N   Author         ID
       rms   OT_Error      Smajor Sminor Az        Err   mdist  Mdist     Err        Err        Err      Quality

2013/05/02 11:48:55.3     42.7657   -1.3346      2.0      40    7 056  Ml 2.4  4  Md 2.2  2              bulletin    297415
                                                                                                         _ldg
      0.67   +-  0.11       2.0    2.0   46.75 +-  0.0    0.12   3.94   +-0.2      +-0.1                 m i ke

PYRENEES
Sta     Dist  EvAz     Phase      Date       Time     TRes  Azim  AzRes  Slow  SRes Def   SNR       Amp   Per   Mag1   Mag2       ID
SJPF  000.36 013.0 m E Pg      2013/05/02 11:49:01.9  -0.3                          T                                        5273336
SJPF  000.36 013.0 m E Sg      2013/05/02 11:49:07.4   0.4                          T              196.1  .36        Md 2.1  5273332
ETSF  000.59 076.6 m E Pg      2013/05/02 11:49:05.2  -1.3                          T                                        5273335
ETSF  000.59 076.6 m E Sg      2013/05/02 11:49:14.3   0.1                          T               22.4  .28        Md 2.3  5273331
EPF   001.26 077.3 m E Pg      2013/05/02 11:49:18.4  -0.5                          T                                        5273334
EPF   001.26 077.3 m E Sg      2013/05/02 11:49:37.7   2.5                          T               16.4  .28 Ml 2.7         5273333
MTLF  002.67 076.3 m E Pn      2013/05/02 11:49:37.3   0.0                          T                                        5273329
MTLF  002.67 076.3 m E Pg      2013/05/02 11:49:44.5  -0.2                          T                                        5283851
MTLF  002.67 076.3 m E Sg      2013/05/02 11:50:19.1   0.1                          T                2.6  .30 Ml 2.3         5283852
LFF   002.64 033.9 m E Pg      2013/05/02 11:49:44.4   0.2                          T                                        5283847
LFF   002.64 033.9 m E Sg      2013/05/02 11:50:18.4   0.2                          T                7.7  .38 Ml 2.5         5283848
RJF   003.27 038.0 m E Pn      2013/05/02 11:49:46.6   1.0                          T                                        5273330
CAF   003.27 047.6 m E P       2013/05/02 11:49:48.6  -0.1                          T                                        5283849
CAF   003.27 047.6 m E Sn      2013/05/02 11:50:22.9   0.0                          T                                        5283850
CAF   003.27 047.6 m E Sg      2013/05/02 11:50:38.1   0.1                          T                1.5  .25 Ml 2.3         5283853

.
EVENT     297316
    Date      Time       Latitude Longitude    Depth    Ndef Nsta Gap    Mag1  N    Mag2  N    Mag3  N   Author         ID
       rms   OT_Error      Smajor Sminor Az        Err   mdist  Mdist     Err        Err        Err      Quality

2013/05/02 11:57:06.8     42.7833   -1.3442      2.0      16    3 108  Ml 1.9  1  Md 1.9  2              bulletin    297416
                                                                                                         _ldg
      0.78   +-  0.20       4.4    3.2  176.68 +-  0.0    0.12   1.26   +-         +-0.0                 m i ke

PYRENEES
Sta     Dist  EvAz     Phase      Date       Time     TRes  Azim  AzRes  Slow  SRes Def   SNR       Amp   Per   Mag1   Mag2       ID
SJPF  000.34 014.8 m E Pg      2013/05/02 11:57:12.8  -0.7                          T                                Md 1.9  5273324
SJPF  000.34 014.8 m E Sg      2013/05/02 11:57:18.4   0.4                          T                                        5273339
ETSF  000.59 078.4 m E Pg      2013/05/02 11:57:17.2  -0.9                          T                                Md 1.9  5273323
ETSF  000.59 078.4 m E Sg      2013/05/02 11:57:25.9   0.1                          T                                        5273338
EPF   001.26 078.1 m E Pg      2013/05/02 11:57:30.7   0.3                          T                                        5273322
EPF   001.26 078.1 m E Sg      2013/05/02 11:57:49.5   2.7                          T                2.7  .26 Ml 1.9         5273337

.
EVENT     297339
    Date      Time       Latitude Longitude    Depth    Ndef Nsta Gap    Mag1  N    Mag2  N    Mag3  N   Author         ID
       rms   OT_Error      Smajor Sminor Az        Err   mdist  Mdist     Err        Err        Err      Quality

2013/05/02 15:12:50.2     47.5574    6.0227       .0 f    16    9 112  Ml 2.1  6  Md 1.9  1              bulletin    297439
                                                                                                         _ldg
      0.34   +-  0.08       1.7    1.3  135.07 +-  0.0    0.50   1.78   +-0.2      +-                    m i km

FRANCE
Sta     Dist  EvAz     Phase      Date       Time     TRes  Azim  AzRes  Slow  SRes Def   SNR       Amp   Per   Mag1   Mag2       ID
HAU   000.50 026.0 m E Pg      2013/05/02 15:12:59.6  -0.5                          T                                        5273369
HAU   000.50 026.0 m E Sg      2013/05/02 15:13:06.7  -0.2                          T                7.9  .24        Md 1.9  5273364
HINF  000.62 064.9 m E Pg      2013/05/02 15:13:02.3   0.0                          T                                        5283855
HINF  000.62 064.9 m E Sg      2013/05/02 15:13:10.7   0.2                          T                3.2  .26                5283856
CABF  000.95 177.3 m E Pg      2013/05/02 15:13:08.6   0.2                          T                                        5273362
CABF  000.95 177.3 m E Sn      2013/05/02 15:13:22.9  -0.1                          T                3.4  .23 Ml 2.0         5273363
SFTF  000.93 314.7 m E Pn      2013/05/02 15:13:09.2   0.1 135.7  1.7               T                                        5273370
SFTF  000.93 314.7 m E Sn      2013/05/02 15:13:22.5   0.0                          T                4.5  .20 Ml 2.1         5273371
PAGF  001.02 348.8 m E Pg      2013/05/02 15:13:09.7   0.1                          T                                        5273373
PAGF  001.02 348.8 m E Sg      2013/05/02 15:13:23.5   0.5                          T                3.5  .28 Ml 1.9         5273372
MEZF  001.15 325.8 m E P       2013/05/02 15:13:13.6   0.2                          T                                        5283854
LOR   001.50 259.7 m E Pg      2013/05/02 15:13:18.2  -0.2  77.9  -0.2              T                                        5273368
LOR   001.50 259.7 m E Sg      2013/05/02 15:13:38.3   0.4  80.4  2.4               T                3.3  .20 Ml 2.3         5273365
SSF   001.78 254.8 m E Pg      2013/05/02 15:13:22.7  -1.0                          T                                        5273367
SSF   001.78 254.8 m E Sg      2013/05/02 15:13:46.3  -0.5                          T                2.1  .21 Ml 2.3         5273366
CDF   001.20 044.1 m E Sn      2013/05/02 15:13:29.2   0.1                          T                1.4  .16 Ml 1.9         5283857

.
EVENT     297340
    Date      Time       Latitude Longitude    Depth    Ndef Nsta Gap    Mag1  N    Mag2  N    Mag3  N   Author         ID
       rms   OT_Error      Smajor Sminor Az        Err   mdist  Mdist     Err        Err        Err      Quality

2013/05/02 17:25:54.8     42.8981     .0256      2.0       8    4 196  Ml 1.5  2  Md 1.6  2              bulletin    297440
                                                                                                         _ldg
      0.28   +-  0.24      13.8    1.9  173.02 +-  0.0    0.27   1.66   +-0.4      +-0.0                 m i ke

PYRENEES
Sta     Dist  EvAz     Phase      Date       Time     TRes  Azim  AzRes  Slow  SRes Def   SNR       Amp   Per   Mag1   Mag2       ID
EPF   000.27 060.1 m E Pg      2013/05/02 17:25:59.1  -0.9                          T                                        5273381
EPF   000.27 060.1 m E Sg      2013/05/02 17:26:03.0  -0.7                          T               11.7  .24        Md 1.6  5273380
ETSF  000.43 270.3 m E Pg      2013/05/02 17:26:02.9  -0.3                          T                                        5273378
ETSF  000.43 270.3 m E Sg      2013/05/02 17:26:08.8   0.0                          T                2.7  .20        Md 1.6  5273379
SJPF  000.94 283.6 m E Pg      2013/05/02 17:26:12.6   0.1                          T                                        5273374
SJPF  000.94 283.6 m E Sg      2013/05/02 17:26:24.9   0.2                          T                 .5  .19 Ml 1.2         5273375
MTLF  001.66 073.8 m E Pg      2013/05/02 17:26:25.9   0.2                          T                                        5273377
MTLF  001.66 073.8 m E Sg      2013/05/02 17:26:47.4   0.2                          T                 .9  .23 Ml 1.7         5273376

.
