EVENT     269188
    Date      Time       Latitude Longitude    Depth    Ndef Nsta Gap    Mag1  N    Mag2  N    Mag3  N   Author         ID
       rms   OT_Error      Smajor Sminor Az        Err   mdist  Mdist     Err        Err        Err      Quality

2012/01/26 16:27:51.0     47.9756    7.2426     10.0      78   28 026  Ml 3.0 25  Md 3.2  3              js067245    269208

      0.68   +-  0.04        .8     .7  154.10 +-  0.0    0.14   5.43   +-0.3      +-0.1                 m i ke

SWITZERLAND
Sta     Dist  EvAz     Phase      Date       Time     TRes  Azim  AzRes  Slow  SRes Def   SNR       Amp   Per   Mag1   Mag2       ID
HINF  000.31 238.9 m E Pg      2012/01/26 16:27:57.0  -0.2                          T   001.0                                4823174
HINF  000.31 238.9 m E Sg      2012/01/26 16:28:01.2  -0.4                          T              519.2  .20        Md 3.1  4827056
CDF   000.44 002.9 m E Pg      2012/01/26 16:27:59.5  -0.2                          T   001.0                                4823146
CDF   000.44 002.9 m E Sg      2012/01/26 16:28:05.2  -0.4                          T   001.0      157.6  .28        Md 3.2  4823147
HAU   000.60 273.2 m E Pg      2012/01/26 16:28:02.7   0.1                          T   001.0                                4823149
HAU   000.60 273.2 m E Sg      2012/01/26 16:28:10.0  -0.5                          T   001.0       93.5  .20        Md 3.2  4823150
THEF  000.87 287.3 m E Pn      2012/01/26 16:28:07.8  -0.1                          T                                        4827078
THEF  000.87 287.3 m E P       2012/01/26 16:28:08.7  -0.1                          T                                        4827077
THEF  000.87 287.3 m E Sg      2012/01/26 16:28:18.6  -0.3                          T                                        4827057
THEF  000.87 287.3 m E Sn      2012/01/26 16:28:19.7  -0.1                          T              115.4  .28 Ml 3.4         4827058
LANF  001.07 020.2 m E Pg      2012/01/26 16:28:11.3   0.1                          T                                        4827083
LANF  001.07 020.2 m E Sg      2012/01/26 16:28:25.1   0.0                          T               58.6  .21 Ml 3.3         4827062
PAGF  001.17 300.3 m E Pg      2012/01/26 16:28:13.7   0.8 117.3  -1.9              T                                        4827084
PAGF  001.17 300.3 m E Sg      2012/01/26 16:28:27.9  -0.2 130.6  11.4              T               11.5  .19 Ml 2.7         4827061
SFTF  001.50 279.6 m E Pn      2012/01/26 16:28:16.4   0.1 104.0  6.0               T                                        4827086
SFTF  001.50 279.6 m E Pg      2012/01/26 16:28:19.0   0.0  94.0  -4.0              T                                        4827085
SFTF  001.50 279.6 m E Sg      2012/01/26 16:28:38.1  -0.2  73.4  -24.7             T               41.6  .16 Ml 3.4         4827059
CABF  001.58 210.4 m E Pn      2012/01/26 16:28:17.9   0.4                          T   001.0                                4823170
CABF  001.58 210.4 m E Pg      2012/01/26 16:28:20.1  -0.4                          T                                        4827076
CABF  001.58 210.4 m E Sg      2012/01/26 16:28:40.7  -0.2                          T   001.0       28.4  .24 Ml 3.1         4823171
MEZF  001.56 290.6 m E Pg      2012/01/26 16:28:19.7  -0.3 114.1  5.1               T                                        4827054
MEZF  001.56 290.6 m E Sg      2012/01/26 16:28:40.0  -0.2 105.0  -4.0              T               24.6  .18 Ml 3.2         4827060
LOR   002.40 254.1 m E Pn      2012/01/26 16:28:29.2   0.7  78.1  6.5               T   001.0                                4823153
LOR   002.40 254.1 m E Pg      2012/01/26 16:28:36.0   0.4  77.8  6.2               T   001.0                                4823154
LOR   002.40 254.1 m E Sn      2012/01/26 16:28:55.0  -0.2                          T   001.0                                4823155
LOR   002.40 254.1 m E Sg      2012/01/26 16:29:06.1  -0.3  80.8  9.2               T   001.0         18  .20 Ml 3.3         4823156
GIVF  002.66 324.1 m E Pn      2012/01/26 16:28:32.2   0.1                          T   001.0                                4823172
GIVF  002.66 324.1 m E Pg      2012/01/26 16:28:40.3   0.0                          T                                        4827081
GIVF  002.66 324.1 m E Sg      2012/01/26 16:29:13.7  -0.8                          T   001.0       12.9  .28 Ml 3.0         4823173
SSF   002.69 251.5 m E Pn      2012/01/26 16:28:32.3  -0.3                          T   001.0                                4823164
SSF   002.69 251.5 m E Pg      2012/01/26 16:28:41.5   0.5                          T   001.0                                4823165
SSF   002.69 251.5 m E Sn      2012/01/26 16:29:02.5  -0.8                          T   001.0                                4823166
SSF   002.69 251.5 m E Sg      2012/01/26 16:29:15.3  -0.3                          T   001.0         18  .36 Ml 3.1         4823167
SMF   002.67 241.4 m E Pn      2012/01/26 16:28:32.4   0.1                          T   001.0                                4823160
SMF   002.67 241.4 m E Pg      2012/01/26 16:28:40.7   0.2                          T   001.0                                4823161
SMF   002.67 241.4 m E Sn      2012/01/26 16:29:01.9  -0.8                          T   001.0                                4823162
SMF   002.67 241.4 m E Sg      2012/01/26 16:29:13.7  -1.2                          T   001.0       37.9  .28 Ml 3.5         4823163
AVF   002.90 247.3 m E Pn      2012/01/26 16:28:35.2  -0.2                          T                                        4827075
AVF   002.90 247.3 m E Pg      2012/01/26 16:28:45.2   0.5                          T                                        4827074
AVF   002.90 247.3 m E Sg      2012/01/26 16:29:21.6  -0.4                          T   001.0        5.3  .24 Ml 2.7         4823143
LPG   002.50 187.9 m E Pg      2012/01/26 16:28:37.6  -0.2                          T   001.0                                4823157
LPG   002.50 187.9 m E Sg      2012/01/26 16:29:09.5  -0.5                          T   001.0        4.7  .28 Ml 2.5         4823158
LPL   002.49 188.3 m E Pg      2012/01/26 16:28:37.9   0.5                          T   001.0                                4823159
LPL   002.49 188.3 m E Sg      2012/01/26 16:29:09.5   0.1                          T                4.2  .32 Ml 2.4         4827069
BAIF  002.89 317.4 m E P       2012/01/26 16:28:38.0  -0.2                          T                                        4827080
BAIF  002.89 317.4 m E Pg      2012/01/26 16:28:44.3  -0.2                          T                                        4827079
BAIF  002.89 317.4 m E Sg      2012/01/26 16:29:21.1  -0.6                          T   001.0       13.1  .64 Ml 2.7         4823169
HYF   003.19 258.9 m E Pg      2012/01/26 16:28:51.0   0.8                          T                                        4827073
HYF   003.19 258.9 m E Sg      2012/01/26 16:29:30.5  -0.7                          T                                        4827063
MBDF  003.27 185.9 m E Pg      2012/01/26 16:28:51.9   0.1                          T                                        4827070
MBDF  003.27 185.9 m E Sg      2012/01/26 16:29:33.3  -0.4                          T                3.9  .46 Ml 2.4         4827067
BGF   003.31 246.3 m E Pg      2012/01/26 16:28:52.9   0.5                          T                                        4827072
BGF   003.31 246.3 m E Sn      2012/01/26 16:29:16.1  -2.0                          T   001.0                                4823144
BGF   003.31 246.3 m E Sg      2012/01/26 16:29:34.4  -0.5                          T   001.0       19.6  .40 Ml 3.2         4823145
TCF   003.83 245.7 m E Pg      2012/01/26 16:29:02.0   0.1                          T                                        4827082
TCF   003.83 245.7 m E Sg      2012/01/26 16:29:50.5  -0.5                          T   001.0        7.3  .40 Ml 2.9         4823168
ORIF  003.20 197.6 m E Sg      2012/01/26 16:29:31.2  -0.3                          T                6.9  .30 Ml 2.8         4827068
VIVF  003.59 210.6 m E Sg      2012/01/26 16:29:43.9   0.3                          T   001.0        7.2  .24 Ml 3.0         4823176
LASF  004.56 212.4 m E Sg      2012/01/26 16:30:14.3   0.5                          T   001.0        5.4  .48 Ml 2.8         4823151
CAF   004.70 231.5 m E Sg      2012/01/26 16:30:17.8  -0.5                          T                1.4  .20 Ml 2.6         4827066
LDF   004.96 279.9 m E Sg      2012/01/26 16:30:25.8  -0.4                          T   001.0        9.3  .44 Ml 3.2         4823152
FLN   005.21 281.6 m E Sg      2012/01/26 16:30:32.8  -1.3                          T   001.0        5.7  .32 Ml 3.0         4823148
GRR   005.43 277.4 m E Sg      2012/01/26 16:30:41.0  -0.1                          T                3.0  .21 Ml 3.0         4827065

.
EVENT     269189
    Date      Time       Latitude Longitude    Depth    Ndef Nsta Gap    Mag1  N    Mag2  N    Mag3  N   Author         ID
       rms   OT_Error      Smajor Sminor Az        Err   mdist  Mdist     Err        Err        Err      Quality

2012/01/26 16:34:13.4     44.0083    4.7340       .0 f    12    6 159  Ml 1.6  3  Md 1.8  2              js067245    269209

      0.07   +-  0.03        .7     .4   14.50 +-  0.0    0.61   1.46   +-0.3      +-0.1                 m i km

FRANCE
Sta     Dist  EvAz     Phase      Date       Time     TRes  Azim  AzRes  Slow  SRes Def   SNR       Amp   Per   Mag1   Mag2       ID
SMRF  000.61 092.8 m E Pg      2012/01/26 16:34:25.2  -0.1                          T                                        4827140
SMRF  000.61 092.8 m E Sg      2012/01/26 16:34:33.5   0.1                          T                1.7  .20        Md 1.9  4827141
LASF  000.64 276.4 m E Pg      2012/01/26 16:34:25.8   0.1                          T                                        4827139
LASF  000.64 276.4 m E Pn      2012/01/26 16:34:28.3  -0.1                          T                                        4827144
LASF  000.64 276.4 m E Sn      2012/01/26 16:34:38.8   0.1                          T                3.4  .18        Md 1.7  4827145
VIVF  000.85 357.1 m E Pg      2012/01/26 16:34:29.6  -0.1                          T                                        4827142
VIVF  000.85 357.1 m E Sg      2012/01/26 16:34:41.1   0.1                          T                3.1  .32                4827143
ORIF  001.23 041.6 m E Pg      2012/01/26 16:34:36.8   0.0                          T                                        4827136
ORIF  001.23 041.6 m E Sg      2012/01/26 16:34:52.8   0.0                          T                 .4  .19 Ml 1.3         4827137
LMR   001.45 117.0 m E Pg      2012/01/26 16:34:40.9   0.1                          T                                        4827134
LMR   001.45 117.0 m E Sg      2012/01/26 16:34:59.7   0.0                          T                 .7  .25 Ml 1.5         4827138
FRF   001.46 107.2 m E Sg      2012/01/26 16:34:59.8   0.0                          T                2.2  .28 Ml 2.0         4827135

.
EVENT     269190
    Date      Time       Latitude Longitude    Depth    Ndef Nsta Gap    Mag1  N    Mag2  N    Mag3  N   Author         ID
       rms   OT_Error      Smajor Sminor Az        Err   mdist  Mdist     Err        Err        Err      Quality

2012/01/26 18:11:00.7     47.9789    7.2306      8.0 f    31   13 048  Ml 2.0 10  Md 2.0  2              js067245    269210

      0.75   +-  0.06       1.4    1.1  170.85 +-  0.0    0.14   2.89   +-0.3      +-0.0                 m i ke

SWITZERLAND
Sta     Dist  EvAz     Phase      Date       Time     TRes  Azim  AzRes  Slow  SRes Def   SNR       Amp   Per   Mag1   Mag2       ID
HINF  000.30 237.6 m E Pg      2012/01/26 18:11:06.6  -0.2                          T                                        4827171
HINF  000.30 237.6 m E Sg      2012/01/26 18:11:10.8  -0.2                          T               35.9  .22        Md 2.0  4827167
CDF   000.43 004.0 m E Pg      2012/01/26 18:11:09.1  -0.1                          T                                        4827169
CDF   000.43 004.0 m E Sg      2012/01/26 18:11:14.8  -0.3                          T                6.1  .24        Md 2.0  4827168
HAU   000.59 272.9 m E Pg      2012/01/26 18:11:12.3   0.2                          T                                        4827170
HAU   000.59 272.9 m E Sg      2012/01/26 18:11:19.5  -0.4                          T                5.0  .20                4827150
THEF  000.87 287.2 m E Pn      2012/01/26 18:11:17.4  -0.3                          T                                        4827162
THEF  000.87 287.2 m E Sn      2012/01/26 18:11:29.2  -0.5                          T                5.3  .17 Ml 2.2         4827151
LANF  001.07 020.7 m E Pg      2012/01/26 18:11:20.9   0.0                          T                                        4827166
LANF  001.07 020.7 m E Sg      2012/01/26 18:11:34.7  -0.1                          T                3.1  .20 Ml 2.0         4827155
PAGF  001.16 300.4 m E Pg      2012/01/26 18:11:23.3   0.8 118.2  -1.0              T                                        4827165
PAGF  001.16 300.4 m E Sg      2012/01/26 18:11:37.5   0.0 114.1  -5.1              T                 .5  .17 Ml 1.3         4827154
SFTF  001.49 279.6 m E Pg      2012/01/26 18:11:28.5   0.1 103.1  5.1               T                                        4827163
SFTF  001.49 279.6 m E Sg      2012/01/26 18:11:47.6  -0.1                          T                3.0  .20 Ml 2.2         4827152
MEZF  001.55 290.6 m E Pg      2012/01/26 18:11:29.3  -0.3 108.6  -0.3              T                                        4827164
MEZF  001.55 290.6 m E Sg      2012/01/26 18:11:49.6   0.0                          T                2.7  .20 Ml 2.2         4827153
CABF  001.57 210.0 m E Pg      2012/01/26 18:11:29.7  -0.5                          T                                        4827161
CABF  001.57 210.0 m E Sg      2012/01/26 18:11:50.3  -0.2                          T                1.7  .25 Ml 1.9         4827149
LOR   002.39 253.9 m E Pg      2012/01/26 18:11:45.6   0.5  80.8  9.3               T                                        4827158
LOR   002.39 253.9 m E Sg      2012/01/26 18:12:15.6  -0.3  78.6  7.2               T                1.3  .21 Ml 2.1         4827157
SMF   002.66 241.2 m E Pg      2012/01/26 18:11:50.3   0.1                          T                                        4827160
SMF   002.66 241.2 m E Sg      2012/01/26 18:12:23.3  -1.2                          T                1.1  .19 Ml 2.1         4827147
AVF   002.89 247.1 m E Pg      2012/01/26 18:11:54.9   0.6                          T                                        4827159
AVF   002.89 247.1 m E Sg      2012/01/26 18:12:31.2  -0.3                          T                 .8  .26 Ml 1.9         4827148
SSF   002.69 251.4 m E Sg      2012/01/26 18:12:25.0  -0.1                          T                 .7  .20 Ml 2.0         4827156

.
EVENT     269191
    Date      Time       Latitude Longitude    Depth    Ndef Nsta Gap    Mag1  N    Mag2  N    Mag3  N   Author         ID
       rms   OT_Error      Smajor Sminor Az        Err   mdist  Mdist     Err        Err        Err      Quality

2012/01/26 18:50:23.3     45.6228   10.9649      2.0      58   16 088  Ml 2.6  9                         js067245    269211

      0.53   +-  0.11       2.4    1.7  154.88 +-  0.0    0.08   5.41   +-0.2                            m i ke

NORTHERN ITALY
Sta     Dist  EvAz     Phase      Date       Time     TRes  Azim  AzRes  Slow  SRes Def   SNR       Amp   Per   Mag1   Mag2       ID
LPG   002.96 269.1 m E Pn      2012/01/26 18:51:10.0   0.2                          T                                        4827188
LPG   002.96 269.1 m E P       2012/01/26 18:51:12.6  -0.1                          T                                        4827189
LPG   002.96 269.1 m E Sn      2012/01/26 18:51:44.1   0.2                          T                                        4827179
LPG   002.96 269.1 m E Sg      2012/01/26 18:51:56.7   0.0                          T                2.9  .25 Ml 2.5         4827180
SBF   003.07 236.3 m E Pn      2012/01/26 18:51:10.8  -0.2                          T                                        4827186
SBF   003.07 236.3 m E P       2012/01/26 18:51:14.1   0.1                          T                                        4827187
SBF   003.07 236.3 m E Sn      2012/01/26 18:51:46.6   0.4                          T                6.9  .32 Ml 2.8         4827182
MBDF  003.10 254.7 m E Pn      2012/01/26 18:51:11.4  -0.1                          T                                        4827193
MBDF  003.10 254.7 m E Sn      2012/01/26 18:51:47.4   0.4                          T                1.7  .29 Ml 2.2         4827176
PGF   003.38 205.4 m E Pn      2012/01/26 18:51:15.5   0.2                          T                                        4827184
PGF   003.38 205.4 m E Sn      2012/01/26 18:51:54.0   0.3                          T                3.7  .33 Ml 2.8         4827183
CABF  003.53 288.0 m E Pn      2012/01/26 18:51:17.3  -0.1                          T                                        4827196
HINF  003.58 309.3 m E Pn      2012/01/26 18:51:17.9   0.0                          T                                        4827197
HINF  003.58 309.3 m E Sn      2012/01/26 18:51:58.4   0.0                          T                1.2  .15 Ml 2.5         4827175
ORIF  003.66 260.7 m E Pn      2012/01/26 18:51:19.0  -0.1                          T                                        4827190
ORIF  003.66 260.7 m E P       2012/01/26 18:51:22.5   0.2                          T                                        4827191
FRF   003.71 237.8 m E Pn      2012/01/26 18:51:19.7   0.1                          T                                        4827185
FRF   003.71 237.8 m E Sn      2012/01/26 18:52:01.8   0.4                          T                1.5  .26 Ml 2.4         4827181
CDF   003.76 319.2 m E Pn      2012/01/26 18:51:20.9   0.4                          T                                        4827173
CDF   003.76 319.2 m E Sn      2012/01/26 18:52:02.9   0.1                          T                1.2  .23 Ml 2.4         4827172
HAU   003.97 308.6 m E Pn      2012/01/26 18:51:23.5   0.4                          T                                        4827198
VIVF  004.51 262.5 m E Pn      2012/01/26 18:51:30.3  -0.3                          T                                        4827192
SMF   005.06 284.2 m E Pn      2012/01/26 18:51:37.7  -0.3                          T                                        4827194
SMF   005.06 284.2 m E Sn      2012/01/26 18:52:33.2  -0.4                          T                2.7  .28 Ml 2.9         4827174
LOR   005.18 291.1 m E Pn      2012/01/26 18:51:39.7   0.0                          T                                        4827200
SSF   005.36 288.2 m E Pn      2012/01/26 18:51:42.0  -0.1                          T                                        4827199
AVF   005.41 285.2 m E Pn      2012/01/26 18:51:42.9   0.0                          T                                        4827195
LPL   002.97 269.5 m E Sn      2012/01/26 18:51:44.2   0.2                          T                                        4827177
LPL   002.97 269.5 m E Sg      2012/01/26 18:51:56.5  -0.5                          T                5.3  .34 Ml 2.6         4827178

.
