EVENT     257610
    Date      Time       Latitude Longitude    Depth    Ndef Nsta Gap    Mag1  N    Mag2  N    Mag3  N   Author         ID
       rms   OT_Error      Smajor Sminor Az        Err   mdist  Mdist     Err        Err        Err      Quality

2011/03/26 09:51:19.3     44.1836    6.5670      2.0      20    9 101  Ml 1.6  5  Md 1.8  3              js067245    257610

      0.19   +-  0.05       1.4     .9   80.41 +-  0.0    0.56   1.51   +-0.1      +-0.0                 m i ke

FRANCE
Sta     Dist  EvAz     Phase      Date       Time     TRes  Azim  AzRes  Slow  SRes Def   SNR       Amp   Per   Mag1   Mag2       ID
MBDF  000.56 015.0 m E Pg      2011/03/26 09:51:29.8  -0.4                          T                                        4664649
MBDF  000.56 015.0 m E Sg      2011/03/26 09:51:37.6   0.0                          T                2.2  .34        Md 1.8  4664647
FRF   000.63 174.7 m E Pg      2011/03/26 09:51:30.9  -0.3                          T                                        4664656
FRF   000.63 174.7 m E Sg      2011/03/26 09:51:39.4   0.1                          T                2.9  .28        Md 1.9  4664652
SBF   000.70 116.8 m E Pg      2011/03/26 09:51:32.7   0.0                          T                                        4664648
SBF   000.70 116.8 m E Sg      2011/03/26 09:51:41.9   0.0                          T                2.2  .21        Md 1.8  4664645
SMRF  000.74 254.1 m E Pg      2011/03/26 09:51:33.1  -0.2                          T                                        4664654
SMRF  000.74 254.1 m E Sg      2011/03/26 09:51:43.1   0.0                          T                2.5  .38                4664653
LMR   000.85 182.8 m E Pg      2011/03/26 09:51:35.7   0.4                          T                                        4664655
LMR   000.85 182.8 m E Sg      2011/03/26 09:51:46.3   0.0                          T                3.8  .24                4664651
ORIF  000.88 326.5 m E Pg      2011/03/26 09:51:36.2   0.1                          T                                        4664650
ORIF  000.88 326.5 m E Sg      2011/03/26 09:51:47.7   0.2                          T                4.5  .58 Ml 1.7         4664646
LPG   001.32 005.6 m E Pg      2011/03/26 09:51:44.5   0.2                          T                                        4664644
LPG   001.32 005.6 m E Sg      2011/03/26 09:52:01.5   0.1                          T                 .9  .18 Ml 1.7         4664641
LPL   001.34 005.0 m E Pg      2011/03/26 09:51:44.5   0.0                          T                                        4664643
LPL   001.34 005.0 m E Sg      2011/03/26 09:52:02.0   0.2                          T                1.2  .25 Ml 1.6         4664642
VIVF  001.51 297.1 m E Pn      2011/03/26 09:51:45.8   0.1                          T                                        4664640
VIVF  001.51 297.1 m E Sn      2011/03/26 09:52:04.8   0.0                          T                1.2  .41 Ml 1.5         4664639

.
EVENT     257624
    Date      Time       Latitude Longitude    Depth    Ndef Nsta Gap    Mag1  N    Mag2  N    Mag3  N   Author         ID
       rms   OT_Error      Smajor Sminor Az        Err   mdist  Mdist     Err        Err        Err      Quality

2011/03/26 12:30:39.9     47.3319   -3.7504     15.0      25    7 272  Ml 2.2  8  Md 2.1  3              js067245    257624

      0.69   +-  0.15       2.6    1.8   61.05 +-  0.0    0.71   2.75   +-0.2      +-0.0                 m i ke

FRANCE
Sta     Dist  EvAz     Phase      Date       Time     TRes  Azim  AzRes  Slow  SRes Def   SNR       Amp   Per   Mag1   Mag2       ID
QUIF  000.71 033.8 m E Pg      2011/03/26 12:30:53.4  -0.1                          T                                        4664681
QUIF  000.71 033.8 m E Pn      2011/03/26 12:30:53.8  -0.1                          T                                        4664673
QUIF  000.71 033.8 m E Sg      2011/03/26 12:31:03.1   0.3                          T                9.9  .22        Md 2.1  4664676
ROSF  001.06 017.5 m E Pn      2011/03/26 12:30:58.4  -0.2                          T                                        4664674
ROSF  001.06 017.5 m E Pg      2011/03/26 12:30:59.6  -0.2                          T                                        4664679
ROSF  001.06 017.5 m E Sg      2011/03/26 12:31:13.8   0.2                          T               10.4  .24 Ml 2.5 Md 2.1  4664678
SGMF  001.22 040.6 m E Pn      2011/03/26 12:31:00.9   0.0                          T                                        4664675
SGMF  001.22 040.6 m E Pg      2011/03/26 12:31:03.2   0.3                          T                                        4664680
SGMF  001.22 040.6 m E Sg      2011/03/26 12:31:19.6   0.8                          T                3.8  .24 Ml 2.1 Md 2.1  4664677
GRR   002.22 060.4 m E Pn      2011/03/26 12:31:14.4  -0.1                          T                                        4664665
GRR   002.22 060.4 m E Pg      2011/03/26 12:31:21.2   0.0                          T                                        4664664
GRR   002.22 060.4 m E Sg      2011/03/26 12:31:49.7   0.0                          T                1.9  .22 Ml 2.0         4664667
MFF   002.57 105.2 m E Pn      2011/03/26 12:31:19.5   0.2                          T                                        4664670
MFF   002.57 105.2 m E Sg      2011/03/26 12:32:00.7  -0.2                          T                  1  .22 Ml 2.1         4664669
FLN   002.62 055.7 m E Pn      2011/03/26 12:31:20.0   0.0                          T                                        4664672
FLN   002.62 055.7 m E Pg      2011/03/26 12:31:28.7   0.1 236.6  -1.5              T                                        4664663
FLN   002.62 055.7 m E Sg      2011/03/26 12:32:02.1  -0.2                          T                1.2  .26 Ml 1.8         4664668
LDF   002.75 061.3 m E Pn      2011/03/26 12:31:21.7   0.0                          T                                        4664671
LDF   002.75 061.3 m E Pg      2011/03/26 12:31:30.7  -0.2                          T                                        4664662
LDF   002.75 061.3 m E Sg      2011/03/26 12:32:06.2   0.0                          T                1.3  .31 Ml 2.0         4664666

.
EVENT     257625
    Date      Time       Latitude Longitude    Depth    Ndef Nsta Gap    Mag1  N    Mag2  N    Mag3  N   Author         ID
       rms   OT_Error      Smajor Sminor Az        Err   mdist  Mdist     Err        Err        Err      Quality

2011/03/26 15:21:35.8     47.7184     .2249      2.0      32   13 113  Ml 2.0 17  Md 2.2  3              js067245    257625

      0.58   +-  0.06       1.6    1.0   49.19 +-  0.0    0.91   3.07   +-0.2      +-0.0                 m i ke

FRANCE
Sta     Dist  EvAz     Phase      Date       Time     TRes  Azim  AzRes  Slow  SRes Def   SNR       Amp   Per   Mag1   Mag2       ID
LDF   000.91 345.3 m E Pg      2011/03/26 15:21:52.8   0.0                          T                                        4664715
LDF   000.91 345.3 m E Sg      2011/03/26 15:22:05.0   0.5                          T               13.0  .26 Ml 2.4 Md 2.2  4664710
GRR   000.99 313.1 m E Pg      2011/03/26 15:21:54.6   0.3                          T                                        4664713
GRR   000.99 313.1 m E Sg      2011/03/26 15:22:07.3   0.1                          T                3.9  .18 Ml 2.0 Md 2.2  4664709
FLN   001.15 335.9 m E Pg      2011/03/26 15:21:57.3   0.1 158.4  3.0               T                                        4664714
FLN   001.15 335.9 m E Sg      2011/03/26 15:22:12.2   0.2 161.6  6.2               T                4.0  .26 Ml 1.9         4664711
MFF   001.14 192.9 m E Pg      2011/03/26 15:21:57.5   0.3                          T                                        4664712
MFF   001.14 192.9 m E Sg      2011/03/26 15:22:12.1   0.1                          T                3.5  .26 Ml 2.2 Md 2.2  4664708
SGMF  001.94 287.0 m E Pn      2011/03/26 15:22:08.1   0.1                          T                                        4664694
SGMF  001.94 287.0 m E Sn      2011/03/26 15:22:31.7   0.2                          T                2.4  .39 Ml 2.0         4664697
TCF   001.97 135.8 m E Pn      2011/03/26 15:22:08.5   0.0                          T                                        4664705
TCF   001.97 135.8 m E Sn      2011/03/26 15:22:32.3   0.0                          T                1.1  .27 Ml 1.8         4664700
QUIF  002.29 276.2 m E Pn      2011/03/26 15:22:13.0   0.2                          T                                        4664695
QUIF  002.29 276.2 m E Sn      2011/03/26 15:22:40.2   0.3                          T                1.2  .27 Ml 1.9         4664696
SSF   002.32 105.2 m E Pn      2011/03/26 15:22:13.3   0.1                          T                                        4664703
SSF   002.32 105.2 m E Sn      2011/03/26 15:22:40.7   0.0                          T                2.7  .52 Ml 2.1         4664701
LOR   002.50 099.0 m E Pn      2011/03/26 15:22:15.7   0.0 275.6  -6.0              T                                        4664704
LOR   002.50 099.0 m E Sn      2011/03/26 15:22:44.9  -0.1                          T                1.4  .26 Ml 2.1         4664702
RJF   002.57 159.3 m E Pn      2011/03/26 15:22:16.7   0.0                          T                                        4664693
RJF   002.57 159.3 m E Sg      2011/03/26 15:22:56.6  -0.1                          T                1.9  .27 Ml 1.8         4664688
LFF   002.80 172.5 m E Pn      2011/03/26 15:22:19.8   0.1                          T                                        4664692
LFF   002.80 172.5 m E Sg      2011/03/26 15:23:03.8   0.1                          T                4.2  .33 Ml 2.3         4664689
ROSF  002.43 286.0 m E Pg      2011/03/26 15:22:20.2  -0.6                          T                                        4664707
ROSF  002.43 286.0 m E Sn      2011/03/26 15:22:43.4   0.2                          T                1.4  .39 Ml 1.9         4664698
CAF   003.07 154.8 m E Pn      2011/03/26 15:22:23.5   0.0                          T                                        4664691
CAF   003.07 154.8 m E Sg      2011/03/26 15:23:12.2   0.0                          T                 .9  .30 Ml 1.9         4664690

.
EVENT     257611
    Date      Time       Latitude Longitude    Depth    Ndef Nsta Gap    Mag1  N    Mag2  N    Mag3  N   Author         ID
       rms   OT_Error      Smajor Sminor Az        Err   mdist  Mdist     Err        Err        Err      Quality

2011/03/26 16:39:08.4     43.5795    5.3570      2.0      18    8 189  Ml 2.0  8  Md 2.1  3              js067245    257611

      0.39   +-  0.11       2.0    1.2   27.92 +-  0.0    0.43   1.53   +-0.4      +-0.0                 m i ke

NEAR SOUTH COAST OF FRANCE
Sta     Dist  EvAz     Phase      Date       Time     TRes  Azim  AzRes  Slow  SRes Def   SNR       Amp   Per   Mag1   Mag2       ID
SMRF  000.43 021.7 m E Pg      2011/03/26 16:39:16.7   0.0                          T                                        4664733
SMRF  000.43 021.7 m E Sg      2011/03/26 16:39:22.5   0.2                          T               13.1  .30        Md 2.1  4664729
LMR   000.87 105.9 m E Pg      2011/03/26 16:39:24.8  -0.1                          T                                        4664731
LMR   000.87 105.9 m E Sg      2011/03/26 16:39:36.2   0.0                          T               19.7  .36 Ml 2.5 Md 2.1  4664727
FRF   000.94 090.7 m E Pg      2011/03/26 16:39:26.5   0.5                          T                                        4664732
FRF   000.94 090.7 m E Sg      2011/03/26 16:39:38.3   0.1                          T                 10  .23 Ml 2.5 Md 2.0  4664728
LASF  001.19 295.1 m E Pg      2011/03/26 16:39:30.7   0.0                          T                                        4664725
LASF  001.19 295.1 m E Sg      2011/03/26 16:39:46.3   0.1                          T                1.5  .21 Ml 1.8         4664721
VIVF  001.37 339.2 m E Pg      2011/03/26 16:39:34.0   0.0                          T                                        4664724
VIVF  001.37 339.2 m E Sg      2011/03/26 16:39:51.5  -0.2                          T                2.1  .32 Ml 1.8         4664720
ORIF  001.39 015.5 m E Pg      2011/03/26 16:39:34.6   0.1                          T                                        4664722
ORIF  001.39 015.5 m E Sg      2011/03/26 16:39:52.5   0.0                          T                2.2  .46 Ml 1.7         4664718
SBF   001.53 078.6 m E Pg      2011/03/26 16:39:36.7  -0.4                          T                                        4664730
SBF   001.53 078.6 m E Sg      2011/03/26 16:39:56.7  -0.2                          T               12.5  .45 Ml 2.5         4664726
MBDF  001.53 041.1 m E Pg      2011/03/26 16:39:37.2   0.0                          T                                        4664723
MBDF  001.53 041.1 m E Sg      2011/03/26 16:39:57.0  -0.1                          T                6.2  .60 Ml 2.1         4664719

.
EVENT     257626
    Date      Time       Latitude Longitude    Depth    Ndef Nsta Gap    Mag1  N    Mag2  N    Mag3  N   Author         ID
       rms   OT_Error      Smajor Sminor Az        Err   mdist  Mdist     Err        Err        Err      Quality

2011/03/27 00:25:30.1     43.0920    -.3758      2.0      28    7 096  Ml 1.8  5  Md 1.7  3              js067245    257626

      0.42   +-  0.06       1.7    1.0  176.29 +-  0.0    0.03   2.60   +-0.1      +-0.0                 m i ke

PYRENEES
Sta     Dist  EvAz     Phase      Date       Time     TRes  Azim  AzRes  Slow  SRes Def   SNR       Amp   Per   Mag1   Mag2       ID
ETSF  000.24 214.9 m E Pg      2011/03/27 00:25:34.4  -0.5                          T                                        4664807
ETSF  000.24 214.9 m E Sg      2011/03/27 00:25:37.6  -0.5                          T               16.3  .22        Md 1.7  4664803
EPF   000.53 096.5 m E Pg      2011/03/27 00:25:40.0  -0.3                          T                                        4664806
EPF   000.53 096.5 m E Sg      2011/03/27 00:25:47.2   0.0                          T                5.3  .22        Md 1.6  4664802
SJPF  000.62 272.2 m E Pg      2011/03/27 00:25:41.8  -0.1                          T                                        4664805
SJPF  000.62 272.2 m E Sg      2011/03/27 00:25:49.6  -0.4                          T                3.1  .28        Md 1.7  4664804
MTLF  001.91 081.6 m E Pn      2011/03/27 00:26:02.1   0.1                          T                                        4664794
MTLF  001.91 081.6 m E Sg      2011/03/27 00:26:30.5   0.2                          T                1.4  .32 Ml 1.8         4664801
LFF   002.01 023.2 m E Pn      2011/03/27 00:26:03.2  -0.1                          T                                        4664797
LFF   002.01 023.2 m E Sg      2011/03/27 00:26:33.3  -0.2                          T                3.1  .34 Ml 2.0         4664799
CAF   002.54 043.0 m E Pn      2011/03/27 00:26:10.6   0.1                          T                                        4664796
CAF   002.54 043.0 m E Sg      2011/03/27 00:26:49.9   0.0                          T                 .9  .23 Ml 1.9         4664798
RJF   002.60 031.0 m E Pn      2011/03/27 00:26:11.2  -0.1                          T                                        4664795
RJF   002.60 031.0 m E Sg      2011/03/27 00:26:51.5  -0.1                          T                 .7  .16 Ml 1.7         4664800

.
EVENT     257612
    Date      Time       Latitude Longitude    Depth    Ndef Nsta Gap    Mag1  N    Mag2  N    Mag3  N   Author         ID
       rms   OT_Error      Smajor Sminor Az        Err   mdist  Mdist     Err        Err        Err      Quality

2011/03/27 00:35:15.8     43.4715    7.1870      2.0      30   12 130  Ml 2.1 12  Md 2.1  3              js067245    257612

      0.79   +-  0.18       4.1    3.2   27.29 +-  0.0    0.40   3.62   +-0.3      +-0.0                 m i ke

NEAR SOUTH COAST OF FRANCE
Sta     Dist  EvAz     Phase      Date       Time     TRes  Azim  AzRes  Slow  SRes Def   SNR       Amp   Per   Mag1   Mag2       ID
FRF   000.40 283.0 m E Pg      2011/03/27 00:35:24.9   1.3                          T                                        4664837
FRF   000.40 283.0 m E Sg      2011/03/27 00:35:29.3   0.3                          T               54.4  .20        Md 2.1  4664831
SBF   000.43 024.6 m E Pg      2011/03/27 00:35:25.4   1.2                          T                                        4664836
SBF   000.43 024.6 m E Sg      2011/03/27 00:35:31.3   1.4                          T               62.4  .25        Md 2.0  4664829
LMR   000.51 254.7 m E Pg      2011/03/27 00:35:27.4   1.8                          T                                        4664835
LMR   000.51 254.7 m E Sg      2011/03/27 00:35:34.2   1.9                          T               18.7  .18        Md 2.0  4664830
SMRF  001.27 293.9 m E Pn      2011/03/27 00:35:39.2   0.2                          T                                        4664828
SMRF  001.27 293.9 m E Sg      2011/03/27 00:35:57.0   0.8                          T               17.1  .36 Ml 2.6         4664815
MBDF  001.29 346.7 m E Pg      2011/03/27 00:35:39.8  -0.4                          T                                        4664834
MBDF  001.29 346.7 m E Sg      2011/03/27 00:35:55.4  -1.4                          T                8.1  .36 Ml 2.3         4664832
PGF   001.62 124.1 m E Pn      2011/03/27 00:35:44.1   0.3                          T                                        4664833
PGF   001.62 124.1 m E Sn      2011/03/27 00:36:02.9  -1.1                          T                4.5  .22 Ml 2.6         4664814
ORIF  001.73 327.4 m E Pn      2011/03/27 00:35:45.2  -0.1                          T                                        4664825
ORIF  001.73 327.4 m E Sn      2011/03/27 00:36:07.0   0.5                          T                5.1  .45 Ml 2.2         4664818
LPG   002.05 351.4 m E Pn      2011/03/27 00:35:50.3   0.4                          T                                        4664827
LPG   002.05 351.4 m E Sn      2011/03/27 00:36:14.9   0.3                          T                1.3  .26 Ml 1.9         4664816
LPL   002.07 351.1 m E Pn      2011/03/27 00:35:50.5   0.4                          T                                        4664826
LPL   002.07 351.1 m E Sn      2011/03/27 00:36:15.2   0.3                          T                2.0  .33 Ml 2.0         4664817
VIVF  002.28 308.3 m E Pn      2011/03/27 00:35:52.3  -0.4                          T                                        4664824
VIVF  002.28 308.3 m E Sn      2011/03/27 00:36:18.0  -1.7                          T                2.1  .22 Ml 2.3         4664819
LASF  002.49 285.2 m E Pn      2011/03/27 00:35:55.1  -0.4                          T                                        4664823
LASF  002.49 285.2 m E Sn      2011/03/27 00:36:24.4  -0.3                          T                 .8  .32 Ml 1.7         4664820
MTLF  003.62 269.6 m E Pn      2011/03/27 00:36:10.5  -0.5                          T                                        4664822
MTLF  003.62 269.6 m E Sn      2011/03/27 00:36:50.8  -1.0                          T                 .7  .35 Ml 1.9         4664821

.
