BEGIN GSE2.0
MSG_TYPE DATA
MSG_ID 11-JUL-1212:48:04  FRA_NDC
E-MAIL
DATA_TYPE BULLETIN
Reviewed Bulletin (REB) # P2012-025  from French NDC for regional phases     PERIOD 20 JUN 2012 TO 26 JUN 2012 Cenalt JP S
EVENT     278426
    Date      Time       Latitude Longitude    Depth    Ndef Nsta Gap    Mag1  N    Mag2  N    Mag3  N   Author         ID
       rms   OT_Error      Smajor Sminor Az        Err   mdist  Mdist     Err        Err        Err      Quality

2012/06/20 03:25:33.8     42.9087    -.4995      2.0       6    3 178             Md 1.2  3              bulletin    278526
                                                                                                         _ldg
      0.03   +-  0.01       1.0     .2     .88 +-  0.0    0.04   0.63              +-0.1                 m i ke

PYRENEES
Sta     Dist  EvAz     Phase      Date       Time     TRes  Azim  AzRes  Slow  SRes Def   SNR       Amp   Per   Mag1   Mag2       ID
ETSF  000.04 257.1 m E Pg      2012/06/20 03:25:35.2   0.0                          T                                        5007637
ETSF  000.04 257.1 m E Sg      2012/06/20 03:25:36.1   0.1                          T               62.4  .22        Md 1.3  5007636
SJPF  000.57 291.3 m E Pg      2012/06/20 03:25:44.6   0.0                          T                                        5007633
SJPF  000.57 291.3 m E Sg      2012/06/20 03:25:52.1  -0.1                          T                 .3  .18        Md 1.2  5007634
EPF   000.63 078.6 m E Pg      2012/06/20 03:25:45.7   0.0                          T                                        5007632
EPF   000.63 078.6 m E Sg      2012/06/20 03:25:54.0   0.0                          T                 .3  .16        Md 1.0  5007635

.
EVENT     278418
    Date      Time       Latitude Longitude    Depth    Ndef Nsta Gap    Mag1  N    Mag2  N    Mag3  N   Author         ID
       rms   OT_Error      Smajor Sminor Az        Err   mdist  Mdist     Err        Err        Err      Quality

2012/06/20 03:27:37.3     42.9109    -.4948      2.0      19    4 117  Ml 1.7  1  Md 2.0  3              bulletin    278518
                                                                                                         _ldg
      0.43   +-  0.09       2.7    1.4   14.17 +-  0.0    0.05   2.03   +-         +-0.1                 m i ke

PYRENEES
Sta     Dist  EvAz     Phase      Date       Time     TRes  Azim  AzRes  Slow  SRes Def   SNR       Amp   Per   Mag1   Mag2       ID
ETSF  000.05 255.4 m E Pg      2012/06/20 03:27:38.6  -0.2                          T                                        5007264
ETSF  000.05 255.4 m E Sg      2012/06/20 03:27:39.5  -0.2                          T              737.8  .22        Md 2.1  5007263
SJPF  000.57 290.9 m E Pg      2012/06/20 03:27:48.1  -0.1                          T                                        5007260
SJPF  000.57 290.9 m E Sg      2012/06/20 03:27:55.5  -0.2                          T                3.8  .24        Md 1.9  5007259
EPF   000.62 078.7 m E Pg      2012/06/20 03:27:49.2   0.0                          T                                        5007262
EPF   000.62 078.7 m E Sg      2012/06/20 03:27:57.4   0.0                          T                4.4  .18        Md 1.9  5007261
MTLF  002.03 076.9 m E Pn      2012/06/20 03:28:11.0   0.2                          T                                        5007266
MTLF  002.03 076.9 m E Sn      2012/06/20 03:28:35.9   0.7                          T                                        5007265
MTLF  002.03 076.9 m E Sg      2012/06/20 03:28:42.1   0.8                          T                 .7  .25 Ml 1.7         5007308

.
EVENT     278419
    Date      Time       Latitude Longitude    Depth    Ndef Nsta Gap    Mag1  N    Mag2  N    Mag3  N   Author         ID
       rms   OT_Error      Smajor Sminor Az        Err   mdist  Mdist     Err        Err        Err      Quality

2012/06/20 03:56:07.7     43.4939    -.6699      2.0      23    6 148  Ml 1.8  6  Md 2.0  2              bulletin    278519
                                                                                                         _ldg
      0.35   +-  0.09       1.9    1.2  138.02 +-  0.0    0.41   2.43   +-0.2      +-0.0                 m i ke

PYRENEES
Sta     Dist  EvAz     Phase      Date       Time     TRes  Azim  AzRes  Slow  SRes Def   SNR       Amp   Per   Mag1   Mag2       ID
SJPF  000.56 227.0 m E Pg      2012/06/20 03:56:18.3   0.0                          T                                        5007307
SJPF  000.56 227.0 m E Sg      2012/06/20 03:56:25.6   0.0                          T                8.8  .36        Md 2.0  5007302
ETSF  000.60 172.2 m E Pg      2012/06/20 03:56:18.9  -0.3                          T                                        5007306
ETSF  000.60 172.2 m E Sg      2012/06/20 03:56:26.8  -0.2                          T                4.7  .26        Md 2.0  5007303
EPF   000.87 121.8 m E Pg      2012/06/20 03:56:24.0  -0.2                          T                                        5007305
EPF   000.87 121.8 m E Sg      2012/06/20 03:56:36.5   1.0                          T                4.7  .20 Ml 2.1         5007304
LFF   001.77 034.6 m E Pn      2012/06/20 03:56:37.8   0.3                          T                                        5007299
LFF   001.77 034.6 m E Sn      2012/06/20 03:56:58.9  -0.3                          T                1.0  .21 Ml 1.7         5007298
LFF   001.77 034.6 m E Sg      2012/06/20 03:57:03.3   0.0                          T                2.4  .31 Ml 1.9         5021971
MTLF  002.11 093.2 m E Pn      2012/06/20 03:56:41.9  -0.3                          T                                        5007297
MTLF  002.11 093.2 m E Sn      2012/06/20 03:57:07.1  -0.4                          T                 .8  .31 Ml 1.7         5007296
CAF   002.43 053.0 m E Pn      2012/06/20 03:56:46.5  -0.1                          T                                        5007301
CAF   002.43 053.0 m E Sn      2012/06/20 03:57:15.0  -0.2                          T                 .3  .17 Ml 1.5         5007300
CAF   002.43 053.0 m E Sg      2012/06/20 03:57:24.1  -0.1                          T                  1  .24 Ml 1.9         5021972

.
EVENT     278420
    Date      Time       Latitude Longitude    Depth    Ndef Nsta Gap    Mag1  N    Mag2  N    Mag3  N   Author         ID
       rms   OT_Error      Smajor Sminor Az        Err   mdist  Mdist     Err        Err        Err      Quality

2012/06/20 04:32:55.3     44.5089    6.6722      2.0      29    8 056  Ml 1.7  1  Md 1.9  3              bulletin    278520
                                                                                                         _ldg
      0.22   +-  0.04        .8     .7   72.21 +-  0.0    0.10   1.47   +-         +-0.1                 m i ke

FRANCE
Sta     Dist  EvAz     Phase      Date       Time     TRes  Azim  AzRes  Slow  SRes Def   SNR       Amp   Per   Mag1   Mag2       ID
MBDF  000.23 018.0 m E Pg      2012/06/20 04:32:59.3  -0.8                          T                                Md 1.8  5007782
MBDF  000.23 018.0 m E Sg      2012/06/20 04:33:02.9  -0.3                          T                                        5007774
ORIF  000.70 306.2 m E Pg      2012/06/20 04:33:08.7   0.0                          T                                Md 1.8  5007781
ORIF  000.70 306.2 m E Sg      2012/06/20 04:33:17.5  -0.3                          T                                        5007773
SBF   000.85 139.4 m E Pg      2012/06/20 04:33:11.7   0.3                          T                                        5007779
SBF   000.85 139.4 m E Sg      2012/06/20 04:33:22.6   0.2                          T                1.8  .26                5007783
SMRF  000.95 236.3 m E Pg      2012/06/20 04:33:13.1  -0.1                          T                                Md 2.0  5007778
SMRF  000.95 236.3 m E Sg      2012/06/20 04:33:25.9   0.3                          T                                        5007770
FRF   000.95 181.1 m E Pg      2012/06/20 04:33:13.2   0.1                          T                                        5007780
FRF   000.95 181.1 m E Sg      2012/06/20 04:33:25.0  -0.4                          T                                        5007784
LPL   001.01 002.4 m E Pg      2012/06/20 04:33:14.3  -0.2                          T                                        5007771
LPL   001.01 002.4 m E Sg      2012/06/20 04:33:27.2  -0.4                          T                                        5007772
LMR   001.18 185.8 m E Pg      2012/06/20 04:33:17.4   0.0                          T                                        5007777
LMR   001.18 185.8 m E Sg      2012/06/20 04:33:32.7   0.0                          T                1.5  .22 Ml 1.7         5007775
VIVF  001.47 284.4 m E Pn      2012/06/20 04:33:21.3   0.1                          T                                        5007776

.
EVENT     278467
    Date      Time       Latitude Longitude    Depth    Ndef Nsta Gap    Mag1  N    Mag2  N    Mag3  N   Author         ID
       rms   OT_Error      Smajor Sminor Az        Err   mdist  Mdist     Err        Err        Err      Quality

2012/06/20 05:00:11.3     47.8897    7.2964      5.0 f    12    4 065  Ml 1.8  1  Md 1.8  4              bulletin    278567
                                                                                                         _ldg
      0.30   +-  0.08       1.6    1.3  173.25 +-  0.0    0.12   0.94   +-         +-0.1                 m i ke

SWITZERLAND
Sta     Dist  EvAz     Phase      Date       Time     TRes  Azim  AzRes  Slow  SRes Def   SNR       Amp   Per   Mag1   Mag2       ID
HINF  000.31 256.4 m E Pg      2012/06/20 05:00:17.2  -0.3                          T                                        5021986
HINF  000.31 256.4 m E Sg      2012/06/20 05:00:21.6  -0.1                          T                4.0  .28        Md 1.7  5007827
CDF   000.52 358.5 m E Pg      2012/06/20 05:00:21.2  -0.2                          T                                        5007824
CDF   000.52 358.5 m E Sg      2012/06/20 05:00:28.2  -0.2                          T                1.1  .22        Md 1.9  5007820
HAU   000.65 280.7 m E Pg      2012/06/20 05:00:23.8   0.1                          T                                Md 1.8  5007826
HAU   000.65 280.7 m E Sg      2012/06/20 05:00:32.1   0.0                          T                5.5  .26        Md 1.8  5007821
THEF  000.94 291.7 m E Pg      2012/06/20 05:00:29.6   0.6                          T                                        5007825
THEF  000.94 291.7 m E Sg      2012/06/20 05:00:41.4   0.2                          T                1.6  .17 Ml 1.8         5007823

.
EVENT     278427
    Date      Time       Latitude Longitude    Depth    Ndef Nsta Gap    Mag1  N    Mag2  N    Mag3  N   Author         ID
       rms   OT_Error      Smajor Sminor Az        Err   mdist  Mdist     Err        Err        Err      Quality

2012/06/20 05:59:55.9     43.4967    6.5934       .0 f    40   10 083  Ml 1.8  5  Md 1.7  1              bulletin    278527
                                                                                                         _ldg
      0.47   +-  0.11       2.4    2.0   10.24 +-  0.0    0.07   2.02   +-0.2      +-                    m i km

NEAR SOUTH COAST OF FRANCE
Sta     Dist  EvAz     Phase      Date       Time     TRes  Azim  AzRes  Slow  SRes Def   SNR       Amp   Per   Mag1   Mag2       ID
FRF   000.07 031.2 m E Pg      2012/06/20 05:59:57.1  -0.7                          T                                Md 1.7  5007830
FRF   000.07 031.2 m E Sg      2012/06/20 05:59:58.2  -0.8                          T                                        5007845
LMR   000.17 200.7 m E Pg      2012/06/20 06:00:00.1   0.4                          T                                        5007829
LMR   000.17 200.7 m E Sg      2012/06/20 06:00:02.4   0.1                          T                                        5007833
SBF   000.71 058.8 m E Pg      2012/06/20 06:00:09.8   0.1                          T                                        5007828
SBF   000.71 058.8 m E Pn      2012/06/20 06:00:11.9   0.0                          T                                        5007847
SBF   000.71 058.8 m E Sg      2012/06/20 06:00:20.1   0.9                          T                                        5007832
SMRF  000.88 303.3 m E Pg      2012/06/20 06:00:12.7  -0.1                          T                                        5007834
SMRF  000.88 303.3 m E Pn      2012/06/20 06:00:14.1   0.0                          T                                        5007848
SMRF  000.88 303.3 m E Sg      2012/06/20 06:00:24.5   0.1                          T                                        5007831
SMRF  000.88 303.3 m E Sn      2012/06/20 06:00:27.9   0.8                          T                4.9  .22 Ml 2.1         5007849
MBDF  001.24 005.9 m E Pn      2012/06/20 06:00:19.2   0.0                          T                                        5007839
MBDF  001.24 005.9 m E Sn      2012/06/20 06:00:35.7  -0.1                          T                2.4  .23 Ml 1.9         5007846
ORIF  001.51 340.4 m E Pn      2012/06/20 06:00:23.0   0.1                          T                                        5007844
ORIF  001.51 340.4 m E Pg      2012/06/20 06:00:24.6   0.2                          T                                        5007843
ORIF  001.51 340.4 m E Sn      2012/06/20 06:00:41.9  -0.3                          T                2.1  .35 Ml 1.8         5007853
VIVF  001.94 315.2 m E Pn      2012/06/20 06:00:28.2  -0.4                          T                                        5007852
VIVF  001.94 315.2 m E Pg      2012/06/20 06:00:31.7  -0.6                          T                                        5007851
VIVF  001.94 315.2 m E Sn      2012/06/20 06:00:51.6  -0.8                          T                 .6  .17 Ml 1.7         5007850
PGF   002.00 117.4 m E Pn      2012/06/20 06:00:29.0  -0.5                          T                                        5007841
PGF   002.00 117.4 m E Sn      2012/06/20 06:00:51.4  -2.6                          T                                        5007840
LPL   002.02 002.8 m E Pn      2012/06/20 06:00:29.9   0.0                          T                                        5007837
LPL   002.02 002.8 m E Pg      2012/06/20 06:00:33.8  -0.3                          T                                        5007838
LPG   002.00 003.2 m E Pn      2012/06/20 06:00:30.1   0.3                          T                                        5007836
LPG   002.00 003.2 m E Pg      2012/06/20 06:00:32.9  -0.9                          T                                        5007835
LPG   002.00 003.2 m E Sn      2012/06/20 06:00:53.9  -0.4                          T                 .4  .17 Ml 1.6         5007842

.
EVENT     278479
    Date      Time       Latitude Longitude    Depth    Ndef Nsta Gap    Mag1  N    Mag2  N    Mag3  N   Author         ID
       rms   OT_Error      Smajor Sminor Az        Err   mdist  Mdist     Err        Err        Err      Quality

2012/06/20 06:06:41.0     42.5995     .8947      2.0      22    4 050  Ml 1.6  3  Md 1.7  2              bulletin    278579
                                                                                                         _ldg
      0.38   +-  0.07       1.4    1.1   35.26 +-  0.0    0.12   1.64   +-0.3      +-0.1                 m i ke

PYRENEES
Sta     Dist  EvAz     Phase      Date       Time     TRes  Azim  AzRes  Slow  SRes Def   SNR       Amp   Per   Mag1   Mag2       ID
EPF   000.59 316.7 m E Pg      2012/06/20 06:06:52.4   0.0                          T                                        5022005
EPF   000.59 316.7 m E Sg      2012/06/20 06:06:59.9  -0.2                          T                1.8  .19        Md 1.8  5022006
ETSF  001.11 286.1 m E Pg      2012/06/20 06:07:02.0   0.1                          T                                        5022003
ETSF  001.11 286.1 m E Sg      2012/06/20 06:07:16.5   0.2                          T                2.6  .24 Ml 1.9 Md 1.6  5022004
MTLF  001.22 052.2 m E Pg      2012/06/20 06:07:03.6  -0.2                          T                                        5022001
MTLF  001.22 052.2 m E Sg      2012/06/20 06:07:19.5  -0.1                          T                1.0  .36 Ml 1.4         5022002
SJPF  001.64 289.0 m E Sg      2012/06/20 06:07:32.9   0.2                          T                 .8  .23 Ml 1.6         5022000

.
EVENT     278442
    Date      Time       Latitude Longitude    Depth    Ndef Nsta Gap    Mag1  N    Mag2  N    Mag3  N   Author         ID
       rms   OT_Error      Smajor Sminor Az        Err   mdist  Mdist     Err        Err        Err      Quality

2012/06/20 07:53:20.9     43.8240    7.3684       .0 f    26    8 071  Ml 2.2  1  Md 2.0  3              bulletin    278542
                                                                                                         _ldg
      1.03   +-  0.10       1.8    1.8   88.45 +-  0.0    0.06   3.77   +-         +-0.1                 m i km

NEAR SOUTH COAST OF FRANCE
Sta     Dist  EvAz     Phase      Date       Time     TRes  Azim  AzRes  Slow  SRes Def   SNR       Amp   Per   Mag1   Mag2       ID
SBF   000.06 051.0 m E Pg      2012/06/20 07:53:22.3  -0.2                          T                                        5022019
SBF   000.06 051.0 m E Sg      2012/06/20 07:53:23.6   0.0                          T              478.0  .32        Md 2.0  5007904
FRF   000.59 243.6 m E Pg      2012/06/20 07:53:32.2   0.0                          T                                Md 2.0  5007901
LMR   000.79 232.2 m E Pg      2012/06/20 07:53:35.9  -0.1                          T                                Md 2.1  5007903
LMR   000.79 232.2 m E Sg      2012/06/20 07:53:47.1   0.5                          T                9.6  .36                5007897
MBDF  001.00 334.8 m E Pg      2012/06/20 07:53:39.9  -0.2                          T                                        5007898
MBDF  001.00 334.8 m E Sg      2012/06/20 07:53:52.3  -0.9                          T                                        5007895
SMRF  001.30 277.3 m E Pn      2012/06/20 07:53:45.8   0.9                          T                                        5007902
SMRF  001.30 277.3 m E Sn      2012/06/20 07:54:02.6   0.5                          T                5.2  .26 Ml 2.2         5007900
LPG   001.73 345.5 m E Pn      2012/06/20 07:53:50.8  -0.2                          T                                        5007899
LPG   001.73 345.5 m E Sn      2012/06/20 07:54:13.8   1.1                          T                                        5007896
MTLF  003.77 264.4 m E Pg      2012/06/20 07:54:30.0  -0.9                          T                                        5007894
LASF  002.55 276.9 m E Sn      2012/06/20 07:54:32.6   0.7                          T                                        5007893

.
