EVENT     280894
    Date      Time       Latitude Longitude    Depth    Ndef Nsta Gap    Mag1  N    Mag2  N    Mag3  N   Author         ID
       rms   OT_Error      Smajor Sminor Az        Err   mdist  Mdist     Err        Err        Err      Quality

2012/08/09 02:44:44.4     47.9761    7.2713      5.0 f    76   20 027  Ml 2.4 17  Md 2.9  3              bulletin    280994
                                                                                                         _ldg
      0.93   +-  0.05       1.1     .9  155.87 +-  0.0    0.16   5.23   +-0.3      +-0.1                 m i ke

SWITZERLAND
Sta     Dist  EvAz     Phase      Date       Time     TRes  Azim  AzRes  Slow  SRes Def   SNR       Amp   Per   Mag1   Mag2       ID
HINF  000.32 240.6 m E Pg      2012/08/09 02:44:50.2  -0.6                          T                                        5041910
HINF  000.32 240.6 m E Sg      2012/08/09 02:44:54.4  -0.8                          T              146.4  .22        Md 3.0  5041897
CDF   000.44 000.4 m E Pg      2012/08/09 02:44:52.7  -0.2                          T                                        5041912
CDF   000.44 000.4 m E Sg      2012/08/09 02:44:58.5  -0.2                          T               18.5  .26        Md 2.9  5041893
HAU   000.62 273.1 m E Pg      2012/08/09 02:44:55.9  -0.3                          T                                        5041911
HAU   000.62 273.1 m E Pn      2012/08/09 02:44:58.2  -0.1                          T                                        5043007
HAU   000.62 273.1 m E Sg      2012/08/09 02:45:04.1  -0.3                          T               27.8  .22        Md 2.8  5041889
PAGF  001.18 299.9 m E Pg      2012/08/09 02:45:06.9   0.4 125.4  6.7               T                                        5041906
PAGF  001.18 299.9 m E P       2012/08/09 02:45:07.9   0.3                          T                                        5043006
PAGF  001.18 299.9 m E Sg      2012/08/09 02:45:21.9   0.1 112.5  -6.2              T               10.2  .18 Ml 2.7         5041895
SFTF  001.51 279.5 m E Pn      2012/08/09 02:45:10.3  -0.2 103.3  5.4               T                                        5041907
SFTF  001.51 279.5 m E Pg      2012/08/09 02:45:13.0   0.4 102.0  4.2               T                                        5042262
SFTF  001.51 279.5 m E Sn      2012/08/09 02:45:30.3   0.9                          T                                        5042261
SFTF  001.51 279.5 m E Sg      2012/08/09 02:45:32.4   0.2  74.0  -23.9             T               12.1  .17 Ml 2.9         5041898
CABF  001.59 211.0 m E Pn      2012/08/09 02:45:11.6   0.0                          T                                        5041909
CABF  001.59 211.0 m E Pg      2012/08/09 02:45:14.0   0.0                          T                                        5042259
CABF  001.59 211.0 m E Sn      2012/08/09 02:45:31.9   0.7                          T                                        5042260
CABF  001.59 211.0 m E Sg      2012/08/09 02:45:34.3  -0.2                          T                5.0  .20 Ml 2.5         5041908
MEZF  001.57 290.3 m E Pn      2012/08/09 02:45:11.9   0.7                          T                                        5041896
MEZF  001.57 290.3 m E Pg      2012/08/09 02:45:13.9   0.2 107.6  -1.1              T                                        5042263
MEZF  001.57 290.3 m E Sn      2012/08/09 02:45:30.7  -0.1                          T                                        5043003
MEZF  001.57 290.3 m E Sg      2012/08/09 02:45:33.8  -0.3 113.8  5.1               T                6.0  .16 Ml 2.6         5041894
LOR   002.41 254.2 m E Pn      2012/08/09 02:45:23.6   0.8                          T                                        5042268
LOR   002.41 254.2 m E Pg      2012/08/09 02:45:28.9  -0.3  80.0  8.3               T                                        5041905
LOR   002.41 254.2 m E Sg      2012/08/09 02:45:59.4  -0.9  74.8  3.1               T                4.8  .18 Ml 2.7         5041892
LPL   002.49 188.8 m E Pn      2012/08/09 02:45:24.4   0.5                          T                                        5042250
LPL   002.49 188.8 m E Pg      2012/08/09 02:45:31.0   0.2                          T                                        5042251
LPL   002.49 188.8 m E Sg      2012/08/09 02:46:02.3  -0.6                          T                4.8  .78 Ml 2.1         5042249
LPG   002.50 188.4 m E Pn      2012/08/09 02:45:24.6   0.3                          T                                        5042247
LPG   002.50 188.4 m E Pg      2012/08/09 02:45:31.2   0.0                          T                                        5042248
LPG   002.50 188.4 m E Sg      2012/08/09 02:46:02.3  -1.1                          T                1.1  .24 Ml 2.0         5042246
GIVF  002.67 323.8 m E Pn      2012/08/09 02:45:26.6   0.4                          T                                        5042267
GIVF  002.67 323.8 m E Pg      2012/08/09 02:45:33.6  -0.3                          T                                        5042266
GIVF  002.67 323.8 m E Sn      2012/08/09 02:45:58.6   1.7                          T                                        5042264
GIVF  002.67 323.8 m E Sg      2012/08/09 02:46:07.8  -0.4                          T                3.1  .24 Ml 2.5         5042265
AVF   002.91 247.4 m E Pn      2012/08/09 02:45:29.4  -0.1                          T                                        5041901
AVF   002.91 247.4 m E Pg      2012/08/09 02:45:38.6   0.2                          T                                        5042257
AVF   002.91 247.4 m E Sn      2012/08/09 02:46:03.5   0.7                          T                1.5  .28 Ml 2.1         5041890
AVF   002.91 247.4 m E Sg      2012/08/09 02:46:14.9  -0.9                          T                                        5041888
SSF   002.71 251.7 m E Pg      2012/08/09 02:45:34.1  -0.5                          T                                        5041904
SSF   002.71 251.7 m E Sg      2012/08/09 02:46:08.6  -0.9                          T                3.4  .29 Ml 2.5         5041891
ORIF  003.21 198.0 m E Pn      2012/08/09 02:45:34.2   0.6                          T                                        5042253
ORIF  003.21 198.0 m E Sg      2012/08/09 02:46:24.5  -0.6                          T                1.8  .32 Ml 2.2         5042252
SMF   002.69 241.6 m E Pg      2012/08/09 02:45:34.2   0.0                          T                                        5041903
SMF   002.69 241.6 m E Sg      2012/08/09 02:46:07.5  -1.3                          T                5.8  .26 Ml 2.7         5041899
BGF   003.33 246.4 m E Pn      2012/08/09 02:45:36.0   0.8                          T                                        5041902
BGF   003.33 246.4 m E Pg      2012/08/09 02:45:46.2   0.2                          T                                        5042254
BGF   003.33 246.4 m E Sg      2012/08/09 02:46:28.9   0.0                          T                6.3  .50 Ml 2.6         5041900
BAIF  002.90 317.1 m E Pg      2012/08/09 02:45:37.5  -0.6                          T                                        5043008
BAIF  002.90 317.1 m E Sg      2012/08/09 02:46:15.0  -0.4                          T                1.2  .28 Ml 2.1         5043009
HYF   003.21 259.0 m E Pg      2012/08/09 02:45:44.4   0.6                          T                                        5042256
HYF   003.21 259.0 m E Sg      2012/08/09 02:46:25.9   0.8                          T                                        5042255
TCF   003.85 245.8 m E Pg      2012/08/09 02:45:55.7   0.2                          T                                        5043005
TCF   003.85 245.8 m E Sg      2012/08/09 02:46:44.3  -0.7                          T                1.2  .29 Ml 2.3         5043004
FLN   005.23 281.5 m E Pn      2012/08/09 02:46:01.5   0.5                          T                                        5042258

.
EVENT     281090
    Date      Time       Latitude Longitude    Depth    Ndef Nsta Gap    Mag1  N    Mag2  N    Mag3  N   Author         ID
       rms   OT_Error      Smajor Sminor Az        Err   mdist  Mdist     Err        Err        Err      Quality

2012/08/09 03:11:23.2     42.5230     .8579      4.0 f    23    4 088  Ml 1.5  3  Md 1.5  2              bulletin    281190
                                                                                                         _ldg
      0.34   +-  0.06       1.1    1.0   40.70 +-  0.0    0.19   2.68   +-0.1      +-0.0                 m i ke

PYRENEES
Sta     Dist  EvAz     Phase      Date       Time     TRes  Azim  AzRes  Slow  SRes Def   SNR       Amp   Per   Mag1   Mag2       ID
EPF   000.63 323.2 m E Pg      2012/08/09 03:11:35.2  -0.1                          T                                        5046212
EPF   000.63 323.2 m E Sg      2012/08/09 03:11:43.3  -0.3                          T                2.3  .22        Md 1.5  5046211
ETSF  001.11 290.2 m E Pg      2012/08/09 03:11:44.3   0.2                          T                                        5046205
ETSF  001.11 290.2 m E Sg      2012/08/09 03:11:58.5   0.0                          T                 .6  .21 Ml 1.3         5046204
MTLF  001.29 050.2 m E Pn      2012/08/09 03:11:46.6   0.2                          T                                        5046210
MTLF  001.29 050.2 m E Pg      2012/08/09 03:11:47.3   0.0                          T                                        5046209
MTLF  001.29 050.2 m E Sg      2012/08/09 03:12:04.0  -0.1                          T                 .6  .18 Ml 1.5 Md 1.5  5046208
LASF  002.68 053.6 m E Pn      2012/08/09 03:12:05.5   0.2                          T                                        5046207
LASF  002.68 053.6 m E Sn      2012/08/09 03:12:36.6   0.2                          T                 .4  .22 Ml 1.6         5046206

.
EVENT     280945
    Date      Time       Latitude Longitude    Depth    Ndef Nsta Gap    Mag1  N    Mag2  N    Mag3  N   Author         ID
       rms   OT_Error      Smajor Sminor Az        Err   mdist  Mdist     Err        Err        Err      Quality

2012/08/09 08:59:25.5     47.9720    7.2396     10.0      38   15 053  Ml 2.4 14  Md 2.4  3              bulletin    281045
                                                                                                         _ldg
      0.84   +-  0.06       1.4    1.0  166.46 +-  0.0    0.14   2.89   +-0.3      +-0.1                 m i ke

SWITZERLAND
Sta     Dist  EvAz     Phase      Date       Time     TRes  Azim  AzRes  Slow  SRes Def   SNR       Amp   Per   Mag1   Mag2       ID
HINF  000.30 239.3 m E Pg      2012/08/09 08:59:31.4  -0.3                          T                                        5042296
HINF  000.30 239.3 m E Sg      2012/08/09 08:59:35.7  -0.2                          T               38.8  .20        Md 2.5  5042295
CDF   000.44 003.2 m E Pg      2012/08/09 08:59:34.0  -0.1                          T                                        5042288
CDF   000.44 003.2 m E Sg      2012/08/09 08:59:39.8  -0.4                          T               21.9  .24        Md 2.4  5042287
HAU   000.60 273.5 m E Pg      2012/08/09 08:59:37.2   0.2                          T                                        5042294
HAU   000.60 273.5 m E Sg      2012/08/09 08:59:45.4   0.5                          T               17.6  .24        Md 2.4  5042293
THEF  000.87 287.5 m E Pg      2012/08/09 08:59:42.0   0.0                          T                                        5042292
THEF  000.87 287.5 m E Sg      2012/08/09 08:59:53.0  -0.4                          T               12.7  .17 Ml 2.6         5042291
PAGF  001.17 300.5 m E Pg      2012/08/09 08:59:48.2   0.8 118.4  -1.0              T                                        5042286
PAGF  001.17 300.5 m E Sg      2012/08/09 09:00:02.3  -0.2 130.1  10.7              T                9.8  .20 Ml 2.6         5042285
MEZF  001.56 290.7 m E Pn      2012/08/09 08:59:51.7   0.2 106.6  -2.5              T                                        5042459
MEZF  001.56 290.7 m E Sg      2012/08/09 09:00:14.3  -0.3 120.5  11.4              T                5.3  .21 Ml 2.5         5042284
SFTF  001.49 279.8 m E Pg      2012/08/09 08:59:53.1  -0.3 107.6  9.4               T                                        5042458
SFTF  001.49 279.8 m E Sg      2012/08/09 09:00:12.5  -0.2                          T               10.4  .18 Ml 2.8         5042457
CABF  001.57 210.4 m E Pg      2012/08/09 08:59:54.6  -0.3                          T                                        5042290
CABF  001.57 210.4 m E Sg      2012/08/09 09:00:14.9  -0.3                          T                5.0  .20 Ml 2.5         5042289
LANF  001.08 020.2 m E Sg      2012/08/09 08:59:59.6  -0.1                          T               11.8  .26 Ml 2.5         5052668
SSF   002.69 251.6 m E Pn      2012/08/09 09:00:06.9  -0.1                          T                                        5042279
SSF   002.69 251.6 m E Pg      2012/08/09 09:00:15.1  -0.3                          T                                        5042280
SSF   002.69 251.6 m E Sn      2012/08/09 09:00:38.2   0.5                          T                1.9  .32 Ml 2.2         5042278
SSF   002.69 251.6 m E Sg      2012/08/09 09:00:50.1   0.1                          T                1.2  .23 Ml 2.2         5052667
AVF   002.89 247.3 m E Pn      2012/08/09 09:00:10.0   0.3                          T                                        5042460
AVF   002.89 247.3 m E Pg      2012/08/09 09:00:19.2   0.1                          T                                        5042277
AVF   002.89 247.3 m E Sn      2012/08/09 09:00:42.8   0.2                          T                 .9  .31 Ml 1.9         5042276
AVF   002.89 247.3 m E Sg      2012/08/09 09:00:56.2  -0.1                          T                1.1  .25 Ml 2.0         5052664
LOR   002.39 254.1 m E Pg      2012/08/09 09:00:10.3   0.4  76.6  4.9               T                                        5042283
LOR   002.39 254.1 m E Sg      2012/08/09 09:00:40.6  -0.1  70.0  -1.6              T                3.9  .28 Ml 2.4         5042282
SMF   002.67 241.4 m E Pg      2012/08/09 09:00:14.7  -0.2                          T                                        5042275
SMF   002.67 241.4 m E Sg      2012/08/09 09:00:48.6  -0.7                          T                5.1  .26 Ml 2.6         5042274
GIVF  002.66 324.2 m E Sg      2012/08/09 09:00:49.2   0.2                          T                3.6  .32 Ml 2.4         5052666
BAIF  002.89 317.4 m E Sg      2012/08/09 09:00:56.4   0.2                          T                2.3  .32 Ml 2.3         5052665

.
EVENT     280989
    Date      Time       Latitude Longitude    Depth    Ndef Nsta Gap    Mag1  N    Mag2  N    Mag3  N   Author         ID
       rms   OT_Error      Smajor Sminor Az        Err   mdist  Mdist     Err        Err        Err      Quality

2012/08/09 10:30:13.6     44.4738    6.8619      5.0 f    29    7 049  Ml 1.8  4  Md 2.1  1              bulletin    281089
                                                                                                         _ldg
      0.26   +-  0.04       1.0     .8   52.97 +-  0.0    0.04   1.17   +-0.3      +-                    m i ke

FRANCE
Sta     Dist  EvAz     Phase      Date       Time     TRes  Azim  AzRes  Slow  SRes Def   SNR       Amp   Per   Mag1   Mag2       ID
MBDF  000.26 345.7 m E Pg      2012/08/09 10:30:19.1   0.1                          T                                        5042677
MBDF  000.26 345.7 m E Sg      2012/08/09 10:30:22.4  -0.2                          T                6.9  .18        Md 2.1  5042675
SBF   000.74 145.8 m E Pg      2012/08/09 10:30:28.2   0.6                          T                                        5042672
SBF   000.74 145.8 m E Sn      2012/08/09 10:30:40.6   0.5                          T                2.1  .19                5052710
ORIF  000.83 302.7 m E Pg      2012/08/09 10:30:29.1  -0.3                          T                                        5042676
ORIF  000.83 302.7 m E Sg      2012/08/09 10:30:40.2   0.1                          T                2.5  .32                5042674
FRF   000.93 189.7 m E Pn      2012/08/09 10:30:32.0   0.3                          T                                        5042673
FRF   000.93 189.7 m E Sn      2012/08/09 10:30:44.4  -0.2                          T                3.9  .22 Ml 2.1         5042670
SMRF  001.05 242.2 m E Pg      2012/08/09 10:30:33.0  -0.4                          T                                        5052707
SMRF  001.05 242.2 m E Sg      2012/08/09 10:30:46.8  -0.2                          T                  1  .23 Ml 1.5         5052709
LMR   001.17 192.7 m E Pn      2012/08/09 10:30:35.1   0.1                          T                                        5042671
LMR   001.17 192.7 m E Sn      2012/08/09 10:30:50.8   0.4                          T                2.9  .20 Ml 2.1         5042669
LPL   001.05 355.0 m E Sg      2012/08/09 10:30:46.9  -0.2                          T                1.5  .28 Ml 1.6         5052708

.
