BEGIN GSE2.0
MSG_TYPE DATA
MSG_ID 22-MAI-1313:34:55  FRA_NDC
E-MAIL
DATA_TYPE BULLETIN
Reviewed Bulletin (REB) # P2013-018  from French NDC for regional phases     PERIOD 01 MAI 2013 TO 07 MAI 2013 Cenalt JP S
EVENT     297260
    Date      Time       Latitude Longitude    Depth    Ndef Nsta Gap    Mag1  N    Mag2  N    Mag3  N   Author         ID
       rms   OT_Error      Smajor Sminor Az        Err   mdist  Mdist     Err        Err        Err      Quality

2013/05/01 01:12:01.8     40.1813   -2.3082     11.0 f    70    3 051  Ml 1.9  3                         bulletin    297360
                                                                                                         _ldg
      0.80   +-  0.08       2.2    1.4  120.31 +-  0.0    0.67   4.17   +-0.1                            m i ke

SPAIN
Sta     Dist  EvAz     Phase      Date       Time     TRes  Azim  AzRes  Slow  SRes Def   SNR       Amp   Per   Mag1   Mag2       ID
ETSF  003.02 025.2 m E Pn      2013/05/01 01:12:47.6  -0.2                          T                                        5272736
ETSF  003.02 025.2 m E Pg      2013/05/01 01:12:57.5  -0.3                          T                                        5283581
ETSF  003.02 025.2 m E Sg      2013/05/01 01:13:36.3  -0.3                          T                 .5  .20 Ml 1.8         5272735
SJPF  003.04 015.1 m E Pn      2013/05/01 01:12:48.8   0.7                          T                                        5272738
SJPF  003.04 015.1 m E Pg      2013/05/01 01:12:58.4   0.2                          T                                        5283582
SJPF  003.04 015.1 m E Sg      2013/05/01 01:13:36.6  -0.7                          T                 .5  .19 Ml 1.9         5272737
EPF   003.47 034.0 m E Pn      2013/05/01 01:12:53.6  -0.3                          T                                        5272733
EPF   003.47 034.0 m E Pg      2013/05/01 01:13:05.8  -0.4                          T                                        5283580
EPF   003.47 034.0 m E Sg      2013/05/01 01:13:50.4  -0.4                          T                 .6  .17 Ml 2.1         5272734

.
EVENT     297237
    Date      Time       Latitude Longitude    Depth    Ndef Nsta Gap    Mag1  N    Mag2  N    Mag3  N   Author         ID
       rms   OT_Error      Smajor Sminor Az        Err   mdist  Mdist     Err        Err        Err      Quality

2013/05/01 02:43:52.9     46.9415    4.3457      2.0 f    13    5 209  Ml 1.6  1  Md 1.6  3              bulletin    297337
                                                                                                         _ldg
      4.29   +-  0.91      15.5    8.9  128.77 +-  0.0    0.46   1.35   +-         +-0.1                 m i si

FRANCE
Sta     Dist  EvAz     Phase      Date       Time     TRes  Azim  AzRes  Slow  SRes Def   SNR       Amp   Per   Mag1   Mag2       ID
LOR   000.47 314.7 m E Pg      2013/05/01 02:44:01.9   0.1 159.5  25.1              T                                        5283589
LOR   000.47 314.7 m E Sg      2013/05/01 02:44:08.5   0.6 101.9  -32.5             T                1.1  .23        Md 1.6  5272685
LOR   000.47 314.7 m E Sn      2013/05/01 02:44:11.2   2.0 105.9  -28.5             T                2.5  .15                5272687
SMF   000.46 229.7 m E Pn      2013/05/01 02:44:02.3   0.2                          T                                        5283607
SMF   000.46 229.7 m E Sn      2013/05/01 02:44:08.8   0.4                          T                 .2  .25        Md 1.5  5283608
SSF   000.59 282.1 m E Pg      2013/05/01 02:44:04.8   0.8                          T                                        5283615
SSF   000.59 282.1 m E Sg      2013/05/01 02:44:10.6  -1.1                          T                                        5272686
SSF   000.59 282.1 m E Sn      2013/05/01 02:44:12.1  -4.2                          T                1.6  .18        Md 1.7  5272684
AVF   000.70 257.9 m E Sg      2013/05/01 02:44:15.6   0.4                          T                 .1  .23                5283606
SFTF  001.35 020.1 m E Pg      2013/05/01 02:44:17.6  -0.4                          T                                        5283609
SFTF  001.35 020.1 m E Sg      2013/05/01 02:44:34.8  -0.7                          T                1.5  .33 Ml 1.6         5272682

.
EVENT     297238
    Date      Time       Latitude Longitude    Depth    Ndef Nsta Gap    Mag1  N    Mag2  N    Mag3  N   Author         ID
       rms   OT_Error      Smajor Sminor Az        Err   mdist  Mdist     Err        Err        Err      Quality

2013/05/01 02:47:56.2     46.9416    4.3513      2.0 f    13    5 210  Ml 1.1  1  Md 1.5  3              bulletin    297338
                                                                                                         _ldg
      2.34   +-  0.83      12.6    7.0  112.27 +-  0.0    0.46   1.35   +-         +-0.0                 m i si

FRANCE
Sta     Dist  EvAz     Phase      Date       Time     TRes  Azim  AzRes  Slow  SRes Def   SNR       Amp   Per   Mag1   Mag2       ID
LOR   000.47 314.4 m E Pg      2013/05/01 02:48:05.3   0.0 124.6  -9.4              T                                        5283614
LOR   000.47 314.4 m E Sg      2013/05/01 02:48:12.0   0.6 140.2  6.2               T                                        5272693
LOR   000.47 314.4 m E Sn      2013/05/01 02:48:14.6   1.8 155.4  21.4              T                4.7  .20        Md 1.5  5272691
SMF   000.46 230.0 m E Pn      2013/05/01 02:48:05.6   0.1                          T                                        5283610
SMF   000.46 230.0 m E Sn      2013/05/01 02:48:12.2   0.2                          T                 .2  .21        Md 1.4  5283611
SSF   000.59 282.0 m E Pg      2013/05/01 02:48:08.3   0.8                          T                                        5283613
SSF   000.59 282.0 m E Sg      2013/05/01 02:48:14.0  -1.2                          T                                        5272692
SSF   000.59 282.0 m E Sn      2013/05/01 02:48:15.5  -4.2                          T                1.1  .22        Md 1.5  5272690
AVF   000.70 257.9 m E Sg      2013/05/01 02:48:19.0   0.3                          T                 .1  .18                5283616
SFTF  001.35 020.0 m E Sg      2013/05/01 02:48:38.1  -0.7                          T                 .3  .22 Ml 1.1         5283617

.
EVENT     297240
    Date      Time       Latitude Longitude    Depth    Ndef Nsta Gap    Mag1  N    Mag2  N    Mag3  N   Author         ID
       rms   OT_Error      Smajor Sminor Az        Err   mdist  Mdist     Err        Err        Err      Quality

2013/05/01 02:54:49.6     46.9352    4.3671      2.0 f    13    5 212  Ml 0.9  1  Md 1.5  3              bulletin    297340
                                                                                                         _ldg
      1.01   +-  0.42       6.6    3.7  110.70 +-  0.0    0.46   1.35   +-         +-0.2                 m i si

FRANCE
Sta     Dist  EvAz     Phase      Date       Time     TRes  Azim  AzRes  Slow  SRes Def   SNR       Amp   Per   Mag1   Mag2       ID
LOR   000.48 314.0 m E Pg      2013/05/01 02:54:58.7  -0.2 134.2  0.6               T                                        5283623
LOR   000.48 314.0 m E Sg      2013/05/01 02:55:05.3   0.1                          T                                        5272699
LOR   000.48 314.0 m E Sn      2013/05/01 02:55:08.1   0.9 144.4  10.7              T                5.3  .30        Md 1.7  5272698
SMF   000.46 231.4 m E Pn      2013/05/01 02:54:59.1  -0.1                          T                                        5283618
SMF   000.46 231.4 m E Sn      2013/05/01 02:55:05.7  -0.1                          T                 .9  .33        Md 1.5  5283619
SSF   000.60 282.4 m E Pg      2013/05/01 02:55:01.7   0.6                          T                                        5283622
SSF   000.60 282.4 m E Sg      2013/05/01 02:55:07.5  -1.5                          T                                        5272697
SSF   000.60 282.4 m E Sn      2013/05/01 02:55:09.0  -4.4                          T                 .6  .39        Md 1.5  5272696
AVF   000.71 258.6 m E Sg      2013/05/01 02:55:12.4   0.1                          T                 .2  .23                5283620
SFTF  001.35 019.4 m E Sg      2013/05/01 02:55:31.5  -0.7                          T                 .2  .18 Ml  .9         5283621

.
EVENT     297262
    Date      Time       Latitude Longitude    Depth    Ndef Nsta Gap    Mag1  N    Mag2  N    Mag3  N   Author         ID
       rms   OT_Error      Smajor Sminor Az        Err   mdist  Mdist     Err        Err        Err      Quality

2013/05/01 03:55:56.8     51.3775   16.0451      1.0 f    37    6 093  Ml 3.6  6                         bulletin    297362
                                                                                                         _ldg
      0.64   +-  0.25       6.3    3.6    4.91 +-  0.0    0.56   7.80   +-0.4                            m i sr

POLAND
Sta     Dist  EvAz     Phase      Date       Time     TRes  Azim  AzRes  Slow  SRes Def   SNR       Amp   Per   Mag1   Mag2       ID
CDF   006.40 245.8 m E Pn      2013/05/01 03:57:32.1   2.1                          T                                        5272914
CDF   006.40 245.8 m E Pg      2013/05/01 03:57:56.2   1.0                          T                                        5272919
CDF   006.40 245.8 m E Sg      2013/05/01 03:59:16.8  -0.3                          T               27.6 1.08 Ml 3.7         5272918
HINF  006.96 242.8 m E Pn      2013/05/01 03:57:36.4  -1.2                          T                                        5272915
HINF  006.96 242.8 m E Pg      2013/05/01 03:58:05.5   0.1                          T                                        5272916
HINF  006.96 242.8 m E Sg      2013/05/01 03:59:35.2   0.7                          T               12.7  .90 Ml 3.4         5272917
HAU   007.14 245.6 m E Pn      2013/05/01 03:57:39.7  -0.3                          T                                        5272911
HAU   007.14 245.6 m E Pg      2013/05/01 03:58:08.3  -0.4                          T                                        5272912
HAU   007.14 245.6 m E Sn      2013/05/01 03:58:57.2   0.2                          T                                        5272910
HAU   007.14 245.6 m E Sg      2013/05/01 03:59:41.6   1.4                          T                7.5  .55 Ml 3.2         5272913
PAGF  007.23 251.0 m E Pn      2013/05/01 03:57:41.2   0.0                          T                                        5272903
PAGF  007.23 251.0 m E Pg      2013/05/01 03:58:09.8  -0.6                          T                                        5272904
PAGF  007.23 251.0 m E Sg      2013/05/01 03:59:42.8  -0.3                          T              240.9 2.16 Ml 4.3         5272905
SFTF  007.80 250.3 m E Pn      2013/05/01 03:57:50.2   1.3                          T                                        5272906
SFTF  007.80 250.3 m E Pg      2013/05/01 03:58:20.8  -0.1                          T                                        5272907
SFTF  007.80 250.3 m E Sn      2013/05/01 03:59:12.5  -0.3                          T                                        5272908
SFTF  007.80 250.3 m E Sg      2013/05/01 03:59:59.5  -1.3                          T                6.6  .62 Ml 3.4         5272909
MEZF  007.65 252.2 m E Pg      2013/05/01 03:58:18.8   0.6                          T                                        5272902
MEZF  007.65 252.2 m E Sg      2013/05/01 03:59:56.9   0.7                          T                8.5  .79 Ml 3.4         5272901

.
EVENT     297256
    Date      Time       Latitude Longitude    Depth    Ndef Nsta Gap    Mag1  N    Mag2  N    Mag3  N   Author         ID
       rms   OT_Error      Smajor Sminor Az        Err   mdist  Mdist     Err        Err        Err      Quality

2013/05/01 04:30:05.3     42.8492   -1.8776       .0 f     6    3 334  Ml 1.3  2  Md 1.5  2              bulletin    297356
                                                                                                         _ldg
      0.15   +-  0.32       6.4    5.3  175.78 +-  0.0    0.55   1.64   +-0.2      +-0.0                 m i km

PYRENEES
Sta     Dist  EvAz     Phase      Date       Time     TRes  Azim  AzRes  Slow  SRes Def   SNR       Amp   Per   Mag1   Mag2       ID
SJPF  000.55 060.9 m E Pg      2013/05/01 04:30:16.1   0.1                          T                                        5272703
SJPF  000.55 060.9 m E Sg      2013/05/01 04:30:23.1  -0.3                          T                2.3  .22        Md 1.4  5272702
ETSF  000.97 086.6 m E Pg      2013/05/01 04:30:23.8  -0.1                          T                                        5272705
ETSF  000.97 086.6 m E Sg      2013/05/01 04:30:36.9   0.2                          T                 .5  .20 Ml 1.2 Md 1.5  5272704
EPF   001.64 082.9 m E Pg      2013/05/01 04:30:36.1  -0.1                          T                                        5283627
EPF   001.64 082.9 m E Sg      2013/05/01 04:30:57.6   0.1                          T                 .5  .19 Ml 1.5         5283628

.
EVENT     297258
    Date      Time       Latitude Longitude    Depth    Ndef Nsta Gap    Mag1  N    Mag2  N    Mag3  N   Author         ID
       rms   OT_Error      Smajor Sminor Az        Err   mdist  Mdist     Err        Err        Err      Quality

2013/05/01 08:37:16.9     42.3650    1.4250      2.0      26    4 058  Ml 1.7  5                         bulletin    297358
                                                                                                         _ldg
      0.91   +-  0.10       2.1    1.6    7.56 +-  0.0    0.16   2.47   +-0.1                            m i ke

PYRENEES
Sta     Dist  EvAz     Phase      Date       Time     TRes  Azim  AzRes  Slow  SRes Def   SNR       Amp   Per   Mag1   Mag2       ID
EPF   001.04 310.1 m E Pg      2013/05/01 08:37:36.3  -0.1                          T                                        5272713
EPF   001.04 310.1 m E Sg      2013/05/01 08:37:49.5  -0.4                          T                2.3  .20 Ml 1.9         5272716
MTLF  001.14 030.6 m E Pg      2013/05/01 08:37:37.5  -0.7                          T                                        5272709
MTLF  001.14 030.6 m E Sg      2013/05/01 08:37:51.0  -1.9                          T                1.3  .19 Ml 1.7         5272708
ETSF  001.56 290.7 m E Pg      2013/05/01 08:37:46.6   0.6                          T                                        5272706
ETSF  001.56 290.7 m E Sg      2013/05/01 08:38:07.7   1.6                          T                1.3  .23 Ml 1.8         5272707
LASF  002.47 045.3 m E Pn      2013/05/01 08:37:56.5   0.2                          T                                        5272718
LASF  002.47 045.3 m E Sn      2013/05/01 08:38:24.7  -0.5                          T                 .7  .27 Ml 1.7         5272717

.
EVENT     297257
    Date      Time       Latitude Longitude    Depth    Ndef Nsta Gap    Mag1  N    Mag2  N    Mag3  N   Author         ID
       rms   OT_Error      Smajor Sminor Az        Err   mdist  Mdist     Err        Err        Err      Quality

2013/05/01 08:48:44.1     43.2272   -1.3587      2.0      16    3 192  Ml 1.5  1  Md 1.5  2              bulletin    297357
                                                                                                         _ldg
      0.58   +-  0.23       4.7    2.5    2.52 +-  0.0    0.11   2.60   +-         +-0.2                 m i ke

PYRENEES
Sta     Dist  EvAz     Phase      Date       Time     TRes  Azim  AzRes  Slow  SRes Def   SNR       Amp   Per   Mag1   Mag2       ID
SJPF  000.15 139.3 m E Pg      2013/05/01 08:48:47.4   0.1                          T                                        5272725
SJPF  000.15 139.3 m E Sg      2013/05/01 08:48:50.6   1.2                          T               13.2  .21        Md 1.3  5272724
ETSF  000.67 119.0 m E Pg      2013/05/01 08:48:55.8  -1.1                          T                                        5272723
ETSF  000.67 119.0 m E Sg      2013/05/01 08:49:04.6  -1.1                          T                2.9  .21        Md 1.6  5272722
EPF   001.26 098.4 m E Pn      2013/05/01 08:49:07.4   0.3                          T                                        5272726
EPF   001.26 098.4 m E Sn      2013/05/01 08:49:24.0   0.3                          T                  1  .25 Ml 1.5         5272721

.
EVENT     297259
    Date      Time       Latitude Longitude    Depth    Ndef Nsta Gap    Mag1  N    Mag2  N    Mag3  N   Author         ID
       rms   OT_Error      Smajor Sminor Az        Err   mdist  Mdist     Err        Err        Err      Quality

2013/05/01 09:56:44.9     42.8312   -1.2311      2.0      14    3 096  Ml 1.7  1  Md 1.7  2              bulletin    297359
                                                                                                         _ldg
      0.52   +-  0.14       3.1    2.6  162.05 +-  0.0    0.21   1.24   +-         +-0.2                 m i ke

PYRENEES
Sta     Dist  EvAz     Phase      Date       Time     TRes  Azim  AzRes  Slow  SRes Def   SNR       Amp   Per   Mag1   Mag2       ID
SJPF  000.28 000.9 m E Pg      2013/05/01 09:56:49.9  -0.5                          T                                        5272731
SJPF  000.28 000.9 m E Sg      2013/05/01 09:56:53.7  -0.5                          T                                Md 1.8  5272732
ETSF  000.50 082.0 m E Pg      2013/05/01 09:56:53.4  -1.1                          T                                        5272728
ETSF  000.50 082.0 m E Sg      2013/05/01 09:57:01.6   0.5                          T                                Md 1.5  5272727
EPF   001.17 079.7 m E Pn      2013/05/01 09:57:07.1   0.4                          T                                        5272730
EPF   001.17 079.7 m E Sn      2013/05/01 09:57:22.8   0.5                          T                1.3  .23 Ml 1.7         5272729

.
