EVENT     259727
    Date      Time       Latitude Longitude    Depth    Ndef Nsta Gap    Mag1  N    Mag2  N    Mag3  N   Author         ID
       rms   OT_Error      Smajor Sminor Az        Err   mdist  Mdist     Err        Err        Err      Quality

2011/05/25 12:07:43.0     43.7504   11.9804      2.0      17   13 274  Ml 3.2  5                         js067245    259727

      1.29   +-  0.92      19.6    9.1   86.61 +-  0.0    0.15   7.11   +-0.2                            m i ke

CENTRAL ITALY
Sta     Dist  EvAz     Phase      Date       Time     TRes  Azim  AzRes  Slow  SRes Def   SNR       Amp   Per   Mag1   Mag2       ID
PGF   002.49 242.2 m E Pn      2011/05/25 12:08:22.7  -0.1                          T                                        4700548
SBF   003.29 273.5 m E Pn      2011/05/25 12:08:32.8  -0.9                          T                                        4700551
FRF   003.88 269.0 m E Pn      2011/05/25 12:08:41.3  -0.3                          T                                        4700550
LMR   004.00 265.9 m E Pn      2011/05/25 12:08:42.6  -0.7                          T                                        4700549
ORIF  004.53 287.0 m E Pn      2011/05/25 12:08:51.7   1.0                          T                                        4700546
SMRF  004.64 275.0 m E Pn      2011/05/25 12:08:52.5   0.4                          T                                        4700547
CABF  005.05 306.5 m E Pn      2011/05/25 12:08:58.4   0.6                          T                                        4700544
CDF   005.70 326.6 m E Pn      2011/05/25 12:09:06.1  -0.4                          T                                        4700543
CDF   005.70 326.6 m E Sn      2011/05/25 12:10:07.2  -1.4                          T                4.6  .30 Ml 3.3         4700540
LOR   006.70 304.5 m E Pn      2011/05/25 12:09:21.0   0.8 108.3  -10.4             T                                        4700542
LOR   006.70 304.5 m E Sn      2011/05/25 12:10:34.9   2.3                          T                4.6  .36 Ml 3.3         4700541
MTLF  007.11 270.1 m E Pn      2011/05/25 12:09:25.7   0.1                          T                                        4700545
HINF  005.42 320.4 m E Sn      2011/05/25 12:10:03.4   1.4                          T                7.1  .38 Ml 3.2         4700537
HAU   005.79 319.2 m E Sn      2011/05/25 12:10:11.7   0.8                          T               13.5  .42 Ml 3.3         4700538
PAGF  006.48 320.1 m E Sn      2011/05/25 12:10:26.7  -0.4                          T                1.9  .41 Ml 2.8         4700539

.
EVENT     259728
    Date      Time       Latitude Longitude    Depth    Ndef Nsta Gap    Mag1  N    Mag2  N    Mag3  N   Author         ID
       rms   OT_Error      Smajor Sminor Az        Err   mdist  Mdist     Err        Err        Err      Quality

2011/05/25 17:16:06.9     43.2966    3.8392      4.0 f    60   19 104  Ml 2.6 14  Md 2.7  2              js067245    259728

      0.60   +-  0.07       1.6    1.1  135.60 +-  0.0    0.78   4.35   +-0.1      +-0.1                 m i ke

NEAR SOUTH COAST OF FRANCE
Sta     Dist  EvAz     Phase      Date       Time     TRes  Azim  AzRes  Slow  SRes Def   SNR       Amp   Per   Mag1   Mag2       ID
LASF  000.78 000.9 m E Pg      2011/05/25 17:16:21.7   0.1                          T                                        4700624
LASF  000.78 000.9 m E Sg      2011/05/25 17:16:31.7  -0.1                          T               23.2  .22        Md 2.7  4700613
MTLF  001.18 272.7 m E Pn      2011/05/25 17:16:28.2  -0.4                          T                                        4700623
MTLF  001.18 272.7 m E Sg      2011/05/25 17:16:44.1  -0.3                          T               13.3  .30 Ml 2.5 Md 2.7  4700614
SMRF  001.43 061.1 m E Pn      2011/05/25 17:16:32.2   0.2                          T                                        4700611
SMRF  001.43 061.1 m E Pg      2011/05/25 17:16:35.2   1.6                          T                                        4700610
SMRF  001.43 061.1 m E Sg      2011/05/25 17:16:52.6   0.4                          T               12.2  .36 Ml 2.5         4700609
VIVF  001.67 020.8 m E Pn      2011/05/25 17:16:34.7  -0.5                          T                                        4700622
VIVF  001.67 020.8 m E Pg      2011/05/25 17:16:38.5   0.4                          T                                        4700621
VIVF  001.67 020.8 m E Sg      2011/05/25 17:16:59.6   0.0                          T               13.3  .22 Ml 2.9         4700612
LMR   001.95 088.0 m E Pn      2011/05/25 17:16:39.2   0.2                          T                                        4700604
LMR   001.95 088.0 m E Pg      2011/05/25 17:16:42.9  -0.2                          T                                        4700605
LMR   001.95 088.0 m E Sn      2011/05/25 17:17:02.4  -0.1                          T                                        4702303
LMR   001.95 088.0 m E Sg      2011/05/25 17:17:08.6   0.4                          T                4.7  .20 Ml 2.6         4700607
FRF   002.06 081.7 m E Pn      2011/05/25 17:16:40.5  -0.1                          T                                        4700603
FRF   002.06 081.7 m E Pg      2011/05/25 17:16:45.2  -0.1                          T                                        4702301
FRF   002.06 081.7 m E Sg      2011/05/25 17:17:12.0   0.2                          T                5.0  .22 Ml 2.6         4700608
CAF   002.07 322.5 m E Pn      2011/05/25 17:16:41.5   0.8                          T                                        4700620
CAF   002.07 322.5 m E Pg      2011/05/25 17:16:45.6   0.2                          T                                        4700619
CAF   002.07 322.5 m E Sg      2011/05/25 17:17:12.1   0.0                          T                5.4  .17 Ml 2.7         4700616
EPF   002.57 265.3 m E Pn      2011/05/25 17:16:47.3  -0.2                          T                                        4700601
EPF   002.57 265.3 m E Pg      2011/05/25 17:16:54.7   0.0                          T                                        4702302
EPF   002.57 265.3 m E Sg      2011/05/25 17:17:27.4  -0.4                          T                6.4  .20 Ml 2.8         4700615
ORIF  002.19 041.5 m E Pg      2011/05/25 17:16:47.6  -0.1                          T                                        4700589
RJF   002.61 321.1 m E Pn      2011/05/25 17:16:47.7  -0.3                          T                                        4700590
RJF   002.61 321.1 m E Pg      2011/05/25 17:16:55.3   0.0                          T                                        4700600
RJF   002.61 321.1 m E Sg      2011/05/25 17:17:29.1   0.2                          T                7.1  .22 Ml 2.5         4700618
SBF   002.67 076.5 m E Pn      2011/05/25 17:16:48.9  -0.1                          T                                        4700643
SBF   002.67 076.5 m E Sg      2011/05/25 17:17:31.0   0.1                          T                6.5  .39 Ml 2.6         4700606
MBDF  002.55 054.9 m E Pg      2011/05/25 17:16:54.0  -0.4                          T                                        4700602
TCF   003.21 339.4 m E Pg      2011/05/25 17:17:07.1   0.8                          T                                        4700586
TCF   003.21 339.4 m E Sg      2011/05/25 17:17:47.4  -0.2                          T                3.4  .34 Ml 2.5         4700585
SMF   003.35 000.0 m E Pg      2011/05/25 17:17:09.6   0.6                          T                                        4700594
SMF   003.35 000.0 m E Sg      2011/05/25 17:17:51.1  -0.8                          T                3.0  .28 Ml 2.5         4700591
BGF   003.34 348.1 m E Pg      2011/05/25 17:17:09.9   1.2                          T                                        4700595
BGF   003.34 348.1 m E Sg      2011/05/25 17:17:50.8  -0.7                          T                8.4  .38 Ml 2.8         4700592
AVF   003.51 354.5 m E Pg      2011/05/25 17:17:11.2  -0.7                          T                                        4700587
AVF   003.51 354.5 m E Sg      2011/05/25 17:17:56.7  -0.3                          T                                        4700588
MFF   004.35 320.8 m E Pn      2011/05/25 17:17:11.8   0.1                          T                                        4700598
MFF   004.35 320.8 m E Sg      2011/05/25 17:18:22.9  -0.3                          T                                        4700599
LOR   003.97 000.2 m E Pg      2011/05/25 17:17:20.4   0.0                          T                                        4700584
LOR   003.97 000.2 m E Sg      2011/05/25 17:18:10.9  -0.5                          T                2.1  .35 Ml 2.4         4700583
LFF   002.77 307.4 m E Sg      2011/05/25 17:17:34.8   1.0                          T               11.6  .36 Ml 2.7         4700617

.
EVENT     259731
    Date      Time       Latitude Longitude    Depth    Ndef Nsta Gap    Mag1  N    Mag2  N    Mag3  N   Author         ID
       rms   OT_Error      Smajor Sminor Az        Err   mdist  Mdist     Err        Err        Err      Quality

2011/05/25 19:18:06.7     43.4190    7.0807      2.0      10    5 228  Ml 1.7  2  Md 1.6  3              js067245    259731

      0.12   +-  0.09       1.9     .8  147.51 +-  0.0    0.35   1.33   +-0.2      +-0.0                 m i ke

NEAR SOUTH COAST OF FRANCE
Sta     Dist  EvAz     Phase      Date       Time     TRes  Azim  AzRes  Slow  SRes Def   SNR       Amp   Per   Mag1   Mag2       ID
FRF   000.35 294.3 m E Pg      2011/05/25 19:18:13.4   0.0                          T                                        4702308
FRF   000.35 294.3 m E Sg      2011/05/25 19:18:18.2   0.2                          T                5.4  .24        Md 1.6  4702309
LMR   000.43 258.7 m E Pg      2011/05/25 19:18:14.8   0.0                          T                                        4702306
LMR   000.43 258.7 m E Sg      2011/05/25 19:18:20.7   0.2                          T                1.2  .25        Md 1.6  4702307
SBF   000.51 030.0 m E Pg      2011/05/25 19:18:16.6   0.0                          T                                        4702304
SBF   000.51 030.0 m E Sg      2011/05/25 19:18:23.6   0.3                          T                6.3  .20        Md 1.6  4702305
SMRF  001.23 297.5 m E Pg      2011/05/25 19:18:29.6   0.0                          T                                        4702310
SMRF  001.23 297.5 m E Sg      2011/05/25 19:18:45.5   0.0                          T                  1  .21 Ml 1.6         4702311
MBDF  001.33 350.4 m E Pg      2011/05/25 19:18:31.6  -0.1                          T                                        4702312
MBDF  001.33 350.4 m E Sg      2011/05/25 19:18:48.6  -0.2                          T                1.8  .25 Ml 1.8         4702313

.
EVENT     259732
    Date      Time       Latitude Longitude    Depth    Ndef Nsta Gap    Mag1  N    Mag2  N    Mag3  N   Author         ID
       rms   OT_Error      Smajor Sminor Az        Err   mdist  Mdist     Err        Err        Err      Quality

2011/05/25 19:27:36.0     43.3540    7.1547      2.0      15    6 147  Ml 2.1  2  Md 1.9  3              js067245    259732

      1.49   +-  0.27       6.2    4.5   15.46 +-  0.0    0.42   1.58   +-0.0      +-0.1                 m i ke

NEAR SOUTH COAST OF FRANCE
Sta     Dist  EvAz     Phase      Date       Time     TRes  Azim  AzRes  Slow  SRes Def   SNR       Amp   Per   Mag1   Mag2       ID
FRF   000.42 299.4 m E Pg      2011/05/25 19:27:44.1   0.0                          T                                        4702327
FRF   000.42 299.4 m E Sg      2011/05/25 19:27:49.0  -0.8                          T               19.5  .22        Md 2.1  4702328
LMR   000.47 267.8 m E Pg      2011/05/25 19:27:45.6   0.5                          T                                        4702325
LMR   000.47 267.8 m E Sg      2011/05/25 19:27:51.5   0.2                          T                4.1  .16        Md 2.0  4702326
SBF   000.55 021.7 m E Pg      2011/05/25 19:27:47.3   0.8                          T                                        4702323
SBF   000.55 021.7 m E Sg      2011/05/25 19:27:54.4   0.7                          T               22.1  .19        Md 1.8  4702324
SMRF  001.30 299.0 m E Pn      2011/05/25 19:27:59.4  -0.2                          T                                        4702321
SMRF  001.30 299.0 m E Pg      2011/05/25 19:28:00.4   0.0                          T                                        4702320
SMRF  001.30 299.0 m E Sg      2011/05/25 19:28:16.2  -1.1                          T                3.3  .25 Ml 2.1         4702322
MBDF  001.40 348.7 m E Pg      2011/05/25 19:28:02.2  -0.2                          T                                        4702318
MBDF  001.40 348.7 m E Sg      2011/05/25 19:28:19.2  -1.2                          T                4.2  .34 Ml 2.1         4702319
PGF   001.58 120.1 m E Pn      2011/05/25 19:28:04.0   0.6                          T                                        4702316
PGF   001.58 120.1 m E Sn      2011/05/25 19:28:21.4  -1.8                          T                                        4702317

.
EVENT     259733
    Date      Time       Latitude Longitude    Depth    Ndef Nsta Gap    Mag1  N    Mag2  N    Mag3  N   Author         ID
       rms   OT_Error      Smajor Sminor Az        Err   mdist  Mdist     Err        Err        Err      Quality

2011/05/26 00:17:04.5     42.8541   -1.4977      2.0      14    3 141  Ml 1.9  1  Md 1.6  2              js067245    259733

      0.29   +-  0.10       1.9    1.6  141.15 +-  0.0    0.10   1.36   +-         +-0.0                 m i ke

PYRENEES
Sta     Dist  EvAz     Phase      Date       Time     TRes  Azim  AzRes  Slow  SRes Def   SNR       Amp   Per   Mag1   Mag2       ID
SJPF  000.33 037.6 m E Pg      2011/05/26 00:17:10.8   0.0                          T                                        4702333
SJPF  000.33 037.6 m E Sg      2011/05/26 00:17:15.1  -0.1                          T                9.2  .29        Md 1.6  4702334
ETSF  000.69 086.0 m E Pg      2011/05/26 00:17:17.9   0.2                          T                                        4702331
ETSF  000.69 086.0 m E Sg      2011/05/26 00:17:27.0   0.4                          T                1.3  .22        Md 1.6  4702332
EPF   001.36 081.9 m E Pg      2011/05/26 00:17:30.0   0.1                          T                                        4702329
EPF   001.36 081.9 m E Sg      2011/05/26 00:17:48.2   0.7                          T                2.0  .23 Ml 1.9         4702330

.
EVENT     259734
    Date      Time       Latitude Longitude    Depth    Ndef Nsta Gap    Mag1  N    Mag2  N    Mag3  N   Author         ID
       rms   OT_Error      Smajor Sminor Az        Err   mdist  Mdist     Err        Err        Err      Quality

2011/05/26 05:02:43.2     44.9397    6.6415      2.0      18    6 098  Ml 1.6  2                         js067245    259734

      0.51   +-  0.12       2.4    2.0  112.07 +-  0.0    0.10   1.40   +-0.6                            m i ke

FRANCE
Sta     Dist  EvAz     Phase      Date       Time     TRes  Azim  AzRes  Slow  SRes Def   SNR       Amp   Per   Mag1   Mag2       ID
MBDF  000.23 156.5 m E Pg      2011/05/26 05:02:47.9  -0.1                          T                                        4702365
MBDF  000.23 156.5 m E Sg      2011/05/26 05:02:51.4   0.2                          T               27.5  .22                4702366
ORIF  000.54 268.0 m E Pg      2011/05/26 05:02:53.6   0.0                          T                                        4702363
ORIF  000.54 268.0 m E Sg      2011/05/26 05:03:00.4  -0.3                          T               19.3  .32                4702364
LPG   000.56 007.9 m E Pg      2011/05/26 05:02:54.0  -0.2                          T                                        4702359
LPG   000.56 007.9 m E Sg      2011/05/26 05:03:01.5  -0.2                          T                7.0  .27                4702360
LPL   000.58 006.3 m E Pg      2011/05/26 05:02:54.4  -0.1                          T                                        4702361
LPL   000.58 006.3 m E Sg      2011/05/26 05:03:02.7   0.6                          T                6.3  .39                4702362
SMRF  001.23 218.8 m E Pg      2011/05/26 05:03:06.2  -0.1                          T                                        4702355
SMRF  001.23 218.8 m E Sg      2011/05/26 05:03:22.3   0.2                          T                 .3  .19 Ml 1.2         4702356
VIVF  001.40 267.3 m E Pg      2011/05/26 05:03:09.7   0.3                          T                                        4702357
VIVF  001.40 267.3 m E Sg      2011/05/26 05:03:27.5   0.0                          T                2.6  .26 Ml 2.0         4702358

.
EVENT     259757
    Date      Time       Latitude Longitude    Depth    Ndef Nsta Gap    Mag1  N    Mag2  N    Mag3  N   Author         ID
       rms   OT_Error      Smajor Sminor Az        Err   mdist  Mdist     Err        Err        Err      Quality

2011/05/26 10:51:28.1     44.6345    7.3004      2.0      20    9 196  Ml 1.8  7  Md 1.8  1              js067245    259757

      0.38   +-  0.16       3.1    1.5   78.56 +-  0.0    0.38   1.89   +-0.3      +-                    m i ke

NORTHERN ITALY
Sta     Dist  EvAz     Phase      Date       Time     TRes  Azim  AzRes  Slow  SRes Def   SNR       Amp   Per   Mag1   Mag2       ID
MBDF  000.39 283.9 m E Pg      2011/05/26 10:51:35.9   0.1                          T                                        4702382
MBDF  000.39 283.9 m E Sg      2011/05/26 10:51:40.3  -0.7                          T                7.2  .20        Md 1.8  4702383
SBF   000.78 172.8 m E Pg      2011/05/26 10:51:43.1   0.2                          T                                        4702367
SBF   000.78 172.8 m E Sg      2011/05/26 10:51:53.3   0.3                          T                1.3  .17                4702368
LPG   000.95 335.9 m E Pg      2011/05/26 10:51:46.4   0.1                          T                                        4702371
LPG   000.95 335.9 m E Sg      2011/05/26 10:51:58.7   0.1                          T                1.9  .20 Ml 1.8         4702377
LPL   000.97 335.7 m E Pg      2011/05/26 10:51:46.6   0.0                          T                                        4702372
LPL   000.97 335.7 m E Sg      2011/05/26 10:51:59.1  -0.1                          T                2.0  .23 Ml 1.7         4702373
ORIF  001.05 286.2 m E Pg      2011/05/26 10:51:47.7  -0.2                          T                                        4702374
ORIF  001.05 286.2 m E Sg      2011/05/26 10:52:01.9   0.3                          T                3.1  .28 Ml 1.9         4702375
FRF   001.17 203.9 m E Pg      2011/05/26 10:51:50.3   0.2                          T                                        4702380
FRF   001.17 203.9 m E Sg      2011/05/26 10:52:05.0  -0.2                          T                3.8  .25 Ml 2.1         4702381
LMR   001.42 204.0 m E Pg      2011/05/26 10:51:54.4  -0.2                          T                                        4702378
LMR   001.42 204.0 m E Sg      2011/05/26 10:52:13.4   0.4                          T                3.3  .21 Ml 2.2         4702379
SMRF  001.40 242.6 m E Pg      2011/05/26 10:51:54.9   0.6                          T                                        4702369
SMRF  001.40 242.6 m E Sg      2011/05/26 10:52:13.3   0.8                          T                 .9  .24 Ml 1.6         4702370
VIVF  001.89 277.7 m E Sg      2011/05/26 10:52:28.0   0.5                          T                 .5  .24 Ml 1.5         4702376

.
