EVENT     292842
    Date      Time       Latitude Longitude    Depth    Ndef Nsta Gap    Mag1  N    Mag2  N    Mag3  N   Author         ID
       rms   OT_Error      Smajor Sminor Az        Err   mdist  Mdist     Err        Err        Err      Quality

2013/02/28 06:02:38.3     44.2080    6.8601     10.0      36    8 063  Ml 1.1  6  Md 1.1  2              bulletin    292942
                                                                                                         _ldg
      0.20   +-  0.02        .5     .4   58.05 +-  0.0    0.14   1.31   +-0.2      +-0.0                 m i ke

FRANCE
Sta     Dist  EvAz     Phase      Date       Time     TRes  Azim  AzRes  Slow  SRes Def   SNR       Amp   Per   Mag1   Mag2       ID
MBDF  000.52 353.1 m E Pg      2013/02/28 06:02:48.6   0.0                          T                                        5212822
MBDF  000.52 353.1 m E Sg      2013/02/28 06:02:55.4  -0.1                          T                1.3  .20        Md 1.1  5212823
SBF   000.54 129.5 m E Pg      2013/02/28 06:02:48.8   0.1                          T                                        5212817
SBF   000.54 129.5 m E Pn      2013/02/28 06:02:50.5  -0.2                          T                                        5212816
SBF   000.54 129.5 m E Sg      2013/02/28 06:02:56.0   0.1                          T                1.7  .23        Md 1.1  5212829
FRF   000.67 193.5 m E Pg      2013/02/28 06:02:51.0   0.0                          T                                        5212828
FRF   000.67 193.5 m E Sg      2013/02/28 06:02:59.7   0.0                          T                1.9  .19                5212827
LMR   000.91 196.3 m E Pg      2013/02/28 06:02:55.4   0.0                          T                                        5212826
LMR   000.91 196.3 m E Sg      2013/02/28 06:03:07.3   0.0                          T                 .9  .22 Ml 1.4         5212830
SMRF  000.95 256.4 m E Pg      2013/02/28 06:02:56.4   0.1                          T                                        5212824
SMRF  000.95 256.4 m E P       2013/02/28 06:02:57.6   0.0                          T                                        5212815
SMRF  000.95 256.4 m E Sg      2013/02/28 06:03:08.9   0.2                          T                 .3  .16 Ml 1.0         5212825
ORIF  001.00 315.7 m E Pg      2013/02/28 06:02:57.1  -0.1                          T                                        5212820
ORIF  001.00 315.7 m E Sg      2013/02/28 06:03:10.2   0.0                          T                 .5  .20 Ml 1.2         5212821
LPL   001.31 356.1 m E Pn      2013/02/28 06:03:01.3   0.0                          T                                        5212814
LPL   001.31 356.1 m E Pg      2013/02/28 06:03:03.2   0.1                          T                                        5212813
LPL   001.31 356.1 m E Sn      2013/02/28 06:03:17.7  -0.2                          T                                        5212812
LPL   001.31 356.1 m E Sg      2013/02/28 06:03:20.1   0.0                          T                 .3  .17 Ml 1.2         5212811
LPG   001.29 356.6 m E Pg      2013/02/28 06:03:02.9   0.0                          T                                        5212819
LPG   001.29 356.6 m E Sg      2013/02/28 06:03:19.6   0.0                          T                 .2  .17 Ml  .9         5212818

.
EVENT     293068
    Date      Time       Latitude Longitude    Depth    Ndef Nsta Gap    Mag1  N    Mag2  N    Mag3  N   Author         ID
       rms   OT_Error      Smajor Sminor Az        Err   mdist  Mdist     Err        Err        Err      Quality

2013/02/28 06:28:26.8     42.7363     .6047     10.0 f    14    3 123  Ml 1.6  2  Md 1.5  2              bulletin    293168
                                                                                                         _ldg
      0.24   +-  0.06       1.7    1.0   11.03 +-  0.0    0.16   1.33   +-0.3      +-0.2                 m i ke

PYRENEES
Sta     Dist  EvAz     Phase      Date       Time     TRes  Azim  AzRes  Slow  SRes Def   SNR       Amp   Per   Mag1   Mag2       ID
EPF   000.35 326.6 m E Pg      2013/02/28 06:28:34.5   0.6                          T                                        5216226
EPF   000.35 326.6 m E Sg      2013/02/28 06:28:39.0   0.4                          T                1.9  .20        Md 1.6  5216227
ETSF  000.87 281.1 m E Pg      2013/02/28 06:28:43.7   0.4                          T                                        5216224
ETSF  000.87 281.1 m E Sg      2013/02/28 06:28:54.5  -0.3                          T                3.5  .31 Ml 1.8 Md 1.3  5216225
MTLF  001.33 062.4 m E Pg      2013/02/28 06:28:51.6  -0.1                          T                                        5216228
MTLF  001.33 062.4 m E Sg      2013/02/28 06:29:08.8   0.0                          T                 .3  .12 Ml 1.4         5216229

.
EVENT     292835
    Date      Time       Latitude Longitude    Depth    Ndef Nsta Gap    Mag1  N    Mag2  N    Mag3  N   Author         ID
       rms   OT_Error      Smajor Sminor Az        Err   mdist  Mdist     Err        Err        Err      Quality

2013/02/28 09:22:16.6     43.5213    6.5678       .0 f    19    6 125  Ml 1.9  2  Md 2.0  2              bulletin    292935
                                                                                                         _ldg
      0.38   +-  0.12       2.7    2.1  151.63 +-  0.0    0.07   1.48   +-0.4      +-0.2                 m i km

NEAR SOUTH COAST OF FRANCE
Sta     Dist  EvAz     Phase      Date       Time     TRes  Azim  AzRes  Slow  SRes Def   SNR       Amp   Per   Mag1   Mag2       ID
FRF   000.07 055.5 m E Pg      2013/02/28 09:22:17.9  -0.4                          T                                        5212436
FRF   000.07 055.5 m E Sg      2013/02/28 09:22:19.2  -0.3                          T              575.8  .38        Md 2.1  5212488
LMR   000.19 192.9 m E Pg      2013/02/28 09:22:20.6  -0.1                          T                                        5212435
LMR   000.19 192.9 m E Sg      2013/02/28 09:22:23.6   0.1                          T               43.9  .50        Md 1.8  5212432
SBF   000.72 061.2 m E Pg      2013/02/28 09:22:30.4  -0.1                          T                                        5212434
SBF   000.72 061.2 m E Sg      2013/02/28 09:22:40.1   0.0                          T               14.1  .22                5212431
SMRF  000.85 302.6 m E Pg      2013/02/28 09:22:33.0   0.0                          T                                        5212433
SMRF  000.85 302.6 m E Sg      2013/02/28 09:22:44.2   0.0                          T                2.4  .19                5212487
MBDF  001.21 006.9 m E Pn      2013/02/28 09:22:39.4  -0.1                          T                                        5212489
MBDF  001.21 006.9 m E Sn      2013/02/28 09:22:55.3  -0.6                          T                1.0  .21 Ml 1.6         5212486
ORIF  001.48 340.7 m E Pn      2013/02/28 09:22:43.1   0.0                          T                                        5212485
ORIF  001.48 340.7 m E Sn      2013/02/28 09:23:02.3   0.1                          T                8.3  .54 Ml 2.2         5212484

.
EVENT     292836
    Date      Time       Latitude Longitude    Depth    Ndef Nsta Gap    Mag1  N    Mag2  N    Mag3  N   Author         ID
       rms   OT_Error      Smajor Sminor Az        Err   mdist  Mdist     Err        Err        Err      Quality

2013/02/28 09:52:12.4     43.7956    7.3965       .0 f    17    6 162  Ml 2.2  3  Md 2.0  1              bulletin    292936
                                                                                                         _ldg
      0.52   +-  0.48      10.2    3.1  120.67 +-  0.0    0.07   1.56   +-0.5      +-                    m i km

NEAR SOUTH COAST OF FRANCE
Sta     Dist  EvAz     Phase      Date       Time     TRes  Azim  AzRes  Slow  SRes Def   SNR       Amp   Per   Mag1   Mag2       ID
SBF   000.07 022.5 m E Pg      2013/02/28 09:52:13.3  -1.0                          T                                        5212678
SBF   000.07 022.5 m E Sg      2013/02/28 09:52:14.7  -0.8                          T              356.9  .28        Md 2.0  5212674
FRF   000.59 246.9 m E Pg      2013/02/28 09:52:23.7  -0.2                          T                                        5212677
FRF   000.59 246.9 m E Sg      2013/02/28 09:52:31.3  -0.5                          T                9.1  .32                5212728
LMR   000.79 234.7 m E Pg      2013/02/28 09:52:27.2  -0.4                          T                                        5212676
LMR   000.79 234.7 m E Sg      2013/02/28 09:52:38.5   0.4                          T                5.0  .26                5212729
MBDF  001.03 334.5 m E Pg      2013/02/28 09:52:31.1  -1.1                          T                                        5212675
MBDF  001.03 334.5 m E Sg      2013/02/28 09:52:45.5  -0.3                          T                2.9  .40 Ml 1.7         5212730
SMRF  001.33 278.4 m E Pn      2013/02/28 09:52:36.9   0.2                          T               13.3  .47 Ml 2.4         5212733
SMRF  001.33 278.4 m E Sn      2013/02/28 09:52:53.8  -0.5                          T               39.6  .98 Ml 2.6         5212731
ORIF  001.56 316.4 m E Pn      2013/02/28 09:52:40.4   0.4                          T                                        5212732

.
EVENT     292844
    Date      Time       Latitude Longitude    Depth    Ndef Nsta Gap    Mag1  N    Mag2  N    Mag3  N   Author         ID
       rms   OT_Error      Smajor Sminor Az        Err   mdist  Mdist     Err        Err        Err      Quality

2013/02/28 11:59:14.2     44.5598    6.9598      8.0 f    26    5 100  Ml 1.7  2  Md 1.6  2              bulletin    292944
                                                                                                         _ldg
      0.13   +-  0.03        .7     .4   53.85 +-  0.0    0.12   1.27   +-0.1      +-0.0                 m i ke

FRANCE
Sta     Dist  EvAz     Phase      Date       Time     TRes  Azim  AzRes  Slow  SRes Def   SNR       Amp   Per   Mag1   Mag2       ID
MBDF  000.21 321.2 m E Pg      2013/02/28 11:59:18.9   0.0                          T                                        5212916
MBDF  000.21 321.2 m E Sg      2013/02/28 11:59:21.8  -0.2                          T                7.1  .20        Md 1.6  5212915
SBF   000.78 153.7 m E Pg      2013/02/28 11:59:29.1   0.1                          T                                        5212912
SBF   000.78 153.7 m E Sg      2013/02/28 11:59:39.0  -0.1                          T                 .5  .15        Md 1.6  5212911
ORIF  000.85 295.4 m E Pg      2013/02/28 11:59:30.3   0.0                          T                                        5212914
ORIF  000.85 295.4 m E Sg      2013/02/28 11:59:41.4   0.0                          T                 .6  .18                5212913
FRF   001.02 192.8 m E Pg      2013/02/28 11:59:33.5   0.1                          T                                        5212910
FRF   001.02 192.8 m E Sg      2013/02/28 11:59:46.7   0.0                          T                  1  .19 Ml 1.6         5212909
LMR   001.27 195.0 m E Pg      2013/02/28 11:59:37.9   0.0                          T                                        5212908
LMR   001.27 195.0 m E Sg      2013/02/28 11:59:54.2  -0.1                          T                1.1  .19 Ml 1.7         5212907

.
EVENT     292841
    Date      Time       Latitude Longitude    Depth    Ndef Nsta Gap    Mag1  N    Mag2  N    Mag3  N   Author         ID
       rms   OT_Error      Smajor Sminor Az        Err   mdist  Mdist     Err        Err        Err      Quality

2013/02/28 12:30:19.6     44.2701    7.0615     21.0 f    36    8 063  Ml 1.1  5  Md 1.4  1              bulletin    292941
                                                                                                         _ldg
      0.52   +-  0.08       1.9    1.6   65.08 +-  0.0    0.09   2.50   +-0.2      +-                    m i ke

NORTHERN ITALY
Sta     Dist  EvAz     Phase      Date       Time     TRes  Azim  AzRes  Slow  SRes Def   SNR       Amp   Per   Mag1   Mag2       ID
SBF   000.49 146.4 m E Pg      2013/02/28 12:30:29.4  -0.3                          T                                        5212759
SBF   000.49 146.4 m E Sg      2013/02/28 12:30:36.1  -0.4                          T                1.3  .19                5212758
MBDF  000.50 335.7 m E Pg      2013/02/28 12:30:30.5   0.5                          T                                        5212768
MBDF  000.50 335.7 m E Sg      2013/02/28 12:30:37.0  -0.1                          T                 .8  .18        Md 1.4  5212767
FRF   000.77 203.1 m E Pn      2013/02/28 12:30:33.6  -0.1                          T                                        5212762
FRF   000.77 203.1 m E Sn      2013/02/28 12:30:43.5  -0.4                          T                1.7  .23                5212761
FRF   000.77 203.1 m E Sg      2013/02/28 12:30:45.9   1.0                          T                                        5212760
LMR   001.02 203.3 m E Pn      2013/02/28 12:30:37.0  -0.1                          T                                        5212763
LMR   001.02 203.3 m E Pg      2013/02/28 12:30:39.4   0.4                          T                                        5212765
LMR   001.02 203.3 m E Sg      2013/02/28 12:30:52.3  -0.1                          T                 .5  .16 Ml 1.4         5212766
ORIF  001.06 307.9 m E Pn      2013/02/28 12:30:38.0   0.1                          T                                        5212770
ORIF  001.06 307.9 m E Sn      2013/02/28 12:30:50.8  -0.3                          T                 .4  .23 Ml 1.1         5212769
SMRF  001.11 255.2 m E Pn      2013/02/28 12:30:38.5   0.0                          T                                        5212757
SMRF  001.11 255.2 m E Sn      2013/02/28 12:30:51.6  -0.5                          T                 .4  .21 Ml 1.1         5212756
LPL   001.27 349.5 m E Pn      2013/02/28 12:30:40.1  -0.8                          T                                        5212755
LPL   001.27 349.5 m E Pg      2013/02/28 12:30:44.2   0.4                          T                                        5212754
VIVF  001.81 289.8 m E Pn      2013/02/28 12:30:48.4   0.4                          T                                        5212772
VIVF  001.81 289.8 m E Sn      2013/02/28 12:31:08.4  -0.4                          T                 .2  .15 Ml 1.3         5212771

.
EVENT     292848
    Date      Time       Latitude Longitude    Depth    Ndef Nsta Gap    Mag1  N    Mag2  N    Mag3  N   Author         ID
       rms   OT_Error      Smajor Sminor Az        Err   mdist  Mdist     Err        Err        Err      Quality

2013/02/28 15:09:32.3     47.3539    5.8205       .0 f    18    8 109  Ml 2.0  5  Md 1.9  3              bulletin    292948
                                                                                                         _ldg
      0.26   +-  0.07       1.6    1.4   85.04 +-  0.0    0.74   1.44   +-0.3      +-0.1                 m i km

FRANCE
Sta     Dist  EvAz     Phase      Date       Time     TRes  Azim  AzRes  Slow  SRes Def   SNR       Amp   Per   Mag1   Mag2       ID
HAU   000.74 028.5 m E Pg      2013/02/28 15:09:46.7   0.1                          T                                        5212923
HAU   000.74 028.5 m E Pn      2013/02/28 15:09:48.6   0.0                          T                                        5212926
HAU   000.74 028.5 m E Sg      2013/02/28 15:09:56.8   0.3                          T               12.5  .35        Md 2.0  5212922
CABF  000.77 166.1 m E Pg      2013/02/28 15:09:46.9  -0.2                          T                                        5212919
CABF  000.77 166.1 m E Sg      2013/02/28 15:09:57.7   0.5                          T                                Md 1.9  5212927
HINF  000.84 056.1 m E Pg      2013/02/28 15:09:48.0  -0.4                          T                                        5212925
HINF  000.84 056.1 m E Pn      2013/02/28 15:09:50.0   0.0                          T                                        5212924
HINF  000.84 056.1 m E Sg      2013/02/28 15:09:59.9   0.5                          T               10.1  .34        Md 1.8  5212921
SFTF  001.00 328.5 m E Pg      2013/02/28 15:09:51.2  -0.1                          T                                        5212935
SFTF  001.00 328.5 m E Sg      2013/02/28 15:10:04.0  -0.5                          T                4.4  .32 Ml 2.0         5212934
PAGF  001.20 357.0 m E Pg      2013/02/28 15:09:55.0   0.0                          T                                        5212931
PAGF  001.20 357.0 m E Sg      2013/02/28 15:10:11.4   0.6                          T                8.1  .31 Ml 2.3         5212930
MEZF  001.26 336.1 m E Pg      2013/02/28 15:09:56.0   0.0                          T                                        5212933
MEZF  001.26 336.1 m E Sg      2013/02/28 15:10:12.4  -0.2                          T                4.2  .24 Ml 2.2         5212932
LOR   001.34 267.0 m E Pn      2013/02/28 15:09:57.0   0.3                          T                                        5212918
LOR   001.34 267.0 m E Sn      2013/02/28 15:10:14.1  -0.3                          T                 .8  .18 Ml 1.7         5212917
CDF   001.44 042.2 m E Pn      2013/02/28 15:09:58.1  -0.1                          T                                        5212929
CDF   001.44 042.2 m E Sn      2013/02/28 15:10:17.1   0.2                          T                1.1  .21 Ml 1.8         5212928

.
