EVENT     297439
    Date      Time       Latitude Longitude    Depth    Ndef Nsta Gap    Mag1  N    Mag2  N    Mag3  N   Author         ID
       rms   OT_Error      Smajor Sminor Az        Err   mdist  Mdist     Err        Err        Err      Quality

2013/05/04 02:36:30.0     35.8214    -.9766     10.0 f    48    5 088  Ml 2.6  3                         bulletin    297539
                                                                                                         _ldg
      0.70   +-  0.16       4.2    3.0    7.83 +-  0.0    0.35   9.38   +-0.2                            m i ke

NORTHERN ALGERIA
Sta     Dist  EvAz     Phase      Date       Time     TRes  Azim  AzRes  Slow  SRes Def   SNR       Amp   Per   Mag1   Mag2       ID
SJPF  007.28 358.6 m E Pn      2013/05/04 02:38:14.4   0.3                          T                                        5274995
SJPF  007.28 358.6 m E P       2013/05/04 02:38:19.6   0.3                          T                                        5274996
SJPF  007.28 358.6 m E Sn      2013/05/04 02:39:32.6   0.6                          T                 .4  .29 Ml 2.5         5274994
ETSF  007.08 002.5 m E P       2013/05/04 02:38:16.3  -0.2                          T                                        5274997
ETSF  007.08 002.5 m E Sn      2013/05/04 02:39:27.6   0.5                          T                 .6  .29 Ml 2.6         5274993
EPF   007.27 007.7 m E P       2013/05/04 02:38:19.0  -0.1                          T                                        5274991
EPF   007.27 007.7 m E Sn      2013/05/04 02:39:32.2   0.5                          T                1.0  .34 Ml 2.8         5274992
LASF  009.04 022.7 m E P       2013/05/04 02:38:44.2   0.5                          T                                        5274990
CAF   009.38 013.4 m E P       2013/05/04 02:38:48.5   0.0                          T                                        5274989

.
EVENT     297416
    Date      Time       Latitude Longitude    Depth    Ndef Nsta Gap    Mag1  N    Mag2  N    Mag3  N   Author         ID
       rms   OT_Error      Smajor Sminor Az        Err   mdist  Mdist     Err        Err        Err      Quality

2013/05/04 05:11:09.5     44.8651   11.4574      8.0 f   194   41 019  Ml 3.7 51  Md 3.6  3              bulletin    297516
                                                                                                         _ldg
      1.01   +-  0.08       1.8    1.6  130.83 +-  0.0    0.18  12.09   +-0.4      +-0.2                 m i ke

NORTHERN ITALY
Sta     Dist  EvAz     Phase      Date       Time     TRes  Azim  AzRes  Slow  SRes Def   SNR       Amp   Per   Mag1   Mag2       ID
PGF   002.92 218.4 m E Pn      2013/05/04 05:11:53.9  -0.7                          T   001.0                                5274243
PGF   002.92 218.4 m E Sn      2013/05/04 05:12:27.4  -0.4                          T   001.0      189.4  .36 Ml 4.4 Md 3.5  5274244
SBF   003.05 252.3 m E Pn      2013/05/04 05:11:55.9  -0.4                          T   001.0                                5274245
SBF   003.05 252.3 m E Sn      2013/05/04 05:12:30.7  -0.2                          T              247.1  .52 Ml 4.1 Md 3.6  5274345
MBDF  003.34 269.3 m E Pn      2013/05/04 05:11:59.1  -1.2                          T   001.0                                5274254
MBDF  003.34 269.3 m E Sn      2013/05/04 05:12:38.2   0.4                          T                                        5274334
MBDF  003.34 269.3 m E Sg      2013/05/04 05:12:55.0   0.6                          T               92.4  .46 Ml 3.8         5274333
LPG   003.39 282.4 m E Pn      2013/05/04 05:12:00.8  -0.3                          T   001.0                                5274239
LPG   003.39 282.4 m E P       2013/05/04 05:12:03.8  -0.5                          T                                        5274342
LPG   003.39 282.4 m E Pg      2013/05/04 05:12:12.6   0.0                          T                                        5274337
LPG   003.39 282.4 m E Sn      2013/05/04 05:12:39.3   0.2                          T                                        5274340
LPG   003.39 282.4 m E Sg      2013/05/04 05:12:57.0   0.9                          T               84.3  .52 Ml 3.7         5274341
LPL   003.40 282.7 m E Pn      2013/05/04 05:12:01.1  -0.2                          T   001.0                                5274240
LPL   003.40 282.7 m E P       2013/05/04 05:12:03.9  -0.5                          T                                        5274339
LPL   003.40 282.7 m E Pg      2013/05/04 05:12:12.8   0.0                          T                                        5274338
LPL   003.40 282.7 m E Sn      2013/05/04 05:12:39.5   0.1                          T   001.0         95  .60 Ml 3.7         5274241
LPL   003.40 282.7 m E Sg      2013/05/04 05:12:57.4   0.8                          T               41.4  .35 Ml 3.6         5274336
FRF   003.70 251.0 m E Pn      2013/05/04 05:12:04.6  -0.3                          T   001.0                                5274228
FRF   003.70 251.0 m E Sn      2013/05/04 05:12:46.1   0.0                          T   001.0       99.4  .50 Ml 3.9         5274229
LMR   003.88 248.5 m E Pn      2013/05/04 05:12:07.0  -0.5                          T   001.0                                5274236
LMR   003.88 248.5 m E Pg      2013/05/04 05:12:20.9  -0.4                          T                                        5274344
LMR   003.88 248.5 m E Sn      2013/05/04 05:12:50.5   0.0                          T   001.0       34.0  .26 Ml 3.8         5274237
ORIF  003.96 272.7 m E Pn      2013/05/04 05:12:09.3   0.5                          T   001.0                                5274255
ORIF  003.96 272.7 m E Sn      2013/05/04 05:12:52.6   0.0                          T               89.7  .58 Ml 3.8         5274335
CABF  004.15 296.8 m E Pn      2013/05/04 05:12:11.4   0.2                          T   001.0                                5274251
CABF  004.15 296.8 m E Sn      2013/05/04 05:12:57.1   0.1                          T   001.0       42.5  .60 Ml 3.5         5274252
CABF  004.15 296.8 m E Sg      2013/05/04 05:13:20.1   0.6                          T              102.0  .74 Ml 3.8         5274298
SMRF  004.31 260.2 m E Pn      2013/05/04 05:12:13.5   0.1                          T   001.0                                5274219
SMRF  004.31 260.2 m E Pg      2013/05/04 05:12:29.7   0.5                          T                                        5274343
SMRF  004.31 260.2 m E Sn      2013/05/04 05:13:00.8   0.1                          T   001.0       32.4  .50 Ml 3.5         5274220
HINF  004.35 314.4 m E Pn      2013/05/04 05:12:13.8  -0.1                          T   001.0                                5274253
HINF  004.35 314.4 m E Sn      2013/05/04 05:13:01.8   0.1                          T               39.0  .34 Ml 3.8         5274297
HINF  004.35 314.4 m E Sg      2013/05/04 05:13:26.3   0.6                          T               66.9  .68 Ml 3.7         5274296
CDF   004.57 322.4 m E Pn      2013/05/04 05:12:17.4   0.4                          T   001.0                                5274226
CDF   004.57 322.4 m E P       2013/05/04 05:12:20.5  -0.3                          T                                        5274285
CDF   004.57 322.4 m E Pg      2013/05/04 05:12:34.2   0.0                          T                                        5274284
CDF   004.57 322.4 m E Sn      2013/05/04 05:13:07.6   0.5                          T   001.0       52.5  .51 Ml 3.9         5274227
CDF   004.57 322.4 m E Sg      2013/05/04 05:13:33.9   1.1                          T               96.6  .80 Ml 4.0         5274283
HAU   004.73 313.5 m E Pn      2013/05/04 05:12:18.8  -0.2                          T   001.0                                5274231
HAU   004.73 313.5 m E Sn      2013/05/04 05:13:11.2   0.4                          T   001.0       56.4  .36 Ml 3.8         5274232
HAU   004.73 313.5 m E Sg      2013/05/04 05:13:38.3   0.7                          T               40.2  .47 Ml 3.5         5274295
VIVF  004.82 272.3 m E Pn      2013/05/04 05:12:20.2  -0.2                          T   001.0                                5274259
VIVF  004.82 272.3 m E Sn      2013/05/04 05:13:13.3   0.2                          T   001.0       11.3  .48 Ml 3.2         5274218
VIVF  004.82 272.3 m E Sg      2013/05/04 05:13:41.3   0.7                          T                4.8  .38 Ml 2.9         5274332
PAGF  005.40 315.2 m E Pn      2013/05/04 05:12:28.3   0.1                          T                                        5274286
PAGF  005.40 315.2 m E Sn      2013/05/04 05:13:26.9   0.1 136.6  5.6               T                                        5274288
PAGF  005.40 315.2 m E Sg      2013/05/04 05:13:59.1   0.5 136.1  5.1               T              338.9 1.41 Ml 4.3         5274287
LASF  005.50 264.4 m E Pn      2013/05/04 05:12:28.6  -0.9                          T   001.0                                5274233
LASF  005.50 264.4 m E Sn      2013/05/04 05:13:29.4   0.2                          T   001.0       16.9  .63 Ml 3.4         5274234
SFTF  005.55 309.3 m E Pn      2013/05/04 05:12:30.4   0.2 128.7  4.0               T                                        5274294
SFTF  005.55 309.3 m E Sn      2013/05/04 05:13:30.8   0.4                          T                                        5274293
SFTF  005.55 309.3 m E Sg      2013/05/04 05:14:03.7   0.5                          T               35.3  .62 Ml 3.8         5274292
SMF   005.62 291.2 m E Pn      2013/05/04 05:12:31.0  -0.1                          T   001.0                                5274246
SMF   005.62 291.2 m E Sn      2013/05/04 05:13:32.0  -0.1                          T              105.0  .60 Ml 4.3         5274312
MEZF  005.71 311.8 m E Pn      2013/05/04 05:12:33.5   1.1 105.3  -21.8             T                                        5274291
MEZF  005.71 311.8 m E Sn      2013/05/04 05:13:34.6   0.3                          T                                        5274290
MEZF  005.71 311.8 m E Sg      2013/05/04 05:14:09.0   0.6                          T               56.3  .84 Ml 3.9         5274289
LOR   005.81 297.1 m E Pn      2013/05/04 05:12:33.8   0.1 117.9  6.2               T   001.0                                5274238
LOR   005.81 297.1 m E Pg      2013/05/04 05:12:56.7  -0.2 117.7  6.0               T                                        5274272
LOR   005.81 297.1 m E Sn      2013/05/04 05:13:37.0   0.4                          T               54.2  .42 Ml 4.2         5274274
LOR   005.81 297.1 m E Sg      2013/05/04 05:14:11.8   0.5 115.5  3.8               T               27.1  .75 Ml 3.6 Md 3.8  5274273
AVF   005.98 291.6 m E Pn      2013/05/04 05:12:35.3  -0.8                          T   001.0                                5274222
AVF   005.98 291.6 m E Pg      2013/05/04 05:12:59.9  -0.1                          T                                        5274311
AVF   005.98 291.6 m E Sn      2013/05/04 05:13:40.3  -0.4                          T   001.0       18.9  .56 Ml 3.6         5274223
AVF   005.98 291.6 m E Sg      2013/05/04 05:14:17.4   0.7                          T               21.7  .75 Ml 3.6         5274307
SSF   005.96 294.4 m E Pn      2013/05/04 05:12:35.9   0.0                          T   001.0                                5274247
SSF   005.96 294.4 m E Sn      2013/05/04 05:13:40.8   0.5                          T   001.0       26.3  .50 Ml 3.9         5274248
SSF   005.96 294.4 m E Sg      2013/05/04 05:14:16.8   0.6                          T               12.4  .56 Ml 3.5         5274275
BGF   006.26 288.7 m E Pn      2013/05/04 05:12:40.2   0.2                          T   001.0                                5274224
BGF   006.26 288.7 m E Sn      2013/05/04 05:13:48.2   0.7                          T               54.1  .43 Ml 4.2         5274315
TCF   006.64 285.6 m E Pn      2013/05/04 05:12:45.0  -0.2                          T   001.0                                5274249
TCF   006.64 285.6 m E Pg      2013/05/04 05:13:12.2  -0.1                          T                                        5274310
TCF   006.64 285.6 m E Sn      2013/05/04 05:13:56.8   0.2                          T   001.0       39.0  .76 Ml 3.9         5274250
HYF   006.59 294.5 m E Pn      2013/05/04 05:12:45.1   0.7                          T                                        5274314
HYF   006.59 294.5 m E Sn      2013/05/04 05:13:55.6   0.3                          T                                        5274313
CAF   006.67 273.8 m E Pn      2013/05/04 05:12:46.0   0.5                          T   001.0                                5274225
CAF   006.67 273.8 m E P       2013/05/04 05:12:49.8  -0.7                          T                                        5274322
CAF   006.67 273.8 m E Sn      2013/05/04 05:13:57.5   0.2                          T                1.7  .34 Ml 2.9         5274321
MTLF  006.82 260.3 m E Pn      2013/05/04 05:12:47.4  -0.2                          T                                        5274330
MTLF  006.82 260.3 m E P       2013/05/04 05:12:52.0  -0.6                          T                                        5274331
MTLF  006.82 260.3 m E Sn      2013/05/04 05:14:01.4   0.5                          T                                        5274329
MTLF  006.82 260.3 m E Sg      2013/05/04 05:14:43.7   0.6                          T                3.3  .56 Ml 3.0         5274328
GIVF  006.90 321.7 m E Pn      2013/05/04 05:12:48.1  -0.5                          T                                        5274281
GIVF  006.90 321.7 m E P       2013/05/04 05:12:53.6   0.0                          T                                        5274282
GIVF  006.90 321.7 m E Sn      2013/05/04 05:14:03.1   0.4                          T               47.3  .80 Ml 4.0         5274280
GIVF  006.90 321.7 m E Sg      2013/05/04 05:14:46.1   0.7                          T                4.5  .30 Ml 3.4         5274279
RJF   007.05 277.1 m E Pn      2013/05/04 05:12:50.8   0.1                          T   001.0                                5274221
RJF   007.05 277.1 m E Sn      2013/05/04 05:14:06.5   0.2                          T               14.2  .74 Ml 3.2         5274316
BAIF  007.15 319.2 m E Pn      2013/05/04 05:12:51.3  -0.7                          T                                        5274278
BAIF  007.15 319.2 m E Sn      2013/05/04 05:14:09.5   0.9                          T                                        5274277
BAIF  007.15 319.2 m E Sg      2013/05/04 05:14:54.1   0.9                          T               19.2  .87 Ml 3.6         5274276
LFF   007.61 274.3 m E Pn      2013/05/04 05:12:58.0  -0.2                          T                                        5274320
LFF   007.61 274.3 m E Pg      2013/05/04 05:13:29.8  -0.3                          T                                        5274319
LFF   007.61 274.3 m E Sn      2013/05/04 05:14:20.0   0.4                          T                                        5274318
LFF   007.61 274.3 m E Sg      2013/05/04 05:15:08.1   0.5                          T                5.5  .46 Ml 3.3         5274317
MFF   008.30 286.2 m E Pn      2013/05/04 05:13:07.8   0.1                          T   001.0                                5274242
MFF   008.30 286.2 m E Pg      2013/05/04 05:13:42.8   0.0                          T                                        5274309
MFF   008.30 286.2 m E Sn      2013/05/04 05:14:35.9  -0.3                          T               14.3  .76 Ml 3.9         5274308
EPF   008.23 261.0 m E P       2013/05/04 05:13:11.9  -0.3                          T                                        5274327
EPF   008.23 261.0 m E Sn      2013/05/04 05:14:35.0   0.4                          T                5.4  .82 Ml 3.3         5274326
LDF   008.78 299.2 m E Pn      2013/05/04 05:13:14.3   0.1                          T   001.0                                5274235
LDF   008.78 299.2 m E P       2013/05/04 05:13:19.9   0.0                          T                                        5274304
LDF   008.78 299.2 m E Pg      2013/05/04 05:13:51.8   0.1                          T                                        5274301
LDF   008.78 299.2 m E Sn      2013/05/04 05:14:47.9   0.2                          T               18.8  .84 Ml 3.9         5274300
FLN   009.07 299.7 m E Pn      2013/05/04 05:13:18.0  -0.1 119.5  8.5               T                                        5274303
FLN   009.07 299.7 m E Pg      2013/05/04 05:13:56.7  -0.2 119.2  8.2               T                                        5274302
FLN   009.07 299.7 m E Sn      2013/05/04 05:14:54.7   0.3                          T                7.1  .52 Ml 3.6         5274299
GRR   009.18 296.9 m E Pn      2013/05/04 05:13:19.1  -0.5                          T   001.0                                5274230
GRR   009.18 296.9 m E P       2013/05/04 05:13:24.9  -0.4                          T                                        5274306
GRR   009.18 296.9 m E Sn      2013/05/04 05:14:57.2   0.1                          T                2.8  .40 Ml 3.3         5274305
ETSF  008.90 261.5 m E P       2013/05/04 05:13:21.3  -0.3                          T                                        5274325
ETSF  008.90 261.5 m E Sn      2013/05/04 05:14:50.7   0.1                          T                1.5  .36 Ml 3.2         5274324
SJPF  009.31 263.6 m E P       2013/05/04 05:13:25.8  -1.4                          T                                        5274323
SGMF  010.23 294.3 m E Pn      2013/05/04 05:13:33.7  -0.2                          T   001.0                                5274258
QUIF  010.55 292.0 m E Pn      2013/05/04 05:13:37.2  -1.1                          T   001.0                                5274256
ROSF  010.71 294.1 m E Pn      2013/05/04 05:13:40.3  -0.2                          T   001.0                                5274257

.
