EVENT     290907
    Date      Time       Latitude Longitude    Depth    Ndef Nsta Gap    Mag1  N    Mag2  N    Mag3  N   Author         ID
       rms   OT_Error      Smajor Sminor Az        Err   mdist  Mdist     Err        Err        Err      Quality

2013/01/25 14:48:17.4     44.1888   10.5370     15.0 f   320   42 030  Ml 4.9 46                         bulletin    291007
                                                                                                         _ldg
      1.09   +-  0.07       2.2    1.4  176.42 +-  0.0    0.10  62.71   +-0.3                            m i ke

NORTHERN ITALY
Sta     Dist  EvAz     Phase      Date       Time     TRes  Azim  AzRes  Slow  SRes Def   SNR       Amp   Per   Mag1   Mag2       ID
PGF   001.99 214.9 m E P       2013/01/25 14:48:50.5  -0.7                          T                                        5177858
PGF   001.99 214.9 m E Sn      2013/01/25 14:49:12.4   0.3                          T             3422.9  .57 Ml 5.2         5178927
SBF   002.26 262.8 m E P       2013/01/25 14:48:54.4  -0.7                          T   001.0                                5177802
SBF   002.26 262.8 m E Pg      2013/01/25 14:48:59.0  -0.6                          T                                        5178934
SBF   002.26 262.8 m E Sn      2013/01/25 14:49:18.9   0.4                          T   001.0    12692.9  .56 Ml 5.6         5177809
MBDF  002.75 282.6 m E P       2013/01/25 14:49:02.2  -0.1                          T   001.0                                5177823
MBDF  002.75 282.6 m E Sn      2013/01/25 14:49:29.0  -1.4                          T                                        5178924
MBDF  002.75 282.6 m E Sg      2013/01/25 14:49:44.1   0.1                          T             5437.4  .82 Ml 5.2         5179012
LMR   003.04 255.1 m E P       2013/01/25 14:49:04.7  -1.4                          T                                        5178937
LMR   003.04 255.1 m E Sn      2013/01/25 14:49:37.1   0.0                          T   001.0      807.6  .28 Ml 4.9         5177811
LPG   002.99 297.2 m E P       2013/01/25 14:49:06.5   0.6                          T   001.0                                5177798
LPG   002.99 297.2 m E Sn      2013/01/25 14:49:36.1  -0.2                          T                                        5178926
LPG   002.99 297.2 m E Sg      2013/01/25 14:49:52.2   0.4                          T             2078.0  .64 Ml 4.9         5179014
LPL   003.01 297.5 m E P       2013/01/25 14:49:07.1   0.9                          T   001.0                                5177799
LPL   003.01 297.5 m E Sn      2013/01/25 14:49:36.9   0.1                          T                                        5178925
LPL   003.01 297.5 m E Sg      2013/01/25 14:49:52.8   0.5                          T             2794.9  .84 Ml 5.0         5179013
ORIF  003.41 284.0 m E P       2013/01/25 14:49:12.4   0.8                          T   001.0                                5177827
ORIF  003.41 284.0 m E Sn      2013/01/25 14:49:46.4   0.4                          T   001.0     3251.1  .76 Ml 5.1         5177828
SMRF  003.58 268.3 m E P       2013/01/25 14:49:13.8  -0.1                          T   001.0                                5177835
SMRF  003.58 268.3 m E Sn      2013/01/25 14:49:49.3  -0.8                          T   001.0                                5177836
SMRF  003.58 268.3 m E Sg      2013/01/25 14:50:09.8  -0.1                          T             3100.3  .80 Ml 5.1         5178935
CABF  003.96 309.3 m E P       2013/01/25 14:49:20.7   1.3                          T   001.0                                5177817
CABF  003.96 309.3 m E Sn      2013/01/25 14:49:59.4   0.2                          T                                        5178911
CABF  003.96 309.3 m E Sg      2013/01/25 14:50:21.7   0.0                          T             1659.7  .78 Ml 5.0         5178910
VIVF  004.25 281.1 m E P       2013/01/25 14:49:23.1  -0.3                          T   001.0                                5177833
VIVF  004.25 281.1 m E Sn      2013/01/25 14:50:06.1   0.1                          T   001.0      248.6  .44 Ml 4.5         5177834
VIVF  004.25 281.1 m E Sg      2013/01/25 14:50:29.5  -1.1                          T              300.1  .70 Ml 4.3         5178923
HINF  004.44 326.0 m E P       2013/01/25 14:49:25.7  -0.5                          T   001.0                                5177821
HINF  004.44 326.0 m E Sn      2013/01/25 14:50:15.1   4.4                          T   001.0     2107.2  .56 Ml 5.3         5177822
LASF  004.81 271.0 m E P       2013/01/25 14:49:29.6  -1.8                          T   001.0                                5177807
LASF  004.81 271.0 m E Sn      2013/01/25 14:50:19.5   0.1                          T              415.9  .60 Ml 4.7         5178922
CDF   004.79 333.0 m E P       2013/01/25 14:49:30.2  -1.0                          T   001.0                                5177801
CDF   004.79 333.0 m E Sn      2013/01/25 14:50:21.2   2.2                          T              899.3  .48 Ml 5.2         5177866
HAU   004.80 324.1 m E P       2013/01/25 14:49:30.8  -0.5                          T   001.0                                5177806
HAU   004.80 324.1 m E Sn      2013/01/25 14:50:19.9   0.7                          T             2125.4  .40 Ml 5.3         5177864
LANF  005.15 339.5 m E P       2013/01/25 14:49:34.0  -1.2                          T                                        5179137
THEF  005.12 323.6 m E P       2013/01/25 14:49:35.4  -0.4                          T                                        5179138
SMF   005.32 299.9 m E P       2013/01/25 14:49:38.4  -0.1                          T   001.0                                5177812
SMF   005.32 299.9 m E Sn      2013/01/25 14:50:33.9   2.4                          T              850.8  .60 Ml 5.1         5178918
PAGF  005.49 324.4 m E P       2013/01/25 14:49:40.5  -0.4 144.9  4.0               T                                        5177868
PAGF  005.49 324.4 m E Sn      2013/01/25 14:50:35.4  -0.3                          T             7780.2  .96 Ml 5.9         5178908
SFTF  005.54 318.4 m E P       2013/01/25 14:49:41.3  -0.3 139.6  5.2               T                                        5177865
SFTF  005.54 318.4 m E Sn      2013/01/25 14:50:36.9   0.0                          T              427.1  .52 Ml 4.9         5178909
LOR   005.60 305.7 m E P       2013/01/25 14:49:41.8  -0.6 127.5  6.5               T   001.0                                5177791
LOR   005.60 305.7 m E Sn      2013/01/25 14:50:39.0   0.8                          T   001.0      504.9  .36 Ml 5.2         5177796
SSF   005.71 302.7 m E P       2013/01/25 14:49:43.2  -0.7                          T   001.0                                5177813
SSF   005.71 302.7 m E Sn      2013/01/25 14:50:40.9   0.1                          T              310.8  .44 Ml 5.0         5177867
AVF   005.68 299.8 m E P       2013/01/25 14:49:43.5  -0.1                          T   001.0                                5177793
AVF   005.68 299.8 m E Sn      2013/01/25 14:50:40.2   0.0                          T   001.0      311.6  .60 Ml 4.7         5177794
MEZF  005.75 320.6 m E P       2013/01/25 14:49:44.2  -0.3 141.9  5.3               T   001.0                                5177824
MEZF  005.75 320.6 m E Sn      2013/01/25 14:50:42.7   0.9                          T   001.0      230.1  .37 Ml 4.8         5177825
BGF   005.91 296.3 m E P       2013/01/25 14:49:46.7  -0.1                          T   001.0                                5177795
BGF   005.91 296.3 m E Sn      2013/01/25 14:50:46.2   0.4                          T              768.2  .62 Ml 5.2         5177860
CAF   006.10 279.9 m E Pn      2013/01/25 14:49:47.5   2.7                          T   001.0                                5177797
CAF   006.10 279.9 m E Sn      2013/01/25 14:50:49.4  -0.8                          T              259.9  .70 Ml 4.7         5178920
MTLF  006.08 264.9 m E P       2013/01/25 14:49:47.8  -1.5                          T   001.0                                5177826
MTLF  006.08 264.9 m E Sn      2013/01/25 14:50:52.2   2.3                          T              246.0  .52 Ml 4.8         5177870
TCF   006.24 292.6 m E P       2013/01/25 14:49:51.6   0.0                          T   001.0                                5177814
HYF   006.33 301.9 m E P       2013/01/25 14:49:53.0   0.3                          T                                        5177861
HYF   006.33 301.9 m E Sn      2013/01/25 14:50:55.9   0.2                          T                                        5177862
RJF   006.52 283.0 m E Pn      2013/01/25 14:49:54.8   4.2                          T   001.0                                5177789
RJF   006.52 283.0 m E Sn      2013/01/25 14:51:01.3   1.0                          T   001.0                                5177790
RJF   006.52 283.0 m E Sg      2013/01/25 14:51:40.0  -1.5                          T   001.0      273.1  .82 Ml 4.4         5177792
LFF   007.04 279.5 m E Pn      2013/01/25 14:50:02.1   4.5                          T   001.0                                5177810
LFF   007.04 279.5 m E Sn      2013/01/25 14:51:12.4  -0.2                          T              326.6  .78 Ml 4.7         5178919
GIVF  007.08 328.7 m E P       2013/01/25 14:50:02.2  -1.1                          T   001.0                                5177819
GIVF  007.08 328.7 m E Sn      2013/01/25 14:51:15.1   1.4                          T   001.0      272.4  .59 Ml 4.9         5177820
EPF   007.49 264.6 m E Pn      2013/01/25 14:50:04.1   0.3                          T   001.0                                5177803
EPF   007.49 264.6 m E Sn      2013/01/25 14:51:24.1   0.6                          T               46.3  .43 Ml 4.4         5177869
BAIF  007.29 325.9 m E P       2013/01/25 14:50:04.8  -1.4                          T   001.0                                5177816
BAIF  007.29 325.9 m E Sn      2013/01/25 14:51:19.1   0.5                          T              336.2  .77 Ml 4.9         5178907
ETSF  008.16 264.8 m E Pn      2013/01/25 14:50:13.0  -0.1                          T   001.0                                5177818
ETSF  008.16 264.8 m E P       2013/01/25 14:50:18.1  -0.4                          T                                        5178928
ETSF  008.16 264.8 m E Sn      2013/01/25 14:51:39.2  -0.4                          T               99.3  .68 Ml 4.6         5177859
MFF   007.90 291.5 m E P       2013/01/25 14:50:14.5  -0.2                          T   001.0                                5177800
MFF   007.90 291.5 m E Sn      2013/01/25 14:51:34.4   1.3                          T               91.5  .60 Ml 4.8         5178917
SJPF  008.60 266.9 m E Pn      2013/01/25 14:50:18.7  -0.1                          T                                        5178929
SJPF  008.60 266.9 m E P       2013/01/25 14:50:24.1  -0.3                          T   001.0                                5177832
SJPF  008.60 266.9 m E Sn      2013/01/25 14:51:49.4  -0.5                          T               57.5  .70 Ml 4.4         5178921
LDF   008.58 304.6 m E Pn      2013/01/25 14:50:18.8   0.2                          T   001.0                                5177808
LDF   008.58 304.6 m E P       2013/01/25 14:50:24.3   0.1                          T                                        5178932
LDF   008.58 304.6 m E Sn      2013/01/25 14:51:50.5   1.0                          T              166.0  .70 Ml 4.9         5178913
GRR   008.94 302.0 m E Pn      2013/01/25 14:50:24.1   0.7                          T                                        5178931
GRR   008.94 302.0 m E P       2013/01/25 14:50:29.3   0.2                          T   001.0                                5177805
GRR   008.94 302.0 m E Sn      2013/01/25 14:51:58.8   0.8                          T              187.9  .86 Ml 4.7         5177863
FLN   008.87 304.9 m E P       2013/01/25 14:50:28.6   0.4 125.6  8.7               T   001.0                                5177804
FLN   008.87 304.9 m E Sn      2013/01/25 14:51:56.6   0.2                          T               83.1  .55 Ml 4.6         5178912
SGMF  009.94 298.7 m E Pn      2013/01/25 14:50:37.2   0.0                          T   001.0                                5177831
SGMF  009.94 298.7 m E P       2013/01/25 14:50:43.0   0.0                          T                                        5178930
SGMF  009.94 298.7 m E Sn      2013/01/25 14:52:22.0   0.0                          T               52.8  .71 Ml 4.6         5178915
QUIF  010.23 296.2 m E Pn      2013/01/25 14:50:42.1   1.1                          T   001.0                                5177829
QUIF  010.23 296.2 m E Sn      2013/01/25 14:52:27.5  -1.3                          T               30.1  .52 Ml 4.5         5178916
ROSF  010.42 298.3 m E P       2013/01/25 14:50:49.5  -0.1                          T   001.0                                5177830
ROSF  010.42 298.3 m E Sn      2013/01/25 14:52:33.5   0.0                          T               62.2  .71 Ml 4.7         5178914

.
EVENT     290909
    Date      Time       Latitude Longitude    Depth    Ndef Nsta Gap    Mag1  N    Mag2  N    Mag3  N   Author         ID
       rms   OT_Error      Smajor Sminor Az        Err   mdist  Mdist     Err        Err        Err      Quality

2013/01/25 15:51:35.4     44.1848   10.4668     10.0 f    32    5 108  Ml 2.5  7  Md 2.4  2              bulletin    291009
                                                                                                         _ldg
      0.33   +-  0.07       1.7    1.2   18.04 +-  0.0    0.05   2.99   +-0.2      +-0.1                 m i ke

NORTHERN ITALY
Sta     Dist  EvAz     Phase      Date       Time     TRes  Azim  AzRes  Slow  SRes Def   SNR       Amp   Per   Mag1   Mag2       ID
PGF   001.95 213.7 m E Pn      2013/01/25 15:52:06.9  -0.2                          T                                        5185048
PGF   001.95 213.7 m E Sn      2013/01/25 15:52:29.8  -0.4                          T                2.2  .23 Ml 2.4 Md 2.5  5185047
SBF   002.21 262.7 m E Pn      2013/01/25 15:52:10.4  -0.1                          T                                        5177891
SBF   002.21 262.7 m E Sn      2013/01/25 15:52:36.0  -0.3                          T                7.1  .23 Ml 2.7         5177887
SBF   002.21 262.7 m E Sg      2013/01/25 15:52:45.6   0.6                          T                6.3  .25 Ml 2.6 Md 2.3  5185049
MBDF  002.70 282.9 m E Pn      2013/01/25 15:52:17.0  -0.4                          T                                        5185045
MBDF  002.70 282.9 m E Pg      2013/01/25 15:52:26.0   0.3                          T                                        5185046
MBDF  002.70 282.9 m E Sn      2013/01/25 15:52:47.8  -0.4                          T                                        5185044
MBDF  002.70 282.9 m E Sg      2013/01/25 15:53:00.9   0.4                          T                2.3  .34 Ml 2.2         5185043
FRF   002.83 258.6 m E Pn      2013/01/25 15:52:19.0   0.0                          T                                        5177893
FRF   002.83 258.6 m E Pg      2013/01/25 15:52:28.1   0.2                          T                                        5185050
FRF   002.83 258.6 m E Sn      2013/01/25 15:52:50.6  -0.4                          T                5.5  .26 Ml 2.8         5177889
LMR   002.99 254.8 m E Pn      2013/01/25 15:52:21.1   0.0                          T                                        5177892
LMR   002.99 254.8 m E Sn      2013/01/25 15:52:54.9   0.1                          T                3.2  .29 Ml 2.5         5177888

.
EVENT     290910
    Date      Time       Latitude Longitude    Depth    Ndef Nsta Gap    Mag1  N    Mag2  N    Mag3  N   Author         ID
       rms   OT_Error      Smajor Sminor Az        Err   mdist  Mdist     Err        Err        Err      Quality

2013/01/25 17:31:47.7     44.0884   10.4095     10.0 f    14    9 246                                    bulletin    291010
                                                                                                         _ldg
      1.03   +-  1.10      25.8   12.8   94.64 +-  0.0    1.85   5.88                                    m i ke

NORTHERN ITALY
Sta     Dist  EvAz     Phase      Date       Time     TRes  Azim  AzRes  Slow  SRes Def   SNR       Amp   Per   Mag1   Mag2       ID
PGF   001.85 214.2 m E Pn      2013/01/25 17:32:18.8   0.9                          T                                        5177898
SBF   002.16 265.0 m E Pn      2013/01/25 17:32:20.8  -1.2                          T                                        5177899
SBF   002.16 265.0 m E Sn      2013/01/25 17:32:46.8  -0.5                          T                                        5177895
LMR   002.93 256.4 m E Pn      2013/01/25 17:32:31.4  -1.1                          T                                        5177900
LMR   002.93 256.4 m E Sn      2013/01/25 17:33:04.9  -0.7                          T                                        5177894
MBDF  002.68 285.0 m E Pn      2013/01/25 17:32:33.0   3.6                          T                                        5177902
LPL   002.98 299.9 m E Pn      2013/01/25 17:32:36.7   3.2                          T                                        5177897
LPL   002.98 299.9 m E Sn      2013/01/25 17:33:07.6   0.5                          T                                        5177907
ORIF  003.35 285.9 m E Pn      2013/01/25 17:32:39.6   1.4                          T                                        5177896
HINF  004.48 327.6 m E Pn      2013/01/25 17:32:52.8  -0.9                          T                                        5177905
HINF  004.48 327.6 m E Sn      2013/01/25 17:33:43.0   0.3                          T                                        5177906
HAU   004.83 325.6 m E Pn      2013/01/25 17:32:57.6  -0.8                          T                                        5177904
HAU   004.83 325.6 m E Sn      2013/01/25 17:33:52.1   1.0                          T                                        5177903
BGF   005.88 297.5 m E Pn      2013/01/25 17:33:14.1   1.5                          T                                        5177901

.
