EVENT     260964
    Date      Time       Latitude Longitude    Depth    Ndef Nsta Gap    Mag1  N    Mag2  N    Mag3  N   Author         ID
       rms   OT_Error      Smajor Sminor Az        Err   mdist  Mdist     Err        Err        Err      Quality

2011/07/01 22:01:02.3     43.6632    3.1669      9.5      12    5 195  Ml 1.7  3  Md 1.8  3              js067245    260964

      0.27   +-  0.13       4.1    1.6  147.40 +-  1.7    0.65   2.16   +-0.1      +-0.3                 m i ke

NEAR SOUTH COAST OF FRANCE
Sta     Dist  EvAz     Phase      Date       Time     TRes  Azim  AzRes  Slow  SRes Def   SNR       Amp   Per   Mag1   Mag2       ID
LASF  000.65 050.2 m E Pg      2011/07/01 22:01:14.4  -0.2                          T                7.0  .30                4716295
LASF  000.65 050.2 m E Sg      2011/07/01 22:01:22.9  -0.2                          T                                Md 1.6  4716293
MTLF  000.76 245.3 m E Pg      2011/07/01 22:01:16.5  -0.2                          T                                        4718869
MTLF  000.76 245.3 m E Pn      2011/07/01 22:01:17.7   0.1                          T                                        4718870
MTLF  000.76 245.3 m E Sg      2011/07/01 22:01:26.3  -0.4                          T                                        4718871
MTLF  000.76 245.3 m E Sn      2011/07/01 22:01:28.0  -0.5                          T                                Md 1.6  4716294
CAF   001.49 328.3 m E Pg      2011/07/01 22:01:30.2   0.1                          T                                        4716289
CAF   001.49 328.3 m E Sg      2011/07/01 22:01:49.0  -0.3                          T                 .9  .21 Ml 1.7         4716290
VIVF  001.61 041.7 m E Pg      2011/07/01 22:01:32.7   0.4                          T                1.3  .30 Ml 1.7         4716288
VIVF  001.61 041.7 m E Sg      2011/07/01 22:01:53.0  -0.2                          T                                Md 2.1  4716292
EPF   002.16 253.9 m E Pg      2011/07/01 22:01:42.7   0.3                          T                1.4  .35 Ml 1.8         4716287
EPF   002.16 253.9 m E Sg      2011/07/01 22:02:10.5   0.3                          T                                        4716291

.
EVENT     260961
    Date      Time       Latitude Longitude    Depth    Ndef Nsta Gap    Mag1  N    Mag2  N    Mag3  N   Author         ID
       rms   OT_Error      Smajor Sminor Az        Err   mdist  Mdist     Err        Err        Err      Quality

2011/07/02 00:42:56.9     48.2762   -4.2513     19.0 f    46   19 281  Ml 2.8 15  Md 2.8  5              js067245    260961

      1.49   +-  0.45       7.5    6.1  117.41 +-  0.0    0.66   7.68   +-0.2      +-0.2                 m i ke

FRANCE
Sta     Dist  EvAz     Phase      Date       Time     TRes  Azim  AzRes  Slow  SRes Def   SNR       Amp   Per   Mag1   Mag2       ID
ROSF  000.66 084.4 m E Pn      2011/07/02 00:43:09.0  -0.8                          T                                        4716299
ROSF  000.66 084.4 m E Pg      2011/07/02 00:43:09.4  -0.3                          T                                        4718885
ROSF  000.66 084.4 m E Sg      2011/07/02 00:43:20.2   1.6                          T   001.0       34.0  .21        Md 2.8  4714345
QUIF  000.81 115.9 m E Pn      2011/07/02 00:43:11.7  -0.2                          T                                        4716297
QUIF  000.81 115.9 m E Pg      2011/07/02 00:43:12.3  -0.2                          T                                        4718883
QUIF  000.81 115.9 m E Sg      2011/07/02 00:43:24.1   0.8                          T   001.0       77.5  .21        Md 2.8  4714344
SGMF  001.13 090.5 m E Pn      2011/07/02 00:43:16.3   0.0                          T                                        4716298
SGMF  001.13 090.5 m E Pg      2011/07/02 00:43:18.0  -0.3                          T                                        4718884
SGMF  001.13 090.5 m E Sg      2011/07/02 00:43:34.6   1.4                          T   001.0       26.0  .21 Ml 3.0 Md 2.7  4714346
GRR   002.27 085.9 m E Pn      2011/07/02 00:43:32.1   0.4                          T                                        4718880
GRR   002.27 085.9 m E Pg      2011/07/02 00:43:38.7  -0.4                          T   001.0                                4714330
GRR   002.27 085.9 m E Sn      2011/07/02 00:43:55.2  -2.2                          T   001.0                                4714331
GRR   002.27 085.9 m E Sg      2011/07/02 00:44:08.0  -0.4                          T   001.0       19.4  .27 Ml 3.0 Md 2.6  4714332
FLN   002.55 077.6 m E Pn      2011/07/02 00:43:36.2   0.6 271.8  11.3              T                                        4718882
FLN   002.55 077.6 m E Pg      2011/07/02 00:43:42.9  -1.5 262.4  2.0               T   001.0                                4714327
FLN   002.55 077.6 m E Sn      2011/07/02 00:44:05.8   1.6 265.7  5.3               T   001.0                                4714328
FLN   002.55 077.6 m E Sg      2011/07/02 00:44:17.3   0.1 273.1  12.7              T   001.0       20.2  .34 Ml 2.9         4714329
LDF   002.77 081.9 m E Pn      2011/07/02 00:43:39.4   0.8                          T                                        4718881
LDF   002.77 081.9 m E Pg      2011/07/02 00:43:48.3  -0.1                          T                                        4716296
LDF   002.77 081.9 m E Sg      2011/07/02 00:44:25.7   1.7                          T   001.0       10.1  .26 Ml 2.9         4714333
MFF   003.25 119.5 m E Pn      2011/07/02 00:43:45.9   0.8                          T   001.0                                4714337
MFF   003.25 119.5 m E Sn      2011/07/02 00:44:21.8   0.9                          T                                        4718878
MFF   003.25 119.5 m E Sg      2011/07/02 00:44:38.1  -1.0                          T   001.0        3.6  .27 Ml 2.8 Md 3.1  4714338
LFF   004.79 132.3 m E Pn      2011/07/02 00:44:06.8   0.7                          T   001.0                                4714334
RJF   004.95 124.8 m E Pn      2011/07/02 00:44:08.5   0.2                          T   001.0                                4714320
RJF   004.95 124.8 m E Sn      2011/07/02 00:45:01.3  -0.3                          T                                        4718879
RJF   004.95 124.8 m E Sg      2011/07/02 00:45:32.7   0.6                          T   001.0        1.9  .21 Ml 2.5         4714321
AVF   005.36 103.3 m E Pn      2011/07/02 00:44:14.2   0.4                          T   001.0                                4714322
CAF   005.49 125.3 m E Pn      2011/07/02 00:44:15.3  -0.4                          T   001.0                                4714325
CAF   005.49 125.3 m E Sn      2011/07/02 00:45:11.4  -3.2                          T                1.1  .24 Ml 2.7         4718875
LOR   005.56 097.4 m E Pn      2011/07/02 00:44:16.3  -0.3                          T   001.0                                4714335
LOR   005.56 097.4 m E Sn      2011/07/02 00:45:15.0  -1.1                          T   001.0        1.4  .44 Ml 2.5         4714336
EPF   006.15 146.8 m E Pn      2011/07/02 00:44:19.8  -4.9                          T                                        4718877
EPF   006.15 146.8 m E Sn      2011/07/02 00:45:27.6  -2.8                          T                 .4  .20 Ml 2.4         4718876
MTLF  006.69 135.1 m E Pn      2011/07/02 00:44:32.9   0.9                          T   001.0                                4714342
MTLF  006.69 135.1 m E Sn      2011/07/02 00:45:41.1  -2.0                          T   001.0        2.2  .80 Ml 2.6         4714343
TCF   004.83 111.9 m E Sn      2011/07/02 00:45:00.5   1.9                          T   001.0                                4714340
TCF   004.83 111.9 m E Sg      2011/07/02 00:45:26.6  -1.6                          T   001.0        3.3  .40 Ml 2.8         4714341
BGF   005.12 107.0 m E Sn      2011/07/02 00:45:07.0   1.5                          T   001.0                                4714323
BGF   005.12 107.0 m E Sg      2011/07/02 00:45:38.6   1.4                          T   001.0        5.1  .36 Ml 3.0         4714324
SJPF  005.58 156.6 m E Sn      2011/07/02 00:45:14.5  -2.1                          T   001.0        5.1  .72 Ml 2.9         4714347
SMF   005.73 103.5 m E Sn      2011/07/02 00:45:20.1   0.0                          T   001.0         .7  .16 Ml 2.7         4714339
CDF   007.68 084.7 m E Sn      2011/07/02 00:46:05.2  -1.8                          T   001.0        1.3  .48 Ml 2.9         4714326

.
EVENT     260965
    Date      Time       Latitude Longitude    Depth    Ndef Nsta Gap    Mag1  N    Mag2  N    Mag3  N   Author         ID
       rms   OT_Error      Smajor Sminor Az        Err   mdist  Mdist     Err        Err        Err      Quality

2011/07/02 01:21:11.4     42.6592   -1.7893      2.0      38    3 182  Ml 1.4  2  Md 1.8  2              js067245    260965

      0.29   +-  0.11       1.7    1.3   24.04 +-  0.0    0.19   1.61   +-0.3      +-0.2                 m i ke

PYRENEES
Sta     Dist  EvAz     Phase      Date       Time     TRes  Azim  AzRes  Slow  SRes Def   SNR       Amp   Per   Mag1   Mag2       ID
SJPF  000.61 042.2 m E Pg      2011/07/02 01:21:22.4  -0.8                          T                                        4718890
SJPF  000.61 042.2 m E Sg      2011/07/02 01:21:30.4  -0.8                          T                2.2  .31        Md 1.9  4718891
ETSF  000.94 074.8 m E Pg      2011/07/02 01:21:29.2   0.1                          T                                        4718888
ETSF  000.94 074.8 m E Sg      2011/07/02 01:21:41.2  -0.1                          T                 .6  .23 Ml 1.2 Md 1.7  4718889
EPF   001.61 076.0 m E Pg      2011/07/02 01:21:41.6   0.1                          T                                        4718886
EPF   001.61 076.0 m E Sg      2011/07/02 01:22:02.5   0.3                          T                 .7  .19 Ml 1.6         4718887

.
EVENT     260967
    Date      Time       Latitude Longitude    Depth    Ndef Nsta Gap    Mag1  N    Mag2  N    Mag3  N   Author         ID
       rms   OT_Error      Smajor Sminor Az        Err   mdist  Mdist     Err        Err        Err      Quality

2011/07/02 02:10:02.7     42.9775   -1.2697      2.0      34    3 111  Ml 1.6  1  Md 1.9  2              js067245    260967

      0.28   +-  0.07       1.2    1.0  147.96 +-  0.0    0.09   1.18   +-         +-0.1                 m i ke

PYRENEES
Sta     Dist  EvAz     Phase      Date       Time     TRes  Azim  AzRes  Slow  SRes Def   SNR       Amp   Per   Mag1   Mag2       ID
SJPF  000.14 013.6 m E Pg      2011/07/02 02:10:05.9   0.3                          T                                        4716304
SJPF  000.14 013.6 m E Sg      2011/07/02 02:10:07.3  -0.3                          T               51.5  .24        Md 1.9  4716302
ETSF  000.53 098.4 m E Pg      2011/07/02 02:10:12.5  -0.3                          T                                        4716303
ETSF  000.53 098.4 m E Sg      2011/07/02 02:10:19.4  -0.4                          T                2.4  .16        Md 1.8  4716301
EPF   001.18 086.9 m E Pg      2011/07/02 02:10:24.8  -0.1                          T                                        4718892
EPF   001.18 086.9 m E Sg      2011/07/02 02:10:40.1   0.0                          T                1.6  .32 Ml 1.6         4718893

.
EVENT     260962
    Date      Time       Latitude Longitude    Depth    Ndef Nsta Gap    Mag1  N    Mag2  N    Mag3  N   Author         ID
       rms   OT_Error      Smajor Sminor Az        Err   mdist  Mdist     Err        Err        Err      Quality

2011/07/02 04:05:47.1     41.0097   19.9643     10.0 f   207   10 040  Ml 3.9  5                         js067245    260962

      1.03   +-  0.07       2.4    1.7   17.33 +-  0.0    0.35  22.13   +-0.1                            m i ke

ALBANIA
Sta     Dist  EvAz     Phase      Date       Time     TRes  Azim  AzRes  Slow  SRes Def   SNR       Amp   Per   Mag1   Mag2       ID
PGF   008.34 284.2 m E Pn      2011/07/02 04:07:45.5  -0.1                          T                                        4718900
SBF   009.69 291.2 m E Pn      2011/07/02 04:08:03.7  -0.3                          T                                        4718901
LPL   010.65 299.4 m E Pn      2011/07/02 04:08:16.5  -0.7                          T                                        4718903
LPL   010.65 299.4 m E Sn      2011/07/02 04:10:09.8   0.1                          T                3.8  .38 Ml 3.8         4718898
LPG   010.63 299.3 m E Pn      2011/07/02 04:08:16.9  -0.1                          T                                        4718902
LPG   010.63 299.3 m E Sn      2011/07/02 04:10:10.1   0.8                          T                9.6  .66 Ml 4.0         4718899
CABF  011.48 303.8 m E Pn      2011/07/02 04:08:28.8   0.4                          T                                        4718906
HINF  011.58 310.4 m E Pn      2011/07/02 04:08:30.1   0.5                          T                                        4718907
HINF  011.58 310.4 m E Sn      2011/07/02 04:10:32.0   0.3                          T                3.2  .41 Ml 3.8         4718896
HAU   011.97 310.3 m E Pn      2011/07/02 04:08:34.7  -0.2                          T                                        4718897
HAU   011.97 310.3 m E Sn      2011/07/02 04:10:41.7   0.8                          T                4.4  .37 Ml 3.8         4718895
SMF   012.93 301.2 m E Pn      2011/07/02 04:08:47.0  -1.0                          T                                        4718905
LOR   013.14 303.8 m E Pn      2011/07/02 04:08:51.2   0.3                          T                                        4718908
LOR   013.14 303.8 m E Sn      2011/07/02 04:11:09.3   0.3                          T                3.2  .37 Ml 4.0         4718894
ETSF  015.39 283.8 m E P       2011/07/02 04:09:26.1   0.0                          T                                        4718904

.
EVENT     261328
    Date      Time       Latitude Longitude    Depth    Ndef Nsta Gap    Mag1  N    Mag2  N    Mag3  N   Author         ID
       rms   OT_Error      Smajor Sminor Az        Err   mdist  Mdist     Err        Err        Err      Quality

2011/07/02 05:02:18.8     45.4613    6.1914      2.0       8    4 200  Ml 1.8  1  Md 1.6  2              js067245    261328

      0.35   +-  0.24       9.0    2.3  154.40 +-  0.0    0.38   1.23   +-         +-0.0                 m i ke

FRANCE
Sta     Dist  EvAz     Phase      Date       Time     TRes  Azim  AzRes  Slow  SRes Def   SNR       Amp   Per   Mag1   Mag2       ID
LPL   000.38 081.6 m E Pg      2011/07/02 05:02:26.6   0.2                          T                                        4718913
LPL   000.38 081.6 m E Sg      2011/07/02 05:02:31.1  -0.5                          T                2.3  .28        Md 1.6  4718914
LPG   000.40 084.5 m E Pg      2011/07/02 05:02:27.0   0.3                          T                                        4718915
LPG   000.40 084.5 m E Sg      2011/07/02 05:02:31.5  -0.6                          T                1.4  .25        Md 1.6  4718916
ORIF  000.59 202.2 m E Pg      2011/07/02 05:02:29.9  -0.2                          T                                        4718911
ORIF  000.59 202.2 m E Sg      2011/07/02 05:02:38.1   0.4                          T                1.9  .25                4718912
VIVF  001.23 241.1 m E Pg      2011/07/02 05:02:41.6  -0.3                          T                                        4718909
VIVF  001.23 241.1 m E Sg      2011/07/02 05:02:58.5   0.6                          T                1.6  .22 Ml 1.8         4718910

.
EVENT     260969
    Date      Time       Latitude Longitude    Depth    Ndef Nsta Gap    Mag1  N    Mag2  N    Mag3  N   Author         ID
       rms   OT_Error      Smajor Sminor Az        Err   mdist  Mdist     Err        Err        Err      Quality

2011/07/02 06:47:42.7     42.9376     .1540      2.0      28    7 169  Ml 1.9  5  Md 2.0  3              js067245    260969

      0.49   +-  0.14       5.4    1.5  159.13 +-  0.0    0.17   2.92   +-0.2      +-0.1                 m i ke

PYRENEES
Sta     Dist  EvAz     Phase      Date       Time     TRes  Azim  AzRes  Slow  SRes Def   SNR       Amp   Per   Mag1   Mag2       ID
EPF   000.17 055.8 m E Pg      2011/07/02 06:47:46.2   0.0                          T                                        4715415
EPF   000.17 055.8 m E Sg      2011/07/02 06:47:48.8   0.4                          T               23.3  .19        Md 2.0  4715414
ETSF  000.53 266.0 m E Pg      2011/07/02 06:47:53.0   0.3                          T                                        4715417
ETSF  000.53 266.0 m E Sg      2011/07/02 06:48:00.0   0.3                          T               16.8  .24        Md 1.9  4715416
SJPF  001.03 280.3 m E P       2011/07/02 06:48:03.9  -0.1                          T                                        4716308
SJPF  001.03 280.3 m E Sg      2011/07/02 06:48:15.7   0.5                          T                2.1  .24 Ml 1.8 Md 2.1  4716307
MTLF  001.56 074.3 m E Pg      2011/07/02 06:48:12.0   0.2                          T                                        4716309
MTLF  001.56 074.3 m E Sg      2011/07/02 06:48:32.3   0.3                          T                2.5  .23 Ml 2.1         4716306
CAF   002.42 034.1 m E Sg      2011/07/02 06:48:58.3  -0.5                          T                1.3  .28 Ml 2.0         4716305
RJF   002.56 022.1 m E Sg      2011/07/02 06:49:03.5   0.4                          T                 .8  .19 Ml 1.6         4718918
LASF  002.92 065.8 m E Sg      2011/07/02 06:49:14.5   0.1                          T                 .9  .21 Ml 2.1         4718917

.
