EVENT     293282
    Date      Time       Latitude Longitude    Depth    Ndef Nsta Gap    Mag1  N    Mag2  N    Mag3  N   Author         ID
       rms   OT_Error      Smajor Sminor Az        Err   mdist  Mdist     Err        Err        Err      Quality

2013/03/06 13:16:09.0     48.4695   -4.5799     25.0      73   25 216  Ml 3.1 26  Md 3.1  3              bulletin    293382
                                                                                                         _ldg
      0.58   +-  0.14       2.4    2.0  104.41 +-  0.0    0.88   7.46   +-0.3      +-0.0                 m i ke

FRANCE
Sta     Dist  EvAz     Phase      Date       Time     TRes  Azim  AzRes  Slow  SRes Def   SNR       Amp   Per   Mag1   Mag2       ID
ROSF  000.88 098.2 m E Pn      2013/03/06 13:16:23.8  -0.4                          T                                        5218062
ROSF  000.88 098.2 m E Pg      2013/03/06 13:16:25.8  -0.2                          T   001.0                                5218049
ROSF  000.88 098.2 m E Sg      2013/03/06 13:16:38.6   0.8                          T               90.5  .18 Ml 3.5 Md 3.1  5218402
QUIF  001.10 119.8 m E Pn      2013/03/06 13:16:26.9  -0.2                          T   001.0                                5218046
QUIF  001.10 119.8 m E Pg      2013/03/06 13:16:29.8   0.0                          T                                        5218409
QUIF  001.10 119.8 m E Sn      2013/03/06 13:16:40.5   0.1                          T                                        5218392
QUIF  001.10 119.8 m E Sg      2013/03/06 13:16:44.9   0.5                          T   001.0      107.8  .26 Ml 3.5 Md 3.1  5218048
SGMF  001.37 098.3 m E Pn      2013/03/06 13:16:30.5  -0.3                          T                                        5218073
SGMF  001.37 098.3 m E Pg      2013/03/06 13:16:34.5  -0.2                          T                                        5218381
SGMF  001.37 098.3 m E Sn      2013/03/06 13:16:47.3   0.5                          T                                        5218407
SGMF  001.37 098.3 m E Sg      2013/03/06 13:16:52.9   0.3                          T               71.0  .38 Ml 3.2 Md 3.1  5218408
GRR   002.48 090.5 m E Pn      2013/03/06 13:16:45.9   0.0                          T   001.0                                5218033
GRR   002.48 090.5 m E Pg      2013/03/06 13:16:55.5   0.3                          T                                        5218063
GRR   002.48 090.5 m E Sn      2013/03/06 13:17:14.9   1.5                          T                                        5218393
GRR   002.48 090.5 m E S       2013/03/06 13:17:18.7   0.1                          T                                        5218418
GRR   002.48 090.5 m E Sg      2013/03/06 13:17:26.9  -0.3                          T               27.0  .18 Ml 3.3         5218404
FLN   002.73 082.3 m E Pn      2013/03/06 13:16:49.6   0.2                          T                                        5218394
FLN   002.73 082.3 m E Pg      2013/03/06 13:16:59.6  -0.2                          T                                        5218074
FLN   002.73 082.3 m E Sn      2013/03/06 13:17:19.7   0.2                          T   001.0                                5218032
FLN   002.73 082.3 m E Sg      2013/03/06 13:17:35.4   0.3 263.4  -2.0              T               30.7  .36 Ml 3.1         5218405
LDF   002.97 085.9 m E Pn      2013/03/06 13:16:52.5  -0.1                          T                                        5218076
LDF   002.97 085.9 m E Sn      2013/03/06 13:17:26.5   1.5                          T   001.0       61.7  .60 Ml 3.4         5218035
LDF   002.97 085.9 m E Sg      2013/03/06 13:17:42.2   0.0                          T              107.4  .92 Ml 3.5         5218406
MFF   003.54 120.2 m E Pn      2013/03/06 13:17:01.1   0.7                          T   001.0                                5218039
MFF   003.54 120.2 m E Sn      2013/03/06 13:17:38.9   0.2                          T                                        5218060
MFF   003.54 120.2 m E Sg      2013/03/06 13:18:00.5   0.4                          T                5.2  .20 Ml 3.1         5218403
HYF   005.01 101.2 m E Pn      2013/03/06 13:17:20.3   0.0                          T                                        5218385
HYF   005.01 101.2 m E Sn      2013/03/06 13:18:14.1   0.3                          T                                        5218384
LFF   005.08 132.0 m E Pn      2013/03/06 13:17:21.7   0.3                          T   001.0                                5218036
LFF   005.08 132.0 m E Pg      2013/03/06 13:17:43.1   0.1                          T                                        5218391
LFF   005.08 132.0 m E Sn      2013/03/06 13:18:15.5  -0.1                          T   001.0                                5218037
LFF   005.08 132.0 m E Sg      2013/03/06 13:18:48.7   0.4                          T                5.9  .26 Ml 3.1         5218390
TCF   005.10 112.8 m E Pn      2013/03/06 13:17:22.1   0.4                          T   001.0                                5218041
TCF   005.10 112.8 m E Sn      2013/03/06 13:18:15.8  -0.3                          T   001.0                                5218042
TCF   005.10 112.8 m E Sg      2013/03/06 13:18:49.4   0.5                          T                 .5  .14 Ml 2.5         5218401
RJF   005.24 124.9 m E Pn      2013/03/06 13:17:23.5  -0.1                          T   001.0                                5218021
RJF   005.24 124.9 m E Sn      2013/03/06 13:18:19.7   0.2                          T   001.0        1.0  .18 Ml 2.4         5218022
BGF   005.38 108.0 m E Pn      2013/03/06 13:17:25.3  -0.2                          T   001.0                                5218025
BGF   005.38 108.0 m E Sn      2013/03/06 13:18:22.4  -0.4                          T   001.0        6.7  .26 Ml 3.4         5218026
AVF   005.62 104.4 m E Pn      2013/03/06 13:17:28.3  -0.3                          T   001.0                                5218023
AVF   005.62 104.4 m E Sn      2013/03/06 13:18:27.8  -0.6                          T   001.0         .9  .19 Ml 2.7         5218024
SSF   005.63 101.5 m E Pn      2013/03/06 13:17:28.7  -0.1                          T                                        5218400
SSF   005.63 101.5 m E Sn      2013/03/06 13:18:28.1  -0.6                          T                1.8  .25 Ml 2.9         5218399
LOR   005.80 098.8 m E Pn      2013/03/06 13:17:30.8  -0.5                          T                                        5218417
LOR   005.80 098.8 m E Sn      2013/03/06 13:18:32.6  -0.3                          T                3.6  .27 Ml 3.2         5218398
CAF   005.78 125.3 m E Pn      2013/03/06 13:17:31.0   0.0                          T                                        5218070
CAF   005.78 125.3 m E Sn      2013/03/06 13:18:32.6   0.2                          T   001.0        2.6  .15 Ml 3.3         5218028
SJPF  005.85 155.1 m E Pn      2013/03/06 13:17:31.7  -0.1                          T   001.0                                5218050
SJPF  005.85 155.1 m E Sn      2013/03/06 13:18:34.2   0.2                          T                2.7  .24 Ml 3.1         5218389
BAIF  005.97 071.3 m E Pn      2013/03/06 13:17:33.2  -0.2                          T                                        5218395
BAIF  005.97 071.3 m E Sn      2013/03/06 13:18:35.9  -0.8                          T                                        5218397
BAIF  005.97 071.3 m E Sg      2013/03/06 13:19:15.6  -0.3                          T                2.7  .18 Ml 3.3         5218396
SMF   005.99 104.6 m E Pn      2013/03/06 13:17:33.9   0.2                          T                                        5218072
SMF   005.99 104.6 m E Sn      2013/03/06 13:18:37.4   0.2                          T                1.3  .20 Ml 2.9         5218059
ETSF  006.24 151.7 m E Pn      2013/03/06 13:17:36.5  -0.7                          T                                        5218069
ETSF  006.24 151.7 m E Sn      2013/03/06 13:18:42.6  -0.9                          T                 .7  .16 Ml 2.8         5218388
SFTF  006.42 088.8 m E Pn      2013/03/06 13:17:39.6   0.0                          T                                        5218382
SFTF  006.42 088.8 m E Sn      2013/03/06 13:18:46.8  -0.8                          T                2.8  .18 Ml 3.4         5218383
EPF   006.44 145.9 m E Pn      2013/03/06 13:17:39.6  -0.3                          T   001.0                                5218030
EPF   006.44 145.9 m E Sn      2013/03/06 13:18:47.9  -0.1                          T                2.7  .24 Ml 3.2         5218387
MTLF  006.98 134.7 m E Pn      2013/03/06 13:17:47.7   0.5                          T   001.0                                5218045
MTLF  006.98 134.7 m E Sn      2013/03/06 13:19:01.3   0.3                          T                1.4  .28 Ml 2.9         5218386
LASF  007.31 123.8 m E Pn      2013/03/06 13:17:52.6   0.8                          T                                        5218068
CABF  007.46 100.5 m E Pn      2013/03/06 13:17:53.6  -0.2                          T   001.0                                5218043

.
EVENT     293297
    Date      Time       Latitude Longitude    Depth    Ndef Nsta Gap    Mag1  N    Mag2  N    Mag3  N   Author         ID
       rms   OT_Error      Smajor Sminor Az        Err   mdist  Mdist     Err        Err        Err      Quality

2013/03/06 17:35:47.1     43.0394     .1271      2.0      46    8 077  Ml 2.1  5  Md 2.0  3              bulletin    293397
                                                                                                         _ldg
      0.39   +-  0.05       1.1     .9    9.73 +-  0.0    0.14   2.90   +-0.3      +-0.1                 m i ke

FRANCE
Sta     Dist  EvAz     Phase      Date       Time     TRes  Azim  AzRes  Slow  SRes Def   SNR       Amp   Per   Mag1   Mag2       ID
EPF   000.16 093.2 m E Pg      2013/03/06 17:35:50.2  -0.2                          T                                        5218124
EPF   000.16 093.2 m E Sg      2013/03/06 17:35:52.8   0.2                          T               21.7  .18        Md 2.2  5218123
ETSF  000.52 254.6 m E Pg      2013/03/06 17:35:57.0  -0.1                          T                                        5218122
ETSF  000.52 254.6 m E Sg      2013/03/06 17:36:03.8  -0.3                          T               35.6  .38        Md 2.0  5218121
SJPF  000.99 274.7 m E Pg      2013/03/06 17:36:05.6  -0.1                          T                                        5219366
SJPF  000.99 274.7 m E P       2013/03/06 17:36:08.0   0.1                          T                                        5218119
SJPF  000.99 274.7 m E Sg      2013/03/06 17:36:18.7   0.0                          T                1.8  .24 Ml 1.7 Md 1.9  5218154
MTLF  001.56 078.1 m E Pn      2013/03/06 17:36:14.3   0.1                          T                                        5218120
MTLF  001.56 078.1 m E Pg      2013/03/06 17:36:16.2   0.0                          T                                        5218150
MTLF  001.56 078.1 m E Sg      2013/03/06 17:36:36.3   0.0                          T                4.8  .30 Ml 2.3         5218151
LFF   001.95 012.9 m E Pn      2013/03/06 17:36:19.5   0.1                          T                                        5219369
LFF   001.95 012.9 m E Pg      2013/03/06 17:36:23.3  -0.1                          T                                        5219368
LFF   001.95 012.9 m E Sg      2013/03/06 17:36:48.2  -0.3                          T                3.1  .23 Ml 2.2         5219370
RJF   002.48 023.3 m E P       2013/03/06 17:36:29.1  -0.1                          T                                        5219367
CAF   002.35 035.9 m E Pg      2013/03/06 17:36:30.7   0.0                          T                                        5218148
CAF   002.35 035.9 m E Sg      2013/03/06 17:37:01.6   0.6                          T                2.6  .24 Ml 2.3         5218149
LASF  002.90 067.8 m E Sg      2013/03/06 17:37:18.6   0.3                          T                1.2  .28 Ml 2.0         5219365

.
EVENT     293341
    Date      Time       Latitude Longitude    Depth    Ndef Nsta Gap    Mag1  N    Mag2  N    Mag3  N   Author         ID
       rms   OT_Error      Smajor Sminor Az        Err   mdist  Mdist     Err        Err        Err      Quality

2013/03/06 18:24:51.2     43.0242     .1397      2.0      10    5 168  Ml 1.3  3  Md 1.2  2              bulletin    293441
                                                                                                         _ldg
      0.21   +-  0.08       3.6    1.2  168.40 +-  0.0    0.15   2.35   +-0.3      +-0.1                 m i ke

FRANCE
Sta     Dist  EvAz     Phase      Date       Time     TRes  Azim  AzRes  Slow  SRes Def   SNR       Amp   Per   Mag1   Mag2       ID
EPF   000.15 087.6 m E Pg      2013/03/06 18:24:54.1  -0.2                          T                                        5218636
EPF   000.15 087.6 m E Sg      2013/03/06 18:24:56.8   0.4                          T                4.7  .20        Md 1.3  5218635
ETSF  000.53 256.5 m E Pg      2013/03/06 18:25:01.3   0.0                          T                                        5218634
ETSF  000.53 256.5 m E Sg      2013/03/06 18:25:07.9  -0.3                          T                1.1  .16        Md 1.2  5218633
SJPF  001.00 275.6 m E Pg      2013/03/06 18:25:10.2   0.2                          T                                        5218640
SJPF  001.00 275.6 m E Sg      2013/03/06 18:25:23.0  -0.1                          T                 .3  .18 Ml 1.1         5218639
MTLF  001.55 077.5 m E Pg      2013/03/06 18:25:20.3   0.2                          T                                        5218642
MTLF  001.55 077.5 m E Sg      2013/03/06 18:25:39.9  -0.2                          T                 .4  .19 Ml 1.4         5218641
CAF   002.35 035.5 m E Pg      2013/03/06 18:25:34.8  -0.1                          T                                        5218638
CAF   002.35 035.5 m E Sg      2013/03/06 18:26:05.4   0.1                          T                 .3  .16 Ml 1.5         5218637

.
EVENT     293342
    Date      Time       Latitude Longitude    Depth    Ndef Nsta Gap    Mag1  N    Mag2  N    Mag3  N   Author         ID
       rms   OT_Error      Smajor Sminor Az        Err   mdist  Mdist     Err        Err        Err      Quality

2013/03/06 18:26:58.1     43.0024     .1350      2.0      11    5 179  Ml 1.4  3  Md 1.3  2              bulletin    293442
                                                                                                         _ldg
      0.21   +-  0.08       4.9    1.1  170.61 +-  0.0    0.06   2.37   +-0.3      +-0.2                 m i ke

FRANCE
Sta     Dist  EvAz     Phase      Date       Time     TRes  Azim  AzRes  Slow  SRes Def   SNR       Amp   Per   Mag1   Mag2       ID
EPF   000.15 079.4 m E Pg      2013/03/06 18:27:01.0  -0.3                          T                                        5218819
EPF   000.15 079.4 m E Sg      2013/03/06 18:27:03.6   0.1                          T                5.2  .17        Md 1.5  5218818
ETSF  000.52 258.7 m E Pg      2013/03/06 18:27:08.2   0.1                          T                                        5218817
ETSF  000.52 258.7 m E Sg      2013/03/06 18:27:14.4  -0.5                          T                6.0  .25        Md 1.2  5218816
SJPF  001.00 276.8 m E Pg      2013/03/06 18:27:16.9   0.0                          T                                        5218815
SJPF  001.00 276.8 m E Sg      2013/03/06 18:27:30.2   0.3                          T                 .6  .29 Ml 1.1         5218814
MTLF  001.56 076.8 m E Pn      2013/03/06 18:27:25.3   0.2                          T                                        5218822
MTLF  001.56 076.8 m E Pg      2013/03/06 18:27:27.3   0.1                          T                                        5218821
MTLF  001.56 076.8 m E Sg      2013/03/06 18:27:47.2  -0.1                          T                 .5  .18 Ml 1.5         5218820
CAF   002.37 035.3 m E Pg      2013/03/06 18:27:41.5  -0.7                          T                                        5218824
CAF   002.37 035.3 m E Sg      2013/03/06 18:28:12.6  -0.2                          T                 .6  .22 Ml 1.7         5218823

.
EVENT     293363
    Date      Time       Latitude Longitude    Depth    Ndef Nsta Gap    Mag1  N    Mag2  N    Mag3  N   Author         ID
       rms   OT_Error      Smajor Sminor Az        Err   mdist  Mdist     Err        Err        Err      Quality

2013/03/06 21:07:34.0     47.7618    7.6976     20.8      22    6 059  Ml 1.6  5  Md 1.7  2              bulletin    293463
                                                                                                         _ldg
      0.51   +-  0.05       1.0    1.0   62.64 +-  0.5    0.05   3.11   +-0.2      +-0.1                 m i ke

SWITZERLAND
Sta     Dist  EvAz     Phase      Date       Time     TRes  Azim  AzRes  Slow  SRes Def   SNR       Amp   Per   Mag1   Mag2       ID
HINF  000.57 275.8 m E Pg      2013/03/06 21:07:45.2  -0.3                          T                                        5218759
HINF  000.57 275.8 m E Sg      2013/03/06 21:07:53.0  -0.3                          T                1.1  .19        Md 1.8  5218758
CDF   000.71 336.7 m E Pg      2013/03/06 21:07:47.9  -0.1                          T                                        5218750
CDF   000.71 336.7 m E Sg      2013/03/06 21:07:57.4  -0.1                          T                 .4  .22        Md 1.7  5218749
PAGF  001.54 301.7 m E Pn      2013/03/06 21:07:58.6  -0.1 118.1  -2.2              T                                        5218748
PAGF  001.54 301.7 m E Pg      2013/03/06 21:08:02.9  -0.1 116.8  -3.5              T                                        5218747
PAGF  001.54 301.7 m E Sn      2013/03/06 21:08:16.8   0.0 126.3  6.0               T                                        5218746
PAGF  001.54 301.7 m E Sg      2013/03/06 21:08:22.7  -0.2                          T                 .4  .14 Ml 1.5         5218745
SFTF  001.84 284.9 m E Pn      2013/03/06 21:08:03.2   0.4 103.9  1.0               T                                        5218755
SFTF  001.84 284.9 m E Pg      2013/03/06 21:08:08.8   0.4                          T                                        5218754
SFTF  001.84 284.9 m E Sg      2013/03/06 21:08:31.9  -0.4                          T                1.4  .35 Ml 1.8         5218753
MEZF  001.92 293.7 m E Pn      2013/03/06 21:08:04.0   0.1 116.6  4.9               T                                        5218752
MEZF  001.92 293.7 m E Sn      2013/03/06 21:08:25.9   0.0                          T                 .7  .19 Ml 1.7         5218751
CABF  001.59 224.2 m E Pg      2013/03/06 21:08:04.0   0.0                          T                                        5218757
CABF  001.59 224.2 m E Sg      2013/03/06 21:08:24.3  -0.3                          T                 .5  .23 Ml 1.4         5218756

.
