EVENT     279859
    Date      Time       Latitude Longitude    Depth    Ndef Nsta Gap    Mag1  N    Mag2  N    Mag3  N   Author         ID
       rms   OT_Error      Smajor Sminor Az        Err   mdist  Mdist     Err        Err        Err      Quality

2012/07/21 02:11:29.2     43.0920    -.6506      2.0      37    7 106  Ml 1.8  4  Md 1.9  3              bulletin    279959
                                                                                                         _ldg
      0.48   +-  0.07       1.4    1.2    1.51 +-  0.0    0.04   2.71   +-0.3      +-0.1                 m i ke

PYRENEES
Sta     Dist  EvAz     Phase      Date       Time     TRes  Azim  AzRes  Slow  SRes Def   SNR       Amp   Per   Mag1   Mag2       ID
ETSF  000.20 160.8 m E Pg      2012/07/21 02:11:33.4   0.0                          T                                        5030892
ETSF  000.20 160.8 m E Sg      2012/07/21 02:11:36.1  -0.1                          T              100.3  .26        Md 1.8  5030889
SJPF  000.42 273.1 m E Pg      2012/07/21 02:11:37.4   0.1                          T                                        5030891
SJPF  000.42 273.1 m E Sg      2012/07/21 02:11:43.1   0.2                          T                9.3  .22        Md 1.9  5030896
EPF   000.73 094.5 m E Pg      2012/07/21 02:11:44.3   1.3                          T                                        5030890
EPF   000.73 094.5 m E Sg      2012/07/21 02:11:52.2  -0.3                          T                2.2  .20                5030895
EPF   000.73 094.5 m E Sn      2012/07/21 02:11:56.3   0.2                          T                                Md 1.9  5036166
LFF   002.10 028.0 m E Pn      2012/07/21 02:12:03.4  -0.2                          T                                        5036162
LFF   002.10 028.0 m E Pg      2012/07/21 02:12:08.6   0.4                          T                                        5036161
LFF   002.10 028.0 m E Sn      2012/07/21 02:12:28.9   0.2                          T                                        5036160
LFF   002.10 028.0 m E Sg      2012/07/21 02:12:35.5   0.2                          T                 .9  .26 Ml 1.6         5036159
MTLF  002.11 082.2 m E Pg      2012/07/21 02:12:08.3  -0.1                          T                                        5036893
MTLF  002.11 082.2 m E Sg      2012/07/21 02:12:35.5  -0.1                          T                1.5  .22 Ml 2.0         5036894
RJF   002.71 034.4 m E Pn      2012/07/21 02:12:11.4  -0.5                          T                                        5036897
RJF   002.71 034.4 m E Pg      2012/07/21 02:12:19.4   0.0                          T                                        5036898
RJF   002.71 034.4 m E Sn      2012/07/21 02:12:43.1  -0.2                          T                                        5036164
RJF   002.71 034.4 m E Sg      2012/07/21 02:12:54.5   0.3                          T                 .4  .17 Ml 1.4         5036163
CAF   002.68 046.0 m E Pn      2012/07/21 02:12:11.6   0.0                          T                                        5036895
CAF   002.68 046.0 m E Sn      2012/07/21 02:12:42.9   0.2                          T                                        5036896

.
EVENT     280064
    Date      Time       Latitude Longitude    Depth    Ndef Nsta Gap    Mag1  N    Mag2  N    Mag3  N   Author         ID
       rms   OT_Error      Smajor Sminor Az        Err   mdist  Mdist     Err        Err        Err      Quality

2012/07/21 03:41:47.1     44.6530   10.5062      2.0      30    7 244  Ml 2.2  8  Md 2.3  3              bulletin    280164
                                                                                                         _ldg
      0.60   +-  0.25       5.2    2.0   58.38 +-  0.0    0.24   3.60   +-0.4      +-0.1                 m i ke

NORTHERN ITALY
Sta     Dist  EvAz     Phase      Date       Time     TRes  Azim  AzRes  Slow  SRes Def   SNR       Amp   Per   Mag1   Mag2       ID
SBF   002.34 251.4 m E Pn      2012/07/21 03:42:25.2   0.3                          T                                        5032590
SBF   002.34 251.4 m E Sn      2012/07/21 03:42:51.9  -0.7                          T               11.5  .41 Ml 2.7 Md 2.3  5032587
PGF   002.37 208.0 m E Pn      2012/07/21 03:42:25.4   0.1                          T                                        5036240
PGF   002.37 208.0 m E P       2012/07/21 03:42:27.8   0.0                          T                                        5036901
PGF   002.37 208.0 m E Sn      2012/07/21 03:42:53.5   0.2                          T                  1  .25 Ml 2.1         5036239
MBDF  002.66 272.9 m E Pn      2012/07/21 03:42:29.9   0.5                          T                                        5036247
MBDF  002.66 272.9 m E Pg      2012/07/21 03:42:36.8   0.1                          T                                        5036246
MBDF  002.66 272.9 m E Sn      2012/07/21 03:43:00.3  -0.1                          T                1.2  .28 Ml 2.0 Md 2.2  5036245
LPL   002.81 289.2 m E Pn      2012/07/21 03:42:31.3  -0.1                          T                                        5036244
LPL   002.81 289.2 m E Pg      2012/07/21 03:42:38.8  -0.6                          T                                        5036243
LPL   002.81 289.2 m E Sn      2012/07/21 03:43:03.7  -0.2                          T                1.0  .38 Ml 1.8 Md 2.4  5036242
FRF   002.99 249.9 m E Pn      2012/07/21 03:42:33.9   0.3                          T                                        5032591
FRF   002.99 249.9 m E Sn      2012/07/21 03:43:08.2   0.3                          T                6.7  .36 Ml 2.7         5032588
LMR   003.17 246.8 m E Pn      2012/07/21 03:42:36.0  -0.1                          T                                        5032592
LMR   003.17 246.8 m E Sn      2012/07/21 03:43:11.5  -0.7                          T                2.9  .29 Ml 2.5         5032589
LMR   003.17 246.8 m E Sg      2012/07/21 03:43:26.6   0.1                          T                1.2  .25 Ml 2.2         5032585
SMRF  003.60 260.9 m E Pn      2012/07/21 03:42:42.4   0.4                          T                                        5036241

.
EVENT     280063
    Date      Time       Latitude Longitude    Depth    Ndef Nsta Gap    Mag1  N    Mag2  N    Mag3  N   Author         ID
       rms   OT_Error      Smajor Sminor Az        Err   mdist  Mdist     Err        Err        Err      Quality

2012/07/21 04:51:08.6     43.0567    -.6835      2.0       6    3 173             Md 1.3  3              bulletin    280163
                                                                                                         _ldg
      0.11   +-  0.06       2.4    1.1   15.80 +-  0.0    0.18   0.75              +-0.1                 m i ke

PYRENEES
Sta     Dist  EvAz     Phase      Date       Time     TRes  Azim  AzRes  Slow  SRes Def   SNR       Amp   Per   Mag1   Mag2       ID
ETSF  000.18 149.9 m E Pg      2012/07/21 04:51:12.3   0.0                          T                                        5032597
ETSF  000.18 149.9 m E Sg      2012/07/21 04:51:14.8  -0.1                          T                2.9  .21        Md 1.4  5032596
SJPF  000.40 278.3 m E Pg      2012/07/21 04:51:16.1  -0.2                          T                                        5032594
SJPF  000.40 278.3 m E Sg      2012/07/21 04:51:21.8   0.2                          T                 .5  .33        Md 1.2  5032595
EPF   000.75 091.7 m E Pg      2012/07/21 04:51:22.8   0.0                          T                                        5038770
EPF   000.75 091.7 m E Sg      2012/07/21 04:51:32.6   0.0                          T                 .4  .18        Md 1.3  5032593

.
EVENT     280065
    Date      Time       Latitude Longitude    Depth    Ndef Nsta Gap    Mag1  N    Mag2  N    Mag3  N   Author         ID
       rms   OT_Error      Smajor Sminor Az        Err   mdist  Mdist     Err        Err        Err      Quality

2012/07/21 08:54:56.3     45.3696    6.7737      2.0       8    4 187             Md 1.5  2              bulletin    280165
                                                                                                         _ldg
      0.16   +-  0.05       2.0     .7   95.53 +-  0.0    0.13   0.78              +-0.0                 m i ke

FRANCE
Sta     Dist  EvAz     Phase      Date       Time     TRes  Azim  AzRes  Slow  SRes Def   SNR       Amp   Per   Mag1   Mag2       ID
LPG   000.13 353.0 m E Pg      2012/07/21 08:54:59.4  -0.1                          T                                        5032601
LPG   000.13 353.0 m E Sg      2012/07/21 08:55:01.0  -0.3                          T               10.1  .27        Md 1.4  5032598
LPL   000.15 348.8 m E Pg      2012/07/21 08:54:59.6  -0.1                          T                                        5032600
LPL   000.15 348.8 m E Sg      2012/07/21 08:55:01.5  -0.4                          T                9.1  .32        Md 1.5  5032599
MBDF  000.64 180.1 m E Pg      2012/07/21 08:55:08.6  -0.1                          T                                        5038773
MBDF  000.64 180.1 m E Sg      2012/07/21 08:55:17.3   0.2                          T                1.1  .40                5038774
ORIF  000.78 234.8 m E Pg      2012/07/21 08:55:11.1   0.0                          T                                        5038771
ORIF  000.78 234.8 m E Sg      2012/07/21 08:55:21.1  -0.1                          T                 .4  .32                5038772

.
EVENT     280066
    Date      Time       Latitude Longitude    Depth    Ndef Nsta Gap    Mag1  N    Mag2  N    Mag3  N   Author         ID
       rms   OT_Error      Smajor Sminor Az        Err   mdist  Mdist     Err        Err        Err      Quality

2012/07/21 10:25:38.7     45.7244    6.9260     10.0 f    24    4 180  Ml 1.6  3  Md 1.7  2              bulletin    280166
                                                                                                         _ldg
      0.31   +-  0.09       2.3    1.0  135.05 +-  0.0    0.02   1.09   +-0.1      +-0.0                 m i ke

FRANCE
Sta     Dist  EvAz     Phase      Date       Time     TRes  Azim  AzRes  Slow  SRes Def   SNR       Amp   Per   Mag1   Mag2       ID
LPL   000.25 213.2 m E Pg      2012/07/21 10:25:43.8  -0.3                          T                                        5032605
LPL   000.25 213.2 m E Sg      2012/07/21 10:25:47.3  -0.4                          T                7.4  .26        Md 1.8  5032604
LPG   000.26 208.5 m E Pg      2012/07/21 10:25:44.1  -0.2                          T                                        5032602
LPG   000.26 208.5 m E Sg      2012/07/21 10:25:47.6  -0.4                          T               10.3  .16        Md 1.7  5032603
MBDF  001.00 186.3 m E Pg      2012/07/21 10:25:57.7  -0.1                          T                                        5036252
MBDF  001.00 186.3 m E Sg      2012/07/21 10:26:10.6  -0.2                          T                1.5  .25 Ml 1.6         5036251
ORIF  001.09 222.8 m E Pg      2012/07/21 10:25:59.7   0.3                          T                                        5036250
ORIF  001.09 222.8 m E Sg      2012/07/21 10:26:13.5  -0.1                          T                1.5  .26 Ml 1.6         5036249

.
EVENT     279860
    Date      Time       Latitude Longitude    Depth    Ndef Nsta Gap    Mag1  N    Mag2  N    Mag3  N   Author         ID
       rms   OT_Error      Smajor Sminor Az        Err   mdist  Mdist     Err        Err        Err      Quality

2012/07/21 13:17:42.7     44.4672    6.6854      2.0      35    7 069  Ml 1.8  4  Md 1.8  2              bulletin    279960
                                                                                                         _ldg
      0.59   +-  0.07       1.5    1.3   74.98 +-  0.0    0.09   1.14   +-0.2      +-0.1                 m i ke

FRANCE
Sta     Dist  EvAz     Phase      Date       Time     TRes  Azim  AzRes  Slow  SRes Def   SNR       Amp   Per   Mag1   Mag2       ID
MBDF  000.27 013.3 m E Pg      2012/07/21 13:17:47.9  -0.3                          T                                        5030906
MBDF  000.27 013.3 m E Sg      2012/07/21 13:17:51.5  -0.2                          T                5.2  .22        Md 1.8  5030905
ORIF  000.73 308.4 m E Pg      2012/07/21 13:17:56.2  -0.4                          T                                        5030904
ORIF  000.73 308.4 m E Sg      2012/07/21 13:18:06.4   0.2                          T                3.2  .29        Md 1.8  5030903
SBF   000.81 138.0 m E Pg      2012/07/21 13:17:58.0   0.0                          T                                        5036904
SBF   000.81 138.0 m E Sg      2012/07/21 13:18:08.3  -0.3                          T                1.5  .20                5036905
SMRF  000.94 238.8 m E Pg      2012/07/21 13:17:59.8  -0.5                          T                                        5036909
SMRF  000.94 238.8 m E Sg      2012/07/21 13:18:12.5   0.0                          T                2.0  .25 Ml 1.7         5036910
FRF   000.91 181.8 m E Pg      2012/07/21 13:18:00.0   0.3                          T                                        5030902
FRF   000.91 181.8 m E Pn      2012/07/21 13:18:01.1   0.3                          T                                        5036908
FRF   000.91 181.8 m E Sg      2012/07/21 13:18:12.1   0.6                          T                3.8  .27 Ml 2.0         5036907
FRF   000.91 181.8 m E Sn      2012/07/21 13:18:13.8   0.1                          T                                        5030901
LPL   001.05 001.8 m E Pn      2012/07/21 13:18:02.9  -0.1                          T                                        5030898
LPL   001.05 001.8 m E Sg      2012/07/21 13:18:16.3   0.1                          T                2.0  .42 Ml 1.5         5030897
LMR   001.14 186.5 m E Pg      2012/07/21 13:18:04.6   0.6                          T                                        5030900
LMR   001.14 186.5 m E P       2012/07/21 13:18:05.7   0.1                          T                                        5036906
LMR   001.14 186.5 m E Sn      2012/07/21 13:18:19.1  -0.2                          T                2.7  .32 Ml 1.8         5030899

.
EVENT     279861
    Date      Time       Latitude Longitude    Depth    Ndef Nsta Gap    Mag1  N    Mag2  N    Mag3  N   Author         ID
       rms   OT_Error      Smajor Sminor Az        Err   mdist  Mdist     Err        Err        Err      Quality

2012/07/21 13:44:53.7     44.4850    6.7221     10.0      39   10 051  Ml 2.1  6  Md 2.1  8              bulletin    279961
                                                                                                         _ldg
      0.82   +-  0.09       2.1    1.5   65.05 +-  0.0    0.07   2.55   +-0.2      +-0.2                 m i ke

FRANCE
Sta     Dist  EvAz     Phase      Date       Time     TRes  Azim  AzRes  Slow  SRes Def   SNR       Amp   Per   Mag1   Mag2       ID
MBDF  000.24 008.3 m E Pg      2012/07/21 13:44:58.7  -0.2                          T                                        5030931
MBDF  000.24 008.3 m E Sg      2012/07/21 13:45:02.2  -0.2                          T               15.7  .18        Md 1.9  5030922
ORIF  000.74 306.1 m E Pg      2012/07/21 13:45:07.1  -0.8                          T                                        5030930
ORIF  000.74 306.1 m E Sg      2012/07/21 13:45:17.2  -0.3                          T               10.4  .28        Md 2.0  5030917
SBF   000.81 140.2 m E Pg      2012/07/21 13:45:08.8  -0.2                          T                                        5030926
SBF   000.81 140.2 m E Sg      2012/07/21 13:45:20.0   0.5                          T                8.7  .27        Md 2.2  5030915
FRF   000.93 183.4 m E Pg      2012/07/21 13:45:11.0  -0.1                          T                                        5030928
FRF   000.93 183.4 m E P       2012/07/21 13:45:12.3  -0.1                          T                                        5036915
FRF   000.93 183.4 m E Sg      2012/07/21 13:45:24.4   1.2                          T                9.5  .20 Ml 2.5         5036916
LPG   001.01 001.2 m E Pg      2012/07/21 13:45:13.2   0.1                          T                                        5030925
LPG   001.01 001.2 m E Sg      2012/07/21 13:45:26.0  -0.3                          T                6.0  .34 Ml 2.1 Md 2.0  5030921
SMRF  000.97 238.7 m E P       2012/07/21 13:45:13.3   0.0                          T                                        5030924
SMRF  000.97 238.7 m E Sg      2012/07/21 13:45:25.4   0.8                          T                8.6  .33 Ml 2.2 Md 2.1  5030920
LPL   001.03 000.4 m E Pg      2012/07/21 13:45:13.4   0.0                          T                                        5030929
LPL   001.03 000.4 m E Sg      2012/07/21 13:45:26.5  -0.2                          T                6.3  .46 Ml 2.0 Md 2.1  5030916
LMR   001.16 187.7 m E Pg      2012/07/21 13:45:15.7   0.3                          T                                        5030927
LMR   001.16 187.7 m E Sn      2012/07/21 13:45:29.9   0.5                          T                3.9  .22 Ml 2.1 Md 2.4  5030919
VIVF  001.51 285.0 m E Pn      2012/07/21 13:45:20.3   1.2                          T                                        5030923
VIVF  001.51 285.0 m E Sg      2012/07/21 13:45:42.3   1.0                          T                2.1  .29 Ml 1.9 Md 2.2  5030918
PGF   002.55 138.7 m E Pn      2012/07/21 13:45:33.0  -0.4                          T                                        5036913
PGF   002.55 138.7 m E Sn      2012/07/21 13:46:02.9   0.3                          T                                        5036914

.
