EVENT     258978
    Date      Time       Latitude Longitude    Depth    Ndef Nsta Gap    Mag1  N    Mag2  N    Mag3  N   Author         ID
       rms   OT_Error      Smajor Sminor Az        Err   mdist  Mdist     Err        Err        Err      Quality

2011/05/06 06:12:17.2     43.0693    -.3429      2.0       6    3 180             Md 1.2  3              js067245    258978

      0.10   +-  0.04       1.5     .6  174.39 +-  0.0    0.23   0.65              +-0.2                 m i ke

PYRENEES
Sta     Dist  EvAz     Phase      Date       Time     TRes  Azim  AzRes  Slow  SRes Def   SNR       Amp   Per   Mag1   Mag2       ID
ETSF  000.23 223.0 m E Pg      2011/05/06 06:12:21.8  -0.1                          T                                        4685440
ETSF  000.23 223.0 m E Sg      2011/05/06 06:12:25.3   0.1                          T               15.5  .22        Md 1.5  4685441
EPF   000.50 094.2 m E Pg      2011/05/06 06:12:26.8  -0.1                          T                                        4685436
EPF   000.50 094.2 m E Sg      2011/05/06 06:12:33.4  -0.1                          T                1.7  .17        Md 1.0  4685437
SJPF  000.65 274.2 m E Pg      2011/05/06 06:12:29.5  -0.1                          T                                        4685438
SJPF  000.65 274.2 m E Sg      2011/05/06 06:12:37.9  -0.1                          T                2.1  .30        Md 1.2  4685439

.
EVENT     259000
    Date      Time       Latitude Longitude    Depth    Ndef Nsta Gap    Mag1  N    Mag2  N    Mag3  N   Author         ID
       rms   OT_Error      Smajor Sminor Az        Err   mdist  Mdist     Err        Err        Err      Quality

2011/05/06 09:28:53.5     44.6070    7.2532      2.0      19    9 191  Ml 2.2  8  Md 1.9  1              js067245    259000

      0.32   +-  0.13       2.6    1.3   75.43 +-  0.0    0.36   1.86   +-0.4      +-                    m i ke

NORTHERN ITALY
Sta     Dist  EvAz     Phase      Date       Time     TRes  Azim  AzRes  Slow  SRes Def   SNR       Amp   Per   Mag1   Mag2       ID
MBDF  000.36 289.4 m E Pg      2011/05/06 09:29:01.0   0.3                          T                                        4685457
MBDF  000.36 289.4 m E Sg      2011/05/06 09:29:05.6   0.0                          T               38.8  .16        Md 1.9  4685458
SBF   000.76 170.0 m E Pg      2011/05/06 09:29:07.9   0.1                          T                                        4685450
SBF   000.76 170.0 m E Sg      2011/05/06 09:29:17.4  -0.2                          T                6.1  .24                4685449
LPG   000.96 338.4 m E Pg      2011/05/06 09:29:11.8   0.0                          T                                        4685454
LPG   000.96 338.4 m E Sg      2011/05/06 09:29:24.0  -0.3                          T                6.6  .26 Ml 2.2         4685445
LPL   000.98 338.1 m E Pg      2011/05/06 09:29:12.3   0.1                          T                                        4685455
LPL   000.98 338.1 m E Sg      2011/05/06 09:29:24.8  -0.1                          T                5.0  .28 Ml 2.1         4685444
ORIF  001.03 288.1 m E Pg      2011/05/06 09:29:12.9   0.0                          T                                        4685456
ORIF  001.03 288.1 m E Sg      2011/05/06 09:29:25.4  -0.8                          T                3.9  .20 Ml 2.1         4685443
FRF   001.13 202.9 m E Pg      2011/05/06 09:29:15.0   0.3                          T                                        4685452
FRF   001.13 202.9 m E Sg      2011/05/06 09:29:29.5   0.2                          T               12.8  .22 Ml 2.7         4685447
LMR   001.38 203.1 m E Pg      2011/05/06 09:29:18.8  -0.4                          T                                        4685451
LMR   001.38 203.1 m E Sg      2011/05/06 09:29:36.8  -0.3                          T                9.2  .22 Ml 2.6         4685448
SMRF  001.36 243.0 m E Pg      2011/05/06 09:29:18.9   0.0                          T                                        4685453
SMRF  001.36 243.0 m E Sg      2011/05/06 09:29:37.2   0.7                          T                3.2  .28 Ml 2.0         4685446
VIVF  001.86 278.6 m E Sg      2011/05/06 09:29:52.4   0.4                          T                 .5  .20 Ml 1.6         4685442

.
EVENT     259002
    Date      Time       Latitude Longitude    Depth    Ndef Nsta Gap    Mag1  N    Mag2  N    Mag3  N   Author         ID
       rms   OT_Error      Smajor Sminor Az        Err   mdist  Mdist     Err        Err        Err      Quality

2011/05/06 10:19:35.3     47.6280    6.2476       .0 f    19    9 121  Ml 2.1  7  Md 2.2  2              js067245    259002

      0.99   +-  0.10       2.3    1.4  140.00 +-  0.0    0.38   2.14   +-0.3      +-0.1                 m i km

FRANCE
Sta     Dist  EvAz     Phase      Date       Time     TRes  Azim  AzRes  Slow  SRes Def   SNR       Amp   Per   Mag1   Mag2       ID
HAU   000.38 010.1 m E Pg      2011/05/06 10:19:42.6  -0.4                          T                                        4685466
HAU   000.38 010.1 m E Sg      2011/05/06 10:19:48.2  -0.1                          T               74.1  .84        Md 2.3  4685467
HINF  000.45 065.0 m E Pg      2011/05/06 10:19:44.1  -0.2                          T                                        4685464
HINF  000.45 065.0 m E Sg      2011/05/06 10:19:50.2  -0.2                          T               51.6  .82        Md 2.1  4685465
PAGF  000.99 339.5 m E Pg      2011/05/06 10:19:54.2   0.1 149.9  -9.2              T                                        4685471
PAGF  000.99 339.5 m E Sg      2011/05/06 10:20:07.3   0.0 158.6  -0.5              T                1.3  .31 Ml 1.4         4685472
SFTF  001.00 305.8 m E Pg      2011/05/06 10:19:54.3   0.0 126.0  1.1               T                                        4685473
SFTF  001.00 305.8 m E Sn      2011/05/06 10:20:09.4   0.2                          T               33.2  .84 Ml 2.4         4685461
CDF   001.05 041.0 m E Pg      2011/05/06 10:19:55.6   0.4                          T                                        4685470
CDF   001.05 041.0 m E Sg      2011/05/06 10:20:09.2   0.2                          T                8.9  .34 Ml 2.4         4685463
CABF  001.02 186.2 m E Pn      2011/05/06 10:19:55.7   0.1                          T                                        4685459
CABF  001.02 186.2 m E Sn      2011/05/06 10:20:10.2   0.2                          T               19.8  .63 Ml 2.3         4685460
LOR   001.66 258.4 m E Pg      2011/05/06 10:20:06.5   0.0  76.8  0.2               T                                        4685468
LOR   001.66 258.4 m E Sg      2011/05/06 10:20:28.0  -0.2  86.6  10.0              T                1.6  .20 Ml 2.0         4685469
AVF   002.14 248.1 m E Pn      2011/05/06 10:20:10.7   0.1                          T                                        4685475
AVF   002.14 248.1 m E Pg      2011/05/06 10:20:15.3  -0.1                          T                                        4685474
AVF   002.14 248.1 m E Sn      2011/05/06 10:20:36.3  -0.2                          T                                        4685477
AVF   002.14 248.1 m E Sg      2011/05/06 10:20:42.9  -0.3                          T                2.3  .28 Ml 2.2         4685476
LANF  001.71 037.0 m E Sg      2011/05/06 10:20:29.9   0.3                          T                5.2  .36 Ml 2.3         4685462

.
EVENT     259003
    Date      Time       Latitude Longitude    Depth    Ndef Nsta Gap    Mag1  N    Mag2  N    Mag3  N   Author         ID
       rms   OT_Error      Smajor Sminor Az        Err   mdist  Mdist     Err        Err        Err      Quality

2011/05/06 12:19:04.7     44.6036    7.2458      2.0      19    8 190  Ml 1.7  7  Md 1.7  1              js067245    259003

      0.21   +-  0.08       1.7     .8   76.67 +-  0.0    0.33   1.38   +-0.3      +-                    m i ke

NORTHERN ITALY
Sta     Dist  EvAz     Phase      Date       Time     TRes  Azim  AzRes  Slow  SRes Def   SNR       Amp   Per   Mag1   Mag2       ID
MBDF  000.36 290.2 m E Pg      2011/05/06 12:19:12.1   0.3                          T                                        4685490
MBDF  000.36 290.2 m E Sg      2011/05/06 12:19:16.7   0.0                          T                9.7  .16        Md 1.7  4685491
SBF   000.75 169.5 m E Pg      2011/05/06 12:19:19.0   0.0                          T                                        4685485
SBF   000.75 169.5 m E Sg      2011/05/06 12:19:28.6  -0.2                          T                1.5  .17                4685478
LPG   000.96 338.8 m E Pg      2011/05/06 12:19:23.1   0.0                          T                                        4687030
LPG   000.96 338.8 m E Sg      2011/05/06 12:19:35.4  -0.2                          T                1.7  .27 Ml 1.6         4685482
LPL   000.98 338.4 m E Pg      2011/05/06 12:19:23.4   0.0                          T                                        4685486
LPL   000.98 338.4 m E Sg      2011/05/06 12:19:35.9  -0.2                          T                1.4  .29 Ml 1.5         4685483
ORIF  001.02 288.4 m E Pg      2011/05/06 12:19:24.1   0.1                          T                                        4685487
ORIF  001.02 288.4 m E Sg      2011/05/06 12:19:36.5  -0.7                          T                1.6  .22 Ml 1.7         4685484
FRF   001.13 202.7 m E Pg      2011/05/06 12:19:25.9   0.1                          T                                        4687028
FRF   001.13 202.7 m E Sg      2011/05/06 12:19:40.7   0.2                          T                2.9  .21 Ml 2.0         4685480
SMRF  001.35 243.0 m E Pg      2011/05/06 12:19:30.0   0.0                          T                                        4687029
SMRF  001.35 243.0 m E Sg      2011/05/06 12:19:47.6   0.1                          T                 .4  .22 Ml 1.3         4685481
LMR   001.38 203.0 m E Pg      2011/05/06 12:19:30.2  -0.1                          T                                        4687027
LMR   001.38 203.0 m E Sg      2011/05/06 12:19:48.0  -0.1                          T                4.9  .29 Ml 2.2         4685479

.
EVENT     259005
    Date      Time       Latitude Longitude    Depth    Ndef Nsta Gap    Mag1  N    Mag2  N    Mag3  N   Author         ID
       rms   OT_Error      Smajor Sminor Az        Err   mdist  Mdist     Err        Err        Err      Quality

2011/05/06 12:31:25.0     47.5266    6.1590       .0 f    14    7 125  Ml 1.9  5  Md 1.9  1              js067245    259005

      0.80   +-  0.10       2.1    1.6  129.25 +-  0.0    0.50   1.58   +-0.2      +-                    m i km

FRANCE
Sta     Dist  EvAz     Phase      Date       Time     TRes  Azim  AzRes  Slow  SRes Def   SNR       Amp   Per   Mag1   Mag2       ID
HAU   000.50 014.8 m E Pg      2011/05/06 12:31:34.6  -0.2                          T                                        4685500
HAU   000.50 014.8 m E Sg      2011/05/06 12:31:41.7   0.2                          T               12.2  .30        Md 1.9  4685501
HINF  000.55 058.0 m E Pg      2011/05/06 12:31:36.2   0.4                          T                                        4685493
HINF  000.55 058.0 m E Sg      2011/05/06 12:31:43.1  -0.2                          T               30.9 1.08                4685494
CABF  000.92 183.1 m E Pg      2011/05/06 12:31:42.5  -0.1                          T                                        4685495
CABF  000.92 183.1 m E Sg      2011/05/06 12:31:54.5  -0.3                          T                5.1  .28 Ml 2.0         4685496
SFTF  001.02 312.4 m E Pg      2011/05/06 12:31:44.4   0.0                          T                                        4685504
SFTF  001.02 312.4 m E Sg      2011/05/06 12:31:57.6  -0.1                          T                6.2  .41 Ml 2.0         4685497
PAGF  001.07 344.4 m E Pg      2011/05/06 12:31:45.4   0.1                          T                                        4685506
PAGF  001.07 344.4 m E Sn      2011/05/06 12:32:00.6   0.0 157.8  -6.2              T                1.6  .28 Ml 1.6         4685498
CDF   001.16 039.9 m E Pg      2011/05/06 12:31:47.1   0.0                          T                                        4685505
CDF   001.16 039.9 m E Sg      2011/05/06 12:32:01.6  -0.7                          T                 .9  .14 Ml 1.8         4685499
LOR   001.58 261.5 m E Pg      2011/05/06 12:31:54.8   0.0  73.7  -6.1              T                                        4685502
LOR   001.58 261.5 m E Sg      2011/05/06 12:32:15.4   0.0  83.5  3.7               T                3.0  .23 Ml 2.2         4685503

.
EVENT     259063
    Date      Time       Latitude Longitude    Depth    Ndef Nsta Gap    Mag1  N    Mag2  N    Mag3  N   Author         ID
       rms   OT_Error      Smajor Sminor Az        Err   mdist  Mdist     Err        Err        Err      Quality

2011/05/06 14:29:10.1     44.6136    7.2680      2.0       8    4 193  Ml 1.7  2  Md 1.7  3              js067245    259063

      0.18   +-  0.11       3.2    1.2   72.86 +-  0.0    0.37   1.14   +-0.5      +-0.0                 m i ke

NORTHERN ITALY
Sta     Dist  EvAz     Phase      Date       Time     TRes  Azim  AzRes  Slow  SRes Def   SNR       Amp   Per   Mag1   Mag2       ID
MBDF  000.37 287.9 m E Pg      2011/05/06 14:29:17.6   0.1                          T                                        4685865
MBDF  000.37 287.9 m E Sg      2011/05/06 14:29:22.2  -0.3                          T                5.0  .16        Md 1.6  4685861
SBF   000.76 170.8 m E Pg      2011/05/06 14:29:24.5   0.0                          T                                        4685862
SBF   000.76 170.8 m E Sg      2011/05/06 14:29:34.0  -0.4                          T                2.8  .29        Md 1.7  4685858
LPG   000.96 337.7 m E Pg      2011/05/06 14:29:28.3  -0.1                          T                                        4685864
LPG   000.96 337.7 m E Sg      2011/05/06 14:29:40.8   0.0                          T                 .5  .16 Ml 1.3 Md 1.6  4685860
FRF   001.14 203.3 m E Pg      2011/05/06 14:29:31.6   0.1                          T                                        4685863
FRF   001.14 203.3 m E Sg      2011/05/06 14:29:46.1  -0.2                          T                3.7  .29 Ml 2.0         4685859

.
EVENT     259023
    Date      Time       Latitude Longitude    Depth    Ndef Nsta Gap    Mag1  N    Mag2  N    Mag3  N   Author         ID
       rms   OT_Error      Smajor Sminor Az        Err   mdist  Mdist     Err        Err        Err      Quality

2011/05/06 15:12:34.8     37.7524   14.9963     20.0 f    74   12 083  Ml 3.6  3                         js067245    259023

      0.71   +-  0.09       2.5    2.1  118.29 +-  0.0    0.06  11.21   +-0.1                            m i ke

SICILY, ITALY
Sta     Dist  EvAz     Phase      Date       Time     TRes  Azim  AzRes  Slow  SRes Def   SNR       Amp   Per   Mag1   Mag2       ID
PGF   006.64 318.1 m E Pn      2011/05/06 15:14:09.2   0.1                          T                                        4685882
PGF   006.64 318.1 m E Sn      2011/05/06 15:15:20.0   0.4                          T               10.6  .50 Ml 3.8         4685870
SBF   008.37 319.2 m E Pn      2011/05/06 15:14:32.9   0.3                          T                                        4685879
SBF   008.37 319.2 m E Sn      2011/05/06 15:16:01.3   0.3                          T                4.3  .34 Ml 3.6         4685869
LMR   008.53 313.5 m E Pn      2011/05/06 15:14:34.9   0.2                          T                                        4685881
FRF   008.60 315.1 m E Pn      2011/05/06 15:14:35.8   0.2                          T                                        4685880
MBDF  009.32 321.0 m E Pn      2011/05/06 15:14:45.9   0.2                          T                                        4685874
SMRF  009.46 314.0 m E Pn      2011/05/06 15:14:47.8   0.4                          T                                        4685878
LPG   009.89 324.1 m E Pn      2011/05/06 15:14:53.7   0.1                          T                                        4685877
ORIF  009.91 319.1 m E Pn      2011/05/06 15:14:53.8   0.2                          T                                        4685875
LPL   009.92 324.1 m E Pn      2011/05/06 15:14:54.2   0.3                          T                                        4685876
VIVF  010.51 315.7 m E Pn      2011/05/06 15:15:02.0   0.2                          T                                        4685873
LASF  010.53 310.4 m E Pn      2011/05/06 15:15:02.2   0.2                          T                                        4685872
MTLF  011.21 303.9 m E Pn      2011/05/06 15:15:11.7   0.5                          T                                        4685871

.
