BEGIN GSE2.0
MSG_TYPE DATA
MSG_ID 24-MAY-1208:40:27  FRA_NDC
E-MAIL
DATA_TYPE BULLETIN
Reviewed Bulletin (REB) # P2012-019  from French NDC for regional phases     PERIOD 09 MAY 2012 TO 15 MAY 2012 S M., J-P S
EVENT     275668
    Date      Time       Latitude Longitude    Depth    Ndef Nsta Gap    Mag1  N    Mag2  N    Mag3  N   Author         ID
       rms   OT_Error      Smajor Sminor Az        Err   mdist  Mdist     Err        Err        Err      Quality

2012/05/09 04:03:53.2     47.8510    7.6057      5.0 f    21    8 085  Ml 2.0  7  Md 2.0  5              bulletin    275768
                                                                                                         _ldg
      0.51   +-  0.07       2.0    1.2    7.35 +-  0.0    0.24   2.60   +-0.1      +-0.3                 m i ke

SWITZERLAND
Sta     Dist  EvAz     Phase      Date       Time     TRes  Azim  AzRes  Slow  SRes Def   SNR       Amp   Per   Mag1   Mag2       ID
HINF  000.51 266.4 m E Pg      2012/05/09 04:04:03.2   0.2                          T                                        4940589
HINF  000.51 266.4 m E Sg      2012/05/09 04:04:09.7   0.0                          T                3.3  .30        Md 1.9  4940585
CDF   000.60 338.7 m E Pg      2012/05/09 04:04:04.4  -0.4                          T                                        4940590
CDF   000.60 338.7 m E P       2012/05/09 04:04:05.7  -0.5                          T                                        4940608
CDF   000.60 338.7 m E Sg      2012/05/09 04:04:12.4  -0.4                          T                1.9  .20        Md 1.7  4940586
HAU   000.86 280.8 m E Pg      2012/05/09 04:04:09.5   0.1                          T                                        4944813
HAU   000.86 280.8 m E Pn      2012/05/09 04:04:10.8   0.4                          T                                Md 2.4  4940588
HAU   000.86 280.8 m E Sg      2012/05/09 04:04:20.3  -0.3                          T                                Md 1.9  4940587
THEF  001.15 289.8 m E Pg      2012/05/09 04:04:14.7   0.0                          T                                        4940591
THEF  001.15 289.8 m E Sg      2012/05/09 04:04:29.2  -0.3                          T                6.1  .27 Ml 2.2 Md 2.3  4940592
PAGF  001.44 299.9 m E Pn      2012/05/09 04:04:18.8   0.5                          T                                        4943244
PAGF  001.44 299.9 m E Sn      2012/05/09 04:04:36.3  -0.2 122.3  3.8               T                5.0  .66 Ml 1.9         4943245
SFTF  001.76 282.6 m E Pn      2012/05/09 04:04:23.2   0.6 101.5  0.8               T                                        4943249
SFTF  001.76 282.6 m E Sn      2012/05/09 04:04:43.8  -0.3                          T                1.9  .21 Ml 2.1         4943248
SFTF  001.76 282.6 m E Sg      2012/05/09 04:04:48.9   0.3                          T                1.4  .17 Ml 2.1         4944812
MEZF  001.83 291.8 m E Pn      2012/05/09 04:04:23.9   0.3 105.0  -4.9              T                                        4943246
MEZF  001.83 291.8 m E Sn      2012/05/09 04:04:45.6  -0.1 109.5  -0.5              T                1.7  .30 Ml 1.9         4943247
LOR   002.60 258.4 m E Sn      2012/05/09 04:05:03.8  -0.4                          T                1.4  .32 Ml 2.0         4944811
LOR   002.60 258.4 m E Sg      2012/05/09 04:05:14.8  -0.2                          T                 .7  .26 Ml 1.8         4944810

.
EVENT     275669
    Date      Time       Latitude Longitude    Depth    Ndef Nsta Gap    Mag1  N    Mag2  N    Mag3  N   Author         ID
       rms   OT_Error      Smajor Sminor Az        Err   mdist  Mdist     Err        Err        Err      Quality

2012/05/09 05:05:23.6     43.1756    3.3174      3.0 f    15    7 187  Ml 2.0  6  Md 1.8  2              bulletin    275769
                                                                                                         _ldg
      1.15   +-  0.18       4.4    1.7  172.61 +-  0.0    0.82   2.56   +-0.3      +-0.1                 m i ke

NEAR SOUTH COAST OF FRANCE
Sta     Dist  EvAz     Phase      Date       Time     TRes  Azim  AzRes  Slow  SRes Def   SNR       Amp   Per   Mag1   Mag2       ID
MTLF  000.82 282.0 m E Pg      2012/05/09 05:05:39.3   0.3                          T                                        4940597
MTLF  000.82 282.0 m E Sg      2012/05/09 05:05:49.4  -0.3                          T                1.7  .36        Md 1.8  4940594
LASF  000.98 023.3 m E Pg      2012/05/09 05:05:41.8  -0.2                          T                                        4940596
LASF  000.98 023.3 m E Sg      2012/05/09 05:05:54.3  -0.5                          T                4.9  .35 Ml 1.9 Md 1.9  4940593
VIVF  001.94 029.7 m E Pn      2012/05/09 05:05:55.8   0.1                          T                                        4944821
VIVF  001.94 029.7 m E Sg      2012/05/09 05:06:24.7  -0.1                          T                2.3  .44 Ml 1.9         4944822
SMRF  001.83 063.2 m E Pg      2012/05/09 05:05:57.5  -0.1                          T                                        4944816
SMRF  001.83 063.2 m E Sg      2012/05/09 05:06:21.2   0.0                          T                 .8  .34 Ml 1.5         4944817
FRF   002.46 079.9 m E Pg      2012/05/09 05:06:09.4   0.2                          T                                        4944814
FRF   002.46 079.9 m E Sn      2012/05/09 05:06:31.6   0.1                          T                4.1  .32 Ml 2.4         4944815
LFF   002.56 314.4 m E Pg      2012/05/09 05:06:11.0  -0.1                          T                                        4944818
LFF   002.56 314.4 m E Sg      2012/05/09 05:06:43.9  -0.1                          T                4.7  .29 Ml 2.4         4944819
EPF   002.19 267.2 m E Sg      2012/05/09 05:06:32.1  -0.2                          T                1.3  .21 Ml 2.0         4944820

.
EVENT     275690
    Date      Time       Latitude Longitude    Depth    Ndef Nsta Gap    Mag1  N    Mag2  N    Mag3  N   Author         ID
       rms   OT_Error      Smajor Sminor Az        Err   mdist  Mdist     Err        Err        Err      Quality

2012/05/09 06:16:54.8     44.4898    6.6786      2.0      24    6 071  Ml 1.3  2  Md 1.5  1              bulletin    275790
                                                                                                         _ldg
      0.21   +-  0.05       1.0     .7   64.22 +-  0.0    0.10   1.03   +-0.4      +-                    m i ke

FRANCE
Sta     Dist  EvAz     Phase      Date       Time     TRes  Azim  AzRes  Slow  SRes Def   SNR       Amp   Per   Mag1   Mag2       ID
MBDF  000.25 015.6 m E Pg      2012/05/09 06:17:00.0   0.1                          T                                        4940841
MBDF  000.25 015.6 m E Sg      2012/05/09 06:17:03.1  -0.1                          T                2.0  .19        Md 1.5  4940838
SBF   000.83 138.7 m E Pg      2012/05/09 06:17:10.4   0.0                          T                                        4940847
SBF   000.83 138.7 m E Sg      2012/05/09 06:17:21.3   0.1                          T                1.4  .20                4940850
FRF   000.93 181.4 m E Pg      2012/05/09 06:17:12.1  -0.1                          T                                        4940848
FRF   000.93 181.4 m E Sg      2012/05/09 06:17:24.3   0.0                          T                1.8  .27 Ml 1.6         4940849
SMRF  000.94 237.5 m E Pg      2012/05/09 06:17:12.9   0.3                          T                                        4940835
SMRF  000.94 237.5 m E Sg      2012/05/09 06:17:24.3  -0.5                          T                 .3  .20 Ml 1.0         4940834
LPG   001.01 002.9 m E Pg      2012/05/09 06:17:13.7  -0.3                          T                                        4940837
LPG   001.01 002.9 m E Sg      2012/05/09 06:17:27.4   0.2                          T                                        4940836
LPL   001.03 002.1 m E Pg      2012/05/09 06:17:14.4   0.1                          T                                        4940840
LPL   001.03 002.1 m E Sg      2012/05/09 06:17:27.8   0.1                          T                                        4940839

.
EVENT     275681
    Date      Time       Latitude Longitude    Depth    Ndef Nsta Gap    Mag1  N    Mag2  N    Mag3  N   Author         ID
       rms   OT_Error      Smajor Sminor Az        Err   mdist  Mdist     Err        Err        Err      Quality

2012/05/09 06:54:19.5     47.8153    5.8846       .0 f    16   10 083  Ml 2.2  5  Md 2.3  3              bulletin    275781
                                                                                                         _ldg
      0.48   +-  0.07       1.4    1.2  155.27 +-  0.0    0.37   2.01   +-0.2      +-0.1                 m i km

FRANCE
Sta     Dist  EvAz     Phase      Date       Time     TRes  Azim  AzRes  Slow  SRes Def   SNR       Amp   Per   Mag1   Mag2       ID
HAU   000.37 058.4 m E Pg      2012/05/09 06:54:26.6  -0.3                          T                                        4940696
HAU   000.37 058.4 m E Sg      2012/05/09 06:54:31.6  -0.3                          T               69.3  .82        Md 2.2  4940692
THEF  000.42 010.0 m E Pg      2012/05/09 06:54:28.0   0.1                          T                                        4940695
THEF  000.42 010.0 m E Sg      2012/05/09 06:54:33.7   0.1                          T               84.8  .68        Md 2.2  4940693
HINF  000.65 089.5 m E Pg      2012/05/09 06:54:32.3   0.1                          T                                        4940694
HINF  000.65 089.5 m E Sg      2012/05/09 06:54:40.9   0.0                          T               62.2 1.16        Md 2.4  4940691
SFTF  000.69 304.8 m E Pg      2012/05/09 06:54:32.5  -0.3 121.2  -3.0              T                                        4944832
SFTF  000.69 304.8 m E Sg      2012/05/09 06:54:42.1   0.1 124.7  0.5               T               53.9 1.00                4944833
PAGF  000.75 351.9 m E Pg      2012/05/09 06:54:34.2   0.3                          T                                        4940725
PAGF  000.75 351.9 m E Sg      2012/05/09 06:54:43.9   0.0 174.7  2.9               T                3.8  .48                4940724
CABF  001.21 173.4 m E Pn      2012/05/09 06:54:42.7   0.4                          T                                        4940689
CABF  001.21 173.4 m E Sn      2012/05/09 06:54:58.1  -0.6                          T                 16  .54 Ml 2.4         4940690
CDF   001.11 056.8 m E Sn      2012/05/09 06:54:56.2   0.0                          T                8.2  .52 Ml 2.2         4944836
LOR   001.48 249.0 m E Sg      2012/05/09 06:55:06.4  -0.3  71.2  3.7               T                5.1  .30 Ml 2.3         4944835
SSF   001.78 245.8 m E Sg      2012/05/09 06:55:16.1   0.0                          T                6.9  .44 Ml 2.4         4944834
AVF   002.01 240.2 m E Sg      2012/05/09 06:55:23.0  -0.1                          T                2.4  .44 Ml 1.9         4944831

.
EVENT     275687
    Date      Time       Latitude Longitude    Depth    Ndef Nsta Gap    Mag1  N    Mag2  N    Mag3  N   Author         ID
       rms   OT_Error      Smajor Sminor Az        Err   mdist  Mdist     Err        Err        Err      Quality

2012/05/09 07:05:55.7     43.7255    7.2293       .0 f     7    4 186  Ml 1.1  1  Md 1.4  2              bulletin    275787
                                                                                                         _ldg
      0.22   +-  0.12       4.7    1.6  139.99 +-  0.0    0.20   1.05   +-         +-0.3                 m i km

NEAR SOUTH COAST OF FRANCE
Sta     Dist  EvAz     Phase      Date       Time     TRes  Azim  AzRes  Slow  SRes Def   SNR       Amp   Per   Mag1   Mag2       ID
SBF   000.20 047.2 m E Pg      2012/05/09 07:06:00.3   0.2                          T                                        4940795
SBF   000.20 047.2 m E Sg      2012/05/09 07:06:02.5  -0.6                          T               49.6  .32        Md 1.6  4940794
FRF   000.45 248.9 m E Pg      2012/05/09 07:06:04.6   0.0                          T                                        4940790
FRF   000.45 248.9 m E Sg      2012/05/09 07:06:10.9   0.1                          T                2.0  .25        Md 1.2  4940791
LMR   000.65 233.5 m E Pg      2012/05/09 07:06:08.3   0.0                          T                                        4940792
LMR   000.65 233.5 m E Sg      2012/05/09 07:06:17.0  -0.1                          T                1.3  .24                4940793
MBDF  001.05 342.0 m E Sg      2012/05/09 07:06:29.8   0.0                          T                 .6  .29 Ml 1.1         4944843

.
EVENT     275692
    Date      Time       Latitude Longitude    Depth    Ndef Nsta Gap    Mag1  N    Mag2  N    Mag3  N   Author         ID
       rms   OT_Error      Smajor Sminor Az        Err   mdist  Mdist     Err        Err        Err      Quality

2012/05/09 07:07:05.0     44.4930    6.7302      2.0      31    8 080  Ml 1.6  5  Md 1.7  1              bulletin    275792
                                                                                                         _ldg
      0.38   +-  0.07       1.6    1.1   68.56 +-  0.0    0.06   2.55   +-0.4      +-                    m i ke

FRANCE
Sta     Dist  EvAz     Phase      Date       Time     TRes  Azim  AzRes  Slow  SRes Def   SNR       Amp   Per   Mag1   Mag2       ID
MBDF  000.24 007.2 m E Pg      2012/05/09 07:07:09.7  -0.2                          T                                        4940830
MBDF  000.24 007.2 m E Sg      2012/05/09 07:07:13.2   0.1                          T                                Md 1.7  4940829
SBF   000.81 140.9 m E Pg      2012/05/09 07:07:20.3   0.0                          T                                        4940820
SBF   000.81 140.9 m E Sg      2012/05/09 07:07:30.9   0.0                          T                1.2  .18                4940819
FRF   000.93 183.7 m E Pg      2012/05/09 07:07:22.5   0.0                          T                                        4940813
FRF   000.93 183.7 m E Sg      2012/05/09 07:07:34.9   0.2                          T                4.6  .20 Ml 2.2         4940828
SMRF  000.98 238.5 m E Pg      2012/05/09 07:07:23.6   0.2                          T                                        4940814
SMRF  000.98 238.5 m E Sg      2012/05/09 07:07:36.8   0.7                          T                 .9  .24 Ml 1.4         4940822
LPG   001.00 000.9 m E Pg      2012/05/09 07:07:24.2   0.0                          T                                        4940826
LPG   001.00 000.9 m E Sg      2012/05/09 07:07:37.4   0.2                          T                 .6  .20 Ml 1.3         4940823
LPL   001.02 000.1 m E Pg      2012/05/09 07:07:24.5   0.1                          T                                        4940825
LPL   001.02 000.1 m E Sg      2012/05/09 07:07:38.0   0.3                          T                 .6  .21 Ml 1.3         4940824
LMR   001.17 187.9 m E Pg      2012/05/09 07:07:27.3   0.4                          T                                        4940827
LMR   001.17 187.9 m E Sg      2012/05/09 07:07:42.1   0.1                          T                1.8  .24 Ml 1.8         4940821
PGF   002.55 138.9 m E Pn      2012/05/09 07:07:45.6  -0.1                          T                                        4940818
PGF   002.55 138.9 m E Sn      2012/05/09 07:08:15.3  -0.2                          T                                        4940817

.
EVENT     275694
    Date      Time       Latitude Longitude    Depth    Ndef Nsta Gap    Mag1  N    Mag2  N    Mag3  N   Author         ID
       rms   OT_Error      Smajor Sminor Az        Err   mdist  Mdist     Err        Err        Err      Quality

2012/05/09 07:47:11.9     43.5238    6.6328       .0 f    19    6 138  Ml 2.1  2  Md 2.2  3              bulletin    275794
                                                                                                         _ldg
      0.59   +-  0.21       4.6    3.1  151.69 +-  0.0    0.04   1.99   +-0.1      +-0.4                 m i km

NEAR SOUTH COAST OF FRANCE
Sta     Dist  EvAz     Phase      Date       Time     TRes  Azim  AzRes  Slow  SRes Def   SNR       Amp   Per   Mag1   Mag2       ID
FRF   000.04 015.4 m E Pg      2012/05/09 07:47:12.1  -0.8                          T                                        4940901
FRF   000.04 015.4 m E Sg      2012/05/09 07:47:13.1  -0.5                          T             1002.8  .50        Md 1.7  4940897
LMR   000.21 205.4 m E Pg      2012/05/09 07:47:15.0  -1.4                          T                                        4940900
LMR   000.21 205.4 m E Sg      2012/05/09 07:47:17.9  -1.5                          T              149.3  .74        Md 2.4  4940896
SBF   000.67 059.5 m E Pg      2012/05/09 07:47:24.4  -0.6                          T                                        4940911
SBF   000.67 059.5 m E Sg      2012/05/09 07:47:33.6  -0.4                          T                                        4940910
SMRF  000.89 300.9 m E Pg      2012/05/09 07:47:28.5  -0.5                          T                                        4940898
SMRF  000.89 300.9 m E Sg      2012/05/09 07:47:40.6  -0.1                          T                                Md 2.4  4940894
MBDF  001.21 004.7 m E Pg      2012/05/09 07:47:34.1  -0.9                          T                                        4944844
MBDF  001.21 004.7 m E Sg      2012/05/09 07:47:50.7  -0.1                          T                9.1  .46 Ml 2.2         4944845
LPL   001.99 002.0 m E Pg      2012/05/09 07:47:48.6  -1.0                          T                                        4944846
LPL   001.99 002.0 m E Sg      2012/05/09 07:48:15.5   0.1                          T                2.9  .41 Ml 2.1         4944847

.
