EVENT     278524
    Date      Time       Latitude Longitude    Depth    Ndef Nsta Gap    Mag1  N    Mag2  N    Mag3  N   Author         ID
       rms   OT_Error      Smajor Sminor Az        Err   mdist  Mdist     Err        Err        Err      Quality

2012/06/21 18:53:47.5     44.5056    6.8393      2.0      30    8 093  Ml 1.6  5  Md 1.6  1              bulletin    278624
                                                                                                         _ldg
      0.23   +-  0.04        .9     .6   58.69 +-  0.0    0.03   1.20   +-0.3      +-                    m i ke

FRANCE
Sta     Dist  EvAz     Phase      Date       Time     TRes  Azim  AzRes  Slow  SRes Def   SNR       Amp   Per   Mag1   Mag2       ID
MBDF  000.23 347.7 m E Pg      2012/06/21 18:53:52.3   0.1                          T                                        5008716
MBDF  000.23 347.7 m E Sg      2012/06/21 18:53:55.8   0.4                          T                5.1  .18        Md 1.6  5008713
SBF   000.77 146.1 m E Pg      2012/06/21 18:54:02.3   0.1                          T                                        5008981
SBF   000.77 146.1 m E Sg      2012/06/21 18:54:12.4   0.1                          T                 .9  .17                5008980
ORIF  000.80 301.4 m E Pg      2012/06/21 18:54:02.6  -0.1                          T                                        5008703
ORIF  000.80 301.4 m E Sg      2012/06/21 18:54:13.2   0.1                          T                1.5  .21                5008704
FRF   000.95 188.4 m E Pg      2012/06/21 18:54:05.6   0.2                          T                                        5008715
FRF   000.95 188.4 m E Sg      2012/06/21 18:54:18.1   0.3                          T                4.0  .24 Ml 2.1         5008711
LPG   000.99 356.4 m E Pg      2012/06/21 18:54:06.3  -0.2                          T                                        5008707
LPG   000.99 356.4 m E Sg      2012/06/21 18:54:19.3  -0.1                          T                 .8  .20 Ml 1.4         5008705
LPL   001.01 355.7 m E Pg      2012/06/21 18:54:06.7  -0.1                          T                                        5008708
LPL   001.01 355.7 m E Sg      2012/06/21 18:54:19.7  -0.3                          T                  1  .27 Ml 1.4         5008706
SMRF  001.05 240.2 m E Pg      2012/06/21 18:54:07.3   0.1                          T                                        5008710
SMRF  001.05 240.2 m E Sg      2012/06/21 18:54:20.8  -0.1                          T                1.0  .25 Ml 1.4         5008709
LMR   001.20 191.6 m E Pn      2012/06/21 18:54:09.7   0.1                          T                                        5008714
LMR   001.20 191.6 m E Sg      2012/06/21 18:54:25.5   0.1                          T                1.2  .17 Ml 1.8         5008712

.
EVENT     278541
    Date      Time       Latitude Longitude    Depth    Ndef Nsta Gap    Mag1  N    Mag2  N    Mag3  N   Author         ID
       rms   OT_Error      Smajor Sminor Az        Err   mdist  Mdist     Err        Err        Err      Quality

2012/06/21 23:14:16.5     44.5568    7.2615     10.0 f    35    9 126  Ml 1.7  6  Md 1.8  3              bulletin    278641
                                                                                                         _ldg
      0.32   +-  0.07       1.6    1.0   65.07 +-  0.0    0.05   1.87   +-0.2      +-0.1                 m i ke

NORTHERN ITALY
Sta     Dist  EvAz     Phase      Date       Time     TRes  Azim  AzRes  Slow  SRes Def   SNR       Amp   Per   Mag1   Mag2       ID
MBDF  000.39 296.1 m E Pg      2012/06/21 23:14:24.5   0.2                          T                                        5008934
MBDF  000.39 296.1 m E Sg      2012/06/21 23:14:29.3  -0.3                          T                7.9  .26        Md 1.7  5008933
SBF   000.70 169.7 m E Pg      2012/06/21 23:14:30.7   0.8                          T                                        5008918
SBF   000.70 169.7 m E Sg      2012/06/21 23:14:39.4   0.1                          T                 .5  .16        Md 1.8  5008917
LPG   001.01 339.1 m E Pg      2012/06/21 23:14:36.0   0.2                          T                                        5008926
LPG   001.01 339.1 m E Sg      2012/06/21 23:14:48.7  -0.2                          T                2.9  .22 Ml 1.9         5008925
ORIF  001.05 290.6 m E Pg      2012/06/21 23:14:36.3   0.0                          T                                        5008932
ORIF  001.05 290.6 m E Sg      2012/06/21 23:14:49.3  -0.7                          T                 .9  .21 Ml 1.5 Md 1.8  5008922
LPL   001.03 338.8 m E Pg      2012/06/21 23:14:36.3   0.2                          T                                        5008924
LPL   001.03 338.8 m E Sg      2012/06/21 23:14:49.3  -0.3                          T                2.0  .24 Ml 1.7         5008923
FRF   001.09 204.2 m E Pg      2012/06/21 23:14:37.0   0.0                          T                                        5008931
FRF   001.09 204.2 m E Sg      2012/06/21 23:14:51.2   0.1                          T                1.0  .19 Ml 1.6         5008929
SMRF  001.34 245.0 m E Pg      2012/06/21 23:14:41.8   0.1                          T                                        5008928
SMRF  001.34 245.0 m E Sg      2012/06/21 23:14:59.0   0.0                          T                                        5008927
LMR   001.34 204.2 m E Pg      2012/06/21 23:14:41.9   0.4                          T                                        5008930
LMR   001.34 204.2 m E Sg      2012/06/21 23:14:59.6   0.8                          T                 .8  .16 Ml 1.7         5008919
VIVF  001.87 280.1 m E Pn      2012/06/21 23:14:48.0   1.1                          T                                        5008921
VIVF  001.87 280.1 m E Sn      2012/06/21 23:15:11.0   1.9                          T                 .7  .27 Ml 1.6         5008920

.
EVENT     278536
    Date      Time       Latitude Longitude    Depth    Ndef Nsta Gap    Mag1  N    Mag2  N    Mag3  N   Author         ID
       rms   OT_Error      Smajor Sminor Az        Err   mdist  Mdist     Err        Err        Err      Quality

2012/06/22 04:23:49.2     40.2931   -3.8377      2.0      48    4 053  Ml 2.1  6                         bulletin    278636
                                                                                                         _ldg
      0.58   +-  0.08       1.8    1.3  115.71 +-  0.0    0.63   5.74   +-0.2                            m i ke

SPAIN
Sta     Dist  EvAz     Phase      Date       Time     TRes  Azim  AzRes  Slow  SRes Def   SNR       Amp   Per   Mag1   Mag2       ID
SJPF  003.43 033.9 m E Pn      2012/06/22 04:24:41.9   0.2                          T                                        5008942
SJPF  003.43 033.9 m E Sn      2012/06/22 04:25:20.6   0.0                          T                1.2  .20 Ml 2.3         5008939
SJPF  003.43 033.9 m E Sg      2012/06/22 04:25:36.3  -0.4                          T                 .4  .15 Ml 1.9         5008978
ETSF  003.58 042.3 m E Pn      2012/06/22 04:24:43.8   0.0                          T                                        5008941
ETSF  003.58 042.3 m E Sn      2012/06/22 04:25:24.3   0.1                          T                 .5  .21 Ml 1.9         5008938
ETSF  003.58 042.3 m E Sg      2012/06/22 04:25:41.8   0.3                          T                 .5  .18 Ml 2.0         5008979
EPF   004.16 047.5 m E Pn      2012/06/22 04:24:51.5  -0.2                          T                                        5008940
EPF   004.16 047.5 m E Sn      2012/06/22 04:25:38.2   0.3                          T                1.1  .23 Ml 2.4         5008937
EPF   004.16 047.5 m E Sg      2012/06/22 04:25:58.8  -0.6                          T                 .7  .20 Ml 2.3         5008977
LFF   005.74 034.5 m E Pn      2012/06/22 04:25:11.7  -1.5                          T                                        5008936
LFF   005.74 034.5 m E Sn      2012/06/22 04:26:15.4  -0.3                          T                                        5008935

.
EVENT     278566
    Date      Time       Latitude Longitude    Depth    Ndef Nsta Gap    Mag1  N    Mag2  N    Mag3  N   Author         ID
       rms   OT_Error      Smajor Sminor Az        Err   mdist  Mdist     Err        Err        Err      Quality

2012/06/22 06:27:00.7     44.3050    7.4409       .0 f    31    8 115  Ml 2.2  7  Md 2.3  1              bulletin    278666
                                                                                                         _ldg
      0.22   +-  0.04        .9     .6   55.81 +-  0.0    0.08   1.38   +-0.3      +-                    m i km

NORTHERN ITALY
Sta     Dist  EvAz     Phase      Date       Time     TRes  Azim  AzRes  Slow  SRes Def   SNR       Amp   Per   Mag1   Mag2       ID
SBF   000.44 180.5 m E Pg      2012/06/22 06:27:09.4  -0.1                          T                                        5009281
SBF   000.44 180.5 m E Sg      2012/06/22 06:27:16.1   0.6                          T               24.8  .34        Md 2.3  5009280
MBDF  000.64 311.6 m E Pg      2012/06/22 06:27:13.3   0.1                          T                                        5009291
MBDF  000.64 311.6 m E Sg      2012/06/22 06:27:22.7   0.9                          T               16.6  .34                5009290
FRF   000.94 217.9 m E Pg      2012/06/22 06:27:18.4  -0.1                          T                                        5009277
FRF   000.94 217.9 m E Sg      2012/06/22 06:27:31.3   0.3                          T                5.2  .26 Ml 2.1         5009276
LMR   001.18 215.1 m E Pg      2012/06/22 06:27:23.0   0.0                          T                                        5009279
LMR   001.18 215.1 m E Sg      2012/06/22 06:27:38.8   0.3                          T               19.4  .32 Ml 2.7         5009278
LPG   001.29 337.9 m E Pn      2012/06/22 06:27:24.8   0.0                          T                                        5009285
LPG   001.29 337.9 m E Sn      2012/06/22 06:27:41.9   0.0                          T                4.0  .42 Ml 1.9         5009284
LPL   001.31 337.7 m E Pn      2012/06/22 06:27:25.0  -0.1                          T                                        5009287
LPL   001.31 337.7 m E Sn      2012/06/22 06:27:42.5   0.2                          T                5.3  .40 Ml 2.1         5009286
ORIF  001.27 299.4 m E Pg      2012/06/22 06:27:25.1   0.2                          T                                        5009289
ORIF  001.27 299.4 m E Sg      2012/06/22 06:27:41.6   0.1                          T                5.1  .34 Ml 2.1         5009288
SMRF  001.38 256.9 m E Pn      2012/06/22 06:27:25.8   0.0                          T                                        5009283
SMRF  001.38 256.9 m E Sn      2012/06/22 06:27:43.9   0.1                          T               11.0  .43 Ml 2.4         5009282

.
EVENT     278556
    Date      Time       Latitude Longitude    Depth    Ndef Nsta Gap    Mag1  N    Mag2  N    Mag3  N   Author         ID
       rms   OT_Error      Smajor Sminor Az        Err   mdist  Mdist     Err        Err        Err      Quality

2012/06/22 07:13:53.5     43.1112   -1.1373      3.0 f    32    7 103  Ml 2.4  5  Md 2.4  3              bulletin    278656
                                                                                                         _ldg
      0.44   +-  0.08       1.6    1.4  167.32 +-  0.0    0.06   2.94   +-0.2      +-0.2                 m i ke

PYRENEES
Sta     Dist  EvAz     Phase      Date       Time     TRes  Azim  AzRes  Slow  SRes Def   SNR       Amp   Per   Mag1   Mag2       ID
SJPF  000.06 271.9 m E Pg      2012/06/22 07:13:55.4   0.2                          T                                        5009101
SJPF  000.06 271.9 m E Sg      2012/06/22 07:13:56.9   0.5                          T              265.6  .20        Md 2.7  5009098
ETSF  000.47 116.4 m E Pg      2012/06/22 07:14:02.1  -0.5                          T                                        5009100
ETSF  000.47 116.4 m E Sg      2012/06/22 07:14:08.5  -0.4                          T               56.5  .32        Md 2.4  5009097
EPF   001.09 093.8 m E Pg      2012/06/22 07:14:14.1   0.2                          T                                        5009099
EPF   001.09 093.8 m E Sg      2012/06/22 07:14:28.6   0.7                          T               10.4  .22 Ml 2.5 Md 2.3  5009096
LFF   002.27 035.9 m E Pn      2012/06/22 07:14:30.0  -0.1                          T                                        5009093
LFF   002.27 035.9 m E Pg      2012/06/22 07:14:36.2   0.5                          T                                        5023312
LFF   002.27 035.9 m E Sn      2012/06/22 07:14:57.1   0.1                          T                6.3  .26 Ml 2.5         5009092
MTLF  002.46 083.5 m E Pn      2012/06/22 07:14:32.3  -0.4                          T                                        5009095
MTLF  002.46 083.5 m E Sn      2012/06/22 07:15:01.0  -0.6                          T                                        5009094
MTLF  002.46 083.5 m E Sg      2012/06/22 07:15:11.5   0.7                          T                3.1  .35 Ml 2.2         5023308
CAF   002.94 050.8 m E Pn      2012/06/22 07:14:38.8  -0.4                          T                                        5023310
CAF   002.94 050.8 m E Pg      2012/06/22 07:14:48.1   0.1                          T                                        5023309
CAF   002.94 050.8 m E Sg      2012/06/22 07:15:25.2  -0.5                          T                3.0  .24 Ml 2.5         5023313
RJF   002.91 040.1 m E Pg      2012/06/22 07:14:47.4   0.0                          T                                        5023311
RJF   002.91 040.1 m E Sg      2012/06/22 07:15:24.7   0.0                          T                2.5  .24 Ml 2.1         5023314

.
