EVENT     262605
    Date      Time       Latitude Longitude    Depth    Ndef Nsta Gap    Mag1  N    Mag2  N    Mag3  N   Author         ID
       rms   OT_Error      Smajor Sminor Az        Err   mdist  Mdist     Err        Err        Err      Quality

2011/08/16 11:32:50.8     47.6869    5.9798       .0 f    12    7 098  Ml 1.8  4  Md 1.7  1              js067245    262605

      1.04   +-  0.11       2.6    1.8  137.44 +-  0.0    0.40   1.79   +-0.4      +-                    m i km

FRANCE
Sta     Dist  EvAz     Phase      Date       Time     TRes  Azim  AzRes  Slow  SRes Def   SNR       Amp   Per   Mag1   Mag2       ID
HAU   000.40 037.8 m E Pg      2011/08/16 11:32:58.6  -0.3                          T                                        4746361
HAU   000.40 037.8 m E Sg      2011/08/16 11:33:04.0  -0.4                          T               22.3  .66        Md 1.7  4746362
HINF  000.60 077.3 m E Pg      2011/08/16 11:33:02.6   0.1                          T                                        4746351
HINF  000.60 077.3 m E Sg      2011/08/16 11:33:10.3  -0.4                          T                4.6  .22                4746352
CABF  001.08 176.1 m E Pg      2011/08/16 11:33:11.6   0.3                          T                                        4746359
CABF  001.08 176.1 m E Sg      2011/08/16 11:33:25.1  -0.4                          T                5.3  .31 Ml 2.1         4746360
CDF   001.13 049.7 m E Pg      2011/08/16 11:33:12.5   0.1                          T                                        4746355
CDF   001.13 049.7 m E Sg      2011/08/16 11:33:27.4   0.2                          T                3.0  .37 Ml 1.9         4746358
SFTF  000.82 309.7 m E Sg      2011/08/16 11:33:17.5   0.2 130.3  1.3               T                7.1  .36                4746353
PAGF  000.89 349.0 m E Sg      2011/08/16 11:33:19.8   0.4 181.9  13.1              T                 .7  .24 Ml 1.2         4746354
SSF   001.79 250.5 m E Pg      2011/08/16 11:33:24.3  -0.1                          T                                        4746356
SSF   001.79 250.5 m E Sg      2011/08/16 11:33:47.6  -0.2                          T                 .8  .21 Ml 1.8         4746357

.
EVENT     262606
    Date      Time       Latitude Longitude    Depth    Ndef Nsta Gap    Mag1  N    Mag2  N    Mag3  N   Author         ID
       rms   OT_Error      Smajor Sminor Az        Err   mdist  Mdist     Err        Err        Err      Quality

2011/08/16 13:16:59.6     44.6168    6.7131      2.0       9    4 152  Ml 1.3  1  Md 1.1  2              js067245    262606

      0.25   +-  0.12       2.6    2.1   43.28 +-  0.0    0.12   0.91   +-         +-0.3                 m i ke

FRANCE
Sta     Dist  EvAz     Phase      Date       Time     TRes  Azim  AzRes  Slow  SRes Def   SNR       Amp   Per   Mag1   Mag2       ID
MBDF  000.12 020.7 m E Pg      2011/08/16 13:17:02.6   0.2                          T                                        4738700
MBDF  000.12 020.7 m E Sg      2011/08/16 13:17:04.0  -0.1                          T               29.8  .18        Md 1.3  4738701
ORIF  000.67 297.2 m E Pg      2011/08/16 13:17:12.6   0.3                          T                                        4738697
ORIF  000.67 297.2 m E Sg      2011/08/16 13:17:20.7  -0.4                          T                1.2  .18        Md 1.0  4738699
LPL   000.90 000.9 m E Pg      2011/08/16 13:17:16.8  -0.1                          T                                        4738696
LPL   000.90 000.9 m E Sg      2011/08/16 13:17:28.1  -0.4                          T                 .6  .18 Ml 1.3         4738695
SBF   000.91 145.2 m E Pg      2011/08/16 13:17:16.8  -0.1                          T                                        4738698

.
EVENT     262607
    Date      Time       Latitude Longitude    Depth    Ndef Nsta Gap    Mag1  N    Mag2  N    Mag3  N   Author         ID
       rms   OT_Error      Smajor Sminor Az        Err   mdist  Mdist     Err        Err        Err      Quality

2011/08/16 19:38:00.2     47.2981    6.6702     15.0      15    6 190  Ml 1.5  3  Md 1.5  3              js067245    262607

      0.34   +-  0.15       3.9    1.9  117.73 +-  0.0    0.53   1.91   +-0.1      +-0.1                 m i ke

FRANCE
Sta     Dist  EvAz     Phase      Date       Time     TRes  Azim  AzRes  Slow  SRes Def   SNR       Amp   Per   Mag1   Mag2       ID
HINF  000.53 013.4 m E Pg      2011/08/16 19:38:10.4  -0.3                          T                                        4746365
HINF  000.53 013.4 m E Pn      2011/08/16 19:38:11.0  -0.8                          T                                        4738712
HINF  000.53 013.4 m E Sg      2011/08/16 19:38:17.6  -0.3                          T                 .9  .22        Md 1.6  4738710
HAU   000.74 343.0 m E Pg      2011/08/16 19:38:14.2  -0.2                          T                                        4746364
HAU   000.74 343.0 m E Pn      2011/08/16 19:38:14.9   0.2                          T                                        4738713
HAU   000.74 343.0 m E Sg      2011/08/16 19:38:24.6   0.4                          T                3.9  .24        Md 1.5  4738709
CABF  000.79 210.4 m E Pg      2011/08/16 19:38:15.7   0.2                          T                                        4738711
CABF  000.79 210.4 m E Sg      2011/08/16 19:38:25.7  -0.2                          T                 .7  .22        Md 1.4  4738708
THEF  001.04 334.1 m E Pg      2011/08/16 19:38:20.0   0.3                          T                                        4738706
THEF  001.04 334.1 m E Sg      2011/08/16 19:38:34.0   0.7                          T                  1  .16 Ml 1.6         4738707
CDF   001.19 019.9 m E Pn      2011/08/16 19:38:21.1   0.3                          T                                        4746363
CDF   001.19 019.9 m E Pg      2011/08/16 19:38:22.3  -0.3                          T                                        4738705
CDF   001.19 019.9 m E Sg      2011/08/16 19:38:38.2   0.1                          T                 .7  .25 Ml 1.5         4738704
LOR   001.91 270.1 m E Pg      2011/08/16 19:38:35.7  -0.1                          T                                        4738702
LOR   001.91 270.1 m E Sg      2011/08/16 19:38:59.8  -0.8                          T                 .5  .23 Ml 1.5         4738703

.
EVENT     262608
    Date      Time       Latitude Longitude    Depth    Ndef Nsta Gap    Mag1  N    Mag2  N    Mag3  N   Author         ID
       rms   OT_Error      Smajor Sminor Az        Err   mdist  Mdist     Err        Err        Err      Quality

2011/08/16 23:45:44.1     45.2590    6.5112      2.0       9    4 197  Ml 1.4  1  Md 1.3  3              js067245    262608

      0.28   +-  0.17       9.1    1.3  137.37 +-  0.0    0.29   1.36   +-         +-0.0                 m i ke

FRANCE
Sta     Dist  EvAz     Phase      Date       Time     TRes  Azim  AzRes  Slow  SRes Def   SNR       Amp   Per   Mag1   Mag2       ID
LPL   000.30 031.1 m E Pg      2011/08/16 23:45:49.9  -0.4                          T                                        4738722
LPL   000.30 031.1 m E Sg      2011/08/16 23:45:54.1  -0.2                          T                2.0  .19        Md 1.4  4738718
LPG   000.29 035.3 m E Pg      2011/08/16 23:45:49.9  -0.3                          T                                        4738721
LPG   000.29 035.3 m E Sg      2011/08/16 23:45:54.2   0.0                          T                1.7  .20        Md 1.3  4738717
ORIF  000.56 232.9 m E Pg      2011/08/16 23:45:55.0   0.1                          T                                        4738720
ORIF  000.56 232.9 m E Sg      2011/08/16 23:46:02.1  -0.2                          T                1.8  .19        Md 1.3  4738719
VIVF  001.36 253.5 m E Pg      2011/08/16 23:46:09.1  -0.5                          T                                        4738715
VIVF  001.36 253.5 m E Sg      2011/08/16 23:46:27.3   0.1                          T                 .6  .24 Ml 1.4         4738716

.

DATA_TYPE ARRIVAL
Sta     Dist  EvAz     Phase      Date       Time     TRes  Azim  AzRes  Slow  SRes Def   SNR       Amp   Per   Mag1   Mag2       ID

STOP
