EVENT     288161
    Date      Time       Latitude Longitude    Depth    Ndef Nsta Gap    Mag1  N    Mag2  N    Mag3  N   Author         ID
       rms   OT_Error      Smajor Sminor Az        Err   mdist  Mdist     Err        Err        Err      Quality

2012/12/08 15:43:01.1     43.0007    -.0103      2.0      44    8 083  Ml 2.1  5                         bulletin    288261
                                                                                                         _ldg
      0.53   +-  0.07       1.3    1.1   25.55 +-  0.0    0.10   4.10   +-0.3                            m i ke

PYRENEES
Sta     Dist  EvAz     Phase      Date       Time     TRes  Azim  AzRes  Slow  SRes Def   SNR       Amp   Per   Mag1   Mag2       ID
EPF   000.26 083.3 m E Pg      2012/12/08 15:43:05.8  -0.5                          T                                        5133611
EPF   000.26 083.3 m E Sg      2012/12/08 15:43:09.9   0.0                          T                                        5133607
ETSF  000.42 256.0 m E Pg      2012/12/08 15:43:09.2  -0.1                          T                                        5133610
ETSF  000.42 256.0 m E Sg      2012/12/08 15:43:14.8   0.1                          T                                        5133606
SJPF  000.90 277.6 m E Pg      2012/12/08 15:43:18.3   0.3                          T                                        5134119
SJPF  000.90 277.6 m E Sg      2012/12/08 15:43:29.8   0.2                          T                2.0  .23 Ml 1.7         5133605
MTLF  001.66 077.5 m E Pg      2012/12/08 15:43:31.7  -0.4                          T                                        5133609
MTLF  001.66 077.5 m E Sg      2012/12/08 15:43:53.6   0.0                          T                1.7  .21 Ml 2.0         5133608
LFF   002.01 015.4 m E Pn      2012/12/08 15:43:34.7   0.4                          T                                        5134118
LFF   002.01 015.4 m E Pg      2012/12/08 15:43:38.6   0.1                          T                                        5134117
LFF   002.01 015.4 m E Sn      2012/12/08 15:43:58.7   0.1                          T                                        5134116
LFF   002.01 015.4 m E Sg      2012/12/08 15:44:04.7   0.2                          T                6.9  .38 Ml 2.3         5134115
CAF   002.44 037.2 m E Pn      2012/12/08 15:43:40.4   0.2                          T                                        5134114
CAF   002.44 037.2 m E Pg      2012/12/08 15:43:46.4  -0.1                          T                                        5134113
CAF   002.44 037.2 m E Sn      2012/12/08 15:44:08.9   0.0                          T                                        5134112
CAF   002.44 037.2 m E Sg      2012/12/08 15:44:17.2  -0.6                          T                2.4  .24 Ml 2.3         5134111
RJF   002.55 025.0 m E Pn      2012/12/08 15:43:41.8   0.1                          T                                        5134110
RJF   002.55 025.0 m E Pg      2012/12/08 15:43:48.5   0.0                          T                                        5134109
RJF   002.55 025.0 m E Sn      2012/12/08 15:44:11.4  -0.1                          T                                        5134108
RJF   002.55 025.0 m E Sg      2012/12/08 15:44:20.9  -0.4                          T                1.4  .17 Ml 1.9         5134107
BGF   004.10 028.8 m E Pn      2012/12/08 15:44:03.5   0.8                          T                                        5134106

.
EVENT     288162
    Date      Time       Latitude Longitude    Depth    Ndef Nsta Gap    Mag1  N    Mag2  N    Mag3  N   Author         ID
       rms   OT_Error      Smajor Sminor Az        Err   mdist  Mdist     Err        Err        Err      Quality

2012/12/08 16:24:37.7     42.7661     .5977      2.0       8    3 215  Ml 1.9  3  Md 1.9  2              bulletin    288262
                                                                                                         _ldg
      0.58   +-  0.26       7.3    2.3  179.71 +-  0.0    0.32   1.32   +-0.2      +-0.1                 m i ke

PYRENEES
Sta     Dist  EvAz     Phase      Date       Time     TRes  Azim  AzRes  Slow  SRes Def   SNR       Amp   Per   Mag1   Mag2       ID
EPF   000.32 324.4 m E Pg      2012/12/08 16:24:43.9  -0.1                          T                                Md 2.0  5133616
EPF   000.32 324.4 m E Sg      2012/12/08 16:24:48.8   0.4                          T                2.6  .18                5133612
ETSF  000.86 279.2 m E Pg      2012/12/08 16:24:54.3   0.3                          T                                Md 1.8  5133615
ETSF  000.86 279.2 m E Sg      2012/12/08 16:25:04.0  -1.2                          T                2.0  .21 Ml 1.7         5133614
MTLF  001.32 063.6 m E Pg      2012/12/08 16:25:02.2  -0.1                          T                                        5133617
MTLF  001.32 063.6 m E Sg      2012/12/08 16:25:18.9  -0.5                          T                2.0  .19 Ml 2.0         5133613

.
EVENT     288182
    Date      Time       Latitude Longitude    Depth    Ndef Nsta Gap    Mag1  N    Mag2  N    Mag3  N   Author         ID
       rms   OT_Error      Smajor Sminor Az        Err   mdist  Mdist     Err        Err        Err      Quality

2012/12/08 23:30:29.0     44.5194    6.6347      2.0      23    8 071  Ml 1.2  6  Md 1.2  1              bulletin    288282
                                                                                                         _ldg
      0.60   +-  0.08       1.7    1.3  100.20 +-  0.0    0.13   1.19   +-0.3      +-                    m i ke

FRANCE
Sta     Dist  EvAz     Phase      Date       Time     TRes  Azim  AzRes  Slow  SRes Def   SNR       Amp   Per   Mag1   Mag2       ID
MBDF  000.23 025.2 m E Pg      2012/12/08 23:30:33.4  -0.3                          T                                        5134200
MBDF  000.23 025.2 m E Sg      2012/12/08 23:30:37.0   0.1                          T                1.9  .27        Md 1.2  5134199
ORIF  000.67 306.8 m E Pg      2012/12/08 23:30:41.7   0.0                          T                                        5134198
ORIF  000.67 306.8 m E Sg      2012/12/08 23:30:50.0  -0.5                          T                                        5134197
SBF   000.87 138.4 m E Pg      2012/12/08 23:30:45.6   0.1                          T                                        5134186
SBF   000.87 138.4 m E Sg      2012/12/08 23:30:56.9   0.0                          T                 .6  .16 Ml 1.3         5134185
SMRF  000.94 234.9 m E Pg      2012/12/08 23:30:46.4  -0.1                          T                                        5134192
SMRF  000.94 234.9 m E Sg      2012/12/08 23:30:58.1  -0.6                          T                 .6  .23 Ml 1.2         5134187
FRF   000.96 179.5 m E Pg      2012/12/08 23:30:47.1   0.1                          T                                        5134194
FRF   000.96 179.5 m E Sg      2012/12/08 23:30:59.2  -0.2                          T                 .9  .16 Ml 1.6         5134193
LPG   000.98 004.8 m E Pg      2012/12/08 23:30:47.5  -0.3                          T                                        5134196
LPG   000.98 004.8 m E Sg      2012/12/08 23:31:00.4  -0.1                          T                 .2  .15 Ml  .9         5134195
LPL   001.00 003.9 m E Pg      2012/12/08 23:30:48.0   0.0                          T                                        5134189
LPL   001.00 003.9 m E Sg      2012/12/08 23:31:00.9   0.0                          T                 .1  .17 Ml  .7         5134188
LMR   001.19 184.4 m E Pg      2012/12/08 23:30:51.2   0.1                          T                                        5134191
LMR   001.19 184.4 m E Sg      2012/12/08 23:31:06.1  -0.5                          T                 .4  .17 Ml 1.3         5134184

.
EVENT     288181
    Date      Time       Latitude Longitude    Depth    Ndef Nsta Gap    Mag1  N    Mag2  N    Mag3  N   Author         ID
       rms   OT_Error      Smajor Sminor Az        Err   mdist  Mdist     Err        Err        Err      Quality

2012/12/08 23:46:16.1     44.5155    6.6608      2.0      19    6 120  Ml 1.4  4  Md 1.5  1              bulletin    288281
                                                                                                         _ldg
      0.35   +-  0.07       1.6    1.1   80.71 +-  0.0    0.11   1.19   +-0.2      +-                    m i ke

FRANCE
Sta     Dist  EvAz     Phase      Date       Time     TRes  Azim  AzRes  Slow  SRes Def   SNR       Amp   Per   Mag1   Mag2       ID
MBDF  000.23 020.5 m E Pg      2012/12/08 23:46:20.6  -0.2                          T                                        5134213
MBDF  000.23 020.5 m E Sg      2012/12/08 23:46:24.3   0.5                          T                1.3  .19        Md 1.5  5134212
ORIF  000.69 306.2 m E Pg      2012/12/08 23:46:29.0  -0.2                          T                                        5134211
ORIF  000.69 306.2 m E Sg      2012/12/08 23:46:38.1  -0.1                          T                 .7  .18                5134210
SBF   000.86 139.2 m E Pg      2012/12/08 23:46:32.4   0.1                          T                                        5134203
SBF   000.86 139.2 m E Sg      2012/12/08 23:46:43.5   0.1                          T                 .5  .14 Ml 1.3         5134202
FRF   000.95 180.6 m E Pg      2012/12/08 23:46:34.3   0.3                          T                                        5134207
FRF   000.95 180.6 m E Sg      2012/12/08 23:46:46.2  -0.2                          T                1.3  .18 Ml 1.7         5134206
LPG   000.98 003.7 m E Pg      2012/12/08 23:46:35.1   0.2                          T                                        5134209
LPG   000.98 003.7 m E Sg      2012/12/08 23:46:47.7   0.0                          T                 .5  .19 Ml 1.2         5134208
LMR   001.19 185.4 m E Pg      2012/12/08 23:46:38.1  -0.2                          T                                        5134205
LMR   001.19 185.4 m E Sg      2012/12/08 23:46:53.5  -0.1                          T                 .6  .19 Ml 1.4         5134204

.
EVENT     288176
    Date      Time       Latitude Longitude    Depth    Ndef Nsta Gap    Mag1  N    Mag2  N    Mag3  N   Author         ID
       rms   OT_Error      Smajor Sminor Az        Err   mdist  Mdist     Err        Err        Err      Quality

2012/12/09 00:21:19.1     51.6104   16.1774      1.0 f   143   22 044  Ml 4.2 18                         bulletin    288276
                                                                                                         _ldg
      1.73   +-  0.24       6.6    4.1    1.75 +-  0.0    0.77  59.78   +-0.2                            m i sr

POLAND
Sta     Dist  EvAz     Phase      Date       Time     TRes  Azim  AzRes  Slow  SRes Def   SNR       Amp   Per   Mag1   Mag2       ID
CDF   006.57 244.3 m E Pn      2012/12/09 00:22:55.6   1.1                          T                                        5133968
CDF   006.57 244.3 m E Pg      2012/12/09 00:23:22.2   1.6                          T                                        5133967
CDF   006.57 244.3 m E Sg      2012/12/09 00:24:45.6   0.8                          T              153.9  .96 Ml 4.5         5133965
HINF  007.14 241.5 m E Pn      2012/12/09 00:23:02.2  -0.1                          T                                        5133962
HINF  007.14 241.5 m E Pg      2012/12/09 00:23:34.5   3.5                          T                                        5133961
HINF  007.14 241.5 m E Sg      2012/12/09 00:25:02.5   0.0                          T               67.6  .78 Ml 4.2         5133958
HAU   007.31 244.3 m E Pn      2012/12/09 00:23:05.0   0.4                          T                                        5133947
HAU   007.31 244.3 m E Pg      2012/12/09 00:23:35.1   0.9                          T                                        5133948
HAU   007.31 244.3 m E Sn      2012/12/09 00:24:22.4  -1.0                          T                                        5133946
HAU   007.31 244.3 m E Sg      2012/12/09 00:25:09.6   1.8                          T               54.4  .66 Ml 4.0         5133949
PAGF  007.39 249.6 m E Pn      2012/12/09 00:23:06.5   0.9                          T                                        5133964
PAGF  007.39 249.6 m E Sg      2012/12/09 00:25:10.7   0.5                          T               38.1  .73 Ml 4.0         5133954
BAIF  007.74 263.1 m E Pn      2012/12/09 00:23:11.2   0.9                          T                                        5133969
BAIF  007.74 263.1 m E Sg      2012/12/09 00:25:22.4   1.3                          T               52.0  .98 Ml 4.1         5133952
MEZF  007.81 250.9 m E Pn      2012/12/09 00:23:12.3   1.0                          T                                        5133963
MEZF  007.81 250.9 m E Pg      2012/12/09 00:23:45.4   2.2                          T                                        5133959
MEZF  007.81 250.9 m E Sg      2012/12/09 00:25:24.5   1.2                          T               75.0 1.09 Ml 4.2         5133955
SFTF  007.96 249.0 m E Pn      2012/12/09 00:23:14.1   0.7                          T                                        5133942
SFTF  007.96 249.0 m E Pg      2012/12/09 00:23:46.9   0.9                          T                                        5133960
SFTF  007.96 249.0 m E Sn      2012/12/09 00:24:38.2  -0.6                          T                                        5133957
SFTF  007.96 249.0 m E Sg      2012/12/09 00:25:29.1   1.2                          T               37.5  .83 Ml 4.1         5133956
LPL   008.74 229.4 m E Pn      2012/12/09 00:23:24.2  -0.1                          T                                        5133932
LPL   008.74 229.4 m E Pg      2012/12/09 00:24:01.3   0.6                          T                                        5133931
LPL   008.74 229.4 m E Sn      2012/12/09 00:24:57.3  -0.4                          T                                        5133911
LPL   008.74 229.4 m E Sg      2012/12/09 00:25:52.7   0.1                          T               11.7  .91 Ml 3.6         5133929
LPG   008.74 229.3 m E Pn      2012/12/09 00:23:24.7   0.3                          T                                        5133934
LPG   008.74 229.3 m E Pg      2012/12/09 00:24:02.0   1.2                          T                                        5133933
LPG   008.74 229.3 m E Sg      2012/12/09 00:25:53.4   0.6                          T              120.5 1.40 Ml 4.5         5133928
LOR   009.12 246.4 m E Pn      2012/12/09 00:23:29.3   0.0  65.8  8.7               T                                        5133970
LOR   009.12 246.4 m E Pg      2012/12/09 00:24:08.9   1.3                          T                                        5133943
LOR   009.12 246.4 m E Sn      2012/12/09 00:25:05.7  -1.0                          T                                        5133944
LOR   009.12 246.4 m E Sg      2012/12/09 00:26:05.0   0.6  66.1  9.1               T               22.3  .80 Ml 4.0         5133951
MBDF  009.32 226.0 m E Pn      2012/12/09 00:23:32.7   0.6                          T                                        5133916
MBDF  009.32 226.0 m E Pg      2012/12/09 00:24:13.4   2.1                          T                                        5133915
SSF   009.44 246.1 m E Pn      2012/12/09 00:23:33.5   0.0                          T                                        5133971
SSF   009.44 246.1 m E Pg      2012/12/09 00:24:14.7   1.4                          T                                        5133945
SSF   009.44 246.1 m E Sg      2012/12/09 00:26:15.0   0.7                          T               19.1  .85 Ml 4.1         5133950
SMF   009.49 243.2 m E Pn      2012/12/09 00:23:34.2   0.0                          T                                        5133917
SMF   009.49 243.2 m E Pg      2012/12/09 00:24:15.0   0.8                          T                                        5133938
SMF   009.49 243.2 m E Sn      2012/12/09 00:25:14.3  -1.1                          T                                        5133923
SMF   009.49 243.2 m E Sg      2012/12/09 00:26:16.4   0.6                          T               32.3  .84 Ml 4.2         5133924
GIVF  007.35 262.6 m E Pg      2012/12/09 00:23:35.9   1.1                          T                                        5133966
GIVF  007.35 262.6 m E Sg      2012/12/09 00:25:08.9   0.0                          T               69.3  .99 Ml 4.2         5133953
ORIF  009.58 229.7 m E Pn      2012/12/09 00:23:37.0   1.4                          T                                        5133914
ORIF  009.58 229.7 m E Pg      2012/12/09 00:24:16.8   0.7                          T                                        5133913
ORIF  009.58 229.7 m E Sn      2012/12/09 00:25:17.3  -0.5                          T                                        5133912
ORIF  009.58 229.7 m E Sg      2012/12/09 00:26:19.5   0.6                          T               59.6 1.20 Ml 4.4         5133919
AVF   009.68 245.1 m E Pn      2012/12/09 00:23:37.1   0.3                          T                                        5133918
AVF   009.68 245.1 m E Pg      2012/12/09 00:24:18.3   0.6                          T                                        5133937
AVF   009.68 245.1 m E Sn      2012/12/09 00:25:18.5  -1.4                          T                                        5133921
AVF   009.68 245.1 m E Sg      2012/12/09 00:26:22.4   0.7                          T               26.2  .84 Ml 4.2         5133922
SBF   009.73 220.6 m E Pn      2012/12/09 00:23:37.4  -0.2                          T                                        5133930
BGF   010.10 245.2 m E Pn      2012/12/09 00:23:42.3  -0.2                          T                                        5133936
BGF   010.10 245.2 m E Pg      2012/12/09 00:24:27.2   1.7                          T                                        5133935
BGF   010.10 245.2 m E Sg      2012/12/09 00:26:35.5   0.7                          T               30.6  .82 Ml 4.3         5133927
CABF  008.29 236.8 m E Pg      2012/12/09 00:23:52.4   0.0                          T                                        5133941
CABF  008.29 236.8 m E Sg      2012/12/09 00:25:41.7   3.1                          T               60.1  .84 Ml 4.3         5133940
FLN   011.06 261.6 m E Pn      2012/12/09 00:23:55.5   0.0                          T                                        5133939
HYF   009.83 249.1 m E Sn      2012/12/09 00:25:22.2  -1.3                          T                                        5133925
HYF   009.83 249.1 m E Sg      2012/12/09 00:26:27.9   1.5                          T                                        5133926
TCF   010.61 245.3 m E Sg      2012/12/09 00:26:51.9   1.0                          T               34.2 1.10 Ml 4.4         5133920

.
