EVENT     266196
    Date      Time       Latitude Longitude    Depth    Ndef Nsta Gap    Mag1  N    Mag2  N    Mag3  N   Author         ID
       rms   OT_Error      Smajor Sminor Az        Err   mdist  Mdist     Err        Err        Err      Quality

2011/11/11 11:50:05.9     48.2985    7.6460      9.0 f    61   19 020  Ml 2.7 14  Md 2.8  2              js067245    266216

      0.71   +-  0.04        .9     .9  154.31 +-  0.0    0.27   4.21   +-0.3      +-0.1                 m i ke

FRANCE
Sta     Dist  EvAz     Phase      Date       Time     TRes  Azim  AzRes  Slow  SRes Def   SNR       Amp   Per   Mag1   Mag2       ID
CDF   000.27 294.9 m E Pg      2011/11/11 11:50:11.1  -0.4                          T                                        4786157
CDF   000.27 294.9 m E Sg      2011/11/11 11:50:14.8  -0.5                          T               57.5  .18        Md 2.9  4786153
LANF  000.69 008.7 m E Pg      2011/11/11 11:50:18.9  -0.2                          T                                        4786156
LANF  000.69 008.7 m E Pn      2011/11/11 11:50:20.3   0.0                          T                                        4786670
LANF  000.69 008.7 m E Sg      2011/11/11 11:50:28.1   0.0                          T              102.0  .48        Md 2.8  4786152
HINF  000.72 228.1 m E Pg      2011/11/11 11:50:19.2  -0.4                          T                                        4786154
HINF  000.72 228.1 m E Pn      2011/11/11 11:50:20.9   0.2                          T                                        4786664
HINF  000.72 228.1 m E Sg      2011/11/11 11:50:29.0   0.0                          T               36.7  .20                4786171
HAU   000.92 251.8 m E Pg      2011/11/11 11:50:22.9  -0.3                          T                                        4786155
HAU   000.92 251.8 m E Sg      2011/11/11 11:50:35.2   0.0                          T                                        4786661
HAU   000.92 251.8 m E Sn      2011/11/11 11:50:36.3   0.3                          T               26.6  .18 Ml 2.7         4786172
THEF  001.11 267.0 m E Pn      2011/11/11 11:50:25.9  -0.1                          T                                        4786665
THEF  001.11 267.0 m E Pg      2011/11/11 11:50:26.7   0.1                          T                                        4786144
THEF  001.11 267.0 m E P       2011/11/11 11:50:28.7   1.0                          T                                        4786666
THEF  001.11 267.0 m E Sg      2011/11/11 11:50:41.1   0.1                          T               30.5  .21 Ml 3.0         4786145
PAGF  001.30 282.1 m E Pn      2011/11/11 11:50:28.9   0.3                          T                                        4786669
PAGF  001.30 282.1 m E Pg      2011/11/11 11:50:30.4   0.1 105.5  4.9               T                                        4786149
PAGF  001.30 282.1 m E Sg      2011/11/11 11:50:47.4   0.2  99.9  -0.7              T                7.9  .22 Ml 2.5         4786148
RUP   001.46 344.9 m E Pg      2011/11/11 11:50:33.0  -0.1                          T                                        4786150
RUP   001.46 344.9 m E Sn      2011/11/11 11:50:48.7  -0.2                          T                                        4786660
RUP   001.46 344.9 m E Sg      2011/11/11 11:50:52.1   0.1                          T                                        4786151
MEZF  001.74 277.7 m E Pn      2011/11/11 11:50:34.4  -0.2                          T                                        4786668
MEZF  001.74 277.7 m E Pg      2011/11/11 11:50:38.1  -0.2  87.3  -8.5              T                                        4786142
MEZF  001.74 277.7 m E Sg      2011/11/11 11:51:00.7  -0.1                          T                7.5  .16 Ml 2.8         4786147
SFTF  001.75 267.9 m E Pn      2011/11/11 11:50:34.6   0.0                          T                                        4786667
SFTF  001.75 267.9 m E Pg      2011/11/11 11:50:38.5   0.1  94.6  8.6               T                                        4786143
SFTF  001.75 267.9 m E Sg      2011/11/11 11:51:01.4   0.5                          T               18.6  .18 Ml 3.2         4786146
CABF  001.99 212.6 m E Pn      2011/11/11 11:50:38.2   0.1                          T                                        4786184
CABF  001.99 212.6 m E Pg      2011/11/11 11:50:43.3   0.2                          T                                        4786185
CABF  001.99 212.6 m E Sg      2011/11/11 11:51:09.3   0.6                          T               20.6  .68 Ml 2.7         4786170
BAIF  002.86 309.3 m E Pn      2011/11/11 11:50:46.8  -3.0                          T                                        4786671
BAIF  002.86 309.3 m E Pg      2011/11/11 11:50:58.9   0.0                          T                                        4786174
BAIF  002.86 309.3 m E Sg      2011/11/11 11:51:34.8  -1.0                          T                1.2  .21 Ml 2.1         4786659
LOR   002.75 249.4 m E Pn      2011/11/11 11:50:48.1  -0.3                          T                                        4786673
LOR   002.75 249.4 m E Pg      2011/11/11 11:50:57.2   0.3  67.1  0.4               T                                        4786141
LOR   002.75 249.4 m E Sg      2011/11/11 11:51:32.5   0.1  78.3  11.7              T                6.7  .26 Ml 2.8         4786178
SMF   003.07 238.8 m E Pn      2011/11/11 11:50:51.3  -1.3                          T                                        4786662
SMF   003.07 238.8 m E Pg      2011/11/11 11:51:03.1   0.4                          T                                        4786182
SMF   003.07 238.8 m E Sg      2011/11/11 11:51:42.8   0.7                          T                5.8  .22 Ml 2.9         4786168
SSF   003.06 247.7 m E Pn      2011/11/11 11:50:52.0  -0.5                          T                                        4786672
SSF   003.06 247.7 m E Pg      2011/11/11 11:51:02.9   0.3                          T                                        4786140
SSF   003.06 247.7 m E Sg      2011/11/11 11:51:41.9   0.0                          T                4.2  .24 Ml 2.8         4786177
GIVF  002.59 315.3 m E Pg      2011/11/11 11:50:53.4  -0.5                          T                                        4786175
GIVF  002.59 315.3 m E Sg      2011/11/11 11:51:27.0  -0.1                          T                3.6  .27 Ml 2.5         4786658
AVF   003.28 244.2 m E Pn      2011/11/11 11:50:57.3   1.8                          T                                        4786663
AVF   003.28 244.2 m E Pg      2011/11/11 11:51:07.0   0.5                          T                                        4786183
AVF   003.28 244.2 m E Sg      2011/11/11 11:51:48.1  -0.6                          T                1.1  .20 Ml 2.2         4786169
HYF   003.53 254.9 m E Pg      2011/11/11 11:51:11.5   0.3                          T                                        4786181
BGF   003.69 243.7 m E Pg      2011/11/11 11:51:14.2  -0.1                          T                                        4786166
BGF   003.69 243.7 m E Sg      2011/11/11 11:52:01.6  -0.1                          T                5.8  .32 Ml 2.8         4786167
TCF   004.21 243.5 m E Pg      2011/11/11 11:51:23.7  -0.1                          T                                        4786176
TCF   004.21 243.5 m E Sg      2011/11/11 11:52:17.7  -0.1                          T                2.1  .32 Ml 2.6         4786173

.
EVENT     266197
    Date      Time       Latitude Longitude    Depth    Ndef Nsta Gap    Mag1  N    Mag2  N    Mag3  N   Author         ID
       rms   OT_Error      Smajor Sminor Az        Err   mdist  Mdist     Err        Err        Err      Quality

2011/11/11 15:26:21.2     46.2337    6.9706       .0 f    22   10 063  Ml 2.3  6  Md 2.2  3              js067245    266217

      0.29   +-  0.04       1.0     .6  111.47 +-  0.0    0.09   3.08   +-0.2      +-0.0                 m i km

SWITZERLAND
Sta     Dist  EvAz     Phase      Date       Time     TRes  Azim  AzRes  Slow  SRes Def   SNR       Amp   Per   Mag1   Mag2       ID
LPL   000.74 193.1 m E Pg      2011/11/11 15:26:35.7   0.0                          T                                        4786315
LPL   000.74 193.1 m E Sg      2011/11/11 15:26:45.7   0.2                          T                6.7  .35        Md 2.2  4786310
LPG   000.75 191.8 m E Pg      2011/11/11 15:26:36.1   0.1                          T                                        4786314
LPG   000.75 191.8 m E Pn      2011/11/11 15:26:38.1   0.0                          T                                        4786307
LPG   000.75 191.8 m E Sg      2011/11/11 15:26:46.0   0.0                          T                8.3  .46        Md 2.2  4786308
CABF  000.72 302.0 m E P       2011/11/11 15:26:36.5   0.0                          T                                        4786305
MBDF  001.51 185.4 m E Pg      2011/11/11 15:26:50.0   0.2                          T                                        4786312
MBDF  001.51 185.4 m E Sg      2011/11/11 15:27:09.6   0.0                          T                7.1  .46 Ml 2.2 Md 2.2  4786311
ORIF  001.52 210.6 m E Pg      2011/11/11 15:26:50.1   0.1                          T                                        4786313
ORIF  001.52 210.6 m E Sg      2011/11/11 15:27:11.2   1.3                          T               17.7  .58 Ml 2.5         4786721
HINF  001.59 357.1 m E Sg      2011/11/11 15:27:12.0   0.3                          T                2.3  .27 Ml 2.0         4786306
HAU   001.82 346.7 m E Sg      2011/11/11 15:27:19.0  -0.1                          T                5.3  .38 Ml 2.1         4786304
VIVF  002.12 230.4 m E Sg      2011/11/11 15:27:28.5   0.0                          T               10.3  .46 Ml 2.6         4786309
SMF   002.20 281.9 m E Sg      2011/11/11 15:27:30.5  -0.5                          T                2.6  .29 Ml 2.2         4786303
LASF  003.08 226.7 m E Sg      2011/11/11 15:27:58.4   0.0                          T                                        4786302

.
EVENT     266191
    Date      Time       Latitude Longitude    Depth    Ndef Nsta Gap    Mag1  N    Mag2  N    Mag3  N   Author         ID
       rms   OT_Error      Smajor Sminor Az        Err   mdist  Mdist     Err        Err        Err      Quality

2011/11/11 19:57:35.2     42.9750    -.1851     25.0      21    5 156  Ml 1.6  2  Md 1.7  3              js067245    266211

      0.31   +-  0.09       3.0    1.2  155.90 +-  0.0    0.29   2.07   +-0.0      +-0.1                 m i ke

PYRENEES
Sta     Dist  EvAz     Phase      Date       Time     TRes  Azim  AzRes  Slow  SRes Def   SNR       Amp   Per   Mag1   Mag2       ID
ETSF  000.29 254.6 m E Pg      2011/11/11 19:57:42.3   0.1                          T                                        4786323
ETSF  000.29 254.6 m E Sg      2011/11/11 19:57:46.1  -0.9                          T               13.2  .26        Md 1.8  4786320
EPF   000.39 081.7 m E Pg      2011/11/11 19:57:43.9   0.1                          T                                        4786322
EPF   000.39 081.7 m E Sg      2011/11/11 19:57:49.5  -0.2                          T                7.0  .24        Md 1.6  4786321
SJPF  000.77 280.6 m E Pg      2011/11/11 19:57:50.5   0.2                          T                                        4786316
SJPF  000.77 280.6 m E Sg      2011/11/11 19:58:00.7  -0.1                          T                1.9  .28        Md 1.6  4786319
LFF   002.07 018.5 m E Pg      2011/11/11 19:58:14.0   0.2                          T                                        4786317
LFF   002.07 018.5 m E Sg      2011/11/11 19:58:40.6  -0.1                          T                 .9  .24 Ml 1.6         4786318
MTLF  001.80 077.4 m E Sg      2011/11/11 19:58:32.1   0.0                          T                 .5  .21 Ml 1.6         4786729

.
EVENT     266229
    Date      Time       Latitude Longitude    Depth    Ndef Nsta Gap    Mag1  N    Mag2  N    Mag3  N   Author         ID
       rms   OT_Error      Smajor Sminor Az        Err   mdist  Mdist     Err        Err        Err      Quality

2011/11/11 22:45:56.1     46.4104   10.8520      2.0      27    7 112  Ml 1.9  4                         js067245    266249

      0.22   +-  0.05       1.2     .8  167.73 +-  0.0    0.27   3.77   +-0.2                            m i ke

NORTHERN ITALY
Sta     Dist  EvAz     Phase      Date       Time     TRes  Azim  AzRes  Slow  SRes Def   SNR       Amp   Per   Mag1   Mag2       ID
HINF  003.07 298.7 m E P       2011/11/11 22:46:47.3   0.5                          T                                        4786636
HINF  003.07 298.7 m E Sg      2011/11/11 22:47:32.7   0.1                          T                1.4  .31 Ml 2.1         4786731
CDF   003.15 310.8 m E P       2011/11/11 22:46:48.8   0.9                          T                                        4786640
LANF  003.29 322.4 m E P       2011/11/11 22:46:49.8  -0.1                          T                                        4786639
LPG   003.00 253.8 m E Pg      2011/11/11 22:46:51.5  -0.6                          T                                        4786734
LPG   003.00 253.8 m E Sg      2011/11/11 22:47:30.7   0.0                          T                 .5  .28 Ml 1.7         4786733
LPL   003.01 254.2 m E Pg      2011/11/11 22:46:51.8  -0.4                          T                                        4786735
LPL   003.01 254.2 m E Sg      2011/11/11 22:47:30.8  -0.1                          T                 .8  .38 Ml 1.8         4786732
HAU   003.46 299.1 m E P       2011/11/11 22:46:53.2   1.0                          T                                        4786638
HAU   003.46 299.1 m E Sg      2011/11/11 22:47:44.6   0.0                          T                1.1  .28 Ml 1.9         4786730
THEF  003.77 300.6 m E Pn      2011/11/11 22:46:53.6   0.3                          T                                        4786637

.
