EVENT     269126
    Date      Time       Latitude Longitude    Depth    Ndef Nsta Gap    Mag1  N    Mag2  N    Mag3  N   Author         ID
       rms   OT_Error      Smajor Sminor Az        Err   mdist  Mdist     Err        Err        Err      Quality

2012/01/25 23:36:28.7     43.1161    -.9887      2.0      28    3 169  Ml 1.3  1  Md 1.6  2              js067245    269146

      0.60   +-  0.18       3.1    2.1  176.54 +-  0.0    0.17   1.73   +-         +-0.0                 m i ke

PYRENEES
Sta     Dist  EvAz     Phase      Date       Time     TRes  Azim  AzRes  Slow  SRes Def   SNR       Amp   Per   Mag1   Mag2       ID
SJPF  000.17 269.2 m E Pg      2012/01/25 23:36:32.3   0.1                          T                                        4826082
SJPF  000.17 269.2 m E Sg      2012/01/25 23:36:35.0   0.3                          T               10.3  .24        Md 1.6  4826079
ETSF  000.38 124.5 m E Pg      2012/01/25 23:36:35.0  -1.1                          T                                        4826081
ETSF  000.38 124.5 m E Sg      2012/01/25 23:36:39.7  -1.6                          T                2.1  .20        Md 1.6  4826078
EPF   000.98 094.6 m E Pg      2012/01/25 23:36:47.6   0.5                          T                                        4826080
EPF   000.98 094.6 m E Sg      2012/01/25 23:37:01.0   1.2                          T                 .7  .20 Ml 1.3         4826077

.
EVENT     269127
    Date      Time       Latitude Longitude    Depth    Ndef Nsta Gap    Mag1  N    Mag2  N    Mag3  N   Author         ID
       rms   OT_Error      Smajor Sminor Az        Err   mdist  Mdist     Err        Err        Err      Quality

2012/01/25 23:56:51.1     43.0166    -.0726      2.0      50    8 089  Ml 2.2  6  Md 2.3  2              js067245    269147

      0.59   +-  0.07       1.5    1.1    5.24 +-  0.0    0.08   3.05   +-0.2      +-0.1                 m i ke

PYRENEES
Sta     Dist  EvAz     Phase      Date       Time     TRes  Azim  AzRes  Slow  SRes Def   SNR       Amp   Per   Mag1   Mag2       ID
EPF   000.30 087.3 m E Pg      2012/01/25 23:56:56.8  -0.3                          T                                        4826099
EPF   000.30 087.3 m E Sg      2012/01/25 23:57:01.3   0.1                          T               26.9  .20        Md 2.3  4826096
ETSF  000.38 251.9 m E Pg      2012/01/25 23:56:58.1  -0.4                          T                                        4826100
ETSF  000.38 251.9 m E Sg      2012/01/25 23:57:03.0  -0.4                          T               43.0  .20        Md 2.2  4826095
SJPF  000.85 276.9 m E Pg      2012/01/25 23:57:07.2   0.1                          T                                        4826101
SJPF  000.85 276.9 m E Sg      2012/01/25 23:57:18.1  -0.1                          T                2.8  .30                4826094
MTLF  001.71 078.3 m E Pn      2012/01/25 23:57:19.9  -0.2                          T                                        4826098
MTLF  001.71 078.3 m E Pg      2012/01/25 23:57:23.1   0.2                          T                                        4826097
MTLF  001.71 078.3 m E Sg      2012/01/25 23:57:44.9   0.1                          T                2.4  .21 Ml 2.2         4826093
LFF   002.01 016.7 m E Pg      2012/01/25 23:57:29.2   0.8                          T                                        4826103
LFF   002.01 016.7 m E Sg      2012/01/25 23:57:54.2  -0.1                          T                5.0  .26 Ml 2.3         4826091
CAF   002.45 038.2 m E Pg      2012/01/25 23:57:36.3  -0.4                          T                                        4826102
CAF   002.45 038.2 m E Sg      2012/01/25 23:58:08.1  -0.2                          T                1.8  .20 Ml 2.3         4826092
RJF   002.56 026.0 m E Pg      2012/01/25 23:57:38.4  -0.2                          T                                        4826104
RJF   002.56 026.0 m E Sg      2012/01/25 23:58:11.4   0.0                          T                3.0  .24 Ml 2.1         4826089
LASF  003.05 068.3 m E Sg      2012/01/25 23:58:26.9   0.1                          T                 .6  .21 Ml 1.9         4826090

.
EVENT     269128
    Date      Time       Latitude Longitude    Depth    Ndef Nsta Gap    Mag1  N    Mag2  N    Mag3  N   Author         ID
       rms   OT_Error      Smajor Sminor Az        Err   mdist  Mdist     Err        Err        Err      Quality

2012/01/26 02:42:13.3     51.5810    6.8717      1.0 f    55   19 153  Ml 3.0 15  Md 2.8  1              js067245    269148

      0.66   +-  0.12       2.3    1.7  144.10 +-  0.0    0.24   5.92   +-0.3      +-                    m i sr

GERMANY
Sta     Dist  EvAz     Phase      Date       Time     TRes  Azim  AzRes  Slow  SRes Def   SNR       Amp   Per   Mag1   Mag2       ID
GIVF  001.97 222.0 m E Pn      2012/01/26 02:42:44.3  -1.7                          T                                        4826107
GIVF  001.97 222.0 m E Pg      2012/01/26 02:42:49.1  -0.8                          T                                        4826324
GIVF  001.97 222.0 m E Sn      2012/01/26 02:43:10.7   0.8                          T               35.8  .29 Ml 3.3 Md 2.8  4826108
BAIF  002.28 229.0 m E P       2012/01/26 02:42:51.9  -0.6                          T                                        4826323
BAIF  002.28 229.0 m E Pg      2012/01/26 02:42:56.0   0.5                          T                                        4826322
BAIF  002.28 229.0 m E Sn      2012/01/26 02:43:17.7   0.5                          T                                        4826290
BAIF  002.28 229.0 m E Sg      2012/01/26 02:43:25.7   0.9                          T               16.5  .49 Ml 2.8         4826295
LANF  002.67 166.7 m E Pn      2012/01/26 02:42:55.1  -0.5                          T                                        4826321
LANF  002.67 166.7 m E Pg      2012/01/26 02:43:02.2  -0.7                          T                                        4826320
LANF  002.67 166.7 m E Sg      2012/01/26 02:43:37.7   0.5                          T               15.7  .40 Ml 2.9         4826296
PAGF  003.12 194.1 m E Pn      2012/01/26 02:43:01.3  -0.3                          T                                        4826317
PAGF  003.12 194.1 m E Pg      2012/01/26 02:43:11.2   0.1                          T                                        4826316
PAGF  003.12 194.1 m E Sg      2012/01/26 02:43:51.9   0.7  12.7  -0.6              T                3.0  .49 Ml 2.2         4826298
CDF   003.18 175.1 m E Pn      2012/01/26 02:43:02.2  -0.4                          T                                        4826319
CDF   003.18 175.1 m E Pg      2012/01/26 02:43:12.0  -0.3                          T                                        4826318
CDF   003.18 175.1 m E Sg      2012/01/26 02:43:53.5   0.2                          T                9.6  .51 Ml 2.9         4826297
LOR   004.74 205.7 m E Pn      2012/01/26 02:43:24.1   0.3  27.2  3.9               T                                        4826106
LOR   004.74 205.7 m E Sn      2012/01/26 02:44:16.7   0.5                          T                                        4826292
LOR   004.74 205.7 m E Sg      2012/01/26 02:44:42.8   0.9  15.5  -7.9              T                6.2  .40 Ml 3.0         4826293
SSF   005.03 207.2 m E Pn      2012/01/26 02:43:27.8   0.1                          T                                        4826105
SSF   005.03 207.2 m E Sn      2012/01/26 02:44:23.6   0.5                          T                                        4826291
SSF   005.03 207.2 m E Sg      2012/01/26 02:44:51.7   0.9                          T               16.9  .76 Ml 3.3         4826294
HYF   005.12 214.2 m E Pn      2012/01/26 02:43:28.1  -0.9                          T                                        4826307
HYF   005.12 214.2 m E Sg      2012/01/26 02:44:54.5   0.7                          T                                        4826305
AVF   005.32 207.1 m E Pn      2012/01/26 02:43:31.4  -0.3                          T                                        4826315
SMF   005.33 203.1 m E Pn      2012/01/26 02:43:31.4  -0.4                          T                                        4826314
SMF   005.33 203.1 m E Sg      2012/01/26 02:45:01.0   0.9                          T                8.6  .58 Ml 3.1         4826306
LDF   005.40 239.1 m E Pn      2012/01/26 02:43:32.8   0.1                          T                                        4826311
LDF   005.40 239.1 m E Sn      2012/01/26 02:44:32.1   0.1                          T                2.2  .31 Ml 2.8         4826308
FLN   005.50 242.0 m E Pn      2012/01/26 02:43:34.2   0.1  59.4  3.0               T                                        4826312
BGF   005.68 209.3 m E Pn      2012/01/26 02:43:36.5  -0.1                          T                                        4826313
BGF   005.68 209.3 m E Sg      2012/01/26 02:45:11.2   0.1                          T               15.7  .57 Ml 3.5         4826304
GRR   005.92 240.4 m E Pn      2012/01/26 02:43:39.6  -0.2                          T                                        4826310
GRR   005.92 240.4 m E Sn      2012/01/26 02:44:44.5   0.2                          T                3.9  .18 Ml 3.3         4826309
MEZF  003.30 201.5 m E Sg      2012/01/26 02:43:57.4   0.6                          T               15.0  .44 Ml 3.0         4826299
THEF  003.40 189.9 m E Sg      2012/01/26 02:44:00.6   0.5                          T                                        4826301
SFTF  003.58 200.0 m E Sg      2012/01/26 02:44:06.3   0.7  24.4  5.7               T                6.7  .33 Ml 2.9         4826300
HAU   003.60 185.6 m E Sg      2012/01/26 02:44:06.5   0.4                          T               10.4  .44 Ml 2.7         4826302
HINF  003.77 180.2 m E Sg      2012/01/26 02:44:11.4  -0.1                          T                4.6  .42 Ml 2.6         4826303

.
EVENT     269129
    Date      Time       Latitude Longitude    Depth    Ndef Nsta Gap    Mag1  N    Mag2  N    Mag3  N   Author         ID
       rms   OT_Error      Smajor Sminor Az        Err   mdist  Mdist     Err        Err        Err      Quality

2012/01/26 03:23:52.6     45.0366    7.3743      2.0      85   23 035  Ml 2.5 19  Md 2.7  3              js067245    269149

      0.79   +-  0.08       2.0    1.4   81.84 +-  0.0    0.14   4.15   +-0.2      +-0.1                 m i ke

NORTHERN ITALY
Sta     Dist  EvAz     Phase      Date       Time     TRes  Azim  AzRes  Slow  SRes Def   SNR       Amp   Per   Mag1   Mag2       ID
MBDF  000.53 234.4 m E Pg      2012/01/26 03:24:03.2   0.4                          T   001.0                                4822230
MBDF  000.53 234.4 m E Sg      2012/01/26 03:24:09.6  -0.2                          T               70.6  .26        Md 2.8  4826465
LPG   000.64 316.6 m E Pg      2012/01/26 03:24:04.2  -0.8                          T   001.0                                4822217
LPG   000.64 316.6 m E Sg      2012/01/26 03:24:11.4  -2.0                          T               83.1  .20        Md 2.6  4826467
LPL   000.66 316.9 m E Pg      2012/01/26 03:24:04.6  -0.7                          T   001.0                                4822218
LPL   000.66 316.9 m E Sg      2012/01/26 03:24:12.5  -1.5                          T               69.1  .18        Md 2.8  4826466
ORIF  001.07 264.2 m E Pg      2012/01/26 03:24:12.3  -0.4                          T   001.0                                4822231
ORIF  001.07 264.2 m E Pn      2012/01/26 03:24:13.1   0.0                          T                                        4826474
ORIF  001.07 264.2 m E P       2012/01/26 03:24:15.3   0.7                          T                                        4826473
ORIF  001.07 264.2 m E Sg      2012/01/26 03:24:25.9  -0.6                          T   001.0       31.1  .36 Ml 2.8         4822232
SBF   001.17 177.8 m E Pn      2012/01/26 03:24:13.5  -0.9                          T   001.0                                4822221
SBF   001.17 177.8 m E Pg      2012/01/26 03:24:14.6   0.0                          T                                        4826469
SBF   001.17 177.8 m E Sg      2012/01/26 03:24:30.1   0.3                          T   001.0         33  .32 Ml 2.9         4822222
FRF   001.57 199.7 m E Pn      2012/01/26 03:24:19.5  -0.2                          T   001.0                                4822209
FRF   001.57 199.7 m E Pg      2012/01/26 03:24:21.6  -0.1                          T                                        4826471
FRF   001.57 199.7 m E Sg      2012/01/26 03:24:42.0   0.1                          T   001.0       20.1  .40 Ml 2.8         4822210
SMRF  001.67 231.1 m E P       2012/01/26 03:24:22.7  -0.4                          T                                        4826472
SMRF  001.67 231.1 m E Pg      2012/01/26 03:24:23.7   0.1                          T   001.0                                4822235
SMRF  001.67 231.1 m E Sg      2012/01/26 03:24:45.6   0.4                          T   001.0        4.5  .26 Ml 2.3         4822236
LMR   001.81 200.4 m E Pn      2012/01/26 03:24:23.1   0.1                          T   001.0                                4822214
LMR   001.81 200.4 m E P       2012/01/26 03:24:24.9  -0.2                          T                                        4826470
LMR   001.81 200.4 m E Sg      2012/01/26 03:24:49.6   0.0                          T                6.0  .22 Ml 2.6         4826468
CABF  001.81 330.7 m E Pn      2012/01/26 03:24:23.7   0.5                          T   001.0                                4822226
CABF  001.81 330.7 m E Pg      2012/01/26 03:24:26.7   0.3                          T                                        4826476
CABF  001.81 330.7 m E Sg      2012/01/26 03:24:49.8  -0.1                          T   001.0          8  .36 Ml 2.5         4822227
VIVF  001.93 265.6 m E Pn      2012/01/26 03:24:25.6   1.0                          T   001.0                                4822233
VIVF  001.93 265.6 m E Sn      2012/01/26 03:24:47.8  -0.2                          T   001.0        6.7  .36 Ml 2.5         4822234
VIVF  001.93 265.6 m E Sg      2012/01/26 03:24:53.0  -0.2                          T                6.0  .34 Ml 2.4         4826464
PGF   002.75 154.1 m E Pn      2012/01/26 03:24:35.5  -0.5                          T   001.0                                4822219
PGF   002.75 154.1 m E Sn      2012/01/26 03:25:08.1   0.3                          T   001.0       13.3 1.00 Ml 2.7         4822220
LASF  002.69 250.3 m E Pn      2012/01/26 03:24:36.0   1.0                          T   001.0                                4822212
LASF  002.69 250.3 m E Sn      2012/01/26 03:25:06.6   0.3                          T   001.0        4.4  .56 Ml 2.3         4822213
HINF  002.80 352.8 m E Pn      2012/01/26 03:24:36.5  -0.1                          T   001.0                                4822228
HINF  002.80 352.8 m E Sg      2012/01/26 03:25:20.1  -0.6                          T   001.0          4  .48 Ml 2.3         4822229
SMF   002.95 304.3 m E Pn      2012/01/26 03:24:39.7   1.1                          T   001.0                                4822223
SMF   002.95 304.3 m E Sg      2012/01/26 03:25:25.0  -0.1                          T   001.0        4.5  .32 Ml 2.6         4822224
HAU   003.05 347.0 m E Pn      2012/01/26 03:24:40.6   0.6                          T   001.0                                4822211
HAU   003.05 347.0 m E Sg      2012/01/26 03:25:28.6   0.2                          T                2.3  .32 Ml 2.1         4826462
AVF   003.31 303.4 m E Pn      2012/01/26 03:24:43.5   0.1                          T   001.0                                4822203
AVF   003.31 303.4 m E Sn      2012/01/26 03:25:21.6   0.6                          T   001.0                                4822204
AVF   003.31 303.4 m E Sg      2012/01/26 03:25:36.2  -0.2                          T   001.0        2.5  .40 Ml 2.3         4822205
LOR   003.31 313.7 m E Pn      2012/01/26 03:24:44.3   0.8 132.4  1.3               T   001.0                                4822215
LOR   003.31 313.7 m E Sn      2012/01/26 03:25:21.6   0.6 138.9  7.8               T   001.0        4.9  .56 Ml 2.4         4822216
LOR   003.31 313.7 m E Sg      2012/01/26 03:25:36.7   0.3                          T                2.2  .26 Ml 2.4         4826460
SSF   003.37 308.3 m E Pn      2012/01/26 03:24:44.5   0.2                          T   001.0                                4822225
CDF   003.38 358.9 m E Pn      2012/01/26 03:24:45.0   0.5                          T   001.0                                4822208
CDF   003.38 358.9 m E Sn      2012/01/26 03:25:23.0   0.2                          T                1.1  .28 Ml 2.2         4826461
BGF   003.51 297.3 m E Pn      2012/01/26 03:24:47.3   1.1                          T   001.0                                4822206
SFTF  003.55 333.9 m E Pn      2012/01/26 03:24:47.5   0.7 161.4  9.2               T                                        4826477
CAF   003.77 270.2 m E Pn      2012/01/26 03:24:51.4   1.6                          T   001.0                                4822207
RJF   004.15 275.8 m E Pn      2012/01/26 03:24:56.4   1.5                          T   001.0                                4822202

.
EVENT     269134
    Date      Time       Latitude Longitude    Depth    Ndef Nsta Gap    Mag1  N    Mag2  N    Mag3  N   Author         ID
       rms   OT_Error      Smajor Sminor Az        Err   mdist  Mdist     Err        Err        Err      Quality

2012/01/26 03:50:20.6     40.9597    1.8025     20.0 f    28    4 217  Ml 1.6  4                         js067245    269154

      0.40   +-  0.19       3.0    1.6  151.88 +-  0.0    0.34   3.97   +-0.3                            m i ke

BALEARIC ISLANDS, SPAIN
Sta     Dist  EvAz     Phase      Date       Time     TRes  Azim  AzRes  Slow  SRes Def   SNR       Amp   Per   Mag1   Mag2       ID
EPF   002.34 332.7 m E Pn      2012/01/26 03:50:56.2  -0.1                          T                                        4826501
EPF   002.34 332.7 m E Pg      2012/01/26 03:51:04.7   0.4                          T                                        4826500
EPF   002.34 332.7 m E Sn      2012/01/26 03:51:22.0  -0.7                          T                                        4826503
EPF   002.34 332.7 m E Sg      2012/01/26 03:51:33.9  -0.5                          T                 .5  .21 Ml 1.7         4826502
MTLF  002.40 007.3 m E Pn      2012/01/26 03:50:56.8  -0.3                          T                                        4826494
MTLF  002.40 007.3 m E Sn      2012/01/26 03:51:24.2   0.1                          T                                        4826496
MTLF  002.40 007.3 m E Sg      2012/01/26 03:51:36.2   0.0                          T                 .2  .22 Ml 1.2         4826495
ETSF  002.62 318.5 m E Pn      2012/01/26 03:51:00.2   0.0                          T                                        4826498
ETSF  002.62 318.5 m E Pg      2012/01/26 03:51:09.6   0.2                          T                                        4826497
ETSF  002.62 318.5 m E Sg      2012/01/26 03:51:43.3   0.1                          T                 .4  .21 Ml 1.6         4826499
CAF   003.97 002.7 m E Sn      2012/01/26 03:52:01.6  -0.1                          T                 .5  .24 Ml 2.0         4826894

.
