BEGIN GSE2.0
MSG_TYPE DATA
MSG_ID 06-MAR-1213:50:00  FRA_NDC
E-MAIL
DATA_TYPE BULLETIN
Reviewed Bulletin (REB) # P2012-008  from French NDC for regional phases     PERIOD 22 FEB 2012 TO 28 FEB 2012 J-P Santoire
EVENT     270510
    Date      Time       Latitude Longitude    Depth    Ndef Nsta Gap    Mag1  N    Mag2  N    Mag3  N   Author         ID
       rms   OT_Error      Smajor Sminor Az        Err   mdist  Mdist     Err        Err        Err      Quality

2012/02/22 00:45:04.3     40.9738   -2.7866      5.0 f    42    4 070  Ml 2.2  7                         js067245    270530

      0.59   +-  0.08       2.3    1.3  120.65 +-  0.0    0.58   5.35   +-0.2                            m i ke

SPAIN
Sta     Dist  EvAz     Phase      Date       Time     TRes  Azim  AzRes  Slow  SRes Def   SNR       Amp   Per   Mag1   Mag2       ID
SJPF  002.43 028.0 m E Pn      2012/02/22 00:45:43.2   0.2                          T                                        4845207
SJPF  002.43 028.0 m E Pg      2012/02/22 00:45:49.4  -0.1                          T                                        4845206
SJPF  002.43 028.0 m E Sn      2012/02/22 00:46:10.8  -0.5                          T                1.3  .19 Ml 2.1         4845217
SJPF  002.43 028.0 m E Sg      2012/02/22 00:46:19.5  -1.3                          T                2.4  .27 Ml 2.3         4845216
ETSF  002.54 040.1 m E Pn      2012/02/22 00:45:44.8   0.4                          T                                        4845209
ETSF  002.54 040.1 m E Pg      2012/02/22 00:45:50.7  -0.9                          T                                        4845208
ETSF  002.54 040.1 m E Sn      2012/02/22 00:46:13.7  -0.3                          T                1.4  .21 Ml 2.1         4845215
ETSF  002.54 040.1 m E Sg      2012/02/22 00:46:23.1  -1.1                          T                1.1  .19 Ml 2.1         4845214
EPF   003.11 047.6 m E Pn      2012/02/22 00:45:52.5   0.3                          T                                        4845211
EPF   003.11 047.6 m E Pg      2012/02/22 00:46:01.6  -0.3                          T                                        4845210
EPF   003.11 047.6 m E Sn      2012/02/22 00:46:28.1   0.7                          T                3.2  .34 Ml 2.4         4845213
EPF   003.11 047.6 m E Sg      2012/02/22 00:46:42.0   0.1                          T                1.7  .32 Ml 2.2         4845212
RJF   005.35 034.6 m E Pn      2012/02/22 00:46:22.0  -0.7                          T                                        4845205
RJF   005.35 034.6 m E Sn      2012/02/22 00:47:21.1   0.1                          T                 .3  .17 Ml 1.9         4845204

.
EVENT     270511
    Date      Time       Latitude Longitude    Depth    Ndef Nsta Gap    Mag1  N    Mag2  N    Mag3  N   Author         ID
       rms   OT_Error      Smajor Sminor Az        Err   mdist  Mdist     Err        Err        Err      Quality

2012/02/22 01:51:38.2     43.0895    -.5375     10.0 f    15    3 174             Md 1.8  2              js067245    270531

      0.62   +-  0.21       5.4    2.6   13.66 +-  0.0    0.12   1.37              +-0.1                 m i ke

PYRENEES
Sta     Dist  EvAz     Phase      Date       Time     TRes  Azim  AzRes  Slow  SRes Def   SNR       Amp   Per   Mag1   Mag2       ID
ETSF  000.19 184.8 m E Pg      2012/02/22 01:51:42.9   0.4                          T                                        4845384
ETSF  000.19 184.8 m E Sg      2012/02/22 01:51:45.3  -0.1                          T                                Md 1.9  4845386
ETSF  000.19 184.8 m E Sn      2012/02/22 01:51:46.2   0.8                          T               29.0  .21                4845385
SJPF  000.50 272.9 m E Pg      2012/02/22 01:51:48.5   0.5                          T                                        4845382
SJPF  000.50 272.9 m E Sg      2012/02/22 01:51:55.2   0.5                          T                1.4  .27        Md 1.7  4845383
EPF   000.65 095.0 m E Pg      2012/02/22 01:51:50.5  -0.1                          T                                        4845380
EPF   000.65 095.0 m E Sg      2012/02/22 01:52:00.5   1.4                          T                2.6  .25                4845381

.
EVENT     270512
    Date      Time       Latitude Longitude    Depth    Ndef Nsta Gap    Mag1  N    Mag2  N    Mag3  N   Author         ID
       rms   OT_Error      Smajor Sminor Az        Err   mdist  Mdist     Err        Err        Err      Quality

2012/02/22 01:58:27.6     48.1999    8.1069      5.0 f    17    8 050  Ml 1.7  6  Md 1.9  1              js067245    270532

      0.38   +-  0.06       1.2    1.1  153.53 +-  0.0    0.20   2.10   +-0.3      +-                    m i ke

GERMANY
Sta     Dist  EvAz     Phase      Date       Time     TRes  Azim  AzRes  Slow  SRes Def   SNR       Amp   Per   Mag1   Mag2       ID
CDF   000.59 291.3 m E Pg      2012/02/22 01:58:39.0  -0.1                          T                                        4845392
CDF   000.59 291.3 m E Sg      2012/02/22 01:58:47.0   0.1                          T                1.2  .18        Md 1.9  4845393
LANF  000.81 345.7 m E Pg      2012/02/22 01:58:43.1   0.3                          T                                        4845394
LANF  000.81 345.7 m E Sn      2012/02/22 01:58:56.1   0.4                          T                2.6  .21                4845395
HINF  000.93 246.0 m E Pg      2012/02/22 01:58:45.3   0.2                          T                                        4845402
HINF  000.93 246.0 m E Sg      2012/02/22 01:58:57.1   0.0                          T                2.7  .31 Ml 1.7         4845401
HAU   001.19 261.3 m E Pg      2012/02/22 01:58:50.2   0.2                          T                                        4845403
HAU   001.19 261.3 m E Sg      2012/02/22 01:59:05.4  -0.1                          T                2.1  .23 Ml 1.7         4845399
PAGF  001.63 283.5 m E Pg      2012/02/22 01:58:58.1   0.2                          T                                        4845404
PAGF  001.63 283.5 m E Sg      2012/02/22 01:59:18.9   0.0                          T                 .3  .22 Ml 1.2         4845396
THEF  001.41 271.9 m E Sg      2012/02/22 01:59:12.5   0.2                          T                2.8  .24 Ml 2.1         4845398
SFTF  002.05 271.3 m E Sg      2012/02/22 01:59:32.3   0.1                          T                1.2  .23 Ml 1.9         4845397
CABF  002.10 221.5 m E Sg      2012/02/22 01:59:33.7  -0.1                          T                 .6  .27 Ml 1.6         4845400

.
EVENT     270513
    Date      Time       Latitude Longitude    Depth    Ndef Nsta Gap    Mag1  N    Mag2  N    Mag3  N   Author         ID
       rms   OT_Error      Smajor Sminor Az        Err   mdist  Mdist     Err        Err        Err      Quality

2012/02/22 02:17:25.0     45.2543    7.3876      2.0      40    8 071  Ml 1.8  5  Md 2.0  3              js067245    270533

      0.32   +-  0.06       1.3     .7  107.14 +-  0.0    0.14   1.96   +-0.3      +-0.0                 m i ke

NORTHERN ITALY
Sta     Dist  EvAz     Phase      Date       Time     TRes  Azim  AzRes  Slow  SRes Def   SNR       Amp   Per   Mag1   Mag2       ID
LPG   000.51 298.7 m E Pg      2012/02/22 02:17:34.9  -0.2                          T                                        4845418
LPG   000.51 298.7 m E Sg      2012/02/22 02:17:41.5  -0.3                          T               12.0  .20        Md 2.0  4845407
LPL   000.53 299.8 m E Pg      2012/02/22 02:17:35.4   0.0                          T                                        4845419
LPL   000.53 299.8 m E Sg      2012/02/22 02:17:42.2  -0.3                          T                8.7  .27        Md 2.0  4845408
MBDF  000.69 219.9 m E Pg      2012/02/22 02:17:38.3   0.2                          T                                        4845421
MBDF  000.69 219.9 m E Sg      2012/02/22 02:17:47.3   0.2                          T                8.8  .18        Md 2.0  4845410
ORIF  001.12 253.1 m E Pg      2012/02/22 02:17:46.6   0.5                          T                                        4845420
ORIF  001.12 253.1 m E Sg      2012/02/22 02:18:00.6   0.0                          T                2.7  .23 Ml 1.9         4845409
SBF   001.39 178.6 m E Pg      2012/02/22 02:17:50.9  -0.2                          T                                        4845416
SBF   001.39 178.6 m E Sg      2012/02/22 02:18:08.9  -0.2                          T                 .5  .21 Ml 1.4         4845405
CABF  001.63 326.7 m E Pg      2012/02/22 02:17:55.5   0.0                          T                                        4845413
CABF  001.63 326.7 m E Sg      2012/02/22 02:18:16.5  -0.1                          T                2.5  .31 Ml 2.0         4845412
FRF   001.77 197.7 m E Pg      2012/02/22 02:17:57.9  -0.2                          T                                        4845417
FRF   001.77 197.7 m E Sg      2012/02/22 02:18:20.7  -0.2                          T                1.3  .23 Ml 1.9         4845406
VIVF  001.96 259.3 m E P       2012/02/22 02:17:59.6  -0.3                          T                                        4845415
VIVF  001.96 259.3 m E Pg      2012/02/22 02:18:01.6   0.0                          T                                        4845414
VIVF  001.96 259.3 m E Sg      2012/02/22 02:18:26.7  -0.2                          T                 .8  .25 Ml 1.7         4845411

.
EVENT     270514
    Date      Time       Latitude Longitude    Depth    Ndef Nsta Gap    Mag1  N    Mag2  N    Mag3  N   Author         ID
       rms   OT_Error      Smajor Sminor Az        Err   mdist  Mdist     Err        Err        Err      Quality

2012/02/22 02:21:04.3     42.2024    9.4861      2.0      11    5 337  Ml 2.3  3  Md 2.1  1              js067245    270534

      0.74   +-  0.28       5.0    4.5   94.10 +-  0.0    0.50   4.52   +-0.1      +-                    m i ke

CORSICA, FRANCE
Sta     Dist  EvAz     Phase      Date       Time     TRes  Azim  AzRes  Slow  SRes Def   SNR       Amp   Per   Mag1   Mag2       ID
PGF   000.50 314.0 m E Pg      2012/02/22 02:21:13.8  -0.2                          T                                        4845437
PGF   000.50 314.0 m E Sg      2012/02/22 02:21:20.9   0.3                          T               53.9  .18        Md 2.1  4845438
SBF   002.24 318.5 m E Pn      2012/02/22 02:21:40.7   0.0                          T                                        4845433
SBF   002.24 318.5 m E Sn      2012/02/22 02:22:07.3   0.0                          T                3.8  .25 Ml 2.5         4845430
LMR   002.47 298.3 m E Pn      2012/02/22 02:21:43.6   0.0                          T                                        4845434
LMR   002.47 298.3 m E Sn      2012/02/22 02:22:12.7   0.1                          T                1.9  .21 Ml 2.3         4845429
FRF   002.49 304.0 m E Pn      2012/02/22 02:21:44.0   0.0                          T                                        4845432
FRF   002.49 304.0 m E Sn      2012/02/22 02:22:13.1  -0.1                          T                1.7  .20 Ml 2.3         4845428
LASF  004.52 296.3 m E Pn      2012/02/22 02:22:12.1   0.3                          T                                        4845431

.
EVENT     270515
    Date      Time       Latitude Longitude    Depth    Ndef Nsta Gap    Mag1  N    Mag2  N    Mag3  N   Author         ID
       rms   OT_Error      Smajor Sminor Az        Err   mdist  Mdist     Err        Err        Err      Quality

2012/02/22 03:39:04.0     42.1766    9.4388      2.0      11    5 337  Ml 2.7  3  Md 2.3  1              js067245    270535

      0.41   +-  0.28       5.0    4.3  102.26 +-  0.0    0.49   4.50   +-0.1      +-                    m i ke

CORSICA, FRANCE
Sta     Dist  EvAz     Phase      Date       Time     TRes  Azim  AzRes  Slow  SRes Def   SNR       Amp   Per   Mag1   Mag2       ID
PGF   000.49 318.9 m E Pg      2012/02/22 03:39:13.3  -0.2                          T                                        4845448
PGF   000.49 318.9 m E Sg      2012/02/22 03:39:20.3   0.3                          T               59.2  .16        Md 2.3  4845449
SBF   002.24 319.6 m E Pn      2012/02/22 03:39:40.2  -0.1                          T                                        4845442
SBF   002.24 319.6 m E Sn      2012/02/22 03:40:06.8  -0.1                          T                6.5  .22 Ml 2.7         4845439
LMR   002.45 299.2 m E Pn      2012/02/22 03:39:43.1   0.0                          T                                        4845447
LMR   002.45 299.2 m E Sn      2012/02/22 03:40:12.2   0.3                          T                4.6  .22 Ml 2.7         4845440
FRF   002.48 304.9 m E Pn      2012/02/22 03:39:43.5   0.0                          T                                        4845443
FRF   002.48 304.9 m E Sn      2012/02/22 03:40:12.6   0.1                          T                3.7  .22 Ml 2.6         4845441
LASF  004.50 296.8 m E Pn      2012/02/22 03:40:11.6   0.4                          T                                        4845444

.
EVENT     270516
    Date      Time       Latitude Longitude    Depth    Ndef Nsta Gap    Mag1  N    Mag2  N    Mag3  N   Author         ID
       rms   OT_Error      Smajor Sminor Az        Err   mdist  Mdist     Err        Err        Err      Quality

2012/02/22 04:33:54.4     45.3004    6.4505     15.0      13    5 151  Ml 2.0  1  Md 1.7  3              js067245    270536

      0.59   +-  0.09       2.5    1.5  137.80 +-  0.0    0.29   1.34   +-         +-0.0                 m i ke

FRANCE
Sta     Dist  EvAz     Phase      Date       Time     TRes  Azim  AzRes  Slow  SRes Def   SNR       Amp   Per   Mag1   Mag2       ID
LPG   000.29 046.9 m E Pg      2012/02/22 04:34:00.9  -0.1                          T                                        4845453
LPG   000.29 046.9 m E Sg      2012/02/22 04:34:05.2   0.0                          T                5.1  .26        Md 1.7  4845456
LPL   000.29 042.5 m E Pg      2012/02/22 04:34:00.9  -0.1                          T                                        4845454
LPL   000.29 042.5 m E Sg      2012/02/22 04:34:05.3   0.1                          T                4.0  .18        Md 1.7  4845455
ORIF  000.56 226.8 m E Pg      2012/02/22 04:34:05.2  -0.2                          T                                        4845457
ORIF  000.56 226.8 m E Sg      2012/02/22 04:34:12.0  -0.9                          T                6.4  .22        Md 1.7  4845458
MBDF  000.62 158.2 m E Pg      2012/02/22 04:34:06.6   0.1                          T                                        4845459
MBDF  000.62 158.2 m E Sg      2012/02/22 04:34:15.1   0.3                          T                                        4845452
MBDF  000.62 158.2 m E Sn      2012/02/22 04:34:16.6   0.2                          T                2.0  .23                4845460
VIVF  001.34 251.2 m E Pg      2012/02/22 04:34:19.7   0.2                          T                                        4845461
VIVF  001.34 251.2 m E Sg      2012/02/22 04:34:37.4   0.5                          T                2.8  .29 Ml 2.0         4845462

.
EVENT     270540
    Date      Time       Latitude Longitude    Depth    Ndef Nsta Gap    Mag1  N    Mag2  N    Mag3  N   Author         ID
       rms   OT_Error      Smajor Sminor Az        Err   mdist  Mdist     Err        Err        Err      Quality

2012/02/22 11:02:41.8     43.0574    -.2350     10.0 f    64   14 068  Ml 2.9 12  Md 2.7  3              js067245    270560

      0.77   +-  0.09       1.9    1.6   10.41 +-  0.0    0.14   5.64   +-0.3      +-0.0                 m i ke

PYRENEES
Sta     Dist  EvAz     Phase      Date       Time     TRes  Azim  AzRes  Slow  SRes Def   SNR       Amp   Per   Mag1   Mag2       ID
ETSF  000.29 236.4 m E Pg      2012/02/22 11:02:47.3  -0.4                          T   001.0                                4844350
ETSF  000.29 236.4 m E Sg      2012/02/22 11:02:50.8  -0.9                          T              111.5  .38        Md 2.7  4845465
EPF   000.42 093.5 m E Pg      2012/02/22 11:02:49.9  -0.2                          T   001.0                                4844342
EPF   000.42 093.5 m E Sg      2012/02/22 11:02:55.7  -0.1                          T               28.7  .20        Md 2.8  4845466
SJPF  000.73 274.7 m E Pg      2012/02/22 11:02:55.3  -0.3                          T   001.0                                4844354
SJPF  000.73 274.7 m E Sg      2012/02/22 11:03:05.0  -0.1                          T   001.0       17.7  .28        Md 2.7  4844355
MTLF  001.82 080.2 m E Pn      2012/02/22 11:03:12.1   0.7                          T                                        4845467
MTLF  001.82 080.2 m E Pg      2012/02/22 11:03:15.4  -0.1                          T   001.0                                4844351
MTLF  001.82 080.2 m E Sg      2012/02/22 11:03:39.1   0.1                          T   001.0        7.1  .32 Ml 2.5         4844352
LFF   002.01 020.2 m E Pn      2012/02/22 11:03:14.4   0.4                          T                                        4845474
LFF   002.01 020.2 m E Pg      2012/02/22 11:03:18.4  -0.7                          T   001.0                                4844345
LFF   002.01 020.2 m E Sn      2012/02/22 11:03:38.2   0.5                          T   001.0         29  .32 Ml 3.0         4844346
LFF   002.01 020.2 m E Sg      2012/02/22 11:03:45.1   0.1                          T               34.5  .36 Ml 3.0         4845464
CAF   002.50 040.8 m E Pn      2012/02/22 11:03:21.0   0.3                          T                                        4845475
CAF   002.50 040.8 m E Pg      2012/02/22 11:03:27.7  -0.5                          T   001.0                                4844340
CAF   002.50 040.8 m E Sg      2012/02/22 11:03:59.6  -0.7                          T   001.0        7.6  .24 Ml 2.8         4844341
RJF   002.58 028.7 m E Pn      2012/02/22 11:03:22.4   0.7                          T                                        4845472
RJF   002.58 028.7 m E Pg      2012/02/22 11:03:29.6   0.0                          T                                        4845473
RJF   002.58 028.7 m E Sg      2012/02/22 11:04:01.0  -0.7                          T   001.0        9.2  .24 Ml 2.6         4844353
LASF  003.14 069.7 m E Pn      2012/02/22 11:03:30.3   0.8                          T   001.0                                4844343
LASF  003.14 069.7 m E Sg      2012/02/22 11:04:19.6  -0.8                          T   001.0        5.7  .60 Ml 2.4         4844344
BGF   004.13 031.0 m E Pn      2012/02/22 11:03:44.0   1.1                          T   001.0                                4844338
BGF   004.13 031.0 m E Sg      2012/02/22 11:04:51.7   0.5                          T   001.0       11.7  .36 Ml 3.2         4844339
MFF   003.55 001.0 m E Pg      2012/02/22 11:03:46.6  -0.8                          T                                        4845471
MFF   003.55 001.0 m E Sg      2012/02/22 11:04:31.7  -1.2                          T   001.0       13.3  .68 Ml 3.0         4844347
TCF   003.67 027.5 m E Pg      2012/02/22 11:03:49.4  -0.4                          T                                        4845468
TCF   003.67 027.5 m E Sg      2012/02/22 11:04:36.7  -0.2                          T   001.0        4.8  .28 Ml 2.9         4844349
GRR   005.35 355.5 m E Pn      2012/02/22 11:03:59.8   0.3                          T                                        4845470
VIVF  003.97 061.4 m E Sg      2012/02/22 11:04:46.2  -0.2                          T   001.0        3.1  .32 Ml 2.6         4844356
SBF   005.64 079.2 m E Sg      2012/02/22 11:05:37.4  -1.0                          T   001.0       22.7  .84 Ml 3.4         4844348

.
