EVENT     264848
    Date      Time       Latitude Longitude    Depth    Ndef Nsta Gap    Mag1  N    Mag2  N    Mag3  N   Author         ID
       rms   OT_Error      Smajor Sminor Az        Err   mdist  Mdist     Err        Err        Err      Quality

2011/10/08 11:19:24.3     44.4247    7.0070      2.0      16    8 160  Ml 1.7  6  Md 1.7  3              js067245    264868

      0.30   +-  0.10       2.6    1.2   73.14 +-  0.0    0.35   1.15   +-0.4      +-0.2                 m i ke

NORTHERN ITALY
Sta     Dist  EvAz     Phase      Date       Time     TRes  Azim  AzRes  Slow  SRes Def   SNR       Amp   Per   Mag1   Mag2       ID
MBDF  000.35 331.0 m E Pg      2011/10/08 11:19:31.1  -0.2                          T                                        4767702
MBDF  000.35 331.0 m E Sg      2011/10/08 11:19:36.6   0.7                          T                7.1  .20        Md 1.9  4767701
SBF   000.64 151.1 m E Pg      2011/10/08 11:19:36.8   0.3                          T                                        4769650
SBF   000.64 151.1 m E Sg      2011/10/08 11:19:44.2  -0.7                          T                2.6  .18        Md 1.5  4769653
FRF   000.90 196.9 m E Pg      2011/10/08 11:19:41.3   0.0                          T                                        4767699
FRF   000.90 196.9 m E Sg      2011/10/08 11:19:52.6  -0.4                          T                3.9  .21 Ml 2.1 Md 1.6  4767698
ORIF  000.94 301.9 m E Pg      2011/10/08 11:19:42.4   0.2                          T                                        4769651
ORIF  000.94 301.9 m E Sg      2011/10/08 11:19:54.3  -0.1                          T                1.7  .28 Ml 1.6         4767700
LPL   001.11 350.0 m E Pg      2011/10/08 11:19:45.1  -0.2                          T                                        4769652
LPL   001.11 350.0 m E Sg      2011/10/08 11:19:59.6  -0.2                          T                 .8  .29 Ml 1.3         4771585
LMR   001.15 198.4 m E Pg      2011/10/08 11:19:46.5   0.8                          T                                        4767697
LMR   001.15 198.4 m E Sg      2011/10/08 11:20:00.8   0.2                          T                4.3  .20 Ml 2.2         4767696
LPG   001.09 350.5 m E Sg      2011/10/08 11:19:59.3   0.2                          T                 .8  .19 Ml 1.4         4771584
SMRF  001.12 247.0 m E Sg      2011/10/08 11:19:59.9  -0.1                          T                2.1  .26 Ml 1.8         4771583

.
EVENT     264849
    Date      Time       Latitude Longitude    Depth    Ndef Nsta Gap    Mag1  N    Mag2  N    Mag3  N   Author         ID
       rms   OT_Error      Smajor Sminor Az        Err   mdist  Mdist     Err        Err        Err      Quality

2011/10/08 12:03:26.4     46.1316    7.6383      7.0 f    66   20 063  Ml 2.6 19  Md 2.5  3              js067245    264869

      0.35   +-  0.05       1.0     .7  114.95 +-  0.0    0.08   3.77   +-0.3      +-0.1                 m i ke

SWITZERLAND
Sta     Dist  EvAz     Phase      Date       Time     TRes  Azim  AzRes  Slow  SRes Def   SNR       Amp   Per   Mag1   Mag2       ID
LPL   000.88 226.2 m E Pg      2011/10/08 12:03:43.2  -0.1                          T   001.0                                4767134
LPL   000.88 226.2 m E Sg      2011/10/08 12:03:54.9   0.1                          T               35.2  .44 Ml 2.7 Md 2.5  4767719
LPG   000.89 224.7 m E Pg      2011/10/08 12:03:43.3  -0.2                          T   001.0                                4767132
LPG   000.89 224.7 m E Sg      2011/10/08 12:03:54.8  -0.3                          T   001.0       24.5  .30 Ml 2.7         4767133
CABF  001.18 294.6 m E Pg      2011/10/08 12:03:48.8   0.2                          T                                        4768508
CABF  001.18 294.6 m E P       2011/10/08 12:03:49.4  -0.1                          T                                        4768510
CABF  001.18 294.6 m E Sg      2011/10/08 12:04:03.6  -0.2                          T                9.1  .24 Ml 2.5         4769669
MBDF  001.53 203.8 m E Pg      2011/10/08 12:03:55.1  -0.1                          T   001.0                                4767148
MBDF  001.53 203.8 m E Sg      2011/10/08 12:04:15.3   0.3                          T   001.0       13.3  .45 Ml 2.5 Md 2.5  4767150
HINF  001.77 342.6 m E Pn      2011/10/08 12:03:56.8   0.9                          T                                        4768490
HINF  001.77 342.6 m E Pg      2011/10/08 12:03:59.8   0.3                          T                                        4768509
HINF  001.77 342.6 m E Sn      2011/10/08 12:04:17.3   0.1                          T                                        4768503
HINF  001.77 342.6 m E Sg      2011/10/08 12:04:21.7  -0.5                          T               15.8  .22 Ml 3.0 Md 2.7  4768491
ORIF  001.73 226.2 m E Pg      2011/10/08 12:03:59.1   0.3                          T   001.0                                4767152
ORIF  001.73 226.2 m E Sg      2011/10/08 12:04:21.5   0.3                          T   001.0       12.5  .55 Ml 2.5         4767154
CDF   002.30 354.0 m E Pn      2011/10/08 12:04:04.5   1.4                          T                                        4768506
CDF   002.30 354.0 m E Pg      2011/10/08 12:04:09.2   0.0                          T                                        4768497
CDF   002.30 354.0 m E Sn      2011/10/08 12:04:29.4  -0.5                          T                                        4768492
CDF   002.30 354.0 m E Sg      2011/10/08 12:04:38.5  -0.2                          T                6.8  .36 Ml 2.7         4768493
VIVF  002.44 239.6 m E Pn      2011/10/08 12:04:04.7  -0.3                          T                                        4768512
VIVF  002.44 239.6 m E Pg      2011/10/08 12:04:11.9   0.1                          T                                        4768511
VIVF  002.44 239.6 m E Sg      2011/10/08 12:04:43.8   0.4                          T                5.8  .28 Ml 2.6         4768481
HAU   002.07 335.3 m E Pg      2011/10/08 12:04:05.1   0.1                          T                                        4768496
HAU   002.07 335.3 m E Sg      2011/10/08 12:04:31.4  -0.3                          T               17.5  .28 Ml 2.8         4768495
FRF   002.67 195.7 m E P       2011/10/08 12:04:10.7   0.0                          T                                        4771596
FRF   002.67 195.7 m E Pg      2011/10/08 12:04:15.7  -0.1                          T                                        4771594
FRF   002.67 195.7 m E Sg      2011/10/08 12:04:49.5  -0.6                          T                1.2  .20 Ml 2.2         4771595
SMF   002.68 282.4 m E P       2011/10/08 12:04:10.9   0.0                          T                                        4768488
SMF   002.68 282.4 m E Pg      2011/10/08 12:04:16.2   0.1                          T                                        4768501
SMF   002.68 282.4 m E Sn      2011/10/08 12:04:39.5   0.6                          T                                        4768502
SMF   002.68 282.4 m E Sg      2011/10/08 12:04:50.5  -0.1                          T                4.2  .16 Ml 2.8         4768500
LOR   002.84 295.0 m E Pn      2011/10/08 12:04:12.8   2.5                          T                                        4768505
LOR   002.84 295.0 m E Pg      2011/10/08 12:04:19.7   0.6                          T                                        4768499
LOR   002.84 295.0 m E Sg      2011/10/08 12:04:54.6  -1.0                          T                3.5  .26 Ml 2.5         4768498
AVF   003.03 284.1 m E P       2011/10/08 12:04:15.4  -0.5                          T                                        4768507
AVF   003.03 284.1 m E Sg      2011/10/08 12:05:01.7   0.0                          T                1.1  .24 Ml 2.1         4768483
SSF   003.00 289.6 m E P       2011/10/08 12:04:15.6   0.2                          T                                        4768504
SSF   003.00 289.6 m E Pg      2011/10/08 12:04:22.0   0.0                          T                                        4771597
SSF   003.00 289.6 m E Sg      2011/10/08 12:05:01.0   0.4                          T                                        4768484
PAGF  002.75 332.5 m E Pg      2011/10/08 12:04:17.3  -0.2                          T                                        4769663
PAGF  002.75 332.5 m E Sn      2011/10/08 12:04:41.9   1.2                          T                                        4768486
PAGF  002.75 332.5 m E Sg      2011/10/08 12:04:52.4  -0.5                          T                2.8  .36 Ml 2.3         4768487
LMR   002.91 196.4 m E Pg      2011/10/08 12:04:19.9  -0.5                          T                                        4771592
LMR   002.91 196.4 m E Sg      2011/10/08 12:04:57.5  -0.3                          T                1.3  .24 Ml 2.2         4771593
BGF   003.35 279.0 m E P       2011/10/08 12:04:19.9  -0.5                          T                                        4768489
BGF   003.35 279.0 m E Sg      2011/10/08 12:05:11.0  -0.4                          T                5.9  .38 Ml 2.7         4768482
TCF   003.77 274.3 m E P       2011/10/08 12:04:26.0  -0.5                          T                                        4768477
SFTF  002.73 320.4 m E Sg      2011/10/08 12:04:51.9  -0.3                          T               15.1  .42 Ml 2.9         4768494
MEZF  002.95 324.4 m E Sg      2011/10/08 12:04:59.2   0.1                          T                5.1  .28 Ml 2.7         4768485

.
EVENT     264845
    Date      Time       Latitude Longitude    Depth    Ndef Nsta Gap    Mag1  N    Mag2  N    Mag3  N   Author         ID
       rms   OT_Error      Smajor Sminor Az        Err   mdist  Mdist     Err        Err        Err      Quality

2011/10/08 21:08:43.4     43.1168    -.6212      5.0 f    42    5 094  Ml 1.6  2  Md 1.7  3              js067245    264865

      0.48   +-  0.10       2.3    1.1    1.15 +-  0.0    0.07   2.64   +-0.0      +-0.1                 m i ke

PYRENEES
Sta     Dist  EvAz     Phase      Date       Time     TRes  Azim  AzRes  Slow  SRes Def   SNR       Amp   Per   Mag1   Mag2       ID
ETSF  000.22 168.2 m E Pg      2011/10/08 21:08:47.6  -0.4                          T                                        4767725
ETSF  000.22 168.2 m E Sg      2011/10/08 21:08:50.5  -0.6                          T               21.0  .17        Md 1.8  4767724
SJPF  000.44 269.7 m E Pg      2011/10/08 21:08:51.6  -0.4                          T                                        4767723
SJPF  000.44 269.7 m E Sg      2011/10/08 21:08:57.1  -0.7                          T                7.8  .20        Md 1.8  4767722
EPF   000.71 096.7 m E Pg      2011/10/08 21:08:57.0   0.1                          T                                        4767721
EPF   000.71 096.7 m E Sg      2011/10/08 21:09:07.1   0.9                          T                1.7  .17        Md 1.7  4767720
MTLF  002.09 082.9 m E Sg      2011/10/08 21:09:49.7   0.7                          T                 .6  .29 Ml 1.5         4771609
LFF   002.07 027.9 m E Sg      2011/10/08 21:09:50.4   1.9                          T                 .9  .26 Ml 1.6         4771608

.
EVENT     264851
    Date      Time       Latitude Longitude    Depth    Ndef Nsta Gap    Mag1  N    Mag2  N    Mag3  N   Author         ID
       rms   OT_Error      Smajor Sminor Az        Err   mdist  Mdist     Err        Err        Err      Quality

2011/10/08 21:13:11.8     45.0267    7.3499     14.0 f    28   14 093  Ml 2.1  6  Md 2.1  4              js067245    264871

      0.24   +-  0.07       1.5    1.0   95.90 +-  0.0    0.14   3.50   +-0.3      +-0.2                 m i ke

NORTHERN ITALY
Sta     Dist  EvAz     Phase      Date       Time     TRes  Azim  AzRes  Slow  SRes Def   SNR       Amp   Per   Mag1   Mag2       ID
MBDF  000.51 234.1 m E Pg      2011/10/08 21:13:22.1   0.2                          T                                        4767742
MBDF  000.51 234.1 m E Sg      2011/10/08 21:13:28.9   0.1                          T               15.2  .20        Md 2.0  4767741
LPG   000.63 318.3 m E Pg      2011/10/08 21:13:24.3  -0.1                          T                                        4767740
LPG   000.63 318.3 m E Sg      2011/10/08 21:13:32.5  -0.3                          T               10.9  .18        Md 2.0  4767739
LPL   000.66 318.5 m E Pg      2011/10/08 21:13:24.7   0.0                          T                                        4767738
LPL   000.66 318.5 m E Sg      2011/10/08 21:13:32.3  -1.1                          T               11.0  .27        Md 2.0  4767737
ORIF  001.05 264.6 m E Pg      2011/10/08 21:13:31.8   0.2                          T                                        4767736
ORIF  001.05 264.6 m E Sg      2011/10/08 21:13:45.1  -0.3                          T               13.6  .33 Ml 2.4 Md 2.5  4767735
SBF   001.17 177.0 m E Pn      2011/10/08 21:13:32.5   0.3                          T                                        4767734
SBF   001.17 177.0 m E Sn      2011/10/08 21:13:46.9   0.1                          T                9.8  .29 Ml 2.4         4767733
FRF   001.55 199.3 m E Pg      2011/10/08 21:13:40.2  -0.6                          T                                        4767732
FRF   001.55 199.3 m E Sn      2011/10/08 21:13:56.3   0.3                          T                                        4769676
FRF   001.55 199.3 m E Sg      2011/10/08 21:14:00.6  -0.2                          T                5.9  .35 Ml 2.3         4767731
LMR   001.80 200.0 m E Pg      2011/10/08 21:13:44.5  -0.7                          T                                        4769678
LMR   001.80 200.0 m E Sg      2011/10/08 21:14:08.3  -0.2                          T                2.7  .27 Ml 2.2         4769677
SMF   002.94 304.7 m E P       2011/10/08 21:13:59.4   0.2                          T                                        4769674
SMRF  001.65 231.0 m E Sg      2011/10/08 21:14:03.6  -0.3                          T                1.2  .30 Ml 1.7         4771614
AVF   003.30 303.7 m E P       2011/10/08 21:14:04.2  -0.1                          T                                        4769673
LOR   003.30 314.0 m E P       2011/10/08 21:14:04.2  -0.2                          T                                        4769670
SSF   003.36 308.6 m E P       2011/10/08 21:14:05.5   0.3                          T                                        4769671
BGF   003.50 297.5 m E P       2011/10/08 21:14:07.0  -0.2                          T                                        4769675
VIVF  001.91 265.8 m E S       2011/10/08 21:14:08.4  -0.3                          T                                        4771613
VIVF  001.91 265.8 m E Sg      2011/10/08 21:14:12.0   0.0                          T                 .9  .26 Ml 1.7         4771612

.
EVENT     264850
    Date      Time       Latitude Longitude    Depth    Ndef Nsta Gap    Mag1  N    Mag2  N    Mag3  N   Author         ID
       rms   OT_Error      Smajor Sminor Az        Err   mdist  Mdist     Err        Err        Err      Quality

2011/10/08 21:15:37.0     43.9153   11.8438     20.0 f    26    7 079  Ml 2.8  6                         js067245    264870

      0.48   +-  0.10       2.8    2.4   29.08 +-  0.0    0.13   7.01   +-0.3                            m i ke

CENTRAL ITALY
Sta     Dist  EvAz     Phase      Date       Time     TRes  Azim  AzRes  Slow  SRes Def   SNR       Amp   Per   Mag1   Mag2       ID
PGF   002.49 237.7 m E P       2011/10/08 21:16:17.8   0.3                          T                                        4768520
PGF   002.49 237.7 m E Sn      2011/10/08 21:16:42.3  -0.4                          T                3.1  .35 Ml 2.5         4768519
LPL   003.98 295.5 m E P       2011/10/08 21:16:42.5   3.7                          T                                        4768536
LPL   003.98 295.5 m E Sn      2011/10/08 21:17:18.4   0.0                          T                3.9  .55 Ml 2.5         4771619
HINF  005.23 320.0 m E P       2011/10/08 21:16:56.0  -0.3                          T                                        4768517
HINF  005.23 320.0 m E Sn      2011/10/08 21:17:47.7  -0.4                          T                6.1  .54 Ml 3.0         4771620
CDF   005.50 326.4 m E P       2011/10/08 21:17:00.3   0.0                          T                                        4768522
CDF   005.50 326.4 m E Sn      2011/10/08 21:17:54.1  -0.6                          T                4.1  .45 Ml 3.1         4771621
CDF   005.50 326.4 m E Sg      2011/10/08 21:18:28.0  -1.4                          T                1.3  .28 Ml 2.8         4768515
SMF   006.27 298.6 m E P       2011/10/08 21:17:11.3   0.4                          T                                        4768537
LOR   006.53 303.7 m E P       2011/10/08 21:17:14.5   0.0                          T                                        4768513
LOR   006.53 303.7 m E Sn      2011/10/08 21:18:19.0  -0.1                          T                7.0  .61 Ml 3.3         4771622
MTLF  007.01 268.6 m E P       2011/10/08 21:17:21.3  -0.1                          T                                        4768521

.
EVENT     264846
    Date      Time       Latitude Longitude    Depth    Ndef Nsta Gap    Mag1  N    Mag2  N    Mag3  N   Author         ID
       rms   OT_Error      Smajor Sminor Az        Err   mdist  Mdist     Err        Err        Err      Quality

2011/10/08 21:36:03.1     42.7309   -1.7378      2.0      34    3 170  Ml 1.3  2  Md 1.4  2              js067245    264866

      0.46   +-  0.15       2.8    1.8   21.42 +-  0.0    0.12   1.56   +-0.3      +-0.2                 m i ke

PYRENEES
Sta     Dist  EvAz     Phase      Date       Time     TRes  Azim  AzRes  Slow  SRes Def   SNR       Amp   Per   Mag1   Mag2       ID
SJPF  000.54 044.4 m E Pg      2011/10/08 21:36:13.2  -0.2                          T                                        4767788
SJPF  000.54 044.4 m E Sg      2011/10/08 21:36:20.7   0.3                          T                1.3  .22        Md 1.5  4767787
ETSF  000.88 078.7 m E Pg      2011/10/08 21:36:19.6  -0.1                          T                                        4767785
ETSF  000.88 078.7 m E Sg      2011/10/08 21:36:31.2   0.0                          T                 .5  .23 Ml 1.1 Md 1.2  4767786
EPF   001.56 078.2 m E Sg      2011/10/08 21:36:52.6   0.4                          T                 .7  .24 Ml 1.5         4771623

.
