EVENT     257605
    Date      Time       Latitude Longitude    Depth    Ndef Nsta Gap    Mag1  N    Mag2  N    Mag3  N   Author         ID
       rms   OT_Error      Smajor Sminor Az        Err   mdist  Mdist     Err        Err        Err      Quality

2011/03/26 04:48:32.4     44.6189    7.2687      2.0      16    7 193  Ml 1.4  6  Md 1.4  3              js067245    257605

      0.14   +-  0.07       1.4     .7   75.53 +-  0.0    0.37   1.40   +-0.3      +-0.1                 m i ke

NORTHERN ITALY
Sta     Dist  EvAz     Phase      Date       Time     TRes  Azim  AzRes  Slow  SRes Def   SNR       Amp   Per   Mag1   Mag2       ID
MBDF  000.37 287.1 m E Pg      2011/03/26 04:48:39.9   0.1                          T                                        4664454
MBDF  000.37 287.1 m E Sg      2011/03/26 04:48:44.7   0.0                          T               14.8  .28        Md 1.4  4664441
SBF   000.77 170.9 m E Pg      2011/03/26 04:48:46.9   0.0                          T                                        4664448
SBF   000.77 170.9 m E Sg      2011/03/26 04:48:56.8  -0.1                          T                1.9  .21        Md 1.4  4664447
LPG   000.95 337.5 m E Pg      2011/03/26 04:48:50.4  -0.3                          T                                        4664451
LPG   000.95 337.5 m E Sg      2011/03/26 04:49:02.8  -0.2                          T                1.2  .26 Ml 1.5 Md 1.3  4664444
LPL   000.97 337.2 m E Pg      2011/03/26 04:48:51.2   0.2                          T                                        4664452
LPL   000.97 337.2 m E Sg      2011/03/26 04:49:03.7   0.0                          T                1.6  .31 Ml 1.5         4664443
ORIF  001.03 287.3 m E Pg      2011/03/26 04:48:51.9   0.0                          T                                        4664453
ORIF  001.03 287.3 m E Sg      2011/03/26 04:49:05.2  -0.1                          T                 .7  .34 Ml 1.1         4664442
SMRF  001.38 242.7 m E Pg      2011/03/26 04:48:58.1   0.0                          T                                        4664450
SMRF  001.38 242.7 m E Sg      2011/03/26 04:49:15.8  -0.1                          T                 .7  .30 Ml 1.4         4664445
LMR   001.40 203.4 m E Pg      2011/03/26 04:48:58.5   0.1                          T                                        4664449
LMR   001.40 203.4 m E Sg      2011/03/26 04:49:16.2  -0.3                          T                1.8  .24 Ml 1.9         4664446

.
EVENT     257606
    Date      Time       Latitude Longitude    Depth    Ndef Nsta Gap    Mag1  N    Mag2  N    Mag3  N   Author         ID
       rms   OT_Error      Smajor Sminor Az        Err   mdist  Mdist     Err        Err        Err      Quality

2011/03/26 05:00:38.9     44.6191    7.2653      2.0      20    8 170  Ml 1.5  8  Md 1.7  3              js067245    257606

      0.11   +-  0.04        .9     .5   59.06 +-  0.0    0.37   2.42   +-0.3      +-0.0                 m i ke

NORTHERN ITALY
Sta     Dist  EvAz     Phase      Date       Time     TRes  Azim  AzRes  Slow  SRes Def   SNR       Amp   Per   Mag1   Mag2       ID
MBDF  000.37 287.2 m E Pg      2011/03/26 05:00:46.3   0.1                          T                                        4664348
MBDF  000.37 287.2 m E Sg      2011/03/26 05:00:51.1  -0.1                          T               15.1  .26        Md 1.7  4664343
SBF   000.77 170.8 m E Pg      2011/03/26 05:00:53.3  -0.1                          T                                        4664340
SBF   000.77 170.8 m E Sg      2011/03/26 05:01:03.3  -0.1                          T                2.5  .26        Md 1.8  4664344
LPG   000.95 337.7 m E Pg      2011/03/26 05:00:56.9  -0.2                          T                                        4664345
LPG   000.95 337.7 m E Sg      2011/03/26 05:01:09.5   0.0                          T                 .7  .18 Ml 1.4 Md 1.7  4664337
LPL   000.97 337.4 m E Pg      2011/03/26 05:00:57.6   0.2                          T                                        4664346
LPL   000.97 337.4 m E Sg      2011/03/26 05:01:10.1   0.0                          T                1.8  .26 Ml 1.6         4664338
ORIF  001.03 287.4 m E Pg      2011/03/26 05:00:58.3   0.0                          T                                        4664347
ORIF  001.03 287.4 m E Sg      2011/03/26 05:01:11.7   0.0                          T                 .7  .26 Ml 1.3         4664339
SMRF  001.37 242.7 m E Pg      2011/03/26 05:01:04.6   0.0                          T                                        4664342
SMRF  001.37 242.7 m E Sg      2011/03/26 05:01:22.3  -0.1                          T                 .5  .24 Ml 1.3         4664336
LMR   001.40 203.3 m E Pg      2011/03/26 05:01:05.0   0.1                          T                                        4664341
LMR   001.40 203.3 m E Sg      2011/03/26 05:01:23.1   0.1                          T                2.1  .27 Ml 1.9         4664335
PGF   002.42 148.1 m E Pn      2011/03/26 05:01:17.8  -0.1                          T                                        4664334
PGF   002.42 148.1 m E Sn      2011/03/26 05:01:46.4   0.1                          T                 .9  .26 Ml 2.1         4664333

.
EVENT     257607
    Date      Time       Latitude Longitude    Depth    Ndef Nsta Gap    Mag1  N    Mag2  N    Mag3  N   Author         ID
       rms   OT_Error      Smajor Sminor Az        Err   mdist  Mdist     Err        Err        Err      Quality

2011/03/26 05:02:57.8     44.6198    7.2717      2.0      16    7 193  Ml 1.1  6  Md 1.4  3              js067245    257607

      0.13   +-  0.07       1.3     .7   75.55 +-  0.0    0.37   1.40   +-0.2      +-0.0                 m i ke

NORTHERN ITALY
Sta     Dist  EvAz     Phase      Date       Time     TRes  Azim  AzRes  Slow  SRes Def   SNR       Amp   Per   Mag1   Mag2       ID
MBDF  000.37 286.9 m E Pg      2011/03/26 05:03:05.4   0.1                          T                                        4664470
MBDF  000.37 286.9 m E Sg      2011/03/26 05:03:09.9  -0.3                          T                5.7  .26        Md 1.4  4664457
SBF   000.77 171.1 m E Pg      2011/03/26 05:03:12.2  -0.2                          T                                        4664464
SBF   000.77 171.1 m E Sg      2011/03/26 05:03:22.4   0.0                          T                 .6  .19        Md 1.4  4664463
LPG   000.95 337.4 m E Pg      2011/03/26 05:03:15.9  -0.2                          T                                        4664467
LPG   000.95 337.4 m E Sg      2011/03/26 05:03:28.4   0.0                          T                 .9  .32 Ml 1.3 Md 1.3  4664460
LPL   000.97 337.1 m E Pg      2011/03/26 05:03:16.6   0.2                          T                                        4664468
LPL   000.97 337.1 m E Sg      2011/03/26 05:03:29.1   0.0                          T                 .2  .20 Ml  .8         4664459
ORIF  001.04 287.2 m E Pg      2011/03/26 05:03:17.4   0.0                          T                                        4664469
ORIF  001.04 287.2 m E Sg      2011/03/26 05:03:30.8   0.0                          T                 .4  .28 Ml  .9         4664458
SMRF  001.38 242.7 m E Pg      2011/03/26 05:03:23.7   0.1                          T                                        4664466
SMRF  001.38 242.7 m E Sg      2011/03/26 05:03:41.3  -0.1                          T                 .2  .25 Ml  .9         4664461
LMR   001.40 203.4 m E Pg      2011/03/26 05:03:24.0   0.1                          T                                        4664465
LMR   001.40 203.4 m E Sg      2011/03/26 05:03:42.0   0.0                          T                 .9  .30 Ml 1.5         4664462

.
EVENT     257608
    Date      Time       Latitude Longitude    Depth    Ndef Nsta Gap    Mag1  N    Mag2  N    Mag3  N   Author         ID
       rms   OT_Error      Smajor Sminor Az        Err   mdist  Mdist     Err        Err        Err      Quality

2011/03/26 07:36:28.6     37.2716   -8.3026     10.0 f    81   16 082  Ml 3.9 19                         js067245    257608

      1.05   +-  0.19       4.4    3.7  148.77 +-  0.0    0.28  13.12   +-0.2                            m i ke

PORTUGAL
Sta     Dist  EvAz     Phase      Date       Time     TRes  Azim  AzRes  Slow  SRes Def   SNR       Amp   Per   Mag1   Mag2       ID
SJPF  007.96 040.7 m E Pn      2011/03/26 07:38:23.8   1.9                          T                                        4664605
SJPF  007.96 040.7 m E Sn      2011/03/26 07:39:46.0  -0.7                          T                                        4664601
SJPF  007.96 040.7 m E Sg      2011/03/26 07:40:39.9   2.4                          T               36.3  .59 Ml 4.2         4664575
ETSF  008.17 044.2 m E Pn      2011/03/26 07:38:26.3   1.5                          T                                        4664604
ETSF  008.17 044.2 m E Sn      2011/03/26 07:39:50.6  -1.2                          T                                        4664600
ETSF  008.17 044.2 m E Sg      2011/03/26 07:40:46.6   2.3                          T               29.4  .68 Ml 4.1         4664574
EPF   008.76 046.3 m E Pn      2011/03/26 07:38:34.6   1.7                          T                                        4664603
EPF   008.76 046.3 m E Sn      2011/03/26 07:40:05.2  -0.8                          T                                        4664576
EPF   008.76 046.3 m E Sg      2011/03/26 07:41:05.3   2.6                          T               35.8  .74 Ml 4.2         4664573
LFF   010.25 038.8 m E Pn      2011/03/26 07:38:53.5   0.5                          T                                        4664599
LFF   010.25 038.8 m E Sn      2011/03/26 07:40:41.1  -0.3                          T                9.1  .52 Ml 3.8         4664578
RJF   010.90 039.5 m E Pn      2011/03/26 07:39:02.0   0.1                          T                                        4664598
RJF   010.90 039.5 m E Sn      2011/03/26 07:40:56.1  -0.9                          T                4.9  .38 Ml 3.6         4664579
CAF   010.93 042.4 m E Pn      2011/03/26 07:39:03.3   0.9                          T                                        4664602
CAF   010.93 042.4 m E Sn      2011/03/26 07:40:57.1  -0.6                          T                5.9  .44 Ml 4.0         4664577
MFF   011.12 030.5 m E Pn      2011/03/26 07:39:05.1   0.2                          T                                        4664597
MFF   011.12 030.5 m E Sn      2011/03/26 07:41:01.2  -1.0                          T                5.9  .56 Ml 4.1         4664580
QUIF  011.29 017.9 m E Pn      2011/03/26 07:39:06.2  -0.9                          T                                        4664596
QUIF  011.29 017.9 m E Sn      2011/03/26 07:41:04.9  -1.3                          T                3.4  .34 Ml 3.9         4664587
ROSF  011.66 016.8 m E Pn      2011/03/26 07:39:12.0  -0.2                          T                                        4664594
ROSF  011.66 016.8 m E Sn      2011/03/26 07:41:13.3  -1.6                          T                2.3  .29 Ml 3.8         4664589
SGMF  011.76 019.2 m E Pn      2011/03/26 07:39:13.1  -0.4                          T                                        4664595
SGMF  011.76 019.2 m E Sn      2011/03/26 07:41:15.7  -1.7                          T                4.0  .50 Ml 3.9         4664588
TCF   011.94 037.7 m E Pn      2011/03/26 07:39:15.6  -0.4                          T                                        4664572
TCF   011.94 037.7 m E Sn      2011/03/26 07:41:20.7  -1.0                          T                3.0  .42 Ml 3.9         4664569
GRR   012.37 023.8 m E Pn      2011/03/26 07:39:21.4  -0.5                          T                                        4664584
GRR   012.37 023.8 m E Sn      2011/03/26 07:41:30.9  -1.2                          T                3.4  .44 Ml 3.8         4664581
BGF   012.44 038.3 m E Pn      2011/03/26 07:39:22.2  -0.7                          T                                        4664593
BGF   012.44 038.3 m E Sn      2011/03/26 07:41:32.8  -0.9                          T               14.4  .52 Ml 4.5         4664591
LDF   012.79 025.3 m E Pn      2011/03/26 07:39:27.1  -0.6                          T                                        4664585
LDF   012.79 025.3 m E Sn      2011/03/26 07:41:41.1  -1.1                          T                2.4  .43 Ml 3.8         4664582
FLN   012.82 023.9 m E Pn      2011/03/26 07:39:27.6  -0.4                          T                                        4664586
FLN   012.82 023.9 m E Sn      2011/03/26 07:41:41.6  -1.2                          T                2.7  .43 Ml 3.7         4664583
SSF   013.12 038.1 m E Pn      2011/03/26 07:39:31.7  -0.3                          T                                        4664571
SSF   013.12 038.1 m E Sn      2011/03/26 07:41:48.8  -1.1                          T                3.3  .68 Ml 3.8         4664570

.
EVENT     257609
    Date      Time       Latitude Longitude    Depth    Ndef Nsta Gap    Mag1  N    Mag2  N    Mag3  N   Author         ID
       rms   OT_Error      Smajor Sminor Az        Err   mdist  Mdist     Err        Err        Err      Quality

2011/03/26 08:49:26.0     48.0619    9.4920     10.0      40   11 090  Ml 2.2 11                         js067245    257609

      0.46   +-  0.06       1.1     .9  120.75 +-  0.0    0.25   3.89   +-0.3                            m i ke

GERMANY
Sta     Dist  EvAz     Phase      Date       Time     TRes  Azim  AzRes  Slow  SRes Def   SNR       Amp   Per   Mag1   Mag2       ID
LANF  001.45 310.0 m E Pn      2011/03/26 08:49:50.8   0.1                          T                                        4664627
LANF  001.45 310.0 m E Pg      2011/03/26 08:49:53.2   0.1                          T                                        4664628
LANF  001.45 310.0 m E Sg      2011/03/26 08:50:11.8   0.0                          T                5.6  .25 Ml 2.4         4664629
CDF   001.52 284.1 m E Pn      2011/03/26 08:49:51.7   0.0                          T                                        4664626
CDF   001.52 284.1 m E Pg      2011/03/26 08:49:54.4  -0.1                          T                                        4664636
CDF   001.52 284.1 m E Sg      2011/03/26 08:50:13.9  -0.3                          T                4.2  .22 Ml 2.4         4664633
HINF  001.79 263.1 m E Pn      2011/03/26 08:49:55.2  -0.1                          T                                        4664623
HINF  001.79 263.1 m E Pg      2011/03/26 08:49:58.8  -0.6                          T                                        4664634
HINF  001.79 263.1 m E Sg      2011/03/26 08:50:22.5   0.0                          T                6.5  .36 Ml 2.4         4664632
HAU   002.11 269.6 m E Pn      2011/03/26 08:49:59.4  -0.2                          T                                        4664624
HAU   002.11 269.6 m E Pg      2011/03/26 08:50:04.9  -0.3                          T                                        4664635
HAU   002.11 269.6 m E Sg      2011/03/26 08:50:32.4  -0.1                          T                4.5  .32 Ml 2.2         4664631
RUP   002.30 316.5 m E Pn      2011/03/26 08:50:02.2   0.0                          T                                        4664625
RUP   002.30 316.5 m E Sn      2011/03/26 08:50:28.9   0.1                          T                                        4664618
RUP   002.30 316.5 m E Sg      2011/03/26 08:50:38.0  -0.2                          T                                        4664617
THEF  002.35 275.4 m E Pn      2011/03/26 08:50:03.0   0.1                          T                                        4664622
THEF  002.35 275.4 m E Sg      2011/03/26 08:50:39.9   0.0                          T                4.5  .27 Ml 2.5         4664630
PAGF  002.56 282.5 m E Pn      2011/03/26 08:50:05.8   0.0  99.0  -0.7              T                                        4664621
PAGF  002.56 282.5 m E Pg      2011/03/26 08:50:13.4  -0.1                          T                                        4664609
PAGF  002.56 282.5 m E Sg      2011/03/26 08:50:46.5   0.0                          T                 .4  .28 Ml 1.5         4664616
CABF  002.73 239.2 m E Pn      2011/03/26 08:50:08.2   0.0                          T                                        4664608
CABF  002.73 239.2 m E Pg      2011/03/26 08:50:16.8   0.0                          T                                        4664611
CABF  002.73 239.2 m E Sg      2011/03/26 08:50:52.0   0.0                          T                 .7  .19 Ml 1.9         4664610
MEZF  003.00 280.1 m E Pn      2011/03/26 08:50:11.6  -0.1                          T                                        4664612
SFTF  002.99 274.4 m E Pn      2011/03/26 08:50:11.6   0.1                          T                                        4664613
SFTF  002.99 274.4 m E Sg      2011/03/26 08:50:59.7   0.0                          T                5.3  .47 Ml 2.5         4664614
MEZF  003.00 280.1 m E Sg      2011/03/26 08:51:00.0  -0.1                          T                3.6  .28 Ml 2.5         4664615
LOR   003.89 260.3 m E Pn      2011/03/26 08:50:24.0   0.1  85.3  9.1               T                                        4664620
LOR   003.89 260.3 m E Sn      2011/03/26 08:51:06.7  -0.2                          T                  1  .36 Ml 2.1         4664619

.
