EVENT     255562
    Date      Time       Latitude Longitude    Depth    Ndef Nsta Gap    Mag1  N    Mag2  N    Mag3  N   Author         ID
       rms   OT_Error      Smajor Sminor Az        Err   mdist  Mdist     Err        Err        Err      Quality

2011/02/03 03:16:06.2     43.7982    7.5409     15.0     119   31 099  Ml 3.1 37  Md 3.0  3              js067245    255582

      0.62   +-  0.07       1.3    1.0  162.22 +-  0.0    0.10   5.30   +-0.4      +-0.0                 m i ke

NEAR SOUTH COAST OF FRANCE
Sta     Dist  EvAz     Phase      Date       Time     TRes  Azim  AzRes  Slow  SRes Def   SNR       Amp   Per   Mag1   Mag2       ID
SBF   000.10 310.4 m E Pg      2011/02/03 03:16:09.7   0.1                          T                                        4642416
SBF   000.10 310.4 m E Sg      2011/02/03 03:16:11.8  -0.1                          T             6609.8  .18        Md 3.0  4642415
FRF   000.69 250.2 m E Pg      2011/02/03 03:16:19.9   0.5                          T                                        4642418
FRF   000.69 250.2 m E Sg      2011/02/03 03:16:29.3   0.7                          T              214.7  .18        Md 3.0  4642413
LMR   000.88 238.6 m E Pg      2011/02/03 03:16:23.1   0.2                          T                                        4642417
LMR   000.88 238.6 m E P       2011/02/03 03:16:23.7   0.0                          T                                        4642475
LMR   000.88 238.6 m E Sg      2011/02/03 03:16:34.4  -0.1                          T              352.3  .26 Ml 3.9 Md 3.0  4642414
MBDF  001.08 329.5 m E Pg      2011/02/03 03:16:26.6  -0.2                          T                                        4642423
MBDF  001.08 329.5 m E P       2011/02/03 03:16:27.2   0.1                          T                                        4642476
MBDF  001.08 329.5 m E Sg      2011/02/03 03:16:40.8  -0.1                          T              112.4  .27 Ml 3.5         4642378
SMRF  001.43 277.8 m E Pg      2011/02/03 03:16:32.6  -0.4                          T                                        4642419
SMRF  001.43 277.8 m E Sg      2011/02/03 03:16:52.1   0.5                          T              314.5  .34 Ml 4.0         4642412
PGF   001.64 139.0 m E Pn      2011/02/03 03:16:32.7  -0.3                          T                                        4642383
PGF   001.64 139.0 m E Sn      2011/02/03 03:16:51.6  -1.0                          T               59.2  .26 Ml 3.7         4642382
ORIF  001.64 313.8 m E Pg      2011/02/03 03:16:36.7  -0.1                          T                                        4642422
ORIF  001.64 313.8 m E Sg      2011/02/03 03:16:57.4  -0.6                          T              116.3  .40 Ml 3.6         4642379
LPG   001.79 341.9 m E Pg      2011/02/03 03:16:38.4  -1.5                          T                                        4642420
LPG   001.79 341.9 m E Sg      2011/02/03 03:17:02.7  -0.3                          T              159.5  .64 Ml 3.6         4642381
LPL   001.81 341.7 m E Pg      2011/02/03 03:16:39.0  -1.3                          T                                        4642421
LPL   001.81 341.7 m E Sg      2011/02/03 03:17:03.0  -0.6                          T               87.4  .60 Ml 3.3         4642380
VIVF  002.31 298.2 m E P       2011/02/03 03:16:44.3  -0.3                          T                                        4642477
VIVF  002.31 298.2 m E Pg      2011/02/03 03:16:49.1  -0.2                          T                                        4642411
VIVF  002.31 298.2 m E Sn      2011/02/03 03:17:08.5  -0.1                          T               11.0  .16 Ml 3.1         4642474
VIVF  002.31 298.2 m E Sg      2011/02/03 03:17:18.8  -0.3                          T               17.0  .20 Ml 3.2         4642377
LASF  002.68 277.2 m E Pn      2011/02/03 03:16:48.4   1.5                          T                                        4642385
LASF  002.68 277.2 m E Pg      2011/02/03 03:16:56.0   0.1                          T                                        4642410
LASF  002.68 277.2 m E Sn      2011/02/03 03:17:17.2   0.0                          T               10.1  .20 Ml 3.1         4642376
LASF  002.68 277.2 m E Sg      2011/02/03 03:17:30.4   0.1                          T                8.7  .24 Ml 2.9         4642473
CABF  002.99 340.4 m E P       2011/02/03 03:16:54.2  -0.2                          T                                        4642394
CABF  002.99 340.4 m E Sg      2011/02/03 03:17:39.7  -0.6                          T                4.5  .29 Ml 2.6         4642366
SMF   003.86 318.7 m E Pn      2011/02/03 03:17:02.9  -0.3                          T                                        4642393
SMF   003.86 318.7 m E P       2011/02/03 03:17:06.7   0.0                          T                                        4642482
SMF   003.86 318.7 m E S       2011/02/03 03:17:52.2  -0.4                          T                                        4642349
SMF   003.86 318.7 m E Sg      2011/02/03 03:18:06.7  -0.6                          T                6.6  .22 Ml 3.1         4642367
MTLF  003.90 265.1 m E Pn      2011/02/03 03:17:03.4  -0.2                          T                                        4642386
MTLF  003.90 265.1 m E P       2011/02/03 03:17:06.2  -0.9                          T                                        4642478
MTLF  003.90 265.1 m E Pg      2011/02/03 03:17:18.3   0.0                          T                                        4642409
MTLF  003.90 265.1 m E Sn      2011/02/03 03:17:46.3   0.0                          T                2.8  .22 Ml 2.7         4642375
MTLF  003.90 265.1 m E Sg      2011/02/03 03:18:08.4   0.1                          T                9.3  .52 Ml 2.9         4642374
CAF   004.09 287.9 m E P       2011/02/03 03:17:08.8  -1.0                          T                                        4642479
CAF   004.09 287.9 m E Pg      2011/02/03 03:17:21.9   0.0                          T                                        4642408
CAF   004.09 287.9 m E Sn      2011/02/03 03:17:50.4  -0.4                          T                1.9  .16 Ml 2.8         4642351
CAF   004.09 287.9 m E Sg      2011/02/03 03:18:14.2  -0.1                          T                1.9  .22 Ml 2.6         4642373
HINF  004.05 353.4 m E P       2011/02/03 03:17:09.1  -0.2                          T                                        4642395
HINF  004.05 353.4 m E Sn      2011/02/03 03:17:50.0   0.0                          T                4.8  .30 Ml 2.9         4642365
BGF   004.32 311.4 m E Pn      2011/02/03 03:17:09.3   0.0                          T                                        4642391
BGF   004.32 311.4 m E P       2011/02/03 03:17:13.1   0.0                          T                                        4642481
BGF   004.32 311.4 m E Sg      2011/02/03 03:18:21.2  -0.2                          T               10.7  .40 Ml 3.1         4642369
TCF   004.52 305.2 m E Pn      2011/02/03 03:17:12.2   0.1                          T                                        4642403
TCF   004.52 305.2 m E Sn      2011/02/03 03:18:01.3   0.0                          T                                        4642355
TCF   004.52 305.2 m E Sg      2011/02/03 03:18:27.9  -0.1                          T                1.8  .33 Ml 2.5         4642352
HAU   004.29 349.2 m E P       2011/02/03 03:17:12.5  -0.3                          T                                        4642396
HAU   004.29 349.2 m E Sn      2011/02/03 03:17:55.2  -0.6                          T               13.7  .31 Ml 3.1         4642364
RJF   004.56 291.4 m E Pn      2011/02/03 03:17:12.6   0.0                          T                                        4642389
RJF   004.56 291.4 m E Sn      2011/02/03 03:18:02.5   0.3                          T                                        4642350
RJF   004.56 291.4 m E Sg      2011/02/03 03:18:29.2   0.1                          T                2.0  .22 Ml 2.4         4642372
LOR   004.33 324.6 m E P       2011/02/03 03:17:12.6  -0.6 142.5  0.5               T                                        4642404
SSF   004.33 320.4 m E P       2011/02/03 03:17:12.6  -0.6                          T                                        4642405
SSF   004.33 320.4 m E Pg      2011/02/03 03:17:26.0  -0.2                          T                                        4642406
LOR   004.33 324.6 m E Pg      2011/02/03 03:17:26.2  -0.1 140.8  -1.2              T                                        4642407
SSF   004.33 320.4 m E Sn      2011/02/03 03:17:56.5  -0.1                          T                                        4642357
LOR   004.33 324.6 m E Sn      2011/02/03 03:17:56.5  -0.2 152.3  10.4              T                                        4642356
SSF   004.33 320.4 m E Sg      2011/02/03 03:18:21.4  -0.3                          T                2.8  .31 Ml 2.8         4642353
LOR   004.33 324.6 m E Sg      2011/02/03 03:18:21.5  -0.3 144.6  2.6               T                3.3  .30 Ml 2.8         4642354
CDF   004.62 357.8 m E Pn      2011/02/03 03:17:13.5   0.0                          T                                        4642402
CDF   004.62 357.8 m E P       2011/02/03 03:17:16.7  -0.8                          T                                        4642483
CDF   004.62 357.8 m E Sn      2011/02/03 03:18:03.5  -0.2                          T                3.0  .26 Ml 3.0         4642359
SFTF  004.74 339.3 m E Pn      2011/02/03 03:17:15.0  -0.1 160.5  3.0               T                                        4642398
SFTF  004.74 339.3 m E Sn      2011/02/03 03:18:06.4  -0.1                          T                6.5  .26 Ml 3.2         4642362
THEF  004.56 346.9 m E P       2011/02/03 03:17:16.5   0.0                          T                                        4642397
THEF  004.56 346.9 m E Sn      2011/02/03 03:18:02.1  -0.1                          T                3.9  .15 Ml 3.2         4642363
HYF   004.89 316.9 m E Pn      2011/02/03 03:17:17.2   0.1                          T                                        4642392
HYF   004.89 316.9 m E Sg      2011/02/03 03:18:39.0  -0.3                          T                                        4642368
LFF   005.01 285.5 m E Pn      2011/02/03 03:17:18.6  -0.1                          T                                        4642387
LFF   005.01 285.5 m E Sg      2011/02/03 03:18:42.8  -0.1                          T                6.9  .46 Ml 2.9         4642371
MEZF  005.01 340.7 m E Pn      2011/02/03 03:17:18.7  -0.1                          T                                        4642399
MEZF  005.01 340.7 m E Sn      2011/02/03 03:18:12.8  -0.2 160.3  1.4               T                7.5  .32 Ml 3.3         4642361
LANF  005.19 001.9 m E Pn      2011/02/03 03:17:21.2   0.0                          T                                        4642400
LANF  005.19 001.9 m E Sn      2011/02/03 03:18:16.8  -0.3                          T                1.1  .23 Ml 2.6         4642358
PAGF  004.92 345.8 m E P       2011/02/03 03:17:21.5  -0.2                          T                                        4642401
PAGF  004.92 345.8 m E Sn      2011/02/03 03:18:10.7  -0.1 165.0  0.5               T                3.5  .41 Ml 2.8         4642360
EPF   005.30 264.2 m E Sg      2011/02/03 03:18:52.0  -0.2                          T                6.0  .45 Ml 3.1         4642348

.
EVENT     255587
    Date      Time       Latitude Longitude    Depth    Ndef Nsta Gap    Mag1  N    Mag2  N    Mag3  N   Author         ID
       rms   OT_Error      Smajor Sminor Az        Err   mdist  Mdist     Err        Err        Err      Quality

2011/02/03 11:13:10.0     48.7870    5.9990       .0 f    13    8 106  Ml 2.0  5  Md 2.1  1              js067245    255607

      0.74   +-  0.13       2.3    1.9  126.49 +-  0.0    0.29   2.09   +-0.2      +-                    m i km

FRANCE
Sta     Dist  EvAz     Phase      Date       Time     TRes  Azim  AzRes  Slow  SRes Def   SNR       Amp   Per   Mag1   Mag2       ID
PAGF  000.29 218.1 m E Pg      2011/02/03 11:13:16.1   0.1  35.9  -2.1              T                                        4642960
PAGF  000.29 218.1 m E Sg      2011/02/03 11:13:20.4   0.2  29.6  -8.4              T               19.2  .80        Md 2.1  4642961
HAU   000.82 163.3 m E Pg      2011/02/03 11:13:26.0   0.4                          T                                        4642955
HAU   000.82 163.3 m E Sg      2011/02/03 11:13:36.5   0.1                          T               28.3  .44                4642957
CDF   000.93 113.4 m E Pg      2011/02/03 11:13:27.5  -0.3                          T                                        4642958
CDF   000.93 113.4 m E Sn      2011/02/03 11:13:42.1  -0.2                          T                4.2  .29 Ml 2.0         4642959
RUP   001.15 036.8 m E Pg      2011/02/03 11:13:31.9   0.1                          T                                        4642951
RUP   001.15 036.8 m E Sg      2011/02/03 11:13:47.4   0.5                          T                                        4642952
LANF  001.21 080.1 m E Pg      2011/02/03 11:13:32.4  -0.4                          T                                        4642949
LANF  001.21 080.1 m E Sg      2011/02/03 11:13:48.8   0.1                          T                3.3  .26 Ml 2.0         4642950
HINF  001.13 149.3 m E Sn      2011/02/03 11:13:46.7  -0.2                          T                6.8  .32 Ml 2.2         4642956
GIVF  001.52 330.2 m E Sg      2011/02/03 11:13:58.9   0.5                          T                 .5  .13 Ml 1.7         4642953
LOR   002.09 224.2 m E Sg      2011/02/03 11:14:15.4  -0.8                          T                1.6  .25 Ml 2.1         4642954

.
EVENT     255600
    Date      Time       Latitude Longitude    Depth    Ndef Nsta Gap    Mag1  N    Mag2  N    Mag3  N   Author         ID
       rms   OT_Error      Smajor Sminor Az        Err   mdist  Mdist     Err        Err        Err      Quality

2011/02/03 11:20:43.0     47.5099    7.7321     10.0      14    5 091  Ml 1.6  4  Md 1.6  1              js067245    255620

      0.51   +-  0.10       2.2    1.5  162.68 +-  0.0    0.16   1.44   +-0.2      +-                    m i ke

SWITZERLAND
Sta     Dist  EvAz     Phase      Date       Time     TRes  Azim  AzRes  Slow  SRes Def   SNR       Amp   Per   Mag1   Mag2       ID
HINF  000.67 297.7 m E Pg      2011/02/03 11:20:55.3  -0.5                          T                                        4642743
HINF  000.67 297.7 m E Sg      2011/02/03 11:21:03.9  -0.7                          T                1.3  .29        Md 1.6  4642740
CDF   000.95 341.4 m E Pg      2011/02/03 11:21:01.1   0.0                          T                                        4642962
CDF   000.95 341.4 m E Sn      2011/02/03 11:21:13.1  -0.7                          T                 .9  .27 Ml 1.4         4642963
HAU   001.06 298.5 m E Pg      2011/02/03 11:21:02.3  -0.6                          T                                        4642742
HAU   001.06 298.5 m E Sg      2011/02/03 11:21:15.8  -0.9                          T                2.7  .34 Ml 1.5         4642739
THEF  001.37 302.2 m E Pg      2011/02/03 11:21:08.8   0.1                          T                                        4642738
THEF  001.37 302.2 m E Sg      2011/02/03 11:21:26.4  -0.1                          T                2.0  .26 Ml 1.9         4642744
CABF  001.44 232.0 m E Pg      2011/02/03 11:21:09.1  -1.0                          T                1.9  .38 Ml 1.7         4642745
CABF  001.44 232.0 m E Sg      2011/02/03 11:21:27.7  -1.0                          T                                        4642746

.
EVENT     255602
    Date      Time       Latitude Longitude    Depth    Ndef Nsta Gap    Mag1  N    Mag2  N    Mag3  N   Author         ID
       rms   OT_Error      Smajor Sminor Az        Err   mdist  Mdist     Err        Err        Err      Quality

2011/02/03 16:32:05.6     47.8679    6.5826       .0 f    17    9 089  Ml 1.8  4  Md 1.7  2              js067245    255622

      1.05   +-  0.11       2.3    1.8   14.40 +-  0.0    0.19   1.94   +-0.2      +-0.1                 m i km

FRANCE
Sta     Dist  EvAz     Phase      Date       Time     TRes  Azim  AzRes  Slow  SRes Def   SNR       Amp   Per   Mag1   Mag2       ID
HINF  000.19 105.6 m E Pg      2011/02/03 16:32:09.9   0.1                          T                                        4642977
HINF  000.19 105.6 m E Sg      2011/02/03 16:32:12.6   0.0                          T               56.7  .76        Md 1.8  4642978
HAU   000.21 311.2 m E Pg      2011/02/03 16:32:10.0  -0.1                          T                                        4642979
HAU   000.21 311.2 m E Sg      2011/02/03 16:32:12.8  -0.3                          T              135.4  .84        Md 1.6  4642980
THEF  000.53 312.6 m E Pg      2011/02/03 16:32:16.2   0.1                          T                                        4642968
THEF  000.53 312.6 m E Sg      2011/02/03 16:32:23.1  -0.2                          T               78.6 1.11                4642969
CDF   000.72 040.2 m E Pg      2011/02/03 16:32:19.6   0.1                          T                                        4642964
CDF   000.72 040.2 m E Pn      2011/02/03 16:32:21.2  -0.4                          T                                        4642974
CDF   000.72 040.2 m E Sg      2011/02/03 16:32:29.2   0.2                          T                                        4642975
CDF   000.72 040.2 m E Sn      2011/02/03 16:32:32.5  -0.4                          T               12.1  .22                4642976
SFTF  001.09 288.6 m E Pn      2011/02/03 16:32:26.7   0.0 116.8  9.3               T                                        4642973
SFTF  001.09 288.6 m E Sn      2011/02/03 16:32:41.9   0.2                          T                3.3  .25 Ml 2.0         4642971
MEZF  001.20 302.3 m E Pg      2011/02/03 16:32:28.5   0.1                          T                                        4642970
CABF  001.30 195.2 m E P       2011/02/03 16:32:31.1  -0.1                          T                                        4642966
CABF  001.30 195.2 m E Sg      2011/02/03 16:32:47.6   0.2                          T                1.3  .24 Ml 1.7         4642967
PAGF  000.90 320.5 m E Sg      2011/02/03 16:32:34.4  -0.1 139.9  0.1               T                2.0  .40 Ml 1.5         4642965
LOR   001.94 253.0 m E Sg      2011/02/03 16:33:07.2   0.1  80.7  9.7               T                1.2  .21 Ml 2.0         4642972

.
