EVENT     293383
    Date      Time       Latitude Longitude    Depth    Ndef Nsta Gap    Mag1  N    Mag2  N    Mag3  N   Author         ID
       rms   OT_Error      Smajor Sminor Az        Err   mdist  Mdist     Err        Err        Err      Quality

2013/03/07 20:28:53.4     47.0615    9.4999      2.0 f    35    9 088  Ml 2.0  8                         bulletin    293483
                                                                                                         _ldg
      1.41   +-  0.23       4.7    4.0   94.88 +-  0.0    0.08   3.85   +-0.2                            m i ke

GERMANY
Sta     Dist  EvAz     Phase      Date       Time     TRes  Azim  AzRes  Slow  SRes Def   SNR       Amp   Per   Mag1   Mag2       ID
HINF  001.95 293.8 m E Pn      2013/03/07 20:29:26.0   0.3                          T                                        5218984
HINF  001.95 293.8 m E Sg      2013/03/07 20:29:53.8  -0.9                          T                  1  .18 Ml 1.9         5218982
CDF   002.02 312.8 m E Pn      2013/03/07 20:29:27.1   0.4                          T                                        5219112
CDF   002.02 312.8 m E Sn      2013/03/07 20:29:51.2   0.1                          T                                        5219111
CDF   002.02 312.8 m E Sg      2013/03/07 20:29:57.1   0.0                          T                1.2  .21 Ml 2.1         5219110
HAU   002.34 295.0 m E Pn      2013/03/07 20:29:31.3   0.3                          T                                        5218986
HAU   002.34 295.0 m E Sn      2013/03/07 20:29:58.2  -0.4                          T                                        5219100
HAU   002.34 295.0 m E Sg      2013/03/07 20:30:06.2  -0.6                          T                                        5218985
CABF  002.39 260.4 m E Pn      2013/03/07 20:29:31.7  -0.1                          T                                        5219099
CABF  002.39 260.4 m E Pg      2013/03/07 20:29:37.3  -0.5                          T                                        5218983
CABF  002.39 260.4 m E Sg      2013/03/07 20:30:08.9   0.5                          T                2.0  .23 Ml 2.2         5218981
PAGF  002.95 301.8 m E Pn      2013/03/07 20:29:39.3  -0.1 116.3  -2.7              T                                        5219109
PAGF  002.95 301.8 m E Sg      2013/03/07 20:30:26.4   0.4 142.3  23.3              T                1.6  .32 Ml 2.1         5219108
LPG   002.47 231.6 m E Pg      2013/03/07 20:29:39.9   0.4                          T                                        5218987
LPG   002.47 231.6 m E Sg      2013/03/07 20:30:14.7   3.5                          T                 .6  .20 Ml 1.8         5218989
LPL   002.46 232.2 m E Pg      2013/03/07 20:29:40.3   0.9                          T                                        5218988
LPL   002.46 232.2 m E Sg      2013/03/07 20:30:14.5   3.4                          T                 .5  .24 Ml 1.7         5218990
SFTF  003.23 292.4 m E Pn      2013/03/07 20:29:43.1   0.0 120.6  11.5              T                                        5219106
SFTF  003.23 292.4 m E Sn      2013/03/07 20:30:20.1   0.3                          T                                        5219105
SFTF  003.23 292.4 m E Sg      2013/03/07 20:30:34.8   0.2 120.0  10.9              T                2.3  .29 Ml 2.4         5219104
MEZF  003.33 297.3 m E Pn      2013/03/07 20:29:44.9   0.5                          T                                        5219107

.
EVENT     293381
    Date      Time       Latitude Longitude    Depth    Ndef Nsta Gap    Mag1  N    Mag2  N    Mag3  N   Author         ID
       rms   OT_Error      Smajor Sminor Az        Err   mdist  Mdist     Err        Err        Err      Quality

2013/03/07 20:31:47.4     42.8167     .1826      2.0       8    4 208  Ml 1.2  1  Md 1.3  2              bulletin    293481
                                                                                                         _ldg
      0.25   +-  0.19       5.1    1.8  169.45 +-  0.0    0.24   1.58   +-         +-0.1                 m i ke

PYRENEES
Sta     Dist  EvAz     Phase      Date       Time     TRes  Azim  AzRes  Slow  SRes Def   SNR       Amp   Per   Mag1   Mag2       ID
EPF   000.24 028.4 m E Pg      2013/03/07 20:31:52.5   0.3                          T                                        5218999
EPF   000.24 028.4 m E Sg      2013/03/07 20:31:55.1  -0.4                          T                3.6  .19        Md 1.3  5218998
ETSF  000.55 278.8 m E Pg      2013/03/07 20:31:57.9  -0.1                          T                                        5219006
ETSF  000.55 278.8 m E Sg      2013/03/07 20:32:05.6   0.4                          T                4.7  .26        Md 1.2  5218997
SJPF  001.07 286.5 m E Pg      2013/03/07 20:32:07.5   0.0                          T                                        5219447
SJPF  001.07 286.5 m E Sg      2013/03/07 20:32:21.4  -0.1                          T                 .3  .14 Ml 1.2         5219434
MTLF  001.58 069.9 m E Pg      2013/03/07 20:32:16.6  -0.2                          T                                        5219446
MTLF  001.58 069.9 m E Sg      2013/03/07 20:32:37.6   0.4                          T                                        5219445

.
EVENT     293382
    Date      Time       Latitude Longitude    Depth    Ndef Nsta Gap    Mag1  N    Mag2  N    Mag3  N   Author         ID
       rms   OT_Error      Smajor Sminor Az        Err   mdist  Mdist     Err        Err        Err      Quality

2013/03/07 20:42:58.0     42.7459   -1.7607      2.0      18    3 105  Ml 2.0  2  Md 2.0  2              bulletin    293482
                                                                                                         _ldg
      0.53   +-  0.15       2.7    2.4   13.63 +-  0.0    0.14   2.53   +-0.2      +-0.1                 m i ke

PYRENEES
Sta     Dist  EvAz     Phase      Date       Time     TRes  Azim  AzRes  Slow  SRes Def   SNR       Amp   Per   Mag1   Mag2       ID
SJPF  000.54 046.8 m E Pg      2013/03/07 20:43:07.9  -0.4                          T                                        5219005
SJPF  000.54 046.8 m E Sg      2013/03/07 20:43:14.8  -0.6                          T                8.1  .25        Md 2.1  5219002
ETSF  000.90 079.8 m E Pg      2013/03/07 20:43:16.0   1.0                          T                                        5219004
ETSF  000.90 079.8 m E Sg      2013/03/07 20:43:27.0   0.4                          T                2.7  .24 Ml 1.8 Md 1.9  5219001
EPF   001.57 078.9 m E Pg      2013/03/07 20:43:27.8   0.4                          T                                        5219003
EPF   001.57 078.9 m E Sg      2013/03/07 20:43:47.7   0.1                          T                2.1  .19 Ml 2.1         5219000

.
EVENT     293539
    Date      Time       Latitude Longitude    Depth    Ndef Nsta Gap    Mag1  N    Mag2  N    Mag3  N   Author         ID
       rms   OT_Error      Smajor Sminor Az        Err   mdist  Mdist     Err        Err        Err      Quality

2013/03/07 21:31:21.7     42.8395    2.4837      2.0      34    6 055  Ml 1.7  5  Md 1.8  1              bulletin    293639
                                                                                                         _ldg
      0.32   +-  0.05       1.0     .9   69.70 +-  0.0    0.25   2.45   +-0.1      +-                    m i ke

PYRENEES
Sta     Dist  EvAz     Phase      Date       Time     TRes  Azim  AzRes  Slow  SRes Def   SNR       Amp   Per   Mag1   Mag2       ID
MTLF  000.54 338.8 m E Pg      2013/03/07 21:31:32.1   0.1                          T                                        5220726
MTLF  000.54 338.8 m E Pn      2013/03/07 21:31:34.9   0.2                          T                                        5220875
MTLF  000.54 338.8 m E Sg      2013/03/07 21:31:38.8  -0.2                          T                 .9  .20        Md 1.8  5220725
EPF   001.59 277.6 m E Pn      2013/03/07 21:31:48.9  -0.3                          T                                        5220874
EPF   001.59 277.6 m E Pg      2013/03/07 21:31:51.5   0.1                          T                                        5220873
EPF   001.59 277.6 m E Sn      2013/03/07 21:32:09.1   0.1                          T                                        5220872
EPF   001.59 277.6 m E Sg      2013/03/07 21:32:11.4  -0.3                          T                 .6  .17 Ml 1.7         5220879
LASF  001.59 038.5 m E Pn      2013/03/07 21:31:49.2   0.1                          T                                        5220877
LASF  001.59 038.5 m E Pg      2013/03/07 21:31:51.3  -0.1                          T                                        5220876
LASF  001.59 038.5 m E Sg      2013/03/07 21:32:11.7  -0.1                          T                 .4  .16 Ml 1.5         5220878
CAF   002.11 351.9 m E Pn      2013/03/07 21:31:56.9   0.6                          T                                        5220869
CAF   002.11 351.9 m E Sn      2013/03/07 21:32:20.9  -0.6                          T                                        5220868
CAF   002.11 351.9 m E Sg      2013/03/07 21:32:28.0  -0.1                          T                 .5  .17 Ml 1.7         5220867
ETSF  002.24 272.5 m E Pn      2013/03/07 21:31:58.2   0.1                          T                                        5220871
ETSF  002.24 272.5 m E Sn      2013/03/07 21:32:24.4  -0.3                          T                 .4  .14 Ml 1.7         5220870
LFF   002.45 329.6 m E Pn      2013/03/07 21:32:01.0   0.2                          T                                        5220866
LFF   002.45 329.6 m E Sg      2013/03/07 21:32:38.3  -0.3                          T                1.0  .23 Ml 1.8         5220865

.
EVENT     293385
    Date      Time       Latitude Longitude    Depth    Ndef Nsta Gap    Mag1  N    Mag2  N    Mag3  N   Author         ID
       rms   OT_Error      Smajor Sminor Az        Err   mdist  Mdist     Err        Err        Err      Quality

2013/03/07 22:26:35.3     47.2827    5.7636      8.0 f    62   21 074  Ml 2.1 17  Md 2.0  2              bulletin    293485
                                                                                                         _ldg
      0.56   +-  0.04        .8     .7  132.36 +-  0.0    0.71   2.96   +-0.4      +-0.1                 m i ke

FRANCE
Sta     Dist  EvAz     Phase      Date       Time     TRes  Azim  AzRes  Slow  SRes Def   SNR       Amp   Per   Mag1   Mag2       ID
CABF  000.71 161.6 m E Pg      2013/03/07 22:26:49.0   0.1                          T                                        5219443
CABF  000.71 161.6 m E Pn      2013/03/07 22:26:49.9  -0.3                          T                                Md 2.0  5219038
CABF  000.71 161.6 m E Sg      2013/03/07 22:26:57.7  -0.4                          T                3.3  .21                5219026
HAU   000.82 028.4 m E Pg      2013/03/07 22:26:50.9  -0.1                          T                                        5219444
HAU   000.82 028.4 m E Pn      2013/03/07 22:26:51.3  -0.4                          T                                        5219036
HAU   000.82 028.4 m E Sg      2013/03/07 22:27:01.2  -0.5                          T               25.6  .22                5219028
HINF  000.91 053.7 m E Pg      2013/03/07 22:26:52.5   0.0                          T                                        5219439
HINF  000.91 053.7 m E Pn      2013/03/07 22:26:52.9  -0.1                          T                                Md 2.1  5219037
HINF  000.91 053.7 m E Sg      2013/03/07 22:27:03.9  -0.6                          T                8.2  .18 Ml 2.4         5219027
THEF  000.96 009.2 m E Pg      2013/03/07 22:26:53.4   0.0                          T                                        5222570
THEF  000.96 009.2 m E Sg      2013/03/07 22:27:05.2  -0.7                          T                                        5222571
SFTF  001.04 332.3 m E Pg      2013/03/07 22:26:54.8  -0.1 146.5  -5.3              T                                        5219035
SFTF  001.04 332.3 m E Sg      2013/03/07 22:27:08.3  -0.2 153.7  1.9               T               10.7  .20 Ml 2.6         5219029
LOR   001.30 270.1 m E Pn      2013/03/07 22:26:58.0  -0.1  92.9  4.2               T                                        5219041
LOR   001.30 270.1 m E Pg      2013/03/07 22:26:59.7   0.1  93.9  5.2               T                                        5219437
LOR   001.30 270.1 m E Sg      2013/03/07 22:27:16.0  -0.4  95.6  6.9               T               10.8  .22 Ml 2.6         5219042
PAGF  001.27 358.9 m E Pg      2013/03/07 22:26:59.2   0.1 178.5  -0.3              T                                        5219034
PAGF  001.27 358.9 m E Sg      2013/03/07 22:27:15.6  -0.1 184.5  5.7               T                9.2  .18 Ml 2.6         5219031
MEZF  001.31 338.8 m E Pg      2013/03/07 22:26:59.9   0.1 160.1  1.8               T                                        5219130
MEZF  001.31 338.8 m E Sg      2013/03/07 22:27:16.8   0.0 162.8  4.5               T                4.5  .20 Ml 2.3         5219030
SMF   001.46 244.9 m E Pn      2013/03/07 22:27:00.2  -0.1                          T                                        5219139
SMF   001.46 244.9 m E Pg      2013/03/07 22:27:02.7   0.1                          T                                        5219138
SMF   001.46 244.9 m E Sn      2013/03/07 22:27:18.1  -0.5                          T                                        5219137
SMF   001.46 244.9 m E Sg      2013/03/07 22:27:21.3  -0.2                          T                3.4  .18 Ml 2.3         5219136
CDF   001.52 041.5 m E Pn      2013/03/07 22:27:01.2  -0.1                          T                                        5219150
CDF   001.52 041.5 m E Pg      2013/03/07 22:27:03.6  -0.2                          T                                        5219033
CDF   001.52 041.5 m E Sn      2013/03/07 22:27:19.2  -0.9                          T                                        5219442
CDF   001.52 041.5 m E Sg      2013/03/07 22:27:23.1  -0.4                          T                4.5  .24 Ml 2.4         5219032
SSF   001.56 262.6 m E Pn      2013/03/07 22:27:01.5  -0.1                          T                                        5219040
SSF   001.56 262.6 m E Pg      2013/03/07 22:27:04.4   0.1                          T                                        5219438
SSF   001.56 262.6 m E Sn      2013/03/07 22:27:20.2  -0.6                          T                                        5219441
SSF   001.56 262.6 m E Sg      2013/03/07 22:27:24.3  -0.2                          T                1.6  .18 Ml 2.1         5219039
AVF   001.72 254.3 m E Pn      2013/03/07 22:27:04.0   0.1                          T                                        5219142
AVF   001.72 254.3 m E Pg      2013/03/07 22:27:07.3   0.0                          T                                        5219141
AVF   001.72 254.3 m E Sg      2013/03/07 22:27:29.6   0.0                          T                 .5  .18 Ml 1.6         5219140
LPL   001.89 158.9 m E Pn      2013/03/07 22:27:06.6   0.2                          T                                        5219156
LPL   001.89 158.9 m E Pg      2013/03/07 22:27:10.2  -0.5                          T                                        5219155
LPL   001.89 158.9 m E Sg      2013/03/07 22:27:35.0  -0.2                          T                 .9  .28 Ml 1.7         5219154
LPG   001.91 158.7 m E Pn      2013/03/07 22:27:07.1   0.3                          T                                        5219152
LPG   001.91 158.7 m E Pg      2013/03/07 22:27:10.8  -0.4                          T                                        5219153
LPG   001.91 158.7 m E Sg      2013/03/07 22:27:35.4  -0.5                          T                 .3  .12 Ml 1.6         5219151
HYF   002.13 270.8 m E Pn      2013/03/07 22:27:09.4   0.0                          T                                        5219451
HYF   002.13 270.8 m E Pg      2013/03/07 22:27:14.8  -0.1                          T                                        5219450
HYF   002.13 270.8 m E Sn      2013/03/07 22:27:34.7   0.2                          T                                        5219449
HYF   002.13 270.8 m E Sg      2013/03/07 22:27:42.2  -0.1                          T                                        5219448
BGF   002.13 251.1 m E Pn      2013/03/07 22:27:09.5   0.1                          T                                        5219135
BGF   002.13 251.1 m E Pg      2013/03/07 22:27:14.6  -0.2                          T                                        5219134
BGF   002.13 251.1 m E Sn      2013/03/07 22:27:34.1  -0.4                          T                                        5219133
BGF   002.13 251.1 m E Sg      2013/03/07 22:27:41.9  -0.4                          T                1.5  .25 Ml 2.0         5219132
VIVF  002.54 197.8 m E Pn      2013/03/07 22:27:15.2   0.0                          T                                        5219163
VIVF  002.54 197.8 m E Sn      2013/03/07 22:27:44.2  -0.2                          T                                        5219162
VIVF  002.54 197.8 m E Sg      2013/03/07 22:27:54.8  -0.5                          T                1.4  .22 Ml 2.1         5219161
TCF   002.64 249.1 m E Pn      2013/03/07 22:27:16.7   0.3                          T                                        5219452
TCF   002.64 249.1 m E Pg      2013/03/07 22:27:24.0  -0.3                          T                                        5219145
TCF   002.64 249.1 m E Sn      2013/03/07 22:27:47.5   0.8                          T                                        5219144
TCF   002.64 249.1 m E Sg      2013/03/07 22:27:57.7  -0.5                          T                 .6  .23 Ml 1.8         5219143
MBDF  002.65 164.3 m E Pn      2013/03/07 22:27:16.9   0.2                          T                                        5219160
MBDF  002.65 164.3 m E Pg      2013/03/07 22:27:25.2   0.5                          T                                        5219159
ORIF  002.37 178.0 m E Pg      2013/03/07 22:27:19.2  -0.2                          T                                        5219157
ORIF  002.37 178.0 m E Sg      2013/03/07 22:27:49.5  -0.4                          T                2.6  .34 Ml 2.2         5219158
BAIF  002.96 340.2 m E Pg      2013/03/07 22:27:30.4   0.1                          T                                        5219148
BAIF  002.96 340.2 m E Sg      2013/03/07 22:28:08.3   0.0                          T                 .7  .31 Ml 1.8         5219147

.
