BEGIN GSE2.0
MSG_TYPE DATA
MSG_ID 31-MAY-1115:36:26  FRA_NDC
E-MAIL
DATA_TYPE BULLETIN
Reviewed Bulletin (REB) # P2011-018  from French NDC for regional phases     PERIOD 04 MAY 2011 TO 10 MAY 2011 C M., J-P S
EVENT     258918
    Date      Time       Latitude Longitude    Depth    Ndef Nsta Gap    Mag1  N    Mag2  N    Mag3  N   Author         ID
       rms   OT_Error      Smajor Sminor Az        Err   mdist  Mdist     Err        Err        Err      Quality

2011/05/04 02:04:40.5     42.8706    -.8222      2.0      15    3 129  Ml 0.8  1  Md 1.1  2              js067245    258918

      0.20   +-  0.06       1.2    1.0  158.02 +-  0.0    0.20   0.87   +-         +-0.0                 m i ke

PYRENEES
Sta     Dist  EvAz     Phase      Date       Time     TRes  Azim  AzRes  Slow  SRes Def   SNR       Amp   Per   Mag1   Mag2       ID
ETSF  000.20 081.7 m E Pg      2011/05/04 02:04:44.5  -0.1                          T                                        4684652
ETSF  000.20 081.7 m E Sg      2011/05/04 02:04:47.4   0.1                          T                2.5  .28        Md 1.2  4684653
SJPF  000.38 309.5 m E Pg      2011/05/04 02:04:47.9   0.0                          T                                        4684650
SJPF  000.38 309.5 m E Sg      2011/05/04 02:04:53.3   0.2                          T                 .9  .21        Md 1.1  4684651
EPF   000.87 079.0 m E Sg      2011/05/04 02:05:08.4   0.2                          T                 .3  .23 Ml  .8         4684649

.
EVENT     258910
    Date      Time       Latitude Longitude    Depth    Ndef Nsta Gap    Mag1  N    Mag2  N    Mag3  N   Author         ID
       rms   OT_Error      Smajor Sminor Az        Err   mdist  Mdist     Err        Err        Err      Quality

2011/05/04 02:15:38.1     48.5035    9.0544     10.0 f    28   10 035  Ml 2.2 10  Md 2.2  2              js067245    258910

      0.38   +-  0.05       1.0     .9  161.24 +-  0.0    0.03   3.71   +-0.4      +-0.3                 m i ke

GERMANY
Sta     Dist  EvAz     Phase      Date       Time     TRes  Azim  AzRes  Slow  SRes Def   SNR       Amp   Per   Mag1   Mag2       ID
LANF  000.95 300.5 m E Pg      2011/05/04 02:15:56.1   0.0                          T                                        4683874
LANF  000.95 300.5 m E Sg      2011/05/04 02:16:08.5  -0.1                          T                5.8  .24 Ml 2.2 Md 2.4  4683873
CDF   001.19 266.3 m E Pg      2011/05/04 02:16:00.1  -0.4                          T                                        4683876
CDF   001.19 266.3 m E Sg      2011/05/04 02:16:15.8  -0.1                          T                9.0  .20 Ml 2.7 Md 2.0  4683872
HINF  001.63 245.8 m E Pg      2011/05/04 02:16:08.1  -0.5                          T                                        4683875
HINF  001.63 245.8 m E Sg      2011/05/04 02:16:29.3  -0.2                          T                2.3  .37 Ml 1.9         4683871
RUP   001.78 313.2 m E Pg      2011/05/04 02:16:11.6   0.3                          T                                        4683865
RUP   001.78 313.2 m E Sg      2011/05/04 02:16:33.9  -0.3                          T                         Ml 2.9         4683864
HAU   001.88 255.6 m E Pg      2011/05/04 02:16:13.2   0.1                          T                                        4683869
HAU   001.88 255.6 m E Sg      2011/05/04 02:16:37.2  -0.1                          T                2.6  .24 Ml 2.0         4683870
THEF  002.06 263.5 m E Pg      2011/05/04 02:16:16.4  -0.1                          T                                        4683868
THEF  002.06 263.5 m E Sg      2011/05/04 02:16:43.0   0.0                          T                3.0  .27 Ml 2.3         4683885
PAGF  002.21 272.6 m E Pg      2011/05/04 02:16:19.1  -0.2                          T                                        4683866
PAGF  002.21 272.6 m E Sg      2011/05/04 02:16:47.6  -0.2                          T                 .7  .42 Ml 1.4         4683884
MEZF  002.66 271.5 m E Pn      2011/05/04 02:16:20.0   0.8                          T                                        4683880
MEZF  002.66 271.5 m E Pg      2011/05/04 02:16:27.5   0.0  78.3  -10.1             T                                        4683881
MEZF  002.66 271.5 m E Sg      2011/05/04 02:17:01.7   0.0  86.9  -1.6              T                3.5  .41 Ml 2.3         4683882
SFTF  002.70 265.1 m E Pn      2011/05/04 02:16:20.7   1.0                          T                                        4683879
SFTF  002.70 265.1 m E Pg      2011/05/04 02:16:28.0  -0.2                          T                                        4683867
SFTF  002.70 265.1 m E Sg      2011/05/04 02:17:02.7  -0.2                          T                1.5  .23 Ml 2.2         4683883
LOR   003.71 252.5 m E Sg      2011/05/04 02:17:34.4  -0.1  65.1  -3.6              T                 .6  .28 Ml 1.9         4683877

.
EVENT     258919
    Date      Time       Latitude Longitude    Depth    Ndef Nsta Gap    Mag1  N    Mag2  N    Mag3  N   Author         ID
       rms   OT_Error      Smajor Sminor Az        Err   mdist  Mdist     Err        Err        Err      Quality

2011/05/04 02:28:52.3     43.1184    -.8173     10.0 f    23    4 161  Ml 1.4  1  Md 1.4  2              js067245    258919

      0.22   +-  0.07       1.4     .8  178.93 +-  0.0    0.09   2.23   +-         +-0.2                 m i ke

PYRENEES
Sta     Dist  EvAz     Phase      Date       Time     TRes  Azim  AzRes  Slow  SRes Def   SNR       Amp   Per   Mag1   Mag2       ID
ETSF  000.29 139.2 m E Pg      2011/05/04 02:28:57.9  -0.4                          T                                        4684667
ETSF  000.29 139.2 m E Sg      2011/05/04 02:29:02.3  -0.1                          T                1.9  .19        Md 1.3  4684668
SJPF  000.30 269.2 m E Pg      2011/05/04 02:28:58.5   0.1                          T                                        4684665
SJPF  000.30 269.2 m E Sg      2011/05/04 02:29:03.1   0.6                          T                 .6  .18        Md 1.5  4684666
EPF   000.85 095.5 m E Pg      2011/05/04 02:29:08.5   0.0                          T                                        4684669
EPF   000.85 095.5 m E Sg      2011/05/04 02:29:19.6   0.0                          T                 .3  .19                4684670
MTLF  002.23 083.2 m E Sg      2011/05/04 02:30:02.1  -0.3                          T                 .3  .20 Ml 1.4         4684671

.
EVENT     258911
    Date      Time       Latitude Longitude    Depth    Ndef Nsta Gap    Mag1  N    Mag2  N    Mag3  N   Author         ID
       rms   OT_Error      Smajor Sminor Az        Err   mdist  Mdist     Err        Err        Err      Quality

2011/05/04 04:01:05.1     44.6348   10.5098     30.0      31   10 131  Ml 2.4 11                         js067245    258911

      1.18   +-  0.26       5.9    4.5   69.96 +-  0.0    0.19   4.16   +-0.2                            m i ke

NORTHERN ITALY
Sta     Dist  EvAz     Phase      Date       Time     TRes  Azim  AzRes  Slow  SRes Def   SNR       Amp   Per   Mag1   Mag2       ID
SBF   002.34 251.8 m E Pn      2011/05/04 04:01:40.1  -0.2                          T                                        4683904
SBF   002.34 251.8 m E Sn      2011/05/04 04:02:07.4   1.0                          T                9.7  .38 Ml 2.7         4683897
PGF   002.36 208.3 m E Pn      2011/05/04 04:01:40.2  -0.4                          T                                        4683899
PGF   002.36 208.3 m E Sn      2011/05/04 04:02:07.3   0.5                          T                2.4  .29 Ml 2.5         4683898
MBDF  002.67 273.3 m E Pn      2011/05/04 04:01:44.8  -0.1                          T                                        4683903
MBDF  002.67 273.3 m E Sn      2011/05/04 04:02:15.9   1.6                          T               12.2  .60 Ml 2.7         4683891
LPG   002.80 289.3 m E Pn      2011/05/04 04:01:46.8   0.0                          T                                        4683902
LPG   002.80 289.3 m E Sn      2011/05/04 04:02:19.4   1.8                          T                9.5  .80 Ml 2.5         4683888
LPL   002.82 289.6 m E Pn      2011/05/04 04:01:47.1   0.1                          T                                        4683896
LPL   002.82 289.6 m E Sn      2011/05/04 04:02:19.9   1.9                          T                4.8  .42 Ml 2.4         4683889
FRF   002.98 250.2 m E Pn      2011/05/04 04:01:48.1  -0.8                          T                                        4683901
FRF   002.98 250.2 m E Sn      2011/05/04 04:02:21.8   0.2                          T                1.9  .32 Ml 2.2         4683887
LMR   003.17 247.1 m E Pn      2011/05/04 04:01:51.1  -0.3                          T                                        4683900
LMR   003.17 247.1 m E Sn      2011/05/04 04:02:26.7   0.7                          T                6.5  .47 Ml 2.6         4683886
ORIF  003.31 276.5 m E Pn      2011/05/04 04:01:53.2  -0.3                          T                                        4683894
ORIF  003.31 276.5 m E Sn      2011/05/04 04:02:31.2   1.7                          T                5.5  .56 Ml 2.5         4683890
SMRF  003.60 261.2 m E Pn      2011/05/04 04:01:57.2  -0.2                          T                                        4683895
VIVF  004.16 275.1 m E Pn      2011/05/04 04:02:04.9  -0.1                          T                                        4683893
VIVF  004.16 275.1 m E Sn      2011/05/04 04:02:51.6   1.7                          T                 .7  .23 Ml 2.2         4683892

.
EVENT     258914
    Date      Time       Latitude Longitude    Depth    Ndef Nsta Gap    Mag1  N    Mag2  N    Mag3  N   Author         ID
       rms   OT_Error      Smajor Sminor Az        Err   mdist  Mdist     Err        Err        Err      Quality

2011/05/04 10:21:26.8     43.0278    -.2018       .0 f    10    5 154  Ml 2.0  2  Md 1.8  3              js067245    258914

      0.21   +-  0.07       2.3    1.0  166.54 +-  0.0    0.29   2.03   +-0.2      +-0.0                 m i km

PYRENEES
Sta     Dist  EvAz     Phase      Date       Time     TRes  Azim  AzRes  Slow  SRes Def   SNR       Amp   Per   Mag1   Mag2       ID
ETSF  000.29 243.9 m E Pg      2011/05/04 10:21:33.1   0.2                          T                                        4683991
ETSF  000.29 243.9 m E Sg      2011/05/04 10:21:36.4  -0.6                          T               15.0  .32        Md 1.8  4683988
EPF   000.40 089.5 m E Pg      2011/05/04 10:21:34.7  -0.1                          T                                        4683990
EPF   000.40 089.5 m E Sg      2011/05/04 10:21:40.2  -0.1                          T                4.9  .22        Md 1.8  4683989
SJPF  000.75 276.9 m E Pg      2011/05/04 10:21:41.3   0.0                          T                                        4683986
SJPF  000.75 276.9 m E Sg      2011/05/04 10:21:51.1  -0.3                          T                2.3  .28        Md 1.8  4683987
MTLF  001.80 079.1 m E Pg      2011/05/04 10:22:00.5  -0.1                          T                                        4683985
MTLF  001.80 079.1 m E Sg      2011/05/04 10:22:23.7  -0.2                          T                1.8  .40 Ml 1.8         4683984
LFF   002.03 019.3 m E Pg      2011/05/04 10:22:04.9   0.1                          T                                        4683982
LFF   002.03 019.3 m E Sg      2011/05/04 10:22:31.0  -0.1                          T                5.2  .40 Ml 2.2         4683983

.
EVENT     258921
    Date      Time       Latitude Longitude    Depth    Ndef Nsta Gap    Mag1  N    Mag2  N    Mag3  N   Author         ID
       rms   OT_Error      Smajor Sminor Az        Err   mdist  Mdist     Err        Err        Err      Quality

2011/05/04 11:56:29.6     47.1210    1.5747      3.0 f    62   23 101  Ml 2.7 26  Md 2.7  3              js067245    258921

      1.05   +-  0.05       1.3     .9   24.17 +-  0.0    0.74   3.65   +-0.4      +-0.1                 m i ke

FRANCE
Sta     Dist  EvAz     Phase      Date       Time     TRes  Azim  AzRes  Slow  SRes Def   SNR       Amp   Per   Mag1   Mag2       ID
HYF   000.74 078.1 m E Pg      2011/05/04 11:56:43.8   0.3                          T                                        4684109
HYF   000.74 078.1 m E Sg      2011/05/04 11:56:53.3   0.1                          T                                Md 2.7  4684234
TCF   000.94 152.1 m E Pg      2011/05/04 11:56:47.7   0.4                          T                                        4684114
TCF   000.94 152.1 m E Sg      2011/05/04 11:57:00.0   0.5                          T               44.4  .22 Ml 3.1 Md 2.8  4684102
BGF   001.04 122.4 m E Pg      2011/05/04 11:56:49.6   0.5                          T                                        4684112
BGF   001.04 122.4 m E Sg      2011/05/04 11:57:03.4   0.8                          T               87.2  .24 Ml 3.4 Md 2.6  4684099
AVF   001.26 104.5 m E Pg      2011/05/04 11:56:52.7  -0.4                          T                                        4684111
AVF   001.26 104.5 m E Sg      2011/05/04 11:57:09.5   0.0                          T               27.8  .32 Ml 2.9         4684243
MFF   001.29 246.9 m E Pn      2011/05/04 11:56:53.0   0.2                          T                                        4684105
MFF   001.29 246.9 m E Pg      2011/05/04 11:56:55.0   1.3                          T                                        4684107
MFF   001.29 246.9 m E Sg      2011/05/04 11:57:10.3  -0.1                          T               27.5  .18 Ml 3.3         4684251
SSF   001.32 091.9 m E Pg      2011/05/04 11:56:53.8  -0.4                          T                                        4684113
SSF   001.32 091.9 m E Sg      2011/05/04 11:57:12.1   0.8                          T                9.6  .18 Ml 2.8         4684100
LOR   001.56 083.8 m E Pn      2011/05/04 11:56:57.0   0.4 263.4  -2.0              T                                        4684104
LOR   001.56 083.8 m E Pg      2011/05/04 11:56:58.6  -0.2 262.2  -3.3              T                                        4684103
LOR   001.56 083.8 m E Sg      2011/05/04 11:57:19.0   0.0 250.4  -15.0             T               24.4  .26 Ml 3.0         4684101
SMF   001.63 106.2 m E Pg      2011/05/04 11:56:59.4  -0.5                          T                                        4684110
SMF   001.63 106.2 m E Sg      2011/05/04 11:57:20.9   0.0                          T               10.3  .16 Ml 2.9         4684244
RJF   001.82 181.3 m E Pn      2011/05/04 11:56:59.9  -0.1                          T                                        4684218
RJF   001.82 181.3 m E Pg      2011/05/04 11:57:03.0  -0.4                          T                                        4684106
RJF   001.82 181.3 m E Sg      2011/05/04 11:57:26.7  -0.2                          T               14.3  .22 Ml 2.6         4684252
LDF   001.86 322.8 m E Pn      2011/05/04 11:57:00.7   0.1                          T                                        4684216
LDF   001.86 322.8 m E Pg      2011/05/04 11:57:04.1  -0.1                          T                                        4684224
LDF   001.86 322.8 m E Sg      2011/05/04 11:57:28.1  -0.2                          T                7.8  .30 Ml 2.6         4684249
GRR   002.07 308.6 m E Pn      2011/05/04 11:57:03.5   0.0                          T                                        4684217
GRR   002.07 308.6 m E Pg      2011/05/04 11:57:07.8  -0.3                          T                                        4684223
GRR   002.07 308.6 m E Sg      2011/05/04 11:57:34.6  -0.2                          T               11.5  .39 Ml 2.6         4684250
FLN   002.15 320.7 m E Pn      2011/05/04 11:57:04.6   0.1 149.5  10.4              T                                        4684215
FLN   002.15 320.7 m E Pg      2011/05/04 11:57:09.2  -0.3                          T                                        4684225
FLN   002.15 320.7 m E Sg      2011/05/04 11:57:36.8  -0.3 118.4  -20.7             T                5.8  .26 Ml 2.4         4684248
CAF   002.22 171.0 m E Pn      2011/05/04 11:57:05.6   0.0                          T                                        4684220
CAF   002.22 171.0 m E Pg      2011/05/04 11:57:10.8  -0.1                          T                                        4684221
CAF   002.22 171.0 m E Sg      2011/05/04 11:57:39.5   0.0                          T                4.5  .22 Ml 2.6         4684254
LFF   002.26 195.2 m E Pn      2011/05/04 11:57:06.2   0.2                          T                                        4684219
LFF   002.26 195.2 m E Pg      2011/05/04 11:57:11.4  -0.1                          T                                        4684222
LFF   002.26 195.2 m E Sg      2011/05/04 11:57:40.5   0.0                          T               12.5  .30 Ml 2.7         4684253
SFTF  002.58 063.9 m E Pn      2011/05/04 11:57:10.5   0.1                          T                                        4684235
SFTF  002.58 063.9 m E Sg      2011/05/04 11:57:50.6   0.0 237.2  -9.3              T               14.4  .43 Ml 2.9         4684240
SGMF  003.01 293.6 m E Pn      2011/05/04 11:57:16.2  -0.1                          T                                        4684214
SGMF  003.01 293.6 m E Sg      2011/05/04 11:58:03.9  -0.2                          T                4.0  .38 Ml 2.5         4684246
VIVF  003.13 135.2 m E Pn      2011/05/04 11:57:18.1   0.2                          T                                        4684258
VIVF  003.13 135.2 m E Sg      2011/05/04 11:58:07.9   0.0                          T                7.6  .44 Ml 2.7         4684256
CABF  003.14 097.7 m E Pn      2011/05/04 11:57:18.1   0.0                          T                                        4684238
CABF  003.14 097.7 m E Sg      2011/05/04 11:58:08.4   0.3                          T                7.9  .46 Ml 2.7         4684242
THEF  003.18 068.0 m E Pn      2011/05/04 11:57:18.8   0.1                          T                                        4684236
THEF  003.18 068.0 m E Sg      2011/05/04 11:58:09.6   0.1                          T                5.3  .25 Ml 2.8         4684239
QUIF  003.31 285.7 m E Pn      2011/05/04 11:57:20.4   0.1                          T                                        4684213
QUIF  003.31 285.7 m E Sg      2011/05/04 11:58:13.2  -0.2                          T                2.5  .24 Ml 2.5         4684247
LASF  003.44 151.4 m E Pn      2011/05/04 11:57:21.9  -0.2                          T                                        4684257
LASF  003.44 151.4 m E Sg      2011/05/04 11:58:17.5   0.0                          T                3.2  .44 Ml 2.4         4684255
ROSF  003.49 292.2 m E Pn      2011/05/04 11:57:22.6  -0.2                          T                                        4684212
ROSF  003.49 292.2 m E Sg      2011/05/04 11:58:18.8  -0.2                          T                1.2  .31 Ml 2.1         4684245
HINF  003.65 077.1 m E Pn      2011/05/04 11:57:25.1   0.1                          T                                        4684237
HINF  003.65 077.1 m E Sg      2011/05/04 11:58:23.9  -0.1                          T                3.2  .26 Ml 2.7         4684241

.
