BEGIN GSE2.0
MSG_TYPE DATA
MSG_ID 30-AUG-1212:45:50  FRA_NDC
E-MAIL
DATA_TYPE BULLETIN
Reviewed Bulletin (REB) # P2012-033  from French NDC for regional phases     PERIOD 15 AUG 2012 TO 21 AUG 2012 Cenalt JP S
EVENT     281198
    Date      Time       Latitude Longitude    Depth    Ndef Nsta Gap    Mag1  N    Mag2  N    Mag3  N   Author         ID
       rms   OT_Error      Smajor Sminor Az        Err   mdist  Mdist     Err        Err        Err      Quality

2012/08/15 03:28:14.1     45.2874    6.5968      2.0      10    4 148             Md 1.4  2              bulletin    281298
                                                                                                         _ldg
      0.13   +-  0.04       1.2     .6  119.81 +-  0.0    0.24   0.63              +-0.0                 m i ke

FRANCE
Sta     Dist  EvAz     Phase      Date       Time     TRes  Azim  AzRes  Slow  SRes Def   SNR       Amp   Per   Mag1   Mag2       ID
LPG   000.24 027.3 m E Pg      2012/08/15 03:28:19.1  -0.1                          T                                        5046317
LPG   000.24 027.3 m E Sg      2012/08/15 03:28:22.6   0.2                          T                1.6  .21        Md 1.4  5046315
LPL   000.25 022.6 m E Pg      2012/08/15 03:28:19.3   0.0                          T                                        5046318
LPL   000.25 022.6 m E Sg      2012/08/15 03:28:22.8   0.1                          T                  1  .21        Md 1.4  5046316
MBDF  000.57 167.5 m E Pg      2012/08/15 03:28:25.2   0.0                          T                                        5046310
MBDF  000.57 167.5 m E Sg      2012/08/15 03:28:32.8   0.0                          T                 .2  .17                5046309
ORIF  000.63 234.2 m E Pg      2012/08/15 03:28:26.2   0.0                          T                                        5046314
ORIF  000.63 234.2 m E Sg      2012/08/15 03:28:34.1  -0.3                          T                2.2  .26                5046313

.
EVENT     281484
    Date      Time       Latitude Longitude    Depth    Ndef Nsta Gap    Mag1  N    Mag2  N    Mag3  N   Author         ID
       rms   OT_Error      Smajor Sminor Az        Err   mdist  Mdist     Err        Err        Err      Quality

2012/08/15 03:50:10.5     42.7682    -.4413      2.0       4    2 261             Md 1.3  2              bulletin    281584
                                                                                                         _ldg
      0.06   +-  0.21       6.3    1.3   15.44 +-  0.0    0.16   0.63              +-0.3                 m i ke

PYRENEES
Sta     Dist  EvAz     Phase      Date       Time     TRes  Azim  AzRes  Slow  SRes Def   SNR       Amp   Per   Mag1   Mag2       ID
ETSF  000.16 326.4 m E Pg      2012/08/15 03:50:13.8   0.0                          T                                        5051345
ETSF  000.16 326.4 m E Sg      2012/08/15 03:50:16.2   0.1                          T                9.8  .26        Md 1.5  5051344
EPF   000.63 065.2 m E Pg      2012/08/15 03:50:22.6   0.0                          T                                        5051343
EPF   000.63 065.2 m E Sg      2012/08/15 03:50:30.7  -0.1                          T                1.1  .20        Md 1.1  5051342

.
EVENT     281200
    Date      Time       Latitude Longitude    Depth    Ndef Nsta Gap    Mag1  N    Mag2  N    Mag3  N   Author         ID
       rms   OT_Error      Smajor Sminor Az        Err   mdist  Mdist     Err        Err        Err      Quality

2012/08/15 08:47:31.3     46.1466    6.9237      2.0      86   22 048  Ml 2.5 25  Md 2.4  3              bulletin    281300
                                                                                                         _ldg
      1.93   +-  0.08       2.0    1.5   82.61 +-  0.0    0.03   3.00   +-0.2      +-0.2                 m i ke

SWITZERLAND
Sta     Dist  EvAz     Phase      Date       Time     TRes  Azim  AzRes  Slow  SRes Def   SNR       Amp   Per   Mag1   Mag2       ID
LPL   000.64 192.0 m E Pg      2012/08/15 08:47:43.2  -0.5                          T   001.0                                5046347
LPL   000.64 192.0 m E Sg      2012/08/15 08:47:52.1  -0.1                          T                7.0  .22        Md 2.3  5046447
LPG   000.66 190.6 m E Pg      2012/08/15 08:47:43.6  -0.5                          T   001.0                                5046345
LPG   000.66 190.6 m E Sg      2012/08/15 08:47:52.3  -0.4                          T   001.0       10.6  .22        Md 2.3  5046346
CABF  000.74 309.1 m E Pg      2012/08/15 08:47:44.6  -0.8                          T   001.0                                5046350
CABF  000.74 309.1 m E Sg      2012/08/15 08:47:54.6  -0.5                          T                                        5054179
CABF  000.74 309.1 m E Sn      2012/08/15 08:47:58.4  -0.1                          T               40.1  .49        Md 2.7  5046440
ORIF  001.43 211.2 m E Pg      2012/08/15 08:47:57.7  -0.4                          T   001.0                                5046352
ORIF  001.43 211.2 m E Sn      2012/08/15 08:48:14.5  -0.5                          T   001.0                                5046353
ORIF  001.43 211.2 m E Sg      2012/08/15 08:48:16.4  -0.2                          T               15.2  .29 Ml 2.7         5054177
MBDF  001.42 184.4 m E Pg      2012/08/15 08:47:57.8  -0.2                          T                                        5046448
MBDF  001.42 184.4 m E Sn      2012/08/15 08:48:14.3  -0.6                          T                9.4  .54 Ml 2.2         5051350
HINF  001.67 358.4 m E Pn      2012/08/15 08:48:00.6   0.7                          T                                        5046439
HINF  001.67 358.4 m E Sn      2012/08/15 08:48:21.7   1.0                          T               11.3  .28 Ml 2.7         5046433
HAU   001.90 348.3 m E Pn      2012/08/15 08:48:03.7   0.7                          T                                        5046438
HAU   001.90 348.3 m E Sn      2012/08/15 08:48:27.1   1.0                          T               11.2  .32 Ml 2.5         5046434
VIVF  002.04 231.6 m E Pn      2012/08/15 08:48:05.3   0.4                          T                                        5046446
VIVF  002.04 231.6 m E Sn      2012/08/15 08:48:29.6   0.1                          T   001.0        5.0  .22 Ml 2.6         5046354
VIVF  002.04 231.6 m E Sg      2012/08/15 08:48:35.7   0.1                          T                3.5  .20 Ml 2.5         5051351
THEF  002.18 343.4 m E Pn      2012/08/15 08:48:06.8   0.0                          T                                        5051362
THEF  002.18 343.4 m E Pg      2012/08/15 08:48:12.0   0.2                          T                                        5051361
THEF  002.18 343.4 m E Sg      2012/08/15 08:48:39.5  -0.3                          T                7.5  .31 Ml 2.6         5051360
SMF   002.19 284.3 m E Pn      2012/08/15 08:48:06.9   0.0                          T                                        5054181
SMF   002.19 284.3 m E Pg      2012/08/15 08:48:12.0   0.0                          T                                        5046445
SMF   002.19 284.3 m E Sn      2012/08/15 08:48:32.8  -0.3                          T                7.1  .33 Ml 2.6         5046444
SMF   002.19 284.3 m E Sg      2012/08/15 08:48:40.4   0.2                          T                5.2  .22 Ml 2.6         5054182
CDF   002.28 005.9 m E Pn      2012/08/15 08:48:07.8  -0.5                          T   001.0                                5046337
CDF   002.28 005.9 m E Sn      2012/08/15 08:48:35.3   0.1                          T                                        5046435
CDF   002.28 005.9 m E Sg      2012/08/15 08:48:43.4   0.3                          T                3.7  .32 Ml 2.4         5054186
SBF   002.31 170.8 m E Pn      2012/08/15 08:48:08.8   0.1                          T                                        5051349
SBF   002.31 170.8 m E Sn      2012/08/15 08:48:35.8  -0.1                          T                                        5051348
SBF   002.31 170.8 m E Sg      2012/08/15 08:48:43.7  -0.4                          T                6.2  .42 Ml 2.5         5054174
SMRF  002.37 204.2 m E Pn      2012/08/15 08:48:09.6   0.1                          T                                        5051346
SMRF  002.37 204.2 m E Sn      2012/08/15 08:48:37.1  -0.3                          T                  1  .20 Ml 2.0         5051347
LOR   002.39 299.1 m E Pn      2012/08/15 08:48:10.4   0.7  70.4  -46.5             T                                        5046437
LOR   002.39 299.1 m E Sn      2012/08/15 08:48:38.9   1.1 128.7  11.8              T                3.7  .34 Ml 2.3         5046436
LOR   002.39 299.1 m E Sg      2012/08/15 08:48:46.4   0.0 130.5  13.6              T                7.7  .42 Ml 2.6         5054187
SFTF  002.43 328.7 m E Pn      2012/08/15 08:48:10.4   0.2 146.0  -1.4              T                                        5051359
SFTF  002.43 328.7 m E Sn      2012/08/15 08:48:39.0   0.3 148.0  0.7               T                7.4  .39 Ml 2.6         5051358
AVF   002.55 285.9 m E Pn      2012/08/15 08:48:11.7   0.0                          T   001.0                                5046355
AVF   002.55 285.9 m E Pg      2012/08/15 08:48:18.7   0.1                          T                                        5054180
AVF   002.55 285.9 m E Sn      2012/08/15 08:48:41.7   0.1                          T                1.4  .24 Ml 2.1         5046443
AVF   002.55 285.9 m E Sg      2012/08/15 08:48:51.7   0.3                          T                3.4  .35 Ml 2.3         5054183
SSF   002.53 292.5 m E Pn      2012/08/15 08:48:12.0   0.5                          T                                        5046441
SSF   002.53 292.5 m E Sn      2012/08/15 08:48:41.7   0.6                          T                                        5046442
SSF   002.53 292.5 m E Sg      2012/08/15 08:48:50.9   0.2                          T                6.0  .47 Ml 2.5         5054188
PAGF  002.54 341.8 m E Pn      2012/08/15 08:48:12.1   0.4                          T                                        5054185
PAGF  002.54 341.8 m E Sg      2012/08/15 08:48:51.7   0.5 152.4  -8.5              T                8.3  .43 Ml 2.6         5054184
MEZF  002.68 332.3 m E Pn      2012/08/15 08:48:13.6   0.1 145.4  -5.5              T                                        5051356
MEZF  002.68 332.3 m E Sn      2012/08/15 08:48:44.7   0.1                          T                3.5  .24 Ml 2.5         5051357
BGF   002.85 279.8 m E Pn      2012/08/15 08:48:16.3   0.4                          T                                        5051353
BGF   002.85 279.8 m E Pg      2012/08/15 08:48:24.6   0.4                          T                                        5051352
BGF   002.85 279.8 m E Sn      2012/08/15 08:48:48.7  -0.1                          T                                        5051355
BGF   002.85 279.8 m E Sg      2012/08/15 08:49:01.2   0.3                          T                7.4  .32 Ml 2.8         5051354
FRF   002.59 184.5 m E Pg      2012/08/15 08:48:19.4   0.0                          T                                        5054176
FRF   002.59 184.5 m E Sg      2012/08/15 08:48:52.6  -0.1                          T                3.4  .38 Ml 2.3         5054175
LASF  003.00 227.5 m E Sg      2012/08/15 08:49:05.2  -0.2                          T                1.4  .22 Ml 2.2         5054178

.
EVENT     281201
    Date      Time       Latitude Longitude    Depth    Ndef Nsta Gap    Mag1  N    Mag2  N    Mag3  N   Author         ID
       rms   OT_Error      Smajor Sminor Az        Err   mdist  Mdist     Err        Err        Err      Quality

2012/08/15 10:21:23.6     46.5541    7.3903      2.0      24    9 080  Ml 2.2 10  Md 2.0  3              bulletin    281301
                                                                                                         _ldg
      0.27   +-  0.07       1.8    1.1   76.75 +-  0.0    0.20   2.52   +-0.2      +-0.0                 m i ke

SWITZERLAND
Sta     Dist  EvAz     Phase      Date       Time     TRes  Azim  AzRes  Slow  SRes Def   SNR       Amp   Per   Mag1   Mag2       ID
CABF  000.90 274.1 m E Pg      2012/08/15 10:21:41.0   0.3                          T                                        5046513
CABF  000.90 274.1 m E Sg      2012/08/15 10:21:52.2  -0.2                          T                3.6  .29 Ml 1.9 Md 2.0  5046511
LPL   001.13 204.1 m E Pg      2012/08/15 10:21:45.1   0.0                          T                                        5051378
LPL   001.13 204.1 m E Sg      2012/08/15 10:21:59.8   0.0                          T                5.6  .40 Ml 2.0 Md 1.9  5051375
LPG   001.15 203.1 m E Pg      2012/08/15 10:21:45.4  -0.1                          T                                        5051377
LPG   001.15 203.1 m E Sg      2012/08/15 10:22:00.7   0.4                          T                6.3  .34 Ml 2.2 Md 2.0  5051376
HINF  001.32 344.0 m E Pn      2012/08/15 10:21:47.6   0.2                          T                                        5046512
HINF  001.32 344.0 m E Sn      2012/08/15 10:22:04.9   0.4                          T                7.3  .26 Ml 2.4         5046510
CDF   001.86 357.7 m E Pn      2012/08/15 10:21:55.0   0.1                          T                                        5051381
CDF   001.86 357.7 m E Sn      2012/08/15 10:22:17.7   0.1                          T                1.5  .24 Ml 2.1         5051380
ORIF  001.95 213.4 m E Pn      2012/08/15 10:21:56.0  -0.1                          T                                        5051374
ORIF  001.95 213.4 m E Sn      2012/08/15 10:22:19.6  -0.1                          T                1.9  .32 Ml 2.0         5051373
MBDF  001.88 193.6 m E Pg      2012/08/15 10:21:59.1   0.4                          T                                        5051379
LOR   002.52 287.7 m E Pn      2012/08/15 10:22:04.2   0.4                          T                                        5046515
LOR   002.52 287.7 m E Sn      2012/08/15 10:22:32.8  -0.5                          T                2.8  .26 Ml 2.4         5046514
HAU   001.62 334.3 m E Sn      2012/08/15 10:22:12.3   0.6                          T                9.0  .24 Ml 2.4         5046509

.
EVENT     281203
    Date      Time       Latitude Longitude    Depth    Ndef Nsta Gap    Mag1  N    Mag2  N    Mag3  N   Author         ID
       rms   OT_Error      Smajor Sminor Az        Err   mdist  Mdist     Err        Err        Err      Quality

2012/08/15 11:44:48.1     44.4226    6.8772      2.0      26    6 060  Ml 2.1  4  Md 2.2  3              bulletin    281303
                                                                                                         _ldg
      0.27   +-  0.05       1.2     .8   72.55 +-  0.0    0.07   1.12   +-0.2      +-0.2                 m i ke

FRANCE
Sta     Dist  EvAz     Phase      Date       Time     TRes  Azim  AzRes  Slow  SRes Def   SNR       Amp   Per   Mag1   Mag2       ID
MBDF  000.31 346.1 m E Pg      2012/08/15 11:44:54.4   0.0                          T                                        5046558
MBDF  000.31 346.1 m E Sg      2012/08/15 11:44:58.7   0.0                          T               15.0  .20        Md 2.0  5046557
SBF   000.69 144.1 m E Pg      2012/08/15 11:45:01.2   0.0                          T                                        5046552
SBF   000.69 144.1 m E Sg      2012/08/15 11:45:10.9   0.6                          T               11.8  .42        Md 2.2  5046550
ORIF  000.87 305.2 m E Pg      2012/08/15 11:45:03.9  -0.7                          T                                        5046556
ORIF  000.87 305.2 m E Sg      2012/08/15 11:45:14.8  -1.1                          T                9.0  .62 Ml 1.9 Md 2.3  5046555
FRF   000.88 191.0 m E Pg      2012/08/15 11:45:04.3  -0.3                          T                                        5046554
FRF   000.88 191.0 m E Sg      2012/08/15 11:45:15.9  -0.1                          T               11.1  .48 Ml 2.2         5046548
SMRF  001.04 245.0 m E Pg      2012/08/15 11:45:08.3   0.7                          T                                        5046551
SMRF  001.04 245.0 m E Sg      2012/08/15 11:45:21.3   0.2                          T                7.4  .46 Ml 2.0         5046547
LMR   001.12 193.9 m E Pg      2012/08/15 11:45:09.4   0.3                          T                                        5046553
LMR   001.12 193.9 m E Sg      2012/08/15 11:45:24.2   0.6                          T               29.9 1.08 Ml 2.3         5046549

.
EVENT     281205
    Date      Time       Latitude Longitude    Depth    Ndef Nsta Gap    Mag1  N    Mag2  N    Mag3  N   Author         ID
       rms   OT_Error      Smajor Sminor Az        Err   mdist  Mdist     Err        Err        Err      Quality

2012/08/15 16:21:13.0     43.9648    7.4835     10.0      22    4 072  Ml 2.0  2  Md 2.0  2              bulletin    281305
                                                                                                         _ldg
      0.11   +-  0.02        .4     .4  141.70 +-  0.0    0.06   0.95   +-0.7      +-0.2                 m i ke

NEAR SOUTH COAST OF FRANCE
Sta     Dist  EvAz     Phase      Date       Time     TRes  Azim  AzRes  Slow  SRes Def   SNR       Amp   Per   Mag1   Mag2       ID
SBF   000.11 199.0 m E Pg      2012/08/15 16:21:15.9   0.0                          T                                        5046630
SBF   000.11 199.0 m E Sg      2012/08/15 16:21:18.0   0.1                          T               41.6  .20        Md 1.9  5046629
FRF   000.73 236.6 m E Pg      2012/08/15 16:21:26.8   0.0                          T                                        5046626
FRF   000.73 236.6 m E Sg      2012/08/15 16:21:36.3  -0.1                          T                3.9  .20        Md 2.2  5046625
MBDF  000.92 326.4 m E Pg      2012/08/15 16:21:29.9  -0.6                          T                                        5046624
MBDF  000.92 326.4 m E Sg      2012/08/15 16:21:42.8   0.3                          T                1.4  .26 Ml 1.5         5046623
LMR   000.95 228.6 m E Pg      2012/08/15 16:21:30.8   0.0                          T                                        5046628
LMR   000.95 228.6 m E Sg      2012/08/15 16:21:43.2   0.0                          T               53.8 1.10 Ml 2.5         5046627

.
