EVENT     269867
    Date      Time       Latitude Longitude    Depth    Ndef Nsta Gap    Mag1  N    Mag2  N    Mag3  N   Author         ID
       rms   OT_Error      Smajor Sminor Az        Err   mdist  Mdist     Err        Err        Err      Quality

2012/02/08 05:43:10.0     42.2651    3.2479      4.0 f     9    3 216  Ml 1.5  3                         js067245    269887

      0.17   +-  0.16       2.7    1.4  109.23 +-  0.0    0.08   2.28   +-0.1                            m i ke

PYRENEES
Sta     Dist  EvAz     Phase      Date       Time     TRes  Azim  AzRes  Slow  SRes Def   SNR       Amp   Per   Mag1   Mag2       ID
MTLF  001.32 325.2 m E Pg      2012/02/08 05:43:34.8   0.1                          T                                        4833711
MTLF  001.32 325.2 m E Sn      2012/02/08 05:43:50.3  -0.2                          T                 .6  .24 Ml 1.3         4833710
EPF   002.28 290.6 m E Pn      2012/02/08 05:43:46.3  -0.4                          T                                        4836112
EPF   002.28 290.6 m E Pg      2012/02/08 05:43:52.3  -0.1                          T                                        4836111
EPF   002.28 290.6 m E Sg      2012/02/08 05:44:21.7  -0.1                          T                 .4  .22 Ml 1.5         4836114
LASF  001.86 013.6 m E Sg      2012/02/08 05:44:08.8   0.0                          T                 .6  .26 Ml 1.5         4836113

.
EVENT     269822
    Date      Time       Latitude Longitude    Depth    Ndef Nsta Gap    Mag1  N    Mag2  N    Mag3  N   Author         ID
       rms   OT_Error      Smajor Sminor Az        Err   mdist  Mdist     Err        Err        Err      Quality

2012/02/08 17:13:04.5     48.1086   -2.0037       .0 f    41   17 124  Ml 2.4  6  Md 2.3  3              js067245    269842

      1.19   +-  0.08       2.7    1.5   11.79 +-  0.0    0.40   5.70   +-0.2      +-0.1                 m i km

FRANCE
Sta     Dist  EvAz     Phase      Date       Time     TRes  Azim  AzRes  Slow  SRes Def   SNR       Amp   Per   Mag1   Mag2       ID
SGMF  000.40 291.7 m E Pg      2012/02/08 17:13:12.1  -0.3                          T                                        4833127
SGMF  000.40 291.7 m E Sg      2012/02/08 17:13:17.6  -0.3                          T               10.4  .26        Md 2.3  4833117
GRR   000.82 069.5 m E Pg      2012/02/08 17:13:20.0  -0.1                          T                                        4833118
GRR   000.82 069.5 m E Pn      2012/02/08 17:13:21.6  -0.1                          T                                        4833102
GRR   000.82 069.5 m E Sg      2012/02/08 17:13:30.9   0.0                          T                7.2  .25                4833101
GRR   000.82 069.5 m E Sn      2012/02/08 17:13:33.4  -0.6                          T                                        4833099
QUIF  000.80 256.6 m E Pg      2012/02/08 17:13:20.0   0.1                          T                                        4833121
QUIF  000.80 256.6 m E Pn      2012/02/08 17:13:21.8   0.2                          T                                        4833122
QUIF  000.80 256.6 m E Sg      2012/02/08 17:13:30.6   0.1                          T                                Md 2.4  4833100
QUIF  000.80 256.6 m E Sn      2012/02/08 17:13:33.7   0.0                          T               21.8  .26                4833123
ROSF  000.88 285.5 m E Pg      2012/02/08 17:13:21.0  -0.3                          T                                        4833228
ROSF  000.88 285.5 m E Pn      2012/02/08 17:13:22.7   0.0                          T                                        4833126
ROSF  000.88 285.5 m E P       2012/02/08 17:13:23.2   0.1                          T                                        4833125
ROSF  000.88 285.5 m E Sg      2012/02/08 17:13:32.9   0.0                          T                                Md 2.2  4833098
ROSF  000.88 285.5 m E Sn      2012/02/08 17:13:35.5  -0.1                          T                9.7  .22 Ml 2.4         4833124
FLN   001.21 056.6 m E Pg      2012/02/08 17:13:27.2  -0.1                          T                                        4833221
FLN   001.21 056.6 m E P       2012/02/08 17:13:28.5  -0.1 244.3  6.6               T                                        4833120
FLN   001.21 056.6 m E Sg      2012/02/08 17:13:42.8  -0.3 244.1  6.4               T               18.7  .31 Ml 2.5         4833114
LDF   001.35 068.2 m E Pg      2012/02/08 17:13:29.7  -0.1                          T                                        4833220
LDF   001.35 068.2 m E P       2012/02/08 17:13:30.5  -0.1                          T                                        4833119
LDF   001.35 068.2 m E Sg      2012/02/08 17:13:47.3  -0.1                          T                5.2  .31 Ml 2.2         4833115
MFF   001.97 139.3 m E P       2012/02/08 17:13:39.6   0.1                          T                                        4833116
MFF   001.97 139.3 m E Pg      2012/02/08 17:13:40.9  -0.4                          T                                        4833219
MFF   001.97 139.3 m E Sg      2012/02/08 17:14:06.9   0.0                          T                3.1  .25 Ml 2.5         4833113
TCF   003.40 120.8 m E Pn      2012/02/08 17:13:57.0  -0.1                          T                                        4833109
HYF   003.25 103.3 m E P       2012/02/08 17:13:57.7  -0.1                          T                                        4833231
BGF   003.64 113.4 m E Pn      2012/02/08 17:14:01.2   0.9                          T                                        4833104
RJF   003.71 137.9 m E Pn      2012/02/08 17:14:01.5   0.3                          T                                        4833112
RJF   003.71 137.9 m E Pg      2012/02/08 17:14:13.3  -0.1                          T                                        4833229
RJF   003.71 137.9 m E Sg      2012/02/08 17:15:01.3   0.2                          T                2.9  .30 Ml 2.2         4833107
AVF   003.87 108.0 m E Pn      2012/02/08 17:14:03.7   0.4                          T                                        4833108
SSF   003.87 103.6 m E Pn      2012/02/08 17:14:03.9   0.4                          T                                        4833110
LOR   004.05 099.8 m E Pn      2012/02/08 17:14:06.3   0.4 273.3  -10.8             T                                        4833111
CAF   004.24 137.1 m E Pn      2012/02/08 17:14:08.2  -0.4                          T                                        4833096
EPF   005.34 161.2 m E Pn      2012/02/08 17:14:23.9   0.4                          T                                        4833230
CABF  005.70 102.2 m E Pn      2012/02/08 17:14:27.5  -0.9                          T                                        4833097

.
EVENT     269823
    Date      Time       Latitude Longitude    Depth    Ndef Nsta Gap    Mag1  N    Mag2  N    Mag3  N   Author         ID
       rms   OT_Error      Smajor Sminor Az        Err   mdist  Mdist     Err        Err        Err      Quality

2012/02/08 17:55:50.0     46.0861   -3.2119      4.0 f    23   10 247  Ml 2.3  9  Md 2.5  3              js067245    269843

      1.00   +-  0.38       6.1    2.5   46.12 +-  0.0    1.83   4.17   +-0.2      +-0.1                 m i ke

BAY OF BISCAY
Sta     Dist  EvAz     Phase      Date       Time     TRes  Azim  AzRes  Slow  SRes Def   SNR       Amp   Per   Mag1   Mag2       ID
QUIF  001.83 001.0 m E Pg      2012/02/08 17:56:24.1   0.1                          T                                        4833744
QUIF  001.83 001.0 m E Sg      2012/02/08 17:56:47.8   0.2                          T                7.6  .28 Ml 2.6 Md 2.4  4833742
MFF   002.19 075.2 m E Pg      2012/02/08 17:56:30.0  -0.6                          T                                        4833735
MFF   002.19 075.2 m E Sg      2012/02/08 17:56:58.2  -0.5                          T                1.8  .24 Ml 2.3 Md 2.6  4833738
SGMF  002.21 011.4 m E Pg      2012/02/08 17:56:31.3   0.2                          T                                        4833743
SGMF  002.21 011.4 m E Sg      2012/02/08 17:56:59.4  -0.3                          T                4.0  .29 Ml 2.4 Md 2.6  4833741
ROSF  002.25 359.0 m E Pg      2012/02/08 17:56:32.1   0.3                          T                                        4833734
ROSF  002.25 359.0 m E Sn      2012/02/08 17:56:51.4  -1.3                          T                                        4833727
ROSF  002.25 359.0 m E Sg      2012/02/08 17:56:59.7  -1.1                          T                4.1  .27 Ml 2.4         4833740
LDF   003.27 038.8 m E Pn      2012/02/08 17:56:40.0  -0.1                          T                                        4833725
LDF   003.27 038.8 m E Pg      2012/02/08 17:56:50.6   0.0                          T                                        4833726
LDF   003.27 038.8 m E Sg      2012/02/08 17:57:33.1   0.5                          T                1.9  .30 Ml 2.3         4833737
FLN   003.26 033.7 m E Pn      2012/02/08 17:56:40.7   0.8                          T                                        4833729
FLN   003.26 033.7 m E Pg      2012/02/08 17:56:50.2  -0.1 218.2  2.5               T                                        4833728
FLN   003.26 033.7 m E Sg      2012/02/08 17:57:33.3   1.1                          T                                        4833733
GRR   002.81 034.0 m E Sg      2012/02/08 17:57:17.7  -0.4                          T                2.7  .26 Ml 2.3         4833739
LFF   003.01 111.0 m E Sg      2012/02/08 17:57:24.1  -0.2                          T                                        4833732
RJF   003.40 101.6 m E Sg      2012/02/08 17:57:36.9   0.1                          T                1.3  .21 Ml 2.0         4833736
CAF   003.89 105.5 m E Sg      2012/02/08 17:57:51.8  -0.1                          T                2.4  .36 Ml 2.4         4833731

.
EVENT     269827
    Date      Time       Latitude Longitude    Depth    Ndef Nsta Gap    Mag1  N    Mag2  N    Mag3  N   Author         ID
       rms   OT_Error      Smajor Sminor Az        Err   mdist  Mdist     Err        Err        Err      Quality

2012/02/08 20:25:16.4     44.5687    7.4632     20.0 f    53    9 079  Ml 2.1  8  Md 2.1  4              js067245    269847

      0.65   +-  0.09       2.1    1.4   55.03 +-  0.0    0.17   2.01   +-0.3      +-0.1                 m i ke

NORTHERN ITALY
Sta     Dist  EvAz     Phase      Date       Time     TRes  Azim  AzRes  Slow  SRes Def   SNR       Amp   Per   Mag1   Mag2       ID
MBDF  000.52 288.0 m E Pg      2012/02/08 20:25:27.5   0.6                          T                                        4833767
MBDF  000.52 288.0 m E Sg      2012/02/08 20:25:34.0  -0.2                          T               12.5  .23        Md 2.0  4833766
SBF   000.71 181.6 m E Pg      2012/02/08 20:25:29.8  -0.3                          T                                        4833756
SBF   000.71 181.6 m E Sg      2012/02/08 20:25:39.7   0.0                          T               16.5  .19        Md 2.0  4833755
LPG   001.06 331.7 m E Pg      2012/02/08 20:25:36.8   0.0                          T                                        4833762
LPG   001.06 331.7 m E Sg      2012/02/08 20:25:50.2  -0.5                          T                5.2  .27 Ml 2.1         4833761
FRF   001.17 210.6 m E Pg      2012/02/08 20:25:37.4  -1.0                          T                                        4833752
FRF   001.17 210.6 m E Sn      2012/02/08 20:25:50.2  -0.1                          T                6.6  .20 Ml 2.4 Md 2.3  4833758
LPL   001.08 331.6 m E Pg      2012/02/08 20:25:37.4   0.3                          T                                        4833764
LPL   001.08 331.6 m E Sg      2012/02/08 20:25:51.2  -0.2                          T                3.3  .30 Ml 1.9 Md 2.1  4833759
ORIF  001.18 287.8 m E Pg      2012/02/08 20:25:39.3   0.4                          T                                        4833765
ORIF  001.18 287.8 m E Sg      2012/02/08 20:25:54.0  -0.3                          T                5.7  .32 Ml 2.1         4833760
LMR   001.41 209.5 m E Pn      2012/02/08 20:25:41.4   2.0                          T                                        4833751
LMR   001.41 209.5 m E Sn      2012/02/08 20:25:56.4   0.2                          T                5.6  .24 Ml 2.4         4833757
SMRF  001.48 247.1 m E Pg      2012/02/08 20:25:44.7   0.5                          T                                        4833753
SMRF  001.48 247.1 m E Sg      2012/02/08 20:26:03.8   0.3                          T                2.4  .22 Ml 2.1         4833754
VIVF  002.01 279.2 m E Pn      2012/02/08 20:25:50.5   2.9                          T                                        4833793
VIVF  002.01 279.2 m E Pg      2012/02/08 20:25:54.3   0.4                          T                                        4833749
VIVF  002.01 279.2 m E Sn      2012/02/08 20:26:10.8   0.2                          T                 .4  .16 Ml 1.6         4833750

.
EVENT     269828
    Date      Time       Latitude Longitude    Depth    Ndef Nsta Gap    Mag1  N    Mag2  N    Mag3  N   Author         ID
       rms   OT_Error      Smajor Sminor Az        Err   mdist  Mdist     Err        Err        Err      Quality

2012/02/09 01:00:31.3     47.8243    7.7837     10.0      12    4 073  Ml 1.8  2  Md 1.8  2              js067245    269848

      0.44   +-  0.09       1.8    1.8  158.96 +-  0.0    0.11   1.88   +-0.4      +-0.1                 m i ke

SWITZERLAND
Sta     Dist  EvAz     Phase      Date       Time     TRes  Azim  AzRes  Slow  SRes Def   SNR       Amp   Per   Mag1   Mag2       ID
CDF   000.68 330.2 m E Pg      2012/02/09 01:00:44.6   0.3                          T                                        4833797
CDF   000.68 330.2 m E Sg      2012/02/09 01:00:53.8   0.5                          T                2.4  .20        Md 1.7  4833796
HAU   000.98 281.2 m E Pg      2012/02/09 01:00:49.6  -0.2                          T                                        4833798
HAU   000.98 281.2 m E Sg      2012/02/09 01:01:03.0   0.4                          T                2.1  .22 Ml 1.6 Md 1.9  4833799
HINF  000.63 269.7 m E Sg      2012/02/09 01:00:52.1   0.5                          T                                        4833801
HINF  000.63 269.7 m E Sn      2012/02/09 01:00:53.6  -0.6                          T                1.9  .22                4833800
SFTF  001.88 282.7 m E Sg      2012/02/09 01:01:30.2  -0.4                          T                2.2  .28 Ml 2.1         4833795

.
EVENT     269835
    Date      Time       Latitude Longitude    Depth    Ndef Nsta Gap    Mag1  N    Mag2  N    Mag3  N   Author         ID
       rms   OT_Error      Smajor Sminor Az        Err   mdist  Mdist     Err        Err        Err      Quality

2012/02/09 08:40:06.0     43.1256    -.4895      2.0      50    7 078  Ml 2.3  5  Md 2.4  2              js067245    269855

      0.62   +-  0.09       1.8    1.3  175.65 +-  0.0    0.16   3.80   +-0.2      +-0.1                 m i ke

PYRENEES
Sta     Dist  EvAz     Phase      Date       Time     TRes  Azim  AzRes  Slow  SRes Def   SNR       Amp   Per   Mag1   Mag2       ID
SJPF  000.54 268.9 m E Pg      2012/02/09 08:40:15.9  -0.4                          T                                        4833805
SJPF  000.54 268.9 m E Sg      2012/02/09 08:40:23.5   0.2                          T               14.7  .22        Md 2.4  4833803
EPF   000.62 098.6 m E Pg      2012/02/09 08:40:17.7   0.0                          T                                        4833804
EPF   000.62 098.6 m E Sg      2012/02/09 08:40:26.2   0.4                          T               23.1  .22        Md 2.3  4833802
LFF   002.02 025.6 m E Pg      2012/02/09 08:40:44.1   0.6                          T                                        4833810
LFF   002.02 025.6 m E Sg      2012/02/09 08:41:11.2   1.7                          T                7.2  .28 Ml 2.4         4833811
RJF   002.61 032.8 m E Pn      2012/02/09 08:40:46.3  -1.1                          T                                        4833809
RJF   002.61 032.8 m E Sg      2012/02/09 08:41:28.7   0.7                          T                2.8  .21 Ml 2.1         4833813
MFF   003.48 003.9 m E Pg      2012/02/09 08:41:10.2  -0.3                          T                                        4833807
MFF   003.48 003.9 m E Sg      2012/02/09 08:41:54.6  -0.6                          T                2.3  .32 Ml 2.6         4833812
CAF   002.58 044.8 m E Sg      2012/02/09 08:41:27.6   0.7                          T                2.2  .18 Ml 2.4         4833814
LASF  003.30 071.8 m E Sg      2012/02/09 08:41:49.3  -0.2                          T                 .9  .24 Ml 2.0         4833808

.
