BEGIN GSE2.0
MSG_TYPE DATA
MSG_ID 28-OCT-1114:36:50  FRA_NDC
E-MAIL
DATA_TYPE BULLETIN
Reviewed Bulletin (REB) # P2011-042  from French NDC for regional phases     PERIOD 19 OCT 2011 TO 25 OCT 2011 S M., J-P S.
EVENT     265272
    Date      Time       Latitude Longitude    Depth    Ndef Nsta Gap    Mag1  N    Mag2  N    Mag3  N   Author         ID
       rms   OT_Error      Smajor Sminor Az        Err   mdist  Mdist     Err        Err        Err      Quality

2011/10/19 01:53:15.1     42.8371    1.9695      8.0 f    43   10 060  Ml 2.1 10                         js067245    265292

      0.53   +-  0.05       1.0     .9  101.35 +-  0.0    0.12   3.45   +-0.2                            m i ke

PYRENEES
Sta     Dist  EvAz     Phase      Date       Time     TRes  Azim  AzRes  Slow  SRes Def   SNR       Amp   Per   Mag1   Mag2       ID
MTLF  000.54 019.8 m E Pg      2011/10/19 01:53:25.3   0.0                          T                                        4773133
MTLF  000.54 019.8 m E Sg      2011/10/19 01:53:32.1  -0.3                          T                4.4  .21                4773128
EPF   001.21 279.7 m E Pn      2011/10/19 01:53:36.7  -0.1                          T                                        4773132
EPF   001.21 279.7 m E Pg      2011/10/19 01:53:38.3   0.5                          T                                        4773142
EPF   001.21 279.7 m E Sg      2011/10/19 01:53:54.1   0.6                          T                4.4  .32 Ml 2.1         4773129
LASF  001.85 047.3 m E P       2011/10/19 01:53:47.1  -0.5                          T                                        4773121
LASF  001.85 047.3 m E Sg      2011/10/19 01:54:13.1  -0.3                          T                1.7  .29 Ml 1.9         4773125
ETSF  001.86 272.7 m E Pg      2011/10/19 01:53:49.9   0.1                          T                                        4773131
ETSF  001.86 272.7 m E Sg      2011/10/19 01:54:14.0   0.2                          T                3.0  .33 Ml 2.1         4773127
CAF   002.09 001.9 m E P       2011/10/19 01:53:50.9  -0.1                          T                                        4773130
CAF   002.09 001.9 m E Pg      2011/10/19 01:53:53.9  -0.1                          T                                        4775788
CAF   002.09 001.9 m E Sg      2011/10/19 01:54:21.0   0.1                          T                3.6  .23 Ml 2.4         4773126
SJPF  002.36 277.8 m E Pn      2011/10/19 01:53:52.2  -0.1                          T                                        4773144
SJPF  002.36 277.8 m E Pg      2011/10/19 01:53:59.2   0.2                          T                                        4773141
SJPF  002.36 277.8 m E Sg      2011/10/19 01:54:29.4   0.1                          T                 .7  .30 Ml 1.6         4773123
LFF   002.28 337.5 m E Pg      2011/10/19 01:53:57.3  -0.1                          T                                        4773140
LFF   002.28 337.5 m E Sg      2011/10/19 01:54:27.0   0.1                          T                4.4  .31 Ml 2.3         4773122
RJF   002.49 352.6 m E Pg      2011/10/19 01:54:01.2   0.0                          T                                        4775789
RJF   002.49 352.6 m E Sg      2011/10/19 01:54:33.2   0.0                          T                2.2  .24 Ml 1.9         4775790
VIVF  002.81 043.2 m E Sg      2011/10/19 01:54:43.6   0.3                          T                1.1  .30 Ml 1.9         4773124
TCF   003.45 002.8 m E Sg      2011/10/19 01:55:03.9   0.4                          T                1.3  .31 Ml 2.2         4773136

.
EVENT     265316
    Date      Time       Latitude Longitude    Depth    Ndef Nsta Gap    Mag1  N    Mag2  N    Mag3  N   Author         ID
       rms   OT_Error      Smajor Sminor Az        Err   mdist  Mdist     Err        Err        Err      Quality

2011/10/19 15:54:13.7     42.7842    -.5504      2.0       6    3 234             Md 1.1  3              js067245    265336

      0.19   +-  0.22       5.5    2.1    9.02 +-  0.0    0.11   0.70              +-0.0                 m i ke

PYRENEES
Sta     Dist  EvAz     Phase      Date       Time     TRes  Azim  AzRes  Slow  SRes Def   SNR       Amp   Per   Mag1   Mag2       ID
ETSF  000.11 356.8 m E Pg      2011/10/19 15:54:16.2  -0.1                          T                                        4773647
ETSF  000.11 356.8 m E Sg      2011/10/19 15:54:18.1   0.0                          T               31.6  .24        Md 1.1  4773646
SJPF  000.59 303.8 m E Pg      2011/10/19 15:54:24.9  -0.1                          T                                        4773642
SJPF  000.59 303.8 m E Sg      2011/10/19 15:54:33.3   0.4                          T                1.9  .33        Md 1.1  4773643
EPF   000.70 069.1 m E Pg      2011/10/19 15:54:27.1   0.1                          T                                        4773645
EPF   000.70 069.1 m E Sg      2011/10/19 15:54:36.0  -0.2                          T                3.7  .26        Md 1.1  4773644

.
EVENT     265295
    Date      Time       Latitude Longitude    Depth    Ndef Nsta Gap    Mag1  N    Mag2  N    Mag3  N   Author         ID
       rms   OT_Error      Smajor Sminor Az        Err   mdist  Mdist     Err        Err        Err      Quality

2011/10/20 03:53:41.8     44.9974    6.5248      3.0 f    27    9 094  Ml 2.4  1  Md 2.0  4              js067245    265315

      0.50   +-  0.08       1.7    1.4   94.07 +-  0.0    0.20   1.66   +-         +-0.1                 m i ke

FRANCE
Sta     Dist  EvAz     Phase      Date       Time     TRes  Azim  AzRes  Slow  SRes Def   SNR       Amp   Per   Mag1   Mag2       ID
MBDF  000.32 146.9 m E Pg      2011/10/20 03:53:48.0  -0.3                          T                                        4773316
MBDF  000.32 146.9 m E Sg      2011/10/20 03:53:52.4  -0.2                          T                7.5  .28        Md 1.8  4773422
ORIF  000.46 260.4 m E Pg      2011/10/20 03:53:50.7  -0.1                          T                                        4773317
ORIF  000.46 260.4 m E Sg      2011/10/20 03:53:56.4  -0.5                          T                4.6  .22        Md 2.0  4773421
LPG   000.53 017.7 m E Pg      2011/10/20 03:53:52.2   0.0                          T                                        4773314
LPG   000.53 017.7 m E Sg      2011/10/20 03:53:58.7  -0.4                          T                                        4773415
LPL   000.54 015.7 m E Pg      2011/10/20 03:53:52.6   0.2                          T                                        4773315
LPL   000.54 015.7 m E Sg      2011/10/20 03:53:59.8   0.3                          T                2.0  .25        Md 2.0  4773414
SMRF  001.23 214.0 m E Pn      2011/10/20 03:54:04.6   0.3                          T                                        4773418
SMRF  001.23 214.0 m E Pg      2011/10/20 03:54:05.4   0.6                          T                                        4773419
SMRF  001.23 214.0 m E Sg      2011/10/20 03:54:20.6   0.0                          T                                        4773417
SMRF  001.23 214.0 m E S       2011/10/20 03:54:24.2   0.9                          T                                        4773416
VIVF  001.32 264.5 m E Pn      2011/10/20 03:54:05.4  -0.2                          T                                        4773407
VIVF  001.32 264.5 m E Pg      2011/10/20 03:54:08.0   1.4                          T                                        4773313
VIVF  001.32 264.5 m E Sg      2011/10/20 03:54:23.6  -0.1                          T               34.6 1.36 Ml 2.4         4773420
VIVF  001.32 264.5 m E S       2011/10/20 03:54:25.8   0.1                          T                2.1  .35                4773408
FRF   001.44 176.5 m E Pg      2011/10/20 03:54:09.3   0.6                          T                                        4773409
LMR   001.66 180.4 m E Pn      2011/10/20 03:54:09.5  -0.6                          T                                        4774017
LMR   001.66 180.4 m E Pg      2011/10/20 03:54:12.7  -0.1                          T                                        4774016
LMR   001.66 180.4 m E Sg      2011/10/20 03:54:34.6   0.3                          T                                        4773410
CABF  001.64 349.4 m E Sg      2011/10/20 03:54:33.8   0.1                          T                                        4773413

.
EVENT     265296
    Date      Time       Latitude Longitude    Depth    Ndef Nsta Gap    Mag1  N    Mag2  N    Mag3  N   Author         ID
       rms   OT_Error      Smajor Sminor Az        Err   mdist  Mdist     Err        Err        Err      Quality

2011/10/20 06:09:24.5     44.4049    9.4234     10.0 f    75   24 106  Ml 3.4 16                         js067245    265316

      0.84   +-  0.13       3.1    2.2   40.23 +-  0.0    0.11   6.72   +-0.3                            m i ke

NORTHERN ITALY
Sta     Dist  EvAz     Phase      Date       Time     TRes  Azim  AzRes  Slow  SRes Def   SNR       Amp   Per   Mag1   Mag2       ID
SBF   001.53 250.0 m E Pn      2011/10/20 06:09:49.9  -0.5                          T                                        4773444
SBF   001.53 250.0 m E Pg      2011/10/20 06:09:52.2  -1.0                          T                                        4774408
SBF   001.53 250.0 m E Sn      2011/10/20 06:10:11.5   2.4                          T              176.0  .33 Ml 3.8         4773443
MBDF  001.92 280.6 m E Pn      2011/10/20 06:09:55.2  -0.7                          T                                        4773433
MBDF  001.92 280.6 m E P       2011/10/20 06:09:58.1   0.0                          T                                        4774415
MBDF  001.92 280.6 m E Sn      2011/10/20 06:10:18.8   0.2                          T              158.1  .68 Ml 3.6         4773493
MBDF  001.92 280.6 m E Sg      2011/10/20 06:10:24.5  -0.8                          T                                        4774419
PGF   001.88 189.6 m E Pn      2011/10/20 06:09:55.4   0.2                          T                                        4773456
PGF   001.88 189.6 m E Sn      2011/10/20 06:10:18.6   1.0                          T               22.7  .30 Ml 3.3         4773441
FRF   002.17 248.1 m E Pn      2011/10/20 06:09:58.8  -0.3                          T                                        4773438
FRF   002.17 248.1 m E Pg      2011/10/20 06:10:04.3  -0.7                          T                                        4773423
FRF   002.17 248.1 m E Sn      2011/10/20 06:10:24.2  -0.2                          T              110.2  .50 Ml 3.6         4773431
LPL   002.21 301.1 m E Pn      2011/10/20 06:10:00.3   0.5                          T                                        4773435
LPL   002.21 301.1 m E Pg      2011/10/20 06:10:03.5  -2.4                          T                                        4773495
LPL   002.21 301.1 m E Sn      2011/10/20 06:10:25.2  -0.4                          T                                        4773497
LPL   002.21 301.1 m E Sg      2011/10/20 06:10:32.1  -2.3                          T                                        4773496
LPG   002.19 300.9 m E Pn      2011/10/20 06:10:00.9   1.3                          T                                        4773436
LPG   002.19 300.9 m E Sg      2011/10/20 06:10:32.2  -1.6                          T                                        4774420
LMR   002.36 244.1 m E Pn      2011/10/20 06:10:01.2  -0.4                          T                                        4773440
LMR   002.36 244.1 m E P       2011/10/20 06:10:03.8  -0.4                          T                                        4774416
LMR   002.36 244.1 m E Pg      2011/10/20 06:10:07.7  -0.8                          T                                        4773424
LMR   002.36 244.1 m E Sn      2011/10/20 06:10:29.5   0.5                          T               43.2  .36 Ml 3.4         4773439
LMR   002.36 244.1 m E S       2011/10/20 06:10:34.6   0.9                          T                                        4774417
LMR   002.36 244.1 m E Sg      2011/10/20 06:10:38.9   0.0                          T                                        4774418
ORIF  002.58 282.7 m E Pn      2011/10/20 06:10:06.7   1.9                          T                                        4773434
ORIF  002.58 282.7 m E Pg      2011/10/20 06:10:10.7  -1.9                          T                                        4773494
ORIF  002.58 282.7 m E Sn      2011/10/20 06:10:33.7  -0.5                          T                                        4773486
SMRF  002.80 262.5 m E Pn      2011/10/20 06:10:08.4   0.8                          T                                        4773437
SMRF  002.80 262.5 m E Sn      2011/10/20 06:10:41.3   1.9                          T               35.8  .36 Ml 3.4         4773485
CABF  003.22 314.4 m E Pn      2011/10/20 06:10:13.8   0.4                          T                                        4773511
VIVF  003.42 279.2 m E Pn      2011/10/20 06:10:16.0  -0.1                          T                                        4773432
VIVF  003.42 279.2 m E P       2011/10/20 06:10:19.2  -0.1                          T                                        4774414
HINF  003.85 333.3 m E Pn      2011/10/20 06:10:21.5  -0.5                          T                                        4773512
HINF  003.85 333.3 m E Sn      2011/10/20 06:11:07.0   2.4                          T               28.6  .62 Ml 3.3         4773501
LASF  004.01 267.2 m E Pn      2011/10/20 06:10:24.4   0.3                          T                                        4773498
HAU   004.19 330.4 m E Pn      2011/10/20 06:10:26.5   0.0                          T                                        4773508
HAU   004.19 330.4 m E P       2011/10/20 06:10:29.3  -0.9                          T                                        4774411
HAU   004.19 330.4 m E Sn      2011/10/20 06:11:13.0   0.4                          T               81.6  .46 Ml 3.7         4773507
CDF   004.27 340.4 m E Pn      2011/10/20 06:10:27.0  -0.7                          T                                        4773504
CDF   004.27 340.4 m E Sn      2011/10/20 06:11:13.8  -0.9                          T               14.1  .46 Ml 3.3         4773503
SMF   004.52 301.7 m E Pn      2011/10/20 06:10:31.4   0.4                          T                                        4773500
SMF   004.52 301.7 m E Sn      2011/10/20 06:11:21.2   0.8                          T                                        4774410
SFTF  004.87 322.9 m E Pn      2011/10/20 06:10:35.4  -0.3 141.3  1.5               T                                        4773506
PAGF  004.87 329.7 m E Pn      2011/10/20 06:10:35.7  -0.1 145.3  -1.7              T                                        4773505
PAGF  004.87 329.7 m E Sn      2011/10/20 06:11:29.4   0.5                          T                6.4  .63 Ml 2.9         4773502
LOR   004.83 308.3 m E Pn      2011/10/20 06:10:35.8   0.5 123.3  -1.1              T                                        4773492
LOR   004.83 308.3 m E Sn      2011/10/20 06:11:29.6   1.7                          T               28.0  .38 Ml 3.7         4773491
AVF   004.88 301.4 m E Pn      2011/10/20 06:10:36.1   0.2                          T                                        4773510
AVF   004.88 301.4 m E P       2011/10/20 06:10:40.0   0.0                          T                                        4774412
AVF   004.88 301.4 m E Sn      2011/10/20 06:11:33.1   3.9                          T               12.0  .58 Ml 3.2         4773509
SSF   004.92 304.8 m E Pn      2011/10/20 06:10:36.7   0.2                          T                                        4773489
SSF   004.92 304.8 m E Sn      2011/10/20 06:11:30.8   0.7                          T               15.8  .57 Ml 3.4         4773490
BGF   005.10 297.3 m E Pn      2011/10/20 06:10:39.1   0.2                          T                                        4773499
BGF   005.10 297.3 m E Sn      2011/10/20 06:11:36.6   2.2                          T               29.8  .48 Ml 3.7         4774409
TCF   005.42 292.8 m E Pn      2011/10/20 06:10:45.3   2.0                          T                                        4773488
TCF   005.42 292.8 m E Sn      2011/10/20 06:11:43.0   1.0                          T                                        4773487
EPF   006.72 261.4 m E Pn      2011/10/20 06:11:01.4   0.3                          T                                        4774413

.
