EVENT     289313
    Date      Time       Latitude Longitude    Depth    Ndef Nsta Gap    Mag1  N    Mag2  N    Mag3  N   Author         ID
       rms   OT_Error      Smajor Sminor Az        Err   mdist  Mdist     Err        Err        Err      Quality

2013/01/01 06:34:59.0     43.0722    -.1792      2.0     175   27 053  Ml 3.2 26  Md 3.0  2              bulletin    289413
                                                                                                         _ldg
      0.89   +-  0.05       1.1    1.0  149.16 +-  0.0    0.10   6.74   +-0.4      +-0.0                 m i ke

PYRENEES
Sta     Dist  EvAz     Phase      Date       Time     TRes  Azim  AzRes  Slow  SRes Def   SNR       Amp   Per   Mag1   Mag2       ID
ETSF  000.33 238.2 m E Pg      2013/01/01 06:35:04.1  -1.4                          T                                        5152337
ETSF  000.33 238.2 m E Sg      2013/01/01 06:35:08.2  -1.7                          T             1120.0  .22        Md 3.0  5152336
EPF   000.38 096.1 m E Pg      2013/01/01 06:35:05.9  -0.6                          T                                        5152335
EPF   000.38 096.1 m E Sg      2013/01/01 06:35:12.1   0.5                          T              362.0  .28        Md 2.9  5152334
SJPF  000.77 273.4 m E Pg      2013/01/01 06:35:12.2  -1.3                          T                                        5152332
SJPF  000.77 273.4 m E Sg      2013/01/01 06:35:22.0  -1.5                          T              127.7  .22                5152333
MTLF  001.77 080.5 m E Pn      2013/01/01 06:35:29.0   0.0                          T                                        5152244
MTLF  001.77 080.5 m E Pg      2013/01/01 06:35:32.0   0.0                          T                                        5152331
MTLF  001.77 080.5 m E Sg      2013/01/01 06:35:55.0   0.2                          T               49.5  .28 Ml 3.4         5152330
LFF   001.98 019.2 m E Pn      2013/01/01 06:35:31.7   0.0                          T                                        5152325
LFF   001.98 019.2 m E Pg      2013/01/01 06:35:35.8   0.0                          T                                        5152326
LFF   001.98 019.2 m E Sg      2013/01/01 06:36:02.7   1.4                          T              185.6  .36 Ml 3.7         5152327
CAF   002.46 040.4 m E Pn      2013/01/01 06:35:37.4  -1.0                          T                                        5152328
CAF   002.46 040.4 m E Pg      2013/01/01 06:35:44.7  -0.1                          T                                        5152329
CAF   002.46 040.4 m E Sg      2013/01/01 06:36:16.5   0.1                          T               30.9  .18 Ml 3.5         5174323
RJF   002.54 028.1 m E Pn      2013/01/01 06:35:38.5  -1.0                          T                                        5152323
RJF   002.54 028.1 m E Pg      2013/01/01 06:35:45.9  -0.3                          T                                        5152324
RJF   002.54 028.1 m E Sn      2013/01/01 06:36:09.7   0.6                          T                                        5152322
RJF   002.54 028.1 m E Sg      2013/01/01 06:36:19.8   0.9                          T               35.5  .25 Ml 3.1         5152321
LASF  003.10 069.7 m E Pn      2013/01/01 06:35:47.0   0.0                          T                                        5152320
LASF  003.10 069.7 m E Pg      2013/01/01 06:35:56.2  -0.3                          T                                        5152319
LASF  003.10 069.7 m E Sn      2013/01/01 06:36:22.8   0.3                          T                                        5152318
LASF  003.10 069.7 m E Sg      2013/01/01 06:36:35.8  -0.5                          T               14.0  .26 Ml 3.2         5152317
MFF   003.53 000.4 m E Pn      2013/01/01 06:35:52.7  -0.1                          T                                        5152288
MFF   003.53 000.4 m E Pg      2013/01/01 06:36:04.0  -0.4                          T                                        5152287
MFF   003.53 000.4 m E Sn      2013/01/01 06:36:32.8   0.1                          T                                        5152286
MFF   003.53 000.4 m E Sg      2013/01/01 06:36:50.1   0.4                          T               25.0  .27 Ml 3.7         5152285
TCF   003.64 027.1 m E Pn      2013/01/01 06:35:54.2  -0.2                          T                                        5152292
TCF   003.64 027.1 m E Pg      2013/01/01 06:36:06.4   0.0                          T                                        5152289
TCF   003.64 027.1 m E Sn      2013/01/01 06:36:34.4  -0.9                          T                                        5152291
TCF   003.64 027.1 m E Sg      2013/01/01 06:36:54.1   0.9                          T               21.3  .23 Ml 3.6         5152290
VIVF  003.93 061.4 m E Pn      2013/01/01 06:35:58.5   0.2                          T                                        5152316
VIVF  003.93 061.4 m E Pg      2013/01/01 06:36:11.3  -0.5                          T                                        5152315
VIVF  003.93 061.4 m E Sn      2013/01/01 06:36:42.4   0.0                          T                                        5152314
VIVF  003.93 061.4 m E Sg      2013/01/01 06:37:02.5   0.2                          T                8.9  .29 Ml 3.1         5152313
BGF   004.10 030.7 m E Pn      2013/01/01 06:36:00.8   0.2                          T                                        5152307
BGF   004.10 030.7 m E Pg      2013/01/01 06:36:15.2   0.3                          T                                        5152308
BGF   004.10 030.7 m E Sn      2013/01/01 06:36:46.7   0.4                          T                                        5152306
BGF   004.10 030.7 m E Sg      2013/01/01 06:37:08.2   0.8                          T               54.8  .34 Ml 3.9         5152305
SMRF  004.28 075.9 m E Pn      2013/01/01 06:36:03.5   0.3                          T                                        5152248
SMRF  004.28 075.9 m E Pg      2013/01/01 06:36:18.8   0.5                          T                                        5152247
SMRF  004.28 075.9 m E Sn      2013/01/01 06:36:50.6  -0.1                          T                                        5152246
SMRF  004.28 075.9 m E Sg      2013/01/01 06:37:12.6  -0.6                          T                4.3  .30 Ml 2.9         5152245
AVF   004.48 032.8 m E Pn      2013/01/01 06:36:04.7  -1.1                          T                                        5152294
AVF   004.48 032.8 m E Pg      2013/01/01 06:36:21.9  -0.1                          T                                        5152293
AVF   004.48 032.8 m E Sn      2013/01/01 06:36:57.0   1.5                          T                                        5152295
AVF   004.48 032.8 m E Sg      2013/01/01 06:37:20.4   0.9                          T               16.3  .45 Ml 3.3         5152296
SMF   004.57 037.3 m E Pn      2013/01/01 06:36:07.0  -0.1                          T                                        5152300
SMF   004.57 037.3 m E Pg      2013/01/01 06:36:23.6  -0.1                          T                                        5152299
SMF   004.57 037.3 m E Sn      2013/01/01 06:36:58.2   0.5                          T                                        5152298
SMF   004.57 037.3 m E Sg      2013/01/01 06:37:23.2   0.8                          T                7.5  .28 Ml 3.2         5152297
HYF   004.65 024.4 m E Pn      2013/01/01 06:36:07.9  -0.1                          T                                        5152304
HYF   004.65 024.4 m E Pg      2013/01/01 06:36:25.2   0.3                          T                                        5152303
HYF   004.65 024.4 m E Sn      2013/01/01 06:36:59.9   0.5                          T                                        5152302
HYF   004.65 024.4 m E Sg      2013/01/01 06:37:25.6   1.1                          T                                        5152301
SSF   004.77 031.9 m E Pn      2013/01/01 06:36:09.7   0.0                          T                                        5152260
SSF   004.77 031.9 m E Pg      2013/01/01 06:36:27.3   0.1                          T                                        5152259
SSF   004.77 031.9 m E Sn      2013/01/01 06:37:03.1   0.8                          T                                        5152258
SSF   004.77 031.9 m E Sg      2013/01/01 06:37:29.0   0.7                          T                8.9  .28 Ml 3.4         5152257
ORIF  004.75 065.0 m E Pn      2013/01/01 06:36:10.1   0.6                          T                                        5152312
ORIF  004.75 065.0 m E Pg      2013/01/01 06:36:27.1   0.2                          T                                        5152311
ORIF  004.75 065.0 m E Sn      2013/01/01 06:37:02.7   0.8                          T                                        5152310
ORIF  004.75 065.0 m E Sg      2013/01/01 06:37:28.6   0.9                          T                1.0  .24 Ml 2.5         5152309
LOR   005.07 032.8 m E Pn      2013/01/01 06:36:13.5  -0.4 214.2  -1.4              T                                        5152256
LOR   005.07 032.8 m E Pg      2013/01/01 06:36:34.0   1.2 213.1  -2.6              T                                        5152255
LOR   005.07 032.8 m E Sn      2013/01/01 06:37:10.4   0.7 212.6  -3.1              T                                        5152254
LOR   005.07 032.8 m E Sg      2013/01/01 06:37:38.8   0.8 206.2  -9.4              T               10.6  .35 Ml 3.4         5152253
QUIF  005.28 337.6 m E Pn      2013/01/01 06:36:16.2  -0.4                          T                                        5152284
QUIF  005.28 337.6 m E Pg      2013/01/01 06:36:36.6   0.0                          T                                        5152283
QUIF  005.28 337.6 m E Sn      2013/01/01 06:37:12.4  -2.1                          T                                        5152282
QUIF  005.28 337.6 m E Sg      2013/01/01 06:37:44.7   0.4                          T                5.8  .25 Ml 3.3         5152281
GRR   005.34 355.1 m E Pn      2013/01/01 06:36:17.4  -0.1                          T                                        5152271
GRR   005.34 355.1 m E Pg      2013/01/01 06:36:37.9   0.2                          T                                        5152270
GRR   005.34 355.1 m E Sn      2013/01/01 06:37:14.9  -1.0                          T                                        5152269
GRR   005.34 355.1 m E Sg      2013/01/01 06:37:46.7   0.6                          T                4.7  .26 Ml 3.1         5152268
SGMF  005.44 343.0 m E Pn      2013/01/01 06:36:18.5  -0.4                          T                                        5152280
SGMF  005.44 343.0 m E Pg      2013/01/01 06:36:40.0   0.4                          T                                        5152279
SGMF  005.44 343.0 m E Sn      2013/01/01 06:37:16.6  -1.8                          T                                        5152278
SGMF  005.44 343.0 m E Sg      2013/01/01 06:37:50.3   0.9                          T                4.0  .22 Ml 3.2         5152276
LDF   005.52 000.4 m E Pn      2013/01/01 06:36:19.0  -1.0                          T                                        5152267
LDF   005.52 000.4 m E Pg      2013/01/01 06:36:40.5  -0.6                          T                                        5152266
LDF   005.52 000.4 m E Sn      2013/01/01 06:37:19.5  -0.8                          T                                        5152277
LDF   005.52 000.4 m E Sg      2013/01/01 06:37:52.2   0.4                          T                8.8  .36 Ml 3.3         5152265
CABF  005.69 049.4 m E Pn      2013/01/01 06:36:22.2  -0.2                          T                                        5152251
CABF  005.69 049.4 m E Pg      2013/01/01 06:36:44.8   0.6                          T                                        5152252
CABF  005.69 049.4 m E Sn      2013/01/01 06:37:25.3   0.9                          T                                        5152250
CABF  005.69 049.4 m E Sg      2013/01/01 06:37:58.4   1.2                          T                4.2  .35 Ml 3.1         5152249
FLN   005.70 358.0 m E Pn      2013/01/01 06:36:22.3   0.0 177.3  -0.5              T                                        5152262
FLN   005.70 358.0 m E Pg      2013/01/01 06:36:44.0  -0.2 169.0  -8.7              T                                        5152261
FLN   005.70 358.0 m E Sn      2013/01/01 06:37:24.7   0.2                          T                                        5152263
FLN   005.70 358.0 m E Sg      2013/01/01 06:37:58.0   0.7                          T                4.8  .22 Ml 3.2         5152264
ROSF  005.69 338.7 m E Pn      2013/01/01 06:36:22.4   0.1                          T                                        5152275
ROSF  005.69 338.7 m E Pg      2013/01/01 06:36:44.6   0.4                          T                                        5152274
ROSF  005.69 338.7 m E Sn      2013/01/01 06:37:21.5  -2.9                          T                                        5152273
ROSF  005.69 338.7 m E Sg      2013/01/01 06:37:57.4   0.2                          T                7.8  .40 Ml 3.3         5152272
LPG   005.53 061.6 m E Sg      2013/01/01 06:37:52.5  -0.2                          T                1.5  .40 Ml 2.6         5174322

.
