EVENT     294436
    Date      Time       Latitude Longitude    Depth    Ndef Nsta Gap    Mag1  N    Mag2  N    Mag3  N   Author         ID
       rms   OT_Error      Smajor Sminor Az        Err   mdist  Mdist     Err        Err        Err      Quality

2013/03/21 12:11:53.3     42.8181   -1.8149      2.0      58   12 099  Ml 3.2 11  Md 3.0  3              bulletin    294536
                                                                                                         _ldg
      0.67   +-  0.12       2.2    1.9  125.73 +-  0.0    0.18   5.95   +-0.2      +-0.0                 m i ke

PYRENEES
Sta     Dist  EvAz     Phase      Date       Time     TRes  Azim  AzRes  Slow  SRes Def   SNR       Amp   Per   Mag1   Mag2       ID
SJPF  000.52 055.5 m E Pn      2013/03/21 12:12:02.8  -2.8                          T                                        5231643
SJPF  000.52 055.5 m E Sg      2013/03/21 12:12:09.8  -0.4                          T              323.7  .40        Md 3.0  5231637
ETSF  000.93 084.6 m E Pn      2013/03/21 12:12:10.6  -1.2                          T                                        5231642
ETSF  000.93 084.6 m E Sg      2013/03/21 12:12:23.7   0.9                          T               95.9  .34 Ml 3.2 Md 3.0  5231636
EPF   001.60 081.6 m E Pn      2013/03/21 12:12:21.1   0.2                          T                                        5231641
EPF   001.60 081.6 m E Pg      2013/03/21 12:12:23.1   0.0                          T                                        5238050
EPF   001.60 081.6 m E Sg      2013/03/21 12:12:43.9   0.2                          T               72.6  .25 Ml 3.5 Md 2.9  5231635
LFF   002.81 040.2 m E Pn      2013/03/21 12:12:37.6   0.3                          T                                        5231638
LFF   002.81 040.2 m E Pg      2013/03/21 12:12:45.5   0.1                          T                                        5238054
LFF   002.81 040.2 m E Sn      2013/03/21 12:13:09.8   0.0                          T                                        5238051
LFF   002.81 040.2 m E Sg      2013/03/21 12:13:21.3  -0.2                          T               23.2  .38 Ml 3.0         5231649
MTLF  003.00 078.6 m E Pn      2013/03/21 12:12:39.9   0.0                          T                                        5231644
MTLF  003.00 078.6 m E Pg      2013/03/21 12:12:49.4   0.5                          T                                        5238049
MTLF  003.00 078.6 m E Sn      2013/03/21 12:13:14.5   0.2                          T               16.1  .38 Ml 3.0         5231645
RJF   003.46 042.9 m E Pn      2013/03/21 12:12:46.6   0.5                          T                                        5231639
RJF   003.46 042.9 m E Sn      2013/03/21 12:13:24.9  -0.3                          T               15.1  .32 Ml 2.9         5231648
CAF   003.51 051.8 m E Pn      2013/03/21 12:12:47.5   0.7                          T                                        5231640
CAF   003.51 051.8 m E Sn      2013/03/21 12:13:26.3  -0.2                          T               16.7  .31 Ml 3.3         5231646
LASF  004.32 071.1 m E Pn      2013/03/21 12:12:58.3   0.4                          T                                        5231654
LASF  004.32 071.1 m E Pg      2013/03/21 12:13:13.0  -0.1                          T                                        5238048
LASF  004.32 071.1 m E Sn      2013/03/21 12:13:46.7   0.9                          T               14.7  .30 Ml 3.4         5231655
TCF   004.51 038.3 m E Pn      2013/03/21 12:13:00.3  -0.2                          T                                        5231657
TCF   004.51 038.3 m E Sn      2013/03/21 12:13:50.7   0.3                          T                5.8  .28 Ml 3.1         5231656
BGF   005.00 040.0 m E Pn      2013/03/21 12:13:06.9  -0.2                          T                                        5231658
BGF   005.00 040.0 m E Sn      2013/03/21 12:14:02.6   0.4                          T               17.0  .38 Ml 3.5         5231647
VIVF  005.12 064.3 m E Pn      2013/03/21 12:13:09.0   0.2                          T                                        5231653
VIVF  005.12 064.3 m E Pg      2013/03/21 12:13:27.7  -0.2                          T                                        5238047
VIVF  005.12 064.3 m E Sn      2013/03/21 12:14:05.2   0.3                          T                5.5  .41 Ml 3.0         5231652
ORIF  005.95 066.7 m E Pn      2013/03/21 12:13:19.8  -0.3                          T                                        5231650
ORIF  005.95 066.7 m E Sn      2013/03/21 12:14:24.2  -0.7                          T                                        5231651

.
EVENT     294437
    Date      Time       Latitude Longitude    Depth    Ndef Nsta Gap    Mag1  N    Mag2  N    Mag3  N   Author         ID
       rms   OT_Error      Smajor Sminor Az        Err   mdist  Mdist     Err        Err        Err      Quality

2013/03/21 12:15:11.7     42.7196   -1.6784      2.0      20    3 103  Ml 2.1  1  Md 2.0  2              bulletin    294537
                                                                                                         _ldg
      0.94   +-  0.29       5.7    3.9  124.76 +-  0.0    0.09   2.52   +-         +-0.0                 m i ke

PYRENEES
Sta     Dist  EvAz     Phase      Date       Time     TRes  Azim  AzRes  Slow  SRes Def   SNR       Amp   Per   Mag1   Mag2       ID
SJPF  000.52 040.1 m E Pg      2013/03/21 12:15:22.2   0.6                          T                                        5231664
SJPF  000.52 040.1 m E Sg      2013/03/21 12:15:30.2   1.8                          T               16.8  .22        Md 2.0  5231659
ETSF  000.84 077.4 m E Pg      2013/03/21 12:15:26.8  -0.9                          T                                        5231663
ETSF  000.84 077.4 m E Sg      2013/03/21 12:15:40.9   2.3                          T                3.5  .25        Md 2.1  5231660
EPF   001.52 077.5 m E Pg      2013/03/21 12:15:40.4   0.3                          T                                        5231662
EPF   001.52 077.5 m E Sg      2013/03/21 12:16:02.0   2.4                          T                2.4  .19 Ml 2.1         5231661

.
EVENT     294695
    Date      Time       Latitude Longitude    Depth    Ndef Nsta Gap    Mag1  N    Mag2  N    Mag3  N   Author         ID
       rms   OT_Error      Smajor Sminor Az        Err   mdist  Mdist     Err        Err        Err      Quality

2013/03/21 12:20:51.1     43.0166     .3726       .0 f    27    4 094  Ml 1.8  2  Md 2.0  2              bulletin    294795
                                                                                                         _ldg
      0.47   +-  0.09       2.1    1.3   16.18 +-  0.0    0.03   1.86   +-0.6      +-0.2                 m i km

FRANCE
Sta     Dist  EvAz     Phase      Date       Time     TRes  Azim  AzRes  Slow  SRes Def   SNR       Amp   Per   Mag1   Mag2       ID
EPF   000.03 299.8 m E Pg      2013/03/21 12:20:52.0   0.1                          T                                        5238055
EPF   000.03 299.8 m E Sg      2013/03/21 12:20:52.2  -0.2                          T              842.3  .26        Md 2.1  5238056
ETSF  000.69 260.5 m E Pg      2013/03/21 12:21:04.4  -0.1                          T                                        5238060
ETSF  000.69 260.5 m E Sg      2013/03/21 12:21:13.5  -0.3                          T                8.4  .36        Md 1.8  5238061
MTLF  001.39 075.9 m E Pg      2013/03/21 12:21:17.7   0.5                          T                                        5238057
MTLF  001.39 075.9 m E Sg      2013/03/21 12:21:35.7   0.3                          T                5.2  .27 Ml 2.3         5238058
SJPF  001.17 275.3 m E Sg      2013/03/21 12:21:28.7  -0.1                          T                 .6  .18 Ml 1.4         5238059

.
EVENT     294439
    Date      Time       Latitude Longitude    Depth    Ndef Nsta Gap    Mag1  N    Mag2  N    Mag3  N   Author         ID
       rms   OT_Error      Smajor Sminor Az        Err   mdist  Mdist     Err        Err        Err      Quality

2013/03/21 12:25:49.9     42.8165   -1.8645      2.0      20    3 106  Ml 2.2  2  Md 2.0  1              bulletin    294539
                                                                                                         _ldg
      0.51   +-  0.19       3.1    2.7   11.64 +-  0.0    0.21   2.48   +-0.3      +-                    m i ke

PYRENEES
Sta     Dist  EvAz     Phase      Date       Time     TRes  Azim  AzRes  Slow  SRes Def   SNR       Amp   Per   Mag1   Mag2       ID
SJPF  000.56 057.5 m E Pg      2013/03/21 12:26:00.5   0.0                          T                                        5231678
SJPF  000.56 057.5 m E Sg      2013/03/21 12:26:06.9  -0.9                          T               11.8  .28        Md 2.0  5231673
ETSF  000.96 084.7 m E Pg      2013/03/21 12:26:08.4   0.3                          T                                        5231677
ETSF  000.96 084.7 m E Sg      2013/03/21 12:26:21.1   0.6                          T                5.8  .32 Ml 2.1         5231674
EPF   001.63 081.7 m E Pg      2013/03/21 12:26:20.6   0.3                          T                                        5231676
EPF   001.63 081.7 m E Sg      2013/03/21 12:26:41.2  -0.3                          T                5.2  .24 Ml 2.4         5231675

.
EVENT     294440
    Date      Time       Latitude Longitude    Depth    Ndef Nsta Gap    Mag1  N    Mag2  N    Mag3  N   Author         ID
       rms   OT_Error      Smajor Sminor Az        Err   mdist  Mdist     Err        Err        Err      Quality

2013/03/21 12:27:23.4     42.8249   -1.8182      2.0      20    3 152  Ml 2.2  2  Md 2.1  1              bulletin    294540
                                                                                                         _ldg
      0.67   +-  0.25       5.2    3.4   11.61 +-  0.0    0.18   1.60   +-0.3      +-                    m i ke

PYRENEES
Sta     Dist  EvAz     Phase      Date       Time     TRes  Azim  AzRes  Slow  SRes Def   SNR       Amp   Per   Mag1   Mag2       ID
SJPF  000.52 056.3 m E Pg      2013/03/21 12:27:32.3  -1.1                          T                                        5231684
SJPF  000.52 056.3 m E Sg      2013/03/21 12:27:38.7  -1.6                          T               18.5  .36        Md 2.1  5231679
ETSF  000.93 085.0 m E Pg      2013/03/21 12:27:41.7   0.7                          T                                        5231683
ETSF  000.93 085.0 m E Sg      2013/03/21 12:27:53.8   0.7                          T                5.1  .28 Ml 2.0         5231680
EPF   001.60 081.9 m E Pg      2013/03/21 12:27:54.2   0.9                          T                                        5231682
EPF   001.60 081.9 m E Sg      2013/03/21 12:28:13.5  -0.4                          T                8.7  .37 Ml 2.5         5231681

.
EVENT     294441
    Date      Time       Latitude Longitude    Depth    Ndef Nsta Gap    Mag1  N    Mag2  N    Mag3  N   Author         ID
       rms   OT_Error      Smajor Sminor Az        Err   mdist  Mdist     Err        Err        Err      Quality

2013/03/21 12:29:44.5     42.8553   -1.9178      2.0      20    6 216  Ml 2.6  5  Md 2.4  1              bulletin    294541
                                                                                                         _ldg
      0.43   +-  0.29       4.2    2.8   92.41 +-  0.0    0.26   3.55   +-0.4      +-                    m i ke

PYRENEES
Sta     Dist  EvAz     Phase      Date       Time     TRes  Azim  AzRes  Slow  SRes Def   SNR       Amp   Per   Mag1   Mag2       ID
SJPF  000.57 062.9 m E Pg      2013/03/21 12:29:55.3  -0.1                          T                                        5231690
SJPF  000.57 062.9 m E Sg      2013/03/21 12:30:02.0  -0.9                          T               39.8  .29        Md 2.4  5231685
ETSF  001.00 087.1 m E Pg      2013/03/21 12:30:04.1   0.7                          T                                        5231689
ETSF  001.00 087.1 m E Sg      2013/03/21 12:30:16.2  -0.1                          T               20.6  .35 Ml 2.6         5231686
EPF   001.67 083.2 m E Pg      2013/03/21 12:30:15.9   0.3                          T                                        5231688
EPF   001.67 083.2 m E Sg      2013/03/21 12:30:36.6  -0.5                          T               56.6  .46 Ml 3.2         5231687
MTLF  003.07 079.5 m E Sn      2013/03/21 12:31:07.2   0.0                          T                4.4  .42 Ml 2.5         5238283
RJF   003.48 044.1 m E Sn      2013/03/21 12:31:16.9  -0.2                          T                2.7  .24 Ml 2.2         5238284
CAF   003.55 052.9 m E Sn      2013/03/21 12:31:18.9   0.2                          T                2.3  .27 Ml 2.5         5238285

.
EVENT     294457
    Date      Time       Latitude Longitude    Depth    Ndef Nsta Gap    Mag1  N    Mag2  N    Mag3  N   Author         ID
       rms   OT_Error      Smajor Sminor Az        Err   mdist  Mdist     Err        Err        Err      Quality

2013/03/21 14:27:12.7     42.8282   -1.8254      2.0      18    3 104  Ml 1.9  2  Md 2.1  1              bulletin    294557
                                                                                                         _ldg
      0.78   +-  0.22       4.0    3.4  171.87 +-  0.0    0.19   2.23   +-0.2      +-                    m i ke

PYRENEES
Sta     Dist  EvAz     Phase      Date       Time     TRes  Azim  AzRes  Slow  SRes Def   SNR       Amp   Per   Mag1   Mag2       ID
SJPF  000.52 056.9 m E Pg      2013/03/21 14:27:22.0  -0.7                          T                                        5231895
SJPF  000.52 056.9 m E Sg      2013/03/21 14:27:28.5  -1.1                          T               10.7  .30        Md 2.1  5231894
ETSF  000.93 085.2 m E Pg      2013/03/21 14:27:31.0   0.7                          T                                        5231893
ETSF  000.93 085.2 m E Sg      2013/03/21 14:27:43.3   0.9                          T                1.7  .19 Ml 1.7         5231892
EPF   001.60 082.0 m E Pg      2013/03/21 14:27:43.8   1.2                          T                                        5231891
EPF   001.60 082.0 m E Sg      2013/03/21 14:28:02.9  -0.4                          T                2.0  .21 Ml 2.1         5231890

.
