EVENT     291645
    Date      Time       Latitude Longitude    Depth    Ndef Nsta Gap    Mag1  N    Mag2  N    Mag3  N   Author         ID
       rms   OT_Error      Smajor Sminor Az        Err   mdist  Mdist     Err        Err        Err      Quality

2013/02/06 16:38:17.1     44.1454    8.5783      8.0 f    80   17 093  Ml 2.5 18  Md 2.7  1              bulletin    291745
                                                                                                         _ldg
      0.56   +-  0.09       1.6    1.3  140.91 +-  0.0    0.18   4.71   +-0.5      +-                    m i ke

NORTHERN ITALY
Sta     Dist  EvAz     Phase      Date       Time     TRes  Azim  AzRes  Slow  SRes Def   SNR       Amp   Per   Mag1   Mag2       ID
SBF   000.87 251.5 m E Pg      2013/02/06 16:38:33.8   0.2                          T                                        5190016
SBF   000.87 251.5 m E Sn      2013/02/06 16:38:46.5   0.2                          T              183.9  .28 Ml 3.6 Md 2.7  5190015
MBDF  001.42 294.8 m E Pn      2013/02/06 16:38:42.2   0.4                          T                                        5190014
MBDF  001.42 294.8 m E Pg      2013/02/06 16:38:43.3  -0.5                          T                                        5190013
MBDF  001.42 294.8 m E Sn      2013/02/06 16:38:59.5   0.0                          T               34.3  .43 Ml 2.9         5190012
MBDF  001.42 294.8 m E Sg      2013/02/06 16:39:02.6   0.4                          T               32.3  .30 Ml 3.0         5197810
PGF   001.63 169.0 m E Pn      2013/02/06 16:38:43.5  -1.0                          T                                        5189981
PGF   001.63 169.0 m E Sn      2013/02/06 16:39:04.1  -0.3                          T               11.0  .29 Ml 2.9         5189980
LMR   001.71 242.3 m E Pn      2013/02/06 16:38:45.2  -0.3                          T                                        5190011
LMR   001.71 242.3 m E Pg      2013/02/06 16:38:49.2   0.3                          T                                        5190010
LMR   001.71 242.3 m E Sn      2013/02/06 16:39:05.6  -0.5                          T                                        5190009
LMR   001.71 242.3 m E Sg      2013/02/06 16:39:11.2   0.4                          T               13.1  .23 Ml 2.9         5190008
LPL   001.90 316.9 m E Pn      2013/02/06 16:38:48.5   0.1                          T                                        5190001
LPL   001.90 316.9 m E Pg      2013/02/06 16:38:52.6  -0.1                          T                                        5190000
LPL   001.90 316.9 m E Sn      2013/02/06 16:39:10.0   0.0                          T                                        5196306
LPL   001.90 316.9 m E Sg      2013/02/06 16:39:17.0  -0.2                          T               11.1  .41 Ml 2.6         5189999
LPG   001.88 316.8 m E Pn      2013/02/06 16:38:48.8   0.6                          T                                        5190004
LPG   001.88 316.8 m E Pg      2013/02/06 16:38:52.1  -0.3                          T                                        5190002
LPG   001.88 316.8 m E Sn      2013/02/06 16:39:10.0  -0.6                          T                                        5197808
LPG   001.88 316.8 m E Sg      2013/02/06 16:39:16.9   0.3                          T               12.9  .41 Ml 2.7         5190003
SMRF  002.17 266.6 m E Pn      2013/02/06 16:38:51.8  -0.1                          T                                        5190007
SMRF  002.17 266.6 m E Pg      2013/02/06 16:38:56.9  -0.6                          T                                        5190006
SMRF  002.17 266.6 m E Sn      2013/02/06 16:39:17.2  -0.1                          T                                        5197807
SMRF  002.17 266.6 m E Sg      2013/02/06 16:39:25.6   0.2                          T               20.9  .30 Ml 3.1         5190005
ORIF  002.08 292.8 m E P       2013/02/06 16:38:53.1   0.1                          T                                        5189998
ORIF  002.08 292.8 m E Pg      2013/02/06 16:38:55.6  -0.3                          T                                        5189997
ORIF  002.08 292.8 m E Sn      2013/02/06 16:39:14.9  -0.3                          T                                        5197809
ORIF  002.08 292.8 m E Sg      2013/02/06 16:39:22.5  -0.2                          T               12.4  .34 Ml 2.8         5189996
VIVF  002.88 285.6 m E Pn      2013/02/06 16:39:02.0   0.4                          T                                        5189995
VIVF  002.88 285.6 m E Pg      2013/02/06 16:39:10.6   0.0                          T                                        5189994
VIVF  002.88 285.6 m E Sn      2013/02/06 16:39:35.0   0.6                          T                1.0  .22 Ml 2.1         5189993
CABF  003.03 325.4 m E Pn      2013/02/06 16:39:03.4  -0.1                          T                                        5196311
CABF  003.03 325.4 m E Sn      2013/02/06 16:39:37.8  -0.1                          T                                        5196310
CABF  003.03 325.4 m E Sg      2013/02/06 16:39:52.2   0.0                          T                 .7  .20 Ml 2.0         5196309
LASF  003.40 270.5 m E Pn      2013/02/06 16:39:08.1  -0.5                          T                                        5189992
LASF  003.40 270.5 m E Pg      2013/02/06 16:39:18.9  -1.2                          T                                        5189991
LASF  003.40 270.5 m E Sn      2013/02/06 16:39:46.1  -0.6                          T                 .7  .19 Ml 2.1         5189990
HINF  003.86 342.5 m E Pn      2013/02/06 16:39:14.6  -0.3                          T                                        5189982
HINF  003.86 342.5 m E Sg      2013/02/06 16:40:18.1  -0.2                          T                 .3  .16 Ml 1.9         5196312
SMF   004.17 308.5 m E Pn      2013/02/06 16:39:18.9  -0.1                          T                                        5197812
HAU   004.16 338.9 m E Pn      2013/02/06 16:39:19.5   0.5                          T                                        5189989
HAU   004.16 338.9 m E Sn      2013/02/06 16:40:04.8  -0.1                          T                2.7  .27 Ml 2.5         5189988
AVF   004.53 307.6 m E Pn      2013/02/06 16:39:24.3   0.4                          T                                        5196308
MTLF  004.68 262.3 m E Pn      2013/02/06 16:39:26.3   0.4                          T                                        5196326
MTLF  004.68 262.3 m E Pg      2013/02/06 16:39:43.5  -0.1                          T                                        5196325
MTLF  004.68 262.3 m E Sn      2013/02/06 16:40:17.1  -0.1                          T                                        5196324
MTLF  004.68 262.3 m E Sg      2013/02/06 16:40:42.4  -1.2                          T                 .4  .24 Ml 2.0         5196323
BGF   004.71 302.8 m E Pn      2013/02/06 16:39:27.9   1.6                          T                                        5197811

.
EVENT     291647
    Date      Time       Latitude Longitude    Depth    Ndef Nsta Gap    Mag1  N    Mag2  N    Mag3  N   Author         ID
       rms   OT_Error      Smajor Sminor Az        Err   mdist  Mdist     Err        Err        Err      Quality

2013/02/06 20:14:04.5     44.1868   11.9678     20.0 f    48   15 121  Ml 2.4 15                         bulletin    291747
                                                                                                         _ldg
      0.47   +-  0.12       2.4    2.2   68.41 +-  0.0    0.41   6.59   +-0.5                            m i ke

NORTHERN ITALY
Sta     Dist  EvAz     Phase      Date       Time     TRes  Azim  AzRes  Slow  SRes Def   SNR       Amp   Per   Mag1   Mag2       ID
PGF   002.71 233.9 m E Pn      2013/02/06 20:14:45.2  -0.1                          T                                        5190163
PGF   002.71 233.9 m E Sn      2013/02/06 20:15:16.2   0.6                          T                3.6  .26 Ml 2.7         5190162
SBF   003.29 265.9 m E Pn      2013/02/06 20:14:53.0  -0.1                          T                                        5190161
SBF   003.29 265.9 m E Sn      2013/02/06 20:15:28.1  -1.1                          T                2.4  .24 Ml 2.5         5190160
MBDF  003.76 280.1 m E Pn      2013/02/06 20:14:59.9   0.2                          T                                        5190147
MBDF  003.76 280.1 m E Sn      2013/02/06 20:15:40.8   0.2                          T                 .5  .22 Ml 2.0         5196358
LPL   003.95 291.5 m E Pn      2013/02/06 20:15:02.4   0.0                          T                                        5190152
LPL   003.95 291.5 m E Pg      2013/02/06 20:15:18.2   0.2                          T                                        5190151
LPL   003.95 291.5 m E Sn      2013/02/06 20:15:46.0   0.7                          T                 .7  .28 Ml 2.1         5190150
LPG   003.93 291.3 m E Pn      2013/02/06 20:15:02.7   0.5                          T                                        5190154
LPG   003.93 291.3 m E Pg      2013/02/06 20:15:17.2  -0.5                          T                                        5196339
LPG   003.93 291.3 m E Sn      2013/02/06 20:15:45.1   0.1                          T                 .1  .13 Ml 1.7         5190153
LMR   004.05 259.7 m E Pn      2013/02/06 20:15:03.4   0.1                          T                                        5190159
LMR   004.05 259.7 m E Pg      2013/02/06 20:15:19.0  -0.4                          T                                        5190158
LMR   004.05 259.7 m E Sn      2013/02/06 20:15:47.7   0.5                          T                 .5  .20 Ml 2.1         5190157
ORIF  004.41 281.7 m E Pn      2013/02/06 20:15:08.0  -0.5                          T                                        5190149
ORIF  004.41 281.7 m E Sn      2013/02/06 20:15:57.0   0.8                          T                 .5  .27 Ml 2.0         5190148
SMRF  004.61 269.6 m E Pn      2013/02/06 20:15:10.7  -0.4                          T                                        5190156
SMRF  004.61 269.6 m E Sn      2013/02/06 20:16:01.4   0.6                          T                 .6  .16 Ml 2.4         5190155
HINF  005.09 317.3 m E Pn      2013/02/06 20:15:17.3  -0.3                          T                                        5190145
HINF  005.09 317.3 m E Sn      2013/02/06 20:16:11.7  -0.5                          T                1.7  .21 Ml 2.8         5190144
VIVF  005.26 279.8 m E Pn      2013/02/06 20:15:19.9   0.0                          T                                        5196340
VIVF  005.26 279.8 m E Pg      2013/02/06 20:15:41.4  -0.4                          T                                        5196359
CDF   005.33 324.1 m E Pn      2013/02/06 20:15:21.3   0.3                          T                                        5190141
CDF   005.33 324.1 m E Sn      2013/02/06 20:16:17.8  -0.3                          T                2.3  .24 Ml 3.0         5190140
HAU   005.46 316.3 m E Pn      2013/02/06 20:15:22.5  -0.2                          T                                        5190143
HAU   005.46 316.3 m E Sn      2013/02/06 20:16:20.4  -0.7                          T                7.1  .40 Ml 3.0         5190142
LOR   006.46 301.3 m E Pn      2013/02/06 20:15:36.3   0.1 115.9  0.4               T                                        5190139
LOR   006.46 301.3 m E Sn      2013/02/06 20:16:45.6   0.7                          T                 .7  .27 Ml 2.6         5190138
SSF   006.59 298.8 m E Pn      2013/02/06 20:15:38.3   0.3                          T                                        5196342
SSF   006.59 298.8 m E Pg      2013/02/06 20:16:06.4   0.1                          T                                        5196341
PAGF  006.14 317.5 m E Sn      2013/02/06 20:16:36.6  -0.8                          T                3.3  .27 Ml 3.2         5190164

.
EVENT     291742
    Date      Time       Latitude Longitude    Depth    Ndef Nsta Gap    Mag1  N    Mag2  N    Mag3  N   Author         ID
       rms   OT_Error      Smajor Sminor Az        Err   mdist  Mdist     Err        Err        Err      Quality

2013/02/06 21:18:56.0     42.5414    1.7591     17.3      28    8 069  Ml 1.3  8  Md 1.6  1              bulletin    291842
                                                                                                         _ldg
      0.29   +-  0.05       1.5     .9    8.84 +-  0.7    0.17   3.13   +-0.2      +-                    m i ke

PYRENEES
Sta     Dist  EvAz     Phase      Date       Time     TRes  Azim  AzRes  Slow  SRes Def   SNR       Amp   Per   Mag1   Mag2       ID
MTLF  000.87 022.7 m E Pn      2013/02/06 21:19:11.7  -0.2                          T                                        5196388
MTLF  000.87 022.7 m E Sg      2013/02/06 21:19:24.2   0.3                          T                 .4  .23 Ml 1   Md 1.6  5196387
EPF   001.15 295.5 m E Pg      2013/02/06 21:19:17.6  -0.1                          T                                        5196386
EPF   001.15 295.5 m E Sg      2013/02/06 21:19:33.3   0.5                          T                 .8  .30 Ml 1.3         5196385
ETSF  001.75 282.6 m E Pn      2013/02/06 21:19:23.8  -0.1                          T                                        5196384
ETSF  001.75 282.6 m E Pg      2013/02/06 21:19:28.6  -0.1                          T                                        5196380
ETSF  001.75 282.6 m E Sn      2013/02/06 21:19:44.5   0.2                          T                 .2  .15 Ml 1.2         5196383
LASF  002.17 044.2 m E Pn      2013/02/06 21:19:29.8   0.2                          T                                        5197642
LASF  002.17 044.2 m E Pg      2013/02/06 21:19:36.4   0.1                          T                                        5197641
LASF  002.17 044.2 m E Sn      2013/02/06 21:19:54.8   0.4                          T                 .2  .18 Ml 1.2         5197640
SJPF  002.27 285.6 m E Pn      2013/02/06 21:19:30.9  -0.1                          T                                        5196382
SJPF  002.27 285.6 m E Sn      2013/02/06 21:19:57.0   0.2                          T                 .3  .21 Ml 1.4         5196381
CAF   002.39 005.2 m E Pn      2013/02/06 21:19:32.8   0.1                          T                                        5197533
CAF   002.39 005.2 m E Sn      2013/02/06 21:19:59.7  -0.2                          T                 .3  .26 Ml 1.4         5197534
SMRF  003.13 061.5 m E Pn      2013/02/06 21:19:42.6  -0.2                          T                                        5197637
SMRF  003.13 061.5 m E Sn      2013/02/06 21:20:17.3  -0.2                          T                 .2  .22 Ml 1.5         5197636
VIVF  003.13 041.4 m E Pn      2013/02/06 21:19:42.6  -0.1                          T                                        5197639
VIVF  003.13 041.4 m E Sn      2013/02/06 21:20:17.6   0.1                          T                 .2  .16 Ml 1.4         5197638

.
EVENT     291649
    Date      Time       Latitude Longitude    Depth    Ndef Nsta Gap    Mag1  N    Mag2  N    Mag3  N   Author         ID
       rms   OT_Error      Smajor Sminor Az        Err   mdist  Mdist     Err        Err        Err      Quality

2013/02/07 02:04:28.1     46.1944    6.5864      2.0      26    9 147  Ml 1.6 10  Md 1.7  2              bulletin    291749
                                                                                                         _ldg
      0.34   +-  0.08       2.1    1.1   66.12 +-  0.0    0.69   4.03   +-0.3      +-0.1                 m i ke

SWITZERLAND
Sta     Dist  EvAz     Phase      Date       Time     TRes  Azim  AzRes  Slow  SRes Def   SNR       Amp   Per   Mag1   Mag2       ID
LPL   000.69 171.4 m E Pg      2013/02/07 02:04:41.1  -0.2                          T                                        5190410
LPL   000.69 171.4 m E Sg      2013/02/07 02:04:49.3  -1.0                          T                2.0  .28        Md 1.7  5190408
LPG   000.71 170.5 m E Pg      2013/02/07 02:04:41.9   0.2                          T                                        5190411
LPG   000.71 170.5 m E Sg      2013/02/07 02:04:49.9  -1.2                          T                3.9  .41        Md 1.8  5190407
ORIF  001.37 201.5 m E Pg      2013/02/07 02:04:53.6  -0.1                          T                                        5190409
ORIF  001.37 201.5 m E Sn      2013/02/07 02:05:09.7  -0.5                          T                 .4  .22 Ml 1.3         5190412
HINF  001.63 006.3 m E Pn      2013/02/07 02:04:56.1  -0.1                          T                                        5190419
HINF  001.63 006.3 m E Sn      2013/02/07 02:05:15.8  -0.8                          T                 .8  .19 Ml 1.7         5190417
HAU   001.82 355.0 m E Pn      2013/02/07 02:04:58.6  -0.1                          T                                        5190418
HAU   001.82 355.0 m E Sn      2013/02/07 02:05:20.9  -0.1                          T                1.4  .23 Ml 1.7         5190420
SMF   001.95 284.3 m E Pn      2013/02/07 02:05:00.7   0.2                          T                                        5190414
SMF   001.95 284.3 m E Sn      2013/02/07 02:05:24.2   0.1                          T                1.2  .18 Ml 2.0         5190413
LOR   002.16 300.8 m E Pn      2013/02/07 02:05:03.5   0.2 119.7  0.9               T                                        5190422
LOR   002.16 300.8 m E Sn      2013/02/07 02:05:28.9  -0.3                          T                 .5  .20 Ml 1.6         5190423
SSF   002.29 293.3 m E Pn      2013/02/07 02:05:05.0  -0.1                          T                                        5190421
SSF   002.29 293.3 m E Pg      2013/02/07 02:05:10.5  -0.2                          T                                        5197646
SSF   002.29 293.3 m E Sn      2013/02/07 02:05:32.4   0.1                          T                 .3  .18 Ml 1.6         5190424
AVF   002.31 286.1 m E Pn      2013/02/07 02:05:05.3   0.0                          T                                        5197645
AVF   002.31 286.1 m E Pg      2013/02/07 02:05:10.8  -0.2                          T                                        5197644
AVF   002.31 286.1 m E Sn      2013/02/07 02:05:32.6  -0.1                          T                 .2  .21 Ml 1.3         5197643

.
