EVENT     269876
    Date      Time       Latitude Longitude    Depth    Ndef Nsta Gap    Mag1  N    Mag2  N    Mag3  N   Author         ID
       rms   OT_Error      Smajor Sminor Az        Err   mdist  Mdist     Err        Err        Err      Quality

2012/02/09 16:26:49.6     45.0834    2.9876      3.0 f    36   14 072  Ml 2.2 17  Md 2.1  4              js067245    269896

      0.81   +-  0.08       1.7    1.3  106.96 +-  0.0    0.67   2.80   +-0.2      +-0.1                 m i ke

FRANCE
Sta     Dist  EvAz     Phase      Date       Time     TRes  Azim  AzRes  Slow  SRes Def   SNR       Amp   Per   Mag1   Mag2       ID
CAF   000.67 256.8 m E Pg      2012/02/09 16:27:01.8  -0.5                          T                                        4833968
CAF   000.67 256.8 m E Pn      2012/02/09 16:27:04.3  -0.2                          T                                        4833966
CAF   000.67 256.8 m E Sg      2012/02/09 16:27:11.1  -0.1                          T                                Md 2.0  4833976
CAF   000.67 256.8 m E Sn      2012/02/09 16:27:14.4  -0.5                          T                                        4833965
RJF   001.06 282.5 m E Pn      2012/02/09 16:27:09.6  -0.1                          T                                        4833967
RJF   001.06 282.5 m E Sg      2012/02/09 16:27:23.4   0.1                          T               11.6  .20 Ml 2.3         4833978
RJF   001.06 282.5 m E Sn      2012/02/09 16:27:24.3   0.2                          T                                        4833952
LASF  001.18 148.0 m E Pg      2012/02/09 16:27:11.8   0.1                          T                                        4833970
LASF  001.18 148.0 m E Sg      2012/02/09 16:27:27.6   0.6                          T                4.9  .22 Ml 2.2 Md 2.2  4833973
VIVF  001.22 100.2 m E Pg      2012/02/09 16:27:12.4   0.0                          T                                        4833971
VIVF  001.22 100.2 m E Sg      2012/02/09 16:27:27.9  -0.3                          T                8.1  .24 Ml 2.4 Md 2.2  4833972
TCF   001.32 335.9 m E Pg      2012/02/09 16:27:14.2  -0.1                          T                                        4833956
TCF   001.32 335.9 m E Sg      2012/02/09 16:27:32.1   0.7                          T                1.5  .23 Ml 1.8         4833957
BGF   001.48 356.2 m E Pg      2012/02/09 16:27:17.4   0.3                          T                                        4833962
BGF   001.48 356.2 m E Sg      2012/02/09 16:27:35.8  -0.5                          T                7.7  .32 Ml 2.4         4833979
LFF   001.60 265.6 m E Pg      2012/02/09 16:27:19.7   0.4                          T                                        4833953
LFF   001.60 265.6 m E Sg      2012/02/09 16:27:40.7   0.7                          T                8.3  .40 Ml 2.2         4833977
SMF   001.67 020.6 m E Pg      2012/02/09 16:27:20.4  -0.3                          T                                        4833963
SMF   001.67 020.6 m E Sg      2012/02/09 16:27:41.8  -0.5                          T                5.0  .28 Ml 2.4         4833981
AVF   001.73 008.4 m E Pg      2012/02/09 16:27:21.5  -0.1                          T                                        4833964
AVF   001.73 008.4 m E Sg      2012/02/09 16:27:43.6  -0.4                          T                2.0  .25 Ml 2.0         4833980
MTLF  001.83 197.9 m E Pg      2012/02/09 16:27:22.9  -0.6                          T                                        4833969
MTLF  001.83 197.9 m E Sn      2012/02/09 16:27:41.5  -0.9                          T                                        4833954
MTLF  001.83 197.9 m E Sg      2012/02/09 16:27:46.3  -0.8                          T                3.1  .25 Ml 2.3         4833975
SSF   002.01 010.2 m E Pn      2012/02/09 16:27:23.3   0.6                          T                                        4833950
SSF   002.01 010.2 m E Sg      2012/02/09 16:27:51.9  -1.0                          T                3.9  .29 Ml 2.4         4833958
LOR   002.27 015.2 m E Pg      2012/02/09 16:27:31.8   0.1 203.3  7.5               T                                        4833960
LOR   002.27 015.2 m E Sg      2012/02/09 16:27:59.9  -1.0 197.4  1.6               T                 .8  .17 Ml 1.9         4833959
MFF   002.67 305.9 m E Sg      2012/02/09 16:28:13.7   0.5                          T                1.4  .25 Ml 2.3         4833955
EPF   002.80 223.8 m E Sg      2012/02/09 16:28:18.6   0.9                          T                1.3  .23 Ml 2.1         4833974

.
EVENT     270174
    Date      Time       Latitude Longitude    Depth    Ndef Nsta Gap    Mag1  N    Mag2  N    Mag3  N   Author         ID
       rms   OT_Error      Smajor Sminor Az        Err   mdist  Mdist     Err        Err        Err      Quality

2012/02/09 17:06:59.6     48.1893   -2.0229       .0 f    20    7 139  Ml 2.3  2  Md 2.0  2              js067245    270194

      2.50   +-  0.19       8.8    3.3  173.55 +-  0.0    0.36   3.90   +-0.1      +-0.1                 m i km

FRANCE
Sta     Dist  EvAz     Phase      Date       Time     TRes  Azim  AzRes  Slow  SRes Def   SNR       Amp   Per   Mag1   Mag2       ID
SGMF  000.36 280.5 m E Pg      2012/02/09 17:07:06.6  -0.3                          T                                        4838429
SGMF  000.36 280.5 m E Sg      2012/02/09 17:07:12.3   0.4                          T                7.4  .24        Md 1.9  4838416
QUIF  000.81 250.8 m E Pg      2012/02/09 17:07:14.6  -0.5                          T                                        4838423
QUIF  000.81 250.8 m E Pn      2012/02/09 17:07:16.5  -0.3                          T                                        4838424
QUIF  000.81 250.8 m E Sg      2012/02/09 17:07:25.4  -0.5                          T                                        4838415
QUIF  000.81 250.8 m E Sn      2012/02/09 17:07:28.6  -0.5                          T               14.1  .20        Md 2.0  4838414
GRR   000.80 075.2 m E Pg      2012/02/09 17:07:14.7  -0.3                          T                                        4838420
GRR   000.80 075.2 m E Pn      2012/02/09 17:07:16.3  -0.4                          T                                        4838421
GRR   000.80 075.2 m E Sn      2012/02/09 17:07:28.0  -0.8                          T                4.6  .21                4838411
ROSF  000.85 280.5 m E Pg      2012/02/09 17:07:15.9   0.1                          T                                        4838425
ROSF  000.85 280.5 m E P       2012/02/09 17:07:17.9   0.3                          T                                        4838426
ROSF  000.85 280.5 m E Sn      2012/02/09 17:07:30.3   0.4                          T               12.4  .32                4838417
FLN   001.17 060.2 m E Pg      2012/02/09 17:07:21.9   0.1                          T                                        4838422
FLN   001.17 060.2 m E P       2012/02/09 17:07:23.3   0.1 228.3  -13.0             T                                        4838428
FLN   001.17 060.2 m E Sg      2012/02/09 17:07:37.6   0.4                          T               13.4  .32 Ml 2.4         4838413
LDF   001.33 071.6 m E Pg      2012/02/09 17:07:25.0   0.3                          T                                        4838427
LDF   001.33 071.6 m E Sg      2012/02/09 17:07:41.9  -0.1                          T                5.9  .27 Ml 2.3         4838412
AVF   003.90 109.0 m E Pn      2012/02/09 17:07:58.8  -0.1                          T                                        4838418

.
EVENT     269877
    Date      Time       Latitude Longitude    Depth    Ndef Nsta Gap    Mag1  N    Mag2  N    Mag3  N   Author         ID
       rms   OT_Error      Smajor Sminor Az        Err   mdist  Mdist     Err        Err        Err      Quality

2012/02/09 21:00:07.9     43.0886   -1.5272      2.0      12    2 210  Ml 1.4  1  Md 1.3  2              js067245    269897

      0.35   +-  0.19       3.6    2.0   79.16 +-  0.0    0.13   1.37   +-         +-0.3                 m i ke

PYRENEES
Sta     Dist  EvAz     Phase      Date       Time     TRes  Azim  AzRes  Slow  SRes Def   SNR       Amp   Per   Mag1   Mag2       ID
SJPF  000.22 083.5 m E Pg      2012/02/09 21:00:12.2  -0.2                          T                                        4833986
SJPF  000.22 083.5 m E Sg      2012/02/09 21:00:15.6   0.1                          T                3.9  .22        Md 1.5  4833985
EPF   001.37 091.8 m E Pg      2012/02/09 21:00:33.3  -0.2                          T                                        4833983
EPF   001.37 091.8 m E Sg      2012/02/09 21:00:52.4   1.2                          T                 .6  .22 Ml 1.4 Md 1.1  4833984

.
EVENT     269878
    Date      Time       Latitude Longitude    Depth    Ndef Nsta Gap    Mag1  N    Mag2  N    Mag3  N   Author         ID
       rms   OT_Error      Smajor Sminor Az        Err   mdist  Mdist     Err        Err        Err      Quality

2012/02/09 23:16:28.4     44.6172    6.6821      2.0      15    7 113  Ml 1.8  5  Md 1.8  3              js067245    269898

      0.77   +-  0.08       1.7    1.2   60.36 +-  0.0    0.13   1.45   +-0.2      +-0.1                 m i ke

FRANCE
Sta     Dist  EvAz     Phase      Date       Time     TRes  Azim  AzRes  Slow  SRes Def   SNR       Amp   Per   Mag1   Mag2       ID
MBDF  000.13 030.1 m E Pg      2012/02/09 23:16:31.3   0.1                          T                                        4834008
MBDF  000.13 030.1 m E Sg      2012/02/09 23:16:33.3   0.2                          T                8.3  .20        Md 1.7  4834007
ORIF  000.65 298.1 m E Pg      2012/02/09 23:16:40.7   0.0                          T                                        4834005
ORIF  000.65 298.1 m E Sg      2012/02/09 23:16:48.9  -0.3                          T                2.7  .23        Md 1.9  4834006
SBF   000.93 144.1 m E Pg      2012/02/09 23:16:45.5  -0.3                          T                                        4833998
SBF   000.93 144.1 m E Sg      2012/02/09 23:16:58.2   0.3                          T                4.4  .25 Ml 2.0 Md 1.9  4833999
FRF   001.06 181.4 m E Pg      2012/02/09 23:16:48.0  -0.1                          T                                        4834001
FRF   001.06 181.4 m E Sg      2012/02/09 23:17:02.2   0.4                          T                2.1  .22 Ml 1.9         4834000
LMR   001.29 185.6 m E Pg      2012/02/09 23:16:52.6   0.2                          T                                        4834004
LMR   001.29 185.6 m E Sg      2012/02/09 23:17:09.3   0.2                          T                2.0  .22 Ml 1.9         4834002
VIVF  001.45 280.2 m E Pg      2012/02/09 23:16:55.5   0.0                          T                                        4834045
VIVF  001.45 280.2 m E Sg      2012/02/09 23:17:14.4   0.2                          T                 .7  .26 Ml 1.4         4834041
SMRF  001.02 231.5 m E Sg      2012/02/09 23:17:00.7   0.0                          T                1.7  .20 Ml 1.8         4834042

.
EVENT     269883
    Date      Time       Latitude Longitude    Depth    Ndef Nsta Gap    Mag1  N    Mag2  N    Mag3  N   Author         ID
       rms   OT_Error      Smajor Sminor Az        Err   mdist  Mdist     Err        Err        Err      Quality

2012/02/09 23:43:10.1     43.0973    -.4901      2.0      28    8 074  Ml 2.0  7  Md 1.9  2              js067245    269903

      1.09   +-  0.10       2.6    1.5  173.89 +-  0.0    0.15   3.51   +-0.2      +-0.1                 m i ke

PYRENEES
Sta     Dist  EvAz     Phase      Date       Time     TRes  Azim  AzRes  Slow  SRes Def   SNR       Amp   Per   Mag1   Mag2       ID
SJPF  000.54 272.0 m E Pg      2012/02/09 23:43:20.6   0.3                          T                                        4834061
SJPF  000.54 272.0 m E Sg      2012/02/09 23:43:27.4   0.0                          T                5.5  .25        Md 2.0  4834060
EPF   000.61 096.0 m E Pg      2012/02/09 23:43:21.6  -0.2                          T                                        4834058
EPF   000.61 096.0 m E Sg      2012/02/09 23:43:29.9   0.1                          T                8.7  .32        Md 1.8  4834059
MTLF  001.99 082.1 m E Pg      2012/02/09 23:43:47.2   0.0                          T                                        4834049
MTLF  001.99 082.1 m E Sg      2012/02/09 23:44:12.8   0.0                          T                1.3  .22 Ml 2.0         4834057
LFF   002.04 025.3 m E Pg      2012/02/09 23:43:48.3   0.3                          T                                        4834055
LFF   002.04 025.3 m E Sg      2012/02/09 23:44:15.6   1.3                          T                1.9  .27 Ml 1.9         4834052
CAF   002.60 044.4 m E Pg      2012/02/09 23:43:58.4   0.2                          T                                        4834051
CAF   002.60 044.4 m E Sg      2012/02/09 23:44:31.0  -0.6                          T                1.4  .24 Ml 2.1         4834050
RJF   002.64 032.5 m E Pg      2012/02/09 23:43:59.0   0.0                          T                                        4834053
RJF   002.64 032.5 m E Sg      2012/02/09 23:44:33.4   0.5                          T                1.2  .25 Ml 1.7         4834054
LASF  003.31 071.3 m E Sg      2012/02/09 23:44:54.4   0.6                          T                1.3  .27 Ml 2.2         4834056
MFF   003.51 003.9 m E Sg      2012/02/09 23:44:58.6  -1.6                          T                 .7  .25 Ml 2.1         4834048

.
EVENT     269958
    Date      Time       Latitude Longitude    Depth    Ndef Nsta Gap    Mag1  N    Mag2  N    Mag3  N   Author         ID
       rms   OT_Error      Smajor Sminor Az        Err   mdist  Mdist     Err        Err        Err      Quality

2012/02/10 11:59:28.7     42.0104    2.5752       .0 f    21    8 268  Ml 2.6  9  Md 2.6  2              js067245    269978

      0.44   +-  0.29       4.5    2.6  137.81 +-  0.0    1.36   4.99   +-0.3      +-0.2                 m i km

PYRENEES
Sta     Dist  EvAz     Phase      Date       Time     TRes  Azim  AzRes  Slow  SRes Def   SNR       Amp   Per   Mag1   Mag2       ID
MTLF  001.36 348.9 m E Pn      2012/02/10 11:59:53.8   0.4                          T                                        4835874
MTLF  001.36 348.9 m E Sg      2012/02/10 12:00:11.9  -0.1                          T               20.8  .42 Ml 2.7 Md 2.5  4835873
EPF   001.94 302.4 m E Pn      2012/02/10 12:00:01.0  -0.4                          T                                        4835871
EPF   001.94 302.4 m E Pg      2012/02/10 12:00:04.9  -0.2                          T                                        4835914
EPF   001.94 302.4 m E Sn      2012/02/10 12:00:23.9  -1.3                          T                                        4835905
EPF   001.94 302.4 m E Sg      2012/02/10 12:00:30.3  -0.1                          T               17.8  .38 Ml 2.9 Md 2.7  4835872
CAF   002.94 352.9 m E Pg      2012/02/10 12:00:23.5   0.0                          T                                        4835912
CAF   002.94 352.9 m E Sn      2012/02/10 12:00:49.9   0.9                          T                                        4835869
CAF   002.94 352.9 m E Sg      2012/02/10 12:01:01.1  -0.3                          T                6.4  .42 Ml 2.6         4835915
SJPF  003.02 292.7 m E Pg      2012/02/10 12:00:25.3   0.5                          T                                        4835913
SJPF  003.02 292.7 m E Sn      2012/02/10 12:00:50.9   0.1                          T                                        4835906
SJPF  003.02 292.7 m E Sg      2012/02/10 12:01:04.0   0.2                          T                7.3  .46 Ml 2.6         4835870
LFF   003.22 336.1 m E Pg      2012/02/10 12:00:28.1  -0.5                          T                                        4835911
LFF   003.22 336.1 m E Sg      2012/02/10 12:01:10.7   0.6                          T                9.0  .43 Ml 2.6         4835868
RJF   003.38 347.2 m E Pg      2012/02/10 12:00:31.6   0.0                          T                                        4835910
RJF   003.38 347.2 m E Sg      2012/02/10 12:01:15.4   0.1                          T                1.5  .25 Ml 2.0         4835907
LASF  002.27 024.0 m E Sg      2012/02/10 12:00:40.4  -0.1                          T               12.1  .36 Ml 2.8         4835904
MFF   004.99 337.9 m E Pg      2012/02/10 12:01:01.5   0.3                          T                                        4835909
MFF   004.99 337.9 m E Sg      2012/02/10 12:02:05.1  -0.3                          T                 .4  .22 Ml 2.3         4835908

.
EVENT     269950
    Date      Time       Latitude Longitude    Depth    Ndef Nsta Gap    Mag1  N    Mag2  N    Mag3  N   Author         ID
       rms   OT_Error      Smajor Sminor Az        Err   mdist  Mdist     Err        Err        Err      Quality

2012/02/10 12:38:15.6     44.4541    7.3050     12.0 f    28    6 121  Ml 2.1  5  Md 1.9  3              js067245    269970

      0.66   +-  0.10       2.3    1.4   53.18 +-  0.0    0.07   1.33   +-0.2      +-0.1                 m i ke

NORTHERN ITALY
Sta     Dist  EvAz     Phase      Date       Time     TRes  Azim  AzRes  Slow  SRes Def   SNR       Amp   Per   Mag1   Mag2       ID
MBDF  000.47 305.8 m E Pg      2012/02/10 12:38:25.2   0.2                          T                                        4835929
MBDF  000.47 305.8 m E Sg      2012/02/10 12:38:31.0  -0.3                          T               18.1  .26        Md 1.8  4835928
SBF   000.60 170.9 m E Pg      2012/02/10 12:38:27.6   0.4                          T                                        4835924
SBF   000.60 170.9 m E Sg      2012/02/10 12:38:35.0  -0.1                          T                8.7  .28        Md 2.0  4835923
FRF   001.01 208.2 m E Pg      2012/02/10 12:38:35.2   0.5                          T                                        4835926
FRF   001.01 208.2 m E Sg      2012/02/10 12:38:47.3  -0.5                          T                5.0  .20 Ml 2.3 Md 2.0  4835921
ORIF  001.12 295.0 m E Pg      2012/02/10 12:38:36.9   0.2                          T                                        4835927
ORIF  001.12 295.0 m E Sg      2012/02/10 12:38:51.0  -0.2                          T                1.9  .22 Ml 1.8         4835920
LMR   001.26 207.5 m E Pg      2012/02/10 12:38:39.4   0.2                          T                                        4835925
LMR   001.26 207.5 m E Sg      2012/02/10 12:38:55.2  -0.3                          T                3.8  .17 Ml 2.3         4835922
SMRF  001.33 249.6 m E Pg      2012/02/10 12:38:40.9   0.4                          T                                        4835918
SMRF  001.33 249.6 m E Sg      2012/02/10 12:38:58.8   0.9                          T                3.8  .28 Ml 2.1         4835919

.
