EVENT     281226
    Date      Time       Latitude Longitude    Depth    Ndef Nsta Gap    Mag1  N    Mag2  N    Mag3  N   Author         ID
       rms   OT_Error      Smajor Sminor Az        Err   mdist  Mdist     Err        Err        Err      Quality

2012/08/16 16:18:05.4     48.1150    7.5312     14.4      25    7 041  Ml 2.0  3  Md 2.0  3              bulletin    281326
                                                                                                         _ldg
      0.24   +-  0.03        .7     .6    2.66 +-  0.4    0.24   1.80   +-0.2      +-0.0                 m i ke

FRANCE
Sta     Dist  EvAz     Phase      Date       Time     TRes  Azim  AzRes  Slow  SRes Def   SNR       Amp   Per   Mag1   Mag2       ID
CDF   000.34 330.3 m E Pg      2012/08/16 16:18:12.6   0.0                          T                                        5047222
CDF   000.34 330.3 m E Sg      2012/08/16 16:18:17.2  -0.3                          T                5.5  .27        Md 2.0  5047221
HINF  000.54 237.0 m E Pg      2012/08/16 16:18:16.0  -0.1                          T                                        5047218
HINF  000.54 237.0 m E Sg      2012/08/16 16:18:23.2  -0.2                          T                7.9  .21        Md 2.0  5047217
HAU   000.80 262.6 m E Pg      2012/08/16 16:18:20.9   0.2                          T                                        5047220
HAU   000.80 262.6 m E Sg      2012/08/16 16:18:31.5   0.2                          T               12.7  .27        Md 1.9  5047219
PAGF  001.28 290.7 m E Pg      2012/08/16 16:18:29.5   0.0                          T                                        5047229
PAGF  001.28 290.7 m E Sg      2012/08/16 16:18:46.5   0.3                          T                2.1  .15 Ml 2.1         5047228
SFTF  001.67 274.0 m E Pn      2012/08/16 16:18:32.5  -0.2                          T                                        5047225
MEZF  001.70 284.1 m E Pn      2012/08/16 16:18:33.1   0.1                          T                                        5047227
MEZF  001.70 284.1 m E Sn      2012/08/16 16:18:52.8  -0.4                          T                3.8  .41 Ml 2.1         5047226
CABF  001.80 213.6 m E Pn      2012/08/16 16:18:34.4  -0.1                          T                                        5047224
CABF  001.80 213.6 m E Sn      2012/08/16 16:18:55.8   0.2                          T                1.2  .32 Ml 1.7         5047223

.
EVENT     281229
    Date      Time       Latitude Longitude    Depth    Ndef Nsta Gap    Mag1  N    Mag2  N    Mag3  N   Author         ID
       rms   OT_Error      Smajor Sminor Az        Err   mdist  Mdist     Err        Err        Err      Quality

2012/08/16 20:30:33.6     53.3292    6.6749      3.0 f   152   38 063  Ml 3.8 34  Md 3.8  3              bulletin    281329
                                                                                                         _ldg
      0.78   +-  0.09       2.2    1.6   64.25 +-  0.0    0.52  11.49   +-0.3      +-0.1                 m i ke

THE NETHERLANDS
Sta     Dist  EvAz     Phase      Date       Time     TRes  Azim  AzRes  Slow  SRes Def   SNR       Amp   Per   Mag1   Mag2       ID
GIVF  003.43 200.3 m E Pn      2012/08/16 20:31:26.4   0.4                          T                                        5047331
GIVF  003.43 200.3 m E Sg      2012/08/16 20:32:21.0  -0.2                          T              405.0  .84 Ml 4.2 Md 3.9  5055308
BAIF  003.62 206.1 m E Pn      2012/08/16 20:31:29.0   0.5                          T                                        5047332
BAIF  003.62 206.1 m E Sn      2012/08/16 20:32:09.9   0.7                          T                                        5047377
BAIF  003.62 206.1 m E Sg      2012/08/16 20:32:27.4   0.4                          T              147.1  .65 Ml 3.9 Md 3.8  5047368
LANF  004.41 170.3 m E Pn      2012/08/16 20:31:39.9   0.5                          T                                        5055324
LANF  004.41 170.3 m E Sg      2012/08/16 20:32:51.7  -0.2                          T              157.6  .80 Ml 4.0         5047366
PAGF  004.82 187.5 m E Pn      2012/08/16 20:31:45.6   0.7   7.3  0.5               T                                        5047352
PAGF  004.82 187.5 m E Sg      2012/08/16 20:33:04.4  -0.2  11.5  4.7               T               87.7  .71 Ml 3.9         5047364
MEZF  004.94 192.6 m E Pn      2012/08/16 20:31:46.5   0.0   6.5  -4.9              T                                        5047329
MEZF  004.94 192.6 m E Sg      2012/08/16 20:33:08.5   0.1   6.3  -5.1              T              113.8  .80 Ml 4.0         5047363
CDF   004.94 175.3 m E Pn      2012/08/16 20:31:46.8   0.1                          T                                        5047330
CDF   004.94 175.3 m E Sg      2012/08/16 20:33:07.8  -0.6                          T               60.7  .74 Ml 3.9         5047365
THEF  005.13 185.1 m E Pn      2012/08/16 20:31:48.8  -0.3                          T                                        5047390
THEF  005.13 185.1 m E Sg      2012/08/16 20:33:12.6  -1.5                          T               66.3  .69 Ml 3.9         5047393
SFTF  005.23 192.1 m E Pn      2012/08/16 20:31:50.5  -0.1   9.3  -1.5              T                                        5047351
SFTF  005.23 192.1 m E Sg      2012/08/16 20:33:18.2   0.7                          T               26.9  .53 Ml 3.6         5047362
HAU   005.33 182.4 m E Pn      2012/08/16 20:31:52.0   0.0                          T                                        5047389
HAU   005.33 182.4 m E Sg      2012/08/16 20:33:18.3  -2.4                          T               33.1  .57 Ml 3.5         5055306
HINF  005.52 178.8 m E Pn      2012/08/16 20:31:53.5  -1.1                          T                                        5047391
HINF  005.52 178.8 m E Sg      2012/08/16 20:33:26.5   0.0                          T               32.7  .65 Ml 3.7         5055305
LLW   006.25 269.7 m E Pn      2012/08/16 20:32:04.4   0.0                          T                                        5048955
LOR   006.33 197.7 m E Pn      2012/08/16 20:32:05.1  -0.5  21.9  6.4               T                                        5047333
LOR   006.33 197.7 m E Sn      2012/08/16 20:33:14.5   0.4                          T                4.7  .24 Ml 3.5         5047378
LOR   006.33 197.7 m E Sg      2012/08/16 20:33:52.6   0.8  12.8  -2.7              T               34.5  .63 Ml 3.9 Md 3.9  5047367
LDF   006.39 224.9 m E Pn      2012/08/16 20:32:05.2  -1.2                          T                                        5047359
LDF   006.39 224.9 m E Sn      2012/08/16 20:33:14.5  -1.1                          T                4.9  .20 Ml 3.5         5047376
LDF   006.39 224.9 m E Sg      2012/08/16 20:33:55.1   1.4                          T              108.0 1.02 Ml 4.2         5055298
FLN   006.42 227.5 m E Pn      2012/08/16 20:32:05.9  -0.9  39.4  -2.6              T                                        5047358
FLN   006.42 227.5 m E Sn      2012/08/16 20:33:15.4  -0.9                          T                5.5  .16 Ml 3.6         5047392
FLN   006.42 227.5 m E Sg      2012/08/16 20:33:55.5   0.9  40.2  -1.7              T               72.8  .89 Ml 3.9         5055299
HYF   006.59 204.7 m E Pn      2012/08/16 20:32:07.7  -1.4                          T                                        5047355
HYF   006.59 204.7 m E Sn      2012/08/16 20:33:20.3  -0.1                          T                                        5047369
SSF   006.60 199.2 m E Pn      2012/08/16 20:32:09.2   0.0                          T                                        5047334
SSF   006.60 199.2 m E Sn      2012/08/16 20:33:20.5   0.1                          T                                        5055310
SSF   006.60 199.2 m E Sg      2012/08/16 20:34:01.3   1.3                          T               33.4  .59 Ml 4.0         5055309
CABF  006.74 183.5 m E Pn      2012/08/16 20:32:11.2   0.0                          T                                        5047379
CABF  006.74 183.5 m E Sg      2012/08/16 20:34:06.5   2.0                          T              113.9 1.02 Ml 4.3         5055304
GRR   006.87 226.9 m E Pn      2012/08/16 20:32:11.7  -1.1                          T                                        5047360
GRR   006.87 226.9 m E Sn      2012/08/16 20:33:25.2  -1.7                          T               13.9  .28 Ml 3.8         5047375
GRR   006.87 226.9 m E Sg      2012/08/16 20:34:10.1   1.6                          T               26.5  .61 Ml 3.7         5055297
AVF   006.89 199.4 m E Pn      2012/08/16 20:32:12.8  -0.2                          T                                        5047353
AVF   006.89 199.4 m E Sn      2012/08/16 20:33:26.7  -0.7                          T                                        5055311
AVF   006.89 199.4 m E Sg      2012/08/16 20:34:10.9   1.9                          T               34.9  .84 Ml 3.9         5055303
SMF   006.94 196.4 m E Pn      2012/08/16 20:32:13.6  -0.2                          T                                        5047354
SMF   006.94 196.4 m E Sg      2012/08/16 20:34:11.7   1.0                          T               53.0  .88 Ml 4.0         5055302
BGF   007.21 201.5 m E Pn      2012/08/16 20:32:17.3  -0.3                          T                                        5047335
BGF   007.21 201.5 m E Sn      2012/08/16 20:33:33.0  -2.2                          T               21.7  .44 Ml 4.0         5047374
BGF   007.21 201.5 m E Sg      2012/08/16 20:34:18.5  -0.8                          T               75.9  .66 Ml 4.4         5055301
TCF   007.62 204.0 m E Pn      2012/08/16 20:32:22.4  -0.7                          T                                        5055325
TCF   007.62 204.0 m E Sg      2012/08/16 20:34:32.3   0.4                          T               27.6  .79 Ml 3.9         5055307
SGMF  007.75 232.7 m E Pn      2012/08/16 20:32:23.2  -1.6                          T                                        5047361
SGMF  007.75 232.7 m E Sn      2012/08/16 20:33:47.3  -0.6                          T                5.8  .30 Ml 3.7         5055314
LPL   007.82 179.7 m E Pn      2012/08/16 20:32:25.8  -0.3                          T                                        5047385
LPL   007.82 179.7 m E Sn      2012/08/16 20:33:49.1  -0.9                          T                3.5  .53 Ml 3.2         5047373
LPG   007.84 179.6 m E Pn      2012/08/16 20:32:25.9  -0.5                          T                                        5047386
LPG   007.84 179.6 m E Sn      2012/08/16 20:33:51.1   0.6                          T                1.3  .31 Ml 3.0         5047372
ROSF  008.04 235.5 m E Pn      2012/08/16 20:32:27.4  -1.4                          T                                        5055322
ROSF  008.04 235.5 m E Sn      2012/08/16 20:33:54.6  -0.2                          T               14.2  .42 Ml 4.0         5055313
MFF   008.04 215.8 m E Pn      2012/08/16 20:32:27.5  -1.3                          T                                        5047381
MFF   008.04 215.8 m E Sn      2012/08/16 20:33:54.4  -0.5                          T                                        5055316
MFF   008.04 215.8 m E Sg      2012/08/16 20:34:45.6   0.5                          T               50.9 1.08 Ml 4.3         5055296
QUIF  008.27 233.0 m E Pn      2012/08/16 20:32:30.1  -1.9                          T                                        5047380
QUIF  008.27 233.0 m E Sn      2012/08/16 20:34:01.0   0.5                          T               15.3  .44 Ml 4.0         5055315
ORIF  008.43 183.9 m E Pn      2012/08/16 20:32:34.7   0.4                          T                                        5047384
VIVF  008.58 189.6 m E Pn      2012/08/16 20:32:35.5  -0.7                          T                                        5047382
VIVF  008.58 189.6 m E Sn      2012/08/16 20:34:07.6  -0.3                          T                2.2  .52 Ml 3.1         5047371
MBDF  008.61 179.5 m E Pn      2012/08/16 20:32:35.8  -0.9                          T                                        5047383
RJF   008.71 204.8 m E Pn      2012/08/16 20:32:36.6  -1.3                          T                                        5047356
RJF   008.71 204.8 m E Sn      2012/08/16 20:34:09.9  -1.0                          T                                        5055317
CAF   008.94 201.6 m E Pn      2012/08/16 20:32:40.1  -1.0                          T                                        5055321
CAF   008.94 201.6 m E Sn      2012/08/16 20:34:16.1  -0.3                          T                                        5055318
LFF   009.25 207.2 m E Pn      2012/08/16 20:32:44.6  -0.6                          T                                        5047357
LASF  009.45 192.5 m E Pn      2012/08/16 20:32:47.9  -0.1                          T                                        5055320
LASF  009.45 192.5 m E Sn      2012/08/16 20:34:28.6   0.0                          T                2.6  .50 Ml 3.3         5047370
FRF   009.78 180.1 m E Pn      2012/08/16 20:32:52.1  -0.3                          T                                        5055319
EPF   011.13 204.8 m E Pn      2012/08/16 20:33:09.5  -1.5                          T                                        5047388
ETSF  011.49 207.7 m E Pn      2012/08/16 20:33:14.4  -1.6                          T                                        5047387

.
EVENT     281228
    Date      Time       Latitude Longitude    Depth    Ndef Nsta Gap    Mag1  N    Mag2  N    Mag3  N   Author         ID
       rms   OT_Error      Smajor Sminor Az        Err   mdist  Mdist     Err        Err        Err      Quality

2012/08/16 20:31:10.4     44.5655    6.8471      2.0      17    7 192  Ml 1.6  5  Md 1.7  1              bulletin    281328
                                                                                                         _ldg
      0.56   +-  0.12       3.1    1.4   91.55 +-  0.0    0.17   1.26   +-0.1      +-                    m i ke

FRANCE
Sta     Dist  EvAz     Phase      Date       Time     TRes  Azim  AzRes  Slow  SRes Def   SNR       Amp   Per   Mag1   Mag2       ID
MBDF  000.17 341.5 m E Pg      2012/08/16 20:31:14.0  -0.1                          T                                        5047342
MBDF  000.17 341.5 m E Sg      2012/08/16 20:31:16.2  -0.3                          T               11.7  .24        Md 1.7  5047339
ORIF  000.77 297.4 m E Pg      2012/08/16 20:31:25.3   0.2                          T                                        5047341
ORIF  000.77 297.4 m E Sg      2012/08/16 20:31:34.8  -0.4                          T                1.8  .25                5047343
LPG   000.93 355.9 m E Pg      2012/08/16 20:31:28.5   0.2                          T                                        5047348
LPG   000.93 355.9 m E Sg      2012/08/16 20:31:39.5  -0.9                          T                                        5047347
LPG   000.93 355.9 m E Sn      2012/08/16 20:31:42.8   0.3                          T                1.0  .24 Ml 1.4         5047349
LPL   000.95 355.2 m E Pg      2012/08/16 20:31:28.6   0.0                          T                                        5047338
LPL   000.95 355.2 m E Sg      2012/08/16 20:31:40.9  -0.1                          T                1.3  .31 Ml 1.4         5047350
FRF   001.01 188.2 m E Pg      2012/08/16 20:31:29.4   0.0                          T                                        5047337
FRF   001.01 188.2 m E Sg      2012/08/16 20:31:42.2  -0.4                          T                1.9  .28 Ml 1.7         5047345
SMRF  001.09 237.6 m E Pg      2012/08/16 20:31:31.0   0.2                          T                                        5047340
SMRF  001.09 237.6 m E Sn      2012/08/16 20:31:46.4   0.6                          T                1.9  .27 Ml 1.7         5047346
LMR   001.26 191.3 m E Pn      2012/08/16 20:31:33.4   0.1                          T                                        5047336
LMR   001.26 191.3 m E Sg      2012/08/16 20:31:49.2  -0.9                          T                1.2  .21 Ml 1.7         5047344

.
EVENT     281230
    Date      Time       Latitude Longitude    Depth    Ndef Nsta Gap    Mag1  N    Mag2  N    Mag3  N   Author         ID
       rms   OT_Error      Smajor Sminor Az        Err   mdist  Mdist     Err        Err        Err      Quality

2012/08/17 00:45:46.4     42.9074     .2526      2.0       4    2 241             Md 1.4  2              bulletin    281330
                                                                                                         _ldg
      0.04   +-  0.07       2.7     .4  148.80 +-  0.0    0.14   0.60              +-0.0                 m i ke

PYRENEES
Sta     Dist  EvAz     Phase      Date       Time     TRes  Azim  AzRes  Slow  SRes Def   SNR       Amp   Per   Mag1   Mag2       ID
EPF   000.14 027.5 m E Pg      2012/08/17 00:45:49.4   0.0                          T                                        5047397
EPF   000.14 027.5 m E Sg      2012/08/17 00:45:51.3  -0.1                          T                4.1  .18        Md 1.4  5047395
ETSF  000.60 269.4 m E Pg      2012/08/17 00:45:57.8   0.0                          T                                        5047396
ETSF  000.60 269.4 m E Sg      2012/08/17 00:46:05.7   0.0                          T                 .8  .32        Md 1.4  5047394

.
EVENT     281231
    Date      Time       Latitude Longitude    Depth    Ndef Nsta Gap    Mag1  N    Mag2  N    Mag3  N   Author         ID
       rms   OT_Error      Smajor Sminor Az        Err   mdist  Mdist     Err        Err        Err      Quality

2012/08/17 03:29:19.2     43.0689    -.7500      2.0      15    4 103  Ml 1.5  2  Md 1.6  2              bulletin    281331
                                                                                                         _ldg
      0.73   +-  0.19       5.1    2.7   10.37 +-  0.0    0.04   2.70   +-0.3      +-0.3                 m i ke

PYRENEES
Sta     Dist  EvAz     Phase      Date       Time     TRes  Azim  AzRes  Slow  SRes Def   SNR       Amp   Per   Mag1   Mag2       ID
ETSF  000.22 140.5 m E Pg      2012/08/17 03:29:22.8  -0.9                          T                                        5047401
ETSF  000.22 140.5 m E Sg      2012/08/17 03:29:25.6  -1.1                          T               10.1  .20        Md 1.4  5047399
EPF   000.80 092.4 m E Pg      2012/08/17 03:29:34.4   0.0                          T                                        5047400
EPF   000.80 092.4 m E Sg      2012/08/17 03:29:44.8   0.0                          T                2.6  .28        Md 1.8  5047398
LFF   002.16 029.4 m E Sg      2012/08/17 03:30:26.9  -0.2                          T                1.2  .28 Ml 1.7         5055356
MTLF  002.19 081.8 m E Sg      2012/08/17 03:30:27.8  -0.2                          T                 .3  .24 Ml 1.3         5055355

.
