EVENT     281042
    Date      Time       Latitude Longitude    Depth    Ndef Nsta Gap    Mag1  N    Mag2  N    Mag3  N   Author         ID
       rms   OT_Error      Smajor Sminor Az        Err   mdist  Mdist     Err        Err        Err      Quality

2012/08/10 07:19:43.3     47.6278    6.2434       .0 f    18   10 120  Ml 2.3  6  Md 2.1  3              bulletin    281142
                                                                                                         _ldg
      0.86   +-  0.09       1.8    1.5  125.10 +-  0.0    0.38   2.65   +-0.3      +-0.1                 m i km

FRANCE
Sta     Dist  EvAz     Phase      Date       Time     TRes  Azim  AzRes  Slow  SRes Def   SNR       Amp   Per   Mag1   Mag2       ID
HAU   000.38 010.5 m E Pg      2012/08/10 07:19:51.2   0.2                          T                                        5042993
HAU   000.38 010.5 m E Sg      2012/08/10 07:19:56.5   0.2                          T               70.8  .80        Md 2.1  5043011
HINF  000.45 065.1 m E Pg      2012/08/10 07:19:52.7   0.4                          T                                        5042992
HINF  000.45 065.1 m E Sg      2012/08/10 07:19:57.6  -0.9                          T               56.2  .88        Md 2.1  5042991
THEF  000.62 344.5 m E Pg      2012/08/10 07:19:55.5   0.1                          T                                        5042990
THEF  000.62 344.5 m E Sg      2012/08/10 07:20:03.5  -0.3                          T               71.4 1.08        Md 2.2  5042989
PAGF  000.99 339.7 m E Pg      2012/08/10 07:20:02.3   0.1 160.3  1.1               T                                        5042986
PAGF  000.99 339.7 m E Sg      2012/08/10 07:20:15.1  -0.1 151.6  -7.7              T               14.4  .64 Ml 2.2         5042985
SFTF  001.00 305.9 m E Pg      2012/08/10 07:20:02.3   0.0 128.2  3.2               T                                        5042984
SFTF  001.00 305.9 m E Sg      2012/08/10 07:20:14.9  -0.4 135.0  10.0              T               27.7  .63 Ml 2.5         5042980
CDF   001.05 041.1 m E Pg      2012/08/10 07:20:02.8  -0.5                          T                                        5042988
CDF   001.05 041.1 m E Sg      2012/08/10 07:20:17.1   0.1                          T               20.4  .70 Ml 2.4         5042987
CABF  001.02 186.0 m E Pg      2012/08/10 07:20:03.0   0.2                          T                                        5042982
CABF  001.02 186.0 m E Sg      2012/08/10 07:20:16.1  -0.2                          T               18.8  .70 Ml 2.3         5042981
LOR   001.66 258.3 m E Pg      2012/08/10 07:20:14.4   0.0  77.7  1.1               T                                        5042979
LOR   001.66 258.3 m E Sg      2012/08/10 07:20:35.7  -0.4  74.9  -1.7              T                 .9  .20 Ml 1.8         5042978
MEZF  001.18 318.0 m E Sg      2012/08/10 07:20:21.5   0.3                          T               19.1  .52 Ml 2.5         5042983
GIVF  002.65 339.8 m E Pn      2012/08/10 07:20:25.5  -0.1                          T                                        5043010

.
EVENT     281459
    Date      Time       Latitude Longitude    Depth    Ndef Nsta Gap    Mag1  N    Mag2  N    Mag3  N   Author         ID
       rms   OT_Error      Smajor Sminor Az        Err   mdist  Mdist     Err        Err        Err      Quality

2012/08/10 08:46:51.6     42.5786    -.6146      2.0      15    2 128             Md 1.7  2              bulletin    281559
                                                                                                         _ldg
      0.69   +-  0.21       4.2    2.9   39.69 +-  0.0    0.32   2.41              +-0.1                 m i ke

PYRENEES
Sta     Dist  EvAz     Phase      Date       Time     TRes  Azim  AzRes  Slow  SRes Def   SNR       Amp   Per   Mag1   Mag2       ID
ETSF  000.32 007.3 m E Pg      2012/08/10 08:46:58.1   0.2                          T                                        5052763
ETSF  000.32 007.3 m E Sg      2012/08/10 08:47:03.0   0.7                          T               13.5  .26        Md 1.7  5052764
EPF   000.84 057.0 m E Pg      2012/08/10 08:47:07.4   0.0                          T                                        5052761
EPF   000.84 057.0 m E Sg      2012/08/10 08:47:18.4   0.1                          T                3.8  .28        Md 1.8  5052762

.
EVENT     281111
    Date      Time       Latitude Longitude    Depth    Ndef Nsta Gap    Mag1  N    Mag2  N    Mag3  N   Author         ID
       rms   OT_Error      Smajor Sminor Az        Err   mdist  Mdist     Err        Err        Err      Quality

2012/08/10 10:33:16.2     50.4039    4.5726       .0 f    25   14 268  Ml 2.8 11  Md 2.3  2              bulletin    281211
                                                                                                         _ldg
      0.87   +-  0.31       5.4    3.6  158.69 +-  0.0    0.34   3.93   +-0.1      +-0.1                 m i km

BELGIUM
Sta     Dist  EvAz     Phase      Date       Time     TRes  Azim  AzRes  Slow  SRes Def   SNR       Amp   Per   Mag1   Mag2       ID
GIVF  000.34 151.9 m E Pg      2012/08/10 10:33:22.6  -0.5                          T                                        5043378
GIVF  000.34 151.9 m E Sg      2012/08/10 10:33:27.5  -0.4                          T              149.5  .60        Md 2.3  5043362
BAIF  000.42 214.3 m E Pg      2012/08/10 10:33:24.1  -0.3                          T                                        5043377
BAIF  000.42 214.3 m E Sg      2012/08/10 10:33:29.7  -0.5                          T               84.3  .70        Md 2.4  5043376
PAGF  002.00 157.5 m E Pn      2012/08/10 10:33:48.4  -1.2                          T                                        5043375
PAGF  002.00 157.5 m E Sn      2012/08/10 10:34:14.1   0.1 347.5  9.2               T               31.3  .50 Ml 3.0         5043370
MEZF  001.93 170.5 m E Pn      2012/08/10 10:33:49.3   0.6 359.0  8.1               T                                        5043374
MEZF  001.93 170.5 m E Sn      2012/08/10 10:34:12.5   0.1 350.9  0.1               T               28.5  .50 Ml 2.9         5043369
SFTF  002.22 171.9 m E Pn      2012/08/10 10:33:53.1   0.3 351.0  -1.3              T                                        5043365
SFTF  002.22 171.9 m E Pg      2012/08/10 10:33:57.3  -0.5                          T                                        5052767
THEF  002.37 156.3 m E Pn      2012/08/10 10:33:55.1   0.4                          T                                        5043373
THEF  002.37 156.3 m E Sn      2012/08/10 10:34:23.2   0.3                          T               25.0  .56 Ml 2.9         5043368
LANF  002.54 122.9 m E Pn      2012/08/10 10:33:56.6  -0.4                          T                                        5052768
LANF  002.54 122.9 m E Sn      2012/08/10 10:34:26.4  -0.5                          T               23.5  .72 Ml 2.8         5052769
CDF   002.66 137.4 m E Pn      2012/08/10 10:33:59.0   0.2                          T                                        5043364
CDF   002.66 137.4 m E Sn      2012/08/10 10:34:30.2   0.2                          T               13.6  .56 Ml 2.8         5043363
HAU   002.67 153.4 m E Pn      2012/08/10 10:33:59.0   0.2                          T                                        5043372
HAU   002.67 153.4 m E Sn      2012/08/10 10:34:30.3   0.2                          T               22.6  .48 Ml 2.8         5043371
LOR   003.17 188.8 m E Pn      2012/08/10 10:34:05.2  -0.5                          T                                        5043367
LOR   003.17 188.8 m E Sn      2012/08/10 10:34:42.2   0.0                          T                9.1  .58 Ml 2.7         5043366
CABF  003.93 164.6 m E Pn      2012/08/10 10:34:16.3   0.3                          T                                        5043359
CABF  003.93 164.6 m E Sn      2012/08/10 10:35:00.3   0.1                          T               15.3  .66 Ml 3.0         5043360
HINF  002.99 149.1 m E Sn      2012/08/10 10:34:38.2   0.3                          T               12.3  .50 Ml 2.8         5043361
AVF   003.71 193.1 m E Sg      2012/08/10 10:35:13.4   0.6                          T               11.2  .82 Ml 2.7         5052766
SMF   003.79 187.6 m E Sg      2012/08/10 10:35:15.8   0.2                          T                7.7  .54 Ml 2.8         5052765

.
EVENT     281110
    Date      Time       Latitude Longitude    Depth    Ndef Nsta Gap    Mag1  N    Mag2  N    Mag3  N   Author         ID
       rms   OT_Error      Smajor Sminor Az        Err   mdist  Mdist     Err        Err        Err      Quality

2012/08/10 10:45:18.6     44.2816   17.9650      2.0      54   11 070  Ml 3.2  7                         bulletin    281210
                                                                                                         _ldg
      0.94   +-  0.13       5.0    2.9   20.85 +-  0.0    0.46  11.36   +-0.2                            m i ke

NORTHWESTERN BALKAN PEN.
Sta     Dist  EvAz     Phase      Date       Time     TRes  Azim  AzRes  Slow  SRes Def   SNR       Amp   Per   Mag1   Mag2       ID
SBF   007.60 270.5 m E Pn      2012/08/10 10:47:07.0  -1.0                          T                                        5044246
SBF   007.60 270.5 m E Sn      2012/08/10 10:48:30.0   0.4                          T                1.8  .20 Ml 3.3         5046786
MBDF  008.02 277.1 m E Pn      2012/08/10 10:47:13.1  -0.6                          T                                        5044249
MBDF  008.02 277.1 m E Sn      2012/08/10 10:48:40.2   0.5                          T                3.9  .65 Ml 3.2         5046781
LPG   008.06 282.6 m E Pn      2012/08/10 10:47:14.3  -0.2                          T                                        5046793
LPG   008.06 282.6 m E Sn      2012/08/10 10:48:41.4   0.6                          T                2.4  .28 Ml 3.4         5046783
FRF   008.20 268.9 m E Pn      2012/08/10 10:47:15.8  -0.3                          T                                        5044247
FRF   008.20 268.9 m E Sn      2012/08/10 10:48:44.8   0.8                          T                2.7  .42 Ml 3.3         5046785
LMR   008.34 267.5 m E Pn      2012/08/10 10:47:17.1  -0.9                          T                                        5044244
ORIF  008.65 278.4 m E Pn      2012/08/10 10:47:22.8   0.5                          T                                        5044248
ORIF  008.65 278.4 m E Sn      2012/08/10 10:48:55.6   0.9                          T                6.2  .72 Ml 3.5         5046782
HAU   008.88 298.9 m E Pn      2012/08/10 10:47:25.2  -0.2                          T                                        5046791
SMRF  008.92 272.4 m E Pn      2012/08/10 10:47:25.6  -0.3                          T                                        5046794
SMRF  008.92 272.4 m E Sn      2012/08/10 10:49:04.1   2.9                          T                 .5  .28 Ml 2.8         5046784
VIVF  009.51 278.1 m E Pn      2012/08/10 10:47:33.9  -0.1                          T                                        5044245
VIVF  009.51 278.1 m E Sn      2012/08/10 10:49:15.4   0.2                          T                3.0  .77 Ml 3.2         5046898
MEZF  009.87 299.9 m E Pn      2012/08/10 10:47:38.7  -0.1                          T                                        5046790
CAF   011.36 278.8 m E Pn      2012/08/10 10:47:59.0  -0.2                          T                                        5046792

.
EVENT     281119
    Date      Time       Latitude Longitude    Depth    Ndef Nsta Gap    Mag1  N    Mag2  N    Mag3  N   Author         ID
       rms   OT_Error      Smajor Sminor Az        Err   mdist  Mdist     Err        Err        Err      Quality

2012/08/10 16:13:57.5     48.3756    7.3021      2.0      55   15 030  Ml 2.4 11  Md 2.4  3              bulletin    281219
                                                                                                         _ldg
      0.44   +-  0.05       1.1     .9  169.44 +-  0.0    0.04   4.04   +-0.1      +-0.2                 m i ke

FRANCE
Sta     Dist  EvAz     Phase      Date       Time     TRes  Azim  AzRes  Slow  SRes Def   SNR       Amp   Per   Mag1   Mag2       ID
CDF   000.04 334.7 m E Pg      2012/08/10 16:13:58.4  -0.4                          T                                        5044094
CDF   000.04 334.7 m E Sg      2012/08/10 16:13:59.2  -0.5                          T              281.2  .22        Md 2.2  5044093
HINF  000.64 208.5 m E Pg      2012/08/10 16:14:09.3  -0.3                          T                                        5052772
HINF  000.64 208.5 m E Pn      2012/08/10 16:14:11.3  -0.7                          T                                        5052773
HINF  000.64 208.5 m E Sg      2012/08/10 16:14:17.9   0.0                          T                4.8  .16                5044092
HINF  000.64 208.5 m E Sn      2012/08/10 16:14:21.0  -1.2                          T               27.8  .24                5044082
HAU   000.74 240.2 m E Pg      2012/08/10 16:14:11.2  -0.2                          T                                        5044083
HAU   000.74 240.2 m E Pn      2012/08/10 16:14:13.3  -0.1                          T                                        5046238
HAU   000.74 240.2 m E Sg      2012/08/10 16:14:21.0  -0.1                          T               38.2  .28                5044074
LANF  000.69 028.7 m E Pg      2012/08/10 16:14:11.3   0.7                          T                                        5044085
LANF  000.69 028.7 m E Sg      2012/08/10 16:14:19.7   0.1                          T               19.3  .28        Md 2.4  5044081
THEF  000.89 260.9 m E Pg      2012/08/10 16:14:14.2   0.0                          T                                        5044084
THEF  000.89 260.9 m E Pn      2012/08/10 16:14:15.3  -0.1                          T                                        5046239
THEF  000.89 260.9 m E Sg      2012/08/10 16:14:25.3  -0.4                          T               14.3  .24 Ml 2.5         5046240
PAGF  001.06 280.3 m E Pg      2012/08/10 16:14:17.8   0.3                          T                                        5052770
PAGF  001.06 280.3 m E Pn      2012/08/10 16:14:18.4   0.5                          T                                        5044080
PAGF  001.06 280.3 m E Sg      2012/08/10 16:14:31.7   0.4                          T               11.3  .27 Ml 2.5 Md 2.6  5044079
SFTF  001.52 264.4 m E Pn      2012/08/10 16:14:23.8  -0.2                          T                                        5044091
SFTF  001.52 264.4 m E Pg      2012/08/10 16:14:26.6   0.7                          T                                        5052771
SFTF  001.52 264.4 m E Sn      2012/08/10 16:14:43.4   0.1                          T                6.0  .19 Ml 2.5         5044088
MEZF  001.50 275.7 m E Pn      2012/08/10 16:14:23.9   0.1  95.8  1.8               T                                        5044090
MEZF  001.50 275.7 m E Sn      2012/08/10 16:14:43.0   0.2                          T                7.9  .34 Ml 2.4         5044089
CABF  001.95 205.5 m E Pn      2012/08/10 16:14:29.6  -0.3                          T                                        5044087
CABF  001.95 205.5 m E Pg      2012/08/10 16:14:34.2   0.4                          T                                        5046236
CABF  001.95 205.5 m E Sn      2012/08/10 16:14:52.9  -0.6                          T                                        5044086
CABF  001.95 205.5 m E Sg      2012/08/10 16:14:59.3   0.4                          T                8.3  .74 Ml 2.2         5046237
GIVF  002.37 317.7 m E Pn      2012/08/10 16:14:35.5  -0.1                          T                                        5046223
GIVF  002.37 317.7 m E Sn      2012/08/10 16:15:03.5  -0.1                          T                1.9  .23 Ml 2.2         5046222
LOR   002.57 245.8 m E Pn      2012/08/10 16:14:38.4   0.0  65.4  2.2               T                                        5044078
LOR   002.57 245.8 m E Sn      2012/08/10 16:15:08.5   0.1                          T                3.7  .30 Ml 2.4         5044076
BAIF  002.64 310.9 m E Pn      2012/08/10 16:14:39.4   0.2                          T                                        5044077
BAIF  002.64 310.9 m E Sn      2012/08/10 16:15:10.3   0.4                          T                2.8  .20 Ml 2.5         5044075
SSF   002.88 244.3 m E Pn      2012/08/10 16:14:42.7   0.2                          T                                        5046231
SSF   002.88 244.3 m E Pg      2012/08/10 16:14:51.1   0.2                          T                                        5046230
SSF   002.88 244.3 m E Sn      2012/08/10 16:15:16.0   0.3                          T                                        5046228
SSF   002.88 244.3 m E Sg      2012/08/10 16:15:28.3   0.3                          T                3.7  .32 Ml 2.6         5046229
SMF   002.92 234.9 m E Pn      2012/08/10 16:14:42.9  -0.1                          T                                        5046235
SMF   002.92 234.9 m E Pg      2012/08/10 16:14:52.1   0.6                          T                                        5046234
SMF   002.92 234.9 m E Sn      2012/08/10 16:15:16.6   0.0                          T                                        5046232
SMF   002.92 234.9 m E Sg      2012/08/10 16:15:28.6  -0.5                          T                4.1  .36 Ml 2.5         5046233
TCF   004.04 240.8 m E Pn      2012/08/10 16:14:58.5   0.0                          T                                        5046227
TCF   004.04 240.8 m E Pg      2012/08/10 16:15:12.2  -0.1                          T                                        5046226
TCF   004.04 240.8 m E Sn      2012/08/10 16:15:43.6   0.1                          T                                        5046224
TCF   004.04 240.8 m E Sg      2012/08/10 16:16:03.9  -0.4                          T                1.1  .27 Ml 2.3         5046225

.
