EVENT     281215
    Date      Time       Latitude Longitude    Depth    Ndef Nsta Gap    Mag1  N    Mag2  N    Mag3  N   Author         ID
       rms   OT_Error      Smajor Sminor Az        Err   mdist  Mdist     Err        Err        Err      Quality

2012/08/16 05:42:40.9     44.9038   11.2251     20.0 f    63   18 109  Ml 3.0 17                         bulletin    281315
                                                                                                         _ldg
      1.45   +-  0.24       5.6    3.8   77.28 +-  0.0    0.17   6.09   +-0.2                            m i ke

NORTHERN ITALY
Sta     Dist  EvAz     Phase      Date       Time     TRes  Azim  AzRes  Slow  SRes Def   SNR       Amp   Per   Mag1   Mag2       ID
PGF   002.85 215.2 m E Pn      2012/08/16 05:43:24.1   0.4                          T                                        5047115
PGF   002.85 215.2 m E Sn      2012/08/16 05:43:57.0   1.6                          T                8.3  .28 Ml 3.1         5047112
MBDF  003.17 268.4 m E Pn      2012/08/16 05:43:28.2   0.1                          T   001.0                                5047033
MBDF  003.17 268.4 m E Sn      2012/08/16 05:44:03.5   0.5                          T                                        5054217
MBDF  003.17 268.4 m E Sg      2012/08/16 05:44:20.9   0.0                          T               10.2  .36 Ml 2.9         5054216
LPL   003.23 282.5 m E Pn      2012/08/16 05:43:28.8  -0.2                          T   001.0                                5047024
LPL   003.23 282.5 m E Sn      2012/08/16 05:44:04.5  -0.1                          T   001.0       15.0  .56 Ml 2.9         5047026
LPL   003.23 282.5 m E Sg      2012/08/16 05:44:22.6  -0.2                          T               10.8  .56 Ml 2.8         5054215
LPG   003.22 282.2 m E Pn      2012/08/16 05:43:28.9   0.0                          T   001.0                                5047023
LPG   003.22 282.2 m E Sn      2012/08/16 05:44:04.5   0.2                          T                9.4  .40 Ml 2.8         5054214
LPG   003.22 282.2 m E Sg      2012/08/16 05:44:22.5   0.2                          T               14.5  .56 Ml 2.9         5054213
FRF   003.55 249.4 m E Pn      2012/08/16 05:43:33.8   0.7                          T                                        5047113
FRF   003.55 249.4 m E Sn      2012/08/16 05:44:12.6   0.6                          T                7.2  .20 Ml 3.1         5047111
LMR   003.74 246.8 m E Pn      2012/08/16 05:43:36.0   0.4                          T                                        5047114
LMR   003.74 246.8 m E Sn      2012/08/16 05:44:17.7   1.3                          T   001.0       14.6  .30 Ml 3.3         5047021
ORIF  003.80 272.1 m E Pn      2012/08/16 05:43:36.3  -0.2                          T   001.0                                5047034
ORIF  003.80 272.1 m E Sn      2012/08/16 05:44:18.0   0.1                          T   001.0       15.4  .52 Ml 3.1         5047035
CABF  003.98 297.2 m E Pn      2012/08/16 05:43:40.5   1.5                          T   001.0                                5047030
CABF  003.98 297.2 m E Sg      2012/08/16 05:44:26.6 -19.3                          T   001.0        7.3  .68 Ml 2.7         5047031
SMRF  004.15 259.1 m E Pn      2012/08/16 05:43:41.3   0.0                          T   001.0                                5047037
HINF  004.20 315.5 m E Pn      2012/08/16 05:43:43.5   1.5                          T   001.0                                5047032
HINF  004.20 315.5 m E Sn      2012/08/16 05:44:28.9   1.4                          T                 10  .44 Ml 3.1         5054219
CDF   004.44 323.6 m E Pn      2012/08/16 05:43:45.9   0.7                          T   001.0                                5047018
CDF   004.44 323.6 m E Sn      2012/08/16 05:44:31.9  -1.3                          T   001.0        3.8  .29 Ml 3.0         5047019
HAU   004.58 314.4 m E Pn      2012/08/16 05:43:47.5   0.4                          T   001.0                                5047020
HAU   004.58 314.4 m E Sn      2012/08/16 05:44:35.1  -1.5                          T               12.0  .34 Ml 3.1         5047109
VIVF  004.66 271.7 m E Pn      2012/08/16 05:43:48.2   0.0                          T   001.0                                5047036
VIVF  004.66 271.7 m E Sn      2012/08/16 05:44:38.3  -0.1                          T                1.9  .29 Ml 2.6         5047110
THEF  004.91 314.5 m E Pn      2012/08/16 05:43:51.8   0.3                          T                                        5047117
THEF  004.91 314.5 m E Sn      2012/08/16 05:44:44.1  -0.2                          T                                        5047116
SMF   005.45 291.2 m E Pn      2012/08/16 05:43:58.6  -0.4                          T   001.0                                5047027
SMF   005.45 291.2 m E Sn      2012/08/16 05:44:57.5   0.2                          T   001.0        2.8  .31 Ml 2.9         5047028
LOR   005.64 297.4 m E Pn      2012/08/16 05:44:03.2   1.6                          T                                        5047108
LOR   005.64 297.4 m E Sn      2012/08/16 05:45:02.0   0.1                          T   001.0        5.1  .35 Ml 3.2         5047022
AVF   005.81 291.7 m E Pn      2012/08/16 05:44:04.6   0.7                          T   001.0                                5047017
BGF   006.09 288.7 m E Sn      2012/08/16 05:45:13.1   0.4                          T               11.4  .57 Ml 3.4         5054218

.
EVENT     281221
    Date      Time       Latitude Longitude    Depth    Ndef Nsta Gap    Mag1  N    Mag2  N    Mag3  N   Author         ID
       rms   OT_Error      Smajor Sminor Az        Err   mdist  Mdist     Err        Err        Err      Quality

2012/08/16 05:51:55.5     45.9673    7.4764      2.0      34    8 048  Ml 1.8  4  Md 2.0  2              bulletin    281321
                                                                                                         _ldg
      0.47   +-  0.08       1.8    1.4  126.46 +-  0.0    0.12   2.97   +-0.2      +-0.0                 m i ke

NORTHERN ITALY
Sta     Dist  EvAz     Phase      Date       Time     TRes  Azim  AzRes  Slow  SRes Def   SNR       Amp   Per   Mag1   Mag2       ID
LPL   000.69 229.4 m E Pg      2012/08/16 05:52:08.5  -0.3                          T                                        5054230
LPL   000.69 229.4 m E Sg      2012/08/16 05:52:17.8   0.0                          T                2.7  .32        Md 2.0  5047156
LPG   000.69 227.5 m E Pg      2012/08/16 05:52:08.6  -0.4                          T                                        5054231
LPG   000.69 227.5 m E Sg      2012/08/16 05:52:17.2  -0.8                          T                3.9  .20        Md 2.0  5047157
CABF  001.16 304.3 m E Pg      2012/08/16 05:52:17.0  -0.3                          T                                        5054234
CABF  001.16 304.3 m E P       2012/08/16 05:52:18.8  -0.1                          T                                        5054235
CABF  001.16 304.3 m E Sg      2012/08/16 05:52:32.2  -0.1                          T                 .7  .16 Ml 1.5         5047162
MBDF  001.34 202.1 m E Pn      2012/08/16 05:52:19.5  -0.2                          T                                        5047158
MBDF  001.34 202.1 m E Pg      2012/08/16 05:52:20.3  -0.4                          T                                        5054226
MBDF  001.34 202.1 m E Sn      2012/08/16 05:52:36.7  -0.3                          T                2.5  .31 Ml 1.9         5047161
ORIF  001.54 227.5 m E Pn      2012/08/16 05:52:22.1  -0.3                          T                                        5054228
ORIF  001.54 227.5 m E Pg      2012/08/16 05:52:24.1  -0.2                          T                                        5054227
ORIF  001.54 227.5 m E Sg      2012/08/16 05:52:43.5  -0.6                          T                2.4  .32 Ml 1.9         5054229
VIVF  002.27 241.6 m E Pn      2012/08/16 05:52:31.9  -0.3                          T                                        5047164
VIVF  002.27 241.6 m E Sn      2012/08/16 05:52:58.1  -1.0                          T                1.1  .34 Ml 1.8         5047165
SMF   002.61 286.4 m E P       2012/08/16 05:52:39.4  -0.1                          T                                        5054232
AVF   002.97 287.6 m E P       2012/08/16 05:52:45.0   0.3                          T                                        5054233

.
EVENT     281218
    Date      Time       Latitude Longitude    Depth    Ndef Nsta Gap    Mag1  N    Mag2  N    Mag3  N   Author         ID
       rms   OT_Error      Smajor Sminor Az        Err   mdist  Mdist     Err        Err        Err      Quality

2012/08/16 09:11:50.3     48.0184    6.6425       .0 f    11    6 104  Ml 2.2  3  Md 2.2  2              bulletin    281318
                                                                                                         _ldg
      0.75   +-  0.09       2.2    1.7    1.68 +-  0.0    0.20   2.60   +-0.1      +-0.2                 m i km

FRANCE
Sta     Dist  EvAz     Phase      Date       Time     TRes  Azim  AzRes  Slow  SRes Def   SNR       Amp   Per   Mag1   Mag2       ID
HAU   000.20 266.4 m E Pg      2012/08/16 09:11:54.6   0.0                          T                                        5047144
HAU   000.20 266.4 m E Sg      2012/08/16 09:11:57.7   0.2                          T              191.5  .60        Md 2.3  5047141
HINF  000.25 144.9 m E Pg      2012/08/16 09:11:55.6   0.0                          T                                        5047143
HINF  000.25 144.9 m E Sg      2012/08/16 09:11:59.0  -0.1                          T               13.1  .37        Md 2.1  5047140
CDF   000.58 046.8 m E Pg      2012/08/16 09:12:01.7   0.0                          T                                        5047142
CDF   000.58 046.8 m E Sg      2012/08/16 09:12:09.4  -0.1                          T               24.8  .82                5047139
LOR   002.03 249.3 m E Pn      2012/08/16 09:12:24.1  -0.1  63.7  -3.6              T                                        5047134
LOR   002.03 249.3 m E Sn      2012/08/16 09:12:48.7  -0.2  74.1  6.8               T                4.7  .50 Ml 2.2         5047135
SFTF  001.09 280.4 m E Sg      2012/08/16 09:12:25.4   0.1 102.8  3.5               T                6.2  .39 Ml 2.1         5047138
BAIF  002.60 322.8 m E Pn      2012/08/16 09:12:32.2   0.3                          T                                        5047137
BAIF  002.60 322.8 m E Sn      2012/08/16 09:13:01.7  -0.7                          T                2.8  .32 Ml 2.3         5047136

.
EVENT     281493
    Date      Time       Latitude Longitude    Depth    Ndef Nsta Gap    Mag1  N    Mag2  N    Mag3  N   Author         ID
       rms   OT_Error      Smajor Sminor Az        Err   mdist  Mdist     Err        Err        Err      Quality

2012/08/16 09:19:18.9     42.2086    9.9474     15.0       8    3 354  Ml 2.3  2  Md 2.5  1              bulletin    281593
                                                                                                         _ldg
      0.96   +-  0.44      10.4    7.3   24.79 +-  0.0    0.78   2.78   +-0.1      +-                    m i ke

CORSICA, FRANCE
Sta     Dist  EvAz     Phase      Date       Time     TRes  Azim  AzRes  Slow  SRes Def   SNR       Amp   Per   Mag1   Mag2       ID
PGF   000.78 296.1 m E Pg      2012/08/16 09:19:34.0   0.1                          T                                        5054532
PGF   000.78 296.1 m E Sg      2012/08/16 09:19:43.9  -0.3                          T               60.9  .44        Md 2.5  5054533
LMR   002.77 295.1 m E Pn      2012/08/16 09:20:00.8  -0.2                          T                                        5054530
LMR   002.77 295.1 m E Sn      2012/08/16 09:20:32.2   0.1                          T                2.3  .27 Ml 2.3         5054528
FRF   002.78 300.2 m E Pn      2012/08/16 09:20:00.9  -0.2                          T                                        5054531
FRF   002.78 300.2 m E Sn      2012/08/16 09:20:32.6   0.4                          T                1.4  .22 Ml 2.2         5054529

.
EVENT     281537
    Date      Time       Latitude Longitude    Depth    Ndef Nsta Gap    Mag1  N    Mag2  N    Mag3  N   Author         ID
       rms   OT_Error      Smajor Sminor Az        Err   mdist  Mdist     Err        Err        Err      Quality

2012/08/16 10:12:23.4     42.1068    9.8892     15.0       8    3 353  Ml 2.2  2  Md 2.0  1              bulletin    281637
                                                                                                         _ldg
      0.24   +-  0.34       9.3    5.9   37.02 +-  0.0    0.79   2.79   +-0.2      +-                    m i ke

CORSICA, FRANCE
Sta     Dist  EvAz     Phase      Date       Time     TRes  Azim  AzRes  Slow  SRes Def   SNR       Amp   Per   Mag1   Mag2       ID
PGF   000.79 304.1 m E Pg      2012/08/16 10:12:38.9   0.3                          T                                        5054540
PGF   000.79 304.1 m E Sg      2012/08/16 10:12:48.8  -0.3                          T               28.8  .32        Md 2.0  5054541
FRF   002.79 302.4 m E Pn      2012/08/16 10:13:05.4  -0.3                          T                                        5054539
FRF   002.79 302.4 m E Sn      2012/08/16 10:13:37.4   0.2                          T                1.7  .20 Ml 2.3         5054537
LMR   002.78 297.3 m E Pn      2012/08/16 10:13:05.5   0.0                          T                                        5054538
LMR   002.78 297.3 m E Sn      2012/08/16 10:13:36.8   0.1                          T                 .9  .18 Ml 2.1         5054536

.
EVENT     281227
    Date      Time       Latitude Longitude    Depth    Ndef Nsta Gap    Mag1  N    Mag2  N    Mag3  N   Author         ID
       rms   OT_Error      Smajor Sminor Az        Err   mdist  Mdist     Err        Err        Err      Quality

2012/08/16 15:03:47.1     46.3114    7.5093      2.0      39   14 052  Ml 2.1 13  Md 2.0  3              bulletin    281327
                                                                                                         _ldg
      0.21   +-  0.04        .8     .7  132.99 +-  0.0    0.11   2.75   +-0.3      +-0.1                 m i ke

SWITZERLAND
Sta     Dist  EvAz     Phase      Date       Time     TRes  Azim  AzRes  Slow  SRes Def   SNR       Amp   Per   Mag1   Mag2       ID
LPL   000.96 214.6 m E Pg      2012/08/16 15:04:05.4   0.0                          T                                        5054544
LPL   000.96 214.6 m E Sg      2012/08/16 15:04:17.8  -0.1                          T                3.7  .48 Ml 1.7 Md 1.9  5054545
LPG   000.97 213.3 m E Pg      2012/08/16 15:04:05.8   0.1                          T                                        5054542
LPG   000.97 213.3 m E Sg      2012/08/16 15:04:18.4   0.1                          T                3.8  .26 Ml 2.0 Md 1.9  5054543
CABF  001.03 287.5 m E Pn      2012/08/16 15:04:07.0   0.0                          T                                        5054551
CABF  001.03 287.5 m E P       2012/08/16 15:04:08.6   0.1                          T                                        5047261
CABF  001.03 287.5 m E Sg      2012/08/16 15:04:20.1   0.3                          T                3.1  .24 Ml 1.9 Md 2.1  5047260
HAU   001.87 335.4 m E Pn      2012/08/16 15:04:18.2  -0.2                          T                                        5047257
HAU   001.87 335.4 m E Sn      2012/08/16 15:04:41.2   0.0                          T                4.3  .24 Ml 2.2         5047258
MBDF  001.67 198.4 m E Pg      2012/08/16 15:04:18.3   0.0                          T                                        5054549
MBDF  001.67 198.4 m E Sg      2012/08/16 15:04:39.7  -0.1                          T                2.2  .37 Ml 1.9         5054550
CDF   002.11 355.8 m E Pn      2012/08/16 15:04:22.2   0.5                          T                                        5047247
CDF   002.11 355.8 m E Sn      2012/08/16 15:04:46.9   0.0                          T                 .9  .25 Ml 1.9         5047246
THEF  002.18 332.3 m E Pn      2012/08/16 15:04:22.5   0.0                          T                                        5047256
SFTF  002.53 319.3 m E Pn      2012/08/16 15:04:27.7   0.4                          T                                        5047253
SFTF  002.53 319.3 m E Sn      2012/08/16 15:04:56.6  -0.4                          T                7.8  .35 Ml 2.7         5047252
PAGF  002.55 332.3 m E Pn      2012/08/16 15:04:27.8   0.2                          T                                        5047249
PAGF  002.55 332.3 m E Sn      2012/08/16 15:04:57.4   0.0                          T               10.6  .53 Ml 2.6         5047248
LOR   002.68 292.2 m E Pn      2012/08/16 15:04:29.3  -0.1                          T                                        5047255
LOR   002.68 292.2 m E Sn      2012/08/16 15:05:01.0   0.4                          T                1.6  .32 Ml 2.1         5047254
MEZF  002.75 323.6 m E Pn      2012/08/16 15:04:30.2  -0.2                          T                                        5047251
MEZF  002.75 323.6 m E Sn      2012/08/16 15:05:02.2   0.0                          T                6.1  .39 Ml 2.6         5047250
VIVF  002.47 234.9 m E Pg      2012/08/16 15:04:32.2  -0.7                          T                                        5054546
VIVF  002.47 234.9 m E Sg      2012/08/16 15:05:04.5  -0.1                          T                1.2  .22 Ml 2.1         5054547
HINF  001.57 343.7 m E Sg      2012/08/16 15:04:37.8   1.1                          T                1.7  .19 Ml 2.0         5047259
ORIF  001.80 220.0 m E Sg      2012/08/16 15:04:43.7  -0.2                          T                1.8  .27 Ml 2.0         5054548

.
