EVENT     269454
    Date      Time       Latitude Longitude    Depth    Ndef Nsta Gap    Mag1  N    Mag2  N    Mag3  N   Author         ID
       rms   OT_Error      Smajor Sminor Az        Err   mdist  Mdist     Err        Err        Err      Quality

2012/01/26 04:26:06.8     42.5469    2.0055     20.7      15    3 069  Ml 1.2  2  Md 1.4  1              js067245    269474

      1.64   +-  0.16       3.0    2.1   20.58 +-  1.8    0.07   2.04   +-0.2      +-                    m i ke

PYRENEES
Sta     Dist  EvAz     Phase      Date       Time     TRes  Azim  AzRes  Slow  SRes Def   SNR       Amp   Per   Mag1   Mag2       ID
MTLF  000.81 011.0 m E Pn      2012/01/26 04:26:21.6   0.1                          T                                        4826901
MTLF  000.81 011.0 m E Pg      2012/01/26 04:26:22.5   0.2                          T                                        4826900
MTLF  000.81 011.0 m E Sn      2012/01/26 04:26:31.9  -0.2                          T                                        4826903
MTLF  000.81 011.0 m E Sg      2012/01/26 04:26:33.1  -0.1                          T                 .6  .20        Md 1.4  4826902
EPF   001.32 292.1 m E Pg      2012/01/26 04:26:31.3  -0.3                          T                                        4826898
EPF   001.32 292.1 m E Sg      2012/01/26 04:26:48.7  -0.2                          T                 .4  .29 Ml 1.1         4826899
LASF  002.04 040.9 m E Sg      2012/01/26 04:27:11.4   0.2                          T                 .4  .28 Ml 1.4         4826897

.
EVENT     269455
    Date      Time       Latitude Longitude    Depth    Ndef Nsta Gap    Mag1  N    Mag2  N    Mag3  N   Author         ID
       rms   OT_Error      Smajor Sminor Az        Err   mdist  Mdist     Err        Err        Err      Quality

2012/01/26 05:59:30.8     41.0114    1.7486     16.9      26    4 180  Ml 2.0  4                         js067245    269475

      0.31   +-  0.10       1.8    1.1  138.54 +-  0.7    0.31   3.05   +-0.1                            m i ke

SPAIN
Sta     Dist  EvAz     Phase      Date       Time     TRes  Azim  AzRes  Slow  SRes Def   SNR       Amp   Per   Mag1   Mag2       ID
EPF   002.27 333.0 m E Pn      2012/01/26 06:00:05.3  -0.6                          T                                        4826906
EPF   002.27 333.0 m E Pg      2012/01/26 06:00:12.9  -0.3                          T                                        4826905
EPF   002.27 333.0 m E Sg      2012/01/26 06:00:42.5   0.1                          T                1.3  .21 Ml 2.0         4826912
MTLF  002.35 008.4 m E Pn      2012/01/26 06:00:06.8  -0.1                          T                                        4826908
MTLF  002.35 008.4 m E Pg      2012/01/26 06:00:14.6   0.1                          T                                        4826907
MTLF  002.35 008.4 m E Sg      2012/01/26 06:00:44.9   0.0                          T                  1  .25 Ml 1.9         4826909
ETSF  002.55 318.4 m E Pg      2012/01/26 06:00:18.0  -0.3                          T                                        4826904
ETSF  002.55 318.4 m E Sg      2012/01/26 06:00:50.8  -0.4                          T                1.6  .30 Ml 2.0         4826911
SJPF  003.05 314.5 m E Sg      2012/01/26 06:01:06.7   0.1                          T                1.0  .30 Ml 2.0         4826910

.
EVENT     269456
    Date      Time       Latitude Longitude    Depth    Ndef Nsta Gap    Mag1  N    Mag2  N    Mag3  N   Author         ID
       rms   OT_Error      Smajor Sminor Az        Err   mdist  Mdist     Err        Err        Err      Quality

2012/01/26 06:39:38.3     42.6513    2.0350      3.0 f    20    4 076  Ml 1.4  3  Md 1.6  1              js067245    269476

      0.90   +-  0.08       1.7    1.5  171.62 +-  0.0    0.18   1.95   +-0.1      +-                    m i ke

PYRENEES
Sta     Dist  EvAz     Phase      Date       Time     TRes  Azim  AzRes  Slow  SRes Def   SNR       Amp   Per   Mag1   Mag2       ID
MTLF  000.70 010.9 m E Pg      2012/01/26 06:39:52.4   0.8                          T                                        4826929
MTLF  000.70 010.9 m E Pn      2012/01/26 06:39:53.8   0.2                          T                                        4826930
MTLF  000.70 010.9 m E Sg      2012/01/26 06:40:00.8   0.0                          T                                        4826931
MTLF  000.70 010.9 m E Sn      2012/01/26 06:40:04.1  -0.2                          T                1.5  .24        Md 1.6  4826932
EPF   001.30 287.5 m E Pg      2012/01/26 06:40:02.9   0.2                          T                                        4826935
EPF   001.30 287.5 m E Sg      2012/01/26 06:40:19.0  -0.5                          T                 .7  .28 Ml 1.4         4826939
LASF  001.95 042.4 m E Pg      2012/01/26 06:40:14.3  -0.3                          T                                        4826936
LASF  001.95 042.4 m E Sg      2012/01/26 06:40:39.5  -0.1                          T                 .6  .29 Ml 1.5         4826937
ETSF  001.93 278.2 m E Sg      2012/01/26 06:40:39.1   0.0                          T                 .3  .18 Ml 1.3         4826938

.
EVENT     269159
    Date      Time       Latitude Longitude    Depth    Ndef Nsta Gap    Mag1  N    Mag2  N    Mag3  N   Author         ID
       rms   OT_Error      Smajor Sminor Az        Err   mdist  Mdist     Err        Err        Err      Quality

2012/01/26 08:34:06.2     44.2753    8.0229       .0 f    21    8 205  Ml 1.8  7  Md 1.8  1              js067245    269179

      0.22   +-  0.11       1.7    1.0   62.76 +-  0.0    0.14   1.79   +-0.2      +-                    m i km

NORTHERN ITALY
Sta     Dist  EvAz     Phase      Date       Time     TRes  Azim  AzRes  Slow  SRes Def   SNR       Amp   Per   Mag1   Mag2       ID
SBF   000.59 226.0 m E Pg      2012/01/26 08:34:17.8   0.1                          T                                        4826685
SBF   000.59 226.0 m E Sg      2012/01/26 08:34:25.6  -0.1                          T                4.1  .21        Md 1.8  4826682
MBDF  001.00 297.2 m E Pg      2012/01/26 08:34:25.5   0.0                          T                                        4826684
MBDF  001.00 297.2 m E Sg      2012/01/26 08:34:38.1  -0.6                          T                1.2  .24 Ml 1.5         4826675
FRF   001.22 234.8 m E Pg      2012/01/26 08:34:29.4   0.0                          T                                        4826683
FRF   001.22 234.8 m E Sg      2012/01/26 08:34:45.3  -0.1                          T                2.3  .24 Ml 1.9         4826680
LMR   001.44 229.9 m E Sg      2012/01/26 08:34:52.2  -0.1                          T                1.7  .19 Ml 2.0         4826681
LPG   001.52 324.0 m E Sg      2012/01/26 08:34:54.8  -0.2                          T                1.3  .24 Ml 1.8         4826678
LPL   001.54 324.0 m E Sg      2012/01/26 08:34:55.5  -0.1                          T                1.5  .26 Ml 1.8         4826677
ORIF  001.66 293.5 m E Sg      2012/01/26 08:34:59.0  -0.1                          T                1.4  .27 Ml 1.8         4826676
SMRF  001.79 261.2 m E Sg      2012/01/26 08:35:02.8  -0.2                          T                 .7  .17 Ml 1.8         4826679

.
EVENT     269162
    Date      Time       Latitude Longitude    Depth    Ndef Nsta Gap    Mag1  N    Mag2  N    Mag3  N   Author         ID
       rms   OT_Error      Smajor Sminor Az        Err   mdist  Mdist     Err        Err        Err      Quality

2012/01/26 09:57:39.3     44.8310   10.3792     25.0      79   20 040  Ml 3.0 15                         js067245    269182

      0.40   +-  0.06       1.3    1.0   64.65 +-  0.0    0.08   5.29   +-0.3                            m i ke

NORTHERN ITALY
Sta     Dist  EvAz     Phase      Date       Time     TRes  Azim  AzRes  Slow  SRes Def   SNR       Amp   Per   Mag1   Mag2       ID
SBF   002.32 246.4 m E P       2012/01/26 09:58:17.5   0.7                          T                                        4827019
SBF   002.32 246.4 m E Pg      2012/01/26 09:58:22.7   0.0                          T                                        4827018
SBF   002.32 246.4 m E Sn      2012/01/26 09:58:39.8  -0.3                          T               40.9  .30 Ml 3.4         4827015
MBDF  002.57 268.9 m E Pn      2012/01/26 09:58:17.8   0.0                          T                                        4827032
MBDF  002.57 268.9 m E P       2012/01/26 09:58:21.4   0.8                          T                                        4827033
MBDF  002.57 268.9 m E Sn      2012/01/26 09:58:45.2  -1.0                          T                                        4827007
MBDF  002.57 268.9 m E Sg      2012/01/26 09:59:00.0  -0.6                          T               14.2  .44 Ml 2.8         4827008
PGF   002.49 204.2 m E P       2012/01/26 09:58:18.8  -0.5                          T                                        4827017
PGF   002.49 204.2 m E Sn      2012/01/26 09:58:44.5   0.3                          T               12.7  .32 Ml 3.2         4827016
LPG   002.65 285.8 m E P       2012/01/26 09:58:21.6  -0.2                          T                                        4827030
LPG   002.65 285.8 m E Pg      2012/01/26 09:58:29.0   0.0                          T                                        4827029
LPG   002.65 285.8 m E Sn      2012/01/26 09:58:48.4   0.2                          T                6.1  .28 Ml 2.7         4827011
FRF   002.97 246.0 m E Pn      2012/01/26 09:58:22.8  -0.2                          T                                        4827023
FRF   002.97 246.0 m E P       2012/01/26 09:58:26.1   0.1                          T                                        4827025
FRF   002.97 246.0 m E Pg      2012/01/26 09:58:34.9   0.4                          T                                        4827024
FRF   002.97 246.0 m E Sn      2012/01/26 09:58:55.3  -0.1                          T               17.9  .36 Ml 3.2         4827013
LMR   003.16 243.1 m E Pn      2012/01/26 09:58:25.1  -0.5                          T                                        4827020
LMR   003.16 243.1 m E P       2012/01/26 09:58:28.6  -0.1                          T                                        4827021
LMR   003.16 243.1 m E Pg      2012/01/26 09:58:38.1   0.1                          T                                        4827022
LMR   003.16 243.1 m E Sn      2012/01/26 09:58:59.9  -0.2                          T               28.3  .30 Ml 3.5         4827014
ORIF  003.20 273.1 m E P       2012/01/26 09:58:29.4   0.0                          T                                        4827031
ORIF  003.20 273.1 m E Sn      2012/01/26 09:59:02.1   1.0                          T                9.7  .34 Ml 2.9         4827009
SMRF  003.55 257.7 m E Pn      2012/01/26 09:58:30.5  -0.3                          T                                        4827026
SMRF  003.55 257.7 m E P       2012/01/26 09:58:34.1  -0.2                          T                                        4827027
SMRF  003.55 257.7 m E Pg      2012/01/26 09:58:45.1   0.0                          T                                        4827028
SMRF  003.55 257.7 m E Sn      2012/01/26 09:59:09.2  -0.1                          T                4.6  .35 Ml 2.7         4827012
CABF  003.49 302.2 m E P       2012/01/26 09:58:33.6   0.0                          T                                        4827038
CABF  003.49 302.2 m E Pg      2012/01/26 09:58:44.7   0.5                          T                                        4827037
HINF  003.86 322.0 m E Pn      2012/01/26 09:58:35.1   0.0                          T                                        4827039
HINF  003.86 322.0 m E Sn      2012/01/26 09:59:17.0   0.2                          T                8.4  .34 Ml 3.0         4827004
VIVF  004.06 272.4 m E Pn      2012/01/26 09:58:37.7  -0.1                          T                                        4827034
VIVF  004.06 272.4 m E Sn      2012/01/26 09:59:21.7   0.2                          T                3.7  .30 Ml 2.8         4827006
CDF   004.17 330.3 m E Pn      2012/01/26 09:58:39.5   0.0                          T                                        4827043
CDF   004.17 330.3 m E P       2012/01/26 09:58:43.3   0.1                          T                                        4827044
CDF   004.17 330.3 m E Sn      2012/01/26 09:59:24.5   0.2                          T                3.0  .19 Ml 3.0         4827002
HAU   004.23 320.2 m E Pn      2012/01/26 09:58:41.0   1.0                          T                                        4827040
HAU   004.23 320.2 m E Sn      2012/01/26 09:59:25.0  -0.5                          T               11.7  .26 Ml 3.1         4827003
THEF  004.55 319.9 m E Pn      2012/01/26 09:58:44.2  -0.2                          T                                        4827041
LPL   002.67 286.2 m E Sn      2012/01/26 09:58:48.4  -0.1                          T                4.8  .24 Ml 2.7         4827010
SMF   004.92 293.9 m E Pn      2012/01/26 09:58:48.6  -1.0                          T                                        4827035
SMF   004.92 293.9 m E Sn      2012/01/26 09:59:42.2   0.0                          T                9.9  .54 Ml 3.1         4827005
PAGF  004.91 321.0 m E Pn      2012/01/26 09:58:49.4   0.0                          T                                        4827042
LOR   005.15 300.5 m E Pn      2012/01/26 09:58:52.7   0.0                          T                                        4827046
LOR   005.15 300.5 m E Sn      2012/01/26 09:59:48.4   0.7                          T                4.0  .26 Ml 3.1         4827001
SSF   005.29 297.4 m E Pn      2012/01/26 09:58:54.2  -0.3                          T                                        4827045
AVF   005.29 294.2 m E Pn      2012/01/26 09:58:54.3  -0.2                          T                                        4827036

.
