EVENT     253817
    Date      Time       Latitude Longitude    Depth    Ndef Nsta Gap    Mag1  N    Mag2  N    Mag3  N   Author         ID
       rms   OT_Error      Smajor Sminor Az        Err   mdist  Mdist     Err        Err        Err      Quality

2011/01/17 00:55:10.0     46.0449    6.8497      3.0 f    79   23 040  Ml 2.0 22  Md 2.0  4              js067245    253837

      0.45   +-  0.02        .5     .5   96.60 +-  0.0    0.04   2.89   +-0.3      +-0.2                 m i ke

SWITZERLAND
Sta     Dist  EvAz     Phase      Date       Time     TRes  Azim  AzRes  Slow  SRes Def   SNR       Amp   Per   Mag1   Mag2       ID
LPL   000.53 188.9 m E Pg      2011/01/17 00:55:20.4  -0.1                          T                                        4583427
LPL   000.53 188.9 m E Sg      2011/01/17 00:55:27.5   0.0                          T                4.4  .24        Md 2.0  4583412
LPG   000.55 187.2 m E Pg      2011/01/17 00:55:20.7  -0.2                          T                                        4583426
LPG   000.55 187.2 m E Sg      2011/01/17 00:55:28.0  -0.1                          T                7.0  .28        Md 2.0  4583413
CABF  000.77 317.3 m E Pg      2011/01/17 00:55:24.8   0.1                          T                                        4583704
CABF  000.77 317.3 m E Pn      2011/01/17 00:55:26.4   0.0                          T               14.4  .48        Md 1.9  4583367
CABF  000.77 317.3 m E Sg      2011/01/17 00:55:34.6  -0.2                          T                                        4583703
CABF  000.77 317.3 m E Sn      2011/01/17 00:55:37.6  -0.2                          T                                Md 2.3  4583435
MBDF  001.32 182.4 m E Pg      2011/01/17 00:55:34.7  -0.1                          T                                        4583424
ORIF  001.32 211.5 m E Pg      2011/01/17 00:55:34.7   0.0                          T                                        4583425
ORIF  001.32 211.5 m E Sg      2011/01/17 00:55:51.8   0.1                          T                5.7  .34 Ml 2.2         4583411
MBDF  001.32 182.4 m E Sg      2011/01/17 00:55:51.9   0.0                          T                7.9  .64 Ml 2.1         4583410
HINF  001.77 000.1 m E Pn      2011/01/17 00:55:40.0   0.1                          T                                        4583384
HINF  001.77 000.1 m E Pg      2011/01/17 00:55:42.9  -0.2                          T                                        4583366
HINF  001.77 000.1 m E Sg      2011/01/17 00:56:05.7  -0.2                          T                3.0  .29 Ml 2.2         4583403
VIVF  001.94 233.0 m E Pn      2011/01/17 00:55:42.4   0.2                          T                                        4583379
VIVF  001.94 233.0 m E Pg      2011/01/17 00:55:46.1   0.0                          T                                        4583423
VIVF  001.94 233.0 m E Sg      2011/01/17 00:56:11.1   0.0                          T                9.7  .36 Ml 2.6         4583409
HAU   001.99 350.3 m E Pn      2011/01/17 00:55:42.8   0.0                          T                                        4583385
HAU   001.99 350.3 m E Pg      2011/01/17 00:55:46.9  -0.1                          T                                        4583434
HAU   001.99 350.3 m E Sg      2011/01/17 00:56:12.5  -0.2                          T                3.3  .24 Ml 2.1         4583402
SMF   002.17 287.2 m E Pn      2011/01/17 00:55:45.4   0.2                          T                                        4583382
SMF   002.17 287.2 m E Pg      2011/01/17 00:55:50.3   0.0                          T                                        4583365
SMF   002.17 287.2 m E Sn      2011/01/17 00:56:10.9  -0.2                          T                                        4583702
SMF   002.17 287.2 m E Sg      2011/01/17 00:56:18.1  -0.1                          T                                        4583404
THEF  002.26 345.3 m E Pn      2011/01/17 00:55:46.6   0.1                          T                                        4583386
THEF  002.26 345.3 m E Pg      2011/01/17 00:55:51.9  -0.1                          T                                        4583433
THEF  002.26 345.3 m E Sg      2011/01/17 00:56:21.0  -0.1                          T                3.4  .31 Ml 2.3         4583401
CDF   002.39 006.8 m E Pn      2011/01/17 00:55:48.3   0.0                          T                                        4583391
CDF   002.39 006.8 m E Sg      2011/01/17 00:56:25.1  -0.1                          T                 .5  .22 Ml 1.8         4583392
LOR   002.40 301.8 m E Pn      2011/01/17 00:55:48.5   0.1                          T                                        4583397
LOR   002.40 301.8 m E Pg      2011/01/17 00:55:54.5   0.0 117.5  -2.1              T                                        4583396
LOR   002.40 301.8 m E Sg      2011/01/17 00:56:25.4   0.1 138.1  18.5              T                  1  .23 Ml 1.9         4583398
SFTF  002.49 330.9 m E Pn      2011/01/17 00:55:49.7   0.1 150.0  0.4               T                                        4583387
SFTF  002.49 330.9 m E Pg      2011/01/17 00:55:56.1  -0.1 144.2  -5.4              T                                        4583432
SFTF  002.49 330.9 m E Sg      2011/01/17 00:56:28.1  -0.1                          T                2.6  .42 Ml 2.1         4583400
AVF   002.53 288.4 m E Pn      2011/01/17 00:55:50.2   0.0                          T                                        4583383
AVF   002.53 288.4 m E Pg      2011/01/17 00:55:56.8  -0.2                          T                                        4583430
AVF   002.53 288.4 m E Sg      2011/01/17 00:56:29.5   0.0                          T                 .4  .22 Ml 1.6         4583405
SSF   002.52 295.0 m E Pn      2011/01/17 00:55:50.2   0.2                          T                                        4583395
SSF   002.52 295.0 m E Pg      2011/01/17 00:55:56.7   0.0                          T                                        4583394
SSF   002.52 295.0 m E Sg      2011/01/17 00:56:29.2   0.0                          T                1.0  .24 Ml 2.0         4583393
SBF   002.22 169.0 m E Pg      2011/01/17 00:55:51.3   0.0                          T                                        4583418
SBF   002.22 169.0 m E Sg      2011/01/17 00:56:19.8  -0.1                          T                4.2  .48 Ml 2.2         4583417
PAGF  002.63 343.5 m E Pn      2011/01/17 00:55:51.5   0.0                          T                                        4583389
PAGF  002.63 343.5 m E Sg      2011/01/17 00:56:32.3  -0.2 150.8  -11.9             T                 .4  .28 Ml 1.5         4583388
SMRF  002.26 204.1 m E Pg      2011/01/17 00:55:52.0   0.0                          T                                        4583420
SMRF  002.26 204.1 m E Sg      2011/01/17 00:56:21.1   0.1                          T                1.1  .47 Ml 1.6         4583414
MEZF  002.75 334.2 m E Pn      2011/01/17 00:55:53.0   0.0                          T                                        4583390
MEZF  002.75 334.2 m E Pg      2011/01/17 00:56:00.9   0.0                          T                                        4583431
MEZF  002.75 334.2 m E Sg      2011/01/17 00:56:36.1  -0.1                          T                4.4  .48 Ml 2.3         4583399
BGF   002.82 281.9 m E Pn      2011/01/17 00:55:54.2   0.0                          T                                        4583381
BGF   002.82 281.9 m E Pg      2011/01/17 00:56:02.0  -0.3                          T                                        4583429
BGF   002.82 281.9 m E Sg      2011/01/17 00:56:38.6  -0.1                          T                2.6  .47 Ml 2.1         4583407
FRF   002.49 183.4 m E Pg      2011/01/17 00:55:56.1  -0.1                          T                                        4583421
FRF   002.49 183.4 m E Sg      2011/01/17 00:56:28.1  -0.1                          T                  1  .28 Ml 1.9         4583415
LMR   002.72 185.2 m E Pg      2011/01/17 00:56:00.5   0.0                          T                                        4583419
LMR   002.72 185.2 m E Sg      2011/01/17 00:56:35.4   0.0                          T                 .5  .28 Ml 1.6         4583416
LASF  002.89 228.2 m E Pg      2011/01/17 00:56:03.6  -0.1                          T                                        4583422
LASF  002.89 228.2 m E Sg      2011/01/17 00:56:41.0   0.1                          T                2.1  .31 Ml 2.2         4583408

.
EVENT     253819
    Date      Time       Latitude Longitude    Depth    Ndef Nsta Gap    Mag1  N    Mag2  N    Mag3  N   Author         ID
       rms   OT_Error      Smajor Sminor Az        Err   mdist  Mdist     Err        Err        Err      Quality

2011/01/17 06:23:24.7     44.7001    6.7319      2.0      16    9 102  Ml 1.2  5  Md 1.3  1              js067245    253839

      0.41   +-  0.06       1.2     .9   74.14 +-  0.0    0.04   1.47   +-0.2      +-                    m i ke

FRANCE
Sta     Dist  EvAz     Phase      Date       Time     TRes  Azim  AzRes  Slow  SRes Def   SNR       Amp   Per   Mag1   Mag2       ID
MBDF  000.04 046.4 m E Pg      2011/01/17 06:23:25.9  -0.2                          T                                        4583438
MBDF  000.04 046.4 m E Sg      2011/01/17 06:23:26.9   0.1                          T               31.9  .20        Md 1.3  4583437
ORIF  000.64 290.1 m E Pg      2011/01/17 06:23:37.0   0.0                          T                                        4583706
ORIF  000.64 290.1 m E Sg      2011/01/17 06:23:45.0  -0.4                          T                1.3  .30                4583436
LPG   000.80 001.0 m E Pg      2011/01/17 06:23:40.0   0.0                          T                                        4583716
LPG   000.80 001.0 m E Sg      2011/01/17 06:23:50.6   0.2                          T                 .5  .22                4583709
SBF   000.98 148.6 m E Pg      2011/01/17 06:23:42.8  -0.3                          T                                        4583714
SBF   000.98 148.6 m E Sg      2011/01/17 06:23:55.8   0.0                          T                1.2  .27 Ml 1.4         4583713
SMRF  001.10 229.3 m E Pg      2011/01/17 06:23:45.5   0.1                          T                                        4583715
SMRF  001.10 229.3 m E Sg      2011/01/17 06:23:59.8   0.2                          T                 .3  .26 Ml 1           4583710
LPL   000.82 000.0 m E Sg      2011/01/17 06:23:50.9  -0.1                          T                 .7  .31                4583708
FRF   001.14 183.1 m E Sg      2011/01/17 06:24:00.8   0.0                          T                 .3  .19 Ml 1.1         4583711
LMR   001.38 186.8 m E Sg      2011/01/17 06:24:08.4   0.3                          T                 .4  .23 Ml 1.2         4583712
VIVF  001.47 276.8 m E Sg      2011/01/17 06:24:11.5   0.2                          T                 .4  .22 Ml 1.3         4583707

.
EVENT     253821
    Date      Time       Latitude Longitude    Depth    Ndef Nsta Gap    Mag1  N    Mag2  N    Mag3  N   Author         ID
       rms   OT_Error      Smajor Sminor Az        Err   mdist  Mdist     Err        Err        Err      Quality

2011/01/17 07:57:22.1     43.8333    8.4232     10.0 f    18    9 196  Ml 2.1  7  Md 2.1  1              js067245    253841

      0.75   +-  0.13       3.2    1.4   41.88 +-  0.0    0.72   2.12   +-0.3      +-                    m i ke

CORSICA, FRANCE
Sta     Dist  EvAz     Phase      Date       Time     TRes  Azim  AzRes  Slow  SRes Def   SNR       Amp   Per   Mag1   Mag2       ID
SBF   000.72 272.7 m E Pg      2011/01/17 07:57:35.7  -0.1                          T                                        4583764
SBF   000.72 272.7 m E Sg      2011/01/17 07:57:45.5   0.3                          T              128.9  .24        Md 2.1  4583462
FRF   001.32 258.7 m E Pn      2011/01/17 07:57:45.0   0.1                          T                                        4583762
FRF   001.32 258.7 m E Sg      2011/01/17 07:58:03.6  -0.1                          T                3.4  .16 Ml 2.3         4583761
LMR   001.48 250.9 m E Pn      2011/01/17 07:57:47.3   0.3                          T                                        4583763
LMR   001.48 250.9 m E Sn      2011/01/17 07:58:05.0  -0.3                          T                                        4583755
LMR   001.48 250.9 m E Sg      2011/01/17 07:58:08.8   0.1                          T                1.1  .14 Ml 1.9         4583754
PGF   001.35 161.6 m E P       2011/01/17 07:57:47.4   0.0                          T                                        4583756
PGF   001.35 161.6 m E Sn      2011/01/17 07:58:02.3  -0.1                          T                                        4583760
MBDF  001.49 307.6 m E Pg      2011/01/17 07:57:49.8  -0.2                          T                                        4583466
MBDF  001.49 307.6 m E Sg      2011/01/17 07:58:09.3   0.1                          T                5.0  .27 Ml 2.3         4583461
LPL   002.07 325.0 m E Sn      2011/01/17 07:58:19.9   0.1                          T                1.2  .25 Ml 1.9         4583451
LPG   002.05 324.9 m E Sg      2011/01/17 07:58:26.6  -0.3                          T                 .5  .20 Ml 1.6         4583452
SMRF  002.06 274.9 m E Sg      2011/01/17 07:58:27.1   0.1                          T                8.8  .34 Ml 2.6         4583453
ORIF  002.12 301.6 m E Sg      2011/01/17 07:58:29.0   0.0                          T                1.4  .28 Ml 1.9         4583450

.
EVENT     253902
    Date      Time       Latitude Longitude    Depth    Ndef Nsta Gap    Mag1  N    Mag2  N    Mag3  N   Author         ID
       rms   OT_Error      Smajor Sminor Az        Err   mdist  Mdist     Err        Err        Err      Quality

2011/01/17 14:31:48.6     43.1110    -.6380      2.0      40    9 070  Ml 2.4  7  Md 2.4  3              js067245    253922

      0.49   +-  0.07       1.7    1.1    4.37 +-  0.0    0.05   3.51   +-0.2      +-0.0                 m i ke

PYRENEES
Sta     Dist  EvAz     Phase      Date       Time     TRes  Azim  AzRes  Slow  SRes Def   SNR       Amp   Per   Mag1   Mag2       ID
ETSF  000.22 164.7 m E Pg      2011/01/17 14:31:52.0  -1.1                          T                                        4583556
ETSF  000.22 164.7 m E Sg      2011/01/17 14:31:54.2  -2.0                          T              335.2  .22        Md 2.4  4583552
SJPF  000.43 270.5 m E Pg      2011/01/17 14:31:56.6  -0.3                          T                                        4583555
SJPF  000.43 270.5 m E Sg      2011/01/17 14:32:02.4  -0.2                          T               49.6  .22        Md 2.4  4583553
EPF   000.72 096.1 m E Pg      2011/01/17 14:32:02.5   0.2                          T                                        4583554
EPF   000.72 096.1 m E Sg      2011/01/17 14:32:11.7   0.0                          T               21.1  .30        Md 2.3  4583551
MTLF  002.10 082.7 m E Pn      2011/01/17 14:32:22.4  -0.7                          T                                        4583557
MTLF  002.10 082.7 m E Pg      2011/01/17 14:32:26.8  -0.8                          T                                        4583550
MTLF  002.10 082.7 m E Sg      2011/01/17 14:32:53.8  -0.9                          T                3.0  .24 Ml 2.3         4583549
LFF   002.08 028.1 m E Pn      2011/01/17 14:32:23.1   0.4                          T                                        4583548
LFF   002.08 028.1 m E Sn      2011/01/17 14:32:47.7   0.0                          T               12.8  .52 Ml 2.4         4583541
CAF   002.66 046.1 m E Pn      2011/01/17 14:32:30.8   0.1                          T                                        4583547
CAF   002.66 046.1 m E Sn      2011/01/17 14:33:01.8   0.1                          T                2.7  .30 Ml 2.3         4583542
RJF   002.68 034.5 m E Pn      2011/01/17 14:32:31.2   0.2                          T                                        4583546
RJF   002.68 034.5 m E Sn      2011/01/17 14:33:02.1  -0.1                          T                8.2  .57 Ml 2.2         4583540
LASF  003.40 072.0 m E Pn      2011/01/17 14:32:41.0   0.2                          T                                        4583544
LASF  003.40 072.0 m E Sn      2011/01/17 14:33:19.6   0.2                          T                1.9  .46 Ml 2.1         4583543
MFF   003.51 005.6 m E Pn      2011/01/17 14:32:42.2   0.1                          T                                        4583545
MFF   003.51 005.6 m E Sn      2011/01/17 14:33:21.9   0.0                          T                2.5  .28 Ml 2.7         4583539

.
EVENT     253905
    Date      Time       Latitude Longitude    Depth    Ndef Nsta Gap    Mag1  N    Mag2  N    Mag3  N   Author         ID
       rms   OT_Error      Smajor Sminor Az        Err   mdist  Mdist     Err        Err        Err      Quality

2011/01/17 18:58:06.9     44.0845    8.1189      5.0 f    20    9 271  Ml 1.7  9  Md 1.7  3              js067245    253925

      0.18   +-  0.16       2.5    1.1  100.17 +-  0.0    0.54   2.58   +-0.3      +-0.1                 m i ke

NORTHERN ITALY
Sta     Dist  EvAz     Phase      Date       Time     TRes  Azim  AzRes  Slow  SRes Def   SNR       Amp   Per   Mag1   Mag2       ID
SBF   000.54 246.1 m E Pg      2011/01/17 18:58:17.4   0.1                          T                                        4583579
SBF   000.54 246.1 m E Sg      2011/01/17 18:58:24.5   0.1                          T                3.9  .20        Md 1.8  4583574
MBDF  001.16 304.1 m E Pg      2011/01/17 18:58:28.6  -0.2                          T                                        4583572
MBDF  001.16 304.1 m E Sg      2011/01/17 18:58:43.9   0.1                          T                 .6  .26 Ml 1.2 Md 1.7  4583573
FRF   001.19 244.3 m E Pg      2011/01/17 18:58:29.0  -0.1                          T                                        4583578
FRF   001.19 244.3 m E Sg      2011/01/17 18:58:44.4  -0.1                          T                5.8  .30 Ml 2.2 Md 1.6  4583575
LMR   001.39 237.8 m E Pg      2011/01/17 18:58:32.9   0.1                          T                                        4583577
LMR   001.39 237.8 m E Sg      2011/01/17 18:58:50.1  -0.6                          T                3.2  .38 Ml 1.9         4583576
LPG   001.72 325.9 m E Pg      2011/01/17 18:58:39.2   0.0                          T                                        4583570
LPG   001.72 325.9 m E Sg      2011/01/17 18:59:01.5   0.2                          T                 .5  .40 Ml 1.2         4583565
LPL   001.74 325.9 m E Pg      2011/01/17 18:58:39.6   0.0                          T                                        4583569
LPL   001.74 325.9 m E Sg      2011/01/17 18:59:02.0   0.1                          T                1.1  .53 Ml 1.4         4583566
ORIF  001.81 298.3 m E Pg      2011/01/17 18:58:40.8   0.2                          T                                        4583568
ORIF  001.81 298.3 m E Sg      2011/01/17 18:59:04.1   0.2                          T                2.5  .59 Ml 1.8         4583567
SMRF  001.84 267.5 m E Pg      2011/01/17 18:58:41.4   0.2                          T                                        4583571
SMRF  001.84 267.5 m E Sg      2011/01/17 18:59:04.9   0.0                          T                1.7  .40 Ml 1.8         4583564
VIVF  002.58 288.6 m E Pg      2011/01/17 18:58:54.6  -0.2                          T                                        4583563
VIVF  002.58 288.6 m E Sg      2011/01/17 18:59:27.9  -0.2                          T                 .8  .28 Ml 1.8         4583562

.
