EVENT     263715
    Date      Time       Latitude Longitude    Depth    Ndef Nsta Gap    Mag1  N    Mag2  N    Mag3  N   Author         ID
       rms   OT_Error      Smajor Sminor Az        Err   mdist  Mdist     Err        Err        Err      Quality

2011/09/08 23:33:31.3     44.6094   10.3598     20.0 f    32   12 066  Ml 2.8 10  Md 2.8  2              js067245    263715

      0.93   +-  0.19       4.5    3.6   57.57 +-  0.0    0.16   4.39   +-0.1      +-0.0                 m i ke

NORTHERN ITALY
Sta     Dist  EvAz     Phase      Date       Time     TRes  Azim  AzRes  Slow  SRes Def   SNR       Amp   Per   Mag1   Mag2       ID
SBF   002.23 251.5 m E Pn      2011/09/08 23:34:05.7   0.2                          T                                        4752591
SBF   002.23 251.5 m E Sn      2011/09/08 23:34:31.7   0.9                          T               35.4  .52 Ml 3.1         4760161
PGF   002.29 206.1 m E Pn      2011/09/08 23:34:07.1   0.7                          T                                        4752579
PGF   002.29 206.1 m E Sn      2011/09/08 23:34:32.9   0.7                          T                4.3  .29 Ml 2.7         4752580
MBDF  002.56 273.9 m E Pn      2011/09/08 23:34:10.4   0.3                          T                                        4760158
MBDF  002.56 273.9 m E Sn      2011/09/08 23:34:40.6   1.7                          T               19.7  .66 Ml 2.8         4760157
FRF   002.87 249.9 m E Pn      2011/09/08 23:34:14.4   0.1                          T                                        4752589
FRF   002.87 249.9 m E Sn      2011/09/08 23:34:47.3   1.2                          T                6.2  .32 Ml 2.7 Md 2.8  4752583
LPL   002.73 290.7 m E P       2011/09/08 23:34:16.0   0.7                          T                                        4752587
LPL   002.73 290.7 m E Sn      2011/09/08 23:34:44.8   1.9                          T               12.7  .52 Ml 2.8         4760160
LMR   003.06 246.7 m E Pn      2011/09/08 23:34:16.6  -0.1                          T                                        4752590
LMR   003.06 246.7 m E Sn      2011/09/08 23:34:50.7   0.3                          T                5.6  .35 Ml 2.7 Md 2.8  4752584
ORIF  003.21 277.1 m E Pn      2011/09/08 23:34:20.5   1.6                          T                                        4752586
ORIF  003.21 277.1 m E Sn      2011/09/08 23:34:55.6   1.4                          T               10.4  .60 Ml 2.7         4760159
CABF  003.60 305.2 m E Pn      2011/09/08 23:34:24.2  -0.1                          T                                        4760162
SMRF  003.49 261.2 m E Pn      2011/09/08 23:34:24.7   2.0                          T                                        4752585
HINF  004.03 324.1 m E Pn      2011/09/08 23:34:29.4  -0.6                          T                                        4760163
HINF  004.03 324.1 m E Sn      2011/09/08 23:35:13.6  -0.1                          T                3.3  .33 Ml 2.7         4760156
CDF   004.36 331.9 m E Pn      2011/09/08 23:34:33.3  -1.2                          T                                        4752582
CDF   004.36 331.9 m E Sn      2011/09/08 23:35:22.0   0.3                          T                1.7  .22 Ml 2.7         4752581
HAU   004.39 322.1 m E Pn      2011/09/08 23:34:34.5  -0.4                          T                                        4760164
HAU   004.39 322.1 m E Sn      2011/09/08 23:35:21.7  -0.6                          T                5.3  .35 Ml 2.7         4760155

.
EVENT     263716
    Date      Time       Latitude Longitude    Depth    Ndef Nsta Gap    Mag1  N    Mag2  N    Mag3  N   Author         ID
       rms   OT_Error      Smajor Sminor Az        Err   mdist  Mdist     Err        Err        Err      Quality

2011/09/08 23:57:37.1     46.3998    2.6747      2.0      31   12 081  Ml 2.0  8  Md 2.0  3              js067245    263716

      1.81   +-  0.14       3.4    2.2  138.70 +-  0.0    0.20   2.09   +-0.2      +-0.2                 m i ke

FRANCE
Sta     Dist  EvAz     Phase      Date       Time     TRes  Azim  AzRes  Slow  SRes Def   SNR       Amp   Per   Mag1   Mag2       ID
BGF   000.20 036.8 m E Pg      2011/09/08 23:57:41.1   0.0                          T                                        4752600
BGF   000.20 036.8 m E Sg      2011/09/08 23:57:44.2   0.4                          T               22.6  .23        Md 2.2  4752596
TCF   000.34 251.0 m E Pg      2011/09/08 23:57:43.9   0.2                          T                                        4752602
TCF   000.34 251.0 m E Sg      2011/09/08 23:57:48.9   0.6                          T                                        4752601
TCF   000.34 251.0 m E Sn      2011/09/08 23:57:51.3   3.0                          T                                        4760175
AVF   000.61 049.9 m E Pg      2011/09/08 23:57:48.6   0.0                          T   001.0                                4746968
AVF   000.61 049.9 m E Sg      2011/09/08 23:57:56.7   0.1                          T   001.0        4.3  .28        Md 1.8  4746969
AVF   000.61 049.9 m E Sn      2011/09/08 23:58:00.9  -0.1                          T                1.7  .16                4752594
HYF   000.87 358.4 m E Pg      2011/09/08 23:57:52.0  -1.4                          T                                        4752598
HYF   000.87 358.4 m E Sn      2011/09/08 23:58:07.9   0.7                          T                                        4752597
SMF   000.84 072.6 m E Pg      2011/09/08 23:57:53.1   0.2                          T   001.0                                4746979
SMF   000.84 072.6 m E Sg      2011/09/08 23:58:04.5   0.6                          T   001.0        1.9  .20                4746980
SMF   000.84 072.6 m E Sn      2011/09/08 23:58:06.7   0.1                          T               10.7  .21                4752593
SSF   000.87 040.5 m E Pg      2011/09/08 23:57:53.5   0.0                          T   001.0                                4746981
SSF   000.87 040.5 m E Sg      2011/09/08 23:58:05.1   0.2                          T   001.0        3.7  .19 Ml 2.1         4746983
LOR   001.19 042.7 m E Pg      2011/09/08 23:57:59.3  -0.1 228.0  4.5               T   001.0                                4746974
LOR   001.19 042.7 m E Sg      2011/09/08 23:58:14.5  -0.3 200.1  -23.4             T   001.0        6.9  .28 Ml 2.3         4746976
RJF   001.36 216.9 m E Pg      2011/09/08 23:58:02.7   0.1                          T   001.0                                4746965
RJF   001.36 216.9 m E Sg      2011/09/08 23:58:20.1  -0.1                          T   001.0        2.7  .24 Ml 1.7         4746967
CAF   001.54 196.4 m E Pn      2011/09/08 23:58:04.0   0.2                          T                                        4760174
CAF   001.54 196.4 m E Pg      2011/09/08 23:58:05.6  -0.1                          T   001.0                                4746970
CAF   001.54 196.4 m E Sg      2011/09/08 23:58:25.3  -0.2                          T   001.0        1.9  .19 Ml 2.1         4746971
LFF   001.99 223.6 m E Pg      2011/09/08 23:58:13.2  -0.9                          T   001.0                                4746972
LFF   001.99 223.6 m E Sg      2011/09/08 23:58:37.4  -2.4                          T   001.0          2  .32 Ml 1.8         4746973
MFF   001.96 277.0 m E Pg      2011/09/08 23:58:13.5   0.0                          T   001.0                                4746977
MFF   001.96 277.0 m E Sn      2011/09/08 23:58:33.0  -0.2                          T   001.0         .5  .16 Ml 1.9         4746978
MFF   001.96 277.0 m E Sg      2011/09/08 23:58:38.4  -0.3                          T                1.5  .23 Ml 2.2         4752592
VIVF  002.09 137.0 m E Pg      2011/09/08 23:58:16.3   0.4                          T   001.0                                4746984
VIVF  002.09 137.0 m E Sg      2011/09/08 23:58:42.9   0.2                          T   001.0        1.1  .28 Ml 1.8         4746985

.
EVENT     263717
    Date      Time       Latitude Longitude    Depth    Ndef Nsta Gap    Mag1  N    Mag2  N    Mag3  N   Author         ID
       rms   OT_Error      Smajor Sminor Az        Err   mdist  Mdist     Err        Err        Err      Quality

2011/09/09 00:57:15.2     42.9130   11.4953      2.0      24   13 286  Ml 2.8  6  Md 2.7  3              js067245    263717

      0.41   +-  0.47       9.8    5.3  116.01 +-  0.0    1.87   7.16   +-0.2      +-0.2                 m i ke

CENTRAL ITALY
Sta     Dist  EvAz     Phase      Date       Time     TRes  Azim  AzRes  Slow  SRes Def   SNR       Amp   Per   Mag1   Mag2       ID
PGF   001.87 259.6 m E Pn      2011/09/09 00:57:46.8   0.1                          T                                        4752618
PGF   001.87 259.6 m E P       2011/09/09 00:57:48.5  -0.3                          T                                        4752603
PGF   001.87 259.6 m E Sn      2011/09/09 00:58:08.5  -1.1                          T               17.9  .33 Ml 3.1 Md 2.5  4752613
SBF   003.11 289.2 m E Pn      2011/09/09 00:58:03.4  -0.1                          T                                        4752614
SBF   003.11 289.2 m E Sn      2011/09/09 00:58:39.0   0.1                          T                5.2  .35 Ml 2.6 Md 2.7  4752612
FRF   003.60 282.0 m E Pn      2011/09/09 00:58:09.8  -0.3                          T                                        4752617
FRF   003.60 282.0 m E Sn      2011/09/09 00:58:50.1  -0.6                          T                2.7  .27 Ml 2.6         4752607
LMR   003.67 278.3 m E Pn      2011/09/09 00:58:10.1  -1.0                          T                                        4752616
LMR   003.67 278.3 m E Sn      2011/09/09 00:58:50.8  -1.6                          T                2.7  .30 Ml 2.5 Md 2.8  4752615
MBDF  003.87 299.6 m E Pn      2011/09/09 00:58:13.9  -0.1                          T                                        4760199
LPG   004.28 308.8 m E Pn      2011/09/09 00:58:19.5  -0.1                          T                                        4752608
LPG   004.28 308.8 m E P       2011/09/09 00:58:23.7   0.4                          T                                        4760196
LPL   004.30 308.9 m E Pn      2011/09/09 00:58:20.1   0.2                          T                                        4752609
LPL   004.30 308.9 m E P       2011/09/09 00:58:23.8   0.3                          T                                        4760195
SMRF  004.44 285.9 m E Pn      2011/09/09 00:58:21.5   0.0                          T                                        4752611
SMRF  004.44 285.9 m E P       2011/09/09 00:58:25.5   0.2                          T                                        4760197
ORIF  004.52 298.2 m E Pn      2011/09/09 00:58:22.2  -0.6                          T                                        4752610
ORIF  004.52 298.2 m E P       2011/09/09 00:58:26.7   0.1                          T                                        4760194
ORIF  004.52 298.2 m E Sn      2011/09/09 00:59:13.9   1.0                          T                5.4  .58 Ml 2.7         4760198
LASF  005.68 284.4 m E Pn      2011/09/09 00:58:38.8   0.5                          T                                        4760200
CDF   006.24 333.2 m E Pn      2011/09/09 00:58:45.8  -0.4                          T                                        4760201
CDF   006.24 333.2 m E Sn      2011/09/09 00:59:52.8  -1.1                          T                3.3  .58 Ml 3.0         4760191
CAF   007.10 289.7 m E Pn      2011/09/09 00:58:58.3   0.5                          T                                        4760193
BGF   007.16 303.6 m E Pn      2011/09/09 00:58:58.5   0.1                          T                                        4760192

.
EVENT     263719
    Date      Time       Latitude Longitude    Depth    Ndef Nsta Gap    Mag1  N    Mag2  N    Mag3  N   Author         ID
       rms   OT_Error      Smajor Sminor Az        Err   mdist  Mdist     Err        Err        Err      Quality

2011/09/09 01:11:59.5     46.3875    2.6963      2.0 f    18    9 103  Ml 1.5  4  Md 1.7  3              js067245    263719

      0.19   +-  0.05       1.6     .7  126.89 +-  0.0    0.20   1.53   +-0.3      +-0.1                 m i ke

FRANCE
Sta     Dist  EvAz     Phase      Date       Time     TRes  Azim  AzRes  Slow  SRes Def   SNR       Amp   Per   Mag1   Mag2       ID
BGF   000.20 031.3 m E Pg      2011/09/09 01:12:03.5   0.0                          T                                        4752624
BGF   000.20 031.3 m E Sg      2011/09/09 01:12:06.4   0.1                          T                4.8  .22        Md 1.6  4752623
TCF   000.35 253.7 m E Pg      2011/09/09 01:12:06.3   0.0                          T                                        4760211
TCF   000.35 253.7 m E Sg      2011/09/09 01:12:11.2   0.2                          T                1.7  .19                4760213
TCF   000.35 253.7 m E Sn      2011/09/09 01:12:13.7   2.6                          T                                Md 1.8  4760212
AVF   000.61 048.1 m E Pg      2011/09/09 01:12:10.8  -0.1                          T                                        4752620
AVF   000.61 048.1 m E Sg      2011/09/09 01:12:18.9  -0.1                          T                1.3  .30                4752619
SMF   000.83 071.5 m E Pg      2011/09/09 01:12:15.5   0.4                          T                                        4752621
SMF   000.83 071.5 m E Sn      2011/09/09 01:12:29.0   0.3                          T                2.8  .23                4752622
SSF   000.87 039.3 m E Pg      2011/09/09 01:12:15.8  -0.1                          T                                        4760209
SSF   000.87 039.3 m E Sg      2011/09/09 01:12:27.4   0.1                          T                1.1  .21 Ml 1.6         4760210
LOR   001.19 041.8 m E Pg      2011/09/09 01:12:21.6  -0.2                          T                                        4760207
LOR   001.19 041.8 m E Sg      2011/09/09 01:12:36.8  -0.3                          T                1.2  .22 Ml 1.7         4760208
RJF   001.36 217.7 m E Pg      2011/09/09 01:12:25.0   0.1                          T                                        4760202
RJF   001.36 217.7 m E Sg      2011/09/09 01:12:42.3  -0.3                          T                 .7  .25 Ml 1.1         4760205
CAF   001.53 197.1 m E Pg      2011/09/09 01:12:28.0   0.0                          T                                        4760203
CAF   001.53 197.1 m E Sg      2011/09/09 01:12:47.6  -0.1                          T                 .9  .20 Ml 1.7         4760204
HYF   000.88 357.5 m E Sn      2011/09/09 01:12:30.4   0.5                          T                                        4760206

.
EVENT     263720
    Date      Time       Latitude Longitude    Depth    Ndef Nsta Gap    Mag1  N    Mag2  N    Mag3  N   Author         ID
       rms   OT_Error      Smajor Sminor Az        Err   mdist  Mdist     Err        Err        Err      Quality

2011/09/09 01:18:45.5     43.0427     .1493     15.0      19    4 146  Ml 1.2  2  Md 1.4  2              js067245    263720

      0.44   +-  0.09       3.0    1.2    9.78 +-  0.0    0.14   1.54   +-0.2      +-0.1                 m i ke

FRANCE
Sta     Dist  EvAz     Phase      Date       Time     TRes  Azim  AzRes  Slow  SRes Def   SNR       Amp   Per   Mag1   Mag2       ID
EPF   000.14 095.0 m E Pg      2011/09/09 01:18:49.2  -0.3                          T                                        4752632
EPF   000.14 095.0 m E Sg      2011/09/09 01:18:51.9  -0.3                          T               10.4  .19        Md 1.4  4752630
ETSF  000.54 254.8 m E Pg      2011/09/09 01:18:56.1  -0.1                          T                                        4752631
ETSF  000.54 254.8 m E Sg      2011/09/09 01:19:03.4  -0.1                          T                2.5  .21        Md 1.4  4752629
MTLF  001.54 078.1 m E Pg      2011/09/09 01:19:14.7   0.3                          T                                        4752627
MTLF  001.54 078.1 m E Sg      2011/09/09 01:19:34.4   0.0                          T                 .4  .24 Ml 1.3         4752628
SJPF  001.01 274.5 m E Sg      2011/09/09 01:19:17.7  -0.2                          T                 .4  .26 Ml 1.0         4760218

.
EVENT     263718
    Date      Time       Latitude Longitude    Depth    Ndef Nsta Gap    Mag1  N    Mag2  N    Mag3  N   Author         ID
       rms   OT_Error      Smajor Sminor Az        Err   mdist  Mdist     Err        Err        Err      Quality

2011/09/09 01:25:19.6     44.6394   10.5022     16.9      34   13 073  Ml 3.2  3  Md 2.8  2              js067245    263718

      1.01   +-  0.23       4.7    4.2  125.89 +-  2.3    0.18   6.06   +-0.1      +-0.0                 m i ke

NORTHERN ITALY
Sta     Dist  EvAz     Phase      Date       Time     TRes  Azim  AzRes  Slow  SRes Def   SNR       Amp   Per   Mag1   Mag2       ID
SBF   002.34 251.7 m E Pn      2011/09/09 01:25:55.1  -0.6                          T                                        4752649
SBF   002.34 251.7 m E Sn      2011/09/09 01:26:25.2   3.0                          T               31.4  .31 Ml 3.3 Md 2.8  4752643
PGF   002.36 208.1 m E Pn      2011/09/09 01:25:56.4   0.3                          T                                        4752645
PGF   002.36 208.1 m E P       2011/09/09 01:25:59.0   0.4                          T                                        4752633
FRF   002.98 250.1 m E Pn      2011/09/09 01:26:03.8  -0.5                          T                                        4752650
FRF   002.98 250.1 m E Sn      2011/09/09 01:26:37.5   0.0                          T               10.3  .26 Ml 3.1         4752644
LMR   003.16 247.0 m E Pn      2011/09/09 01:26:05.8  -1.0                          T                                        4752651
LMR   003.16 247.0 m E Sn      2011/09/09 01:26:40.6  -1.3                          T               20.0  .33 Ml 3.3 Md 2.8  4752648
ORIF  003.30 276.5 m E Pn      2011/09/09 01:26:10.6   1.8                          T                                        4752647
SMRF  003.60 261.1 m E Pn      2011/09/09 01:26:13.9   1.1                          T                                        4752646
CABF  003.67 304.0 m E Pn      2011/09/09 01:26:14.8   0.9                          T                                        4752636
HINF  004.06 322.7 m E Pn      2011/09/09 01:26:19.1   0.0                          T                                        4752639
CDF   004.38 330.6 m E Pn      2011/09/09 01:26:23.5   0.0                          T                                        4752642
CDF   004.38 330.6 m E Sn      2011/09/09 01:27:12.1   1.0                          T                                        4752641
HAU   004.43 321.0 m E Pn      2011/09/09 01:26:24.3   0.2                          T                                        4752640
HAU   004.43 321.0 m E Sn      2011/09/09 01:27:12.9   0.8                          T                                        4752637
BGF   005.70 292.3 m E Pn      2011/09/09 01:26:41.7   0.2                          T                                        4752638
LOR   005.33 301.9 m E Sn      2011/09/09 01:27:34.3   0.7                          T                                        4752635
TCF   006.06 288.7 m E Sn      2011/09/09 01:27:52.0   0.8                          T                                        4752634

.
