EVENT     270622
    Date      Time       Latitude Longitude    Depth    Ndef Nsta Gap    Mag1  N    Mag2  N    Mag3  N   Author         ID
       rms   OT_Error      Smajor Sminor Az        Err   mdist  Mdist     Err        Err        Err      Quality

2012/02/24 05:40:42.0     49.9044    8.6332      7.0 f    37   15 116  Ml 2.5 10  Md 3.2  1              js067245    270643

      0.80   +-  0.11       2.0    1.5   62.70 +-  0.0    0.32   7.53   +-0.4      +-                    m i ke

GERMANY
Sta     Dist  EvAz     Phase      Date       Time     TRes  Azim  AzRes  Slow  SRes Def   SNR       Amp   Per   Mag1   Mag2       ID
LANF  001.07 210.6 m E Pg      2012/02/24 05:41:01.9  -0.2                          T                                        4847205
LANF  001.07 210.6 m E Sg      2012/02/24 05:41:16.0  -0.1                          T                                Md 3.2  4847206
CDF   001.74 211.3 m E Pn      2012/02/24 05:41:11.0  -0.1                          T   001.0                                4846866
CDF   001.74 211.3 m E Pg      2012/02/24 05:41:14.1  -0.4                          T   001.0                                4846867
CDF   001.74 211.3 m E Sn      2012/02/24 05:41:31.6  -0.5                          T   001.0                                4846868
CDF   001.74 211.3 m E Sg      2012/02/24 05:41:36.7  -0.3                          T   001.0        5.6  .20 Ml 2.7         4846869
HAU   002.42 219.3 m E Pn      2012/02/24 05:41:18.8  -1.5                          T   001.0                                4846870
HAU   002.42 219.3 m E Pg      2012/02/24 05:41:26.5  -0.6                          T                                        4847200
HAU   002.42 219.3 m E Sg      2012/02/24 05:41:58.3   0.0                          T   001.0        4.5  .20 Ml 2.4         4846871
PAGF  002.34 235.8 m E Pn      2012/02/24 05:41:19.0   0.0  64.5  10.9              T                                        4847202
PAGF  002.34 235.8 m E Pg      2012/02/24 05:41:25.3  -0.1                          T                                        4847201
PAGF  002.34 235.8 m E Sg      2012/02/24 05:41:55.6   0.1                          T                  1  .31 Ml 1.8         4847195
THEF  002.41 227.0 m E Pn      2012/02/24 05:41:19.5  -0.7                          T                                        4847204
THEF  002.41 227.0 m E Pg      2012/02/24 05:41:26.8  -0.1                          T                                        4847203
THEF  002.41 227.0 m E Sg      2012/02/24 05:41:57.9   0.0                          T                5.8  .21 Ml 2.7         4847197
HINF  002.40 210.0 m E Pg      2012/02/24 05:41:25.8  -0.8                          T   001.0                                4846861
HINF  002.40 210.0 m E Sn      2012/02/24 05:41:46.7  -1.1                          T   001.0                                4846862
HINF  002.40 210.0 m E Sg      2012/02/24 05:41:57.3  -0.1                          T   001.0          6  .28 Ml 2.6         4846863
BAIF  002.86 274.8 m E Pg      2012/02/24 05:41:34.8  -0.2                          T                                        4847207
BAIF  002.86 274.8 m E Sg      2012/02/24 05:42:11.3  -0.5                          T   001.0        2.5  .24 Ml 2.4         4846859
CABF  003.71 208.3 m E P       2012/02/24 05:41:41.2   0.0                          T                                        4847199
CABF  003.71 208.3 m E Pg      2012/02/24 05:41:50.4  -0.4                          T                                        4847198
LOR   004.12 232.0 m E Pn      2012/02/24 05:41:42.7  -0.7  54.1  5.7               T   001.0                                4846872
LOR   004.12 232.0 m E Sg      2012/02/24 05:42:53.4   2.2  38.8  -9.6              T   001.0        1.5  .32 Ml 2.4         4846873
SSF   004.44 232.1 m E Pn      2012/02/24 05:41:45.7  -2.0                          T   001.0                                4846858
SMF   004.57 226.3 m E Pn      2012/02/24 05:41:48.2  -1.3                          T   001.0                                4846874
BGF   005.11 231.3 m E Pn      2012/02/24 05:41:56.3  -0.6                          T   001.0                                4846865
GIVF  002.47 276.1 m E Sg      2012/02/24 05:41:58.8  -0.7                          T   001.0        4.5  .20 Ml 2.7         4846860
SFTF  002.91 235.6 m E Sg      2012/02/24 05:42:13.7   0.2                          T                2.0  .22 Ml 2.4         4847196
SGMF  007.53 261.6 m E Sg      2012/02/24 05:44:38.8   1.2                          T   001.0        6.1  .84 Ml 3.2         4846864

.
EVENT     270635
    Date      Time       Latitude Longitude    Depth    Ndef Nsta Gap    Mag1  N    Mag2  N    Mag3  N   Author         ID
       rms   OT_Error      Smajor Sminor Az        Err   mdist  Mdist     Err        Err        Err      Quality

2012/02/24 06:59:55.2     44.9803    7.0274      2.0      47    9 087  Ml 2.0  5  Md 2.2  3              js067245    270656

      0.33   +-  0.05       1.1     .8   95.60 +-  0.0    0.22   1.69   +-0.2      +-0.1                 m i ke

NORTHERN ITALY
Sta     Dist  EvAz     Phase      Date       Time     TRes  Azim  AzRes  Slow  SRes Def   SNR       Amp   Per   Mag1   Mag2       ID
MBDF  000.31 215.8 m E Pg      2012/02/24 07:00:01.6   0.2                          T                                        4847228
MBDF  000.31 215.8 m E Sg      2012/02/24 07:00:05.4  -0.2                          T               49.1  .28        Md 2.2  4847211
LPG   000.55 339.4 m E Pg      2012/02/24 07:00:06.2   0.1                          T                                        4847225
LPG   000.55 339.4 m E Sg      2012/02/24 07:00:13.1  -0.2                          T               17.9  .24        Md 2.3  4847214
LPL   000.58 338.9 m E Pg      2012/02/24 07:00:06.6   0.2                          T                                        4847226
LPL   000.58 338.9 m E Sg      2012/02/24 07:00:13.6  -0.3                          T               22.2  .28        Md 2.1  4847213
ORIF  000.82 266.1 m E Pg      2012/02/24 07:00:10.8   0.1                          T                                        4847227
ORIF  000.82 266.1 m E Sg      2012/02/24 07:00:21.0  -0.3                          T                9.9  .22                4847212
SBF   001.15 165.2 m E Pg      2012/02/24 07:00:16.7  -0.2                          T                                        4847219
SBF   001.15 165.2 m E Sg      2012/02/24 07:00:31.5  -0.3                          T                5.5  .27 Ml 2.2         4847218
FRF   001.45 191.0 m E Pn      2012/02/24 07:00:20.7   0.0                          T                                        4847222
FRF   001.45 191.0 m E Pg      2012/02/24 07:00:22.4   0.2                          T                                        4847221
FRF   001.45 191.0 m E Sg      2012/02/24 07:00:40.6  -0.2                          T                2.9  .22 Ml 2.2         4847216
SMRF  001.45 226.5 m E Pg      2012/02/24 07:00:22.3   0.1                          T                                        4847223
SMRF  001.45 226.5 m E Sg      2012/02/24 07:00:40.8  -0.1                          T                1.3  .28 Ml 1.7         4847215
LMR   001.69 192.9 m E Pg      2012/02/24 07:00:26.6   0.0                          T                                        4847220
LMR   001.69 192.9 m E Sg      2012/02/24 07:00:48.5   0.2                          T                2.7  .27 Ml 2.1         4847217
VIVF  001.68 266.6 m E Pg      2012/02/24 07:00:26.6   0.1                          T                                        4847224
VIVF  001.68 266.6 m E Sg      2012/02/24 07:00:48.3   0.2                          T                2.1  .36 Ml 1.9         4847210

.
EVENT     270677
    Date      Time       Latitude Longitude    Depth    Ndef Nsta Gap    Mag1  N    Mag2  N    Mag3  N   Author         ID
       rms   OT_Error      Smajor Sminor Az        Err   mdist  Mdist     Err        Err        Err      Quality

2012/02/24 16:34:15.1     44.8606   10.5483     30.0      66   13 060                                    js067245    270698

                                               +-         0.13   5.24                                    m i ke

NORTHERN ITALY
Sta     Dist  EvAz     Phase      Date       Time     TRes  Azim  AzRes  Slow  SRes Def   SNR       Amp   Per   Mag1   Mag2       ID
SBF   002.45 247.0 m E Pn      2012/02/24 16:34:51.6  -0.2                          T                                        4853329
SBF   002.45 247.0 m E P       2012/02/24 16:34:53.8  -0.1                          T                                        4853330
SBF   002.45 247.0 m E Sn      2012/02/24 16:35:18.9   0.0                          T               15.9  .26                4853326
PGF   002.57 206.5 m E Pn      2012/02/24 16:34:53.5   0.0                          T                                        4853328
PGF   002.57 206.5 m E Sn      2012/02/24 16:35:22.1   0.2                          T               12.3  .26                4853327
MBDF  002.69 268.5 m E Pn      2012/02/24 16:34:54.7  -0.4                          T                                        4853338
MBDF  002.69 268.5 m E Sn      2012/02/24 16:35:25.1   0.2                          T                3.8  .32                4853320
LPG   002.76 284.7 m E Pn      2012/02/24 16:34:55.7  -0.6                          T                                        4853333
LPG   002.76 284.7 m E P       2012/02/24 16:34:58.1  -0.5                          T                                        4853334
LPG   002.76 284.7 m E Sn      2012/02/24 16:35:27.6   1.0                          T                8.4  .56                4853323
LPL   002.78 285.0 m E Pn      2012/02/24 16:34:56.3  -0.2                          T                                        4853335
LPL   002.78 285.0 m E P       2012/02/24 16:34:59.4   0.6                          T                                        4853336
LPL   002.78 285.0 m E Sn      2012/02/24 16:35:27.3   0.3                          T                7.0  .52                4853322
FRF   003.09 246.5 m E P       2012/02/24 16:35:02.8  -0.3                          T                                        4853332
FRF   003.09 246.5 m E Sn      2012/02/24 16:35:33.8  -0.4                          T                6.9  .24                4853324
LMR   003.29 243.7 m E Pn      2012/02/24 16:35:03.2   0.1                          T                                        4853331
LMR   003.29 243.7 m E Sn      2012/02/24 16:35:38.8   0.0                          T                7.9  .26                4853325
ORIF  003.32 272.6 m E Pn      2012/02/24 16:35:04.6   1.0                          T                                        4853337
ORIF  003.32 272.6 m E Sn      2012/02/24 16:35:39.9   0.1                          T                3.6  .39                4853321
CABF  003.58 300.8 m E Pn      2012/02/24 16:35:06.9  -0.3                          T                                        4853341
CABF  003.58 300.8 m E Sn      2012/02/24 16:35:46.0   0.0                          T                2.7  .30                4853317
VIVF  004.18 272.0 m E Pn      2012/02/24 16:35:15.7   0.4                          T                                        4853339
VIVF  004.18 272.0 m E Sn      2012/02/24 16:36:00.3   0.1                          T                1.1  .27                4853319
HAU   004.28 318.8 m E Pn      2012/02/24 16:35:15.9  -0.8                          T                                        4853342
HAU   004.28 318.8 m E Sn      2012/02/24 16:36:02.4  -0.2                          T                5.5  .22                4853318
SMF   005.02 293.2 m E Pn      2012/02/24 16:35:26.5  -0.2                          T                                        4853340
LOR   005.24 299.7 m E Sn      2012/02/24 16:36:25.9   0.4                          T                3.9  .26                4853316

.
EVENT     270678
    Date      Time       Latitude Longitude    Depth    Ndef Nsta Gap    Mag1  N    Mag2  N    Mag3  N   Author         ID
       rms   OT_Error      Smajor Sminor Az        Err   mdist  Mdist     Err        Err        Err      Quality

2012/02/24 17:31:36.7     42.4844   19.2006     15.0 f   193   10 033  Ml 3.7  5                         js067245    270699

      0.94   +-  0.07       2.0    1.6     .08 +-  0.0    0.07 102.42   +-0.2                            m i ke

NORTHWESTERN BALKAN PEN.
Sta     Dist  EvAz     Phase      Date       Time     TRes  Azim  AzRes  Slow  SRes Def   SNR       Amp   Per   Mag1   Mag2       ID
PGF   007.54 273.9 m E P       2012/02/24 17:33:28.2  -0.9                          T                                        4853348
PGF   007.54 273.9 m E Sn      2012/02/24 17:34:43.5  -0.5                          T                5.1  .62 Ml 3.5         4853347
SBF   008.71 283.1 m E Pn      2012/02/24 17:33:39.8   0.1                          T                                        4853349
SBF   008.71 283.1 m E Sn      2012/02/24 17:35:12.0   0.1                          T                5.0  .44 Ml 3.6         4853346
MBDF  009.29 288.2 m E Pn      2012/02/24 17:33:47.1  -0.6                          T                                        4853354
MBDF  009.29 288.2 m E P       2012/02/24 17:33:54.1   0.5                          T                                        4853355
MBDF  009.29 288.2 m E Sn      2012/02/24 17:35:25.8  -0.2                          T                9.0  .74 Ml 3.7         4853343
FRF   009.26 280.9 m E Pn      2012/02/24 17:33:48.5   1.4                          T                                        4853350
LPG   009.47 292.8 m E P       2012/02/24 17:33:56.1   0.0                          T                                        4853351
LPG   009.47 292.8 m E Sn      2012/02/24 17:35:30.9   0.7                          T               10.9  .62 Ml 3.9         4853345
LPL   009.48 292.9 m E P       2012/02/24 17:33:56.8   0.6                          T                                        4853352
LPL   009.48 292.9 m E Sn      2012/02/24 17:35:30.7   0.1                          T                8.4  .54 Ml 3.8         4853344
CABF  010.23 298.3 m E Pn      2012/02/24 17:34:00.3  -0.1                          T                                        4853357
ORIF  009.95 288.7 m E P       2012/02/24 17:34:01.8  -0.7                          T                                        4853353
VIVF  010.79 287.6 m E Pn      2012/02/24 17:34:08.2   0.2                          T                                        4853358
THEF  010.92 306.2 m E Pn      2012/02/24 17:34:09.8   0.0                          T                                        4853356

.
