EVENT     281822
    Date      Time       Latitude Longitude    Depth    Ndef Nsta Gap    Mag1  N    Mag2  N    Mag3  N   Author         ID
       rms   OT_Error      Smajor Sminor Az        Err   mdist  Mdist     Err        Err        Err      Quality

2012/08/23 12:19:06.8     42.8833    -.0302      2.0      10    5 198  Ml 1.5  3  Md 1.6  2              bulletin    281922
                                                                                                         _ldg
      0.25   +-  0.14       5.1    1.4  171.07 +-  0.0    0.31   2.13   +-0.4      +-0.1                 m i ke

PYRENEES
Sta     Dist  EvAz     Phase      Date       Time     TRes  Azim  AzRes  Slow  SRes Def   SNR       Amp   Per   Mag1   Mag2       ID
EPF   000.31 061.5 m E Pg      2012/08/23 12:19:12.7  -0.2                          T                                        5052535
EPF   000.31 061.5 m E Sg      2012/08/23 12:19:17.2   0.1                          T                2.1  .15        Md 1.7  5052534
ETSF  000.39 272.4 m E Pg      2012/08/23 12:19:14.4   0.0                          T                                        5052533
ETSF  000.39 272.4 m E Sg      2012/08/23 12:19:19.2  -0.4                          T                5.3  .25        Md 1.5  5052532
SJPF  000.91 285.1 m E Pg      2012/08/23 12:19:24.1   0.2                          T                                        5052537
SJPF  000.91 285.1 m E Sg      2012/08/23 12:19:35.3  -0.3                          T                 .4  .15 Ml 1.2         5052536
MTLF  001.71 073.7 m E Pn      2012/08/23 12:19:36.0   0.1                          T                                        5052557
MTLF  001.71 073.7 m E Sn      2012/08/23 12:19:56.3  -0.7                          T                 .5  .24 Ml 1.5         5052556
LFF   002.13 014.9 m E Pn      2012/08/23 12:19:41.4  -0.2                          T                                        5052559
LFF   002.13 014.9 m E Sn      2012/08/23 12:20:07.1   0.0                          T                2.4  .31 Ml 1.9         5052558

.
EVENT     281760
    Date      Time       Latitude Longitude    Depth    Ndef Nsta Gap    Mag1  N    Mag2  N    Mag3  N   Author         ID
       rms   OT_Error      Smajor Sminor Az        Err   mdist  Mdist     Err        Err        Err      Quality

2012/08/23 12:29:03.8     44.4903    6.7154      2.0      30    8 051  Ml 2.0  5  Md 2.1  3              bulletin    281860
                                                                                                         _ldg
      0.45   +-  0.08       1.6    1.3   61.91 +-  0.0    0.07   1.50   +-0.0      +-0.1                 m i ke

FRANCE
Sta     Dist  EvAz     Phase      Date       Time     TRes  Azim  AzRes  Slow  SRes Def   SNR       Amp   Per   Mag1   Mag2       ID
MBDF  000.24 009.6 m E Pg      2012/08/23 12:29:08.7  -0.1                          T                                        5051960
MBDF  000.24 009.6 m E Sg      2012/08/23 12:29:11.8  -0.2                          T                                Md 2.0  5051962
ORIF  000.73 306.0 m E Pg      2012/08/23 12:29:17.2  -0.6                          T                                        5051959
ORIF  000.73 306.0 m E Sg      2012/08/23 12:29:27.2  -0.1                          T                                Md 2.0  5051961
SBF   000.81 140.2 m E Pg      2012/08/23 12:29:19.3   0.1                          T                                        5051956
SBF   000.81 140.2 m E Sg      2012/08/23 12:29:30.4   0.6                          T                3.8  .20                5051978
FRF   000.93 183.1 m E Pg      2012/08/23 12:29:21.2   0.0                          T                                        5051977
FRF   000.93 183.1 m E Sg      2012/08/23 12:29:33.6   0.2                          T                2.8  .16 Ml 2.1         5051980
SMRF  000.97 238.3 m E Pg      2012/08/23 12:29:22.5   0.5                          T                                        5051958
SMRF  000.97 238.3 m E Sg      2012/08/23 12:29:35.2   0.6                          T                4.0  .26 Ml 2.0         5051981
LPL   001.03 000.7 m E Pg      2012/08/23 12:29:23.7   0.4                          T                                        5051955
LPL   001.03 000.7 m E Sg      2012/08/23 12:29:36.1  -0.6                          T                4.6  .35 Ml 1.9         5052002
LMR   001.17 187.4 m E Pg      2012/08/23 12:29:26.2   0.6                          T                                        5051957
LMR   001.17 187.4 m E Sg      2012/08/23 12:29:41.1   0.4                          T                2.3  .19 Ml 2.0 Md 2.2  5051979
VIVF  001.50 284.8 m E Pn      2012/08/23 12:29:30.2   0.1                          T                                        5052004
VIVF  001.50 284.8 m E Sg      2012/08/23 12:29:51.0  -0.3                          T                2.7  .33 Ml 2.0         5052003

.
EVENT     281823
    Date      Time       Latitude Longitude    Depth    Ndef Nsta Gap    Mag1  N    Mag2  N    Mag3  N   Author         ID
       rms   OT_Error      Smajor Sminor Az        Err   mdist  Mdist     Err        Err        Err      Quality

2012/08/23 12:46:16.4     42.8787    -.0947      3.0 f    10    5 199  Ml 1.5  3  Md 1.5  2              bulletin    281923
                                                                                                         _ldg
      0.11   +-  0.07       2.5     .7  172.47 +-  0.0    0.34   2.15   +-0.5      +-0.2                 m i ke

PYRENEES
Sta     Dist  EvAz     Phase      Date       Time     TRes  Azim  AzRes  Slow  SRes Def   SNR       Amp   Per   Mag1   Mag2       ID
ETSF  000.34 273.5 m E Pg      2012/08/23 12:46:23.1  -0.1                          T                                        5052543
ETSF  000.34 273.5 m E Sg      2012/08/23 12:46:27.9   0.1                          T               10.3  .22        Md 1.6  5052542
EPF   000.35 064.5 m E Pg      2012/08/23 12:46:23.4   0.1                          T                                        5052541
EPF   000.35 064.5 m E Sg      2012/08/23 12:46:27.8  -0.3                          T                8.0  .24        Md 1.4  5052540
SJPF  000.86 286.2 m E Pg      2012/08/23 12:46:32.7   0.0                          T                                        5052539
SJPF  000.86 286.2 m E Sg      2012/08/23 12:46:43.8   0.0                          T                 .2  .12 Ml 1.0         5052538
MTLF  001.76 073.9 m E Pn      2012/08/23 12:46:45.9  -0.1                          T                                        5052555
MTLF  001.76 073.9 m E Sg      2012/08/23 12:47:11.9   0.2                          T                 .7  .30 Ml 1.5         5052554
LFF   002.15 016.0 m E Pn      2012/08/23 12:46:51.3   0.0                          T                                        5052553
LFF   002.15 016.0 m E Sn      2012/08/23 12:47:16.9   0.0                          T                1.9  .26 Ml 1.9         5052552

.
EVENT     281773
    Date      Time       Latitude Longitude    Depth    Ndef Nsta Gap    Mag1  N    Mag2  N    Mag3  N   Author         ID
       rms   OT_Error      Smajor Sminor Az        Err   mdist  Mdist     Err        Err        Err      Quality

2012/08/23 14:01:53.9     44.4827    6.7439      2.0      22    5 066  Ml 1.6  3  Md 1.6  2              bulletin    281873
                                                                                                         _ldg
      0.39   +-  0.09       1.7    1.3   89.09 +-  0.0    0.24   1.16   +-0.2      +-0.1                 m i ke

FRANCE
Sta     Dist  EvAz     Phase      Date       Time     TRes  Azim  AzRes  Slow  SRes Def   SNR       Amp   Per   Mag1   Mag2       ID
MBDF  000.24 004.6 m E Pg      2012/08/23 14:01:58.7  -0.3                          T                                        5052031
MBDF  000.24 004.6 m E Sg      2012/08/23 14:02:01.8  -0.5                          T                                Md 1.7  5052027
ORIF  000.75 305.6 m E Pg      2012/08/23 14:02:07.2  -1.1                          T                                        5052032
ORIF  000.75 305.6 m E Sg      2012/08/23 14:02:16.7  -1.5                          T                                Md 1.6  5052026
FRF   000.92 184.4 m E Pg      2012/08/23 14:02:12.2   1.0                          T                                        5052029
FRF   000.92 184.4 m E Sg      2012/08/23 14:02:23.6   0.2                          T                  1  .22 Ml 1.5         5052024
SMRF  000.98 239.3 m E Pg      2012/08/23 14:02:12.5   0.1                          T                                        5052028
SMRF  000.98 239.3 m E Sg      2012/08/23 14:02:25.3   0.1                          T                1.4  .24 Ml 1.6         5052025
LMR   001.16 188.5 m E Pg      2012/08/23 14:02:16.2   0.5                          T                                        5052030
LMR   001.16 188.5 m E Sg      2012/08/23 14:02:31.1   0.4                          T                1.3  .17 Ml 1.8         5052023

.
EVENT     281777
    Date      Time       Latitude Longitude    Depth    Ndef Nsta Gap    Mag1  N    Mag2  N    Mag3  N   Author         ID
       rms   OT_Error      Smajor Sminor Az        Err   mdist  Mdist     Err        Err        Err      Quality

2012/08/23 18:03:18.9     45.3522    6.3158      2.0       8    5 205  Ml 1.2  1  Md 1.4  2              bulletin    281877
                                                                                                         _ldg
      0.45   +-  0.34      10.3    3.0  133.22 +-  0.0    0.34   1.47   +-         +-0.0                 m i ke

FRANCE
Sta     Dist  EvAz     Phase      Date       Time     TRes  Azim  AzRes  Slow  SRes Def   SNR       Amp   Per   Mag1   Mag2       ID
LPG   000.34 064.5 m E Pg      2012/08/23 18:03:25.7  -0.1                          T                                        5052050
LPG   000.34 064.5 m E Sg      2012/08/23 18:03:29.7  -0.7                          T               20.0  .30        Md 1.4  5052048
LPL   000.34 060.6 m E Pg      2012/08/23 18:03:27.2   1.5                          T                                        5052049
LPL   000.34 060.6 m E Sg      2012/08/23 18:03:31.3   1.0                          T                3.3  .36        Md 1.4  5052047
ORIF  000.53 215.6 m E Sg      2012/08/23 18:03:36.5   0.4                          T                 .6  .27                5052046
MBDF  000.70 152.5 m E Sg      2012/08/23 18:03:41.7   0.1                          T                 .2  .20                5052045
SMRF  001.47 201.3 m E Pg      2012/08/23 18:03:46.4   0.0                          T                                        5052052
SMRF  001.47 201.3 m E Sn      2012/08/23 18:04:03.1  -0.4                          T                 .4  .22 Ml 1.2         5052051

.
EVENT     281778
    Date      Time       Latitude Longitude    Depth    Ndef Nsta Gap    Mag1  N    Mag2  N    Mag3  N   Author         ID
       rms   OT_Error      Smajor Sminor Az        Err   mdist  Mdist     Err        Err        Err      Quality

2012/08/23 18:56:58.1     44.8240   11.5376      2.0      50   18 156  Ml 2.4 16                         bulletin    281878
                                                                                                         _ldg
      0.40   +-  0.11       2.5    1.6   78.62 +-  0.0    0.19   6.66   +-0.2                            m i ke

NORTHERN ITALY
Sta     Dist  EvAz     Phase      Date       Time     TRes  Azim  AzRes  Slow  SRes Def   SNR       Amp   Per   Mag1   Mag2       ID
PGF   002.93 219.9 m E Pn      2012/08/23 18:57:44.1   0.2                          T                                        5052093
PGF   002.93 219.9 m E Sn      2012/08/23 18:58:18.0   0.5                          T                 .6  .22 Ml 2.1         5052084
SBF   003.10 253.4 m E Pn      2012/08/23 18:57:46.5   0.4                          T                                        5052085
MBDF  003.40 270.0 m E Pn      2012/08/23 18:57:50.6   0.3                          T                                        5052087
MBDF  003.40 270.0 m E Sn      2012/08/23 18:58:28.6  -0.2                          T                  1  .23 Ml 2.1         5052097
LPL   003.47 283.2 m E Pn      2012/08/23 18:57:51.4   0.0                          T                                        5052089
LPL   003.47 283.2 m E Sn      2012/08/23 18:58:30.2  -0.5                          T                1.4  .29 Ml 2.2         5052099
LPG   003.45 282.9 m E Pn      2012/08/23 18:57:53.3   2.0                          T                                        5052090
LPG   003.45 282.9 m E Sn      2012/08/23 18:58:30.4   0.1                          T                1.5  .26 Ml 2.3         5052100
FRF   003.74 252.0 m E Pn      2012/08/23 18:57:54.9   0.1                          T                                        5052091
FRF   003.74 252.0 m E Sn      2012/08/23 18:58:36.7  -0.1                          T                 .5  .18 Ml 2.1         5052082
LMR   003.92 249.4 m E Pn      2012/08/23 18:57:57.7   0.5                          T                                        5052092
LMR   003.92 249.4 m E Sn      2012/08/23 18:58:40.6  -0.5                          T                1.3  .23 Ml 2.4         5052083
ORIF  004.02 273.3 m E Pn      2012/08/23 18:57:58.1  -0.7                          T                                        5052088
ORIF  004.02 273.3 m E Sn      2012/08/23 18:58:43.6  -0.1                          T                1.1  .29 Ml 2.3         5052098
CABF  004.21 297.0 m E Pn      2012/08/23 18:58:01.5   0.1                          T                                        5052105
CABF  004.21 297.0 m E Sn      2012/08/23 18:58:48.2  -0.1                          T                1.0  .26 Ml 2.3         5052104
CDF   004.64 322.2 m E Pn      2012/08/23 18:58:07.2   0.1                          T                                        5052076
CDF   004.64 322.2 m E Sn      2012/08/23 18:58:58.5   0.1                          T                1.1  .21 Ml 2.6         5052075
VIVF  004.88 272.8 m E Pn      2012/08/23 18:58:07.7  -2.7                          T                                        5052086
VIVF  004.88 272.8 m E Sn      2012/08/23 18:59:04.3   0.1                          T                 .6  .28 Ml 2.2         5052096
HAU   004.80 313.4 m E Pn      2012/08/23 18:58:09.0  -0.2                          T                                        5052078
HAU   004.80 313.4 m E Sn      2012/08/23 18:59:02.1   0.0                          T                2.0  .18 Ml 2.6         5052077
LASF  005.55 265.0 m E Pn      2012/08/23 18:58:19.6   0.1                          T                                        5052094
LASF  005.55 265.0 m E Sn      2012/08/23 18:59:19.7  -0.4                          T                 .8  .21 Ml 2.5         5052095
SMF   005.69 291.4 m E Pn      2012/08/23 18:58:21.2  -0.2                          T                                        5052080
SMF   005.69 291.4 m E Sn      2012/08/23 18:59:22.9  -0.4                          T                1.5  .30 Ml 2.7         5052103
LOR   005.88 297.3 m E Pn      2012/08/23 18:58:24.2   0.2                          T                                        5052074
LOR   005.88 297.3 m E Sn      2012/08/23 18:59:27.7  -0.2                          T                1.2  .25 Ml 2.7         5052073
AVF   006.05 291.9 m E Pn      2012/08/23 18:58:26.4   0.1                          T                                        5052102
AVF   006.05 291.9 m E Sn      2012/08/23 18:59:32.1   0.0                          T                 .4  .26 Ml 2.3         5052101
HYF   006.66 294.7 m E Pn      2012/08/23 18:58:34.9   0.4                          T                                        5052081
HINF  004.41 314.3 m E Sn      2012/08/23 18:58:52.9  -0.1                          T                1.4  .20 Ml 2.6         5052079

.
