EVENT     260411
    Date      Time       Latitude Longitude    Depth    Ndef Nsta Gap    Mag1  N    Mag2  N    Mag3  N   Author         ID
       rms   OT_Error      Smajor Sminor Az        Err   mdist  Mdist     Err        Err        Err      Quality

2011/06/15 17:21:18.4     44.4863    6.8844      2.0      82   24 031  Ml 2.7 14  Md 2.8  4              js067245    260411

      0.52   +-  0.05       1.2     .8   50.78 +-  0.0    0.05   4.40   +-0.3      +-0.1                 m i ke

FRANCE
Sta     Dist  EvAz     Phase      Date       Time     TRes  Azim  AzRes  Slow  SRes Def   SNR       Amp   Per   Mag1   Mag2       ID
CBBF  000.11 349.4 m E Pg      2011/06/15 17:21:21.0   0.1                          T                                        4709303
MBDF  000.25 341.5 m E Pg      2011/06/15 17:21:23.3  -0.4                          T   001.0                                4707371
MBDF  000.25 341.5 m E Sg      2011/06/15 17:21:27.4   0.3                          T              180.8  .24        Md 2.7  4707737
SBF   000.74 147.4 m E Pg      2011/06/15 17:21:32.4   0.0                          T   001.0                                4707365
SBF   000.74 147.4 m E Sg      2011/06/15 17:21:42.4   0.3                          T   001.0      155.2  .28        Md 2.8  4707366
ORIF  000.84 301.4 m E Pg      2011/06/15 17:21:34.0  -0.3                          T   001.0                                4707373
ORIF  000.84 301.4 m E Sg      2011/06/15 17:21:45.0  -0.2                          T   001.0       46.2  .20        Md 2.7  4707374
FRF   000.94 190.6 m E Pg      2011/06/15 17:21:35.8  -0.3                          T   001.0                                4707351
FRF   000.94 190.6 m E Pn      2011/06/15 17:21:37.1   0.0                          T                                        4707746
FRF   000.94 190.6 m E Sg      2011/06/15 17:21:47.6  -0.7                          T   001.0       31.1  .16 Ml 3.1 Md 2.8  4707352
LPG   001.02 354.7 m E Pg      2011/06/15 17:21:37.4  -0.4                          T   001.0                                4707359
LPG   001.02 354.7 m E Sg      2011/06/15 17:21:50.9  -0.1                          T   001.0       38.2  .42 Ml 2.8         4707360
LPL   001.04 354.1 m E Pg      2011/06/15 17:21:37.8  -0.3                          T   001.0                                4707361
LPL   001.04 354.1 m E Sg      2011/06/15 17:21:52.1   0.5                          T   001.0       17.1  .27 Ml 2.6         4707362
SMRF  001.07 242.0 m E Pn      2011/06/15 17:21:38.5  -0.3                          T   001.0                                4707379
SMRF  001.07 242.0 m E Pg      2011/06/15 17:21:39.3   0.7                          T   001.0                                4707378
SMRF  001.07 242.0 m E Sg      2011/06/15 17:21:52.8   0.4                          T   001.0       24.0  .26 Ml 2.8         4707380
LMR   001.18 193.4 m E Pn      2011/06/15 17:21:40.0  -0.3                          T   001.0                                4707355
LMR   001.18 193.4 m E Sg      2011/06/15 17:21:55.4  -0.5                          T   001.0       36.0  .20 Ml 3.2         4707356
VIVF  001.62 284.0 m E Pn      2011/06/15 17:21:47.6   1.2                          T   001.0                                4707375
VIVF  001.62 284.0 m E Sg      2011/06/15 17:22:08.5  -1.1                          T   001.0       16.9  .28 Ml 2.9         4707377
LASF  002.21 260.4 m E Pn      2011/06/15 17:21:55.5   1.1                          T   001.0                                4707353
LASF  002.21 260.4 m E Pg      2011/06/15 17:22:00.0   0.4                          T                                        4707738
LASF  002.21 260.4 m E Sn      2011/06/15 17:22:22.0   1.3                          T   001.0        4.4  .26 Ml 2.5         4707354
CABF  002.20 345.5 m E P       2011/06/15 17:21:57.0   0.4                          T                                        4707745
CABF  002.20 345.5 m E Sn      2011/06/15 17:22:19.8  -0.7                          T                                        4707748
CABF  002.20 345.5 m E Sg      2011/06/15 17:22:27.8   0.1                          T               11.4  .68 Ml 2.5         4707747
PGF   002.47 140.8 m E Pn      2011/06/15 17:21:58.7   0.7                          T   001.0                                4707363
PGF   002.47 140.8 m E Sn      2011/06/15 17:22:28.0   0.9                          T   001.0        6.7  .18 Ml 3.1         4707364
SMF   003.04 316.4 m E P       2011/06/15 17:22:08.7   0.1                          T   001.0                                4707367
SMF   003.04 316.4 m E Sg      2011/06/15 17:22:53.7  -0.1                          T   001.0        6.9  .36 Ml 2.7         4707368
LOR   003.49 323.9 m E Pn      2011/06/15 17:22:11.7  -0.1                          T   001.0                                4707357
LOR   003.49 323.9 m E Sg      2011/06/15 17:23:08.1   0.1                          T                4.8  .44 Ml 2.6         4707744
CAF   003.46 279.0 m E Pn      2011/06/15 17:22:12.2   0.8                          T   001.0                                4707349
AVF   003.38 314.2 m E P       2011/06/15 17:22:13.0  -0.4                          T                                        4707741
SSF   003.50 318.6 m E P       2011/06/15 17:22:14.5  -0.5                          T   001.0                                4707369
SSF   003.50 318.6 m E Sg      2011/06/15 17:23:09.8   1.7                          T   001.0        4.0  .42 Ml 2.6         4707370
TCF   003.75 300.3 m E P       2011/06/15 17:22:18.5  -0.3                          T                                        4707743
CDF   003.94 003.8 m E P       2011/06/15 17:22:19.9  -1.5                          T   001.0                                4707350
BGF   003.51 307.5 m E Pg      2011/06/15 17:22:23.8   0.3                          T                                        4707740
PAGF  004.15 349.3 m E P       2011/06/15 17:22:23.8  -0.5                          T                                        4707742
MTLF  003.56 252.9 m E Pg      2011/06/15 17:22:24.3  -0.1                          T                                        4707736
MTLF  003.56 252.9 m E Sn      2011/06/15 17:22:54.5   1.6                          T                 .9  .22 Ml 2.2         4707735
LFF   004.40 278.1 m E Pg      2011/06/15 17:22:39.7  -0.2                          T                                        4707739

.
EVENT     260413
    Date      Time       Latitude Longitude    Depth    Ndef Nsta Gap    Mag1  N    Mag2  N    Mag3  N   Author         ID
       rms   OT_Error      Smajor Sminor Az        Err   mdist  Mdist     Err        Err        Err      Quality

2011/06/15 18:25:27.9     42.9666     .0756      2.0       6    3 186  Ml 1.4  1  Md 1.4  2              js067245    260413

      0.22   +-  0.26      60.6    2.1  168.08 +-  0.0    0.20   1.61   +-         +-0.1                 m i ke

PYRENEES
Sta     Dist  EvAz     Phase      Date       Time     TRes  Azim  AzRes  Slow  SRes Def   SNR       Amp   Per   Mag1   Mag2       ID
EPF   000.20 071.7 m E Pg      2011/06/15 18:25:31.8  -0.3                          T                                        4707751
EPF   000.20 071.7 m E Sg      2011/06/15 18:25:34.6  -0.3                          T                2.0  .24        Md 1.3  4707750
ETSF  000.47 261.9 m E Pg      2011/06/15 18:25:36.8  -0.1                          T                                        4707752
ETSF  000.47 261.9 m E Sg      2011/06/15 18:25:43.5   0.3                          T                1.6  .35        Md 1.4  4707749
MTLF  001.61 075.8 m E Pg      2011/06/15 18:25:57.8  -0.1                          T                                        4707763
MTLF  001.61 075.8 m E Sg      2011/06/15 18:26:19.1   0.4                          T                 .4  .19 Ml 1.4         4707762

.
EVENT     260412
    Date      Time       Latitude Longitude    Depth    Ndef Nsta Gap    Mag1  N    Mag2  N    Mag3  N   Author         ID
       rms   OT_Error      Smajor Sminor Az        Err   mdist  Mdist     Err        Err        Err      Quality

2011/06/15 19:50:37.5     44.4863    6.8863      2.0      82   27 061  Ml 2.5 16  Md 2.7  3              js067245    260412

      0.85   +-  0.06       1.5    1.0   44.65 +-  0.0    0.05   5.79   +-0.3      +-0.1                 m i ke

FRANCE
Sta     Dist  EvAz     Phase      Date       Time     TRes  Azim  AzRes  Slow  SRes Def   SNR       Amp   Per   Mag1   Mag2       ID
MBDF  000.25 341.2 m E Pn      2011/06/15 19:50:42.3  -0.5                          T                                        4707537
MBDF  000.25 341.2 m E Sg      2011/06/15 19:50:45.8  -0.4                          T              146.9  .28        Md 2.8  4707538
SBF   000.74 147.4 m E Pg      2011/06/15 19:50:51.4  -0.1                          T   001.0                                4707419
SBF   000.74 147.4 m E Sg      2011/06/15 19:51:01.4   0.2                          T   001.0       96.8  .27        Md 2.7  4707420
ORIF  000.84 301.4 m E Pg      2011/06/15 19:50:52.9  -0.5                          T                                        4707535
ORIF  000.84 301.4 m E Sg      2011/06/15 19:51:03.9  -0.4                          T               30.2  .25        Md 2.6  4707536
FRF   000.94 190.7 m E Pg      2011/06/15 19:50:54.8  -0.4                          T   001.0                                4707408
FRF   000.94 190.7 m E Sg      2011/06/15 19:51:07.0  -0.4                          T   001.0       18.4  .18 Ml 2.8         4707409
LPL   001.04 354.0 m E Pg      2011/06/15 19:50:57.0  -0.3                          T                                        4707533
LPL   001.04 354.0 m E Sg      2011/06/15 19:51:11.6   0.9                          T               15.9  .38 Ml 2.5         4707534
LPG   001.02 354.6 m E Pg      2011/06/15 19:50:57.1   0.2                          T                                        4707531
LPG   001.02 354.6 m E Sg      2011/06/15 19:51:10.9   0.7                          T               25.7  .48 Ml 2.5         4707532
SMRF  001.07 242.0 m E Pg      2011/06/15 19:50:58.1   0.4                          T   001.0                                4707430
SMRF  001.07 242.0 m E Sg      2011/06/15 19:51:11.6   0.1                          T   001.0       24.0  .24 Ml 2.8         4707432
LMR   001.18 193.4 m E Pn      2011/06/15 19:50:58.9  -0.5                          T                                        4707530
LMR   001.18 193.4 m E Pg      2011/06/15 19:50:59.9   0.2                          T   001.0                                4707412
LMR   001.18 193.4 m E Sn      2011/06/15 19:51:14.3  -0.9                          T   001.0       32.6  .22 Ml 3.1         4707413
VIVF  001.62 283.9 m E Pn      2011/06/15 19:51:06.6   1.1                          T                                        4707539
VIVF  001.62 283.9 m E Pg      2011/06/15 19:51:08.4   0.6                          T   001.0                                4707428
VIVF  001.62 283.9 m E Sn      2011/06/15 19:51:25.0  -0.7                          T   001.0       11.7  .32 Ml 2.7         4707429
LASF  002.21 260.4 m E Pn      2011/06/15 19:51:13.9   0.4                          T                                        4707540
LASF  002.21 260.4 m E Pg      2011/06/15 19:51:19.3   0.7                          T   001.0                                4707410
LASF  002.21 260.4 m E Sn      2011/06/15 19:51:39.0  -0.8                          T   001.0        3.3  .28 Ml 2.3         4707411
CABF  002.20 345.5 m E P       2011/06/15 19:51:15.9   0.2                          T                                        4707548
CABF  002.20 345.5 m E Pg      2011/06/15 19:51:19.1   0.7                          T   001.0                                4707425
PGF   002.47 140.8 m E Pn      2011/06/15 19:51:17.7   0.6                          T   001.0                                4707417
PGF   002.47 140.8 m E Sn      2011/06/15 19:51:45.6  -0.5                          T   001.0        5.2  .23 Ml 2.9         4707418
SMF   003.04 316.3 m E P       2011/06/15 19:51:27.6  -0.1                          T   001.0                                4707421
SMF   003.04 316.3 m E Pg      2011/06/15 19:51:34.5   0.6                          T                                        4707546
SMF   003.04 316.3 m E Sg      2011/06/15 19:52:12.3  -0.6                          T                5.1  .42 Ml 2.5         4707833
AVF   003.38 314.2 m E Pn      2011/06/15 19:51:30.1   0.7                          T                                        4707547
AVF   003.38 314.2 m E P       2011/06/15 19:51:32.3  -0.3                          T   001.0                                4707403
AVF   003.38 314.2 m E Sg      2011/06/15 19:52:23.7   0.0                          T   001.0        2.6  .48 Ml 2.2         4707404
CAF   003.47 279.0 m E Pn      2011/06/15 19:51:30.2  -0.4                          T   001.0                                4707407
CAF   003.47 279.0 m E P       2011/06/15 19:51:32.5  -1.2                          T                                        4707836
CAF   003.47 279.0 m E Sn      2011/06/15 19:52:09.6  -0.1                          T                  1  .29 Ml 2.1         4709313
MTLF  003.56 252.9 m E Pn      2011/06/15 19:51:31.6  -0.2                          T   001.0                                4707426
MTLF  003.56 252.9 m E Pg      2011/06/15 19:51:43.3  -0.2                          T                                        4707837
MTLF  003.56 252.9 m E Sn      2011/06/15 19:52:12.7   0.7                          T   001.0         .9  .22 Ml 2.2         4707427
LOR   003.49 323.8 m E Pn      2011/06/15 19:51:32.3   1.4                          T   001.0                                4707415
LOR   003.49 323.8 m E S       2011/06/15 19:52:14.2  -2.5                          T   001.0        2.2  .32                4707416
LOR   003.49 323.8 m E Sg      2011/06/15 19:52:28.1   1.0                          T                2.5  .32 Ml 2.4         4707831
SSF   003.50 318.6 m E P       2011/06/15 19:51:33.1  -1.0                          T   001.0                                4707422
SSF   003.50 318.6 m E S       2011/06/15 19:52:14.8  -1.9                          T   001.0        2.6  .40                4707423
SSF   003.50 318.6 m E Sg      2011/06/15 19:52:27.2   0.0                          T                3.8  .50 Ml 2.5         4707834
BGF   003.51 307.5 m E P       2011/06/15 19:51:34.0  -0.4                          T   001.0                                4707405
BGF   003.51 307.5 m E Pg      2011/06/15 19:51:42.5  -0.1                          T                                        4707544
BGF   003.51 307.5 m E Sn      2011/06/15 19:52:10.0  -0.8                          T   001.0        7.3  .46 Ml 2.7         4707406
TCF   003.75 300.3 m E Pn      2011/06/15 19:51:35.8   1.3                          T                                        4707554
HYF   004.07 314.7 m E Pn      2011/06/15 19:51:38.7  -0.1                          T                                        4707545
CDF   003.94 003.8 m E P       2011/06/15 19:51:38.8  -1.7                          T                                        4707552
SFTF  003.93 341.7 m E P       2011/06/15 19:51:39.8  -0.6                          T                                        4707549
MEZF  004.21 343.1 m E Pn      2011/06/15 19:51:40.6   0.0                          T                                        4707550
PAGF  004.15 349.3 m E P       2011/06/15 19:51:42.8  -0.6                          T                                        4707551
LFF   004.40 278.1 m E Pg      2011/06/15 19:51:58.5  -0.5                          T                                        4707835
GIVF  005.79 346.7 m E Pn      2011/06/15 19:52:02.3   0.1                          T                                        4707553

.
EVENT     260414
    Date      Time       Latitude Longitude    Depth    Ndef Nsta Gap    Mag1  N    Mag2  N    Mag3  N   Author         ID
       rms   OT_Error      Smajor Sminor Az        Err   mdist  Mdist     Err        Err        Err      Quality

2011/06/15 20:52:09.5     42.8227   -1.4284      2.0      40    3 099  Ml 2.2  1  Md 2.2  2              js067245    260414

      0.30   +-  0.05       1.2     .8   38.66 +-  0.0    0.04   1.94   +-         +-0.0                 m i ke

PYRENEES
Sta     Dist  EvAz     Phase      Date       Time     TRes  Azim  AzRes  Slow  SRes Def   SNR       Amp   Per   Mag1   Mag2       ID
SJPF  000.33 027.1 m E Pg      2011/06/15 20:52:16.0   0.0                          T                                        4707850
SJPF  000.33 027.1 m E Sg      2011/06/15 20:52:20.7   0.4                          T               13.9  .24        Md 2.2  4707847
ETSF  000.64 082.9 m E Pg      2011/06/15 20:52:21.9   0.1                          T                                        4707849
ETSF  000.64 082.9 m E Sg      2011/06/15 20:52:30.3   0.1                          T                7.8  .30        Md 2.2  4707846
EPF   001.32 080.3 m E Pg      2011/06/15 20:52:34.3   0.1                          T                                        4707848
EPF   001.32 080.3 m E Sg      2011/06/15 20:52:52.4   1.3                          T                5.6  .31 Ml 2.2         4707845

.
EVENT     260561
    Date      Time       Latitude Longitude    Depth    Ndef Nsta Gap    Mag1  N    Mag2  N    Mag3  N   Author         ID
       rms   OT_Error      Smajor Sminor Az        Err   mdist  Mdist     Err        Err        Err      Quality

2011/06/15 21:11:15.9     42.8240   -1.1862      2.0      30    3 084  Ml 1.1  1  Md 1.5  2              js067245    260561

      0.15   +-  0.03        .7     .5   40.44 +-  0.0    0.04   1.14   +-         +-0.1                 m i ke

PYRENEES
Sta     Dist  EvAz     Phase      Date       Time     TRes  Azim  AzRes  Slow  SRes Def   SNR       Amp   Per   Mag1   Mag2       ID
SJPF  000.29 354.4 m E Pg      2011/06/15 21:11:21.8   0.1                          T                                        4709442
SJPF  000.29 354.4 m E Sg      2011/06/15 21:11:25.7   0.1                          T                1.8  .20        Md 1.5  4709443
ETSF  000.47 080.6 m E Pg      2011/06/15 21:11:25.1   0.1                          T                                        4709440
ETSF  000.47 080.6 m E Sg      2011/06/15 21:11:31.3   0.2                          T                 .6  .24        Md 1.4  4709441
EPF   001.14 079.1 m E Pg      2011/06/15 21:11:37.3   0.0                          T                                        4709438
EPF   001.14 079.1 m E Sg      2011/06/15 21:11:51.9  -0.2                          T                 .4  .21 Ml 1.1         4709439

.
