EVENT     273896
    Date      Time       Latitude Longitude    Depth    Ndef Nsta Gap    Mag1  N    Mag2  N    Mag3  N   Author         ID
       rms   OT_Error      Smajor Sminor Az        Err   mdist  Mdist     Err        Err        Err      Quality

2012/04/18 09:18:04.1     45.3543    2.2926       .0 f    10    5 225  Ml 2.4  4  Md 1.9  2              bulletin    273916
                                                                                                         _ldg
      0.22   +-  0.22       5.5    1.8  146.21 +-  0.0    0.55   1.68   +-0.5      +-0.1                 m i km

FRANCE
Sta     Dist  EvAz     Phase      Date       Time     TRes  Azim  AzRes  Slow  SRes Def   SNR       Amp   Per   Mag1   Mag2       ID
RJF   000.55 265.1 m E Pg      2012/04/18 09:18:14.9   0.0                          T                                        4915356
RJF   000.55 265.1 m E Sg      2012/04/18 09:18:22.3   0.0                          T               75.7  .94        Md 1.8  4915353
TCF   000.94 356.5 m E Pg      2012/04/18 09:18:22.1   0.1                          T                                        4915352
TCF   000.94 356.5 m E Sg      2012/04/18 09:18:34.5   0.2                          T               21.0  .44 Ml 2.5         4915351
BGF   001.26 017.6 m E Pg      2012/04/18 09:18:27.5  -0.5                          T                                        4915355
BGF   001.26 017.6 m E Sg      2012/04/18 09:18:44.8   0.2                          T               48.5  .38 Ml 3.0         4915354
AVF   001.62 026.8 m E Pg      2012/04/18 09:18:34.4   0.0                          T                                        4915348
AVF   001.62 026.8 m E Sn      2012/04/18 09:18:52.8   0.1                          T                2.1  .30 Ml 1.9         4917807
SMF   001.68 039.3 m E Pg      2012/04/18 09:18:36.0   0.3                          T                                        4917802
SMF   001.68 039.3 m E Sg      2012/04/18 09:18:57.5  -0.1                          T                2.9  .29 Ml 2.1         4915349

.
EVENT     273897
    Date      Time       Latitude Longitude    Depth    Ndef Nsta Gap    Mag1  N    Mag2  N    Mag3  N   Author         ID
       rms   OT_Error      Smajor Sminor Az        Err   mdist  Mdist     Err        Err        Err      Quality

2012/04/18 09:26:34.0     48.1758    -.2504       .0 f     8    4 262  Ml 2.2  1  Md 1.9  2              bulletin    273917
                                                                                                         _ldg
      0.20   +-  0.29       5.6    2.2  143.02 +-  0.0    0.43   1.54   +-         +-0.0                 m i km

FRANCE
Sta     Dist  EvAz     Phase      Date       Time     TRes  Azim  AzRes  Slow  SRes Def   SNR       Amp   Per   Mag1   Mag2       ID
LDF   000.43 011.5 m E Pg      2012/04/18 09:26:42.5   0.0                          T                                        4915359
LDF   000.43 011.5 m E Sg      2012/04/18 09:26:48.4   0.2                          T              168.3 1.08        Md 1.9  4915360
GRR   000.46 297.9 m E Pg      2012/04/18 09:26:42.7  -0.2                          T                                        4915362
GRR   000.46 297.9 m E Sg      2012/04/18 09:26:49.2  -0.1                          T              165.8 1.06        Md 1.9  4915361
FLN   000.61 345.4 m E Pg      2012/04/18 09:26:44.2  -1.6                          T                                        4915357
FLN   000.61 345.4 m E Sg      2012/04/18 09:26:53.9   0.0                          T               35.8  .79                4915358
SGMF  001.54 273.8 m E Pg      2012/04/18 09:27:03.1   0.1                          T                                        4917809
SGMF  001.54 273.8 m E Sg      2012/04/18 09:27:23.6   0.5                          T                6.0  .44 Ml 2.2         4917808

.
EVENT     273904
    Date      Time       Latitude Longitude    Depth    Ndef Nsta Gap    Mag1  N    Mag2  N    Mag3  N   Author         ID
       rms   OT_Error      Smajor Sminor Az        Err   mdist  Mdist     Err        Err        Err      Quality

2012/04/18 09:37:15.4     47.2982    3.6451       .0 f    12    6 193  Ml 2.2  1  Md 1.7  2              bulletin    273924
                                                                                                         _ldg
      2.71   +-  0.37       6.8    4.9  112.00 +-  0.0    0.15   0.92   +-         +-0.0                 m i km

FRANCE
Sta     Dist  EvAz     Phase      Date       Time     TRes  Azim  AzRes  Slow  SRes Def   SNR       Amp   Per   Mag1   Mag2       ID
LOR   000.15 101.5 m E Pg      2012/04/18 09:37:19.5   0.7  61.1  17.2              T                                        4915907
LOR   000.15 101.5 m E Sg      2012/04/18 09:37:21.5   0.4 255.7  -26.0             T              102.0  .46        Md 1.7  4915909
SSF   000.26 201.9 m E Pg      2012/04/18 09:37:20.4  -0.4                          T                                        4915908
SSF   000.26 201.9 m E Sg      2012/04/18 09:37:23.0  -1.3                          T              168.3  .60        Md 1.6  4915910
AVF   000.55 201.6 m E Pg      2012/04/18 09:37:25.8  -0.2                          T                                        4915906
AVF   000.55 201.6 m E Sg      2012/04/18 09:37:33.0  -0.5                          T               44.2 1.08                4915911
SMF   000.67 168.3 m E Pg      2012/04/18 09:37:28.0  -0.3                          T                                        4915905
SMF   000.67 168.3 m E Sg      2012/04/18 09:37:36.1  -1.2                          T                                        4915912
HYF   000.69 267.9 m E Pg      2012/04/18 09:37:29.5   0.9                          T                                        4915904
HYF   000.69 267.9 m E Sg      2012/04/18 09:37:38.0   0.2                          T                                        4915913
BGF   000.92 216.8 m E Pg      2012/04/18 09:37:33.1   0.1                          T                                        4915903
BGF   000.92 216.8 m E Sg      2012/04/18 09:37:44.4  -0.7                          T                8.2  .28 Ml 2.2         4915914

.
EVENT     273901
    Date      Time       Latitude Longitude    Depth    Ndef Nsta Gap    Mag1  N    Mag2  N    Mag3  N   Author         ID
       rms   OT_Error      Smajor Sminor Az        Err   mdist  Mdist     Err        Err        Err      Quality

2012/04/18 09:47:24.7     36.4618   -2.6120      2.0      87    5 078  Ml 4.4  4                         bulletin    273921
                                                                                                         _ldg
      1.48   +-  0.24       5.8    4.6  135.06 +-  0.0    0.49  67.04   +-0.2                            m i ke

STRAIT OF GIBRALTAR
Sta     Dist  EvAz     Phase      Date       Time     TRes  Azim  AzRes  Slow  SRes Def   SNR       Amp   Per   Mag1   Mag2       ID
SJPF  006.73 008.7 m E Pn      2012/04/18 09:49:02.9   0.8                          T                                        4919984
SJPF  006.73 008.7 m E Pg      2012/04/18 09:49:28.6  -0.4                          T                                        4919983
SJPF  006.73 008.7 m E Sg      2012/04/18 09:50:55.0  -0.2                          T              287.1  .96 Ml 4.7         4919974
ETSF  006.62 013.2 m E P       2012/04/18 09:49:05.6   0.0                          T                                        4919982
ETSF  006.62 013.2 m E Pg      2012/04/18 09:49:26.9  -0.2                          T                                        4919981
ETSF  006.62 013.2 m E Sg      2012/04/18 09:50:51.1  -0.8                          T              124.6  .88 Ml 4.3         4919975
EPF   006.94 018.2 m E Pn      2012/04/18 09:49:05.9   0.8                          T                                        4919980
EPF   006.94 018.2 m E Pg      2012/04/18 09:49:33.0   0.0                          T                                        4919979
EPF   006.94 018.2 m E Sg      2012/04/18 09:51:02.9   1.0                          T              213.8 1.18 Ml 4.5         4919973
MTLF  007.81 026.9 m E P       2012/04/18 09:49:21.5  -0.6                          T                                        4919978
MTLF  007.81 026.9 m E Pg      2012/04/18 09:49:48.3  -0.6                          T                                        4919977
MTLF  007.81 026.9 m E Sg      2012/04/18 09:51:30.0   1.1                          T               58.1 1.09 Ml 4.1         4919972
LASF  009.07 031.0 m E P       2012/04/18 09:49:39.8   0.1                          T                                        4919976

.
EVENT     273900
    Date      Time       Latitude Longitude    Depth    Ndef Nsta Gap    Mag1  N    Mag2  N    Mag3  N   Author         ID
       rms   OT_Error      Smajor Sminor Az        Err   mdist  Mdist     Err        Err        Err      Quality

2012/04/18 09:48:10.6     47.0467    2.1403       .0 f    13    7 240  Ml 2.0  3  Md 1.5  2              bulletin    273920
                                                                                                         _ldg
      0.38   +-  0.44       7.2    3.5  103.97 +-  0.0    0.41   1.23   +-0.2      +-0.2                 m i km

FRANCE
Sta     Dist  EvAz     Phase      Date       Time     TRes  Azim  AzRes  Slow  SRes Def   SNR       Amp   Per   Mag1   Mag2       ID
HYF   000.41 056.7 m E Pg      2012/04/18 09:48:18.6  -0.1                          T                                        4919885
HYF   000.41 056.7 m E Sg      2012/04/18 09:48:24.1  -0.2                          T                                Md 1.4  4919886
BGF   000.69 135.0 m E Pg      2012/04/18 09:48:23.4  -0.5                          T                                        4915394
BGF   000.69 135.0 m E Sg      2012/04/18 09:48:32.1  -1.0                          T               20.7  .32        Md 1.7  4915393
AVF   000.87 106.7 m E Pg      2012/04/18 09:48:27.6   0.4                          T                                        4915392
AVF   000.87 106.7 m E Sg      2012/04/18 09:48:39.0   0.3                          T                                        4915389
SSF   000.93 088.6 m E Pg      2012/04/18 09:48:28.4   0.1                          T                                        4915388
SSF   000.93 088.6 m E Sg      2012/04/18 09:48:39.1  -1.5                          T                2.6  .23 Ml 1.9         4915387
LOR   001.19 078.7 m E Pg      2012/04/18 09:48:32.9  -0.2                          T                                        4915391
LOR   001.19 078.7 m E Sg      2012/04/18 09:48:48.8  -0.1                          T                4.1  .18 Ml 2.3         4915390
SMF   001.23 108.4 m E Pg      2012/04/18 09:48:34.3   0.4                          T                                        4915385
SMF   001.23 108.4 m E Sg      2012/04/18 09:48:50.1   0.0                          T                2.0  .20 Ml 1.9         4915386
TCF   000.76 176.4 m E Sg      2012/04/18 09:48:35.8   0.5                          T                3.5  .20                4917810

.
EVENT     273902
    Date      Time       Latitude Longitude    Depth    Ndef Nsta Gap    Mag1  N    Mag2  N    Mag3  N   Author         ID
       rms   OT_Error      Smajor Sminor Az        Err   mdist  Mdist     Err        Err        Err      Quality

2012/04/18 09:54:54.0     44.2705    7.5942       .0 f    13    7 221  Ml 2.3  3                         bulletin    273922
                                                                                                         _ldg
      0.24   +-  0.20       3.6    1.4   75.88 +-  0.0    0.42   1.48   +-0.1                            m i km

NORTHERN ITALY
Sta     Dist  EvAz     Phase      Date       Time     TRes  Azim  AzRes  Slow  SRes Def   SNR       Amp   Per   Mag1   Mag2       ID
SBF   000.42 195.8 m E Pg      2012/04/18 09:55:02.4   0.0                          T                                        4915429
SBF   000.42 195.8 m E Sg      2012/04/18 09:55:07.9  -0.4                          T               36.2  .45                4915428
MBDF  000.74 308.1 m E Pg      2012/04/18 09:55:07.6  -0.9                          T                                        4920365
MBDF  000.74 308.1 m E Sg      2012/04/18 09:55:17.8  -0.6                          T                                        4917814
FRF   000.99 224.3 m E Pg      2012/04/18 09:55:13.5   0.8                          T                                        4915425
FRF   000.99 224.3 m E Sg      2012/04/18 09:55:25.9   0.2                          T               11.9  .38 Ml 2.3         4915424
LMR   001.22 220.4 m E Pg      2012/04/18 09:55:17.1   0.1                          T                                        4915427
LMR   001.22 220.4 m E Sg      2012/04/18 09:55:32.9  -0.2                          T               14.5  .46 Ml 2.4         4915426
ORIF  001.39 298.5 m E Pg      2012/04/18 09:55:20.1  -0.1                          T                                        4917813
ORIF  001.39 298.5 m E Sg      2012/04/18 09:55:38.3   0.0                          T                                        4917812
SMRF  001.48 259.3 m E Pg      2012/04/18 09:55:21.9   0.0                          T                                        4915423
SMRF  001.48 259.3 m E Sg      2012/04/18 09:55:41.6   0.3                          T                7.7  .45 Ml 2.3         4915422
LPL   001.39 334.1 m E Sg      2012/04/18 09:55:39.0   0.4                          T                                        4917811

.
EVENT     273903
    Date      Time       Latitude Longitude    Depth    Ndef Nsta Gap    Mag1  N    Mag2  N    Mag3  N   Author         ID
       rms   OT_Error      Smajor Sminor Az        Err   mdist  Mdist     Err        Err        Err      Quality

2012/04/18 09:55:07.0     48.4240    6.9769       .0 f    11    6 173  Ml 2.2  2  Md 1.9  1              bulletin    273923
                                                                                                         _ldg
      0.42   +-  0.18       4.4    2.5    2.80 +-  0.0    0.20   1.31   +-0.0      +-                    m i km

FRANCE
Sta     Dist  EvAz     Phase      Date       Time     TRes  Azim  AzRes  Slow  SRes Def   SNR       Amp   Per   Mag1   Mag2       ID
CDF   000.20 093.3 m E Pg      2012/04/18 09:55:11.4   0.0                          T                                        4915442
CDF   000.20 093.3 m E Sg      2012/04/18 09:55:14.8   0.5                          T               61.8  .98        Md 1.9  4915441
HINF  000.61 187.8 m E Pg      2012/04/18 09:55:19.1   0.2                          T                                        4915438
HINF  000.61 187.8 m E Sg      2012/04/18 09:55:26.7  -0.5                          T                7.5  .30                4915437
HAU   000.59 225.4 m E P       2012/04/18 09:55:19.3  -0.4                          T                                        4915440
HAU   000.59 225.4 m E Sg      2012/04/18 09:55:27.5   1.0                          T                4.9  .26                4917823
PAGF  000.84 279.4 m E Pg      2012/04/18 09:55:23.0  -0.1                          T                                        4920367
PAGF  000.84 279.4 m E Sg      2012/04/18 09:55:35.0   0.7                          T                1.9  .36                4920368
SFTF  001.31 261.1 m E Pg      2012/04/18 09:55:33.1   1.3                          T                                        4917824
SFTF  001.31 261.1 m E Sg      2012/04/18 09:55:48.5  -0.4                          T                6.3  .34 Ml 2.2         4917825
MEZF  001.28 274.2 m E Sg      2012/04/18 09:55:48.2   0.2                          T                6.4  .31 Ml 2.2         4920366

.
EVENT     273905
    Date      Time       Latitude Longitude    Depth    Ndef Nsta Gap    Mag1  N    Mag2  N    Mag3  N   Author         ID
       rms   OT_Error      Smajor Sminor Az        Err   mdist  Mdist     Err        Err        Err      Quality

2012/04/18 09:59:36.2     47.0913    4.9152       .0 f    18   10 118  Ml 2.7  7  Md 2.2  1              bulletin    273925
                                                                                                         _ldg
      0.74   +-  0.14       3.4    2.0  153.68 +-  0.0    0.74   1.52   +-0.3      +-                    m i km

FRANCE
Sta     Dist  EvAz     Phase      Date       Time     TRes  Azim  AzRes  Slow  SRes Def   SNR       Amp   Per   Mag1   Mag2       ID
LOR   000.74 284.2 m E Pg      2012/04/18 09:59:49.7  -0.8 102.9  -0.5              T                                        4915473
LOR   000.74 284.2 m E Sg      2012/04/18 10:00:00.1  -0.3 112.2  8.8               T               32.2  .26        Md 2.2  4915472
SMF   000.86 239.2 m E Pg      2012/04/18 09:59:53.2   0.4                          T                                        4915469
SMF   000.86 239.2 m E Sg      2012/04/18 10:00:04.1   0.0                          T               45.7  .29 Ml 3.0         4915464
CABF  000.94 120.4 m E Pg      2012/04/18 09:59:54.5   0.3                          T                                        4915467
CABF  000.94 120.4 m E Sn      2012/04/18 10:00:08.7  -0.1                          T               24.1  .61 Ml 2.4         4915466
SSF   000.96 268.7 m E Pg      2012/04/18 09:59:54.7   0.1                          T                                        4915471
SSF   000.96 268.7 m E Sg      2012/04/18 10:00:07.2  -0.1                          T              110.1  .40 Ml 3.3         4915470
AVF   001.11 254.9 m E Pg      2012/04/18 09:59:57.7   0.4                          T                                        4915468
AVF   001.11 254.9 m E Sg      2012/04/18 10:00:11.9   0.0                          T               18.3  .36 Ml 2.6         4915465
SFTF  001.12 004.2 m E Pg      2012/04/18 09:59:57.9   0.5                          T                                        4917827
SFTF  001.12 004.2 m E Sg      2012/04/18 10:00:12.9   0.8                          T                                        4915459
HAU   001.33 046.2 m E Pg      2012/04/18 10:00:00.8  -0.6                          T                                        4917826
HAU   001.33 046.2 m E Sg      2012/04/18 10:00:18.8  -0.1                          T               23.5  .34 Ml 2.6         4915461
BGF   001.52 250.2 m E Pg      2012/04/18 10:00:04.8   0.0                          T                                        4915463
BGF   001.52 250.2 m E Sg      2012/04/18 10:00:23.5  -1.1                          T               19.4  .38 Ml 2.8         4915462
MEZF  001.41 003.7 m E Sg      2012/04/18 10:00:22.0   0.7                          T                                        4915458
HINF  001.50 060.4 m E Sg      2012/04/18 10:00:23.3  -0.9                          T                9.5  .38 Ml 2.4         4915460

.
