EVENT     288412
    Date      Time       Latitude Longitude    Depth    Ndef Nsta Gap    Mag1  N    Mag2  N    Mag3  N   Author         ID
       rms   OT_Error      Smajor Sminor Az        Err   mdist  Mdist     Err        Err        Err      Quality

2012/12/14 02:39:39.0     46.2089   -1.3976     25.0      72   23 147  Ml 2.6 23  Md 2.5  1              bulletin    288512
                                                                                                         _ldg
      1.08   +-  0.11       2.4    1.8   50.70 +-  0.0    0.95   5.74   +-0.3      +-                    m i ke

FRANCE
Sta     Dist  EvAz     Phase      Date       Time     TRes  Azim  AzRes  Slow  SRes Def   SNR       Amp   Per   Mag1   Mag2       ID
MFF   000.95 065.1 m E Pn      2012/12/14 02:39:55.2   0.0                          T                                        5138388
MFF   000.95 065.1 m E P       2012/12/14 02:39:57.1   0.2                          T                                        5161378
MFF   000.95 065.1 m E Sg      2012/12/14 02:40:10.0   0.1                          T               38.1  .27 Ml 3.1 Md 2.5  5138387
QUIF  002.09 325.4 m E Pn      2012/12/14 02:40:08.7  -2.0                          T                                        5138386
QUIF  002.09 325.4 m E Sn      2012/12/14 02:40:34.5   0.3                          T                9.5  .19 Ml 2.9         5138389
LFF   001.97 129.5 m E Pn      2012/12/14 02:40:09.1   0.1                          T                                        5138383
LFF   001.97 129.5 m E P       2012/12/14 02:40:11.1  -0.3                          T                                        5161376
LFF   001.97 129.5 m E Sn      2012/12/14 02:40:31.3   0.2                          T                                        5161369
LFF   001.97 129.5 m E Sg      2012/12/14 02:40:41.3   0.1                          T               10.9  .29 Ml 2.6         5161348
GRR   002.21 009.4 m E Pn      2012/12/14 02:40:09.7  -2.7                          T                                        5138377
GRR   002.21 009.4 m E Sg      2012/12/14 02:40:49.3   0.4                          T                5.4  .26 Ml 2.4         5161350
SGMF  002.19 339.3 m E Pn      2012/12/14 02:40:12.3   0.2                          T                                        5138385
SGMF  002.19 339.3 m E Sn      2012/12/14 02:40:36.8   0.2                          T                6.9  .23 Ml 2.7         5138397
RJF   002.23 112.9 m E Pn      2012/12/14 02:40:13.1   0.5                          T                                        5138382
RJF   002.23 112.9 m E P       2012/12/14 02:40:15.6   0.4                          T                                        5161377
RJF   002.23 112.9 m E Sn      2012/12/14 02:40:36.9  -0.6                          T                                        5161368
RJF   002.23 112.9 m E Sg      2012/12/14 02:40:50.1   0.6                          T               10.5  .34 Ml 2.4         5161349
TCF   002.50 086.9 m E Pn      2012/12/14 02:40:16.3  -0.1                          T                                        5138384
TCF   002.50 086.9 m E Pg      2012/12/14 02:40:25.2  -0.4                          T                                        5161390
TCF   002.50 086.9 m E Sg      2012/12/14 02:40:58.3   0.3                          T                9.1  .32 Ml 2.8         5161358
ROSF  002.48 329.7 m E Pn      2012/12/14 02:40:16.4   0.4                          T                                        5138399
ROSF  002.48 329.7 m E P       2012/12/14 02:40:19.3   0.5                          T                                        5161383
ROSF  002.48 329.7 m E Pg      2012/12/14 02:40:25.7   0.5                          T                                        5161382
ROSF  002.48 329.7 m E Sn      2012/12/14 02:40:43.7   0.1                          T                7.0  .25 Ml 2.8         5138398
FLN   002.63 013.3 m E Pn      2012/12/14 02:40:18.0   0.0 187.5  -6.5              T                                        5161381
FLN   002.63 013.3 m E P       2012/12/14 02:40:20.8   0.0                          T                                        5161380
FLN   002.63 013.3 m E Sg      2012/12/14 02:41:02.0   0.2                          T                3.0  .25 Ml 2.3         5161352
CAF   002.75 116.6 m E Pn      2012/12/14 02:40:19.6  -0.1                          T                                        5138378
CAF   002.75 116.6 m E Pg      2012/12/14 02:40:30.3   0.1                          T                                        5161375
CAF   002.75 116.6 m E Sn      2012/12/14 02:40:50.1   0.1                          T                                        5138390
CAF   002.75 116.6 m E Sg      2012/12/14 02:41:05.3  -0.3                          T                2.8  .17 Ml 2.6         5161347
LDF   002.54 019.5 m E P       2012/12/14 02:40:19.9   0.3                          T                                        5161379
LDF   002.54 019.5 m E Sg      2012/12/14 02:40:59.2   0.2                          T                2.9  .26 Ml 2.4         5161351
BGF   002.96 081.7 m E Pn      2012/12/14 02:40:22.8   0.3                          T                                        5138381
BGF   002.96 081.7 m E Sn      2012/12/14 02:40:54.9   0.0                          T                                        5161366
BGF   002.96 081.7 m E Sg      2012/12/14 02:41:12.2   0.1                          T               18.8  .36 Ml 3.1         5161354
AVF   003.33 078.2 m E Pn      2012/12/14 02:40:27.8   0.2                          T                                        5138379
AVF   003.33 078.2 m E Pg      2012/12/14 02:40:40.6  -0.3                          T                                        5161387
AVF   003.33 078.2 m E Sn      2012/12/14 02:41:03.9   0.1                          T                                        5161364
AVF   003.33 078.2 m E Sg      2012/12/14 02:41:23.9   0.2                          T                2.0  .34 Ml 2.3         5161357
SJPF  003.10 177.7 m E P       2012/12/14 02:40:27.8   0.2                          T                                        5161374
SJPF  003.10 177.7 m E Sg      2012/12/14 02:41:16.8   0.3                          T                1.5  .23 Ml 2.3         5161346
ETSF  003.36 169.4 m E Pn      2012/12/14 02:40:28.7   0.6                          T                                        5138394
ETSF  003.36 169.4 m E Sn      2012/12/14 02:41:05.0   0.3                          T                                        5161370
EPF   003.41 158.1 m E Pn      2012/12/14 02:40:29.2   0.5                          T                                        5138380
EPF   003.41 158.1 m E Pg      2012/12/14 02:40:42.6   0.2                          T                                        5161373
EPF   003.41 158.1 m E Sn      2012/12/14 02:41:03.6  -2.2                          T                2.7  .18 Ml 2.7         5138391
EPF   003.41 158.1 m E Sg      2012/12/14 02:41:26.5   0.2                          T                3.4  .29 Ml 2.6         5161345
SSF   003.48 074.1 m E Pn      2012/12/14 02:40:29.9   0.2                          T                                        5138376
SSF   003.48 074.1 m E Sn      2012/12/14 02:41:07.6   0.1                          T                                        5161362
SSF   003.48 074.1 m E Sg      2012/12/14 02:41:28.6   0.1                          T                1.2  .18 Ml 2.5         5161359
MTLF  003.85 136.8 m E Pn      2012/12/14 02:40:33.0  -1.7                          T                                        5138395
MTLF  003.85 136.8 m E Sn      2012/12/14 02:41:16.0  -0.3                          T                                        5161371
MTLF  003.85 136.8 m E Sg      2012/12/14 02:41:40.4   0.4                          T                2.1  .28 Ml 2.5         5161344
LOR   003.77 071.8 m E Pn      2012/12/14 02:40:33.4  -0.1 250.3  -5.3              T                                        5161389
LOR   003.77 071.8 m E Pg      2012/12/14 02:40:49.6   0.7 247.4  -8.1              T                                        5161388
LOR   003.77 071.8 m E Sn      2012/12/14 02:41:14.4   0.1 239.3  -16.3             T                                        5161361
LOR   003.77 071.8 m E Sg      2012/12/14 02:41:37.4   0.1 240.6  -14.9             T                2.6  .32 Ml 2.5         5161360
LASF  004.29 118.0 m E Pn      2012/12/14 02:40:40.7   0.1                          T                                        5161372
SMF   003.65 081.2 m E Pg      2012/12/14 02:40:46.7   0.0                          T                                        5161386
SMF   003.65 081.2 m E Sn      2012/12/14 02:41:11.3  -0.2                          T                                        5161363
SMF   003.65 081.2 m E Sg      2012/12/14 02:41:33.8   0.2                          T                1.5  .28 Ml 2.3         5161356
HYF   002.97 067.6 m E Sn      2012/12/14 02:40:55.0  -0.2                          T                                        5161365
HYF   002.97 067.6 m E Sg      2012/12/14 02:41:12.5   0.0                          T                                        5161355
LPG   005.74 094.2 m E Pn      2012/12/14 02:41:00.5  -0.2                          T                                        5138396

.
EVENT     288413
    Date      Time       Latitude Longitude    Depth    Ndef Nsta Gap    Mag1  N    Mag2  N    Mag3  N   Author         ID
       rms   OT_Error      Smajor Sminor Az        Err   mdist  Mdist     Err        Err        Err      Quality

2012/12/14 06:36:32.8     44.3757    7.3006     13.0 f    42    9 112  Ml 1.7  7  Md 1.8  2              bulletin    288513
                                                                                                         _ldg
      0.26   +-  0.04       1.1     .6   53.59 +-  0.0    0.13   2.21   +-0.4      +-0.1                 m i ke

NORTHERN ITALY
Sta     Dist  EvAz     Phase      Date       Time     TRes  Azim  AzRes  Slow  SRes Def   SNR       Amp   Per   Mag1   Mag2       ID
SBF   000.52 169.2 m E Pg      2012/12/14 06:36:43.1   0.1                          T                                        5138482
SBF   000.52 169.2 m E Sg      2012/12/14 06:36:50.1   0.1                          T                7.2  .17        Md 1.8  5138481
MBDF  000.52 313.0 m E Pg      2012/12/14 06:36:43.2   0.2                          T                                        5138486
MBDF  000.52 313.0 m E Sg      2012/12/14 06:36:50.1   0.1                          T                2.9  .19        Md 1.9  5138485
FRF   000.94 210.3 m E Pg      2012/12/14 06:36:50.6   0.1                          T                                        5138480
FRF   000.94 210.3 m E Sg      2012/12/14 06:37:02.6  -0.3                          T                3.9  .23 Ml 2.1         5138479
LMR   001.19 209.1 m E Pg      2012/12/14 06:36:55.0  -0.1                          T                                        5138484
LMR   001.19 209.1 m E Sg      2012/12/14 06:37:10.5   0.0                          T                1.8  .12 Ml 2.1         5138483
LPG   001.19 341.0 m E Pg      2012/12/14 06:36:55.1  -0.4                          T                                        5138553
LPG   001.19 341.0 m E Sg      2012/12/14 06:37:10.8  -0.1                          T                 .5  .20 Ml 1.3         5161392
VIVF  001.94 285.3 m E Pn      2012/12/14 06:37:03.5  -0.2                          T                                        5138590
VIVF  001.94 285.3 m E Pg      2012/12/14 06:37:08.8  -0.1                          T                                        5161395
VIVF  001.94 285.3 m E Sn      2012/12/14 06:37:25.8  -0.7                          T                                        5138589
VIVF  001.94 285.3 m E Sg      2012/12/14 06:37:34.0   0.1                          T                2.8  .41 Ml 2.0         5138588
ORIF  001.15 298.6 m E Sg      2012/12/14 06:37:09.1  -0.3                          T                1.3  .25 Ml 1.6         5161394
LPL   001.21 340.7 m E Sg      2012/12/14 06:37:11.5   0.0                          T                 .5  .26 Ml 1.2         5161393
SMRF  001.30 252.8 m E Sg      2012/12/14 06:37:14.4   0.2                          T                 .7  .18 Ml 1.6         5161391

.
EVENT     288452
    Date      Time       Latitude Longitude    Depth    Ndef Nsta Gap    Mag1  N    Mag2  N    Mag3  N   Author         ID
       rms   OT_Error      Smajor Sminor Az        Err   mdist  Mdist     Err        Err        Err      Quality

2012/12/14 10:51:37.7     45.0174    7.3689     16.0 f    25    4 128  Ml 1.9  1  Md 1.8  4              bulletin    288552
                                                                                                         _ldg
      0.50   +-  0.12       2.8    1.6   84.35 +-  0.0    0.16   1.13   +-         +-0.0                 m i ke

NORTHERN ITALY
Sta     Dist  EvAz     Phase      Date       Time     TRes  Azim  AzRes  Slow  SRes Def   SNR       Amp   Per   Mag1   Mag2       ID
MBDF  000.51 235.9 m E Pg      2012/12/14 10:51:48.4   0.3                          T                                Md 1.8  5138749
MBDF  000.51 235.9 m E Sg      2012/12/14 10:51:54.6  -0.5                          T               19.9  .33        Md 1.7  5138746
LPG   000.65 318.0 m E Pg      2012/12/14 10:51:50.6   0.0                          T                                Md 1.8  5138747
LPG   000.65 318.0 m E Sg      2012/12/14 10:51:57.9  -1.4                          T                4.3  .22                5138744
LPL   000.67 318.2 m E Pg      2012/12/14 10:51:51.1   0.2                          T                                Md 1.8  5138748
LPL   000.67 318.2 m E Sg      2012/12/14 10:51:59.2  -0.7                          T                4.1  .25                5138745
ORIF  001.06 265.2 m E Pg      2012/12/14 10:51:58.1   0.2                          T                                        5138743
ORIF  001.06 265.2 m E Sg      2012/12/14 10:52:11.3  -0.4                          T                1.9  .18 Ml 1.9         5138872

.
EVENT     288471
    Date      Time       Latitude Longitude    Depth    Ndef Nsta Gap    Mag1  N    Mag2  N    Mag3  N   Author         ID
       rms   OT_Error      Smajor Sminor Az        Err   mdist  Mdist     Err        Err        Err      Quality

2012/12/14 10:55:35.9     45.0832    7.5393     25.0       9    4 177  Ml 2.0  2  Md 1.8  1              bulletin    288571
                                                                                                         _ldg
      0.18   +-  0.11       4.3    2.1  104.93 +-  0.0    0.62   1.90   +-0.1      +-                    m i ke

NORTHERN ITALY
Sta     Dist  EvAz     Phase      Date       Time     TRes  Azim  AzRes  Slow  SRes Def   SNR       Amp   Per   Mag1   Mag2       ID
MBDF  000.65 237.1 m E Pn      2012/12/14 10:55:48.4   0.2                          T                                        5138885
MBDF  000.65 237.1 m E Sn      2012/12/14 10:55:56.9   0.0                          T                1.5  .17        Md 1.8  5138886
SBF   001.22 183.5 m E Pn      2012/12/14 10:55:56.1   0.2                          T                                        5138894
FRF   001.65 203.1 m E Pn      2012/12/14 10:56:00.9  -0.7                          T                                        5138884
FRF   001.65 203.1 m E Sn      2012/12/14 10:56:20.5  -0.1                          T                2.2  .27 Ml 2.1         5138896
LMR   001.90 203.3 m E Pn      2012/12/14 10:56:05.0   0.0                          T                                        5138883
LMR   001.90 203.3 m E Sn      2012/12/14 10:56:26.5   0.0                          T                1.4  .26 Ml 1.9         5138895

.
