EVENT     273485
    Date      Time       Latitude Longitude    Depth    Ndef Nsta Gap    Mag1  N    Mag2  N    Mag3  N   Author         ID
       rms   OT_Error      Smajor Sminor Az        Err   mdist  Mdist     Err        Err        Err      Quality

2012/04/12 09:56:31.7     43.7718    2.9456       .0 f    16    5 166  Ml 2.1  3  Md 1.9  1              js067245    273505

      1.09   +-  0.14       4.1    2.1  143.35 +-  0.0    0.68   2.04   +-0.2      +-                    m i km

FRANCE
Sta     Dist  EvAz     Phase      Date       Time     TRes  Azim  AzRes  Slow  SRes Def   SNR       Amp   Per   Mag1   Mag2       ID
MTLF  000.68 231.1 m E Pg      2012/04/12 09:56:44.8   0.0                          T                                        4911087
MTLF  000.68 231.1 m E Pn      2012/04/12 09:56:47.3   0.2                          T                                        4912426
MTLF  000.68 231.1 m E Sg      2012/04/12 09:56:54.2   0.3                          T                                        4912424
MTLF  000.68 231.1 m E Sn      2012/04/12 09:56:58.0   0.0                          T                5.5  .20        Md 1.9  4911086
LASF  000.73 064.9 m E Pg      2012/04/12 09:56:45.6   0.0                          T                                        4911089
LASF  000.73 064.9 m E Sg      2012/04/12 09:56:56.1   0.8                          T                                        4912425
LASF  000.73 064.9 m E Sn      2012/04/12 09:56:59.3   0.2                          T               10.3  .20                4911088
CAF   001.32 331.6 m E Pg      2012/04/12 09:56:56.9   0.4                          T                                        4911085
CAF   001.32 331.6 m E Sn      2012/04/12 09:57:12.8  -0.4                          T                                        4911083
CAF   001.32 331.6 m E Sg      2012/04/12 09:57:14.7   1.0                          T                3.4  .18 Ml 2.2         4911084
VIVF  001.65 048.2 m E Pg      2012/04/12 09:57:02.0  -0.6                          T                                        4912428
VIVF  001.65 048.2 m E Sg      2012/04/12 09:57:24.2   0.2                          T                1.5  .25 Ml 1.9         4912427
EPF   002.04 249.6 m E Pg      2012/04/12 09:57:09.3  -0.6                          T                                        4912429
EPF   002.04 249.6 m E Sg      2012/04/12 09:57:36.7   0.4                          T                2.5  .22 Ml 2.3         4912430

.
EVENT     273486
    Date      Time       Latitude Longitude    Depth    Ndef Nsta Gap    Mag1  N    Mag2  N    Mag3  N   Author         ID
       rms   OT_Error      Smajor Sminor Az        Err   mdist  Mdist     Err        Err        Err      Quality

2012/04/12 10:02:23.7     48.4035    6.8741       .0 f    11    5 145  Ml 2.1  1  Md 1.7  2              js067245    273506

      0.27   +-  0.11       3.1    1.6  147.70 +-  0.0    0.27   1.24   +-         +-0.2                 m i km

FRANCE
Sta     Dist  EvAz     Phase      Date       Time     TRes  Azim  AzRes  Slow  SRes Def   SNR       Amp   Per   Mag1   Mag2       ID
CDF   000.27 088.0 m E Pg      2012/04/12 10:02:29.0  -0.3                          T                                        4911101
CDF   000.27 088.0 m E Sg      2012/04/12 10:02:32.8  -0.3                          T               56.7  .76        Md 1.9  4911102
HAU   000.53 221.7 m E Pg      2012/04/12 10:02:34.3   0.3                          T                                        4911100
HAU   000.53 221.7 m E Pn      2012/04/12 10:02:37.0  -0.5                          T                                        4911099
HAU   000.53 221.7 m E Sg      2012/04/12 10:02:40.8  -0.5                          T               17.3  .36        Md 1.6  4911098
HINF  000.59 181.4 m E Pg      2012/04/12 10:02:35.3   0.2                          T                                        4911095
HINF  000.59 181.4 m E Sg      2012/04/12 10:02:43.1   0.1                          T                3.3  .25                4911096
LANF  000.85 046.5 m E Pg      2012/04/12 10:02:40.0   0.2                          T                                        4911094
LANF  000.85 046.5 m E Sg      2012/04/12 10:02:51.5   0.4                          T                6.0  .31                4911093
SFTF  001.24 261.5 m E Pg      2012/04/12 10:02:47.0  -0.1                          T                                        4911092
SFTF  001.24 261.5 m E Sg      2012/04/12 10:03:03.1  -0.3                          T                5.9  .38 Ml 2.1         4911091

.
EVENT     273487
    Date      Time       Latitude Longitude    Depth    Ndef Nsta Gap    Mag1  N    Mag2  N    Mag3  N   Author         ID
       rms   OT_Error      Smajor Sminor Az        Err   mdist  Mdist     Err        Err        Err      Quality

2012/04/12 10:04:33.1     47.1137    5.5155       .0 f    20    9 106  Ml 2.2  6  Md 2.0  1              js067245    273507

      0.77   +-  0.14       3.0    2.1  154.30 +-  0.0    0.64   1.52   +-0.3      +-                    m i ke

FRANCE
Sta     Dist  EvAz     Phase      Date       Time     TRes  Azim  AzRes  Slow  SRes Def   SNR       Amp   Per   Mag1   Mag2       ID
CABF  000.64 141.8 m E Pg      2012/04/12 10:04:45.9   0.4                          T                                        4911120
CABF  000.64 141.8 m E Sg      2012/04/12 10:04:55.3   1.2                          T                1.8  .19        Md 2.0  4911119
HAU   001.06 032.0 m E Pg      2012/04/12 10:04:52.7  -0.4                          T                                        4911116
HAU   001.06 032.0 m E Sg      2012/04/12 10:05:07.8   0.7                          T                6.7  .28 Ml 2.0         4911115
HINF  001.15 051.7 m E Pg      2012/04/12 10:04:54.2  -0.7                          T                                        4911118
HINF  001.15 051.7 m E Sg      2012/04/12 10:05:09.6  -0.4                          T               13.3  .28 Ml 2.6         4911117
LOR   001.14 278.4 m E Pg      2012/04/12 10:04:54.8   0.1 102.0  4.8               T                                        4911106
LOR   001.14 278.4 m E Sg      2012/04/12 10:05:10.3   0.6                          T                                        4911105
SFTF  001.14 343.7 m E Pg      2012/04/12 10:04:54.8   0.2                          T                                        4911112
SFTF  001.14 343.7 m E Sg      2012/04/12 10:05:10.0   0.4                          T                7.9  .35 Ml 2.2         4911111
THEF  001.16 016.0 m E Pg      2012/04/12 10:04:55.2   0.2                          T                                        4911114
THEF  001.16 016.0 m E Sg      2012/04/12 10:05:11.1   0.8                          T                8.7  .23 Ml 2.5         4911113
SMF   001.24 248.4 m E Pg      2012/04/12 10:04:55.8  -0.7                          T                                        4911110
SMF   001.24 248.4 m E Sg      2012/04/12 10:05:12.7  -0.1                          T                5.4  .24 Ml 2.3         4911109
SSF   001.37 268.6 m E Pg      2012/04/12 10:04:59.1   0.1                          T                                        4911108
SSF   001.37 268.6 m E Sg      2012/04/12 10:05:16.3  -0.6                          T                                        4911107
AVF   001.52 258.5 m E Pg      2012/04/12 10:04:59.8  -1.8                          T                                        4911104
AVF   001.52 258.5 m E Sg      2012/04/12 10:05:21.9   0.5                          T                1.0  .22 Ml 1.7         4911103

.
EVENT     273488
    Date      Time       Latitude Longitude    Depth    Ndef Nsta Gap    Mag1  N    Mag2  N    Mag3  N   Author         ID
       rms   OT_Error      Smajor Sminor Az        Err   mdist  Mdist     Err        Err        Err      Quality

2012/04/12 10:09:40.7     43.5098    6.6165       .0 f    11    5 145  Ml 2.0  2  Md 1.8  2              js067245    273508

      0.47   +-  0.16       3.7    2.8  139.50 +-  0.0    0.06   1.22   +-0.3      +-0.0                 m i ke

NEAR SOUTH COAST OF FRANCE
Sta     Dist  EvAz     Phase      Date       Time     TRes  Azim  AzRes  Slow  SRes Def   SNR       Amp   Per   Mag1   Mag2       ID
FRF   000.06 023.4 m E Pg      2012/04/12 10:09:41.2  -0.8                          T                                        4911128
FRF   000.06 023.4 m E Sg      2012/04/12 10:09:42.1  -0.9                          T             1879.0  .48        Md 1.9  4911127
LMR   000.19 204.0 m E Pg      2012/04/12 10:09:44.9   0.2                          T                                        4911126
LMR   000.19 204.0 m E Sg      2012/04/12 10:09:47.5  -0.1                          T               31.4  .38        Md 1.8  4911125
SBF   000.69 059.0 m E Pg      2012/04/12 10:09:54.1   0.0                          T                                        4911124
SBF   000.69 059.0 m E Pn      2012/04/12 10:09:56.1  -0.3                          T                                        4911123
SBF   000.69 059.0 m E Sg      2012/04/12 10:10:03.7   0.4                          T               17.2  .42                4911122
SMRF  000.89 302.1 m E Pg      2012/04/12 10:09:57.7   0.0                          T                                        4911121
SMRF  000.89 302.1 m E Sg      2012/04/12 10:10:08.5  -0.8                          T                                        4912710
SMRF  000.89 302.1 m E Sn      2012/04/12 10:10:12.5   0.6                          T                4.3  .38 Ml 1.8         4912712
MBDF  001.22 005.2 m E Sg      2012/04/12 10:10:21.0   1.0                          T                9.6  .51 Ml 2.2         4912711

.
EVENT     273490
    Date      Time       Latitude Longitude    Depth    Ndef Nsta Gap    Mag1  N    Mag2  N    Mag3  N   Author         ID
       rms   OT_Error      Smajor Sminor Az        Err   mdist  Mdist     Err        Err        Err      Quality

2012/04/12 10:18:08.7     43.2821    5.4360       .0 f     6    3 282  Ml 2.4  1  Md 1.9  2              js067245    273510

      0.30   +-  0.72      14.6    5.3   43.04 +-  0.0    0.70   0.93   +-         +-0.0                 m i km

NEAR SOUTH COAST OF FRANCE
Sta     Dist  EvAz     Phase      Date       Time     TRes  Azim  AzRes  Slow  SRes Def   SNR       Amp   Per   Mag1   Mag2       ID
SMRF  000.70 008.3 m E Pg      2012/04/12 10:18:22.3   0.1                          T                                Md 1.9  4911158
SMRF  000.70 008.3 m E Sg      2012/04/12 10:18:31.6   0.0                          T                4.4  .24                4911157
LMR   000.79 085.9 m E Pg      2012/04/12 10:18:24.0   0.3                          T                                        4911154
LMR   000.79 085.9 m E Sg      2012/04/12 10:18:34.0  -0.2                          T                4.1  .22        Md 1.9  4911153
FRF   000.93 072.1 m E Pg      2012/04/12 10:18:25.9  -0.4                          T                                        4911156
FRF   000.93 072.1 m E Sg      2012/04/12 10:18:38.9   0.4                          T                8.1  .22 Ml 2.4         4911155

.
EVENT     273536
    Date      Time       Latitude Longitude    Depth    Ndef Nsta Gap    Mag1  N    Mag2  N    Mag3  N   Author         ID
       rms   OT_Error      Smajor Sminor Az        Err   mdist  Mdist     Err        Err        Err      Quality

2012/04/12 10:22:19.0     48.5646   -3.0549       .0 f     7    3 229  Ml 1.3  1  Md 1.5  2              js067245    273556

      0.95   +-  0.49       8.9    4.5     .21 +-  0.0    0.27   1.72   +-         +-0.0                 m i km

FRANCE
Sta     Dist  EvAz     Phase      Date       Time     TRes  Azim  AzRes  Slow  SRes Def   SNR       Amp   Per   Mag1   Mag2       ID
ROSF  000.27 212.6 m E Pg      2012/04/12 10:22:25.0   0.4                          T                                        4911163
ROSF  000.27 212.6 m E Sg      2012/04/12 10:22:27.5  -0.8                          T              139.2  .74        Md 1.5  4911162
SGMF  000.45 132.9 m E Pg      2012/04/12 10:22:27.6  -0.3                          T                                        4913637
SGMF  000.45 132.9 m E Sg      2012/04/12 10:22:33.3  -0.8                          T               39.3  .94        Md 1.6  4913638
FLN   001.72 082.4 m E Sg      2012/04/12 10:23:13.4  -0.1                          T                 .5  .20 Ml 1.3         4913636

.
EVENT     273493
    Date      Time       Latitude Longitude    Depth    Ndef Nsta Gap    Mag1  N    Mag2  N    Mag3  N   Author         ID
       rms   OT_Error      Smajor Sminor Az        Err   mdist  Mdist     Err        Err        Err      Quality

2012/04/12 10:27:21.7     44.3220    7.4724       .0 f    26    9 159  Ml 2.0  6  Md 2.0  2              js067245    273513

      0.25   +-  0.08       1.7     .9   74.38 +-  0.0    0.13   2.30   +-0.2      +-0.0                 m i km

NORTHERN ITALY
Sta     Dist  EvAz     Phase      Date       Time     TRes  Azim  AzRes  Slow  SRes Def   SNR       Amp   Per   Mag1   Mag2       ID
SBF   000.46 183.4 m E Pg      2012/04/12 10:27:30.5  -0.4                          T                                        4908944
SBF   000.46 183.4 m E Sg      2012/04/12 10:27:37.2   0.0                          T               30.2  .34        Md 2.0  4908940
MBDF  000.64 309.2 m E Pg      2012/04/12 10:27:34.3  -0.1                          T                                        4908948
MBDF  000.64 309.2 m E Sg      2012/04/12 10:27:43.6   0.6                          T               12.1  .38        Md 2.0  4908939
FRF   000.97 218.4 m E Pg      2012/04/12 10:27:40.2   0.1                          T                                        4908946
FRF   000.97 218.4 m E Sg      2012/04/12 10:27:53.4   0.6                          T                                        4908936
LMR   001.21 215.5 m E Pg      2012/04/12 10:27:44.2  -0.4                          T                                        4908945
LMR   001.21 215.5 m E Sg      2012/04/12 10:28:00.8   0.3                          T                8.5  .29 Ml 2.4         4908941
ORIF  001.28 298.2 m E Pg      2012/04/12 10:27:46.0  -0.1                          T                                        4908947
ORIF  001.28 298.2 m E Sg      2012/04/12 10:28:02.3  -0.6                          T                2.7  .27 Ml 2.0         4908938
LPL   001.30 336.5 m E Pg      2012/04/12 10:27:46.7   0.1                          T                                        4913669
LPL   001.30 336.5 m E Sg      2012/04/12 10:28:03.5  -0.2                          T                1.8  .24 Ml 1.8         4913672
SMRF  001.41 256.4 m E Pg      2012/04/12 10:27:48.6   0.3                          T                                        4908943
SMRF  001.41 256.4 m E Sg      2012/04/12 10:28:07.0   0.3                          T                4.5  .30 Ml 2.2         4908937
LPG   001.28 336.7 m E Sg      2012/04/12 10:28:03.2   0.1                          T                2.0  .26 Ml 1.8         4913671
VIVF  002.07 285.9 m E Sn      2012/04/12 10:28:21.4   0.1                          T                2.4  .44 Ml 1.9         4913670

.
EVENT     273537
    Date      Time       Latitude Longitude    Depth    Ndef Nsta Gap    Mag1  N    Mag2  N    Mag3  N   Author         ID
       rms   OT_Error      Smajor Sminor Az        Err   mdist  Mdist     Err        Err        Err      Quality

2012/04/12 10:45:36.3     43.6674   -2.0657       .0 f     5    3 337  Ml 2.4  2  Md 2.0  1              js067245    273557

      0.22   +-  0.57      17.4    8.7   19.87 +-  0.0    0.83   1.87   +-0.0      +-                    m i km

SPAIN
Sta     Dist  EvAz     Phase      Date       Time     TRes  Azim  AzRes  Slow  SRes Def   SNR       Amp   Per   Mag1   Mag2       ID
SJPF  000.83 131.8 m E Pg      2012/04/12 10:45:52.2   0.1                          T                                        4911167
SJPF  000.83 131.8 m E Sg      2012/04/12 10:46:03.3   0.3                          T               25.3  .64        Md 2.0  4911165
ETSF  001.34 124.4 m E Pg      2012/04/12 10:46:01.6  -0.1                          T                                        4911166
ETSF  001.34 124.4 m E Sg      2012/04/12 10:46:18.8  -0.5                          T               21.4  .84 Ml 2.4         4911164
EPF   001.87 109.1 m E Sg      2012/04/12 10:46:35.8   0.2                          T                8.0  .54 Ml 2.3         4913841

.
EVENT     273538
    Date      Time       Latitude Longitude    Depth    Ndef Nsta Gap    Mag1  N    Mag2  N    Mag3  N   Author         ID
       rms   OT_Error      Smajor Sminor Az        Err   mdist  Mdist     Err        Err        Err      Quality

2012/04/12 10:54:57.7     46.8784    -.2495       .0 f    11    4 179  Ml 2.0  3  Md 2.0  1              js067245    273558

      0.65   +-  0.11       3.2    1.5   75.38 +-  0.0    0.29   2.00   +-0.2      +-                    m i km

FRANCE
Sta     Dist  EvAz     Phase      Date       Time     TRes  Azim  AzRes  Slow  SRes Def   SNR       Amp   Per   Mag1   Mag2       ID
MFF   000.29 165.5 m E Pg      2012/04/12 10:55:03.7   0.2                          T                                        4911173
MFF   000.29 165.5 m E Sg      2012/04/12 10:55:07.7   0.1                          T              129.0  .70        Md 2.0  4911172
GRR   001.57 345.0 m E Pg      2012/04/12 10:55:27.3   0.2                          T                                        4911207
GRR   001.57 345.0 m E Sn      2012/04/12 10:55:44.9  -0.3                          T                                        4912533
GRR   001.57 345.0 m E Sg      2012/04/12 10:55:48.0   0.5                          T                3.2  .27 Ml 2.0         4911170
LDF   001.72 002.8 m E Pg      2012/04/12 10:55:29.4  -0.5                          T                                        4911209
LDF   001.72 002.8 m E Sg      2012/04/12 10:55:52.9   0.6                          T                2.4  .20 Ml 2.2         4911208
RJF   002.00 141.4 m E Pg      2012/04/12 10:55:35.0  -0.1                          T                                        4912532
RJF   002.00 141.4 m E Sg      2012/04/12 10:56:00.7  -0.3                          T                2.5  .26 Ml 1.9         4912531

.
