EVENT     267993
    Date      Time       Latitude Longitude    Depth    Ndef Nsta Gap    Mag1  N    Mag2  N    Mag3  N   Author         ID
       rms   OT_Error      Smajor Sminor Az        Err   mdist  Mdist     Err        Err        Err      Quality

2012/01/01 17:16:59.2     46.7132    9.8537     10.0 f    58   17 086  Ml 2.7 14  Md 2.8  3              js067245    268013

      1.12   +-  0.19       4.2    3.4   27.17 +-  0.0    0.07   4.93   +-0.2      +-0.1                 m i ke

SWITZERLAND
Sta     Dist  EvAz     Phase      Date       Time     TRes  Azim  AzRes  Slow  SRes Def   SNR       Amp   Per   Mag1   Mag2       ID
HINF  002.32 299.5 m E Pn      2012/01/01 17:17:36.6   0.8                          T   001.0                                4806790
HINF  002.32 299.5 m E Pg      2012/01/01 17:17:42.9   0.4                          T   001.0                                4806791
HINF  002.32 299.5 m E Sn      2012/01/01 17:18:03.5   0.8                          T   001.0                                4806792
HINF  002.32 299.5 m E Sg      2012/01/01 17:18:11.0  -1.4                          T   001.0        6.3  .24 Ml 2.7 Md 2.8  4806793
CDF   002.44 315.2 m E Pn      2012/01/01 17:17:38.4   0.9                          T   001.0                                4806771
CDF   002.44 315.2 m E Pg      2012/01/01 17:17:45.0   0.4                          T   001.0                                4806772
CDF   002.44 315.2 m E Sn      2012/01/01 17:18:05.7   0.2                          T                                        4811086
CDF   002.44 315.2 m E Sg      2012/01/01 17:18:14.2  -1.8                          T               19.2  .42 Ml 3.1 Md 2.8  4810742
CABF  002.60 269.1 m E Pn      2012/01/01 17:17:40.9   1.3                          T   001.0                                4806787
CABF  002.60 269.1 m E Pg      2012/01/01 17:17:46.3  -1.3                          T                                        4810719
CABF  002.60 269.1 m E Sn      2012/01/01 17:18:10.0   0.7                          T   001.0                                4806788
CABF  002.60 269.1 m E Sg      2012/01/01 17:18:19.6  -1.3                          T   001.0       14.3  .44 Ml 2.8         4806789
LPG   002.48 241.7 m E P       2012/01/01 17:17:40.9   0.0                          T   001.0                                4806781
LPG   002.48 241.7 m E Pg      2012/01/01 17:17:44.2  -1.4                          T                                        4811091
LPG   002.48 241.7 m E Sn      2012/01/01 17:18:06.2  -0.5                          T   001.0        7.7  .44 Ml 2.6         4806782
LPG   002.48 241.7 m E Sg      2012/01/01 17:18:15.2  -2.3                          T                5.0  .29 Ml 2.5 Md 2.7  4811087
LPL   002.48 242.3 m E P       2012/01/01 17:17:41.1   0.3                          T   001.0                                4806783
LPL   002.48 242.3 m E Sn      2012/01/01 17:18:08.1   1.4                          T                                        4811092
LPL   002.48 242.3 m E Sg      2012/01/01 17:18:16.6  -0.9                          T                6.9  .41 Ml 2.5         4811088
HAU   002.71 299.8 m E Pn      2012/01/01 17:17:42.2   1.1                          T   001.0                                4806774
HAU   002.71 299.8 m E Pg      2012/01/01 17:17:49.3  -0.3                          T   001.0                                4806775
HAU   002.71 299.8 m E Sn      2012/01/01 17:18:12.5   0.5                          T   001.0                                4806776
HAU   002.71 299.8 m E Sg      2012/01/01 17:18:24.0  -0.5                          T   001.0       10.1  .28 Ml 2.7         4806777
MBDF  002.93 228.5 m E Pn      2012/01/01 17:17:45.5   1.2                          T   001.0                                4806794
MBDF  002.93 228.5 m E Pg      2012/01/01 17:17:51.4  -2.4                          T                                        4810722
MBDF  002.93 228.5 m E Sg      2012/01/01 17:18:28.9  -2.7                          T                3.3  .30 Ml 2.5         4810737
THEF  003.03 301.5 m E Pn      2012/01/01 17:17:47.1   1.7                          T                                        4810745
THEF  003.03 301.5 m E Pg      2012/01/01 17:17:55.2  -0.1                          T                                        4810744
ORIF  003.31 238.6 m E Pn      2012/01/01 17:17:50.2   0.8                          T   001.0                                4806795
ORIF  003.31 238.6 m E Pg      2012/01/01 17:17:59.9  -0.8                          T                                        4810739
ORIF  003.31 238.6 m E Sg      2012/01/01 17:18:42.9  -0.2                          T                4.5  .47 Ml 2.5         4810738
FRF   003.88 216.9 m E Pn      2012/01/01 17:17:59.1   2.1                          T                                        4811090
FRF   003.88 216.9 m E Sn      2012/01/01 17:18:39.2  -0.8                          T                3.7  .32 Ml 2.7         4810724
SMRF  004.07 229.3 m E Pn      2012/01/01 17:18:00.7   1.0                          T   001.0                                4806796
SMRF  004.07 229.3 m E P       2012/01/01 17:18:03.6   0.4                          T                                        4810752
VIVF  004.07 244.7 m E Pn      2012/01/01 17:18:01.7   2.0                          T                                        4810723
LMR   004.13 216.3 m E Pn      2012/01/01 17:18:02.0   1.6                          T   001.0                                4806778
LMR   004.13 216.3 m E Sn      2012/01/01 17:18:46.7   0.9                          T                1.6  .29 Ml 2.5         4811089
LOR   004.14 279.9 m E Pn      2012/01/01 17:18:02.3   1.8 102.1  6.6               T   001.0                                4806779
LOR   004.14 279.9 m E Sg      2012/01/01 17:19:06.8  -2.2  99.7  4.2               T   001.0        2.1  .27 Ml 2.6         4806780
SMF   004.14 271.2 m E Pn      2012/01/01 17:18:02.5   2.0                          T   001.0                                4806784
SMF   004.14 271.2 m E Pg      2012/01/01 17:18:15.5  -0.4                          T                                        4810721
SMF   004.14 271.2 m E Sn      2012/01/01 17:18:45.6  -0.5                          T   001.0                                4806785
SMF   004.14 271.2 m E Sg      2012/01/01 17:19:06.4  -2.6                          T   001.0        3.1  .24 Ml 2.8         4806786
AVF   004.47 273.4 m E Pn      2012/01/01 17:18:06.9   1.9                          T   001.0                                4806770
BGF   004.83 270.7 m E Pn      2012/01/01 17:18:10.4   0.5                          T                                        4810741
BGF   004.83 270.7 m E Sn      2012/01/01 17:19:03.5   0.9                          T                                        4810740
BGF   004.83 270.7 m E Sg      2012/01/01 17:19:29.5  -1.0                          T                3.0  .34 Ml 2.8         4810743

.
EVENT     268014
    Date      Time       Latitude Longitude    Depth    Ndef Nsta Gap    Mag1  N    Mag2  N    Mag3  N   Author         ID
       rms   OT_Error      Smajor Sminor Az        Err   mdist  Mdist     Err        Err        Err      Quality

2012/01/01 18:19:23.2     47.5861   -3.3041      6.0 f    16    6 248  Ml 2.1  4  Md 1.9  1              js067245    268034

      1.27   +-  0.41       6.7    4.0   47.91 +-  0.0    0.34   2.37   +-0.1      +-                    m i ke

FRANCE
Sta     Dist  EvAz     Phase      Date       Time     TRes  Azim  AzRes  Slow  SRes Def   SNR       Amp   Per   Mag1   Mag2       ID
QUIF  000.34 015.7 m E Pg      2012/01/01 18:19:30.1   0.2                          T                                        4810377
QUIF  000.34 015.7 m E Sg      2012/01/01 18:19:33.9  -0.7                          T               50.5  .20        Md 1.9  4810376
SGMF  000.84 036.7 m E Pg      2012/01/01 18:19:39.4   0.4                          T                                        4810374
SGMF  000.84 036.7 m E Sg      2012/01/01 18:19:49.9   0.0                          T                5.6  .16                4810375
GRR   001.83 063.1 m E Pg      2012/01/01 18:19:56.9  -0.4                          T                                        4810386
GRR   001.83 063.1 m E Sg      2012/01/01 18:20:20.0  -0.9                          T                2.4  .20 Ml 2.1         4810385
FLN   002.23 057.0 m E Pg      2012/01/01 18:20:05.1   0.5                          T                                        4810381
FLN   002.23 057.0 m E Sn      2012/01/01 18:20:25.7   0.7 221.6  -17.6             T                                        4810380
FLN   002.23 057.0 m E Sg      2012/01/01 18:20:32.8  -0.4                          T                2.3  .26 Ml 2.0         4810378
MFF   002.37 113.4 m E Pg      2012/01/01 18:20:06.4  -0.8                          T                                        4810382
MFF   002.37 113.4 m E Sg      2012/01/01 18:20:38.2   0.5                          T                  1  .19 Ml 2.2         4810373
LDF   002.36 063.5 m E Pg      2012/01/01 18:20:07.7   0.6                          T                                        4810372
LDF   002.36 063.5 m E Sg      2012/01/01 18:20:36.5  -0.9                          T                1.5  .23 Ml 2.1         4810371

.
EVENT     268015
    Date      Time       Latitude Longitude    Depth    Ndef Nsta Gap    Mag1  N    Mag2  N    Mag3  N   Author         ID
       rms   OT_Error      Smajor Sminor Az        Err   mdist  Mdist     Err        Err        Err      Quality

2012/01/01 22:33:59.4     43.0795    -.0850     13.0 f    50    8 081  Ml 2.4  8  Md 2.5  2              js067245    268035

      0.48   +-  0.06       1.2    1.0  178.75 +-  0.0    0.12   4.06   +-0.2      +-0.0                 m i ke

PYRENEES
Sta     Dist  EvAz     Phase      Date       Time     TRes  Azim  AzRes  Slow  SRes Def   SNR       Amp   Per   Mag1   Mag2       ID
EPF   000.32 098.8 m E Pg      2012/01/01 22:34:05.6  -0.4                          T                                        4810405
EPF   000.32 098.8 m E Sg      2012/01/01 22:34:10.5   0.1                          T               35.6  .20        Md 2.5  4810396
MTLF  001.70 080.4 m E Pg      2012/01/01 22:34:30.6  -0.6                          T                                        4810404
MTLF  001.70 080.4 m E Sg      2012/01/01 22:34:53.4   0.2                          T                4.2  .25 Ml 2.3 Md 2.5  4810402
LFF   001.95 017.5 m E Pn      2012/01/01 22:34:31.0   0.5                          T                                        4810390
LFF   001.95 017.5 m E Pg      2012/01/01 22:34:36.0   0.3                          T                                        4810403
LFF   001.95 017.5 m E Sg      2012/01/01 22:35:00.9   0.0                          T                5.8  .27 Ml 2.4         4810401
CAF   002.41 039.3 m E Pg      2012/01/01 22:34:43.8  -0.4                          T                                        4810394
CAF   002.41 039.3 m E Sg      2012/01/01 22:35:16.4   1.1                          T                3.7  .25 Ml 2.5         4810395
LASF  003.03 069.5 m E Pn      2012/01/01 22:34:45.3   0.0                          T                                        4810397
LASF  003.03 069.5 m E P       2012/01/01 22:34:48.6   0.3                          T                                        4811346
LASF  003.03 069.5 m E Sg      2012/01/01 22:35:34.3  -0.3                          T                1.4  .24 Ml 2.2         4810398
RJF   002.50 026.8 m E Pg      2012/01/01 22:34:45.6  -0.3                          T                                        4811347
RJF   002.50 026.8 m E Sg      2012/01/01 22:35:18.5   0.4                          T                3.6  .22 Ml 2.2         4810389
MFF   003.52 359.3 m E Pg      2012/01/01 22:35:04.3  -0.4                          T                                        4810388
BGF   004.06 029.9 m E Pg      2012/01/01 22:35:14.4  -0.1                          T                                        4810393
BGF   004.06 029.9 m E Sg      2012/01/01 22:36:06.7   0.2                          T                6.4  .38 Ml 2.9         4810400

.
EVENT     267998
    Date      Time       Latitude Longitude    Depth    Ndef Nsta Gap    Mag1  N    Mag2  N    Mag3  N   Author         ID
       rms   OT_Error      Smajor Sminor Az        Err   mdist  Mdist     Err        Err        Err      Quality

2012/01/01 23:43:22.9     46.9107    6.5964      3.0 f    17    9 158  Ml 1.7  7  Md 1.8  2              js067245    268018

      0.19   +-  0.05       1.3     .8  100.07 +-  0.0    0.46   1.91   +-0.2      +-0.2                 m i ke

SWITZERLAND
Sta     Dist  EvAz     Phase      Date       Time     TRes  Azim  AzRes  Slow  SRes Def   SNR       Amp   Per   Mag1   Mag2       ID
CABF  000.46 229.6 m E Pg      2012/01/01 23:43:32.1   0.3                          T                                        4810410
CABF  000.46 229.6 m E Sg      2012/01/01 23:43:38.0   0.1                          T                4.6  .28        Md 1.7  4810409
HINF  000.92 010.8 m E Pg      2012/01/01 23:43:40.2  -0.1                          T                                        4811350
HINF  000.92 010.8 m E Sg      2012/01/01 23:43:52.3   0.0                          T                2.1  .18 Ml 1.8         4810408
HAU   001.11 351.3 m E Pg      2012/01/01 23:43:43.8   0.1                          T                                        4810418
HAU   001.11 351.3 m E Sg      2012/01/01 23:43:58.2   0.2                          T                2.3  .20 Ml 1.7 Md 1.9  4810407
LPL   001.40 176.1 m E Pg      2012/01/01 23:43:49.1  -0.1                          T                                        4810413
LPL   001.40 176.1 m E Sg      2012/01/01 23:44:07.9   0.5                          T                 .7  .23 Ml 1.5         4810414
LPG   001.42 175.6 m E Pg      2012/01/01 23:43:49.6  -0.1                          T                                        4810415
LPG   001.42 175.6 m E Sg      2012/01/01 23:44:07.9  -0.1                          T                1.1  .29 Ml 1.6         4810416
CDF   001.57 016.8 m E Pg      2012/01/01 23:43:52.1  -0.1                          T                                        4810419
CDF   001.57 016.8 m E Sg      2012/01/01 23:44:12.9   0.3                          T                                        4810412
SMF   001.91 263.0 m E Pg      2012/01/01 23:43:58.4  -0.1                          T                                        4811349
SMF   001.91 263.0 m E Sg      2012/01/01 23:44:22.9  -0.2                          T                1.5  .26 Ml 1.9         4810406
MEZF  001.90 327.3 m E Sn      2012/01/01 23:44:17.7   0.1                          T                1.9  .30 Ml 2.0         4811348
LOR   001.90 281.8 m E Sg      2012/01/01 23:44:22.8  -0.1                          T                 .7  .22 Ml 1.7         4810417

.
