EVENT     278800
    Date      Time       Latitude Longitude    Depth    Ndef Nsta Gap    Mag1  N    Mag2  N    Mag3  N   Author         ID
       rms   OT_Error      Smajor Sminor Az        Err   mdist  Mdist     Err        Err        Err      Quality

2012/06/27 19:49:16.6     45.8671    6.7541     15.0      19    8 177  Ml 2.0  7  Md 2.1  3              bulletin    278900
                                                                                                         _ldg
      1.41   +-  0.36       8.9    3.6   77.48 +-  0.0    0.35   2.44   +-0.2      +-0.1                 m i ke

FRANCE
Sta     Dist  EvAz     Phase      Date       Time     TRes  Azim  AzRes  Slow  SRes Def   SNR       Amp   Per   Mag1   Mag2       ID
LPL   000.35 182.5 m E Pg      2012/06/27 19:49:24.4   0.3                          T                                        5014656
LPL   000.35 182.5 m E Sg      2012/06/27 19:49:27.9  -1.2                          T               18.7  .24        Md 2.1  5014654
LPG   000.37 180.3 m E Pg      2012/06/27 19:49:25.0   0.5                          T                                        5014655
LPG   000.37 180.3 m E Sg      2012/06/27 19:49:28.2  -1.5                          T               23.7  .22        Md 2.1  5014653
CABF  000.88 328.4 m E Pg      2012/06/27 19:49:32.8  -0.6                          T                                        5024419
CABF  000.88 328.4 m E Sn      2012/06/27 19:49:45.0   0.3                          T                5.7  .24 Ml 2.1 Md 2.2  5014647
ORIF  001.13 213.3 m E Pn      2012/06/27 19:49:36.4  -0.1                          T                                        5014652
ORIF  001.13 213.3 m E Pg      2012/06/27 19:49:38.3   0.3                          T                                        5024413
ORIF  001.13 213.3 m E Sn      2012/06/27 19:49:51.4   0.6                          T                3.3  .28 Ml 1.9         5014648
MBDF  001.14 179.4 m E Pg      2012/06/27 19:49:38.1  -0.2                          T                                        5024412
MBDF  001.14 179.4 m E Sg      2012/06/27 19:49:53.2   0.0                          T                2.6  .40 Ml 1.7         5024414
VIVF  001.78 236.2 m E Pn      2012/06/27 19:49:45.4   0.2                          T                                        5014651
VIVF  001.78 236.2 m E Pg      2012/06/27 19:49:50.2   0.3                          T                                        5024415
VIVF  001.78 236.2 m E Sn      2012/06/27 19:50:07.1   0.8                          T                3.5  .28 Ml 2.3         5014649
LOR   002.44 306.1 m E Pg      2012/06/27 19:50:02.2   0.2                          T                                        5024416
LOR   002.44 306.1 m E Sg      2012/06/27 19:50:34.0   0.6                          T                 .9  .18 Ml 2.0         5024417
HINF  001.95 002.0 m E Sg      2012/06/27 19:50:17.5  -0.8                          T                 .9  .25 Ml 1.8         5024418

.
EVENT     278940
    Date      Time       Latitude Longitude    Depth    Ndef Nsta Gap    Mag1  N    Mag2  N    Mag3  N   Author         ID
       rms   OT_Error      Smajor Sminor Az        Err   mdist  Mdist     Err        Err        Err      Quality

2012/06/27 20:00:11.3     44.1749    8.5365     10.0      27    6 162  Ml 1.7  4  Md 2.3  1              bulletin    279040
                                                                                                         _ldg
      0.19   +-  0.06       1.3     .8  150.16 +-  0.0    0.15   2.14   +-0.1      +-                    m i ke

NORTHERN ITALY
Sta     Dist  EvAz     Phase      Date       Time     TRes  Azim  AzRes  Slow  SRes Def   SNR       Amp   Per   Mag1   Mag2       ID
SBF   000.85 249.0 m E Pg      2012/06/27 20:00:27.6   0.2                          T                                        5024422
SBF   000.85 249.0 m E Sg      2012/06/27 20:00:38.7   0.1                          T                5.4  .23        Md 2.3  5024423
MBDF  001.38 294.2 m E Pg      2012/06/27 20:00:37.0  -0.2                          T                                        5024439
MBDF  001.38 294.2 m E Sg      2012/06/27 20:00:55.1   0.0                          T                2.0  .30 Ml 1.8         5024440
LMR   001.69 240.9 m E Pn      2012/06/27 20:00:38.9  -0.3                          T                                        5024435
LMR   001.69 240.9 m E P       2012/06/27 20:00:41.2   0.0                          T                                        5024434
LMR   001.69 240.9 m E Pg      2012/06/27 20:00:42.9   0.1                          T                                        5024433
LMR   001.69 240.9 m E Sn      2012/06/27 20:00:59.2  -0.4                          T                                        5024432
LMR   001.69 240.9 m E Sg      2012/06/27 20:01:04.7   0.1                          T                1.0  .32 Ml 1.7         5024431
FRF   001.50 246.5 m E Pg      2012/06/27 20:00:39.3   0.1                          T                                        5024420
FRF   001.50 246.5 m E Sg      2012/06/27 20:00:58.4  -0.2                          T                 .9  .16 Ml 1.8         5024421
SMRF  002.14 265.7 m E Pn      2012/06/27 20:00:45.4   0.0                          T                                        5024437
SMRF  002.14 265.7 m E Pg      2012/06/27 20:00:51.1  -0.1                          T                                        5024436
SMRF  002.14 265.7 m E Sg      2012/06/27 20:01:19.0   0.2                          T                 .8  .25 Ml 1.7         5024430
ORIF  002.04 292.3 m E Pg      2012/06/27 20:00:49.0  -0.3                          T                                        5024438

.
EVENT     278941
    Date      Time       Latitude Longitude    Depth    Ndef Nsta Gap    Mag1  N    Mag2  N    Mag3  N   Author         ID
       rms   OT_Error      Smajor Sminor Az        Err   mdist  Mdist     Err        Err        Err      Quality

2012/06/27 22:04:50.1     45.2320    6.0168      2.0      11    5 171  Ml 1.9  1  Md 1.9  2              bulletin    279041
                                                                                                         _ldg
      1.77   +-  0.29       6.3    3.8  153.18 +-  0.0    0.33   1.02   +-         +-0.3                 m i ke

FRANCE
Sta     Dist  EvAz     Phase      Date       Time     TRes  Azim  AzRes  Slow  SRes Def   SNR       Amp   Per   Mag1   Mag2       ID
ORIF  000.33 197.2 m E Pg      2012/06/27 22:04:56.0  -0.6                          T                                        5024446
ORIF  000.33 197.2 m E Sg      2012/06/27 22:05:00.6  -0.4                          T               18.2  .24        Md 2.1  5024447
LPL   000.58 060.3 m E Pg      2012/06/27 22:05:01.1  -0.3                          T                                        5024444
LPL   000.58 060.3 m E Sg      2012/06/27 22:05:08.0  -1.0                          T                5.2  .44        Md 1.7  5024445
MBDF  000.74 133.1 m E Pg      2012/06/27 22:05:04.6   0.5                          T                                        5024448
MBDF  000.74 133.1 m E Sg      2012/06/27 22:05:14.8   1.0                          T                6.8  .50                5024449
LPG   000.58 062.6 m E Sg      2012/06/27 22:05:08.8  -0.3                          T                2.7  .34                5024443
VIVF  001.02 248.9 m E Pg      2012/06/27 22:05:09.4   0.1                          T                                        5024450
VIVF  001.02 248.9 m E Sg      2012/06/27 22:05:22.1  -0.5                          T                3.0  .26 Ml 1.9         5024451

.
EVENT     278942
    Date      Time       Latitude Longitude    Depth    Ndef Nsta Gap    Mag1  N    Mag2  N    Mag3  N   Author         ID
       rms   OT_Error      Smajor Sminor Az        Err   mdist  Mdist     Err        Err        Err      Quality

2012/06/28 00:11:47.8     42.6263    6.5152     10.0 f    10    5 241  Ml 2.0  5  Md 2.1  2              bulletin    279042
                                                                                                         _ldg
      0.62   +-  0.43       8.3    4.1   34.52 +-  0.0    0.71   1.84   +-0.3      +-0.0                 m i ke

WESTERN MEDITERRANEAN SEA
Sta     Dist  EvAz     Phase      Date       Time     TRes  Azim  AzRes  Slow  SRes Def   SNR       Amp   Per   Mag1   Mag2       ID
LMR   000.71 359.6 m E Pg      2012/06/28 00:12:01.3   0.0                          T                                        5024467
LMR   000.71 359.6 m E Sn      2012/06/28 00:12:12.3  -0.4                          T                3.6  .20        Md 2.1  5024468
FRF   000.94 005.8 m E Pg      2012/06/28 00:12:05.1  -0.4                          T                                        5024465
FRF   000.94 005.8 m E Sg      2012/06/28 00:12:18.8   1.1                          T                4.4  .20 Ml 2.2 Md 2.1  5024466
SBF   001.41 028.2 m E Pn      2012/06/28 00:12:11.7  -0.2                          T                                        5024459
SBF   001.41 028.2 m E Sg      2012/06/28 00:12:31.3  -1.1                          T                1.0  .23 Ml 1.6         5024461
SMRF  001.51 333.4 m E Pg      2012/06/28 00:12:15.9  -0.2                          T                                        5024463
SMRF  001.51 333.4 m E Sg      2012/06/28 00:12:35.2  -0.5                          T                1.0  .28 Ml 1.6         5024464
PGF   001.84 091.6 m E Sn      2012/06/28 00:12:40.0   0.3                          T                1.2  .20 Ml 2.2         5024462

.
EVENT     278801
    Date      Time       Latitude Longitude    Depth    Ndef Nsta Gap    Mag1  N    Mag2  N    Mag3  N   Author         ID
       rms   OT_Error      Smajor Sminor Az        Err   mdist  Mdist     Err        Err        Err      Quality

2012/06/28 00:34:55.7     44.5100    6.6963      2.0      44    9 052  Ml 1.8  6  Md 2.0  2              bulletin    278901
                                                                                                         _ldg
      0.46   +-  0.07       1.5    1.2   62.26 +-  0.0    0.09   1.71   +-0.2      +-0.2                 m i ke

FRANCE
Sta     Dist  EvAz     Phase      Date       Time     TRes  Azim  AzRes  Slow  SRes Def   SNR       Amp   Per   Mag1   Mag2       ID
MBDF  000.22 013.9 m E Pg      2012/06/28 00:35:00.5   0.1                          T                                        5014668
MBDF  000.22 013.9 m E Sg      2012/06/28 00:35:02.9  -0.5                          T               12.5  .20        Md 1.9  5014675
ORIF  000.71 305.3 m E Pg      2012/06/28 00:35:08.6  -0.6                          T                                        5014667
ORIF  000.71 305.3 m E Sg      2012/06/28 00:35:16.9  -1.7                          T                4.2  .18                5014676
SBF   000.84 140.3 m E Pg      2012/06/28 00:35:11.3  -0.2                          T                                        5014661
SBF   000.84 140.3 m E Sg      2012/06/28 00:35:22.3  -0.1                          T                4.5  .20                5014669
FRF   000.95 182.2 m E Pg      2012/06/28 00:35:13.5   0.0                          T                                        5014663
FRF   000.95 182.2 m E Sg      2012/06/28 00:35:25.7  -0.1                          T                3.5  .20 Ml 2.1         5014671
SMRF  000.97 236.9 m E Pg      2012/06/28 00:35:14.3   0.4                          T                                        5014664
SMRF  000.97 236.9 m E Sg      2012/06/28 00:35:26.7   0.2                          T                2.4  .22 Ml 1.8         5014672
LPG   000.99 002.2 m E Pg      2012/06/28 00:35:14.5  -0.1                          T                                        5014665
LPG   000.99 002.2 m E Sg      2012/06/28 00:35:26.5  -0.9                          T                2.0  .29 Ml 1.6         5014673
LPL   001.01 001.4 m E Pg      2012/06/28 00:35:15.0   0.1                          T                                        5014666
LPL   001.01 001.4 m E Sg      2012/06/28 00:35:27.7  -0.3                          T                3.4  .44 Ml 1.7         5014674
LMR   001.18 186.6 m E Pg      2012/06/28 00:35:17.7  -0.1                          T                                        5014662
LMR   001.18 186.6 m E Sg      2012/06/28 00:35:32.9  -0.2                          T                4.2  .22 Ml 2.2         5014670
VIVF  001.48 284.2 m E Pn      2012/06/28 00:35:21.9   0.2                          T                                        5014678
VIVF  001.48 284.2 m E Sg      2012/06/28 00:35:42.4  -0.2                          T                  1  .27 Ml 1.6         5014677

.
EVENT     278802
    Date      Time       Latitude Longitude    Depth    Ndef Nsta Gap    Mag1  N    Mag2  N    Mag3  N   Author         ID
       rms   OT_Error      Smajor Sminor Az        Err   mdist  Mdist     Err        Err        Err      Quality

2012/06/28 03:35:13.7     47.0423    1.2421      3.0 f    46   17 089  Ml 2.3 17  Md 2.3  3              bulletin    278902
                                                                                                         _ldg
      1.17   +-  0.06       1.5    1.1   22.73 +-  0.0    0.98   3.35   +-0.3      +-0.1                 m i ke

FRANCE
Sta     Dist  EvAz     Phase      Date       Time     TRes  Azim  AzRes  Slow  SRes Def   SNR       Amp   Per   Mag1   Mag2       ID
HYF   000.98 076.1 m E Pg      2012/06/28 03:35:32.1   0.0                          T                                        5024520
HYF   000.98 076.1 m E Sg      2012/06/28 03:35:44.6  -0.2                          T                                Md 2.2  5014684
TCF   001.01 138.2 m E Pg      2012/06/28 03:35:32.3  -0.3                          T                                        5014697
TCF   001.01 138.2 m E Sg      2012/06/28 03:35:45.1  -0.6                          T                8.4  .20 Ml 2.5 Md 2.3  5014696
MFF   001.05 245.7 m E Pn      2012/06/28 03:35:33.6  -0.1                          T                                        5014693
MFF   001.05 245.7 m E Sg      2012/06/28 03:35:46.6  -0.4                          T                                        5024507
MFF   001.05 245.7 m E Sn      2012/06/28 03:35:48.3   0.4                          T                7.4  .24 Ml 2.5 Md 2.4  5014685
BGF   001.20 113.2 m E Pn      2012/06/28 03:35:35.8   0.0                          T                                        5014691
BGF   001.20 113.2 m E Pg      2012/06/28 03:35:36.5   0.3                          T                                        5024521
BGF   001.20 113.2 m E Sn      2012/06/28 03:35:51.5  -0.2                          T               35.1  .32 Ml 2.9         5014689
AVF   001.47 099.1 m E Pn      2012/06/28 03:35:39.9   0.5                          T                                        5014695
AVF   001.47 099.1 m E Sn      2012/06/28 03:35:58.1   0.1                          T                4.9  .22 Ml 2.4         5014687
SSF   001.55 088.5 m E Pn      2012/06/28 03:35:40.6   0.1                          T                                        5014694
SSF   001.55 088.5 m E Pg      2012/06/28 03:35:42.6   0.1                          T                                        5024526
SSF   001.55 088.5 m E Sn      2012/06/28 03:35:59.6  -0.3                          T                3.0  .29 Ml 2.2         5014686
RJF   001.75 173.6 m E Pn      2012/06/28 03:35:43.1  -0.1                          T                                        5014690
RJF   001.75 173.6 m E Pg      2012/06/28 03:35:46.4   0.2                          T                                        5024514
RJF   001.75 173.6 m E Sn      2012/06/28 03:36:04.7   0.0                          T                3.7  .22 Ml 2.0         5014683
RJF   001.75 173.6 m E Sg      2012/06/28 03:36:08.9   0.1                          T                                        5024508
LOR   001.80 081.8 m E Pn      2012/06/28 03:35:43.9   0.0 261.7  -2.0              T                                        5024527
LOR   001.80 081.8 m E Pg      2012/06/28 03:35:47.2   0.0 268.8  5.1               T                                        5024525
LOR   001.80 081.8 m E Sg      2012/06/28 03:36:09.0  -1.4 241.6  -22.1             T                3.0  .26 Ml 2.2         5024528
SMF   001.83 101.6 m E Pn      2012/06/28 03:35:44.5   0.3                          T                                        5014692
SMF   001.83 101.6 m E Sn      2012/06/28 03:36:06.1  -0.5                          T                3.3  .18 Ml 2.4         5014688
LDF   001.80 329.9 m E Pg      2012/06/28 03:35:47.2   0.0                          T                                        5024516
LDF   001.80 329.9 m E Sg      2012/06/28 03:36:10.7   0.2                          T                1.2  .18 Ml 2.0         5024504
GRR   001.96 314.3 m E Pg      2012/06/28 03:35:50.2   0.2                          T                                        5024515
GRR   001.96 314.3 m E Sn      2012/06/28 03:36:09.2  -0.4                          T                                        5024506
GRR   001.96 314.3 m E Sg      2012/06/28 03:36:15.4   0.2                          T                1.3  .18 Ml 1.9         5024505
LFF   002.13 189.6 m E P       2012/06/28 03:35:50.6  -0.1                          T                                        5024513
LFF   002.13 189.6 m E Sg      2012/06/28 03:36:20.8   0.1                          T                4.3  .28 Ml 2.3         5024509
FLN   002.08 326.7 m E Pg      2012/06/28 03:35:52.0  -0.2 153.8  8.4               T                                        5024517
FLN   002.08 326.7 m E Sg      2012/06/28 03:36:18.9  -0.1                          T                2.0  .23 Ml 2.0         5024503
CAF   002.19 164.6 m E Pg      2012/06/28 03:35:54.3  -0.2                          T                                        5024512
CAF   002.19 164.6 m E Sn      2012/06/28 03:36:15.1  -0.2                          T                                        5024511
CAF   002.19 164.6 m E Sg      2012/06/28 03:36:22.0   0.3                          T                1.9  .27 Ml 2.1         5024510
QUIF  003.11 287.9 m E Pn      2012/06/28 03:36:01.4  -0.3                          T                                        5024519
QUIF  003.11 287.9 m E Pg      2012/06/28 03:36:11.5   0.1                          T                                        5024518
QUIF  003.11 287.9 m E Sg      2012/06/28 03:36:51.7   0.3                          T                1.4  .48 Ml 1.9         5024502
MEZF  002.96 059.0 m E Pg      2012/06/28 03:36:08.1  -0.3 252.6  10.8              T                                        5024501
MEZF  002.96 059.0 m E Sg      2012/06/28 03:36:46.5   0.1                          T                4.0  .30 Ml 2.5         5024500
CABF  003.35 095.6 m E Pg      2012/06/28 03:36:16.2   0.3                          T                                        5024524

.
