EVENT     296890
    Date      Time       Latitude Longitude    Depth    Ndef Nsta Gap    Mag1  N    Mag2  N    Mag3  N   Author         ID
       rms   OT_Error      Smajor Sminor Az        Err   mdist  Mdist     Err        Err        Err      Quality

2013/04/25 02:25:40.1     42.7167   -1.6920      2.0      81   13 082  Ml 2.5  9  Md 2.5  2              bulletin    296990
                                                                                                         _ldg
      0.63   +-  0.07       1.6    1.1  142.79 +-  0.0    0.10   5.70   +-0.3      +-0.1                 m i ke

PYRENEES
Sta     Dist  EvAz     Phase      Date       Time     TRes  Azim  AzRes  Slow  SRes Def   SNR       Amp   Per   Mag1   Mag2       ID
SJPF  000.52 040.7 m E Pg      2013/04/25 02:25:49.8  -0.4                          T                                        5268811
SJPF  000.52 040.7 m E Sg      2013/04/25 02:25:56.9  -0.1                          T               56.5  .28        Md 2.5  5268810
ETSF  000.85 077.3 m E Pg      2013/04/25 02:25:55.9  -0.4                          T                                        5268809
ETSF  000.85 077.3 m E Sg      2013/04/25 02:26:07.3   0.0                          T               16.9  .28        Md 2.4  5268808
EPF   001.53 077.5 m E Pg      2013/04/25 02:26:08.1  -0.6                          T                                        5268807
EPF   001.53 077.5 m E Sg      2013/04/25 02:26:28.0  -0.3                          T               19.6  .34 Ml 2.8         5268806
LFF   002.83 037.6 m E Pn      2013/04/25 02:26:25.1   0.6                          T                                        5268801
LFF   002.83 037.6 m E Pg      2013/04/25 02:26:32.3  -0.3                          T                                        5268800
LFF   002.83 037.6 m E Sn      2013/04/25 02:26:57.0  -0.2                          T                                        5268799
LFF   002.83 037.6 m E Sg      2013/04/25 02:27:08.9  -0.2                          T                8.1  .46 Ml 2.5         5268798
MTLF  002.93 076.4 m E Pn      2013/04/25 02:26:26.0   0.1                          T                                        5268803
MTLF  002.93 076.4 m E Pg      2013/04/25 02:26:34.3  -0.2                          T                                        5268802
MTLF  002.93 076.4 m E Sn      2013/04/25 02:26:59.5  -0.1                          T                                        5268805
MTLF  002.93 076.4 m E Sg      2013/04/25 02:27:12.1  -0.1                          T                2.0  .29 Ml 2.2         5268804
CAF   003.50 049.6 m E Pn      2013/04/25 02:26:33.5  -0.2                          T                                        5268797
CAF   003.50 049.6 m E Pg      2013/04/25 02:26:44.9  -0.1                          T                                        5268795
CAF   003.50 049.6 m E Sn      2013/04/25 02:27:13.3   0.1                          T                2.3  .24 Ml 2.5         5268796
CAF   003.50 049.6 m E Sg      2013/04/25 02:27:29.8  -0.2                          T                                        5268794
RJF   003.47 040.7 m E Pn      2013/04/25 02:26:33.6   0.4                          T                                        5268792
RJF   003.47 040.7 m E Sn      2013/04/25 02:27:12.5   0.0                          T                3.6  .36 Ml 2.2         5268793
LASF  004.27 069.5 m E Pn      2013/04/25 02:26:45.4   1.4                          T                                        5268784
LASF  004.27 069.5 m E Sn      2013/04/25 02:27:31.8   0.3                          T                 .8  .23 Ml 2.2         5268783
TCF   004.53 036.7 m E Pn      2013/04/25 02:26:47.7   0.0                          T                                        5268787
BGF   005.02 038.6 m E Pn      2013/04/25 02:26:54.2  -0.1                          T                                        5268791
BGF   005.02 038.6 m E Sn      2013/04/25 02:27:49.4  -0.2                          T                8.2  .52 Ml 3.1         5268790
AVF   005.43 039.7 m E Pn      2013/04/25 02:26:59.8  -0.1                          T                                        5268788
SMF   005.57 043.2 m E Pn      2013/04/25 02:27:02.1   0.3                          T                                        5268789
SSF   005.70 038.6 m E Pn      2013/04/25 02:27:03.7   0.2                          T                                        5268786
SSF   005.70 038.6 m E Sn      2013/04/25 02:28:05.6  -0.2                          T                1.8  .41 Ml 2.7         5268785

.
EVENT     296896
    Date      Time       Latitude Longitude    Depth    Ndef Nsta Gap    Mag1  N    Mag2  N    Mag3  N   Author         ID
       rms   OT_Error      Smajor Sminor Az        Err   mdist  Mdist     Err        Err        Err      Quality

2013/04/25 04:53:31.1     43.2601    -.4027      2.0       6    3 216             Md 1.8  3              bulletin    296996
                                                                                                         _ldg
      0.66   +-  0.60      16.1    6.9     .58 +-  0.0    0.38   0.62              +-0.0                 m i ke

PYRENEES
Sta     Dist  EvAz     Phase      Date       Time     TRes  Azim  AzRes  Slow  SRes Def   SNR       Amp   Per   Mag1   Mag2       ID
ETSF  000.38 197.7 m E Pg      2013/04/25 04:53:39.2   0.7                          T                                        5268816
ETSF  000.38 197.7 m E Sg      2013/04/25 04:53:42.3  -1.3                          T                3.6  .23        Md 1.8  5268815
EPF   000.59 112.6 m E Pg      2013/04/25 04:53:42.3  -0.1                          T                                        5268814
EPF   000.59 112.6 m E Sg      2013/04/25 04:53:49.5  -0.7                          T                1.3  .24        Md 1.7  5268813
SJPF  000.62 256.6 m E Pg      2013/04/25 04:53:42.8  -0.1                          T                                        5268819
SJPF  000.62 256.6 m E Sg      2013/04/25 04:53:50.1  -0.9                          T                 .4  .24        Md 1.8  5268820

.
EVENT     296897
    Date      Time       Latitude Longitude    Depth    Ndef Nsta Gap    Mag1  N    Mag2  N    Mag3  N   Author         ID
       rms   OT_Error      Smajor Sminor Az        Err   mdist  Mdist     Err        Err        Err      Quality

2013/04/25 05:29:32.0     34.2450   -4.7684      2.0      47    3 274  Ml 3.2  3                         bulletin    296997
                                                                                                         _ldg
      1.07   +-  0.55      11.5    5.1  177.71 +-  0.0    2.31   9.77   +-0.2                            m i ke

MOROCCO
Sta     Dist  EvAz     Phase      Date       Time     TRes  Azim  AzRes  Slow  SRes Def   SNR       Amp   Per   Mag1   Mag2       ID
ETSF  009.25 019.6 m E P       2013/04/25 05:31:49.0  -0.5                          T                                        5268873
ETSF  009.25 019.6 m E Sn      2013/04/25 05:33:20.5  -1.9                          T                 .7  .21 Ml 3.2         5268876
SJPF  009.28 016.3 m E P       2013/04/25 05:31:49.5  -0.4                          T                                        5268872
SJPF  009.28 016.3 m E Sn      2013/04/25 05:33:22.2  -0.9                          T                 .9  .37 Ml 3.0         5268877
EPF   009.64 023.0 m E P       2013/04/25 05:31:54.1  -0.8                          T                                        5268874
EPF   009.64 023.0 m E Sn      2013/04/25 05:33:29.9  -1.8                          T                1.3  .25 Ml 3.4         5268875

.
EVENT     296899
    Date      Time       Latitude Longitude    Depth    Ndef Nsta Gap    Mag1  N    Mag2  N    Mag3  N   Author         ID
       rms   OT_Error      Smajor Sminor Az        Err   mdist  Mdist     Err        Err        Err      Quality

2013/04/25 06:46:13.8     45.0205    7.0076      7.0 f    25    5 082  Ml 1.6  1  Md 1.7  2              bulletin    296999
                                                                                                         _ldg
      0.21   +-  0.04        .8     .6  116.29 +-  0.0    0.19   1.67   +-         +-0.1                 m i ke

NORTHERN ITALY
Sta     Dist  EvAz     Phase      Date       Time     TRes  Azim  AzRes  Slow  SRes Def   SNR       Amp   Per   Mag1   Mag2       ID
MBDF  000.34 209.9 m E Pg      2013/04/25 06:46:20.7   0.0                          T                                        5268885
MBDF  000.34 209.9 m E Sg      2013/04/25 06:46:25.5   0.2                          T                3.9  .17        Md 1.8  5268884
LPG   000.51 339.3 m E Pg      2013/04/25 06:46:24.1   0.1                          T                                        5268881
LPG   000.51 339.3 m E Sg      2013/04/25 06:46:30.7  -0.1                          T                3.6  .20        Md 1.6  5268880
LPL   000.53 338.7 m E Pg      2013/04/25 06:46:24.5   0.2                          T                                        5268883
LPL   000.53 338.7 m E Sg      2013/04/25 06:46:31.0  -0.4                          T                6.4  .23                5268882
ORIF  000.81 263.1 m E Pg      2013/04/25 06:46:29.3   0.1                          T                                        5268879
ORIF  000.81 263.1 m E Sg      2013/04/25 06:46:39.5  -0.2                          T                1.9  .23                5268878
VIVF  001.67 265.2 m E Sg      2013/04/25 06:47:06.4   0.0                          T                 .8  .26 Ml 1.6         5281569

.
EVENT     296911
    Date      Time       Latitude Longitude    Depth    Ndef Nsta Gap    Mag1  N    Mag2  N    Mag3  N   Author         ID
       rms   OT_Error      Smajor Sminor Az        Err   mdist  Mdist     Err        Err        Err      Quality

2013/04/25 07:31:08.7     43.0517    -.3146      2.0      31    9 137  Ml 2.3  7  Md 2.2  3              bulletin    297011
                                                                                                         _ldg
      0.39   +-  0.07       1.6    1.0  158.16 +-  0.0    0.24   3.70   +-0.3      +-0.1                 m i ke

PYRENEES
Sta     Dist  EvAz     Phase      Date       Time     TRes  Azim  AzRes  Slow  SRes Def   SNR       Amp   Per   Mag1   Mag2       ID
ETSF  000.24 229.6 m E Pg      2013/04/25 07:31:13.3  -0.2                          T                                        5268907
ETSF  000.24 229.6 m E Sg      2013/04/25 07:31:16.8   0.1                          T               17.5  .15        Md 2.2  5268906
EPF   000.48 092.3 m E Pg      2013/04/25 07:31:17.7  -0.2                          T                                        5268903
EPF   000.48 092.3 m E Sg      2013/04/25 07:31:23.6  -0.6                          T               12.1  .18        Md 2.1  5268902
SJPF  000.67 275.6 m E Pg      2013/04/25 07:31:21.1  -0.2                          T                                        5268905
SJPF  000.67 275.6 m E Sg      2013/04/25 07:31:30.1   0.0                          T                9.3  .22        Md 2.2  5268904
MTLF  001.87 080.3 m E Pn      2013/04/25 07:31:40.0   0.0                          T                                        5268909
MTLF  001.87 080.3 m E Pg      2013/04/25 07:31:43.7   0.2                          T                                        5268928
MTLF  001.87 080.3 m E Sn      2013/04/25 07:32:02.6  -0.2                          T                                        5268908
MTLF  001.87 080.3 m E Sg      2013/04/25 07:32:06.9  -0.7                          T                3.0  .30 Ml 2.2         5268927
LFF   002.03 021.6 m E Pn      2013/04/25 07:31:42.3   0.1                          T                                        5268922
LFF   002.03 021.6 m E Pg      2013/04/25 07:31:46.6   0.1                          T                                        5268921
LFF   002.03 021.6 m E Sn      2013/04/25 07:32:06.4  -0.3                          T                                        5268920
LFF   002.03 021.6 m E Sg      2013/04/25 07:32:12.5  -0.2                          T               10.1  .28 Ml 2.6         5268919
CAF   002.54 041.7 m E Pn      2013/04/25 07:31:49.4   0.3                          T                                        5268926
CAF   002.54 041.7 m E Pg      2013/04/25 07:31:55.9   0.0                          T                                        5268925
CAF   002.54 041.7 m E Sn      2013/04/25 07:32:19.0   0.2                          T                                        5268924
CAF   002.54 041.7 m E Sg      2013/04/25 07:32:28.4  -0.1                          T                3.0  .18 Ml 2.5         5268923
RJF   002.61 029.7 m E Pn      2013/04/25 07:31:50.2   0.2                          T                                        5268915
RJF   002.61 029.7 m E Pg      2013/04/25 07:31:56.6  -0.4                          T                                        5268914
RJF   002.61 029.7 m E Sg      2013/04/25 07:32:30.2  -0.4                          T                2.5  .18 Ml 2.2         5268913
LASF  003.20 069.9 m E Pn      2013/04/25 07:31:58.4   0.3                          T                                        5268918
LASF  003.20 069.9 m E Pg      2013/04/25 07:32:07.9   0.0                          T                                        5268917
LASF  003.20 069.9 m E Sg      2013/04/25 07:32:49.2   0.1                          T                1.2  .23 Ml 2.2         5268916
TCF   003.70 028.2 m E Pn      2013/04/25 07:32:05.3   0.3                          T                                        5268912
TCF   003.70 028.2 m E Sn      2013/04/25 07:32:45.9  -0.7                          T                                        5268911
TCF   003.70 028.2 m E Sg      2013/04/25 07:33:05.0   0.2                          T                1.1  .22 Ml 2.3         5268910

.
EVENT     296959
    Date      Time       Latitude Longitude    Depth    Ndef Nsta Gap    Mag1  N    Mag2  N    Mag3  N   Author         ID
       rms   OT_Error      Smajor Sminor Az        Err   mdist  Mdist     Err        Err        Err      Quality

2013/04/25 10:22:04.3     42.8095    -.2855      2.0      11    4 220  Ml 1.8  2  Md 2.0  3              bulletin    297059
                                                                                                         _ldg
      1.15   +-  0.53      19.6    2.5    1.93 +-  0.0    0.22   1.91   +-0.0      +-0.0                 m i ke

PYRENEES
Sta     Dist  EvAz     Phase      Date       Time     TRes  Azim  AzRes  Slow  SRes Def   SNR       Amp   Per   Mag1   Mag2       ID
ETSF  000.22 294.0 m E Pg      2013/04/25 10:22:09.3   0.5                          T                                        5269185
ETSF  000.22 294.0 m E Sg      2013/04/25 10:22:11.7  -0.1                          T               10.6  .21        Md 2.0  5269184
EPF   000.51 064.1 m E Pg      2013/04/25 10:22:13.8  -0.2                          T                                        5269183
EPF   000.51 064.1 m E Sg      2013/04/25 10:22:20.4  -0.4                          T                2.5  .16        Md 2.0  5269182
SJPF  000.75 294.1 m E Pg      2013/04/25 10:22:18.2  -0.3                          T                                        5269181
SJPF  000.75 294.1 m E Sg      2013/04/25 10:22:27.5  -0.9                          T                4.4  .23        Md 2.0  5269180
MTLF  001.91 073.0 m E Pg      2013/04/25 10:22:40.0   0.2                          T                                        5269187
MTLF  001.91 073.0 m E Sg      2013/04/25 10:23:03.9  -0.5                          T                1.1  .28 Ml 1.8         5269186

.
EVENT     296980
    Date      Time       Latitude Longitude    Depth    Ndef Nsta Gap    Mag1  N    Mag2  N    Mag3  N   Author         ID
       rms   OT_Error      Smajor Sminor Az        Err   mdist  Mdist     Err        Err        Err      Quality

2013/04/25 13:16:02.0     42.7808    -.2037      2.0       6    3 236             Md 1.4  2              bulletin    297080
                                                                                                         _ldg
      0.12   +-  0.25       8.6    1.2  176.71 +-  0.0    0.29   0.82              +-0.0                 m i ke

PYRENEES
Sta     Dist  EvAz     Phase      Date       Time     TRes  Azim  AzRes  Slow  SRes Def   SNR       Amp   Per   Mag1   Mag2       ID
ETSF  000.29 294.4 m E Pg      2013/04/25 13:16:07.8   0.0                          T                                        5269283
ETSF  000.29 294.4 m E Sg      2013/04/25 13:16:11.8   0.2                          T                6.6  .23        Md 1.5  5269282
EPF   000.47 057.8 m E Pg      2013/04/25 13:16:11.2   0.1                          T                                        5269284
EPF   000.47 057.8 m E Sg      2013/04/25 13:16:17.1  -0.2                          T                3.9  .20        Md 1.4  5269281
SJPF  000.82 294.2 m E Pg      2013/04/25 13:16:17.4  -0.1                          T                                        5269285
SJPF  000.82 294.2 m E Sg      2013/04/25 13:16:28.1  -0.1                          T                 .8  .21                5269280

.
EVENT     296997
    Date      Time       Latitude Longitude    Depth    Ndef Nsta Gap    Mag1  N    Mag2  N    Mag3  N   Author         ID
       rms   OT_Error      Smajor Sminor Az        Err   mdist  Mdist     Err        Err        Err      Quality

2013/04/25 14:24:40.8     47.4091    5.8487       .0 f    10    6 109  Ml 1.8  3  Md 1.6  3              bulletin    297097
                                                                                                         _ldg
      0.25   +-  0.07       1.5    1.2  112.67 +-  0.0    0.69   1.81   +-0.2      +-0.0                 m i km

FRANCE
Sta     Dist  EvAz     Phase      Date       Time     TRes  Azim  AzRes  Slow  SRes Def   SNR       Amp   Per   Mag1   Mag2       ID
HAU   000.69 029.3 m E Pg      2013/04/25 14:24:54.1   0.0                          T                                        5269312
HAU   000.69 029.3 m E Sg      2013/04/25 14:25:03.3   0.1                          T                8.3  .24        Md 1.6  5269294
HINF  000.79 058.7 m E Pg      2013/04/25 14:24:56.1   0.1                          T                                        5269314
HINF  000.79 058.7 m E Sg      2013/04/25 14:25:05.8  -0.7                          T                4.6  .18        Md 1.6  5269296
CABF  000.81 168.3 m E Pg      2013/04/25 14:24:56.5   0.1                          T                                        5269297
CABF  000.81 168.3 m E Sg      2013/04/25 14:25:07.2  -0.1                          T                1.6  .25        Md 1.6  5269313
SFTF  000.97 325.9 m E Pg      2013/04/25 14:24:59.2   0.1 144.3  -0.9              T                                        5269315
SFTF  000.97 325.9 m E Sn      2013/04/25 14:25:13.7  -0.2 145.0  -0.3              T                3.5  .20 Ml 2.0         5269295
CDF   001.39 043.2 m E Sg      2013/04/25 14:25:25.3   0.1                          T                 .9  .24 Ml 1.7         5281644
AVF   001.81 251.0 m E Sg      2013/04/25 14:25:38.1  -0.2                          T                1.6  .37 Ml 1.8         5281643

.
