EVENT     260415
    Date      Time       Latitude Longitude    Depth    Ndef Nsta Gap    Mag1  N    Mag2  N    Mag3  N   Author         ID
       rms   OT_Error      Smajor Sminor Az        Err   mdist  Mdist     Err        Err        Err      Quality

2011/06/15 21:30:21.9     42.8062   -1.4114      2.0      37    3 108  Ml 1.8  1  Md 1.9  2              js067245    260415

      0.35   +-  0.07       1.5    1.0   41.80 +-  0.0    0.04   1.54   +-         +-0.1                 m i ke

PYRENEES
Sta     Dist  EvAz     Phase      Date       Time     TRes  Azim  AzRes  Slow  SRes Def   SNR       Amp   Per   Mag1   Mag2       ID
SJPF  000.34 024.0 m E Pg      2011/06/15 21:30:28.4  -0.1                          T                                        4707853
SJPF  000.34 024.0 m E Sg      2011/06/15 21:30:31.9  -1.0                          T                4.2  .20        Md 2.0  4707851
ETSF  000.63 081.3 m E Pg      2011/06/15 21:30:34.5   0.4                          T                                        4707852
ETSF  000.63 081.3 m E Sg      2011/06/15 21:30:42.7   0.4                          T                2.5  .42        Md 1.9  4707857
EPF   001.31 079.5 m E Pg      2011/06/15 21:30:46.6   0.2                          T                                        4707856
EPF   001.31 079.5 m E Sg      2011/06/15 21:31:03.3   0.0                          T                2.2  .32 Ml 1.8         4707858

.
EVENT     260431
    Date      Time       Latitude Longitude    Depth    Ndef Nsta Gap    Mag1  N    Mag2  N    Mag3  N   Author         ID
       rms   OT_Error      Smajor Sminor Az        Err   mdist  Mdist     Err        Err        Err      Quality

2011/06/15 22:08:26.5     43.0587    -.6100      2.0       6    3 153             Md 1.1  2              js067245    260431

      0.27   +-  0.08       2.7    1.3    8.67 +-  0.0    0.07   0.70              +-0.0                 m i ke

PYRENEES
Sta     Dist  EvAz     Phase      Date       Time     TRes  Azim  AzRes  Slow  SRes Def   SNR       Amp   Per   Mag1   Mag2       ID
ETSF  000.16 166.9 m E Pg      2011/06/15 22:08:30.1   0.1                          T                                        4707967
ETSF  000.16 166.9 m E Sg      2011/06/15 22:08:31.9  -0.4                          T                2.4  .18        Md 1.1  4707965
SJPF  000.45 277.1 m E Pg      2011/06/15 22:08:35.1  -0.1                          T                                        4707966
SJPF  000.45 277.1 m E Sg      2011/06/15 22:08:41.2   0.0                          T                 .7  .24        Md 1.1  4707964
EPF   000.70 092.0 m E Pn      2011/06/15 22:08:41.8   0.0                          T                                        4707962
EPF   000.70 092.0 m E Sg      2011/06/15 22:08:49.6   0.7                          T                 .5  .21                4707963

.
EVENT     260444
    Date      Time       Latitude Longitude    Depth    Ndef Nsta Gap    Mag1  N    Mag2  N    Mag3  N   Author         ID
       rms   OT_Error      Smajor Sminor Az        Err   mdist  Mdist     Err        Err        Err      Quality

2011/06/16 01:05:00.5     50.1371    8.2306      1.0 f    32   11 081  Ml 2.2  8  Md 2.4  1              js067245    260444

      0.60   +-  0.09       1.8    1.4   69.55 +-  0.0    0.16   4.39   +-0.3      +-                    m i sr

GERMANY
Sta     Dist  EvAz     Phase      Date       Time     TRes  Azim  AzRes  Slow  SRes Def   SNR       Amp   Per   Mag1   Mag2       ID
RUP   000.87 240.5 m E Pg      2011/06/16 01:05:16.8  -0.1                          T                                        4709526
RUP   000.87 240.5 m E Sg      2011/06/16 01:05:27.7  -0.7                          T                                Md 2.4  4709527
LANF  001.19 193.6 m E Pg      2011/06/16 01:05:22.7  -0.1                          T                                        4709515
LANF  001.19 193.6 m E Sg      2011/06/16 01:05:38.4   0.2                          T               11.4  .24 Ml 2.6         4709516
CDF   001.84 200.3 m E Pn      2011/06/16 01:05:31.3  -0.3                          T                                        4709512
CDF   001.84 200.3 m E Pg      2011/06/16 01:05:35.0   0.2                          T                                        4709511
CDF   001.84 200.3 m E Sn      2011/06/16 01:05:53.6  -0.5                          T                                        4709514
CDF   001.84 200.3 m E Sg      2011/06/16 01:05:58.4  -0.1                          T                3.7  .38 Ml 2.3         4709513
GIVF  002.19 270.4 m E Pn      2011/06/16 01:05:36.3   0.0                          T                                        4709521
GIVF  002.19 270.4 m E Pg      2011/06/16 01:05:41.1  -0.2                          T                                        4709520
GIVF  002.19 270.4 m E Sg      2011/06/16 01:06:09.2  -0.3                          T                5.2  .30 Ml 2.5         4709504
PAGF  002.28 226.9 m E Pn      2011/06/16 01:05:37.4   0.0                          T                                        4709510
PAGF  002.28 226.9 m E Pg      2011/06/16 01:05:42.7  -0.2  48.1  3.1               T                                        4709509
PAGF  002.28 226.9 m E Sg      2011/06/16 01:06:12.5   0.3                          T                 .4  .29 Ml 1.5         4709502
HAU   002.47 210.8 m E Pn      2011/06/16 01:05:39.7  -0.4                          T                                        4709507
HAU   002.47 210.8 m E Pg      2011/06/16 01:05:46.3   0.0                          T                                        4709506
HAU   002.47 210.8 m E Sn      2011/06/16 01:06:18.4   9.3                          T                1.9  .22 Ml 2.0         4709500
BAIF  002.59 269.8 m E Pn      2011/06/16 01:05:41.7   0.0                          T                                        4709519
BAIF  002.59 269.8 m E P       2011/06/16 01:05:44.4   0.0                          T                                        4709518
BAIF  002.59 269.8 m E Pg      2011/06/16 01:05:48.7   0.1                          T                                        4709517
BAIF  002.59 269.8 m E Sg      2011/06/16 01:06:21.5  -0.4                          T                  1  .20 Ml 2.0         4709503
SFTF  002.85 228.5 m E Pg      2011/06/16 01:05:53.5   0.2                          T                                        4709508
LOR   004.08 226.9 m E Pn      2011/06/16 01:06:01.7  -0.3                          T                                        4709525
LOR   004.08 226.9 m E P       2011/06/16 01:06:05.1  -0.4  52.3  8.7               T                                        4709524
LOR   004.08 226.9 m E Pg      2011/06/16 01:06:16.1   0.1                          T                                        4709523
LOR   004.08 226.9 m E Sn      2011/06/16 01:06:47.6   0.0                          T                1.2  .31 Ml 2.3         4709505
SSF   004.39 227.3 m E Pn      2011/06/16 01:06:06.1  -0.2                          T                                        4709522
MEZF  002.65 233.0 m E Sg      2011/06/16 01:06:24.1   0.4                          T                2.4  .34 Ml 2.2         4709501

.
EVENT     260416
    Date      Time       Latitude Longitude    Depth    Ndef Nsta Gap    Mag1  N    Mag2  N    Mag3  N   Author         ID
       rms   OT_Error      Smajor Sminor Az        Err   mdist  Mdist     Err        Err        Err      Quality

2011/06/16 01:34:01.2     44.2955    7.3021     10.0      14    5 203  Ml 1.8  3  Md 1.9  4              js067245    260416

      0.20   +-  0.10       2.3    1.1   67.53 +-  0.0    0.05   1.19   +-0.4      +-0.1                 m i ke

NORTHERN ITALY
Sta     Dist  EvAz     Phase      Date       Time     TRes  Azim  AzRes  Slow  SRes Def   SNR       Amp   Per   Mag1   Mag2       ID
SBF   000.44 167.4 m E Pg      2011/06/16 01:34:10.0   0.1                          T                                        4708012
SBF   000.44 167.4 m E Sg      2011/06/16 01:34:16.0   0.1                          T                5.3  .24        Md 1.9  4708008
MBDF  000.57 318.8 m E Pg      2011/06/16 01:34:12.2  -0.3                          T                                        4708009
MBDF  000.57 318.8 m E Sg      2011/06/16 01:34:20.7   0.6                          T                1.8  .18        Md 1.8  4708005
FRF   000.87 213.0 m E Pg      2011/06/16 01:34:17.6  -0.1                          T                                        4708011
FRF   000.87 213.0 m E Sg      2011/06/16 01:34:28.8  -0.3                          T                1.8  .18 Ml 1.8 Md 2.0  4708006
LMR   001.12 211.1 m E Pg      2011/06/16 01:34:22.2   0.0                          T                                        4708010
LMR   001.12 211.1 m E Sg      2011/06/16 01:34:36.5  -0.3                          T                3.2  .19 Ml 2.1 Md 2.0  4708007
ORIF  001.19 302.0 m E Pg      2011/06/16 01:34:23.7   0.1                          T                                        4708023
ORIF  001.19 302.0 m E Sg      2011/06/16 01:34:39.2   0.1                          T                 .8  .24 Ml 1.4         4708022

.
EVENT     260417
    Date      Time       Latitude Longitude    Depth    Ndef Nsta Gap    Mag1  N    Mag2  N    Mag3  N   Author         ID
       rms   OT_Error      Smajor Sminor Az        Err   mdist  Mdist     Err        Err        Err      Quality

2011/06/16 01:52:51.5     46.1866    7.6482      2.0      15    5 144  Ml 1.4  5  Md 1.8  2              js067245    260417

      0.21   +-  0.05       1.6     .9  151.49 +-  0.0    0.04   2.48   +-0.1      +-0.0                 m i ke

SWITZERLAND
Sta     Dist  EvAz     Phase      Date       Time     TRes  Azim  AzRes  Slow  SRes Def   SNR       Amp   Per   Mag1   Mag2       ID
LPG   000.93 222.6 m E Pg      2011/06/16 01:53:09.3   0.0                          T                                        4708031
LPG   000.93 222.6 m E Sg      2011/06/16 01:53:21.3  -0.2                          T                1.7  .28 Ml 1.6 Md 1.8  4708029
LPL   000.93 224.0 m E Pg      2011/06/16 01:53:09.5   0.3                          T                                        4708032
LPL   000.93 224.0 m E Sg      2011/06/16 01:53:20.5  -0.7                          T                1.1  .34 Ml 1.3 Md 1.8  4708030
CABF  001.16 292.0 m E Pg      2011/06/16 01:53:13.2  -0.1                          T                                        4709644
CABF  001.16 292.0 m E Sg      2011/06/16 01:53:28.4   0.1                          T                 .9  .27 Ml 1.4         4709645
ORIF  001.78 225.0 m E Sg      2011/06/16 01:53:47.3  -0.3                          T                 .4  .20 Ml 1.4         4709647
VIVF  002.48 238.6 m E Sg      2011/06/16 01:54:09.3  -0.1                          T                 .3  .23 Ml 1.5         4709646

.
EVENT     260433
    Date      Time       Latitude Longitude    Depth    Ndef Nsta Gap    Mag1  N    Mag2  N    Mag3  N   Author         ID
       rms   OT_Error      Smajor Sminor Az        Err   mdist  Mdist     Err        Err        Err      Quality

2011/06/16 08:30:47.3     44.1491    6.2637      2.0      42   16 083  Ml 2.4 10  Md 2.5  5              js067245    260433

      0.25   +-  0.04        .9     .8   68.49 +-  0.0    0.53   4.45   +-0.3      +-0.1                 m i ke

FRANCE
Sta     Dist  EvAz     Phase      Date       Time     TRes  Azim  AzRes  Slow  SRes Def   SNR       Amp   Per   Mag1   Mag2       ID
SMRF  000.53 251.0 m E Pg      2011/06/16 08:30:57.4   0.1                          T                                        4708070
SMRF  000.53 251.0 m E Pn      2011/06/16 08:30:59.3  -0.5                          T                                        4709661
SMRF  000.53 251.0 m E Sg      2011/06/16 08:31:04.5   0.2                          T                                        4709662
SMRF  000.53 251.0 m E Sn      2011/06/16 08:31:09.0   0.6                          T               19.4  .20        Md 2.7  4708072
FRF   000.65 154.6 m E Pg      2011/06/16 08:30:59.6   0.1                          T                                        4708069
FRF   000.65 154.6 m E P       2011/06/16 08:31:01.1   0.1                          T                                        4709653
FRF   000.65 154.6 m E Sg      2011/06/16 08:31:08.1   0.0                          T               47.6  .32        Md 2.5  4708055
FRF   000.65 154.6 m E Sn      2011/06/16 08:31:12.2   0.1                          T                                        4709654
MBDF  000.68 032.0 m E Pg      2011/06/16 08:31:00.4   0.1                          T                                        4708071
MBDF  000.68 032.0 m E P       2011/06/16 08:31:01.9   0.1                          T                                        4709650
MBDF  000.68 032.0 m E Sg      2011/06/16 08:31:09.4   0.2                          T               20.9  .41        Md 2.4  4708052
ORIF  000.82 340.5 m E Pg      2011/06/16 08:31:02.4  -0.3                          T                                        4709660
ORIF  000.82 340.5 m E Pn      2011/06/16 08:31:04.1  -0.2                          T                                        4709658
ORIF  000.82 340.5 m E Sn      2011/06/16 08:31:16.4   0.1                          T               10.6  .22                4709659
LMR   000.83 167.6 m E Pg      2011/06/16 08:31:02.6  -0.3                          T                                        4709656
LMR   000.83 167.6 m E Pn      2011/06/16 08:31:04.5   0.1                          T                                        4709655
LMR   000.83 167.6 m E Sg      2011/06/16 08:31:13.4  -0.4                          T                                        4708067
LMR   000.83 167.6 m E Sn      2011/06/16 08:31:16.6   0.1                          T               24.9  .22        Md 2.5  4708056
SBF   000.89 108.3 m E Pg      2011/06/16 08:31:04.2   0.1                          T                                        4708064
SBF   000.89 108.3 m E Pn      2011/06/16 08:31:05.3   0.0                          T                                        4709657
SBF   000.89 108.3 m E Sn      2011/06/16 08:31:17.9  -0.2                          T               57.6  .44 Ml 2.9 Md 2.5  4708054
VIVF  001.34 302.4 m E Pn      2011/06/16 08:31:11.6   0.2                          T                                        4708066
VIVF  001.34 302.4 m E P       2011/06/16 08:31:13.2   0.1                          T                                        4709649
VIVF  001.34 302.4 m E Sg      2011/06/16 08:31:29.1  -0.5                          T               12.5  .20 Ml 2.8         4708058
LPG   001.39 014.3 m E Pn      2011/06/16 08:31:12.2  -0.2                          T                                        4708061
LPG   001.39 014.3 m E Pg      2011/06/16 08:31:13.7   0.1                          T                                        4708060
LPG   001.39 014.3 m E Sn      2011/06/16 08:31:30.9   0.6                          T                3.9  .36 Ml 2.0         4709652
LPL   001.41 013.5 m E Pn      2011/06/16 08:31:12.5   0.0                          T                                        4708062
LPL   001.41 013.5 m E Pg      2011/06/16 08:31:13.8   0.0                          T                                        4708059
LPL   001.41 013.5 m E Sn      2011/06/16 08:31:30.4  -0.1                          T                6.5  .49 Ml 2.1         4709651
LASF  001.74 268.4 m E Pn      2011/06/16 08:31:16.7   0.0                          T                                        4708065
LASF  001.74 268.4 m E Sn      2011/06/16 08:31:37.8  -0.3                          T                8.8  .46 Ml 2.4         4708057
PGF   002.56 127.8 m E Pn      2011/06/16 08:31:28.1   0.1                          T                                        4708063
PGF   002.56 127.8 m E Sn      2011/06/16 08:31:57.8   0.0                          T                1.6  .22 Ml 2.4         4708053
MTLF  003.04 256.0 m E Pn      2011/06/16 08:31:34.8   0.3                          T                                        4708049
MTLF  003.04 256.0 m E Sn      2011/06/16 08:32:09.4   0.1                          T                2.1  .24 Ml 2.4         4708051
CAF   003.10 286.0 m E Pn      2011/06/16 08:31:36.3   0.9                          T                                        4708048
CAF   003.10 286.0 m E Sn      2011/06/16 08:32:10.9   0.1                          T                1.5  .22 Ml 2.3         4708047
EPF   004.45 257.5 m E Pn      2011/06/16 08:31:53.3  -0.3                          T                                        4708050
SMF   003.02 326.5 m E Sn      2011/06/16 08:32:09.1   0.2                          T                4.2  .49 Ml 2.4         4708046
RJF   003.58 290.5 m E Sn      2011/06/16 08:32:23.0   0.9                          T                1.8  .26 Ml 2.1         4708396

.
EVENT     260471
    Date      Time       Latitude Longitude    Depth    Ndef Nsta Gap    Mag1  N    Mag2  N    Mag3  N   Author         ID
       rms   OT_Error      Smajor Sminor Az        Err   mdist  Mdist     Err        Err        Err      Quality

2011/06/16 13:32:42.0     47.6403    6.2532       .0 f    11    6 120  Ml 1.8  4  Md 1.8  2              js067245    260471

      0.25   +-  0.09       2.3    1.5  133.32 +-  0.0    0.37   1.67   +-0.1      +-0.3                 m i km

FRANCE
Sta     Dist  EvAz     Phase      Date       Time     TRes  Azim  AzRes  Slow  SRes Def   SNR       Amp   Per   Mag1   Mag2       ID
HAU   000.37 009.9 m E Pg      2011/06/16 13:32:49.2  -0.3                          T                                        4708436
HAU   000.37 009.9 m E Sg      2011/06/16 13:32:54.9   0.3                          T              100.2 1.06        Md 2.0  4708434
HINF  000.44 066.2 m E Pg      2011/06/16 13:32:50.5  -0.3                          T                                        4709674
HINF  000.44 066.2 m E Sg      2011/06/16 13:32:56.8   0.0                          T               37.8 1.06                4709676
CABF  001.04 186.3 m E Pg      2011/06/16 13:33:01.9   0.1                          T                                        4708431
CABF  001.04 186.3 m E Sg      2011/06/16 13:33:15.4   0.0                          T                2.0  .22 Ml 1.8         4708432
CDF   001.03 041.3 m E Pg      2011/06/16 13:33:02.0   0.2                          T                                        4708430
CDF   001.03 041.3 m E Sg      2011/06/16 13:33:16.0   0.6                          T                1.5  .26 Ml 1.7 Md 1.6  4708429
LOR   001.67 258.0 m E Pg      2011/06/16 13:33:13.5   0.1                          T                                        4708435
LOR   001.67 258.0 m E Sg      2011/06/16 13:33:34.8  -0.2                          T                1.5  .24 Ml 1.9         4708433
SFTF  000.99 305.1 m E Sg      2011/06/16 13:33:13.9  -0.1                          T                3.1  .25 Ml 1.9         4709675

.
