EVENT     268064
    Date      Time       Latitude Longitude    Depth    Ndef Nsta Gap    Mag1  N    Mag2  N    Mag3  N   Author         ID
       rms   OT_Error      Smajor Sminor Az        Err   mdist  Mdist     Err        Err        Err      Quality

2012/01/02 01:42:58.9     46.7090    9.8189     10.0 f   153   35 022  Ml 3.4 32  Md 3.3  3              js067245    268084

      1.83   +-  0.15       3.6    2.8  155.48 +-  0.0    0.08   9.01   +-0.2      +-0.1                 m i ke

SWITZERLAND
Sta     Dist  EvAz     Phase      Date       Time     TRes  Azim  AzRes  Slow  SRes Def   SNR       Amp   Per   Mag1   Mag2       ID
HINF  002.30 299.8 m E Pn      2012/01/02 01:43:36.4   1.2                          T   001.0                                4807023
HINF  002.30 299.8 m E Sn      2012/01/02 01:44:01.8  -0.1                          T   001.0                                4807024
HINF  002.30 299.8 m E Sg      2012/01/02 01:44:10.7  -0.8                          T   001.0       57.5  .38 Ml 3.5 Md 3.3  4807025
CDF   002.42 315.6 m E Pn      2012/01/02 01:43:38.0   1.1                          T                                        4811036
CDF   002.42 315.6 m E Pg      2012/01/02 01:43:44.4   0.4                          T                                        4811035
CDF   002.42 315.6 m E Sg      2012/01/02 01:44:16.6   1.4                          T              171.0  .48 Ml 4.0 Md 3.4  4811081
LPL   002.46 242.1 m E P       2012/01/02 01:43:40.5   0.4                          T   001.0                                4807007
LPL   002.46 242.1 m E Sn      2012/01/02 01:44:05.4  -0.4                          T   001.0         68  .48 Ml 3.5         4807008
LPL   002.46 242.1 m E Sg      2012/01/02 01:44:16.8   0.4                          T               78.6  .52 Ml 3.5         4811014
LPG   002.45 241.5 m E P       2012/01/02 01:43:40.6   0.4                          T   001.0                                4807005
LPG   002.45 241.5 m E Pg      2012/01/02 01:43:43.5  -1.3                          T                                        4811079
LPG   002.45 241.5 m E Sn      2012/01/02 01:44:05.8   0.0                          T   001.0       70.5  .40 Ml 3.6         4807006
LPG   002.45 241.5 m E Sg      2012/01/02 01:44:14.9  -1.5                          T              103.6  .54 Ml 3.6 Md 3.2  4811078
CABF  002.57 269.2 m E Pn      2012/01/02 01:43:40.8   1.9                          T   001.0                                4807020
CABF  002.57 269.2 m E Pg      2012/01/02 01:43:46.0  -0.8                          T                                        4811024
CABF  002.57 269.2 m E Sg      2012/01/02 01:44:18.6  -1.2                          T              128.3  .50 Ml 3.7         4811023
LANF  002.65 329.9 m E Pn      2012/01/02 01:43:41.2   1.4                          T                                        4811037
LANF  002.65 329.9 m E Pg      2012/01/02 01:43:48.3   0.3                          T                                        4811019
LANF  002.65 329.9 m E Sg      2012/01/02 01:44:25.5   3.5                          T               60.2  .43 Ml 3.5         4811075
HAU   002.69 300.1 m E Pn      2012/01/02 01:43:41.8   1.3                          T   001.0                                4806997
HAU   002.69 300.1 m E Pg      2012/01/02 01:43:49.5   0.6                          T   001.0                                4806998
HAU   002.69 300.1 m E Sg      2012/01/02 01:44:22.5  -1.0                          T   001.0       73.6  .34 Ml 3.5         4806999
MBDF  002.91 228.2 m E Pn      2012/01/02 01:43:44.6   0.9                          T   001.0                                4807026
MBDF  002.91 228.2 m E Pg      2012/01/02 01:43:51.0  -2.1                          T                                        4811080
MBDF  002.91 228.2 m E Sg      2012/01/02 01:44:29.5  -1.1                          T               44.8  .38 Ml 3.5         4811011
THEF  003.01 301.8 m E Pn      2012/01/02 01:43:46.8   2.0                          T                                        4811033
THEF  003.01 301.8 m E Pg      2012/01/02 01:43:54.5  -0.1                          T                                        4811021
THEF  003.01 301.8 m E Sg      2012/01/02 01:44:33.4   0.1                          T               83.3  .42 Ml 3.7         4811022
PAGF  003.33 305.2 m E Pn      2012/01/02 01:43:51.4   2.3 125.2  3.0               T                                        4811020
PAGF  003.33 305.2 m E Sg      2012/01/02 01:44:43.8   0.5 126.8  4.6               T               16.3  .66 Ml 2.9         4811074
ORIF  003.29 238.4 m E P       2012/01/02 01:43:52.6   0.9                          T   001.0                                4807029
ORIF  003.29 238.4 m E Pg      2012/01/02 01:43:59.5  -0.4                          T                                        4811076
ORIF  003.29 238.4 m E Sg      2012/01/02 01:44:40.8  -1.3                          T               35.8  .38 Ml 3.5         4811013
SFTF  003.57 296.5 m E Pn      2012/01/02 01:43:54.4   1.9 116.2  3.2               T                                        4811034
SFTF  003.57 296.5 m E Sg      2012/01/02 01:44:49.6  -1.3 115.4  2.4               T               37.7  .54 Ml 3.4         4811016
MEZF  003.69 300.8 m E Pn      2012/01/02 01:43:56.4   2.3 111.3  -6.0              T   001.0                                4807027
MEZF  003.69 300.8 m E Sn      2012/01/02 01:44:35.7   0.7                          T   001.0       34.9  .44 Ml 3.5         4807028
MEZF  003.69 300.8 m E Sg      2012/01/02 01:44:55.3   0.7 117.5  0.2               T               33.6  .42 Ml 3.5         4811077
VIVF  004.05 244.6 m E Pn      2012/01/02 01:44:01.3   2.3                          T   001.0                                4807031
VIVF  004.05 244.6 m E Pg      2012/01/02 01:44:12.4  -1.4                          T                                        4811071
VIVF  004.05 244.6 m E Sg      2012/01/02 01:45:04.4  -1.4                          T                7.9  .33 Ml 3.0         4811030
LMR   004.11 216.0 m E Pn      2012/01/02 01:44:01.6   1.9                          T   001.0                                4807002
LMR   004.11 216.0 m E Sn      2012/01/02 01:44:45.0   0.0                          T   001.0       10.4  .28 Ml 3.3         4807003
LOR   004.12 280.0 m E Pn      2012/01/02 01:44:01.9   2.0 103.1  7.4               T   001.0                                4807004
LOR   004.12 280.0 m E Sg      2012/01/02 01:45:06.6  -1.3 113.6  18.0              T               33.4  .45 Ml 3.6         4811018
SMF   004.12 271.3 m E Pn      2012/01/02 01:44:02.3   2.5                          T   001.0                                4807011
SMF   004.12 271.3 m E Pg      2012/01/02 01:44:14.5  -0.6                          T                                        4811085
SMF   004.12 271.3 m E Sn      2012/01/02 01:44:45.3   0.2                          T   001.0                                4807012
SMF   004.12 271.3 m E Sg      2012/01/02 01:45:06.1  -1.7                          T   001.0       36.5  .36 Ml 3.7         4807013
SMRF  004.05 229.1 m E P       2012/01/02 01:44:03.1   0.5                          T   001.0                                4807032
SMRF  004.05 229.1 m E Sn      2012/01/02 01:44:44.1   0.4                          T   001.0       10.5  .40 Ml 3.1         4807033
SMRF  004.05 229.1 m E Sg      2012/01/02 01:45:04.0  -1.9                          T                6.2  .31 Ml 3.0         4811072
PGF   004.20 188.3 m E Pn      2012/01/02 01:44:04.0   2.9                          T   001.0                                4807010
PGF   004.20 188.3 m E Sn      2012/01/02 01:44:49.5   2.2                          T                                        4811028
SSF   004.34 276.9 m E Pn      2012/01/02 01:44:05.2   2.3                          T   001.0                                4807014
SSF   004.34 276.9 m E Sg      2012/01/02 01:45:13.6  -1.4                          T   001.0       12.3  .30 Ml 3.4         4807015
AVF   004.45 273.4 m E Pn      2012/01/02 01:44:06.5   2.2                          T   001.0                                4807022
AVF   004.45 273.4 m E Sg      2012/01/02 01:45:16.7  -1.5                          T   001.0       19.6  .58 Ml 3.3         4806989
BGF   004.81 270.7 m E Pn      2012/01/02 01:44:10.9   1.7                          T   001.0                                4806990
BGF   004.81 270.7 m E Sn      2012/01/02 01:45:01.9   0.3                          T                                        4811015
BGF   004.81 270.7 m E Sg      2012/01/02 01:45:28.4  -1.0                          T   001.0       22.3  .36 Ml 3.6         4806992
GIVF  004.75 317.4 m E Pn      2012/01/02 01:44:11.3   2.8                          T   001.0                                4807021
HYF   004.95 279.1 m E Pn      2012/01/02 01:44:13.7   2.6                          T                                        4811032
LASF  004.96 240.1 m E Pn      2012/01/02 01:44:13.9   2.6                          T   001.0                                4807000
LASF  004.96 240.1 m E S       2012/01/02 01:45:10.6  -3.1                          T                                        4811027
BAIF  005.02 313.9 m E Pn      2012/01/02 01:44:15.1   3.0                          T   001.0                                4807018
BAIF  005.02 313.9 m E Sn      2012/01/02 01:45:06.7  -0.1                          T   001.0        6.9  .52 Ml 3.0         4807019
TCF   005.27 268.2 m E Pn      2012/01/02 01:44:17.3   1.7                          T   001.0                                4807016
TCF   005.27 268.2 m E Sn      2012/01/02 01:45:14.2   1.4                          T   001.0       15.8  .56 Ml 3.4         4807017
TCF   005.27 268.2 m E Sg      2012/01/02 01:45:42.5  -1.5                          T               12.2  .45 Ml 3.4         4811017
CAF   005.71 254.6 m E Pn      2012/01/02 01:44:24.2   2.7                          T   001.0                                4806993
CAF   005.71 254.6 m E Sn      2012/01/02 01:45:24.2   1.0                          T                                        4811084
LFF   006.59 257.7 m E P       2012/01/02 01:44:37.9  -0.4                          T                                        4811029
MFF   006.86 272.7 m E Pn      2012/01/02 01:44:39.4   2.2                          T   001.0                                4807009
LDF   006.98 289.3 m E Pn      2012/01/02 01:44:40.9   2.1                          T   001.0                                4807001
FLN   007.24 290.2 m E Pn      2012/01/02 01:44:44.3   1.9 112.2  9.6               T   001.0                                4806995
GRR   007.42 287.0 m E Pn      2012/01/02 01:44:47.1   2.3                          T   001.0                                4806996
SGMF  008.53 285.0 m E Pn      2012/01/02 01:45:01.0   1.2                          T                                        4811025
QUIF  008.91 282.5 m E Pn      2012/01/02 01:45:07.2   2.2                          T   001.0                                4807030

.
EVENT     268065
    Date      Time       Latitude Longitude    Depth    Ndef Nsta Gap    Mag1  N    Mag2  N    Mag3  N   Author         ID
       rms   OT_Error      Smajor Sminor Az        Err   mdist  Mdist     Err        Err        Err      Quality

2012/01/02 05:33:08.4     48.0438    7.8641     15.0 f    15    5 057  Ml 1.7  3  Md 1.6  3              js067245    268085

      0.30   +-  0.06       1.3    1.0  174.71 +-  0.0    0.09   1.27   +-0.2      +-0.0                 m i ke

FRANCE
Sta     Dist  EvAz     Phase      Date       Time     TRes  Azim  AzRes  Slow  SRes Def   SNR       Amp   Per   Mag1   Mag2       ID
CDF   000.54 313.4 m E Pg      2012/01/02 05:33:18.7  -0.4                          T                                        4810867
CDF   000.54 313.4 m E Sg      2012/01/02 05:33:25.5  -0.9                          T                 .7  .16        Md 1.6  4810866
HINF  000.72 251.9 m E Pg      2012/01/02 05:33:22.5   0.3                          T                                        4810864
HINF  000.72 251.9 m E Sg      2012/01/02 05:33:31.7   0.0                          T                2.4  .31        Md 1.6  4810865
HAU   001.02 268.4 m E Pg      2012/01/02 05:33:27.9   0.2                          T                                        4810859
HAU   001.02 268.4 m E Sg      2012/01/02 05:33:40.7  -0.3                          T                2.3  .32 Ml 1.5 Md 1.6  4810860
THEF  001.27 279.1 m E Pg      2012/01/02 05:33:32.3   0.1                          T                                        4810862
THEF  001.27 279.1 m E Sg      2012/01/02 05:33:48.8   0.2                          T                1.8  .25 Ml 1.8         4810863
LANF  000.94 357.6 m E Sg      2012/01/02 05:33:37.9  -0.6                          T                1.3  .16 Ml 1.7         4810861

.
EVENT     268066
    Date      Time       Latitude Longitude    Depth    Ndef Nsta Gap    Mag1  N    Mag2  N    Mag3  N   Author         ID
       rms   OT_Error      Smajor Sminor Az        Err   mdist  Mdist     Err        Err        Err      Quality

2012/01/02 06:06:34.4     47.8400    5.8382     15.0      17    9 156  Ml 1.5  2  Md 1.5  3              js067245    268086

      0.83   +-  0.12       2.5    1.5    7.28 +-  0.0    0.38   1.74   +-0.1      +-0.1                 m i ke

FRANCE
Sta     Dist  EvAz     Phase      Date       Time     TRes  Azim  AzRes  Slow  SRes Def   SNR       Amp   Per   Mag1   Mag2       ID
HAU   000.38 064.0 m E Pg      2012/01/02 06:06:42.5   0.3                          T                                        4810790
HAU   000.38 064.0 m E Sg      2012/01/02 06:06:47.5  -0.1                          T                2.6  .22        Md 1.5  4810788
THEF  000.40 015.0 m E Pg      2012/01/02 06:06:42.6   0.1                          T                                        4810791
THEF  000.40 015.0 m E Sg      2012/01/02 06:06:47.3  -0.9                          T               15.0  .20        Md 1.6  4810794
SFTF  000.65 304.5 m E Pg      2012/01/02 06:06:46.7  -0.2 123.9  0.0               T                                        4811353
SFTF  000.65 304.5 m E Sg      2012/01/02 06:06:56.2   0.6 123.1  -0.8              T                4.4  .21                4810793
HINF  000.68 091.6 m E Pg      2012/01/02 06:06:47.6   0.0                          T                                        4811351
HINF  000.68 091.6 m E Pn      2012/01/02 06:06:48.1  -0.1                          T                                        4810795
HINF  000.68 091.6 m E Sg      2012/01/02 06:06:56.8   0.1                          T                4.2  .18        Md 1.5  4810796
MEZF  000.85 321.8 m E Pg      2012/01/02 06:06:50.6   0.1 144.4  3.2               T                                        4810784
MEZF  000.85 321.8 m E Sg      2012/01/02 06:07:01.5  -0.1 136.6  -4.6              T                2.0  .22                4810789
CDF   001.12 058.7 m E Pg      2012/01/02 06:06:55.3  -0.3                          T                                        4810783
CDF   001.12 058.7 m E Sg      2012/01/02 06:07:09.7  -0.6                          T                1.1  .26 Ml 1.6         4810792
PAGF  000.72 354.0 m E Sg      2012/01/02 06:06:57.9   0.1                          T                5.0  .68                4810787
LANF  001.74 048.2 m E Pg      2012/01/02 06:07:07.2   0.3                          T                                        4810785
LANF  001.74 048.2 m E Sg      2012/01/02 06:07:29.6   0.3                          T                                        4810786
LOR   001.46 247.6 m E Sg      2012/01/02 06:07:20.6   0.0  76.8  10.6              T                 .6  .22 Ml 1.5         4811352

.
EVENT     268067
    Date      Time       Latitude Longitude    Depth    Ndef Nsta Gap    Mag1  N    Mag2  N    Mag3  N   Author         ID
       rms   OT_Error      Smajor Sminor Az        Err   mdist  Mdist     Err        Err        Err      Quality

2012/01/02 08:46:59.8     44.5181    7.1961      3.0 f    26    6 102  Ml 1.8  5  Md 1.8  3              js067245    268087

      0.24   +-  0.05       1.3     .8   71.92 +-  0.0    0.04   1.28   +-0.3      +-0.0                 m i ke

NORTHERN ITALY
Sta     Dist  EvAz     Phase      Date       Time     TRes  Azim  AzRes  Slow  SRes Def   SNR       Amp   Per   Mag1   Mag2       ID
MBDF  000.37 304.7 m E Pg      2012/01/02 08:47:07.5   0.3                          T                                        4810759
MBDF  000.37 304.7 m E Sg      2012/01/02 08:47:12.1   0.0                          T                8.6  .29        Md 1.8  4810758
ORIF  001.02 293.6 m E Pg      2012/01/02 08:47:19.2   0.2                          T                                        4810753
ORIF  001.02 293.6 m E Sg      2012/01/02 08:47:32.6   0.3                          T                1.2  .27 Ml 1.5 Md 1.8  4810774
LPG   001.03 342.3 m E Pg      2012/01/02 08:47:19.6   0.1                          T                                        4810755
LPG   001.03 342.3 m E Sg      2012/01/02 08:47:32.9   0.1                          T                1.7  .23 Ml 1.7 Md 1.9  4810775
FRF   001.04 202.7 m E Pn      2012/01/02 08:47:19.6   0.0                          T                                        4810757
FRF   001.04 202.7 m E Sg      2012/01/02 08:47:33.1   0.5                          T                3.0  .20 Ml 2.0         4810776
LMR   001.28 203.0 m E Pg      2012/01/02 08:47:23.9   0.1                          T                                        4810756
LMR   001.28 203.0 m E Sg      2012/01/02 08:47:40.6   0.2                          T                3.0  .22 Ml 2.1         4810772
LPL   001.05 341.9 m E Sg      2012/01/02 08:47:33.3  -0.2                          T                2.5  .25 Ml 1.8         4810773

.
EVENT     268073
    Date      Time       Latitude Longitude    Depth    Ndef Nsta Gap    Mag1  N    Mag2  N    Mag3  N   Author         ID
       rms   OT_Error      Smajor Sminor Az        Err   mdist  Mdist     Err        Err        Err      Quality

2012/01/03 06:57:13.4     45.3333    7.5282      8.0 f    25    5 159  Ml 1.9  3  Md 1.9  3              js067245    268093

      0.58   +-  0.09       1.9    1.0  123.43 +-  0.0    0.24   1.88   +-0.1      +-0.1                 m i ke

NORTHERN ITALY
Sta     Dist  EvAz     Phase      Date       Time     TRes  Azim  AzRes  Slow  SRes Def   SNR       Amp   Per   Mag1   Mag2       ID
LPG   000.57 287.0 m E Pg      2012/01/03 06:57:24.5  -0.2                          T                                        4811103
LPG   000.57 287.0 m E Pn      2012/01/03 06:57:27.3   0.6                          T                                        4811096
LPG   000.57 287.0 m E Sg      2012/01/03 06:57:31.7  -0.6                          T               23.0  .32        Md 1.9  4811099
LPL   000.59 288.4 m E Pg      2012/01/03 06:57:24.9  -0.1                          T                                        4811104
LPL   000.59 288.4 m E Sg      2012/01/03 06:57:32.5  -0.3                          T               11.1  .22        Md 1.9  4811100
MBDF  000.81 221.8 m E Pg      2012/01/03 06:57:28.8  -0.1                          T                                        4811102
MBDF  000.81 221.8 m E Sg      2012/01/03 06:57:39.4  -0.1                          T                7.1  .28        Md 2.0  4811101
ORIF  001.24 251.0 m E Pg      2012/01/03 06:57:36.7  -0.1                          T                                        4811098
ORIF  001.24 251.0 m E Sg      2012/01/03 06:57:52.7  -0.1                          T                3.0  .31 Ml 1.9         4811097
FRF   001.88 199.9 m E Sg      2012/01/03 06:58:12.0  -0.7                          T                 .8  .22 Ml 1.8         4811095

.
