EVENT     295748
    Date      Time       Latitude Longitude    Depth    Ndef Nsta Gap    Mag1  N    Mag2  N    Mag3  N   Author         ID
       rms   OT_Error      Smajor Sminor Az        Err   mdist  Mdist     Err        Err        Err      Quality

2013/04/10 21:55:19.8     46.9138   12.6831      8.0 f    38    7 185  Ml 2.7  8                         bulletin    295848
                                                                                                         _ldg
      0.36   +-  0.08       2.0     .8   33.79 +-  0.0    0.32   5.39   +-0.2                            m i ke

NORTHERN ITALY
Sta     Dist  EvAz     Phase      Date       Time     TRes  Azim  AzRes  Slow  SRes Def   SNR       Amp   Per   Mag1   Mag2       ID
CDF   003.95 294.3 m E P       2013/04/10 21:56:22.4   0.0                          T                                        5253056
CDF   003.95 294.3 m E Pg      2013/04/10 21:56:33.2   0.2                          T                                        5253054
CDF   003.95 294.3 m E Sn      2013/04/10 21:57:02.6   0.0                          T                                        5253053
CDF   003.95 294.3 m E Sg      2013/04/10 21:57:23.8   0.1                          T                5.9  .63 Ml 2.7         5253055
HINF  004.06 285.0 m E P       2013/04/10 21:56:23.9   0.0                          T                                        5253066
HINF  004.06 285.0 m E Sn      2013/04/10 21:57:05.3   0.0                          T                3.5  .32 Ml 2.7         5253064
HAU   004.43 286.6 m E P       2013/04/10 21:56:29.1  -0.1                          T                                        5253065
HAU   004.43 286.6 m E Sn      2013/04/10 21:57:14.1   0.0                          T                                        5253063
HAU   004.43 286.6 m E Sg      2013/04/10 21:57:38.8   0.1                          T                3.0  .31 Ml 2.5         5253062
CABF  004.54 268.6 m E P       2013/04/10 21:56:30.3  -0.5                          T                                        5253050
CABF  004.54 268.6 m E Sn      2013/04/10 21:57:16.3  -0.5                          T                 .7  .22 Ml 2.3         5253049
MEZF  005.39 289.9 m E P       2013/04/10 21:56:42.9   0.3                          T                                        5253059
MEZF  005.39 289.9 m E Pg      2013/04/10 21:56:58.8  -0.6 109.1  4.8               T                                        5253052
MEZF  005.39 289.9 m E Sn      2013/04/10 21:57:36.7  -0.2                          T                7.2  .57 Ml 3.1         5253058
MEZF  005.39 289.9 m E Sg      2013/04/10 21:58:08.5  -0.1                          T                1.8  .28 Ml 2.8         5253051
PAGF  004.97 291.8 m E Pg      2013/04/10 21:56:51.6  -0.1                          T                                        5253061
PAGF  004.97 291.8 m E Sg      2013/04/10 21:57:55.5   0.0                          T                1.4  .22 Ml 2.7         5253060
SFTF  005.33 286.8 m E Sn      2013/04/10 21:57:35.4  -0.1                          T                4.0  .48 Ml 2.9         5253057

.
EVENT     295745
    Date      Time       Latitude Longitude    Depth    Ndef Nsta Gap    Mag1  N    Mag2  N    Mag3  N   Author         ID
       rms   OT_Error      Smajor Sminor Az        Err   mdist  Mdist     Err        Err        Err      Quality

2013/04/11 00:54:35.1     44.5575    7.3196      2.0      49    9 133  Ml 1.8  7  Md 2.0  3              bulletin    295845
                                                                                                         _ldg
      0.35   +-  0.06       1.3     .8   61.50 +-  0.0    0.07   1.91   +-0.2      +-0.2                 m i ke

NORTHERN ITALY
Sta     Dist  EvAz     Phase      Date       Time     TRes  Azim  AzRes  Slow  SRes Def   SNR       Amp   Per   Mag1   Mag2       ID
MBDF  000.43 293.6 m E Pg      2013/04/11 00:54:43.4  -0.1                          T                                        5252757
MBDF  000.43 293.6 m E Sg      2013/04/11 00:54:49.0  -0.1                          T               10.3  .16        Md 1.8  5252756
SBF   000.70 173.1 m E Pg      2013/04/11 00:54:48.4   0.0                          T                                        5252751
SBF   000.70 173.1 m E Sg      2013/04/11 00:54:57.8   0.3                          T                9.6  .31        Md 1.8  5252750
LPG   001.02 337.0 m E Pg      2013/04/11 00:54:54.6   0.0                          T                                        5253238
LPG   001.02 337.0 m E Sg      2013/04/11 00:55:08.0   0.1                          T                2.2  .24 Ml 1.8         5253237
LPL   001.05 336.7 m E Pg      2013/04/11 00:54:54.9   0.0                          T                                        5252755
LPL   001.05 336.7 m E Sg      2013/04/11 00:55:08.5   0.0                          T                1.5  .33 Ml 1.5 Md 2.2  5252746
ORIF  001.09 289.9 m E Pg      2013/04/11 00:54:55.7   0.1                          T                                        5252748
ORIF  001.09 289.9 m E Sg      2013/04/11 00:55:09.8   0.1                          T                1.9  .29 Ml 1.7         5252747
FRF   001.11 206.2 m E Pg      2013/04/11 00:54:56.0   0.1                          T                                        5252754
FRF   001.11 206.2 m E Sg      2013/04/11 00:55:10.5   0.4                          T                3.7  .22 Ml 2.1         5252744
SMRF  001.38 245.7 m E Pn      2013/04/11 00:54:59.9   0.1                          T                                        5252753
SMRF  001.38 245.7 m E Pg      2013/04/11 00:55:01.8   0.9                          T                                        5253240
SMRF  001.38 245.7 m E Sn      2013/04/11 00:55:17.6   0.1                          T                                        5253239
SMRF  001.38 245.7 m E Sg      2013/04/11 00:55:19.1   0.3                          T                1.5  .25 Ml 1.8         5252745
LMR   001.36 205.9 m E Pg      2013/04/11 00:55:00.5   0.1                          T                                        5252752
LMR   001.36 205.9 m E Sg      2013/04/11 00:55:18.1   0.2                          T                2.0  .17 Ml 2.0         5252749
VIVF  001.91 279.9 m E Pn      2013/04/11 00:55:07.0   0.1                          T                                        5253236

.
EVENT     295749
    Date      Time       Latitude Longitude    Depth    Ndef Nsta Gap    Mag1  N    Mag2  N    Mag3  N   Author         ID
       rms   OT_Error      Smajor Sminor Az        Err   mdist  Mdist     Err        Err        Err      Quality

2013/04/11 01:58:03.2     42.7644   -1.9128      2.0      25    4 266  Ml 1.8  3  Md 1.8  2              bulletin    295849
                                                                                                         _ldg
      0.18   +-  0.14       2.2    1.2   87.34 +-  0.0    0.24   2.90   +-0.2      +-0.1                 m i ke

PYRENEES
Sta     Dist  EvAz     Phase      Date       Time     TRes  Azim  AzRes  Slow  SRes Def   SNR       Amp   Per   Mag1   Mag2       ID
SJPF  000.61 055.1 m E Pg      2013/04/11 01:58:14.9   0.0                          T                                        5253248
SJPF  000.61 055.1 m E Sg      2013/04/11 01:58:23.1   0.2                          T                5.2  .34        Md 1.9  5253247
ETSF  001.00 081.9 m E Pg      2013/04/11 01:58:22.1  -0.1                          T                                        5253246
ETSF  001.00 081.9 m E Sg      2013/04/11 01:58:35.3   0.1                          T                1.7  .25 Ml 1.6 Md 1.7  5253245
EPF   001.68 080.1 m E Pg      2013/04/11 01:58:34.5   0.0                          T                                        5253244
EPF   001.68 080.1 m E Sg      2013/04/11 01:58:56.1   0.0                          T                1.4  .25 Ml 1.9         5253243
LFF   002.90 040.5 m E Pg      2013/04/11 01:58:56.9   0.0                          T                                        5253241
LFF   002.90 040.5 m E Sg      2013/04/11 01:59:34.2  -0.1                          T                1.4  .26 Ml 2.0         5253242

.
EVENT     295750
    Date      Time       Latitude Longitude    Depth    Ndef Nsta Gap    Mag1  N    Mag2  N    Mag3  N   Author         ID
       rms   OT_Error      Smajor Sminor Az        Err   mdist  Mdist     Err        Err        Err      Quality

2013/04/11 02:08:12.0     42.7475   -1.9435      2.0      29    4 211  Ml 2.1  3  Md 2.0  2              bulletin    295850
                                                                                                         _ldg
      0.26   +-  0.13       1.9    1.3  104.56 +-  0.0    0.27   2.93   +-0.2      +-0.1                 m i ke

PYRENEES
Sta     Dist  EvAz     Phase      Date       Time     TRes  Azim  AzRes  Slow  SRes Def   SNR       Amp   Per   Mag1   Mag2       ID
SJPF  000.64 055.0 m E Pg      2013/04/11 02:08:24.2   0.0                          T                                        5253256
SJPF  000.64 055.0 m E Sg      2013/04/11 02:08:32.6   0.0                          T                4.8  .23        Md 2.1  5253255
ETSF  001.03 081.1 m E Pg      2013/04/11 02:08:31.4  -0.1                          T                                        5253254
ETSF  001.03 081.1 m E Sg      2013/04/11 02:08:44.9   0.1                          T                3.3  .30 Ml 1.9 Md 2.0  5253253
EPF   001.70 079.7 m E Pg      2013/04/11 02:08:44.0   0.2                          T                                        5253252
EPF   001.70 079.7 m E Sg      2013/04/11 02:09:05.8   0.1                          T                4.0  .28 Ml 2.3         5253251
LFF   002.93 040.6 m E Pg      2013/04/11 02:09:06.2   0.0                          T                                        5253249
LFF   002.93 040.6 m E Sg      2013/04/11 02:09:43.8  -0.1                          T                3.5  .36 Ml 2.2         5253250

.
EVENT     295753
    Date      Time       Latitude Longitude    Depth    Ndef Nsta Gap    Mag1  N    Mag2  N    Mag3  N   Author         ID
       rms   OT_Error      Smajor Sminor Az        Err   mdist  Mdist     Err        Err        Err      Quality

2013/04/11 03:19:51.3     44.0469    6.8404      2.0      18    8 115  Ml 1.9  5  Md 2.0  3              bulletin    295853
                                                                                                         _ldg
      0.34   +-  0.07       1.7    1.1   81.29 +-  0.0    0.47   1.47   +-0.1      +-0.1                 m i ke

FRANCE
Sta     Dist  EvAz     Phase      Date       Time     TRes  Azim  AzRes  Slow  SRes Def   SNR       Amp   Per   Mag1   Mag2       ID
SBF   000.47 112.9 m E Pg      2013/04/11 03:20:00.6   0.3                          T                                        5253285
SBF   000.47 112.9 m E Sg      2013/04/11 03:20:06.4  -0.1                          T               42.9  .72        Md 2.1  5253278
FRF   000.51 196.2 m E Pg      2013/04/11 03:20:00.8  -0.1                          T                                        5253286
FRF   000.51 196.2 m E Sg      2013/04/11 03:20:07.4  -0.2                          T               13.1  .48        Md 2.0  5253279
MBDF  000.68 355.9 m E Pg      2013/04/11 03:20:04.3  -0.1                          T                                        5253282
MBDF  000.68 355.9 m E Sg      2013/04/11 03:20:13.0  -0.3                          T                                        5253281
LMR   000.75 198.7 m E Pg      2013/04/11 03:20:05.3  -0.1                          T                                        5253284
LMR   000.75 198.7 m E Sg      2013/04/11 03:20:15.0  -0.2                          T                8.6  .40        Md 2.0  5253277
SMRF  000.92 266.0 m E Pg      2013/04/11 03:20:08.9   0.4                          T                                        5253283
SMRF  000.92 266.0 m E Sg      2013/04/11 03:20:20.5   0.0                          T               11.4  .58 Ml 2.1         5253280
ORIF  001.11 322.1 m E Pg      2013/04/11 03:20:11.9  -0.3                          T                                        5253275
ORIF  001.11 322.1 m E Sg      2013/04/11 03:20:26.8   0.2                          T                6.7  .54 Ml 2.0         5253274
LPL   001.47 357.0 m E Pn      2013/04/11 03:20:17.0  -0.4                          T                                        5253276
LPL   001.47 357.0 m E Sn      2013/04/11 03:20:36.1   0.0                          T                2.6  .51 Ml 1.7         5253427
LPG   001.45 357.5 m E Pn      2013/04/11 03:20:17.4   0.2                          T                                        5253426
LPG   001.45 357.5 m E Sn      2013/04/11 03:20:35.7   0.0                          T                2.9  .46 Ml 1.8         5253425

.
EVENT     295773
    Date      Time       Latitude Longitude    Depth    Ndef Nsta Gap    Mag1  N    Mag2  N    Mag3  N   Author         ID
       rms   OT_Error      Smajor Sminor Az        Err   mdist  Mdist     Err        Err        Err      Quality

2013/04/11 03:20:38.9     44.8647    7.2337     10.0      14    3 141  Ml 1.4  1  Md 1.4  2              bulletin    295873
                                                                                                         _ldg
      0.16   +-  0.05       1.2     .8   99.79 +-  0.0    0.04   0.96   +-         +-0.1                 m i ke

NORTHERN ITALY
Sta     Dist  EvAz     Phase      Date       Time     TRes  Azim  AzRes  Slow  SRes Def   SNR       Amp   Per   Mag1   Mag2       ID
MBDF  000.36 247.4 m E Pg      2013/04/11 03:20:46.2   0.0                          T                                        5253292
MBDF  000.36 247.4 m E Sg      2013/04/11 03:20:51.1   0.0                          T                1.1  .22        Md 1.5  5253291
LPL   000.74 331.6 m E Pg      2013/04/11 03:20:53.3   0.0                          T                                        5253288
LPL   000.74 331.6 m E Sg      2013/04/11 03:21:03.0   0.0                          T                 .9  .32        Md 1.4  5253287
ORIF  000.96 273.7 m E Pg      2013/04/11 03:20:57.1  -0.1                          T                                        5253290
ORIF  000.96 273.7 m E Sg      2013/04/11 03:21:09.6  -0.1                          T                1.1  .29 Ml 1.4         5253289

.
EVENT     295760
    Date      Time       Latitude Longitude    Depth    Ndef Nsta Gap    Mag1  N    Mag2  N    Mag3  N   Author         ID
       rms   OT_Error      Smajor Sminor Az        Err   mdist  Mdist     Err        Err        Err      Quality

2013/04/11 03:23:52.0     44.0464    6.8312      2.0      12    7 115  Ml 1.5  1  Md 1.6  2              bulletin    295860
                                                                                                         _ldg
      0.17   +-  0.06       1.8    1.0   86.08 +-  0.0    0.47   1.47   +-         +-0.0                 m i ke

FRANCE
Sta     Dist  EvAz     Phase      Date       Time     TRes  Azim  AzRes  Slow  SRes Def   SNR       Amp   Per   Mag1   Mag2       ID
SBF   000.47 112.6 m E Pg      2013/04/11 03:24:01.2   0.2                          T                                        5253439
SBF   000.47 112.6 m E Sg      2013/04/11 03:24:06.8  -0.5                          T               23.5  .74        Md 1.7  5253433
FRF   000.50 195.4 m E Pg      2013/04/11 03:24:01.7   0.1                          T                                        5253440
FRF   000.50 195.4 m E Sg      2013/04/11 03:24:08.3   0.1                          T                4.7  .40        Md 1.6  5253436
MBDF  000.68 356.4 m E Pg      2013/04/11 03:24:05.2   0.1                          T                                        5253429
MBDF  000.68 356.4 m E Sg      2013/04/11 03:24:13.8  -0.1                          T                2.8  .38                5253430
LMR   000.75 198.3 m E Pg      2013/04/11 03:24:05.9  -0.1                          T                                        5253435
LMR   000.75 198.3 m E Sg      2013/04/11 03:24:15.7  -0.2                          T                3.0  .36                5253434
SMRF  000.91 266.0 m E Pg      2013/04/11 03:24:10.1   1.0                          T                                        5253438
SMRF  000.91 266.0 m E Sg      2013/04/11 03:24:20.3  -0.6                          T                2.3  .44 Ml 1.5         5253437
ORIF  001.11 322.3 m E Pg      2013/04/11 03:24:12.7  -0.1                          T                                        5253431
LPL   001.47 357.3 m E Pn      2013/04/11 03:24:18.0   0.0                          T                                        5253432

.
EVENT     295751
    Date      Time       Latitude Longitude    Depth    Ndef Nsta Gap    Mag1  N    Mag2  N    Mag3  N   Author         ID
       rms   OT_Error      Smajor Sminor Az        Err   mdist  Mdist     Err        Err        Err      Quality

2013/04/11 04:33:34.5     42.7143   -2.0032      2.0      22    3 265  Ml 1.6  2  Md 1.6  2              bulletin    295851
                                                                                                         _ldg
      0.62   +-  0.55       7.5    6.0   82.53 +-  0.0    0.32   1.75   +-0.4      +-0.1                 m i ke

SPAIN
Sta     Dist  EvAz     Phase      Date       Time     TRes  Azim  AzRes  Slow  SRes Def   SNR       Amp   Per   Mag1   Mag2       ID
SJPF  000.70 054.8 m E Pg      2013/04/11 04:33:47.9   0.2                          T                                        5253301
SJPF  000.70 054.8 m E Sg      2013/04/11 04:33:56.6  -0.2                          T                 .8  .14        Md 1.6  5253302
ETSF  001.08 079.7 m E Pg      2013/04/11 04:33:55.0   0.2                          T                                        5253300
ETSF  001.08 079.7 m E Sg      2013/04/11 04:34:08.6  -0.2                          T                 .6  .25 Ml 1.3 Md 1.5  5253299
EPF   001.75 078.8 m E Pg      2013/04/11 04:34:07.1   0.0                          T                                        5253298
EPF   001.75 078.8 m E Sg      2013/04/11 04:34:29.7   0.0                          T                1.3  .24 Ml 1.9         5253297

.
