EVENT     258346
    Date      Time       Latitude Longitude    Depth    Ndef Nsta Gap    Mag1  N    Mag2  N    Mag3  N   Author         ID
       rms   OT_Error      Smajor Sminor Az        Err   mdist  Mdist     Err        Err        Err      Quality

2011/04/16 06:58:57.1     43.0071     .1279      2.0      30    7 158  Ml 2.0  5  Md 1.9  3              js067245    258346

      0.33   +-  0.07       2.3     .8  150.53 +-  0.0    0.16   2.50   +-0.2      +-0.0                 m i ke

FRANCE
Sta     Dist  EvAz     Phase      Date       Time     TRes  Azim  AzRes  Slow  SRes Def   SNR       Amp   Per   Mag1   Mag2       ID
EPF   000.16 081.5 m E Pg      2011/04/16 06:59:00.6   0.1                          T                                        4674223
EPF   000.16 081.5 m E Sg      2011/04/16 06:59:02.9   0.2                          T               60.8  .20        Md 1.9  4674217
ETSF  000.52 258.1 m E Pg      2011/04/16 06:59:06.5  -0.5                          T                                        4674222
ETSF  000.52 258.1 m E Sg      2011/04/16 06:59:13.2  -0.7                          T                6.9  .28        Md 1.9  4674218
SJPF  001.00 276.6 m E Pg      2011/04/16 06:59:15.6  -0.3                          T                                        4674220
SJPF  001.00 276.6 m E Sg      2011/04/16 06:59:28.4  -0.3                          T                3.0  .30 Ml 1.8 Md 2.0  4674219
MTLF  001.56 077.0 m E Pg      2011/04/16 06:59:26.2  -0.1                          T                                        4674221
MTLF  001.56 077.0 m E Sg      2011/04/16 06:59:46.7   0.2                          T                  1  .17 Ml 1.8         4674216
LFF   001.98 012.7 m E Pg      2011/04/16 06:59:34.0   0.1                          T                                        4674213
LFF   001.98 012.7 m E Sg      2011/04/16 07:00:00.0   0.6                          T                6.6  .43 Ml 2.2         4674212
CAF   002.37 035.4 m E Pg      2011/04/16 06:59:40.9  -0.3                          T                                        4674214
CAF   002.37 035.4 m E Sg      2011/04/16 07:00:12.2   0.5                          T                1.5  .20 Ml 2.1         4674215
RJF   002.50 023.0 m E Pg      2011/04/16 06:59:43.5  -0.1                          T                                        4674210
RJF   002.50 023.0 m E Sg      2011/04/16 07:00:16.2   0.4                          T                1.5  .23 Ml 1.8         4674211

.
EVENT     258345
    Date      Time       Latitude Longitude    Depth    Ndef Nsta Gap    Mag1  N    Mag2  N    Mag3  N   Author         ID
       rms   OT_Error      Smajor Sminor Az        Err   mdist  Mdist     Err        Err        Err      Quality

2011/04/16 12:50:56.5     42.8434    2.0257      4.0 f    43    8 057  Ml 2.1  7  Md 2.3  3              js067245    258345

      0.27   +-  0.04        .8     .7  109.83 +-  0.0    0.09   2.78   +-0.2      +-0.0                 m i ke

PYRENEES
Sta     Dist  EvAz     Phase      Date       Time     TRes  Azim  AzRes  Slow  SRes Def   SNR       Amp   Per   Mag1   Mag2       ID
MTLF  000.52 015.7 m E Pg      2011/04/16 12:51:06.3  -0.1                          T                                        4674247
MTLF  000.52 015.7 m E Sg      2011/04/16 12:51:12.7  -0.5                          T                2.1  .14        Md 2.3  4674245
EPF   001.25 279.2 m E Pg      2011/04/16 12:51:19.8  -0.1                          T                                        4674238
EPF   001.25 279.2 m E Sg      2011/04/16 12:51:35.9  -0.3                          T                4.8  .24 Ml 2.2 Md 2.2  4674244
LASF  001.82 046.6 m E Pn      2011/04/16 12:51:27.1   0.3                          T                                        4674230
LASF  001.82 046.6 m E Pg      2011/04/16 12:51:30.4   0.1                          T                                        4674246
LASF  001.82 046.6 m E Sg      2011/04/16 12:51:53.9   0.2                          T                2.0  .27 Ml 2.0 Md 2.3  4674243
ETSF  001.90 272.5 m E Pn      2011/04/16 12:51:28.1   0.0                          T                                        4674229
ETSF  001.90 272.5 m E Pg      2011/04/16 12:51:32.0   0.0                          T                                        4674237
ETSF  001.90 272.5 m E Sg      2011/04/16 12:51:56.1  -0.3                          T                1.6  .25 Ml 2.0         4674242
CAF   002.08 000.8 m E Pn      2011/04/16 12:51:30.7   0.2                          T                                        4674228
CAF   002.08 000.8 m E Pg      2011/04/16 12:51:35.2   0.0                          T                                        4674236
CAF   002.08 000.8 m E Sg      2011/04/16 12:52:02.0  -0.1                          T                1.4  .18 Ml 2.1         4674241
LFF   002.29 336.5 m E Pn      2011/04/16 12:51:33.4   0.2                          T                                        4674227
LFF   002.29 336.5 m E Pg      2011/04/16 12:51:38.9  -0.1                          T                                        4674233
LFF   002.29 336.5 m E Sg      2011/04/16 12:52:08.2  -0.3                          T                5.3  .36 Ml 2.3         4674232
RJF   002.49 351.7 m E Pn      2011/04/16 12:51:36.0   0.1                          T                                        4674226
RJF   002.49 351.7 m E Pg      2011/04/16 12:51:42.6   0.0                          T                                        4674234
RJF   002.49 351.7 m E Sg      2011/04/16 12:52:14.5  -0.1                          T                2.0  .32 Ml 1.8         4674240
VIVF  002.78 042.7 m E Pn      2011/04/16 12:51:40.3   0.3                          T                                        4674231
VIVF  002.78 042.7 m E Pg      2011/04/16 12:51:48.1   0.1                          T                                        4674235
VIVF  002.78 042.7 m E Sg      2011/04/16 12:52:24.0   0.3                          T                1.5  .38 Ml 2.0         4674239

.
EVENT     258340
    Date      Time       Latitude Longitude    Depth    Ndef Nsta Gap    Mag1  N    Mag2  N    Mag3  N   Author         ID
       rms   OT_Error      Smajor Sminor Az        Err   mdist  Mdist     Err        Err        Err      Quality

2011/04/16 14:54:51.7     44.3258    7.4241      2.0      18    8 200  Ml 1.7  7  Md 1.5  3              js067245    258340

      0.09   +-  0.05       1.0     .4   82.45 +-  0.0    0.46   1.38   +-0.3      +-0.1                 m i ke

NORTHERN ITALY
Sta     Dist  EvAz     Phase      Date       Time     TRes  Azim  AzRes  Slow  SRes Def   SNR       Amp   Per   Mag1   Mag2       ID
SBF   000.46 179.0 m E Pg      2011/04/16 14:55:00.7   0.0                          T                                        4674256
SBF   000.46 179.0 m E Sg      2011/04/16 14:55:06.7  -0.1                          T                8.2  .32        Md 1.5  4674261
MBDF  000.62 310.9 m E Pg      2011/04/16 14:55:03.5  -0.1                          T                                        4674263
MBDF  000.62 310.9 m E Sg      2011/04/16 14:55:11.6   0.0                          T                5.5  .32        Md 1.5  4674262
FRF   000.95 216.5 m E Pg      2011/04/16 14:55:09.6   0.1                          T                                        4674258
FRF   000.95 216.5 m E Sg      2011/04/16 14:55:21.8  -0.1                          T                3.1  .24 Ml 1.9 Md 1.6  4674259
LMR   001.19 214.0 m E Pg      2011/04/16 14:55:13.9  -0.1                          T                                        4674257
LMR   001.19 214.0 m E Sg      2011/04/16 14:55:29.5   0.0                          T                8.0  .37 Ml 2.3         4674260
ORIF  001.25 298.8 m E Pg      2011/04/16 14:55:15.2  -0.1                          T                                        4674255
ORIF  001.25 298.8 m E Sg      2011/04/16 14:55:31.6   0.1                          T                1.0  .34 Ml 1.4         4674249
LPG   001.27 338.0 m E Pg      2011/04/16 14:55:15.8   0.1                          T                                        4674252
LPG   001.27 338.0 m E Sg      2011/04/16 14:55:32.0  -0.1                          T                 .7  .29 Ml 1.3         4674251
LPL   001.29 337.8 m E Pg      2011/04/16 14:55:16.2   0.1                          T                                        4674254
LPL   001.29 337.8 m E Sg      2011/04/16 14:55:32.7  -0.1                          T                1.4  .29 Ml 1.6         4674248
SMRF  001.38 255.9 m E Pg      2011/04/16 14:55:17.6   0.2                          T                                        4674253
SMRF  001.38 255.9 m E Sg      2011/04/16 14:55:35.3   0.0                          T                2.3  .43 Ml 1.7         4674250

.
EVENT     258348
    Date      Time       Latitude Longitude    Depth    Ndef Nsta Gap    Mag1  N    Mag2  N    Mag3  N   Author         ID
       rms   OT_Error      Smajor Sminor Az        Err   mdist  Mdist     Err        Err        Err      Quality

2011/04/16 16:09:20.1     43.0826    -.1830      3.0 f    42    7 100  Ml 1.9  5  Md 2.0  3              js067245    258348

      0.33   +-  0.05       1.3     .8  166.82 +-  0.0    0.33   2.54   +-0.2      +-0.0                 m i ke

PYRENEES
Sta     Dist  EvAz     Phase      Date       Time     TRes  Azim  AzRes  Slow  SRes Def   SNR       Amp   Per   Mag1   Mag2       ID
ETSF  000.33 236.5 m E Pg      2011/04/16 16:09:26.3  -0.4                          T                                        4674281
ETSF  000.33 236.5 m E Sg      2011/04/16 16:09:30.4  -0.8                          T               40.6  .28        Md 2.0  4674279
EPF   000.39 097.6 m E Pg      2011/04/16 16:09:27.7   0.0                          T                                        4674280
EPF   000.39 097.6 m E Sg      2011/04/16 16:09:33.1   0.2                          T               23.4  .24        Md 2.0  4674278
SJPF  000.76 272.7 m E Pg      2011/04/16 16:09:34.1  -0.5                          T                                        4674271
SJPF  000.76 272.7 m E Sg      2011/04/16 16:09:44.0  -0.5                          T                4.5  .37        Md 2.0  4674277
MTLF  001.77 080.8 m E Pn      2011/04/16 16:09:50.1   0.1                          T                                        4674270
MTLF  001.77 080.8 m E Sg      2011/04/16 16:10:16.2   0.1                          T                1.7  .29 Ml 1.9         4674276
LFF   001.97 019.4 m E Pn      2011/04/16 16:09:52.5  -0.2                          T                                        4674274
LFF   001.97 019.4 m E Sg      2011/04/16 16:10:22.1  -0.1                          T                3.5  .33 Ml 2.1         4674269
CAF   002.45 040.6 m E Pn      2011/04/16 16:09:59.2  -0.1                          T                                        4674272
CAF   002.45 040.6 m E Sg      2011/04/16 16:10:37.4   0.1                          T                1.0  .23 Ml 2.0         4674275
RJF   002.54 028.2 m E Pn      2011/04/16 16:10:00.3   0.0                          T                                        4674273
RJF   002.54 028.2 m E Sg      2011/04/16 16:10:39.7  -0.1                          T                 .8  .23 Ml 1.5         4674268

.
EVENT     258341
    Date      Time       Latitude Longitude    Depth    Ndef Nsta Gap    Mag1  N    Mag2  N    Mag3  N   Author         ID
       rms   OT_Error      Smajor Sminor Az        Err   mdist  Mdist     Err        Err        Err      Quality

2011/04/16 16:42:56.6     48.2292    7.6298      2.0      18    8 048  Ml 1.8  5  Md 1.8  3              js067245    258341

      0.32   +-  0.06       1.2    1.0    2.76 +-  0.0    0.08   1.74   +-0.3      +-0.1                 m i ke

FRANCE
Sta     Dist  EvAz     Phase      Date       Time     TRes  Azim  AzRes  Slow  SRes Def   SNR       Amp   Per   Mag1   Mag2       ID
CDF   000.30 307.9 m E Pg      2011/04/16 16:43:02.3  -0.2                          T                                        4674287
CDF   000.30 307.9 m E Sg      2011/04/16 16:43:06.1  -0.4                          T                7.8  .20        Md 1.8  4674282
HINF  000.67 231.9 m E Pg      2011/04/16 16:43:08.5  -0.7                          T                                        4675587
HINF  000.67 231.9 m E Sg      2011/04/16 16:43:17.2  -0.7                          T                6.1  .31        Md 1.7  4674283
LANF  000.76 008.7 m E Pg      2011/04/16 16:43:11.1   0.1                          T                                        4674295
LANF  000.76 008.7 m E Sg      2011/04/16 16:43:21.0   0.1                          T                1.8  .20                4674294
HAU   000.89 255.9 m E Pg      2011/04/16 16:43:13.3   0.1                          T                                        4674285
HAU   000.89 255.9 m E Sg      2011/04/16 16:43:24.8   0.0                          T                3.1  .31 Ml 1.5 Md 1.9  4674284
THEF  001.09 270.6 m E Pg      2011/04/16 16:43:17.3   0.2                          T                                        4674296
THEF  001.09 270.6 m E Sg      2011/04/16 16:43:31.5   0.3                          T                3.1  .22 Ml 2.0         4674297
PAGF  001.31 285.1 m E Pg      2011/04/16 16:43:21.3   0.2                          T                                        4674293
PAGF  001.31 285.1 m E Sg      2011/04/16 16:43:38.1   0.1                          T                1.0  .37 Ml 1.4         4674292
SFTF  001.73 270.2 m E Pn      2011/04/16 16:43:26.2   0.2                          T                                        4674290
SFTF  001.73 270.2 m E Sn      2011/04/16 16:43:47.5   0.1                          T                2.4  .27 Ml 2.1         4674288
MEZF  001.74 280.0 m E Pn      2011/04/16 16:43:26.3   0.2                          T                                        4674291
MEZF  001.74 280.0 m E Sn      2011/04/16 16:43:47.7   0.2                          T                2.5  .36 Ml 2.0         4674289

.
