EVENT     258543
    Date      Time       Latitude Longitude    Depth    Ndef Nsta Gap    Mag1  N    Mag2  N    Mag3  N   Author         ID
       rms   OT_Error      Smajor Sminor Az        Err   mdist  Mdist     Err        Err        Err      Quality

2011/04/23 21:55:03.1     37.0902    3.4622     30.0      41   11 246  Ml 3.0 12                         js067245    258543

      2.07   +-  0.94      19.1   11.0  159.10 +-  0.0    2.72   7.90   +-0.2                            m i ke

WESTERN MEDITERRANEAN SEA
Sta     Dist  EvAz     Phase      Date       Time     TRes  Azim  AzRes  Slow  SRes Def   SNR       Amp   Per   Mag1   Mag2       ID
MTLF  006.32 351.7 m E Pn      2011/04/23 21:56:35.1   2.8                          T                                        4679373
MTLF  006.32 351.7 m E Sn      2011/04/23 21:57:43.7   4.5                          T                3.1  .66 Ml 2.8         4679361
EPF   006.40 339.0 m E Pn      2011/04/23 21:56:36.1   2.7                          T                                        4679374
EPF   006.40 339.0 m E Sn      2011/04/23 21:57:46.7   5.5                          T                2.7  .33 Ml 3.1         4679362
LMR   006.66 019.5 m E Pn      2011/04/23 21:56:36.6  -0.3                          T                                        4679371
LMR   006.66 019.5 m E Sn      2011/04/23 21:57:47.9   0.6                          T                2.1  .21 Ml 3.2         4679357
ETSF  006.57 333.2 m E Pn      2011/04/23 21:56:38.7   2.9                          T                                        4679375
ETSF  006.57 333.2 m E Sn      2011/04/23 21:57:50.7   5.3                          T                1.3  .33 Ml 2.8         4679363
FRF   006.91 019.6 m E Pn      2011/04/23 21:56:40.0  -0.3                          T                                        4679370
FRF   006.91 019.6 m E Sn      2011/04/23 21:57:54.2   1.0                          T                1.5  .22 Ml 3.1         4679358
PGF   006.92 036.3 m E Pn      2011/04/23 21:56:40.6   0.0                          T                                        4679372
PGF   006.92 036.3 m E Sn      2011/04/23 21:57:51.8  -1.9                          T                3.3  .35 Ml 3.5         4679356
LASF  006.98 002.3 m E Pn      2011/04/23 21:56:43.1   1.7                          T                                        4679367
LASF  006.98 002.3 m E Sn      2011/04/23 21:57:57.4   2.2                          T                1.8  .33 Ml 3.0         4679360
SMRF  007.06 012.5 m E Pn      2011/04/23 21:56:44.1   1.6                          T                                        4679369
SMRF  007.06 012.5 m E Sn      2011/04/23 21:57:58.0   0.9                          T                1.9  .45 Ml 2.9         4679355
SJPF  007.01 330.6 m E Pn      2011/04/23 21:56:45.9   4.2                          T                                        4679366
SJPF  007.01 330.6 m E Sn      2011/04/23 21:58:02.0   6.4                          T                2.5  .60 Ml 2.9         4679364
VIVF  007.81 006.3 m E Pn      2011/04/23 21:56:53.3   0.6                          T                                        4679368
VIVF  007.81 006.3 m E Sn      2011/04/23 21:58:17.2   2.3                          T                2.1  .38 Ml 3.1         4679359
CAF   007.90 352.8 m E Pn      2011/04/23 21:56:56.5   2.7                          T                                        4679365

.
EVENT     258544
    Date      Time       Latitude Longitude    Depth    Ndef Nsta Gap    Mag1  N    Mag2  N    Mag3  N   Author         ID
       rms   OT_Error      Smajor Sminor Az        Err   mdist  Mdist     Err        Err        Err      Quality

2011/04/24 03:02:23.4     44.6818    7.2776      2.0      24   10 173  Ml 1.8  9  Md 2.0  3              js067245    258544

      0.89   +-  0.12       2.5    1.4   59.77 +-  0.0    0.36   2.47   +-0.1      +-0.0                 m i ke

NORTHERN ITALY
Sta     Dist  EvAz     Phase      Date       Time     TRes  Azim  AzRes  Slow  SRes Def   SNR       Amp   Per   Mag1   Mag2       ID
MBDF  000.36 277.3 m E Pg      2011/04/24 03:02:31.0   0.3                          T                                        4679399
MBDF  000.36 277.3 m E Sg      2011/04/24 03:02:35.8   0.2                          T               11.9  .18        Md 1.9  4679393
SBF   000.83 172.1 m E Pg      2011/04/24 03:02:39.3   0.2                          T                                        4679391
SBF   000.83 172.1 m E Sg      2011/04/24 03:02:49.1  -0.7                          T                2.2  .25        Md 2.0  4679381
LPG   000.90 335.6 m E Pg      2011/04/24 03:02:40.7   0.0                          T                                        4679396
LPG   000.90 335.6 m E Sg      2011/04/24 03:02:51.5  -0.9                          T                4.5  .37 Ml 1.9 Md 1.9  4679392
LPL   000.92 335.4 m E Pg      2011/04/24 03:02:40.9  -0.1                          T                                        4679397
LPL   000.92 335.4 m E Sg      2011/04/24 03:02:52.4  -0.5                          T                3.4  .28 Ml 1.9         4679385
ORIF  001.02 283.9 m E Pg      2011/04/24 03:02:42.9   0.1                          T                                        4679398
ORIF  001.02 283.9 m E Sg      2011/04/24 03:02:55.0  -1.0                          T                1.3  .19 Ml 1.7         4679386
FRF   001.21 202.3 m E Pg      2011/04/24 03:02:46.4   0.3                          T                                        4679395
FRF   001.21 202.3 m E Sg      2011/04/24 03:03:01.8   0.1                          T                3.7  .30 Ml 2.0         4679383
SMRF  001.41 240.6 m E Pg      2011/04/24 03:02:49.9   0.1                          T                                        4679390
SMRF  001.41 240.6 m E Sg      2011/04/24 03:03:07.6  -0.5                          T                1.4  .26 Ml 1.7         4679384
LMR   001.46 202.6 m E Pg      2011/04/24 03:02:50.3  -0.3                          T                                        4679394
LMR   001.46 202.6 m E Sg      2011/04/24 03:03:09.0  -0.4                          T                2.0  .26 Ml 1.9         4679382
VIVF  001.86 276.3 m E Pg      2011/04/24 03:02:58.2   0.1                          T                                        4679389
VIVF  001.86 276.3 m E Sg      2011/04/24 03:03:22.4   0.2                          T                 .9  .31 Ml 1.6         4679380
PGF   002.47 149.0 m E Pn      2011/04/24 03:03:02.9  -0.1                          T                                        4679388
PGF   002.47 149.0 m E Sn      2011/04/24 03:03:32.0   0.0                          T                 .8  .25 Ml 2.0         4679387

.
EVENT     258546
    Date      Time       Latitude Longitude    Depth    Ndef Nsta Gap    Mag1  N    Mag2  N    Mag3  N   Author         ID
       rms   OT_Error      Smajor Sminor Az        Err   mdist  Mdist     Err        Err        Err      Quality

2011/04/24 03:38:17.2     45.6362    -.5906      3.0 f    28   11 190  Ml 1.9 14  Md 2.0  3              js067245    258546

      0.28   +-  0.05       1.1     .6   75.09 +-  0.0    1.01   3.48   +-0.2      +-0.0                 m i ke

FRANCE
Sta     Dist  EvAz     Phase      Date       Time     TRes  Azim  AzRes  Slow  SRes Def   SNR       Amp   Per   Mag1   Mag2       ID
MFF   001.01 017.6 m E Pg      2011/04/24 03:38:36.2   0.0                          T                                        4679427
MFF   001.01 017.6 m E Sg      2011/04/24 03:38:49.4   0.1                          T                2.6  .25 Ml 2.0 Md 2.0  4679423
LFF   001.17 126.1 m E Pg      2011/04/24 03:38:39.2   0.1                          T                                        4679425
LFF   001.17 126.1 m E Sg      2011/04/24 03:38:54.2   0.0                          T                1.9  .25 Ml 1.6 Md 2.1  4679421
RJF   001.52 101.9 m E Pn      2011/04/24 03:38:43.5  -0.1                          T                                        4679426
RJF   001.52 101.9 m E Pg      2011/04/24 03:38:45.5   0.0                          T                                        4680556
RJF   001.52 101.9 m E Sg      2011/04/24 03:39:05.4   0.3                          T                2.6  .21 Ml 1.8 Md 2.0  4679422
TCF   002.06 070.5 m E Pn      2011/04/24 03:38:51.1   0.1                          T                                        4679411
TCF   002.06 070.5 m E Sg      2011/04/24 03:39:21.8  -0.2                          T                2.2  .31 Ml 2.1         4679408
CAF   002.00 109.8 m E Pg      2011/04/24 03:38:53.7  -0.8                          T                                        4679424
CAF   002.00 109.8 m E Sg      2011/04/24 03:39:20.2  -0.1                          T                1.3  .28 Ml 1.9         4679420
BGF   002.56 067.7 m E Pn      2011/04/24 03:38:58.0   0.2                          T                                        4679412
BGF   002.56 067.7 m E Sg      2011/04/24 03:39:37.6  -0.1                          T                3.8  .38 Ml 2.3         4679407
EPF   002.69 165.3 m E Pn      2011/04/24 03:38:59.5   0.0                          T                                        4679404
EPF   002.69 165.3 m E Pg      2011/04/24 03:39:07.2   0.0                          T                                        4680555
EPF   002.69 165.3 m E Sg      2011/04/24 03:39:41.3  -0.4                          T                1.0  .27 Ml 1.9         4679405
GRR   002.76 356.3 m E Pn      2011/04/24 03:39:00.4  -0.1                          T                                        4679414
GRR   002.76 356.3 m E Sg      2011/04/24 03:39:43.9   0.1                          T                1.0  .26 Ml 1.8         4679419
LDF   002.98 006.0 m E Pn      2011/04/24 03:39:03.5   0.1                          T                                        4679415
LDF   002.98 006.0 m E Sg      2011/04/24 03:39:50.6   0.0                          T                 .6  .33 Ml 1.7         4679418
FLN   003.13 001.3 m E Pn      2011/04/24 03:39:05.1  -0.3                          T                                        4679416
FLN   003.13 001.3 m E Sg      2011/04/24 03:39:55.5   0.2                          T                 .9  .26 Ml 1.8         4679417
LOR   003.48 060.4 m E Pn      2011/04/24 03:39:10.2  -0.1                          T                                        4679410
LOR   003.48 060.4 m E Sg      2011/04/24 03:40:06.1  -0.3                          T                 .5  .27 Ml 1.8         4679409

.
EVENT     258550
    Date      Time       Latitude Longitude    Depth    Ndef Nsta Gap    Mag1  N    Mag2  N    Mag3  N   Author         ID
       rms   OT_Error      Smajor Sminor Az        Err   mdist  Mdist     Err        Err        Err      Quality

2011/04/24 04:29:26.5     42.9063     .0317     15.0       7    4 195  Ml 1.1  2  Md 1.3  2              js067245    258550

      0.15   +-  0.16       9.1    1.1  170.70 +-  0.0    0.26   1.66   +-0.1      +-0.0                 m i ke

PYRENEES
Sta     Dist  EvAz     Phase      Date       Time     TRes  Azim  AzRes  Slow  SRes Def   SNR       Amp   Per   Mag1   Mag2       ID
EPF   000.26 061.2 m E Pg      2011/04/24 04:29:32.1  -0.1                          T                                        4679431
EPF   000.26 061.2 m E Sg      2011/04/24 04:29:36.4   0.3                          T                3.1  .26        Md 1.3  4679428
ETSF  000.43 269.2 m E Pg      2011/04/24 04:29:35.4   0.1                          T                                        4679430
ETSF  000.43 269.2 m E Sg      2011/04/24 04:29:41.0  -0.3                          T                3.4  .39        Md 1.3  4679429
SJPF  000.94 283.1 m E Pg      2011/04/24 04:29:44.4   0.0                          T                                        4680557
SJPF  000.94 283.1 m E Sg      2011/04/24 04:29:56.8   0.0                          T                 .3  .18 Ml 1.0         4679433
MTLF  001.66 074.1 m E Sg      2011/04/24 04:30:18.9   0.0                          T                 .3  .23 Ml 1.2         4679432

.
EVENT     258551
    Date      Time       Latitude Longitude    Depth    Ndef Nsta Gap    Mag1  N    Mag2  N    Mag3  N   Author         ID
       rms   OT_Error      Smajor Sminor Az        Err   mdist  Mdist     Err        Err        Err      Quality

2011/04/24 04:42:14.5     49.7966   -2.8717      2.0      14    6 292  Ml 2.3  7  Md 2.1  1              js067245    258551

      0.46   +-  0.21       4.5    2.1  156.00 +-  0.0    1.49   2.17   +-0.2      +-                    m i ke

FRANCE
Sta     Dist  EvAz     Phase      Date       Time     TRes  Azim  AzRes  Slow  SRes Def   SNR       Amp   Per   Mag1   Mag2       ID
ROSF  001.49 190.4 m E Pn      2011/04/24 04:42:40.4  -0.1                          T                                        4679449
ROSF  001.49 190.4 m E Sn      2011/04/24 04:42:59.1  -0.2                          T                5.7  .24 Ml 2.4 Md 2.1  4679444
SGMF  001.56 172.2 m E Pn      2011/04/24 04:42:41.3  -0.1                          T                                        4679448
SGMF  001.56 172.2 m E Sn      2011/04/24 04:43:00.5  -0.5                          T                2.5  .18 Ml 2.2         4679443
FLN   001.88 122.6 m E Pn      2011/04/24 04:42:45.4  -0.4 306.5  2.1               T                                        4679447
FLN   001.88 122.6 m E Sn      2011/04/24 04:43:08.7   0.1                          T                3.5  .22 Ml 2.2         4679441
QUIF  001.89 186.0 m E Pn      2011/04/24 04:42:45.9  -0.1                          T                                        4679438
QUIF  001.89 186.0 m E Sn      2011/04/24 04:43:08.8  -0.2                          T                4.9  .22 Ml 2.5         4679442
GRR   001.93 136.0 m E Pn      2011/04/24 04:42:46.6   0.0                          T                                        4679446
GRR   001.93 136.0 m E Sn      2011/04/24 04:43:09.9  -0.1                          T                3.2  .22 Ml 2.2         4679439
LDF   002.17 122.7 m E Pn      2011/04/24 04:42:49.8   0.1                          T                                        4679445
LDF   002.17 122.7 m E Sn      2011/04/24 04:43:15.6   0.0                          T                1.6  .26 Ml 2.0         4679440

.
