EVENT     266939
    Date      Time       Latitude Longitude    Depth    Ndef Nsta Gap    Mag1  N    Mag2  N    Mag3  N   Author         ID
       rms   OT_Error      Smajor Sminor Az        Err   mdist  Mdist     Err        Err        Err      Quality

2011/11/30 21:47:12.2     45.0742    6.5157      2.0      27    6 117  Ml 2.4  1  Md 2.3  3              js067245    266959

      0.19   +-  0.04        .7     .6  116.11 +-  0.0    0.25   1.33   +-         +-0.2                 m i ke

FRANCE
Sta     Dist  EvAz     Phase      Date       Time     TRes  Azim  AzRes  Slow  SRes Def   SNR       Amp   Per   Mag1   Mag2       ID
MBDF  000.39 152.3 m E Pg      2011/11/30 21:47:19.8  -0.2                          T                                        4793933
MBDF  000.39 152.3 m E Sg      2011/11/30 21:47:25.2  -0.1                          T                5.0  .40        Md 2.5  4793930
LPG   000.46 021.4 m E Pg      2011/11/30 21:47:21.3   0.0                          T                                        4793934
LPG   000.46 021.4 m E Sg      2011/11/30 21:47:27.6   0.2                          T                                        4793940
LPG   000.46 021.4 m E Sn      2011/11/30 21:47:28.1   0.1                          T                2.6  .24                4793929
LPL   000.47 019.0 m E Pg      2011/11/30 21:47:21.5   0.0                          T                                        4793936
LPL   000.47 019.0 m E Pn      2011/11/30 21:47:22.3   0.0                          T                                        4793942
LPL   000.47 019.0 m E Sg      2011/11/30 21:47:27.5  -0.2                          T                                Md 2.3  4793941
LPL   000.47 019.0 m E Sn      2011/11/30 21:47:29.1   0.1                          T                2.8  .29                4793935
ORIF  000.48 251.2 m E Pg      2011/11/30 21:47:21.8   0.3                          T                                        4793931
ORIF  000.48 251.2 m E Pn      2011/11/30 21:47:22.6   0.0                          T                                        4793937
ORIF  000.48 251.2 m E Sg      2011/11/30 21:47:27.8   0.0                          T                5.1  .18        Md 2.0  4793932
SMRF  001.29 211.8 m E Sg      2011/11/30 21:47:52.6  -0.4                          T               41.9 1.54 Ml 2.4         4793938
VIVF  001.33 261.2 m E Sg      2011/11/30 21:47:54.1  -0.1                          T                                        4793939

.
EVENT     267011
    Date      Time       Latitude Longitude    Depth    Ndef Nsta Gap    Mag1  N    Mag2  N    Mag3  N   Author         ID
       rms   OT_Error      Smajor Sminor Az        Err   mdist  Mdist     Err        Err        Err      Quality

2011/11/30 21:47:39.7     45.0733    6.5390      2.0       9    5 135  Ml 1.1  1  Md 1.2  3              js067245    267031

      0.16   +-  0.06       1.4    1.0  115.68 +-  0.0    0.38   1.34   +-         +-0.1                 m i ke

FRANCE
Sta     Dist  EvAz     Phase      Date       Time     TRes  Azim  AzRes  Slow  SRes Def   SNR       Amp   Per   Mag1   Mag2       ID
MBDF  000.38 154.4 m E Pg      2011/11/30 21:47:47.2  -0.1                          T                                        4793945
MBDF  000.38 154.4 m E Sg      2011/11/30 21:47:52.7   0.3                          T                1.3  .22        Md 1.3  4793944
LPG   000.45 019.4 m E Pg      2011/11/30 21:47:48.6  -0.1                          T                                        4793948
LPG   000.45 019.4 m E Sg      2011/11/30 21:47:55.0   0.3                          T                 .8  .19        Md 1.1  4793947
LPL   000.46 017.1 m E Pg      2011/11/30 21:47:48.7  -0.1                          T                                        4793943
LPL   000.46 017.1 m E Sg      2011/11/30 21:47:54.9  -0.1                          T                1.3  .29                4793946
ORIF  000.49 251.9 m E Pg      2011/11/30 21:47:49.3   0.0                          T                                        4793949
ORIF  000.49 251.9 m E Sg      2011/11/30 21:47:55.5  -0.2                          T                2.2  .20        Md 1.2  4793950
VIVF  001.34 261.3 m E Sg      2011/11/30 21:48:22.1   0.0                          T                 .4  .27 Ml 1.1         4796140

.
EVENT     266940
    Date      Time       Latitude Longitude    Depth    Ndef Nsta Gap    Mag1  N    Mag2  N    Mag3  N   Author         ID
       rms   OT_Error      Smajor Sminor Az        Err   mdist  Mdist     Err        Err        Err      Quality

2011/12/01 03:24:14.4     43.1035    -.3866      2.0       6    3 186             Md 1.2  3              js067245    266960

      0.28   +-  0.17       5.9    2.6  175.66 +-  0.0    0.24   0.61              +-0.2                 m i ke

PYRENEES
Sta     Dist  EvAz     Phase      Date       Time     TRes  Azim  AzRes  Slow  SRes Def   SNR       Amp   Per   Mag1   Mag2       ID
ETSF  000.24 211.8 m E Pg      2011/12/01 03:24:19.4   0.1                          T                                        4793956
ETSF  000.24 211.8 m E Sg      2011/12/01 03:24:22.3  -0.3                          T               21.4  .22        Md 1.4  4793955
EPF   000.54 097.6 m E Pg      2011/12/01 03:24:24.5  -0.3                          T                                        4793953
EPF   000.54 097.6 m E Sg      2011/12/01 03:24:32.1   0.3                          T                3.5  .22        Md 1.1  4793954
SJPF  000.61 271.2 m E Pg      2011/12/01 03:24:26.2   0.1                          T                                        4793951
SJPF  000.61 271.2 m E Sg      2011/12/01 03:24:33.5  -0.6                          T                1.8  .28        Md 1.1  4793952

.
EVENT     266987
    Date      Time       Latitude Longitude    Depth    Ndef Nsta Gap    Mag1  N    Mag2  N    Mag3  N   Author         ID
       rms   OT_Error      Smajor Sminor Az        Err   mdist  Mdist     Err        Err        Err      Quality

2011/12/01 21:22:34.5     42.9473   -1.1313      2.0       5    3 241  Ml 1.2  1  Md 1.4  2              js067245    267007

      0.10   +-  0.22       6.9    1.4   33.58 +-  0.0    0.18   1.08   +-         +-0.0                 m i ke

PYRENEES
Sta     Dist  EvAz     Phase      Date       Time     TRes  Azim  AzRes  Slow  SRes Def   SNR       Amp   Per   Mag1   Mag2       ID
SJPF  000.18 337.5 m E Pg      2011/12/01 21:22:38.3   0.1                          T                                        4793984
SJPF  000.18 337.5 m E Sg      2011/12/01 21:22:40.5  -0.2                          T                7.0  .30        Md 1.4  4793983
ETSF  000.42 096.4 m E Pg      2011/12/01 21:22:42.7  -0.1                          T                                        4793982
ETSF  000.42 096.4 m E Sg      2011/12/01 21:22:48.5   0.1                          T                1.5  .23        Md 1.3  4793981
EPF   001.08 085.1 m E Sg      2011/12/01 21:23:09.0   0.0                          T                 .6  .28 Ml 1.2         4794677

.
EVENT     266989
    Date      Time       Latitude Longitude    Depth    Ndef Nsta Gap    Mag1  N    Mag2  N    Mag3  N   Author         ID
       rms   OT_Error      Smajor Sminor Az        Err   mdist  Mdist     Err        Err        Err      Quality

2011/12/01 23:50:19.3     42.6927     .6219      2.0      22    6 110  Ml 1.8  6  Md 1.7  2              js067245    267009

      0.34   +-  0.06       1.2     .9   26.46 +-  0.0    0.15   2.69   +-0.1      +-0.4                 m i ke

PYRENEES
Sta     Dist  EvAz     Phase      Date       Time     TRes  Azim  AzRes  Slow  SRes Def   SNR       Amp   Per   Mag1   Mag2       ID
EPF   000.40 328.5 m E Pg      2011/12/01 23:50:27.2   0.1                          T                                        4793990
EPF   000.40 328.5 m E Sg      2011/12/01 23:50:32.3   0.0                          T                5.1  .18        Md 2.0  4793989
ETSF  000.89 283.7 m E Pg      2011/12/01 23:50:36.2   0.0                          T                                        4793985
ETSF  000.89 283.7 m E Sg      2011/12/01 23:50:47.7  -0.2                          T                3.1  .22 Ml 1.9 Md 1.5  4793986
MTLF  001.34 060.5 m E Pg      2011/12/01 23:50:44.4   0.1                          T                                        4793987
MTLF  001.34 060.5 m E Sg      2011/12/01 23:51:02.0   0.4                          T                1.1  .15 Ml 1.8         4793988
SJPF  001.42 287.8 m E Pg      2011/12/01 23:50:45.6  -0.3                          T                                        4793993
SJPF  001.42 287.8 m E Sg      2011/12/01 23:51:04.0  -0.2                          T                1.3  .16 Ml 1.9         4793994
CAF   002.46 024.6 m E Sg      2011/12/01 23:51:36.2  -0.6                          T                 .8  .23 Ml 1.9         4793992
RJF   002.69 013.6 m E Sg      2011/12/01 23:51:44.0   0.2                          T                  1  .24 Ml 1.6         4793991

.
EVENT     266982
    Date      Time       Latitude Longitude    Depth    Ndef Nsta Gap    Mag1  N    Mag2  N    Mag3  N   Author         ID
       rms   OT_Error      Smajor Sminor Az        Err   mdist  Mdist     Err        Err        Err      Quality

2011/12/02 03:44:41.8     43.3505    5.9230      2.0      30   11 188  Ml 2.1  7  Md 2.3  3              js067245    267002

      0.35   +-  0.08       1.6     .9   30.34 +-  0.0    0.43   2.40   +-0.3      +-0.1                 m i ke

NEAR SOUTH COAST OF FRANCE
Sta     Dist  EvAz     Phase      Date       Time     TRes  Azim  AzRes  Slow  SRes Def   SNR       Amp   Per   Mag1   Mag2       ID
LMR   000.43 092.0 m E Pg      2011/12/02 03:44:49.9  -0.1                          T                                        4794002
LMR   000.43 092.0 m E Sg      2011/12/02 03:44:55.1  -0.6                          T               15.7  .20        Md 2.2  4793998
FRF   000.57 068.0 m E Pg      2011/12/02 03:44:51.9  -0.6                          T                                        4794003
FRF   000.57 068.0 m E Sg      2011/12/02 03:44:59.2  -0.8                          T               11.2  .23        Md 2.3  4793997
SMRF  000.67 338.2 m E Pg      2011/12/02 03:44:54.9   0.4                          T                                        4794001
SMRF  000.67 338.2 m E Pn      2011/12/02 03:44:56.7  -0.1                          T                                        4794016
SMRF  000.67 338.2 m E Sg      2011/12/02 03:45:03.6   0.2                          T                5.1  .26        Md 2.3  4794012
SBF   001.21 064.5 m E Pg      2011/12/02 03:45:04.7   0.2                          T                                        4793999
SBF   001.21 064.5 m E Sg      2011/12/02 03:45:20.4   0.2                          T               18.6  .28 Ml 2.7         4794013
MBDF  001.51 023.7 m E Pg      2011/12/02 03:45:10.1   0.1                          T                                        4794011
MBDF  001.51 023.7 m E Sg      2011/12/02 03:45:29.8   0.4                          T                2.9  .34 Ml 2.0         4794009
ORIF  001.57 358.9 m E Pg      2011/12/02 03:45:11.3   0.2                          T                                        4794000
ORIF  001.57 358.9 m E Sn      2011/12/02 03:45:29.0   0.3                          T                                        4794010
ORIF  001.57 358.9 m E Sg      2011/12/02 03:45:31.4   0.1                          T                3.4  .32 Ml 2.1         4794022
LASF  001.66 296.5 m E Pg      2011/12/02 03:45:12.8   0.1                          T                                        4794014
LASF  001.66 296.5 m E Sn      2011/12/02 03:45:30.8  -0.1                          T                                        4794015
VIVF  001.75 329.5 m E Pg      2011/12/02 03:45:14.3  -0.2                          T                                        4794023
VIVF  001.75 329.5 m E Sn      2011/12/02 03:45:32.6  -0.5                          T                                        4794025
VIVF  001.75 329.5 m E Sg      2011/12/02 03:45:36.8  -0.2                          T                2.0  .29 Ml 2.0         4794024
PGF   002.40 108.5 m E Pn      2011/12/02 03:45:20.2  -0.1                          T                                        4794004
PGF   002.40 108.5 m E Sn      2011/12/02 03:45:48.7   0.1                          T                2.7  .31 Ml 2.5         4794018
LPG   002.23 015.2 m E Pg      2011/12/02 03:45:23.2  -0.3                          T                                        4794019
LPG   002.23 015.2 m E Sg      2011/12/02 03:45:51.6  -0.5                          T                1.1  .30 Ml 1.8         4794020
LPL   002.24 014.7 m E Sg      2011/12/02 03:45:52.5   0.0                          T                1.1  .30 Ml 1.8         4794021

.
EVENT     266983
    Date      Time       Latitude Longitude    Depth    Ndef Nsta Gap    Mag1  N    Mag2  N    Mag3  N   Author         ID
       rms   OT_Error      Smajor Sminor Az        Err   mdist  Mdist     Err        Err        Err      Quality

2011/12/02 05:15:39.4     45.5106    7.8419     20.8      24    5 214  Ml 2.1  3  Md 2.3  3              js067245    267003

      0.27   +-  0.12       2.7    1.3  130.64 +-  0.7    0.07   1.64   +-0.1      +-0.1                 m i ke

NORTHERN ITALY
Sta     Dist  EvAz     Phase      Date       Time     TRes  Azim  AzRes  Slow  SRes Def   SNR       Amp   Per   Mag1   Mag2       ID
LPG   000.77 269.4 m E Pg      2011/12/02 05:15:54.7   0.0                          T                                        4794145
LPG   000.77 269.4 m E Sn      2011/12/02 05:16:03.5  -0.5                          T                6.7  .24                4794143
LPG   000.77 269.4 m E Sg      2011/12/02 05:16:05.1   0.3                          T                                Md 2.3  4794138
LPL   000.78 270.8 m E Pg      2011/12/02 05:15:54.9   0.1                          T                                        4794146
LPL   000.78 270.8 m E Sn      2011/12/02 05:16:03.9  -0.4                          T                8.3  .22                4794139
LPL   000.78 270.8 m E Sg      2011/12/02 05:16:05.7   0.5                          T                                Md 2.2  4794144
MBDF  001.09 224.4 m E Pn      2011/12/02 05:15:58.4   0.3                          T                                        4794142
MBDF  001.09 224.4 m E Sn      2011/12/02 05:16:11.1  -0.5                          T                                        4794135
MBDF  001.09 224.4 m E Sg      2011/12/02 05:16:14.3  -0.3                          T                5.3  .26 Ml 2.2 Md 2.3  4794134
ORIF  001.51 247.6 m E Pg      2011/12/02 05:16:08.0   0.2                          T                                        4794141
ORIF  001.51 247.6 m E Sg      2011/12/02 05:16:27.6   0.2                          T                5.8  .49 Ml 2.1         4794140
CABF  001.64 312.6 m E Pg      2011/12/02 05:16:09.4  -0.9                          T                                        4794137
CABF  001.64 312.6 m E Sg      2011/12/02 05:16:32.2   0.5                          T                                        4794136

.
EVENT     266995
    Date      Time       Latitude Longitude    Depth    Ndef Nsta Gap    Mag1  N    Mag2  N    Mag3  N   Author         ID
       rms   OT_Error      Smajor Sminor Az        Err   mdist  Mdist     Err        Err        Err      Quality

2011/12/02 10:57:03.1     51.7652    7.0431      2.0 f    32   15 123  Ml 4.1 13  Md 3.3  2              js067245    267015

      0.69   +-  0.16       2.7    2.4  117.22 +-  0.0    0.25   6.31   +-0.3      +-0.4                 m i si

GERMANY
Sta     Dist  EvAz     Phase      Date       Time     TRes  Azim  AzRes  Slow  SRes Def   SNR       Amp   Per   Mag1   Mag2       ID
RUP   002.07 179.7 m E Pn      2011/12/02 10:57:36.9  -0.3                          T                                        4794246
RUP   002.07 179.7 m E Pg      2011/12/02 10:57:41.4  -0.2                          T                                        4794245
RUP   002.07 179.7 m E Sg      2011/12/02 10:58:07.7  -0.5                          T                                Md 3.6  4794247
GIVF  002.18 221.0 m E Pn      2011/12/02 10:57:38.8   0.2                          T                                        4794249
GIVF  002.18 221.0 m E Pg      2011/12/02 10:57:43.4  -0.1                          T                                        4794684
GIVF  002.18 221.0 m E Sg      2011/12/02 10:58:11.7   0.0                          T              707.4 1.14 Ml 4.0 Md 3.0  4794250
BAIF  002.48 227.5 m E Pn      2011/12/02 10:57:42.1  -0.5                          T                                        4794683
BAIF  002.48 227.5 m E Sg      2011/12/02 10:58:21.3   0.4                          T              559.3 1.30 Ml 3.9         4794248
PAGF  003.32 195.3 m E P       2011/12/02 10:57:57.2  -0.1                          T                                        4794679
PAGF  003.32 195.3 m E Sg      2011/12/02 10:58:47.5   0.2  11.3  -3.0              T              106.4 1.20 Ml 3.4         4794680
CDF   003.36 177.4 m E Pg      2011/12/02 10:58:05.4  -0.1                          T                                        4794681
CDF   003.36 177.4 m E Sg      2011/12/02 10:58:48.5  -0.1                          T              137.2  .78 Ml 3.9         4794243
LOR   004.96 206.0 m E Pn      2011/12/02 10:58:15.8  -0.6                          T                                        4794685
SSF   005.24 207.5 m E P       2011/12/02 10:58:24.4  -0.1                          T                                        4794682
LANF  002.83 169.8 m E Sg      2011/12/02 10:58:32.0   0.0                          T              658.7 1.35 Ml 4.1         4794244
MEZF  003.51 202.2 m E Sg      2011/12/02 10:58:53.5   0.3                          T              943.5 1.48 Ml 4.3         4794238
THEF  003.61 191.2 m E Sg      2011/12/02 10:58:56.1  -0.1                          T              558.0 1.61 Ml 4.1         4794240
HAU   003.79 187.1 m E Sg      2011/12/02 10:59:01.7  -0.3                          T              329.4 1.19 Ml 3.8         4794241
SFTF  003.79 200.7 m E Sg      2011/12/02 10:59:01.8  -0.2  27.8  8.6               T              692.6 1.41 Ml 4.3         4794239
HINF  003.95 181.9 m E Sg      2011/12/02 10:59:06.8  -0.3                          T              496.0 1.30 Ml 4.2         4794242
CABF  005.20 187.3 m E Sg      2011/12/02 10:59:49.9   4.0                          T              544.8 1.38 Ml 4.5         4794237
SMF   005.54 203.5 m E Sg      2011/12/02 10:59:56.3  -0.2                          T               75.2 1.22 Ml 3.8         4794236

.
