EVENT     277151
    Date      Time       Latitude Longitude    Depth    Ndef Nsta Gap    Mag1  N    Mag2  N    Mag3  N   Author         ID
       rms   OT_Error      Smajor Sminor Az        Err   mdist  Mdist     Err        Err        Err      Quality

2012/05/30 03:15:28.3     44.9284   11.2562      2.0      57   20 109  Ml 3.2 18                         bulletin    277251
                                                                                                         _ldg
      0.40   +-  0.10       2.5    1.7   64.08 +-  0.0    0.20   6.49   +-0.3                            m i ke

NORTHERN ITALY
Sta     Dist  EvAz     Phase      Date       Time     TRes  Azim  AzRes  Slow  SRes Def   SNR       Amp   Per   Mag1   Mag2       ID
PGF   002.89 215.3 m E Pn      2012/05/30 03:16:13.5   0.0                          T                                        4976093
PGF   002.89 215.3 m E Sn      2012/05/30 03:16:46.6  -0.1                          T               13.7  .36 Ml 3.2         4976092
SBF   002.94 250.1 m E Pn      2012/05/30 03:16:14.5   0.3                          T                                        4976091
SBF   002.94 250.1 m E Sn      2012/05/30 03:16:48.1   0.2                          T               45.4  .41 Ml 3.5         4976090
MBDF  003.20 268.0 m E Pn      2012/05/30 03:16:17.7  -0.1                          T                                        4976081
MBDF  003.20 268.0 m E Sn      2012/05/30 03:16:54.2   0.0                          T               36.2  .70 Ml 3.2         4976115
LPG   003.23 281.7 m E Pn      2012/05/30 03:16:19.2   0.7                          T                                        4976084
LPG   003.23 281.7 m E Sn      2012/05/30 03:16:55.7   0.4                          T               44.3  .74 Ml 3.3         4976117
LPL   003.25 282.0 m E Pn      2012/05/30 03:16:19.3   0.7                          T                                        4976083
LPL   003.25 282.0 m E Sn      2012/05/30 03:16:55.8   0.2                          T               30.4  .70 Ml 3.1         4976116
FRF   003.58 249.2 m E Pn      2012/05/30 03:16:23.1   0.3                          T                                        4976087
FRF   003.58 249.2 m E Sn      2012/05/30 03:17:03.5   0.2                          T                6.2  .20 Ml 3.1         4976086
LMR   003.77 246.7 m E Pn      2012/05/30 03:16:25.6   0.2                          T                                        4976089
LMR   003.77 246.7 m E Sn      2012/05/30 03:17:07.4  -0.3                          T               14.7  .34 Ml 3.3         4976088
ORIF  003.82 271.7 m E Pn      2012/05/30 03:16:26.5   0.4                          T                                        4976082
CABF  003.99 296.8 m E Pn      2012/05/30 03:16:28.7   0.2                          T                                        4976103
CABF  003.99 296.8 m E Sn      2012/05/30 03:17:12.8  -0.3                          T               15.2  .74 Ml 3.0         4976102
SMRF  004.18 258.8 m E Pn      2012/05/30 03:16:31.3   0.3                          T                                        4976085
HINF  004.20 315.0 m E Pn      2012/05/30 03:16:31.6   0.3                          T                                        4976101
HINF  004.20 315.0 m E Sn      2012/05/30 03:17:17.7  -0.4                          T               13.9  .46 Ml 3.2         4976100
CDF   004.43 323.2 m E Pn      2012/05/30 03:16:34.6   0.1                          T                                        4976097
CDF   004.43 323.2 m E Sn      2012/05/30 03:17:24.0   0.3                          T               18.8  .82 Ml 3.2         4976096
HAU   004.58 314.0 m E Pn      2012/05/30 03:16:36.4   0.0                          T                                        4976099
HAU   004.58 314.0 m E Sn      2012/05/30 03:17:26.9  -0.1                          T               40.3  .64 Ml 3.4         4976098
VIVF  004.68 271.4 m E Pn      2012/05/30 03:16:38.1   0.3                          T                                        4976114
VIVF  004.68 271.4 m E Sn      2012/05/30 03:17:29.5   0.0                          T                1.6  .27 Ml 2.6         4976113
SMF   005.46 290.9 m E Pn      2012/05/30 03:16:48.0  -0.5                          T                                        4976080
SMF   005.46 290.9 m E Sn      2012/05/30 03:17:47.9  -0.3                          T               14.3  .54 Ml 3.4         4976112
LOR   005.65 297.1 m E Pn      2012/05/30 03:16:50.8  -0.2                          T                                        4976095
LOR   005.65 297.1 m E Sn      2012/05/30 03:17:52.8   0.1                          T               12.0  .60 Ml 3.3         4976094
SSF   005.81 294.3 m E Pn      2012/05/30 03:16:52.6  -0.5                          T                                        4976105
SSF   005.81 294.3 m E Sn      2012/05/30 03:17:56.0  -0.4                          T                4.8  .50 Ml 3.1         4976104
AVF   005.83 291.4 m E Pn      2012/05/30 03:16:53.1  -0.2                          T                                        4976109
AVF   005.83 291.4 m E Sn      2012/05/30 03:17:56.7  -0.1                          T                 .5  .21 Ml 2.4         4976108
BGF   006.11 288.4 m E Pn      2012/05/30 03:16:57.2   0.0                          T                                        4976111
BGF   006.11 288.4 m E Sn      2012/05/30 03:18:03.9   0.3                          T               15.7  .58 Ml 3.6         4976110
TCF   006.49 285.3 m E Pn      2012/05/30 03:17:02.5   0.0                          T                                        4976107
TCF   006.49 285.3 m E Sn      2012/05/30 03:18:13.1   0.4                          T               12.0  .86 Ml 3.4         4976106

.
EVENT     277152
    Date      Time       Latitude Longitude    Depth    Ndef Nsta Gap    Mag1  N    Mag2  N    Mag3  N   Author         ID
       rms   OT_Error      Smajor Sminor Az        Err   mdist  Mdist     Err        Err        Err      Quality

2012/05/30 03:25:27.6     44.8873   11.1591      2.0      34   12 182  Ml 2.6  9                         bulletin    277252
                                                                                                         _ldg
      0.68   +-  0.28       7.2    3.8  121.87 +-  0.0    1.08   5.78   +-0.2                            m i ke

NORTHERN ITALY
Sta     Dist  EvAz     Phase      Date       Time     TRes  Azim  AzRes  Slow  SRes Def   SNR       Amp   Per   Mag1   Mag2       ID
PGF   002.81 214.6 m E Pn      2012/05/30 03:26:12.0   0.2                          T                                        4976151
PGF   002.81 214.6 m E Sn      2012/05/30 03:26:44.6   0.3                          T                1.9  .26 Ml 2.5         4976150
SBF   002.86 250.3 m E Pn      2012/05/30 03:26:12.9   0.6                          T                                        4976159
SBF   002.86 250.3 m E Sn      2012/05/30 03:26:45.7   0.4                          T               11.7  .30 Ml 3.0         4976158
MBDF  003.13 268.6 m E Pn      2012/05/30 03:26:16.0  -0.2                          T                                        4976144
MBDF  003.13 268.6 m E Sn      2012/05/30 03:26:52.0   0.2                          T                4.0  .39 Ml 2.5         4976143
LPL   003.19 282.9 m E Pn      2012/05/30 03:26:17.5   0.4                          T                                        4976148
LPL   003.19 282.9 m E Sn      2012/05/30 03:26:53.2  -0.3                          T                2.3  .31 Ml 2.3         4976147
LPG   003.18 282.6 m E Pn      2012/05/30 03:26:17.9   1.0                          T                                        4976153
LPG   003.18 282.6 m E Sn      2012/05/30 03:26:53.7   0.5                          T                4.2  .52 Ml 2.4         4976149
FRF   003.50 249.3 m E Pn      2012/05/30 03:26:21.7   0.6                          T                                        4976155
FRF   003.50 249.3 m E Sn      2012/05/30 03:27:00.9   0.2                          T                3.8  .22 Ml 2.8         4976154
LMR   003.69 246.8 m E Pn      2012/05/30 03:26:23.4  -0.2                          T                                        4976157
LMR   003.69 246.8 m E Sn      2012/05/30 03:27:05.0  -0.1                          T                3.5  .22 Ml 2.8         4976156
ORIF  003.75 272.3 m E Pn      2012/05/30 03:26:24.2  -0.3                          T                                        4976146
ORIF  003.75 272.3 m E Sn      2012/05/30 03:27:06.6  -0.1                          T                2.2  .38 Ml 2.4         4976145
CABF  003.95 297.7 m E Pn      2012/05/30 03:26:27.3   0.1                          T                                        4976140
HINF  004.18 316.0 m E Pn      2012/05/30 03:26:30.0  -0.4                          T                                        4976141
CDF   004.42 324.2 m E Pn      2012/05/30 03:26:33.1  -0.6                          T                                        4976152
CDF   004.42 324.2 m E Sn      2012/05/30 03:27:23.1   0.3                          T                 .9  .26 Ml 2.4         4976139
AVF   005.78 292.0 m E Pn      2012/05/30 03:26:51.4  -0.6                          T                                        4976142

.
EVENT     277153
    Date      Time       Latitude Longitude    Depth    Ndef Nsta Gap    Mag1  N    Mag2  N    Mag3  N   Author         ID
       rms   OT_Error      Smajor Sminor Az        Err   mdist  Mdist     Err        Err        Err      Quality

2012/05/30 04:03:56.2     44.9778   11.1159      2.0      18   11 281  Ml 2.9  7                         bulletin    277253
                                                                                                         _ldg
      0.88   +-  1.04      21.7   12.1   77.61 +-  0.0    2.86   6.38   +-0.1                            m i ke

NORTHERN ITALY
Sta     Dist  EvAz     Phase      Date       Time     TRes  Azim  AzRes  Slow  SRes Def   SNR       Amp   Per   Mag1   Mag2       ID
PGF   002.87 213.0 m E Pn      2012/05/30 04:04:41.2  -0.1                          T                                        4976186
PGF   002.87 213.0 m E Sn      2012/05/30 04:05:13.2  -1.2                          T                5.6  .29 Ml 2.9         4976179
SBF   002.86 248.4 m E Pn      2012/05/30 04:04:41.3   0.1                          T                                        4976185
SBF   002.86 248.4 m E Sn      2012/05/30 04:05:15.2   1.0                          T               14.0  .26 Ml 3.1         4976178
MBDF  003.10 266.9 m E Pn      2012/05/30 04:04:45.4   1.0                          T                                        4976192
LPG   003.13 281.1 m E Pn      2012/05/30 04:04:45.9   0.9                          T                                        4976182
LPG   003.13 281.1 m E Sn      2012/05/30 04:05:25.3   4.6                          T                7.4  .37 Ml 2.8         4976175
LPL   003.14 281.4 m E Pn      2012/05/30 04:04:46.9   1.7                          T                                        4976181
FRF   003.51 247.8 m E Pn      2012/05/30 04:04:49.6  -0.2                          T                                        4976183
FRF   003.51 247.8 m E Sn      2012/05/30 04:05:29.7   0.3                          T                5.6  .28 Ml 2.9         4976176
LMR   003.70 245.2 m E Pn      2012/05/30 04:04:52.1  -0.3                          T                                        4976184
LMR   003.70 245.2 m E Sn      2012/05/30 04:05:33.3  -0.7                          T               11.2  .34 Ml 3.1         4976177
ORIF  003.72 270.9 m E Pn      2012/05/30 04:04:53.2   0.4                          T                                        4976180
SMF   005.35 290.7 m E Pn      2012/05/30 04:05:12.9  -2.0                          T                                        4976190
SMF   005.35 290.7 m E Sn      2012/05/30 04:06:13.4  -0.1                          T                2.1  .26 Ml 2.9         4976189
AVF   005.72 291.2 m E Pn      2012/05/30 04:05:16.8  -3.1                          T                                        4976191
TCF   006.38 285.0 m E Pn      2012/05/30 04:05:29.7   0.7                          T                                        4976187
TCF   006.38 285.0 m E Sn      2012/05/30 04:06:36.7  -1.4                          T                2.0  .44 Ml 2.9         4976188

.
EVENT     277154
    Date      Time       Latitude Longitude    Depth    Ndef Nsta Gap    Mag1  N    Mag2  N    Mag3  N   Author         ID
       rms   OT_Error      Smajor Sminor Az        Err   mdist  Mdist     Err        Err        Err      Quality

2012/05/30 04:32:22.3     44.8972   11.1523      2.0      39   16 181  Ml 3.0  5                         bulletin    277254
                                                                                                         _ldg
      0.90   +-  0.38       9.3    5.3  120.71 +-  0.0    1.09   5.77   +-0.2                            m i ke

NORTHERN ITALY
Sta     Dist  EvAz     Phase      Date       Time     TRes  Azim  AzRes  Slow  SRes Def   SNR       Amp   Per   Mag1   Mag2       ID
PGF   002.82 214.4 m E Pn      2012/05/30 04:33:07.0   0.4                          T                                        4976253
SBF   002.86 250.1 m E Pn      2012/05/30 04:33:07.2   0.1                          T                                        4976254
LPL   003.18 282.8 m E Pn      2012/05/30 04:33:13.3   1.5                          T                                        4976259
LPG   003.17 282.5 m E Pn      2012/05/30 04:33:13.5   1.9                          T                                        4976258
FRF   003.50 249.2 m E Pn      2012/05/30 04:33:16.4   0.5                          T                                        4976256
FRF   003.50 249.2 m E Sn      2012/05/30 04:33:55.4   0.0                          T                7.9  .20 Ml 3.2         4976243
LMR   003.69 246.6 m E Pn      2012/05/30 04:33:18.5   0.2                          T                                        4976255
ORIF  003.75 272.2 m E Pn      2012/05/30 04:33:19.7   0.4                          T                                        4976260
CABF  003.94 297.6 m E Pn      2012/05/30 04:33:21.7  -0.2                          T                                        4976249
HINF  004.17 316.0 m E Pn      2012/05/30 04:33:24.1  -0.9                          T                                        4976251
SMRF  004.10 259.0 m E Pn      2012/05/30 04:33:25.9   1.9                          T                                        4976257
CDF   004.41 324.2 m E Pn      2012/05/30 04:33:27.3  -1.0                          T                                        4976248
HAU   004.55 314.8 m E Pn      2012/05/30 04:33:29.3  -0.8                          T                                        4976250
HAU   004.55 314.8 m E Sn      2012/05/30 04:34:18.5  -2.0                          T               12.3  .30 Ml 3.2         4976245
VIVF  004.61 271.8 m E Pn      2012/05/30 04:33:30.5  -0.4                          T                                        4976261
VIVF  004.61 271.8 m E Sn      2012/05/30 04:34:19.9  -1.9                          T                1.9  .22 Ml 2.7         4976242
SMF   005.41 291.5 m E Pn      2012/05/30 04:33:41.3  -0.5                          T                                        4976262
SMF   005.41 291.5 m E Sn      2012/05/30 04:34:40.4  -0.5                          T                3.4  .28 Ml 3.1         4976244
LOR   005.60 297.6 m E Pn      2012/05/30 04:33:43.0  -1.4                          T                                        4976247
LOR   005.60 297.6 m E Sn      2012/05/30 04:34:44.8  -0.8                          T                3.2  .28 Ml 3.1         4976246
AVF   005.77 291.9 m E Pn      2012/05/30 04:33:45.9  -0.8                          T                                        4976252

.
EVENT     277155
    Date      Time       Latitude Longitude    Depth    Ndef Nsta Gap    Mag1  N    Mag2  N    Mag3  N   Author         ID
       rms   OT_Error      Smajor Sminor Az        Err   mdist  Mdist     Err        Err        Err      Quality

2012/05/30 04:38:43.9     44.9022   11.1925      2.0      23    8 133  Ml 2.8  1                         bulletin    277255
                                                                                                         _ldg
      0.72   +-  0.19       6.4    4.1  146.31 +-  0.0    1.11   4.57   +-                               m i ke

NORTHERN ITALY
Sta     Dist  EvAz     Phase      Date       Time     TRes  Azim  AzRes  Slow  SRes Def   SNR       Amp   Per   Mag1   Mag2       ID
PGF   002.84 214.8 m E Pn      2012/05/30 04:39:28.3  -0.3                          T                                        4976267
PGF   002.84 214.8 m E Sn      2012/05/30 04:40:03.1   1.8                          T                                        4976265
SBF   002.89 250.2 m E Pn      2012/05/30 04:39:29.3   0.2                          T                                        4976270
SBF   002.89 250.2 m E Sn      2012/05/30 04:40:03.5   1.2                          T                5.7  .24 Ml 2.8         4976264
LPG   003.20 282.3 m E Pn      2012/05/30 04:39:34.0   0.4                          T                                        4976268
FRF   003.53 249.3 m E Pn      2012/05/30 04:39:38.5   0.7                          T                                        4976269
LMR   003.72 246.7 m E Pn      2012/05/30 04:39:40.1  -0.2                          T                                        4976271
LMR   003.72 246.7 m E Sn      2012/05/30 04:40:20.7  -1.4                          T                                        4976263
HINF  004.19 315.7 m E Pn      2012/05/30 04:39:44.2  -2.6                          T                                        4976272
CDF   004.43 323.9 m E Pn      2012/05/30 04:39:48.7  -1.4                          T                                        4976266
HAU   004.57 314.6 m E Pn      2012/05/30 04:39:50.6  -1.3                          T                                        4976273

.
