EVENT     283310
    Date      Time       Latitude Longitude    Depth    Ndef Nsta Gap    Mag1  N    Mag2  N    Mag3  N   Author         ID
       rms   OT_Error      Smajor Sminor Az        Err   mdist  Mdist     Err        Err        Err      Quality

2012/09/14 01:06:11.8     50.1923    4.3196      3.0 f   101   26 057  Ml 2.4 24  Md 2.5  2              bulletin    283410
                                                                                                         _ldg
      0.54   +-  0.05       1.0     .8  136.49 +-  0.0    0.15   5.79   +-0.3      +-0.0                 m i ke

BELGIUM
Sta     Dist  EvAz     Phase      Date       Time     TRes  Azim  AzRes  Slow  SRes Def   SNR       Amp   Per   Mag1   Mag2       ID
BAIF  000.15 208.4 m E Pg      2012/09/14 01:06:14.5  -0.4                          T   001.0                                5069782
BAIF  000.15 208.4 m E Sg      2012/09/14 01:06:17.2   0.0                          T               26.0  .21        Md 2.6  5069831
GIVF  000.34 105.4 m E Pg      2012/09/14 01:06:18.0  -0.3                          T   001.0                                5069785
GIVF  000.34 105.4 m E Sg      2012/09/14 01:06:23.4   0.6                          T   001.0       97.1  .30        Md 2.5  5069786
BLES  000.60 329.9 m E Pg      2012/09/14 01:06:22.9  -0.2                          T                                        5069960
BLES  000.60 329.9 m E Sg      2012/09/14 01:06:30.5  -0.6                          T                                        5069959
MEZF  001.76 163.9 m E Pn      2012/09/14 01:06:41.4   0.0                          T                                        5069822
MEZF  001.76 163.9 m E Pg      2012/09/14 01:06:44.6   0.2 340.7  -3.8              T   001.0                                5069789
MEZF  001.76 163.9 m E Sg      2012/09/14 01:07:07.4   0.3                          T   001.0       13.1  .25 Ml 2.9         5069790
PAGF  001.88 150.2 m E Pn      2012/09/14 01:06:43.0   0.0                          T                                        5069830
PAGF  001.88 150.2 m E Pg      2012/09/14 01:06:46.7   0.0 329.3  -1.9              T                                        5069825
PAGF  001.88 150.2 m E Sn      2012/09/14 01:07:05.5  -0.4 329.0  -2.2              T                                        5069824
PAGF  001.88 150.2 m E Sg      2012/09/14 01:07:10.9  -0.1 329.0  -2.2              T                7.4  .22 Ml 2.7         5069823
SFTF  002.04 166.4 m E Pn      2012/09/14 01:06:45.3   0.1                          T                                        5069819
SFTF  002.04 166.4 m E Pg      2012/09/14 01:06:49.7   0.0 344.9  -2.1              T                                        5069820
SFTF  002.04 166.4 m E Sn      2012/09/14 01:07:09.6  -0.2                          T                                        5069821
SFTF  002.04 166.4 m E Sg      2012/09/14 01:07:16.0  -0.1 348.2  1.2               T               10.2  .21 Ml 2.9         5069829
HAU   002.56 147.9 m E Pn      2012/09/14 01:06:52.5   0.1                          T                                        5069818
HAU   002.56 147.9 m E Pg      2012/09/14 01:06:59.2  -0.2                          T   001.0                                5069769
HAU   002.56 147.9 m E Sn      2012/09/14 01:07:22.4   0.2                          T                                        5069817
HAU   002.56 147.9 m E Sg      2012/09/14 01:07:32.2  -0.1                          T   001.0        7.1  .26 Ml 2.5         5069770
CDF   002.63 131.5 m E Pn      2012/09/14 01:06:53.3  -0.1                          T   001.0                                5069763
CDF   002.63 131.5 m E Pg      2012/09/14 01:07:01.0   0.3                          T                                        5069826
CDF   002.63 131.5 m E Sn      2012/09/14 01:07:24.0   0.1                          T   001.0         .8  .23 Ml 2.0         5069764
HINF  002.90 144.0 m E Pn      2012/09/14 01:06:57.7   0.6                          T                                        5069815
HINF  002.90 144.0 m E Pg      2012/09/14 01:07:05.3  -0.4                          T                                        5069816
HINF  002.90 144.0 m E Sn      2012/09/14 01:07:29.5  -0.9                          T   001.0                                5069787
HINF  002.90 144.0 m E Sg      2012/09/14 01:07:42.3  -0.7                          T   001.0        2.9  .22 Ml 2.5         5069788
LOR   002.94 186.1 m E Pn      2012/09/14 01:06:57.9   0.4                          T   001.0                                5069775
LOR   002.94 186.1 m E Pg      2012/09/14 01:07:05.6  -0.7   5.8  0.0               T                                        5069827
LOR   002.94 186.1 m E Sn      2012/09/14 01:07:31.1  -0.2   9.4  3.6               T                                        5069828
LOR   002.94 186.1 m E Sg      2012/09/14 01:07:43.0  -1.1 359.0  -6.7              T   001.0        2.5  .26 Ml 2.4         5069776
HYF   003.13 201.4 m E Pn      2012/09/14 01:07:00.6   0.5                          T                                        5069808
HYF   003.13 201.4 m E Pg      2012/09/14 01:07:10.0   0.2                          T                                        5069807
HYF   003.13 201.4 m E Sn      2012/09/14 01:07:35.8   0.0                          T                                        5069806
HYF   003.13 201.4 m E Sg      2012/09/14 01:07:49.7  -0.2                          T                                        5069805
LDF   003.31 242.8 m E Pn      2012/09/14 01:07:02.9   0.3                          T   001.0                                5069771
LDF   003.31 242.8 m E Sn      2012/09/14 01:07:40.1   0.0                          T   001.0                                5069772
LDF   003.31 242.8 m E Sg      2012/09/14 01:07:55.5  -0.2                          T   001.0        2.6  .28 Ml 2.4         5069773
AVF   003.46 191.1 m E Pn      2012/09/14 01:07:04.2  -0.4                          T   001.0                                5069756
AVF   003.46 191.1 m E Sn      2012/09/14 01:07:43.0  -0.7                          T   001.0                                5069757
AVF   003.46 191.1 m E Sg      2012/09/14 01:08:00.1  -0.3                          T   001.0         .7  .26 Ml 1.9         5069758
FLN   003.44 247.3 m E Pn      2012/09/14 01:07:04.6   0.3                          T   001.0                                5069765
FLN   003.44 247.3 m E Pg      2012/09/14 01:07:15.7   0.2  69.1  5.5               T                                        5069813
FLN   003.44 247.3 m E Sn      2012/09/14 01:07:43.4   0.2                          T                                        5069814
FLN   003.44 247.3 m E Sg      2012/09/14 01:07:58.5  -1.2  64.6  1.0               T   001.0        2.3  .22 Ml 2.4         5069766
SMF   003.56 185.3 m E Pn      2012/09/14 01:07:05.9  -0.1                          T                                        5070399
SMF   003.56 185.3 m E Sn      2012/09/14 01:07:45.6  -0.5                          T                                        5070400
SMF   003.56 185.3 m E Sg      2012/09/14 01:08:03.3  -0.2                          T   001.0        2.1  .28 Ml 2.4         5069779
CABF  003.77 161.1 m E Pn      2012/09/14 01:07:09.3   0.4                          T   001.0                                5069783
CABF  003.77 161.1 m E Sn      2012/09/14 01:07:51.0  -0.2                          T   001.0         .6  .20 Ml 2.1         5069784
BGF   003.77 195.7 m E Pn      2012/09/14 01:07:09.3   0.6                          T   001.0                                5069759
BGF   003.77 195.7 m E Sn      2012/09/14 01:07:50.5  -0.5                          T   001.0                                5069760
BGF   003.77 195.7 m E Sg      2012/09/14 01:08:10.3   0.4                          T   001.0        8.6  .45 Ml 2.9         5069761
GRR   003.84 243.9 m E Pn      2012/09/14 01:07:09.7   0.0                          T                                        5069812
GRR   003.84 243.9 m E Pg      2012/09/14 01:07:23.2   0.4                          T                                        5069811
GRR   003.84 243.9 m E Sn      2012/09/14 01:07:52.4  -0.3                          T   001.0        4.1  .30 Ml 2.6         5069767
GRR   003.84 243.9 m E Sg      2012/09/14 01:08:12.0  -0.1                          T   001.0        1.1  .19 Ml 2.2         5069768
TCF   004.15 200.6 m E Pn      2012/09/14 01:07:14.7   0.6                          T   001.0                                5069780
TCF   004.15 200.6 m E Sn      2012/09/14 01:07:59.7  -0.5                          T   001.0         .8  .22 Ml 2.3         5069781
TCF   004.15 200.6 m E Sg      2012/09/14 01:08:22.0   0.1                          T                 .9  .24 Ml 2.3         5070401
SGMF  004.91 249.3 m E Pn      2012/09/14 01:07:24.6   0.4                          T                                        5069809
SGMF  004.91 249.3 m E Sn      2012/09/14 01:08:16.9  -1.3                          T   001.0        5.5  .76 Ml 2.7         5069793
RJF   005.24 202.2 m E Pn      2012/09/14 01:07:28.8  -0.1                          T                                        5069804
RJF   005.24 202.2 m E Sn      2012/09/14 01:08:25.8  -0.4                          T                 .8  .24 Ml 2.1         5069803
ROSF  005.31 252.4 m E Pn      2012/09/14 01:07:30.2   0.5                          T   001.0                                5069792
ROSF  005.31 252.4 m E Sn      2012/09/14 01:08:28.0   0.3                          T                 .6  .19 Ml 2.4         5069810
QUIF  005.42 248.0 m E Pn      2012/09/14 01:07:31.5   0.3                          T   001.0                                5069791
CAF   005.49 197.0 m E Pn      2012/09/14 01:07:32.3   0.1                          T                                        5069800
CAF   005.49 197.0 m E Sn      2012/09/14 01:08:32.0   0.0                          T   001.0         .3  .25 Ml 2.0         5069762
LFF   005.79 206.1 m E Pn      2012/09/14 01:07:36.7   0.5                          T                                        5069802
LFF   005.79 206.1 m E Pg      2012/09/14 01:07:58.6  -0.1                          T                                        5069801
LFF   005.79 206.1 m E Sn      2012/09/14 01:08:39.2   0.0                          T   001.0        1.1  .26 Ml 2.5         5069774
MFF   004.66 221.3 m E Sn      2012/09/14 01:08:12.6   0.3                          T   001.0         .5  .19 Ml 2.4         5069778

.
EVENT     283312
    Date      Time       Latitude Longitude    Depth    Ndef Nsta Gap    Mag1  N    Mag2  N    Mag3  N   Author         ID
       rms   OT_Error      Smajor Sminor Az        Err   mdist  Mdist     Err        Err        Err      Quality

2012/09/14 02:47:28.4     44.8286   11.4074      2.0     115   29 084  Ml 3.0 25                         bulletin    283412
                                                                                                         _ldg
      0.86   +-  0.13       2.9    2.1   90.17 +-  0.0    0.20   9.16   +-0.3                            m i ke

NORTHERN ITALY
Sta     Dist  EvAz     Phase      Date       Time     TRes  Azim  AzRes  Slow  SRes Def   SNR       Amp   Per   Mag1   Mag2       ID
PGF   002.87 218.3 m E Pn      2012/09/14 02:48:11.8  -1.6                          T   001.0                                5069865
PGF   002.87 218.3 m E Sn      2012/09/14 02:48:47.1   0.5                          T   001.0       10.8  .34 Ml 3.1         5069866
SBF   003.01 252.7 m E Pn      2012/09/14 02:48:16.5   1.2                          T   001.0                                5069867
SBF   003.01 252.7 m E Sn      2012/09/14 02:48:51.0   1.2                          T   001.0                                5069868
SBF   003.01 252.7 m E Sg      2012/09/14 02:49:03.7   0.8                          T   001.0       11.3  .30 Ml 3.0         5069869
MBDF  003.30 269.9 m E Pn      2012/09/14 02:48:19.1  -0.3                          T   001.0                                5069875
MBDF  003.30 269.9 m E Sn      2012/09/14 02:48:57.0   0.0                          T   001.0       13.4  .48 Ml 2.9         5069876
MBDF  003.30 269.9 m E Sg      2012/09/14 02:49:13.0   0.8                          T               14.7  .48 Ml 3.0         5069899
LPL   003.38 283.4 m E Pn      2012/09/14 02:48:20.4  -0.1                          T   001.0                                5069863
LPG   003.36 283.1 m E Pn      2012/09/14 02:48:20.4   0.0                          T   001.0                                5069862
LPL   003.38 283.4 m E Sn      2012/09/14 02:48:58.4  -0.4                          T   001.0        8.4  .38 Ml 2.9         5069864
LPG   003.36 283.1 m E Sn      2012/09/14 02:48:58.7   0.2                          T               11.6  .47 Ml 2.9         5069900
FRF   003.65 251.4 m E Pn      2012/09/14 02:48:23.9   0.0                          T   001.0                                5069854
FRF   003.65 251.4 m E Sn      2012/09/14 02:49:05.0  -0.1                          T   001.0       12.0  .45 Ml 3.0         5069855
LMR   003.83 248.8 m E Pn      2012/09/14 02:48:26.2  -0.2                          T   001.0                                5069859
LMR   003.83 248.8 m E Sn      2012/09/14 02:49:09.8   0.5                          T                2.9  .24 Ml 2.7         5069903
ORIF  003.93 273.3 m E Pn      2012/09/14 02:48:28.9   1.0                          T   001.0                                5069877
ORIF  003.93 273.3 m E Sn      2012/09/14 02:49:12.3   0.4                          T   001.0       11.8  .37 Ml 3.1         5069878
CABF  004.13 297.4 m E Pn      2012/09/14 02:48:30.8   0.2                          T   001.0                                5069872
CABF  004.13 297.4 m E Pg      2012/09/14 02:48:45.4   0.4                          T                                        5069891
CABF  004.13 297.4 m E Sn      2012/09/14 02:49:16.5  -0.1                          T                2.9  .35 Ml 2.6         5069893
SMRF  004.27 260.5 m E Pn      2012/09/14 02:48:32.9   0.5                          T                                        5069902
SMRF  004.27 260.5 m E Sn      2012/09/14 02:49:20.1   0.3                          T                                        5069901
SMRF  004.27 260.5 m E Sg      2012/09/14 02:49:42.7   0.6                          T   001.0        2.0  .30 Ml 2.5         5069881
HINF  004.35 315.1 m E Pn      2012/09/14 02:48:33.3  -0.1                          T   001.0                                5069873
HINF  004.35 315.1 m E Sn      2012/09/14 02:49:21.6  -0.1                          T   001.0       14.6  .42 Ml 3.3         5069874
CDF   004.58 323.0 m E Pn      2012/09/14 02:48:36.6  -0.1                          T   001.0                                5069852
CDF   004.58 323.0 m E Sn      2012/09/14 02:49:26.6  -0.7                          T   001.0        3.9  .20 Ml 3.2         5069853
HAU   004.73 314.0 m E Pn      2012/09/14 02:48:38.7   0.1                          T   001.0                                5069857
HAU   004.73 314.0 m E Pg      2012/09/14 02:48:55.7  -0.2                          T                                        5069892
HAU   004.73 314.0 m E Sn      2012/09/14 02:49:30.1  -0.7                          T   001.0       18.3  .42 Ml 3.2         5069858
VIVF  004.79 272.7 m E Pn      2012/09/14 02:48:39.2  -0.3                          T   001.0                                5069879
VIVF  004.79 272.7 m E Sn      2012/09/14 02:49:33.0   0.7                          T   001.0        1.1  .24 Ml 2.5         5069880
PAGF  005.40 315.7 m E Pn      2012/09/14 02:48:47.6  -0.2                          T                                        5069886
PAGF  005.40 315.7 m E Sn      2012/09/14 02:49:46.6  -0.3                          T                6.0  .41 Ml 3.1         5069885
LASF  005.46 264.7 m E Pn      2012/09/14 02:48:48.7   0.1                          T                                        5069898
SFTF  005.54 309.8 m E Pn      2012/09/14 02:48:49.4  -0.3 125.0  -0.2              T                                        5069890
SFTF  005.54 309.8 m E Sn      2012/09/14 02:49:50.0  -0.2                          T                1.4  .20 Ml 2.8         5069889
SMF   005.60 291.6 m E Pn      2012/09/14 02:48:50.6   0.1                          T   001.0                                5069870
SMF   005.60 291.6 m E Sn      2012/09/14 02:49:50.2  -1.4                          T   001.0       12.7  .60 Ml 3.3         5069871
MEZF  005.71 312.3 m E Pn      2012/09/14 02:48:51.6  -0.4                          T                                        5069887
MEZF  005.71 312.3 m E Sn      2012/09/14 02:49:54.1  -0.1                          T                2.9  .35 Ml 3.0         5069888
LOR   005.79 297.6 m E Pn      2012/09/14 02:48:52.0  -0.1 118.7  6.5               T   001.0                                5069860
LOR   005.79 297.6 m E Sn      2012/09/14 02:49:56.6   0.3                          T   001.0        9.1  .41 Ml 3.4         5069861
AVF   005.96 292.1 m E Pn      2012/09/14 02:48:55.4   0.0                          T   001.0                                5069847
AVF   005.96 292.1 m E Sn      2012/09/14 02:49:58.2  -2.1                          T   001.0        1.0  .29 Ml 2.6         5069848
BGF   006.24 289.1 m E Pn      2012/09/14 02:48:59.5   0.3                          T   001.0                                5069849
BGF   006.24 289.1 m E Sn      2012/09/14 02:50:08.8   1.8                          T   001.0       10.2  .56 Ml 3.4         5069850
CAF   006.64 274.1 m E Pn      2012/09/14 02:49:04.7   0.0                          T   001.0                                5069851
MTLF  006.78 260.6 m E Pn      2012/09/14 02:49:06.5  -0.2                          T                                        5069897
GIVF  006.91 322.1 m E Pn      2012/09/14 02:49:07.9  -0.4                          T                                        5069884
RJF   007.02 277.4 m E Pn      2012/09/14 02:49:10.1   0.3                          T                                        5069895
LFF   007.58 274.6 m E Pn      2012/09/14 02:49:17.0  -0.4                          T                                        5069896
GRR   009.16 297.2 m E Pn      2012/09/14 02:49:38.3  -0.7                          T   001.0                                5069856
HYF   006.57 294.9 m E Sn      2012/09/14 02:50:15.2   0.3                          T                                        5069894

.
