EVENT     255329
    Date      Time       Latitude Longitude    Depth    Ndef Nsta Gap    Mag1  N    Mag2  N    Mag3  N   Author         ID
       rms   OT_Error      Smajor Sminor Az        Err   mdist  Mdist     Err        Err        Err      Quality

2011/01/28 17:38:14.1     42.5964     .9033      2.0      87   16 033  Ml 2.8 19  Md 2.9  3              js067245    255349

      0.57   +-  0.05        .9     .9   39.16 +-  0.0    0.26   5.12   +-0.1      +-0.0                 m i ke

PYRENEES
Sta     Dist  EvAz     Phase      Date       Time     TRes  Azim  AzRes  Slow  SRes Def   SNR       Amp   Per   Mag1   Mag2       ID
EPF   000.60 316.5 m E Pg      2011/01/28 17:38:25.2  -0.4                          T                                        4639803
EPF   000.60 316.5 m E Sg      2011/01/28 17:38:32.7  -0.7                          T              118.8  .18        Md 2.9  4639798
ETSF  001.12 286.2 m E Pg      2011/01/28 17:38:34.6  -0.6                          T                                        4639800
ETSF  001.12 286.2 m E Sg      2011/01/28 17:38:48.8  -0.9                          T               22.9  .24 Ml 2.8 Md 2.9  4639797
MTLF  001.22 051.9 m E Pn      2011/01/28 17:38:36.8   0.3                          T                                        4639802
MTLF  001.22 051.9 m E Pg      2011/01/28 17:38:37.2   0.3                          T                                        4641319
MTLF  001.22 051.9 m E Sg      2011/01/28 17:38:53.1   0.4                          T               36.6  .40 Ml 2.9 Md 2.9  4639796
SJPF  001.65 289.0 m E Pn      2011/01/28 17:38:42.0  -0.3                          T                                        4639781
SJPF  001.65 289.0 m E Pg      2011/01/28 17:38:45.5   0.6                          T                                        4639801
SJPF  001.65 289.0 m E Sg      2011/01/28 17:39:05.4  -0.7                          T               28.3  .53 Ml 2.8         4639795
LFF   002.35 357.2 m E Pn      2011/01/28 17:38:52.8   0.9                          T                                        4639779
LFF   002.35 357.2 m E Pg      2011/01/28 17:38:57.5  -0.1                          T                                        4639792
LFF   002.35 357.2 m E Sg      2011/01/28 17:39:27.8  -0.1                          T               22.4  .40 Ml 2.9         4639760
CAF   002.48 019.5 m E Pn      2011/01/28 17:38:53.5  -0.2                          T                                        4639780
CAF   002.48 019.5 m E Pg      2011/01/28 17:38:59.9  -0.3                          T                                        4639793
CAF   002.48 019.5 m E Sg      2011/01/28 17:39:32.1   0.1                          T                8.8  .22 Ml 2.9         4639759
LASF  002.61 054.5 m E Pn      2011/01/28 17:38:55.9   0.3                          T                                        4639782
LASF  002.61 054.5 m E P       2011/01/28 17:38:58.0  -0.2                          T                                        4639794
LASF  002.61 054.5 m E Pg      2011/01/28 17:39:02.3  -0.3                          T                                        4641318
LASF  002.61 054.5 m E Sg      2011/01/28 17:39:36.8   0.6                          T               13.2  .40 Ml 2.9         4639758
RJF   002.74 009.1 m E Pn      2011/01/28 17:38:57.3   0.0                          T                                        4639778
RJF   002.74 009.1 m E Pg      2011/01/28 17:39:05.3   0.3                          T                                        4639799
RJF   002.74 009.1 m E Sg      2011/01/28 17:39:40.3   0.0                          T                8.9  .22 Ml 2.6         4639761
VIVF  003.54 049.1 m E Pn      2011/01/28 17:39:07.0  -0.2                          T                                        4639783
VIVF  003.54 049.1 m E Pg      2011/01/28 17:39:19.9   0.1                          T                                        4639784
VIVF  003.54 049.1 m E Sg      2011/01/28 17:40:05.8   0.5                          T                5.7  .43 Ml 2.7         4639757
TCF   003.81 013.8 m E Pn      2011/01/28 17:39:12.0   0.1                          T                                        4639772
TCF   003.81 013.8 m E Pg      2011/01/28 17:39:24.5  -0.2                          T                                        4639787
TCF   003.81 013.8 m E Sg      2011/01/28 17:40:13.8   0.2                          T                2.7  .25 Ml 2.7         4639767
MFF   004.07 349.8 m E Pn      2011/01/28 17:39:15.5   0.1                          T                                        4639777
MFF   004.07 349.8 m E Sg      2011/01/28 17:40:21.7  -0.1                          T                2.6  .33 Ml 2.7         4639762
BGF   004.20 018.6 m E Pn      2011/01/28 17:39:17.2   0.2                          T                                        4639775
BGF   004.20 018.6 m E Pg      2011/01/28 17:39:31.8   0.0                          T                                        4639790
BGF   004.20 018.6 m E Sg      2011/01/28 17:40:25.9   0.3                          T               14.7  .42 Ml 3.2         4639764
AVF   004.54 021.8 m E Pn      2011/01/28 17:39:22.0   0.2                          T                                        4639774
AVF   004.54 021.8 m E Pg      2011/01/28 17:39:37.8  -0.3                          T                                        4639788
AVF   004.54 021.8 m E Sg      2011/01/28 17:40:36.7   0.3                          T                2.8  .37 Ml 2.7         4639766
SMF   004.56 026.4 m E Pn      2011/01/28 17:39:22.3   0.3                          T                                        4639773
SMF   004.56 026.4 m E Pg      2011/01/28 17:39:38.5   0.1                          T                                        4639789
SMF   004.56 026.4 m E Sg      2011/01/28 17:40:37.4   0.5                          T                3.8  .33 Ml 2.8         4639765
SSF   004.83 021.6 m E Pn      2011/01/28 17:39:25.9   0.2                          T                                        4639771
SSF   004.83 021.6 m E Pg      2011/01/28 17:39:43.5   0.0                          T                                        4639786
SSF   004.83 021.6 m E Sg      2011/01/28 17:40:45.8   0.3                          T                2.2  .40 Ml 2.7         4639768
LOR   005.12 023.2 m E Pn      2011/01/28 17:39:29.7   0.0                          T                                        4639770
LOR   005.12 023.2 m E Pg      2011/01/28 17:39:48.6  -0.2                          T                                        4639785
LOR   005.12 023.2 m E Sg      2011/01/28 17:40:55.0   0.5                          T                2.1  .35 Ml 2.7         4639769

.
EVENT     255330
    Date      Time       Latitude Longitude    Depth    Ndef Nsta Gap    Mag1  N    Mag2  N    Mag3  N   Author         ID
       rms   OT_Error      Smajor Sminor Az        Err   mdist  Mdist     Err        Err        Err      Quality

2011/01/28 18:50:46.4     45.3545    6.4971      3.0 f    65   22 097  Ml 2.3 20  Md 2.2  3              js067245    255350

      0.54   +-  0.04        .9     .7   86.21 +-  0.0    0.23   3.30   +-0.2      +-0.1                 m i ke

FRANCE
Sta     Dist  EvAz     Phase      Date       Time     TRes  Azim  AzRes  Slow  SRes Def   SNR       Amp   Per   Mag1   Mag2       ID
LPL   000.23 045.6 m E Pg      2011/01/28 18:50:51.2  -0.1                          T                                        4639813
LPL   000.23 045.6 m E Sg      2011/01/28 18:50:54.4  -0.1                          T               61.3  .20        Md 2.2  4639805
LPG   000.23 051.3 m E Pg      2011/01/28 18:50:51.2  -0.2                          T                                        4639812
LPG   000.23 051.3 m E Sg      2011/01/28 18:50:54.5  -0.1                          T               82.4  .24        Md 2.2  4639804
ORIF  000.62 225.3 m E Pg      2011/01/28 18:50:58.0  -0.2                          T                                        4639811
ORIF  000.62 225.3 m E Sg      2011/01/28 18:51:05.4  -0.9                          T               31.9  .20        Md 2.1  4639806
MBDF  000.66 162.7 m E Pg      2011/01/28 18:50:59.2   0.1                          T                                        4639810
MBDF  000.66 162.7 m E Sg      2011/01/28 18:51:07.2  -0.5                          T               25.9  .32                4639807
CABF  001.29 347.3 m E Pg      2011/01/28 18:51:10.5  -0.1                          T                                        4639809
CABF  001.29 347.3 m E Sg      2011/01/28 18:51:27.9   0.6                          T                6.9  .20 Ml 2.5         4639808
VIVF  001.38 249.6 m E Pg      2011/01/28 18:51:12.1  -0.2                          T                                        4639863
VIVF  001.38 249.6 m E Sg      2011/01/28 18:51:29.9  -0.3                          T               12.5  .28 Ml 2.6         4639832
SMRF  001.53 205.8 m E Pg      2011/01/28 18:51:15.0   0.1                          T                                        4639867
SMRF  001.53 205.8 m E Sg      2011/01/28 18:51:34.4  -0.3                          T                2.1  .30 Ml 1.9         4639833
SBF   001.63 155.5 m E Pg      2011/01/28 18:51:16.8  -0.2                          T                                        4639864
SBF   001.63 155.5 m E Sg      2011/01/28 18:51:37.8  -0.3                          T                7.7  .28 Ml 2.5         4639836
FRF   001.80 176.5 m E Pg      2011/01/28 18:51:19.2  -0.7                          T                                        4639866
FRF   001.80 176.5 m E Sg      2011/01/28 18:51:42.8  -0.2                          T                3.9  .23 Ml 2.4         4639834
SMF   002.26 305.8 m E Pn      2011/01/28 18:51:22.7  -0.2                          T                                        4639839
SMF   002.26 305.8 m E Pg      2011/01/28 18:51:28.3  -0.1                          T                                        4639861
SMF   002.26 305.8 m E Sg      2011/01/28 18:51:57.3  -0.1                          T                3.0  .24 Ml 2.4         4639829
LMR   002.02 179.7 m E Pg      2011/01/28 18:51:23.7  -0.3                          T                                        4639865
LMR   002.02 179.7 m E Sg      2011/01/28 18:51:49.7  -0.3                          T                3.2  .25 Ml 2.3         4639835
HINF  002.48 005.6 m E Pn      2011/01/28 18:51:25.6  -0.3                          T                                        4639841
HINF  002.48 005.6 m E Pg      2011/01/28 18:51:32.3  -0.1                          T                                        4639858
HINF  002.48 005.6 m E Sg      2011/01/28 18:52:04.4   0.1                          T                2.8  .28 Ml 2.3         4639827
AVF   002.62 304.4 m E Pn      2011/01/28 18:51:27.8   0.0                          T                                        4639840
AVF   002.62 304.4 m E Pg      2011/01/28 18:51:35.1   0.1                          T                                        4639862
AVF   002.62 304.4 m E Sg      2011/01/28 18:52:08.6  -0.1                          T                1.3  .23 Ml 2.1         4639828
LOR   002.65 317.3 m E Pn      2011/01/28 18:51:28.2   0.0                          T                                        4639849
LOR   002.65 317.3 m E Pg      2011/01/28 18:51:35.3  -0.2 141.5  6.1               T                                        4639850
LOR   002.65 317.3 m E Sg      2011/01/28 18:52:09.6   0.0 133.9  -1.5              T                1.3  .20 Ml 2.2         4639819
HAU   002.65 357.8 m E Pn      2011/01/28 18:51:28.5   0.2                          T                                        4639842
HAU   002.65 357.8 m E Pg      2011/01/28 18:51:35.7   0.0                          T                                        4639857
HAU   002.65 357.8 m E Sg      2011/01/28 18:52:09.7  -0.1                          T                6.6  .30 Ml 2.5         4639826
SSF   002.69 310.5 m E Pn      2011/01/28 18:51:28.7   0.0                          T                                        4639848
SSF   002.69 310.5 m E Pg      2011/01/28 18:51:36.1  -0.2                          T                                        4639851
SSF   002.69 310.5 m E Sg      2011/01/28 18:52:10.7  -0.2                          T                1.9  .29 Ml 2.2         4639820
BGF   002.82 296.6 m E Pn      2011/01/28 18:51:30.7   0.2                          T                                        4639838
BGF   002.82 296.6 m E Pg      2011/01/28 18:51:38.4  -0.2                          T                                        4639860
BGF   002.82 296.6 m E Sg      2011/01/28 18:52:14.7  -0.1                          T                4.3  .28 Ml 2.6         4639830
THEF  002.90 353.3 m E Pn      2011/01/28 18:51:31.7   0.2                          T                                        4639843
THEF  002.90 353.3 m E Pg      2011/01/28 18:51:40.0  -0.1                          T                                        4639856
THEF  002.90 353.3 m E Sg      2011/01/28 18:52:17.3   0.0                          T                4.1  .30 Ml 2.5         4639825
SFTF  003.02 341.2 m E Pn      2011/01/28 18:51:33.4   0.1                          T                                        4639844
SFTF  003.02 341.2 m E Pg      2011/01/28 18:51:42.5   0.0                          T                                        4639855
SFTF  003.02 341.2 m E Sg      2011/01/28 18:52:21.2  -0.1                          T                1.2  .19 Ml 2.2         4639824
CDF   003.11 009.6 m E Pn      2011/01/28 18:51:34.5   0.0                          T                                        4639847
CDF   003.11 009.6 m E Pg      2011/01/28 18:51:44.2   0.1                          T                                        4639852
CDF   003.11 009.6 m E Sg      2011/01/28 18:52:23.9  -0.1                          T                1.4  .29 Ml 2.3         4639821
PAGF  003.25 350.9 m E Pn      2011/01/28 18:51:36.4   0.1                          T                                        4639846
PAGF  003.25 350.9 m E Pg      2011/01/28 18:51:46.5  -0.1                          T                                        4639853
PAGF  003.25 350.9 m E Sg      2011/01/28 18:52:28.4   0.1 170.5  0.1               T                 .7  .38 Ml 1.8         4639822
MEZF  003.30 343.1 m E Pn      2011/01/28 18:51:37.1   0.0                          T                                        4639845
MEZF  003.30 343.1 m E Pg      2011/01/28 18:51:47.6   0.1                          T                                        4639854
MEZF  003.30 343.1 m E Sg      2011/01/28 18:52:30.0   0.0 162.2  0.2               T                1.5  .24 Ml 2.3         4639823

.
EVENT     255331
    Date      Time       Latitude Longitude    Depth    Ndef Nsta Gap    Mag1  N    Mag2  N    Mag3  N   Author         ID
       rms   OT_Error      Smajor Sminor Az        Err   mdist  Mdist     Err        Err        Err      Quality

2011/01/28 20:13:25.0     43.0548    -.4988      2.0      18    6 102  Ml 1.7  3  Md 1.7  3              js067245    255351

      0.31   +-  0.07       1.6    1.1  167.38 +-  0.0    0.15   2.68   +-0.2      +-0.1                 m i ke

PYRENEES
Sta     Dist  EvAz     Phase      Date       Time     TRes  Azim  AzRes  Slow  SRes Def   SNR       Amp   Per   Mag1   Mag2       ID
ETSF  000.16 195.9 m E Pg      2011/01/28 20:13:28.3  -0.2                          T                                        4639873
ETSF  000.16 195.9 m E Sg      2011/01/28 20:13:30.8   0.0                          T               17.6  .24        Md 1.8  4639869
SJPF  000.54 276.5 m E Pg      2011/01/28 20:13:35.2   0.0                          T                                        4639872
SJPF  000.54 276.5 m E Sg      2011/01/28 20:13:42.2  -0.1                          T                2.9  .36        Md 1.7  4639868
EPF   000.62 092.0 m E Pg      2011/01/28 20:13:36.7   0.0                          T                                        4639871
EPF   000.62 092.0 m E Sg      2011/01/28 20:13:44.7  -0.1                          T                5.6  .54        Md 1.6  4639870
LFF   002.09 025.0 m E Pn      2011/01/28 20:13:59.3   0.1                          T                                        4639875
LFF   002.09 025.0 m E Sg      2011/01/28 20:14:30.8   0.2                          T                1.5  .26 Ml 1.8         4639879
CAF   002.63 043.8 m E Pn      2011/01/28 20:14:06.7   0.0                          T                                        4639874
CAF   002.63 043.8 m E Sg      2011/01/28 20:14:47.8   0.1                          T                  1  .27 Ml 1.9         4639878
RJF   002.68 032.1 m E Pn      2011/01/28 20:14:07.4   0.1                          T                                        4639876
RJF   002.68 032.1 m E Sg      2011/01/28 20:14:48.8  -0.2                          T                 .4  .13 Ml 1.5         4639877

.
EVENT     255332
    Date      Time       Latitude Longitude    Depth    Ndef Nsta Gap    Mag1  N    Mag2  N    Mag3  N   Author         ID
       rms   OT_Error      Smajor Sminor Az        Err   mdist  Mdist     Err        Err        Err      Quality

2011/01/28 20:28:37.3     43.1248    -.5523      2.0      26    6 099  Ml 1.8  4  Md 1.8  3              js067245    255352

      0.48   +-  0.08       2.0    1.2    1.07 +-  0.0    0.12   2.61   +-0.1      +-0.0                 m i ke

PYRENEES
Sta     Dist  EvAz     Phase      Date       Time     TRes  Azim  AzRes  Slow  SRes Def   SNR       Amp   Per   Mag1   Mag2       ID
ETSF  000.23 181.3 m E Pg      2011/01/28 20:28:41.3  -0.5                          T                                        4639910
ETSF  000.23 181.3 m E Sg      2011/01/28 20:28:43.4  -1.6                          T               52.9  .28        Md 1.8  4639906
SJPF  000.49 268.9 m E Pg      2011/01/28 20:28:46.6  -0.1                          T                                        4639909
SJPF  000.49 268.9 m E Sg      2011/01/28 20:28:53.0  -0.2                          T                7.6  .31        Md 1.8  4639905
EPF   000.66 097.9 m E Pg      2011/01/28 20:28:50.2   0.4                          T                                        4639908
EPF   000.66 097.9 m E Sg      2011/01/28 20:28:58.6   0.1                          T                4.7  .24        Md 1.8  4639907
LFF   002.04 026.8 m E Pn      2011/01/28 20:29:10.9   0.1                          T                                        4639983
LFF   002.04 026.8 m E Sg      2011/01/28 20:29:41.5   0.1                          T                1.9  .37 Ml 1.8         4639981
MTLF  002.04 083.0 m E Pg      2011/01/28 20:29:15.0  -0.1                          T                                        4639978
MTLF  002.04 083.0 m E Sg      2011/01/28 20:29:41.3   0.0                          T                2.5  .35 Ml 2.1         4639979
CAF   002.61 045.5 m E Pn      2011/01/28 20:29:18.5  -0.2                          T                                        4639982
CAF   002.61 045.5 m E Sg      2011/01/28 20:29:59.3   0.1                          T                 .6  .27 Ml 1.7         4639980

.
