EVENT     262999
    Date      Time       Latitude Longitude    Depth    Ndef Nsta Gap    Mag1  N    Mag2  N    Mag3  N   Author         ID
       rms   OT_Error      Smajor Sminor Az        Err   mdist  Mdist     Err        Err        Err      Quality

2011/08/24 15:32:32.3     43.1457    -.4968      2.0      24    8 081  Ml 2.2  6  Md 2.1  3              js067245    262999

      0.62   +-  0.11       2.9    1.5  176.18 +-  0.0    0.16   4.10   +-0.1      +-0.2                 m i ke

PYRENEES
Sta     Dist  EvAz     Phase      Date       Time     TRes  Azim  AzRes  Slow  SRes Def   SNR       Amp   Per   Mag1   Mag2       ID
ETSF  000.25 190.5 m E Pg      2011/08/24 15:32:36.5  -0.9                          T                                        4740983
ETSF  000.25 190.5 m E Sg      2011/08/24 15:32:39.6  -1.3                          T               32.3  .26        Md 2.3  4740979
SJPF  000.53 266.8 m E Pg      2011/08/24 15:32:42.8   0.3                          T                                        4740981
SJPF  000.53 266.8 m E Sg      2011/08/24 15:32:48.6  -0.9                          T                6.8  .28        Md 2.1  4740978
EPF   000.62 100.4 m E Pg      2011/08/24 15:32:44.7   0.5                          T                                        4740982
EPF   000.62 100.4 m E Sg      2011/08/24 15:32:52.0  -0.4                          T                3.9  .18        Md 2.0  4740972
MTLF  001.99 083.5 m E Pg      2011/08/24 15:33:09.6   0.2                          T                                        4740980
MTLF  001.99 083.5 m E Sg      2011/08/24 15:33:35.0  -0.1                          T                1.8  .22 Ml 2.1         4740977
LASF  003.30 072.1 m E Pg      2011/08/24 15:33:34.2   0.8                          T                                        4740973
LASF  003.30 072.1 m E Sg      2011/08/24 15:34:15.8   0.1                          T                 .9  .20 Ml 2.1         4740974
RJF   002.60 033.2 m E Sg      2011/08/24 15:33:53.0  -0.9                          T                2.0  .22 Ml 1.9         4740976
MFF   003.47 004.0 m E Sg      2011/08/24 15:34:19.6  -1.5                          T                 .8  .28 Ml 2.2         4740975
VIVF  004.10 063.6 m E Sg      2011/08/24 15:34:39.9  -1.0                          T                1.4  .33 Ml 2.3         4740971

.
EVENT     263000
    Date      Time       Latitude Longitude    Depth    Ndef Nsta Gap    Mag1  N    Mag2  N    Mag3  N   Author         ID
       rms   OT_Error      Smajor Sminor Az        Err   mdist  Mdist     Err        Err        Err      Quality

2011/08/24 19:30:11.9     42.8195   -1.4185      2.0      37    3 074  Ml 1.2  1  Md 1.2  2              js067245    263000

      0.36   +-  0.07       1.4    1.2   28.08 +-  0.0    0.05   1.31   +-         +-0.1                 m i ke

PYRENEES
Sta     Dist  EvAz     Phase      Date       Time     TRes  Azim  AzRes  Slow  SRes Def   SNR       Amp   Per   Mag1   Mag2       ID
SJPF  000.33 025.7 m E Pg      2011/08/24 19:30:18.2  -0.1                          T                                        4741005
SJPF  000.33 025.7 m E Sg      2011/08/24 19:30:22.5  -0.1                          T                3.0  .26        Md 1.3  4741003
ETSF  000.64 082.6 m E Pg      2011/08/24 19:30:23.8  -0.3                          T                                        4741004
ETSF  000.64 082.6 m E Sg      2011/08/24 19:30:32.4   0.0                          T                1.4  .36        Md 1.2  4741002
EPF   001.31 080.1 m E Pg      2011/08/24 19:30:35.8  -0.6                          T                                        4740999
EPF   001.31 080.1 m E Sg      2011/08/24 19:30:53.1  -0.3                          T                 .5  .27 Ml 1.2         4741001

.
EVENT     263001
    Date      Time       Latitude Longitude    Depth    Ndef Nsta Gap    Mag1  N    Mag2  N    Mag3  N   Author         ID
       rms   OT_Error      Smajor Sminor Az        Err   mdist  Mdist     Err        Err        Err      Quality

2011/08/24 21:14:48.5     50.2336   12.3642     10.0 f    38   11 039  Ml 2.8 11                         js067245    263001

      0.42   +-  0.08       1.9    1.4  131.29 +-  0.0    0.03   7.84   +-0.3                            m i ke

GERMANY
Sta     Dist  EvAz     Phase      Date       Time     TRes  Azim  AzRes  Slow  SRes Def   SNR       Amp   Per   Mag1   Mag2       ID
SMF   006.71 240.9 m E Pn      2011/08/24 21:16:25.1   0.4                          T                                        4741043
SMF   006.71 240.9 m E Pg      2011/08/24 21:16:52.5   0.0                          T                                        4741042
SMF   006.71 240.9 m E Sg      2011/08/24 21:18:18.0  -0.4                          T                1.2  .22 Ml 3.0         4741040
LANF  003.22 248.8 m E Sg      2011/08/24 21:16:29.4  -0.1                          T               12.2  .27 Ml 3.1         4741052
RUP   003.47 263.2 m E Sg      2011/08/24 21:16:37.0  -0.2                          T                                        4741045
CDF   003.79 243.2 m E Sg      2011/08/24 21:16:47.7   0.2                          T                4.2  .29 Ml 2.9         4741050
HINF  004.36 238.4 m E Sg      2011/08/24 21:17:05.1   0.0                          T                4.6  .32 Ml 2.9         4741044
PAGF  004.65 251.4 m E Sg      2011/08/24 21:17:14.0  -0.1                          T                1.2  .45 Ml 2.2         4741049
BAIF  005.25 271.2 m E Sg      2011/08/24 21:17:33.1   0.3                          T                2.8  .42 Ml 2.7         4741051
CABF  005.53 231.4 m E Sg      2011/08/24 21:17:40.9  -0.8                          T                 .9  .22 Ml 2.6         4741041
LOR   006.36 245.4 m E Sg      2011/08/24 21:18:07.0  -0.5                          T                2.4  .36 Ml 3.0         4741047
SSF   006.67 245.0 m E Sg      2011/08/24 21:18:16.6  -0.6                          T                1.9  .34 Ml 3.0         4741046
TCF   007.84 243.7 m E Sg      2011/08/24 21:18:53.3  -0.5                          T                 .2  .22 Ml 2.5         4741048

.
EVENT     263002
    Date      Time       Latitude Longitude    Depth    Ndef Nsta Gap    Mag1  N    Mag2  N    Mag3  N   Author         ID
       rms   OT_Error      Smajor Sminor Az        Err   mdist  Mdist     Err        Err        Err      Quality

2011/08/25 03:31:11.1     48.3046    7.6424     15.0      29   11 041  Ml 2.0  7  Md 2.0  2              js067245    263002

      0.34   +-  0.04       1.0     .8    6.31 +-  0.0    0.22   2.75   +-0.3      +-0.0                 m i ke

FRANCE
Sta     Dist  EvAz     Phase      Date       Time     TRes  Azim  AzRes  Slow  SRes Def   SNR       Amp   Per   Mag1   Mag2       ID
CDF   000.27 293.9 m E Pg      2011/08/25 03:31:16.8  -0.2                          T                                        4741110
CDF   000.27 293.9 m E Sg      2011/08/25 03:31:20.5  -0.5                          T                6.5  .16        Md 2.0  4741108
LANF  000.69 009.0 m E Pg      2011/08/25 03:31:24.3   0.0                          T                                        4752027
LANF  000.69 009.0 m E Sg      2011/08/25 03:31:33.3  -0.1                          T                3.0  .19                4752028
HINF  000.72 227.6 m E Pg      2011/08/25 03:31:25.1   0.1                          T                                        4741109
HINF  000.72 227.6 m E Sg      2011/08/25 03:31:34.5  -0.1                          T                5.3  .26        Md 2.0  4741107
THEF  001.10 266.6 m E Pn      2011/08/25 03:31:30.6   0.1                          T                                        4752029
THEF  001.10 266.6 m E Sg      2011/08/25 03:31:46.9   0.5                          T                3.6  .20 Ml 2.1         4741106
PAGF  001.30 281.8 m E Pg      2011/08/25 03:31:35.5   0.0                          T                                        4741103
PAGF  001.30 281.8 m E Sg      2011/08/25 03:31:52.1  -0.3                          T                 .7  .21 Ml 1.5         4741104
RUP   001.45 344.9 m E Pn      2011/08/25 03:31:36.9   1.6                          T                                        4741099
RUP   001.45 344.9 m E Sg      2011/08/25 03:31:56.7  -0.4                          T                                        4741100
SFTF  001.74 267.7 m E Pg      2011/08/25 03:31:43.8   0.2                          T                                        4741101
SFTF  001.74 267.7 m E Sg      2011/08/25 03:32:06.2   0.1                          T                1.8  .19 Ml 2.1         4741105
MEZF  001.74 277.5 m E Pg      2011/08/25 03:31:43.9   0.4                          T                                        4741102
MEZF  001.74 277.5 m E Sg      2011/08/25 03:32:06.4   0.4                          T                2.0  .27 Ml 2.0         4741096
CABF  002.00 212.5 m E Sg      2011/08/25 03:32:13.8  -0.4                          T                 .6  .26 Ml 1.6         4752026
GIVF  002.58 315.3 m E Sg      2011/08/25 03:32:32.2   0.0                          T                3.5  .23 Ml 2.5         4741097
LOR   002.75 249.3 m E Sg      2011/08/25 03:32:37.4  -0.3                          T                1.1  .23 Ml 2.1         4741098

.
EVENT     263036
    Date      Time       Latitude Longitude    Depth    Ndef Nsta Gap    Mag1  N    Mag2  N    Mag3  N   Author         ID
       rms   OT_Error      Smajor Sminor Az        Err   mdist  Mdist     Err        Err        Err      Quality

2011/08/25 07:34:32.0     42.7875     .7959     10.0      46   12 085  Ml 2.5 13  Md 2.7  1              js067245    263036

      0.50   +-  0.06       1.3    1.0   39.93 +-  0.0    0.09   5.72   +-0.2      +-                    m i ke

PYRENEES
Sta     Dist  EvAz     Phase      Date       Time     TRes  Azim  AzRes  Slow  SRes Def   SNR       Amp   Per   Mag1   Mag2       ID
EPF   000.41 306.1 m E Pg      2011/08/25 07:34:39.9  -0.3                          T                                        4741168
EPF   000.41 306.1 m E Sg      2011/08/25 07:34:45.3  -0.5                          T               58.3  .22        Md 2.7  4741162
ETSF  001.00 276.8 m E Pg      2011/08/25 07:34:50.6  -0.4                          T                                        4741167
ETSF  001.00 276.8 m E Sg      2011/08/25 07:35:03.8  -0.3                          T               13.9  .21 Ml 2.6         4741161
MTLF  001.18 061.5 m E Pg      2011/08/25 07:34:54.6   0.4                          T                                        4741165
MTLF  001.18 061.5 m E Sg      2011/08/25 07:35:10.0   0.6                          T                9.5  .19 Ml 2.6         4741159
SJPF  001.52 283.1 m E Pg      2011/08/25 07:35:00.8   0.4                          T                                        4741166
SJPF  001.52 283.1 m E Sg      2011/08/25 07:35:20.6   0.5                          T                6.5  .22 Ml 2.5         4741160
LFF   002.15 358.9 m E Pg      2011/08/25 07:35:12.9   0.9                          T                                        4741154
LFF   002.15 358.9 m E Sg      2011/08/25 07:35:39.7   0.0                          T                9.0  .24 Ml 2.6         4755207
CAF   002.33 022.8 m E Pg      2011/08/25 07:35:15.1  -0.2                          T                                        4741163
CAF   002.33 022.8 m E Sg      2011/08/25 07:35:44.8  -0.4                          T                3.8  .20 Ml 2.5         4741157
RJF   002.57 011.4 m E Pg      2011/08/25 07:35:19.4  -0.3                          T                                        4741155
RJF   002.57 011.4 m E Sg      2011/08/25 07:35:52.5  -0.3                          T                4.9  .21 Ml 2.4         4741149
LASF  002.58 058.9 m E Pg      2011/08/25 07:35:19.7  -0.1                          T                                        4741164
LASF  002.58 058.9 m E Sg      2011/08/25 07:35:53.7   0.7                          T                1.7  .19 Ml 2.3         4741158
VIVF  003.49 052.3 m E Pg      2011/08/25 07:35:36.9   0.3                          T                                        4741153
VIVF  003.49 052.3 m E Sg      2011/08/25 07:36:21.6   0.2                          T                 .9  .20 Ml 2.2         4741156
GRR   005.72 348.9 m E Pn      2011/08/25 07:35:55.6   0.8                          T                                        4741147
MFF   003.87 350.3 m E Sg      2011/08/25 07:36:32.5  -0.9                          T                1.3  .27 Ml 2.5         4741148
BGF   004.04 020.5 m E Sg      2011/08/25 07:36:38.2  -0.6                          T                6.7  .32 Ml 3.0         4741145

.
EVENT     263037
    Date      Time       Latitude Longitude    Depth    Ndef Nsta Gap    Mag1  N    Mag2  N    Mag3  N   Author         ID
       rms   OT_Error      Smajor Sminor Az        Err   mdist  Mdist     Err        Err        Err      Quality

2011/08/25 08:17:16.0     43.0819    -.2170      2.0      20   10 136  Ml 2.4  9  Md 2.6  3              js067245    263037

      0.32   +-  0.10       2.0    1.4  167.14 +-  0.0    0.31   3.72   +-0.2      +-0.1                 m i ke

PYRENEES
Sta     Dist  EvAz     Phase      Date       Time     TRes  Azim  AzRes  Slow  SRes Def   SNR       Amp   Per   Mag1   Mag2       ID
ETSF  000.31 234.0 m E Pg      2011/08/25 08:17:21.4  -0.8                          T                                        4741189
ETSF  000.31 234.0 m E Sg      2011/08/25 08:17:25.7  -0.7                          T               76.8  .23        Md 2.5  4741179
EPF   000.41 097.0 m E Pg      2011/08/25 08:17:23.9  -0.1                          T                                        4741187
EPF   000.41 097.0 m E Sg      2011/08/25 08:17:29.2  -0.3                          T               21.2  .22        Md 2.6  4741178
SJPF  000.74 272.8 m E Pg      2011/08/25 08:17:30.2   0.2                          T                                        4741188
SJPF  000.74 272.8 m E Sg      2011/08/25 08:17:39.3  -0.3                          T                8.8  .28        Md 2.7  4741180
MTLF  001.80 080.9 m E Pg      2011/08/25 08:17:49.6   0.1                          T                                        4741186
MTLF  001.80 080.9 m E Sg      2011/08/25 08:18:11.9  -0.8                          T                2.0  .29 Ml 2.0         4741177
LFF   001.98 020.1 m E Pg      2011/08/25 08:17:52.9   0.1                          T                                        4741173
LFF   001.98 020.1 m E Sg      2011/08/25 08:18:18.0  -0.4                          T               10.9  .27 Ml 2.6         4741183
CAF   002.47 041.0 m E Pg      2011/08/25 08:18:01.9  -0.1                          T                                        4741174
CAF   002.47 041.0 m E Sg      2011/08/25 08:18:33.4  -0.4                          T                2.7  .18 Ml 2.5         4741181
RJF   002.55 028.7 m E Pg      2011/08/25 08:18:03.3  -0.1                          T                                        4741185
RJF   002.55 028.7 m E Sg      2011/08/25 08:18:35.8  -0.3                          T                4.8  .20 Ml 2.4         4741184
LASF  003.12 070.1 m E Pg      2011/08/25 08:18:14.4   0.5                          T                                        4741175
LASF  003.12 070.1 m E Sg      2011/08/25 08:18:54.1   0.0                          T                1.8  .28 Ml 2.3         4741176
MFF   003.52 000.8 m E Sg      2011/08/25 08:19:06.4   0.0                          T                1.2  .17 Ml 2.5         4741182
TCF   003.64 027.5 m E Sg      2011/08/25 08:19:10.2   0.0                          T                2.0  .22 Ml 2.6         4741171

.
EVENT     263042
    Date      Time       Latitude Longitude    Depth    Ndef Nsta Gap    Mag1  N    Mag2  N    Mag3  N   Author         ID
       rms   OT_Error      Smajor Sminor Az        Err   mdist  Mdist     Err        Err        Err      Quality

2011/08/25 09:33:30.1     45.3815    5.8258      2.0      16    7 200  Ml 2.1  4  Md 2.0  3              js067245    263042

      0.74   +-  0.20       4.5    2.1  150.90 +-  0.0    0.46   1.92   +-0.4      +-0.0                 m i ke

FRANCE
Sta     Dist  EvAz     Phase      Date       Time     TRes  Azim  AzRes  Slow  SRes Def   SNR       Amp   Per   Mag1   Mag2       ID
ORIF  000.46 175.2 m E Pg      2011/08/25 09:33:39.4   0.2                          T                                        4741215
ORIF  000.46 175.2 m E Sg      2011/08/25 09:33:46.1   0.8                          T               33.3  .45        Md 2.0  4741217
LPL   000.65 077.7 m E Pg      2011/08/25 09:33:42.5  -0.2                          T                                        4741210
LPL   000.65 077.7 m E Sg      2011/08/25 09:33:51.8   0.5                          T                2.0  .34        Md 2.0  4741211
LPG   000.66 079.6 m E Pg      2011/08/25 09:33:43.0   0.0                          T                                        4741209
LPG   000.66 079.6 m E Sg      2011/08/25 09:33:51.8   0.1                          T                3.4  .24        Md 2.0  4741213
VIVF  000.97 237.6 m E Pg      2011/08/25 09:33:48.8   0.4                          T                                        4741219
VIVF  000.97 237.6 m E Sg      2011/08/25 09:34:01.1   0.1                          T               17.2  .34 Ml 2.5         4741218
SMRF  001.42 187.3 m E Pn      2011/08/25 09:33:55.0  -0.3                          T                                        4741212
SMRF  001.42 187.3 m E Sn      2011/08/25 09:34:12.1  -1.3                          T                1.1  .34 Ml 1.5         4741208
FRF   001.91 161.8 m E Pn      2011/08/25 09:34:00.8  -1.2                          T                                        4741206
FRF   001.91 161.8 m E Sn      2011/08/25 09:34:24.0  -1.2                          T                3.0  .31 Ml 2.2         4741207
LASF  001.92 227.8 m E Pg      2011/08/25 09:34:05.9   0.1                          T                                        4741216
LASF  001.92 227.8 m E Sg      2011/08/25 09:34:29.8  -0.7                          T                2.5  .36 Ml 2.0         4741214

.
EVENT     263071
    Date      Time       Latitude Longitude    Depth    Ndef Nsta Gap    Mag1  N    Mag2  N    Mag3  N   Author         ID
       rms   OT_Error      Smajor Sminor Az        Err   mdist  Mdist     Err        Err        Err      Quality

2011/08/25 12:05:49.8     42.9759   -1.5546       .0 f     7    3 324  Ml 1.5  1  Md 1.5  2              js067245    263071

      0.15   +-  0.28       4.6    3.9   61.67 +-  0.0    0.28   1.39   +-         +-0.0                 m i km

PYRENEES
Sta     Dist  EvAz     Phase      Date       Time     TRes  Azim  AzRes  Slow  SRes Def   SNR       Amp   Per   Mag1   Mag2       ID
SJPF  000.28 060.3 m E Pg      2011/08/25 12:05:55.6   0.1                          T                                        4741285
SJPF  000.28 060.3 m E Sg      2011/08/25 12:05:59.2  -0.3                          T                7.9  .17        Md 1.5  4741284
ETSF  000.74 095.7 m E Pg      2011/08/25 12:06:03.9  -0.1                          T                                        4741283
ETSF  000.74 095.7 m E Sg      2011/08/25 12:06:14.0   0.2                          T                                        4741282
ETSF  000.74 095.7 m E Sn      2011/08/25 12:06:17.2  -0.3                          T                1.5  .22        Md 1.5  4741280
EPF   001.39 087.1 m E Pg      2011/08/25 12:06:16.0   0.0                          T                                        4741281
EPF   001.39 087.1 m E Sg      2011/08/25 12:06:34.3   0.1                          T                  1  .28 Ml 1.5         4741279

.
