EVENT     263468
    Date      Time       Latitude Longitude    Depth    Ndef Nsta Gap    Mag1  N    Mag2  N    Mag3  N   Author         ID
       rms   OT_Error      Smajor Sminor Az        Err   mdist  Mdist     Err        Err        Err      Quality

2011/09/03 20:44:27.3     44.3861    9.6276      2.0      23   12 267  Ml 2.2  9                         js067245    263468

      0.28   +-  0.23       4.8    2.1  115.03 +-  0.0    1.66   4.34   +-0.2                            m i ke

NORTHERN ITALY
Sta     Dist  EvAz     Phase      Date       Time     TRes  Azim  AzRes  Slow  SRes Def   SNR       Amp   Per   Mag1   Mag2       ID
SBF   001.66 252.4 m E Pn      2011/09/03 20:44:55.9   0.0                          T                                        4756564
SBF   001.66 252.4 m E Pg      2011/09/03 20:44:58.4   0.1                          T                                        4756553
SBF   001.66 252.4 m E Sn      2011/09/03 20:45:15.8  -0.7                          T                4.5  .18 Ml 2.5         4756565
MBDF  002.07 280.5 m E Pn      2011/09/03 20:45:01.5   0.0                          T                                        4756555
MBDF  002.07 280.5 m E Sn      2011/09/03 20:45:26.5   0.1                          T                3.5  .32 Ml 2.3         4756545
FRF   002.30 250.1 m E Pn      2011/09/03 20:45:05.1   0.6                          T                                        4756560
FRF   002.30 250.1 m E Pg      2011/09/03 20:45:10.1   0.0                          T                                        4756554
FRF   002.30 250.1 m E Sn      2011/09/03 20:45:31.4  -0.3                          T                2.1  .28 Ml 2.2         4756557
LPL   002.35 299.8 m E Pn      2011/09/03 20:45:05.1  -0.2                          T                                        4756562
LPL   002.35 299.8 m E Sn      2011/09/03 20:45:33.5   0.5                          T                3.3  .46 Ml 2.1         4756544
LPG   002.33 299.6 m E Pn      2011/09/03 20:45:05.5   0.3                          T                                        4756561
LPG   002.33 299.6 m E Sn      2011/09/03 20:45:32.6   0.0                          T                3.4  .40 Ml 2.2         4756543
LMR   002.49 246.1 m E Pn      2011/09/03 20:45:07.0   0.0                          T                                        4756559
LMR   002.49 246.1 m E Sn      2011/09/03 20:45:34.6  -1.6                          T                1.5  .32 Ml 2.0         4756558
ORIF  002.73 282.6 m E P       2011/09/03 20:45:13.2   0.1                          T                                        4756563
ORIF  002.73 282.6 m E Sn      2011/09/03 20:45:42.7   0.7                          T                1.8  .27 Ml 2.2         4756556
CABF  003.34 313.0 m E Pn      2011/09/03 20:45:18.4  -0.3                          T                                        4756551
VIVF  003.57 279.3 m E Pn      2011/09/03 20:45:21.7  -0.1                          T                                        4756552
HINF  003.94 331.6 m E Pn      2011/09/03 20:45:26.6  -0.2                          T                                        4756550
HINF  003.94 331.6 m E Sn      2011/09/03 20:46:10.4  -0.5                          T                2.3  .39 Ml 2.4         4756546
HAU   004.28 329.0 m E Pn      2011/09/03 20:45:31.4   0.0                          T                                        4756549
HAU   004.28 329.0 m E Sn      2011/09/03 20:46:18.4  -0.6                          T                2.0  .33 Ml 2.3         4756547
CDF   004.34 338.8 m E Pn      2011/09/03 20:45:32.7   0.4                          T                                        4756548

.
EVENT     263469
    Date      Time       Latitude Longitude    Depth    Ndef Nsta Gap    Mag1  N    Mag2  N    Mag3  N   Author         ID
       rms   OT_Error      Smajor Sminor Az        Err   mdist  Mdist     Err        Err        Err      Quality

2011/09/03 21:33:20.2     44.3859    9.5928      2.0      17    9 266  Ml 2.1  7                         js067245    263469

      0.40   +-  0.37       8.0    3.4  114.80 +-  0.0    1.64   4.33   +-0.1                            m i ke

NORTHERN ITALY
Sta     Dist  EvAz     Phase      Date       Time     TRes  Azim  AzRes  Slow  SRes Def   SNR       Amp   Per   Mag1   Mag2       ID
SBF   001.64 252.2 m E Pn      2011/09/03 21:33:48.5   0.1                          T                                        4756573
SBF   001.64 252.2 m E Pg      2011/09/03 21:33:51.2   0.3                          T                                        4756574
SBF   001.64 252.2 m E Sn      2011/09/03 21:34:08.1  -0.8                          T                2.3  .17 Ml 2.2         4756572
FRF   002.28 249.8 m E Pn      2011/09/03 21:33:57.3   0.2                          T                                        4756575
FRF   002.28 249.8 m E Pg      2011/09/03 21:34:02.3  -0.3                          T                                        4756576
FRF   002.28 249.8 m E Sn      2011/09/03 21:34:23.8  -0.3                          T                1.3  .24 Ml 2.0         4756570
LPL   002.32 300.1 m E Pn      2011/09/03 21:33:57.8  -0.2                          T                                        4756578
LPL   002.32 300.1 m E Sn      2011/09/03 21:34:26.1   0.6                          T                2.2  .37 Ml 2.1         4756568
LPG   002.30 299.8 m E Pn      2011/09/03 21:33:57.9   0.2                          T                                        4756577
LPG   002.30 299.8 m E Sn      2011/09/03 21:34:25.1   0.1                          T                2.5  .40 Ml 2.1         4756569
ORIF  002.70 282.7 m E P       2011/09/03 21:34:05.6  -0.1                          T                                        4756579
ORIF  002.70 282.7 m E Sn      2011/09/03 21:34:35.3   1.0                          T                 .9  .25 Ml 1.9         4756567
CABF  003.32 313.3 m E Pn      2011/09/03 21:34:11.0  -0.4                          T                                        4756580
HAU   004.26 329.3 m E Pn      2011/09/03 21:34:24.0  -0.1                          T                                        4756581
HAU   004.26 329.3 m E Sn      2011/09/03 21:35:10.7  -0.8                          T                1.4  .28 Ml 2.2         4756566
CDF   004.33 339.1 m E Pn      2011/09/03 21:34:25.6   0.4                          T                                        4756582
LMR   002.47 245.8 m E Sn      2011/09/03 21:34:27.0  -1.5                          T                 .9  .22 Ml 1.9         4756571

.
EVENT     263489
    Date      Time       Latitude Longitude    Depth    Ndef Nsta Gap    Mag1  N    Mag2  N    Mag3  N   Author         ID
       rms   OT_Error      Smajor Sminor Az        Err   mdist  Mdist     Err        Err        Err      Quality

2011/09/04 02:04:58.4     43.0877   -1.4375      2.0      38    7 077  Ml 1.7  5  Md 2.4  2              js067245    263489

      0.41   +-  0.07       1.3    1.2  104.59 +-  0.0    0.14   3.16   +-0.3      +-0.1                 m i ke

PYRENEES
Sta     Dist  EvAz     Phase      Date       Time     TRes  Azim  AzRes  Slow  SRes Def   SNR       Amp   Per   Mag1   Mag2       ID
SJPF  000.16 080.6 m E Pg      2011/09/04 02:05:01.8   0.1                          T                                        4756751
SJPF  000.16 080.6 m E Sg      2011/09/04 02:05:04.1   0.2                          T               44.1  .16        Md 2.4  4756752
ETSF  000.67 106.0 m E Pg      2011/09/04 02:05:10.6  -0.6                          T                                        4756749
ETSF  000.67 106.0 m E Sg      2011/09/04 02:05:18.8  -1.3                          T                7.1  .22        Md 2.3  4756750
EPF   001.30 091.9 m E Pn      2011/09/04 02:05:21.9  -0.2                          T                                        4756747
EPF   001.30 091.9 m E Pg      2011/09/04 02:05:22.8  -0.1                          T                                        4756746
EPF   001.30 091.9 m E Sg      2011/09/04 02:05:40.1   0.4                          T                3.2  .22 Ml 2.1         4756748
MTLF  002.68 083.3 m E Pn      2011/09/04 02:05:40.7  -0.1                          T                                        4756736
MTLF  002.68 083.3 m E Sn      2011/09/04 02:06:11.7  -0.2                          T                 .2  .13 Ml 1.5         4756737
LFF   002.43 039.6 m E Pg      2011/09/04 02:05:43.3  -0.2                          T                                        4756738
LFF   002.43 039.6 m E Sg      2011/09/04 02:06:14.7   0.0                          T                 .5  .15 Ml 1.6         4756739
RJF   003.07 042.8 m E Pn      2011/09/04 02:05:45.9  -0.1                          T                                        4756740
RJF   003.07 042.8 m E Sn      2011/09/04 02:06:20.9  -0.2                          T                                        4756741
RJF   003.07 042.8 m E Sg      2011/09/04 02:06:34.7   0.0                          T                 .4  .19 Ml 1.5         4756742
CAF   003.12 052.8 m E Pn      2011/09/04 02:05:46.4  -0.4                          T                                        4756744
CAF   003.12 052.8 m E P       2011/09/04 02:05:49.9   0.1                          T                                        4756743
CAF   003.12 052.8 m E Sn      2011/09/04 02:06:22.2  -0.3                          T                 .8  .21 Ml 2.0         4756745

.
EVENT     263481
    Date      Time       Latitude Longitude    Depth    Ndef Nsta Gap    Mag1  N    Mag2  N    Mag3  N   Author         ID
       rms   OT_Error      Smajor Sminor Az        Err   mdist  Mdist     Err        Err        Err      Quality

2011/09/04 02:21:12.7     44.5346    6.9010      2.0      12    6 175  Ml 1.6  3  Md 1.6  3              js067245    263481

      0.47   +-  0.20       4.9    2.4   66.80 +-  0.0    0.21   1.23   +-0.2      +-0.2                 m i ke

FRANCE
Sta     Dist  EvAz     Phase      Date       Time     TRes  Azim  AzRes  Slow  SRes Def   SNR       Amp   Per   Mag1   Mag2       ID
MBDF  000.21 334.3 m E Pg      2011/09/04 02:21:17.1  -0.1                          T                                        4756813
MBDF  000.21 334.3 m E Sg      2011/09/04 02:21:20.5   0.4                          T                9.9  .18        Md 1.4  4756814
SBF   000.77 150.0 m E Pg      2011/09/04 02:21:27.4   0.0                          T                                        4756807
SBF   000.77 150.0 m E Sg      2011/09/04 02:21:37.9   0.5                          T                3.0  .32        Md 1.7  4756808
ORIF  000.82 298.2 m E Pg      2011/09/04 02:21:27.9  -0.4                          T                                        4756811
ORIF  000.82 298.2 m E Sg      2011/09/04 02:21:38.0  -1.0                          T                1.0  .27                4756812
FRF   000.99 190.8 m E Pg      2011/09/04 02:21:30.9  -0.4                          T                                        4756809
FRF   000.99 190.8 m E Sg      2011/09/04 02:21:43.3  -0.9                          T                2.7  .38 Ml 1.7 Md 1.7  4756810
SMRF  001.10 240.1 m E Pg      2011/09/04 02:21:33.8   0.4                          T                                        4756805
SMRF  001.10 240.1 m E Sg      2011/09/04 02:21:48.6   0.9                          T                 .9  .26 Ml 1.4         4756806
LMR   001.23 193.4 m E Pg      2011/09/04 02:21:35.9   0.1                          T                                        4756803
LMR   001.23 193.4 m E Sg      2011/09/04 02:21:51.4  -0.3                          T                1.1  .23 Ml 1.6         4756804

.
EVENT     263488
    Date      Time       Latitude Longitude    Depth    Ndef Nsta Gap    Mag1  N    Mag2  N    Mag3  N   Author         ID
       rms   OT_Error      Smajor Sminor Az        Err   mdist  Mdist     Err        Err        Err      Quality

2011/09/04 03:52:29.0     50.2402   12.4670     10.0 f    79   22 040  Ml 4.0 19                         js067245    263488

      1.71   +-  0.16       3.7    3.1  155.22 +-  0.0    0.01  11.58   +-0.2                            m i ke

GERMANY
Sta     Dist  EvAz     Phase      Date       Time     TRes  Azim  AzRes  Slow  SRes Def   SNR       Amp   Per   Mag1   Mag2       ID
RUP   003.53 263.3 m E Pn      2011/09/04 03:53:20.8  -1.3                          T                                        4756839
RUP   003.53 263.3 m E Pg      2011/09/04 03:53:33.8  -0.7                          T                                        4756838
RUP   003.53 263.3 m E Sg      2011/09/04 03:54:19.1  -0.8                          T                                        4756819
CDF   003.86 243.7 m E Pn      2011/09/04 03:53:26.2  -0.4                          T   001.0                                4744347
CDF   003.86 243.7 m E Pg      2011/09/04 03:53:40.3  -0.3                          T                                        4756837
CDF   003.86 243.7 m E Sg      2011/09/04 03:54:29.9  -0.2                          T   001.0      214.6  .68 Ml 4.2         4744348
HINF  004.42 238.9 m E Pn      2011/09/04 03:53:34.2   0.0                          T   001.0                                4744363
HINF  004.42 238.9 m E Pg      2011/09/04 03:53:50.3  -0.6                          T                                        4756832
HINF  004.42 238.9 m E Sn      2011/09/04 03:54:17.8  -4.8                          T   001.0                                4744364
HINF  004.42 238.9 m E Sg      2011/09/04 03:54:46.0  -1.6                          T   001.0      135.3  .60 Ml 4.1         4744365
BAIF  005.31 271.2 m E Pn      2011/09/04 03:53:48.7   2.4                          T   001.0                                4744357
BAIF  005.31 271.2 m E Sn      2011/09/04 03:54:39.9  -4.0                          T   001.0                                4744358
BAIF  005.31 271.2 m E Sg      2011/09/04 03:55:14.0  -1.3                          T   001.0       54.2  .60 Ml 3.9         4744359
CABF  005.59 231.9 m E Pn      2011/09/04 03:53:49.5  -0.6                          T   001.0                                4744360
CABF  005.59 231.9 m E Pg      2011/09/04 03:54:12.7   0.3                          T                                        4756831
CABF  005.59 231.9 m E Sg      2011/09/04 03:55:23.4  -0.6                          T               99.1  .64 Ml 4.2         4756822
HAU   004.60 243.2 m E Pg      2011/09/04 03:53:54.3   0.2                          T                                        4756833
HAU   004.60 243.2 m E Sn      2011/09/04 03:54:28.3   1.4                          T   001.0                                4744349
HAU   004.60 243.2 m E Sg      2011/09/04 03:54:52.3  -0.8                          T   001.0      154.2  .52 Ml 4.0         4744350
PAGF  004.71 251.6 m E Pg      2011/09/04 03:53:56.0  -0.2  45.9  -20.6             T                                        4756836
PAGF  004.71 251.6 m E Sg      2011/09/04 03:54:56.2  -0.5                          T               85.8  .87 Ml 3.8         4756820
LPG   006.11 221.2 m E Pn      2011/09/04 03:53:58.7   1.3                          T   001.0                                4744353
LPG   006.11 221.2 m E Pg      2011/09/04 03:54:23.6   1.4                          T                                        4756827
LPG   006.11 221.2 m E Sg      2011/09/04 03:55:41.3   0.8                          T               68.5  .90 Ml 4.0         4756826
GIVF  004.92 271.3 m E Pg      2011/09/04 03:53:59.5  -0.4                          T                                        4756840
GIVF  004.92 271.3 m E Sg      2011/09/04 03:54:59.5  -3.5                          T   001.0      154.7  .68 Ml 4.2         4744362
LOR   006.42 245.7 m E Pn      2011/09/04 03:54:00.3  -1.1                          T   001.0                                4744351
LOR   006.42 245.7 m E Pg      2011/09/04 03:54:27.5  -0.2  46.1  -13.1             T                                        4756843
LOR   006.42 245.7 m E Sg      2011/09/04 03:55:49.4  -0.6                          T   001.0       53.6  .64 Ml 4.1         4744352
MEZF  005.15 253.1 m E Pg      2011/09/04 03:54:04.0  -0.2  46.0  -21.5             T                                        4756835
MEZF  005.15 253.1 m E Sg      2011/09/04 03:55:08.5  -1.7                          T   001.0       71.8  .64 Ml 4.0         4744366
SSF   006.73 245.2 m E Pn      2011/09/04 03:54:05.5  -0.1                          T                                        4756842
SSF   006.73 245.2 m E Pg      2011/09/04 03:54:33.8   0.4                          T                                        4756841
SSF   006.73 245.2 m E Sg      2011/09/04 03:56:00.7   1.0                          T   001.0         39  .60 Ml 4.1         4744356
SFTF  005.28 250.1 m E Pg      2011/09/04 03:54:06.4  -0.2  67.4  2.9               T                                        4756834
SFTF  005.28 250.1 m E Sg      2011/09/04 03:55:14.1  -0.2                          T              146.9  .79 Ml 4.2         4756821
AVF   006.97 243.8 m E Pn      2011/09/04 03:54:10.3   1.5                          T   001.0                                4744346
AVF   006.97 243.8 m E Sg      2011/09/04 03:56:05.9  -1.1                          T               77.8  .90 Ml 4.2         4756823
LPL   006.10 221.4 m E Pg      2011/09/04 03:54:22.5   0.5                          T                                        4756828
SMF   006.77 241.2 m E Pg      2011/09/04 03:54:34.3   0.1                          T                                        4756830
SMF   006.77 241.2 m E Sg      2011/09/04 03:55:59.9  -1.0                          T   001.0       33.4  .48 Ml 4.1         4744355
MBDF  006.73 217.1 m E Pg      2011/09/04 03:54:38.1   4.5                          T                                        4756829
SGMF  010.03 264.3 m E Pn      2011/09/04 03:54:53.4   3.0                          T   001.0                                4744367
SBF   007.24 210.2 m E Sn      2011/09/04 03:55:35.1   4.9                          T   001.0       14.1  .60 Ml 3.7         4744354
VIVF  007.54 227.4 m E Sn      2011/09/04 03:55:39.1   2.0                          T   001.0                                4744368
VIVF  007.54 227.4 m E Sg      2011/09/04 03:56:25.7   0.9                          T   001.0       17.3  .60 Ml 3.8         4744369
ORIF  006.94 222.4 m E Sg      2011/09/04 03:56:06.7   0.4                          T               39.4  .88 Ml 3.9         4756825
ETSF  011.58 235.6 m E Sn      2011/09/04 03:57:12.4  -1.3                          T   001.0        2.1  .72 Ml 3.4         4744361

.
