EVENT     278904
    Date      Time       Latitude Longitude    Depth    Ndef Nsta Gap    Mag1  N    Mag2  N    Mag3  N   Author         ID
       rms   OT_Error      Smajor Sminor Az        Err   mdist  Mdist     Err        Err        Err      Quality

2012/06/30 16:01:52.7     46.3915    6.4927     10.0 f   124   35 019  Ml 3.1 33  Md 3.1  3              bulletin    279004
                                                                                                         _ldg
      0.55   +-  0.05       1.0    1.0   14.52 +-  0.0    0.21   6.76   +-0.3      +-0.2                 m i ke

SWITZERLAND
Sta     Dist  EvAz     Phase      Date       Time     TRes  Azim  AzRes  Slow  SRes Def   SNR       Amp   Per   Mag1   Mag2       ID
CABF  000.36 308.3 m E Pg      2012/06/30 16:01:59.0  -0.9                          T   001.0                                5015775
CABF  000.36 308.3 m E Sg      2012/06/30 16:02:03.9  -0.8                          T               73.0  .19        Md 3.2  5015790
LPL   000.89 169.1 m E Pg      2012/06/30 16:02:09.2  -0.5                          T   001.0                                5015763
LPL   000.89 169.1 m E Sg      2012/06/30 16:02:20.8  -0.6                          T   001.0       70.1  .32 Ml 3.1 Md 2.9  5015764
LPG   000.91 168.5 m E Pg      2012/06/30 16:02:09.9  -0.3                          T   001.0                                5015760
LPG   000.91 168.5 m E Sg      2012/06/30 16:02:21.3  -0.8                          T   001.0        202  .32 Ml 3.6         5015762
HINF  001.45 009.7 m E Pn      2012/06/30 16:02:17.3   0.0                          T   001.0                                5015776
HINF  001.45 009.7 m E Pg      2012/06/30 16:02:19.0  -0.8                          T   001.0                                5015777
HINF  001.45 009.7 m E Sn      2012/06/30 16:02:36.0   0.7                          T   001.0       79.3  .24 Ml 3.5         5015778
HINF  001.45 009.7 m E Sg      2012/06/30 16:02:37.7  -0.7                          T               61.6  .24 Ml 3.4         5015791
HAU   001.62 356.6 m E Pn      2012/06/30 16:02:18.7  -0.9                          T   001.0                                5015748
HAU   001.62 356.6 m E Pg      2012/06/30 16:02:22.0  -0.9                          T                                        5016810
HAU   001.62 356.6 m E Sn      2012/06/30 16:02:39.9   0.6                          T   001.0       63.3  .24 Ml 3.3         5015749
HAU   001.62 356.6 m E Sg      2012/06/30 16:02:43.4  -0.4                          T               79.6  .29 Ml 3.3         5015792
ORIF  001.53 196.5 m E Pn      2012/06/30 16:02:19.1   0.5                          T   001.0                                5015784
ORIF  001.53 196.5 m E Pg      2012/06/30 16:02:21.3  -0.1                          T                                        5015806
ORIF  001.53 196.5 m E Sn      2012/06/30 16:02:38.4   1.0                          T   001.0       49.5  .24 Ml 3.4         5015785
ORIF  001.53 196.5 m E Sg      2012/06/30 16:02:41.0  -0.3                          T               52.4  .25 Ml 3.4         5015805
MBDF  001.68 173.2 m E Pg      2012/06/30 16:02:23.2  -0.9                          T   001.0                                5015779
MBDF  001.68 173.2 m E Sg      2012/06/30 16:02:45.3  -0.5                          T   001.0         21  .44 Ml 2.8         5015780
SMF   001.85 278.9 m E Pn      2012/06/30 16:02:23.4   0.6                          T                                        5015821
SMF   001.85 278.9 m E Pg      2012/06/30 16:02:26.4  -0.7                          T   001.0                                5015766
SMF   001.85 278.9 m E Sg      2012/06/30 16:02:50.2  -0.8                          T   001.0       34.5  .20 Ml 3.4         5015767
VIVF  002.00 220.4 m E Pn      2012/06/30 16:02:25.4   0.6                          T   001.0                                5015788
VIVF  002.00 220.4 m E Pg      2012/06/30 16:02:29.1  -0.8                          T                                        5015808
VIVF  002.00 220.4 m E Sg      2012/06/30 16:02:54.6  -1.0                          T               37.8  .19 Ml 3.5         5015807
LOR   002.01 296.8 m E Pn      2012/06/30 16:02:25.6   0.6                          T   001.0                                5015758
LOR   002.01 296.8 m E Pg      2012/06/30 16:02:29.1  -1.0                          T                                        5015798
LOR   002.01 296.8 m E Sg      2012/06/30 16:02:54.8  -1.2                          T   001.0       19.3  .16 Ml 3.3 Md 3.3  5015759
CDF   002.09 014.5 m E Pn      2012/06/30 16:02:25.8  -0.4                          T   001.0                                5015741
CDF   002.09 014.5 m E Pg      2012/06/30 16:02:30.9  -0.8                          T                                        5015823
CDF   002.09 014.5 m E Sg      2012/06/30 16:02:58.4  -0.3                          T   001.0         20  .36 Ml 3.1         5015742
SFTF  002.07 331.9 m E Pn      2012/06/30 16:02:26.1   0.4                          T                                        5015795
SFTF  002.07 331.9 m E Pg      2012/06/30 16:02:30.3  -0.8                          T                                        5015793
SFTF  002.07 331.9 m E Sg      2012/06/30 16:02:57.4  -0.3                          T               25.5  .25 Ml 3.2         5015794
SSF   002.16 289.1 m E Pn      2012/06/30 16:02:27.6   0.6                          T   001.0                                5015768
SSF   002.16 289.1 m E Pg      2012/06/30 16:02:32.3  -0.5                          T                                        5015822
SSF   002.16 289.1 m E Sn      2012/06/30 16:02:53.4   1.2                          T   001.0                                5015769
SSF   002.16 289.1 m E Sg      2012/06/30 16:03:00.3  -0.4                          T   001.0       13.9  .24 Ml 3.1         5015770
AVF   002.20 281.6 m E Pn      2012/06/30 16:02:28.0   0.5                          T   001.0                                5015736
AVF   002.20 281.6 m E Sn      2012/06/30 16:02:53.8   0.6                          T   001.0                                5015737
AVF   002.20 281.6 m E Sg      2012/06/30 16:03:00.5  -1.5                          T   001.0       13.5  .36 Ml 2.8         5015738
BGF   002.53 275.1 m E Pn      2012/06/30 16:02:32.5   0.5                          T   001.0                                5015739
BGF   002.53 275.1 m E Pg      2012/06/30 16:02:39.2  -0.3                          T                                        5015818
BGF   002.53 275.1 m E Sg      2012/06/30 16:03:11.3  -0.7                          T   001.0       21.4  .24 Ml 3.3         5015740
SBF   002.61 164.9 m E Pn      2012/06/30 16:02:33.5   0.2                          T                                        5015801
SBF   002.61 164.9 m E Sn      2012/06/30 16:03:03.2   0.0                          T                4.3  .23 Ml 2.6         5015800
PAGF  002.23 346.8 m E Pg      2012/06/30 16:02:33.8  -0.2                          T                                        5015797
PAGF  002.23 346.8 m E Sg      2012/06/30 16:03:01.8  -1.0                          T               11.7  .29 Ml 2.9         5015796
MEZF  002.33 335.7 m E Pg      2012/06/30 16:02:34.0  -0.9                          T   001.0                                5015781
MEZF  002.33 335.7 m E Sn      2012/06/30 16:02:56.8   0.6                          T   001.0       35.4  .44 Ml 3.2         5015782
MEZF  002.33 335.7 m E Sg      2012/06/30 16:03:05.2  -0.6                          T               14.9  .26 Ml 3.0         5015799
HYF   002.79 289.7 m E Pn      2012/06/30 16:02:36.3   0.7                          T                                        5015820
HYF   002.79 289.7 m E Sn      2012/06/30 16:03:07.7   0.5                          T                                        5015819
FRF   002.83 177.7 m E Pn      2012/06/30 16:02:36.8   0.6                          T   001.0                                5015744
FRF   002.83 177.7 m E Pg      2012/06/30 16:02:45.0  -0.2                          T                                        5015803
FRF   002.83 177.7 m E Sn      2012/06/30 16:03:09.5   1.2                          T   001.0                                5015745
FRF   002.83 177.7 m E Sg      2012/06/30 16:03:21.3  -0.4                          T   001.0        6.3  .32 Ml 2.7         5015746
TCF   002.97 269.5 m E Pn      2012/06/30 16:02:38.0   0.0                          T   001.0                                5015771
TCF   002.97 269.5 m E Sn      2012/06/30 16:03:12.8   1.3                          T   001.0                                5015772
TCF   002.97 269.5 m E Sg      2012/06/30 16:03:25.0  -1.0                          T   001.0        3.7  .16 Ml 2.8         5015773
LASF  002.97 219.8 m E Pn      2012/06/30 16:02:38.8   0.8                          T   001.0                                5015750
LASF  002.97 219.8 m E Pg      2012/06/30 16:02:47.6  -0.2                          T                                        5015809
LASF  002.97 219.8 m E Sn      2012/06/30 16:03:12.3   0.6                          T   001.0                                5015751
LASF  002.97 219.8 m E Sg      2012/06/30 16:03:25.5  -0.5                          T   001.0       24.6  .32 Ml 3.3         5015752
SMRF  002.50 195.4 m E Pg      2012/06/30 16:02:38.9  -0.3                          T   001.0                                5015789
SMRF  002.50 195.4 m E Sg      2012/06/30 16:03:10.3  -1.0                          T                2.9  .22 Ml 2.4         5015804
LMR   003.06 179.8 m E Pn      2012/06/30 16:02:39.8   0.6                          T   001.0                                5015755
LMR   003.06 179.8 m E Pg      2012/06/30 16:02:49.2  -0.1                          T                                        5015802
LMR   003.06 179.8 m E Sn      2012/06/30 16:03:14.1   0.5                          T   001.0                                5015756
LMR   003.06 179.8 m E Sg      2012/06/30 16:03:27.7  -1.0                          T   001.0        3.6  .24 Ml 2.6         5015757
CAF   003.43 246.3 m E Pn      2012/06/30 16:02:45.1   0.7                          T                                        5015814
CAF   003.43 246.3 m E Sn      2012/06/30 16:03:23.8   1.1                          T                                        5015813
BAIF  003.98 338.2 m E Pn      2012/06/30 16:02:52.2   0.5                          T   001.0                                5015774
LFF   004.29 252.3 m E Pn      2012/06/30 16:02:56.6   0.7                          T                                        5015817
LFF   004.29 252.3 m E Pg      2012/06/30 16:03:11.7  -0.3                          T                                        5015816
LFF   004.29 252.3 m E Sg      2012/06/30 16:04:06.2  -0.8                          T                3.7  .28 Ml 2.7         5015815
MTLF  004.31 226.4 m E Pn      2012/06/30 16:02:56.9   0.7                          T                                        5015810
MTLF  004.31 226.4 m E Pg      2012/06/30 16:03:12.2  -0.2                          T                                        5015811
MTLF  004.31 226.4 m E Sg      2012/06/30 16:04:07.1  -0.5                          T   001.0                                5015783
MFF   004.59 275.0 m E Pn      2012/06/30 16:03:00.5   0.4                          T   001.0                                5015765
LDF   005.00 298.6 m E Pn      2012/06/30 16:03:06.4   0.8                          T   001.0                                5015753
LDF   005.00 298.6 m E Sg      2012/06/30 16:04:28.2  -0.9                          T   001.0        2.5  .28 Ml 2.8         5015754
FLN   005.28 299.2 m E Pn      2012/06/30 16:03:09.8   0.3                          T   001.0                                5015743
GRR   005.38 294.5 m E Pn      2012/06/30 16:03:11.2   0.4                          T   001.0                                5015747
SGMF  006.43 290.1 m E Pn      2012/06/30 16:03:25.4   0.3                          T   001.0                                5015787
RJF   003.64 254.4 m E Sg      2012/06/30 16:03:46.1  -0.9                          T   001.0       11.9  .48 Ml 2.6         5015735
QUIF  006.76 286.5 m E Sn      2012/06/30 16:04:43.4   1.3                          T   001.0        7.8  .80 Ml 3.2         5015786

.
EVENT     278906
    Date      Time       Latitude Longitude    Depth    Ndef Nsta Gap    Mag1  N    Mag2  N    Mag3  N   Author         ID
       rms   OT_Error      Smajor Sminor Az        Err   mdist  Mdist     Err        Err        Err      Quality

2012/07/01 01:02:56.9     42.9167    2.1356      2.0      47   14 058  Ml 2.2 13  Md 2.6  1              bulletin    279006
                                                                                                         _ldg
      0.67   +-  0.07       1.5    1.2  163.89 +-  0.0    0.43   5.07   +-0.4      +-                    m i ke

PYRENEES
Sta     Dist  EvAz     Phase      Date       Time     TRes  Azim  AzRes  Slow  SRes Def   SNR       Amp   Per   Mag1   Mag2       ID
MTLF  000.43 008.0 m E Pg      2012/07/01 01:03:04.2  -0.9                          T                                        5025140
MTLF  000.43 008.0 m E Sg      2012/07/01 01:03:11.5   0.6                          T   001.0        7.0  .18        Md 2.6  5015851
EPF   001.32 275.5 m E Pg      2012/07/01 01:03:21.5  -0.2                          T   001.0                                5015837
EPF   001.32 275.5 m E Sg      2012/07/01 01:03:38.5  -0.3                          T   001.0       10.0  .20 Ml 2.7         5015838
LASF  001.71 046.6 m E Pn      2012/07/01 01:03:25.8  -0.2                          T   001.0                                5015840
LASF  001.71 046.6 m E Pg      2012/07/01 01:03:28.8   0.1                          T   001.0                                5015841
LASF  001.71 046.6 m E Sn      2012/07/01 01:03:47.0  -0.1                          T                1.2  .18 Ml 1.9         5015859
LASF  001.71 046.6 m E Sg      2012/07/01 01:03:51.4   0.7                          T                6.2  .26 Ml 2.5         5015860
ETSF  001.98 270.4 m E Pn      2012/07/01 01:03:29.6  -0.2                          T                                        5015858
ETSF  001.98 270.4 m E Pg      2012/07/01 01:03:34.6   0.8                          T   001.0                                5015849
ETSF  001.98 270.4 m E Sn      2012/07/01 01:03:54.7   1.0                          T                 .4  .21 Ml 1.5         5015857
ETSF  001.98 270.4 m E Sg      2012/07/01 01:04:00.0   0.7                          T   001.0        5.4  .27 Ml 2.5         5015850
LFF   002.26 334.0 m E Pn      2012/07/01 01:03:32.4  -1.1                          T   001.0                                5015842
LFF   002.26 334.0 m E Sn      2012/07/01 01:03:59.9  -0.4                          T   001.0          1  .15 Ml 1.9         5015843
LFF   002.26 334.0 m E Sg      2012/07/01 01:04:08.3   0.4                          T   001.0        5.4  .25 Ml 2.4         5015844
CAF   002.01 358.6 m E Pg      2012/07/01 01:03:34.4   0.1                          T                                        5025139
CAF   002.01 358.6 m E Sn      2012/07/01 01:03:54.4   0.0                          T   001.0        1.4  .17 Ml 2.1         5015835
CAF   002.01 358.6 m E Sg      2012/07/01 01:04:00.5   0.3                          T   001.0        4.5  .21 Ml 2.5         5015836
RJF   002.43 349.6 m E Pn      2012/07/01 01:03:35.6  -0.2                          T                                        5025142
RJF   002.43 349.6 m E Pg      2012/07/01 01:03:42.3   0.3                          T                                        5025141
RJF   002.43 349.6 m E Sg      2012/07/01 01:04:13.5   0.3                          T   001.0                                5015832
VIVF  002.67 042.5 m E Pn      2012/07/01 01:03:39.8   0.7                          T                                        5015862
VIVF  002.67 042.5 m E Pg      2012/07/01 01:03:47.6   1.1                          T                                        5015861
VIVF  002.67 042.5 m E Sn      2012/07/01 01:04:09.9  -0.2                          T   001.0         .4  .19 Ml 1.7         5015853
VIVF  002.67 042.5 m E Sg      2012/07/01 01:04:20.1  -0.7                          T   001.0        1.2  .20 Ml 2.2         5015854
SMRF  002.72 065.9 m E Pn      2012/07/01 01:03:40.1   0.3                          T   001.0                                5015855
SJPF  002.47 275.7 m E Pg      2012/07/01 01:03:43.5   0.7                          T                                        5025143
SJPF  002.47 275.7 m E Sg      2012/07/01 01:04:14.1  -0.5                          T   001.0        1.6  .23 Ml 2.2         5015852
LMR   003.23 081.1 m E Pn      2012/07/01 01:03:47.1   0.5                          T   001.0                                5015845
LMR   003.23 081.1 m E Pg      2012/07/01 01:03:57.1   0.4                          T                                        5015864
LMR   003.23 081.1 m E Sn      2012/07/01 01:04:23.6   0.1                          T   001.0         .9  .33 Ml 2.0         5015846
FRF   003.36 077.4 m E Pn      2012/07/01 01:03:48.3  -0.2                          T   001.0                                5015839
FRF   003.36 077.4 m E Pg      2012/07/01 01:03:59.1   0.0                          T                                        5015863
TCF   003.37 000.9 m E Sg      2012/07/01 01:04:45.2   2.5                          T   001.0                                5015848
BGF   003.68 007.7 m E Sg      2012/07/01 01:04:54.7   2.5                          T   001.0                                5015834

.
