EVENT     287087
    Date      Time       Latitude Longitude    Depth    Ndef Nsta Gap    Mag1  N    Mag2  N    Mag3  N   Author         ID
       rms   OT_Error      Smajor Sminor Az        Err   mdist  Mdist     Err        Err        Err      Quality

2012/11/18 11:24:43.6     43.0426    -.0857      5.0 f   105   15 075  Ml 3.2 11  Md 3.1  3              bulletin    287187
                                                                                                         _ldg
      0.87   +-  0.07       1.8    1.4  170.90 +-  0.0    0.06   7.05   +-0.3      +-0.1                 m i ke

PYRENEES
Sta     Dist  EvAz     Phase      Date       Time     TRes  Azim  AzRes  Slow  SRes Def   SNR       Amp   Per   Mag1   Mag2       ID
EPF   000.31 092.1 m E Pg      2012/11/18 11:24:49.7  -0.1                          T                                        5119791
EPF   000.31 092.1 m E Sg      2012/11/18 11:24:54.1   0.1                          T              900.1  .24        Md 3.1  5119788
ETSF  000.38 247.7 m E Pg      2012/11/18 11:24:49.9  -1.1                          T                                        5119790
ETSF  000.38 247.7 m E Sg      2012/11/18 11:24:55.7  -0.3                          T              233.3  .21        Md 3.1  5119787
SJPF  000.84 275.2 m E Pg      2012/11/18 11:24:58.3  -1.1                          T                                        5119789
SJPF  000.84 275.2 m E Sg      2012/11/18 11:25:10.2  -0.1                          T              103.3  .26        Md 3.0  5119786
MTLF  001.71 079.2 m E Pn      2012/11/18 11:25:12.2  -0.1                          T                                        5119794
MTLF  001.71 079.2 m E Pg      2012/11/18 11:25:15.4   0.0                          T                                        5133323
MTLF  001.71 079.2 m E Sn      2012/11/18 11:25:35.1   1.8                          T                                        5119792
MTLF  001.71 079.2 m E Sg      2012/11/18 11:25:38.2   0.7                          T               22.9  .20 Ml 3.2         5119793
LFF   001.99 017.2 m E P       2012/11/18 11:25:17.9  -0.5                          T                                        5119806
LFF   001.99 017.2 m E Pg      2012/11/18 11:25:20.6   0.1                          T                                        5133324
LFF   001.99 017.2 m E Sg      2012/11/18 11:25:46.7   0.6                          T               69.9  .36 Ml 3.3         5119807
CAF   002.44 038.8 m E Pn      2012/11/18 11:25:22.5   0.2                          T                                        5119785
CAF   002.44 038.8 m E Pg      2012/11/18 11:25:28.7  -0.2                          T                                        5119784
CAF   002.44 038.8 m E Sn      2012/11/18 11:25:52.3   1.5                          T                                        5119804
CAF   002.44 038.8 m E Sg      2012/11/18 11:26:01.2   0.9                          T               18.5  .20 Ml 3.3         5119805
RJF   002.54 026.5 m E Pn      2012/11/18 11:25:23.9   0.2                          T                                        5119802
RJF   002.54 026.5 m E Pg      2012/11/18 11:25:30.4  -0.3                          T                                        5119803
RJF   002.54 026.5 m E Sg      2012/11/18 11:26:03.4   0.0                          T               22.6  .16 Ml 3.1         5119819
LASF  003.05 068.8 m E Pn      2012/11/18 11:25:30.6   0.0                          T                                        5119797
LASF  003.05 068.8 m E Pg      2012/11/18 11:25:40.0  -0.1                          T                                        5119799
LASF  003.05 068.8 m E Sg      2012/11/18 11:26:20.0   0.8                          T                8.1  .24 Ml 3.0         5119798
MFF   003.56 359.3 m E Pn      2012/11/18 11:25:37.0  -0.5                          T                                        5119814
MFF   003.56 359.3 m E Pg      2012/11/18 11:25:49.6   0.1                          T                                        5119815
MFF   003.56 359.3 m E Sn      2012/11/18 11:26:19.1   1.6                          T                                        5119816
MFF   003.56 359.3 m E Sg      2012/11/18 11:26:34.0  -1.2                          T               12.3  .32 Ml 3.3         5119817
BGF   004.09 029.7 m E Pn      2012/11/18 11:25:44.8   0.1                          T                                        5119801
BGF   004.09 029.7 m E Pg      2012/11/18 11:25:59.1  -0.1                          T                                        5119800
BGF   004.09 029.7 m E Sg      2012/11/18 11:26:51.9   0.2                          T               44.8  .38 Ml 3.7         5119808
VIVF  003.88 060.6 m E P       2012/11/18 11:25:45.0  -0.4                          T                                        5119796
VIVF  003.88 060.6 m E Pg      2012/11/18 11:25:55.4  -0.1                          T                                        5133322
VIVF  003.88 060.6 m E Sn      2012/11/18 11:26:25.1  -0.2                          T                                        5133321
VIVF  003.88 060.6 m E Sg      2012/11/18 11:26:45.7   0.3                          T                4.5  .38 Ml 2.7         5119795
TCF   003.63 026.0 m E Pg      2012/11/18 11:25:50.7  -0.3                          T                                        5119813
TCF   003.63 026.0 m E Sg      2012/11/18 11:26:37.5  -0.1                          T                6.6  .22 Ml 3.1         5119818
SMF   004.56 036.4 m E Pn      2012/11/18 11:25:51.0  -0.1                          T                                        5119812
SMF   004.56 036.4 m E Sg      2012/11/18 11:27:07.7   1.3                          T                3.1  .27 Ml 2.8         5119820
AVF   004.47 031.9 m E Pg      2012/11/18 11:26:06.6   0.3                          T                                        5119810
AVF   004.47 031.9 m E Sg      2012/11/18 11:27:03.8   0.1                          T                                        5119811
HYF   004.64 023.6 m E Sg      2012/11/18 11:27:09.8   0.7                          T                                        5119809

.
EVENT     287088
    Date      Time       Latitude Longitude    Depth    Ndef Nsta Gap    Mag1  N    Mag2  N    Mag3  N   Author         ID
       rms   OT_Error      Smajor Sminor Az        Err   mdist  Mdist     Err        Err        Err      Quality

2012/11/18 13:52:30.8     48.5438    8.7002     11.0 f    52   12 037  Ml 2.3 11  Md 2.8  2              bulletin    287188
                                                                                                         _ldg
      0.56   +-  0.04       1.0     .7  159.42 +-  0.0    0.14   4.43   +-0.3      +-0.1                 m i ke

GERMANY
Sta     Dist  EvAz     Phase      Date       Time     TRes  Azim  AzRes  Slow  SRes Def   SNR       Amp   Per   Mag1   Mag2       ID
CDF   000.96 262.6 m E Pg      2012/11/18 13:52:48.8  -0.1                          T                                Md 2.7  5119844
CDF   000.96 262.6 m E Sg      2012/11/18 13:53:01.2  -0.3                          T               23.4  .22 Ml 2.9         5119842
HINF  001.43 240.2 m E Pg      2012/11/18 13:52:57.5  -0.2                          T                                Md 2.9  5119843
HINF  001.43 240.2 m E Sn      2012/11/18 13:53:12.8  -0.1                          T                                        5119841
HINF  001.43 240.2 m E Sg      2012/11/18 13:53:16.1  -0.1                          T                5.1  .20 Ml 2.4         5133335
HAU   001.66 252.0 m E Pn      2012/11/18 13:52:58.3   0.0                          T                                        5119840
HAU   001.66 252.0 m E P       2012/11/18 13:53:00.3   0.0                          T                                        5119833
HAU   001.66 252.0 m E Pg      2012/11/18 13:53:01.8  -0.1                          T                                        5133333
HAU   001.66 252.0 m E Sn      2012/11/18 13:53:18.3   0.0                          T                2.5  .22 Ml 1.9         5119823
HAU   001.66 252.0 m E Sg      2012/11/18 13:53:23.3   0.1                          T                4.3  .20 Ml 2.2         5133332
PAGF  001.98 271.4 m E P       2012/11/18 13:53:04.7  -0.1                          T                                        5119837
PAGF  001.98 271.4 m E Pg      2012/11/18 13:53:07.9   0.3                          T                                        5119830
PAGF  001.98 271.4 m E Sn      2012/11/18 13:53:25.7  -0.1                          T                                        5119827
PAGF  001.98 271.4 m E Sg      2012/11/18 13:53:33.0  -0.1  94.4  5.2               T                3.6  .22 Ml 2.4         5133338
SFTF  002.46 263.5 m E Pn      2012/11/18 13:53:09.2   0.0                          T                                        5119835
SFTF  002.46 263.5 m E Pg      2012/11/18 13:53:16.7   0.1  83.3  2.6               T                                        5119829
SFTF  002.46 263.5 m E Sn      2012/11/18 13:53:37.7   0.3                          T                                        5119825
SFTF  002.46 263.5 m E Sg      2012/11/18 13:53:48.5   0.2                          T                3.5  .23 Ml 2.5         5133336
MEZF  002.43 270.4 m E P       2012/11/18 13:53:11.2   0.0                          T                                        5119836
MEZF  002.43 270.4 m E Sn      2012/11/18 13:53:36.8   0.3                          T                                        5119826
MEZF  002.43 270.4 m E Sg      2012/11/18 13:53:47.0  -0.1                          T                2.4  .31 Ml 2.2         5133337
CABF  002.62 223.4 m E Pn      2012/11/18 13:53:13.6   2.2                          T                                        5119834
CABF  002.62 223.4 m E Pg      2012/11/18 13:53:19.2  -0.3                          T                                        5119828
CABF  002.62 223.4 m E Sn      2012/11/18 13:53:41.2  -0.1                          T                                        5119824
CABF  002.62 223.4 m E Sg      2012/11/18 13:53:53.3   0.0                          T                 .4  .20 Ml 1.6         5133334
LOR   003.50 250.4 m E Pn      2012/11/18 13:53:23.3   0.0  73.8  7.0               T                                        5119838
LOR   003.50 250.4 m E Pg      2012/11/18 13:53:35.2  -0.4  77.4  10.5              T                                        5119831
LOR   003.50 250.4 m E Sn      2012/11/18 13:54:02.3   0.1                          T                                        5119821
LOR   003.50 250.4 m E Sg      2012/11/18 13:54:20.3  -0.3  80.2  13.4              T                3.0  .28 Ml 2.6         5133340
SSF   003.80 249.0 m E Pn      2012/11/18 13:53:27.3   0.0                          T                                        5119839
SSF   003.80 249.0 m E Pg      2012/11/18 13:53:41.1  -0.1                          T                                        5119832
SSF   003.80 249.0 m E Sn      2012/11/18 13:54:08.7  -0.7                          T                                        5119822
SSF   003.80 249.0 m E Sg      2012/11/18 13:54:30.2   0.2                          T                1.4  .39 Ml 2.3         5133339
SMF   003.80 241.8 m E Pg      2012/11/18 13:53:41.0  -0.2                          T                                        5133329
SMF   003.80 241.8 m E Sg      2012/11/18 13:54:29.8  -0.1                          T                1.3  .24 Ml 2.3         5133328
AVF   004.02 246.1 m E Pg      2012/11/18 13:53:45.3   0.2                          T                                        5133330
BGF   004.43 245.6 m E Pg      2012/11/18 13:53:53.1   0.3                          T                                        5133331

.
EVENT     287089
    Date      Time       Latitude Longitude    Depth    Ndef Nsta Gap    Mag1  N    Mag2  N    Mag3  N   Author         ID
       rms   OT_Error      Smajor Sminor Az        Err   mdist  Mdist     Err        Err        Err      Quality

2012/11/18 15:57:31.4     45.0746    6.5164      2.0      22    6 127  Ml 2.0  1  Md 2.0  4              bulletin    287189
                                                                                                         _ldg
      0.25   +-  0.05       1.0     .9  138.22 +-  0.0    0.12   2.15   +-         +-0.1                 m i ke

FRANCE
Sta     Dist  EvAz     Phase      Date       Time     TRes  Azim  AzRes  Slow  SRes Def   SNR       Amp   Per   Mag1   Mag2       ID
MBDF  000.39 152.4 m E Pg      2012/11/18 15:57:39.0  -0.1                          T                                        5119907
MBDF  000.39 152.4 m E Sg      2012/11/18 15:57:43.6  -0.8                          T                4.1  .16        Md 2.1  5119906
LPG   000.45 021.3 m E Pg      2012/11/18 15:57:40.5   0.0                          T                                        5119908
LPG   000.45 021.3 m E Sg      2012/11/18 15:57:46.8   0.4                          T                4.2  .28        Md 2.0  5119904
ORIF  000.48 251.1 m E Pg      2012/11/18 15:57:40.6   0.0                          T                                        5119910
ORIF  000.48 251.1 m E Sg      2012/11/18 15:57:46.8  -0.2                          T               11.8  .24        Md 2.0  5119905
LPL   000.47 019.0 m E Pg      2012/11/18 15:57:40.9   0.3                          T                                        5119909
LPL   000.47 019.0 m E Sg      2012/11/18 15:57:46.8   0.0                          T                2.4  .20        Md 1.9  5119903
FRF   001.52 176.4 m E Pn      2012/11/18 15:57:58.0   0.2                          T                                        5119902
FRF   001.52 176.4 m E Sn      2012/11/18 15:58:17.4   0.4                          T                                        5119901
LASF  002.15 243.2 m E Pn      2012/11/18 15:58:06.4   0.0                          T                                        5119900
LASF  002.15 243.2 m E Sn      2012/11/18 15:58:31.9  -0.2                          T                 .9  .17 Ml 2.0         5119899

.
EVENT     287090
    Date      Time       Latitude Longitude    Depth    Ndef Nsta Gap    Mag1  N    Mag2  N    Mag3  N   Author         ID
       rms   OT_Error      Smajor Sminor Az        Err   mdist  Mdist     Err        Err        Err      Quality

2012/11/18 17:30:15.6     44.4860    7.2909     11.0 f    26    7 123  Ml 1.5  5  Md 1.4  1              bulletin    287190
                                                                                                         _ldg
      0.20   +-  0.05       1.2     .7   62.33 +-  0.0    0.04   1.28   +-0.4      +-                    m i ke

NORTHERN ITALY
Sta     Dist  EvAz     Phase      Date       Time     TRes  Azim  AzRes  Slow  SRes Def   SNR       Amp   Per   Mag1   Mag2       ID
MBDF  000.44 303.2 m E Pg      2012/11/18 17:30:25.1   0.7                          T                                        5119917
MBDF  000.44 303.2 m E Sg      2012/11/18 17:30:30.7   0.2                          T                1.2  .20        Md 1.4  5119916
SBF   000.63 170.5 m E Pg      2012/11/18 17:30:27.7  -0.1                          T                                        5133341
SBF   000.63 170.5 m E Sg      2012/11/18 17:30:36.0  -0.1                          T                3.1  .22                5133342
FRF   001.04 206.9 m E Pg      2012/11/18 17:30:35.3   0.2                          T                                        5119915
FRF   001.04 206.9 m E Sg      2012/11/18 17:30:48.6   0.0                          T                1.7  .24 Ml 1.7         5119914
LPG   001.08 339.5 m E Pg      2012/11/18 17:30:37.1   0.8                          T                                        5119913
LPG   001.08 339.5 m E Sg      2012/11/18 17:30:50.3  -0.1                          T                 .5  .26 Ml 1.1         5119912
ORIF  001.10 293.7 m E Sg      2012/11/18 17:30:50.6   0.1                          T                 .8  .20 Ml 1.4         5133344
LPL   001.10 339.2 m E Sg      2012/11/18 17:30:50.8  -0.2                          T                 .4  .21 Ml 1.1         5119911
LMR   001.28 206.4 m E Sg      2012/11/18 17:30:56.2   0.0                          T                1.8  .19 Ml 1.9         5133343

.
