EVENT     288045
    Date      Time       Latitude Longitude    Depth    Ndef Nsta Gap    Mag1  N    Mag2  N    Mag3  N   Author         ID
       rms   OT_Error      Smajor Sminor Az        Err   mdist  Mdist     Err        Err        Err      Quality

2012/12/07 01:54:56.8     44.5168    6.7023      2.0      23    8 068  Ml 1.3  5  Md 1.4  1              bulletin    288145
                                                                                                         _ldg
      0.45   +-  0.09       2.1    1.5   71.16 +-  0.0    0.09   1.19   +-0.3      +-                    m i ke

FRANCE
Sta     Dist  EvAz     Phase      Date       Time     TRes  Azim  AzRes  Slow  SRes Def   SNR       Amp   Per   Mag1   Mag2       ID
MBDF  000.22 013.2 m E Pg      2012/12/07 01:55:01.4   0.1                          T                                        5133078
MBDF  000.22 013.2 m E Sg      2012/12/07 01:55:04.4   0.1                          T                3.0  .22        Md 1.4  5133080
ORIF  000.71 304.7 m E Pg      2012/12/07 01:55:09.7  -0.6                          T                                        5133077
ORIF  000.71 304.7 m E Sg      2012/12/07 01:55:19.7   0.1                          T                 .5  .18                5133079
SBF   000.84 140.8 m E Pg      2012/12/07 01:55:12.9   0.3                          T                                        5138162
SBF   000.84 140.8 m E Sg      2012/12/07 01:55:23.8   0.3                          T                1.4  .22                5138161
FRF   000.96 182.4 m E Pg      2012/12/07 01:55:15.3   0.6                          T                                        5133075
FRF   000.96 182.4 m E Sg      2012/12/07 01:55:27.3   0.2                          T                1.4  .19 Ml 1.7         5133073
SMRF  000.97 236.7 m E Pg      2012/12/07 01:55:15.6   0.5                          T                                        5133074
SMRF  000.97 236.7 m E Sg      2012/12/07 01:55:27.8   0.0                          T                  1  .21 Ml 1.5         5133072
LPG   000.98 002.0 m E Pg      2012/12/07 01:55:15.6   0.1                          T                                        5133124
LPG   000.98 002.0 m E Sn      2012/12/07 01:55:29.9   0.0                          T                 .3  .18 Ml 1.1         5133123
LPL   001.00 001.2 m E Pg      2012/12/07 01:55:16.1   0.3                          T                                        5133126
LPL   001.00 001.2 m E Sg      2012/12/07 01:55:28.5  -0.2                          T                 .2  .19 Ml  .9         5133125
LMR   001.19 186.8 m E Pn      2012/12/07 01:55:18.6  -0.1                          T                                        5133076
LMR   001.19 186.8 m E Sn      2012/12/07 01:55:34.7   0.1                          T                 .6  .22 Ml 1.4         5138163

.
EVENT     288026
    Date      Time       Latitude Longitude    Depth    Ndef Nsta Gap    Mag1  N    Mag2  N    Mag3  N   Author         ID
       rms   OT_Error      Smajor Sminor Az        Err   mdist  Mdist     Err        Err        Err      Quality

2012/12/07 03:19:02.8     43.0958    -.4797     10.0 f    47    8 095  Ml 1.9  6  Md 2.1  3              bulletin    288126
                                                                                                         _ldg
      0.67   +-  0.08       2.0    1.3  175.25 +-  0.0    0.07   3.30   +-0.3      +-0.1                 m i ke

PYRENEES
Sta     Dist  EvAz     Phase      Date       Time     TRes  Azim  AzRes  Slow  SRes Def   SNR       Amp   Per   Mag1   Mag2       ID
ETSF  000.21 196.5 m E Pg      2012/12/07 03:19:07.3   0.0                          T                                        5132733
ETSF  000.21 196.5 m E Sg      2012/12/07 03:19:10.3   0.0                          T               45.9  .24        Md 2.1  5132737
SJPF  000.55 272.1 m E Pg      2012/12/07 03:19:12.3  -1.0                          T                                        5132734
SJPF  000.55 272.1 m E Sg      2012/12/07 03:19:20.3  -0.3                          T                8.7  .22        Md 2.1  5132735
EPF   000.60 095.9 m E Pg      2012/12/07 03:19:14.0  -0.4                          T                                        5132732
EPF   000.60 095.9 m E Pn      2012/12/07 03:19:16.6   0.7                          T                                        5138218
EPF   000.60 095.9 m E Sg      2012/12/07 03:19:21.9  -0.5                          T                5.8  .20        Md 1.9  5132736
MTLF  001.99 082.0 m E Pn      2012/12/07 03:19:35.3   0.6                          T                                        5132741
MTLF  001.99 082.0 m E Pg      2012/12/07 03:19:38.7  -1.0                          T                                        5132739
MTLF  001.99 082.0 m E Sn      2012/12/07 03:19:59.2   1.0                          T                                        5132740
MTLF  001.99 082.0 m E Sg      2012/12/07 03:20:04.7  -0.6                          T                 .9  .21 Ml 1.9         5132738
LFF   002.04 025.1 m E Pn      2012/12/07 03:19:35.8   0.4                          T                                        5138217
LFF   002.04 025.1 m E Sn      2012/12/07 03:19:59.8   0.3                          T                                        5138215
LFF   002.04 025.1 m E Sg      2012/12/07 03:20:06.6  -0.5                          T                3.6  .34 Ml 2.1         5138216
CAF   002.59 044.2 m E Pn      2012/12/07 03:19:43.4   0.3                          T                                        5132746
CAF   002.59 044.2 m E Pg      2012/12/07 03:19:50.5  -0.4                          T                                        5138400
CAF   002.59 044.2 m E Sn      2012/12/07 03:20:13.2   0.5                          T                                        5132745
CAF   002.59 044.2 m E Sg      2012/12/07 03:20:23.4  -0.8                          T                1.0  .20 Ml 2.1         5132744
RJF   002.63 032.3 m E Pn      2012/12/07 03:19:44.4   0.8                          T                                        5138214
RJF   002.63 032.3 m E Pg      2012/12/07 03:19:51.2  -0.5                          T                                        5132743
RJF   002.63 032.3 m E Sn      2012/12/07 03:20:14.2   0.6                          T                                        5138213
RJF   002.63 032.3 m E Sg      2012/12/07 03:20:24.3  -1.3                          T                  1  .17 Ml 1.8         5132742
LASF  003.30 071.2 m E Pn      2012/12/07 03:19:53.0   0.4                          T                                        5138210
LASF  003.30 071.2 m E Sn      2012/12/07 03:20:30.9   1.3                          T                 .2  .17 Ml 1.5         5138209

.
EVENT     288041
    Date      Time       Latitude Longitude    Depth    Ndef Nsta Gap    Mag1  N    Mag2  N    Mag3  N   Author         ID
       rms   OT_Error      Smajor Sminor Az        Err   mdist  Mdist     Err        Err        Err      Quality

2012/12/07 07:14:40.4     42.2790    2.1830      8.0 f    68    9 033  Ml 2.3 10  Md 2.0  1              bulletin    288141
                                                                                                         _ldg
      0.34   +-  0.04        .8     .7  164.42 +-  0.0    0.01   3.15   +-0.2      +-                    m i ke

PYRENEES
Sta     Dist  EvAz     Phase      Date       Time     TRes  Azim  AzRes  Slow  SRes Def   SNR       Amp   Per   Mag1   Mag2       ID
MTLF  001.06 001.4 m E Pg      2012/12/07 07:15:00.4   0.0                          T                                        5133054
MTLF  001.06 001.4 m E Pn      2012/12/07 07:15:00.7   0.7                          T                                        5138403
MTLF  001.06 001.4 m E Sg      2012/12/07 07:15:14.2   0.1                          T                7.6  .19 Ml 2.4 Md 2.0  5133053
EPF   001.55 299.5 m E Pn      2012/12/07 07:15:06.9   0.1                          T                                        5133049
EPF   001.55 299.5 m E Pg      2012/12/07 07:15:10.1   0.6                          T                                        5133050
EPF   001.55 299.5 m E Sn      2012/12/07 07:15:25.8  -0.1                          T                                        5133061
EPF   001.55 299.5 m E Sg      2012/12/07 07:15:29.6   0.1                          T                2.0  .18 Ml 2.1         5133060
ETSF  002.12 287.9 m E Pn      2012/12/07 07:15:14.7   0.2                          T                                        5138235
ETSF  002.12 287.9 m E Pg      2012/12/07 07:15:20.1   0.2                          T                                        5133052
ETSF  002.12 287.9 m E Sn      2012/12/07 07:15:39.1  -0.3                          T                                        5138234
ETSF  002.12 287.9 m E Sg      2012/12/07 07:15:47.3   0.1                          T                5.1  .25 Ml 2.5         5133051
LASF  002.17 033.7 m E Pn      2012/12/07 07:15:16.0   0.8                          T                                        5133064
LASF  002.17 033.7 m E Pg      2012/12/07 07:15:21.1   0.2                          T                                        5133063
LASF  002.17 033.7 m E Sn      2012/12/07 07:15:41.6   0.9                          T                                        5133062
LASF  002.17 033.7 m E Sg      2012/12/07 07:15:48.7  -0.1                          T                1.5  .17 Ml 2.2         5133065
SJPF  002.65 289.5 m E Pn      2012/12/07 07:15:21.7   0.1                          T                                        5138233
SJPF  002.65 289.5 m E Pg      2012/12/07 07:15:29.8   0.2                          T                                        5138402
SJPF  002.65 289.5 m E Sn      2012/12/07 07:15:52.0   0.0                          T                                        5138232
SJPF  002.65 289.5 m E Sg      2012/12/07 07:16:03.8   0.2                          T                1.5  .24 Ml 2.2         5138231
CAF   002.65 358.2 m E Pn      2012/12/07 07:15:22.3   0.7                          T                                        5138401
CAF   002.65 358.2 m E Pg      2012/12/07 07:15:29.4  -0.1                          T                                        5133048
CAF   002.65 358.2 m E Sn      2012/12/07 07:15:52.0   0.0                          T                                        5138230
CAF   002.65 358.2 m E Sg      2012/12/07 07:16:03.7   0.1                          T                2.3  .21 Ml 2.4         5133047
LFF   002.86 339.0 m E Pn      2012/12/07 07:15:24.6   0.1                          T                                        5138229
LFF   002.86 339.0 m E Pg      2012/12/07 07:15:33.6   0.2                          T                                        5133058
LFF   002.86 339.0 m E Sn      2012/12/07 07:15:57.1   0.1                          T                                        5133057
LFF   002.86 339.0 m E Sg      2012/12/07 07:16:10.8   0.6                          T                6.1  .30 Ml 2.5         5133056
RJF   003.06 351.2 m E Pn      2012/12/07 07:15:28.0   0.8                          T                                        5138228
RJF   003.06 351.2 m E Pg      2012/12/07 07:15:37.3   0.1                          T                                        5138225
RJF   003.06 351.2 m E Sn      2012/12/07 07:16:02.1   0.2                          T                                        5138227
RJF   003.06 351.2 m E Sg      2012/12/07 07:16:16.7   0.1                          T                1.6  .18 Ml 2.1         5138226
VIVF  003.15 034.2 m E Pn      2012/12/07 07:15:28.9   0.5                          T                                        5138224
VIVF  003.15 034.2 m E Pg      2012/12/07 07:15:38.7  -0.2                          T                                        5138223
VIVF  003.15 034.2 m E Sn      2012/12/07 07:16:04.7   0.7                          T                                        5138222
VIVF  003.15 034.2 m E Sg      2012/12/07 07:16:19.2  -0.1                          T                1.9  .28 Ml 2.3         5138221

.
EVENT     288063
    Date      Time       Latitude Longitude    Depth    Ndef Nsta Gap    Mag1  N    Mag2  N    Mag3  N   Author         ID
       rms   OT_Error      Smajor Sminor Az        Err   mdist  Mdist     Err        Err        Err      Quality

2012/12/07 09:34:50.0     43.6110    3.0342      2.0      41   12 133  Ml 2.3 10  Md 2.3  2              bulletin    288163
                                                                                                         _ldg
      0.38   +-  0.06       1.3     .9  120.41 +-  0.0    0.65   3.74   +-0.2      +-0.2                 m i ke

NEAR SOUTH COAST OF FRANCE
Sta     Dist  EvAz     Phase      Date       Time     TRes  Azim  AzRes  Slow  SRes Def   SNR       Amp   Per   Mag1   Mag2       ID
MTLF  000.65 245.9 m E Pg      2012/12/07 09:35:01.8  -0.5                          T                                        5133132
MTLF  000.65 245.9 m E Pn      2012/12/07 09:35:04.6  -0.1                          T                                        5133157
MTLF  000.65 245.9 m E Sg      2012/12/07 09:35:10.9   0.0                          T                4.1  .15        Md 2.5  5133156
MTLF  000.65 245.9 m E Sn      2012/12/07 09:35:14.8  -0.1                          T               10.7  .20                5133155
LASF  000.76 051.7 m E Pg      2012/12/07 09:35:04.2   0.0                          T                                        5133131
LASF  000.76 051.7 m E Pn      2012/12/07 09:35:06.1   0.0                          T                                        5133159
LASF  000.76 051.7 m E Sg      2012/12/07 09:35:14.2   0.1                          T               10.2  .22                5133130
LASF  000.76 051.7 m E Sn      2012/12/07 09:35:17.4  -0.1                          T               46.6  .19        Md 2.2  5133158
CAF   001.49 332.4 m E Pg      2012/12/07 09:35:17.9   0.1                          T                                        5133136
CAF   001.49 332.4 m E Sg      2012/12/07 09:35:37.7   0.8                          T                7.1  .21 Ml 2.6         5133135
VIVF  001.71 042.8 m E Pn      2012/12/07 09:35:18.9  -0.2                          T                                        5133129
VIVF  001.71 042.8 m E Pg      2012/12/07 09:35:22.1   0.2                          T                                        5133128
VIVF  001.71 042.8 m E Sg      2012/12/07 09:35:43.9  -0.1                          T                4.3  .28 Ml 2.3         5133127
RJF   002.01 327.8 m E Pn      2012/12/07 09:35:23.0  -0.2                          T                                        5133149
RJF   002.01 327.8 m E Pg      2012/12/07 09:35:27.6   0.3                          T                                        5133148
RJF   002.01 327.8 m E Sn      2012/12/07 09:35:47.4  -0.1                          T                                        5133161
RJF   002.01 327.8 m E Sg      2012/12/07 09:35:52.7  -0.6                          T                5.6  .21 Ml 2.3         5133160
EPF   002.05 254.5 m E Pn      2012/12/07 09:35:24.1   0.3                          T                                        5133154
EPF   002.05 254.5 m E Pg      2012/12/07 09:35:27.8  -0.3                          T                                        5133134
EPF   002.05 254.5 m E Sn      2012/12/07 09:35:48.7   0.3                          T                                        5133153
EPF   002.05 254.5 m E Sg      2012/12/07 09:35:55.0   0.4                          T                3.1  .20 Ml 2.4         5133133
LFF   002.12 309.7 m E Pn      2012/12/07 09:35:24.1  -0.4                          T                                        5133152
LFF   002.12 309.7 m E Sn      2012/12/07 09:35:49.9   0.0                          T                                        5133150
LFF   002.12 309.7 m E Sg      2012/12/07 09:35:56.6   0.1                          T                7.8  .24 Ml 2.6         5133151
ETSF  002.72 256.1 m E Pn      2012/12/07 09:35:33.3   0.4                          T                                        5138240
ETSF  002.72 256.1 m E P       2012/12/07 09:35:36.3   0.7                          T                                        5143223
ETSF  002.72 256.1 m E Sn      2012/12/07 09:36:04.8   0.4                          T                                        5138238
ETSF  002.72 256.1 m E Sg      2012/12/07 09:36:15.5   0.1                          T                2.5  .34 Ml 2.2         5138239
MFF   003.74 324.1 m E Pn      2012/12/07 09:35:46.7   0.0                          T                                        5138241
TCF   002.74 348.0 m E Sg      2012/12/07 09:36:15.9  -0.1                          T                2.2  .29 Ml 2.3         5143518
SJPF  003.15 262.4 m E Sg      2012/12/07 09:36:28.4  -0.2                          T                 .8  .23 Ml 2.0         5143521
AVF   003.19 003.9 m E Sg      2012/12/07 09:36:29.8  -0.1                          T                2.8  .35 Ml 2.4         5143519

.
