BEGIN GSE2.0
MSG_TYPE DATA
MSG_ID 21-APR-1109:30:01  FRA_NDC
E-MAIL
DATA_TYPE BULLETIN
Reviewed Bulletin (REB) # P2011-015  from French NDC for regional phases     PERIOD 13 APR 2011 TO 19 APR 2011 C M., J-P S
EVENT     258224
    Date      Time       Latitude Longitude    Depth    Ndef Nsta Gap    Mag1  N    Mag2  N    Mag3  N   Author         ID
       rms   OT_Error      Smajor Sminor Az        Err   mdist  Mdist     Err        Err        Err      Quality

2011/04/13 00:07:51.5     42.4048    2.2011     10.0 f    24    3 065  Ml 1.3  4  Md 1.5  3              js067245    258224

      0.24   +-  0.04        .9     .8   26.94 +-  0.0    0.12   2.06   +-0.3      +-0.0                 m i ke

PYRENEES
Sta     Dist  EvAz     Phase      Date       Time     TRes  Azim  AzRes  Slow  SRes Def   SNR       Amp   Per   Mag1   Mag2       ID
MTLF  000.94 000.7 m E Pg      2011/04/13 00:08:09.1   0.0                          T                                        4672962
MTLF  000.94 000.7 m E Sg      2011/04/13 00:08:21.2  -0.1                          T                 .7  .32 Ml 1.2 Md 1.6  4672958
EPF   001.51 295.1 m E Pg      2011/04/13 00:08:20.0   0.3                          T                                        4672961
EPF   001.51 295.1 m E Sg      2011/04/13 00:08:39.4   0.3                          T                 .3  .25 Ml 1.1 Md 1.5  4672959
LASF  002.06 035.4 m E Pg      2011/04/13 00:08:29.9   0.0                          T                                        4672960
LASF  002.06 035.4 m E Sg      2011/04/13 00:08:56.3  -0.2                          T                1.1  .32 Ml 1.7 Md 1.5  4672957

.
EVENT     258225
    Date      Time       Latitude Longitude    Depth    Ndef Nsta Gap    Mag1  N    Mag2  N    Mag3  N   Author         ID
       rms   OT_Error      Smajor Sminor Az        Err   mdist  Mdist     Err        Err        Err      Quality

2011/04/13 02:51:46.3     45.8123    -.2059      4.0 f    83   22 051  Ml 2.7 24  Md 2.8  3              js067245    258225

      0.67   +-  0.05       1.1     .8   65.56 +-  0.0    0.06   4.48   +-0.2      +-0.1                 m i ke

FRANCE
Sta     Dist  EvAz     Phase      Date       Time     TRes  Azim  AzRes  Slow  SRes Def   SNR       Amp   Per   Mag1   Mag2       ID
MFF   000.79 003.0 m E Pg      2011/04/13 02:52:01.4   0.2                          T                                        4673153
MFF   000.79 003.0 m E Pn      2011/04/13 02:52:01.9  -0.8                          T                                        4673092
MFF   000.79 003.0 m E Sg      2011/04/13 02:52:11.3  -0.2                          T               46.9  .24        Md 2.9  4673088
LFF   001.10 142.3 m E Pn      2011/04/13 02:52:06.0  -0.8                          T                                        4673090
LFF   001.10 142.3 m E Pg      2011/04/13 02:52:06.7  -0.1                          T                                        4673155
LFF   001.10 142.3 m E Sg      2011/04/13 02:52:21.3   0.2                          T               35.2  .20 Ml 2.9 Md 2.8  4673086
RJF   001.31 112.2 m E Pn      2011/04/13 02:52:09.3  -0.5                          T                                        4673091
RJF   001.31 112.2 m E Pg      2011/04/13 02:52:10.5  -0.3                          T                                        4673154
RJF   001.31 112.2 m E Sg      2011/04/13 02:52:27.0  -0.8                          T               72.5  .20 Ml 3.2 Md 2.8  4673087
TCF   001.75 073.3 m E Pn      2011/04/13 02:52:16.2   0.4                          T                                        4673079
TCF   001.75 073.3 m E Sn      2011/04/13 02:52:36.7  -0.4                          T                                        4673052
TCF   001.75 073.3 m E Sg      2011/04/13 02:52:41.4   0.0                          T                9.6  .20 Ml 2.9         4673047
CAF   001.83 118.2 m E Pn      2011/04/13 02:52:17.0   0.1                          T                                        4673065
CAF   001.83 118.2 m E Pg      2011/04/13 02:52:19.8  -0.5                          T                                        4673089
CAF   001.83 118.2 m E Sg      2011/04/13 02:52:43.2  -0.8                          T               20.6  .24 Ml 3.1         4673085
BGF   002.25 069.5 m E Pn      2011/04/13 02:52:22.7   0.2                          T                                        4673073
BGF   002.25 069.5 m E Sg      2011/04/13 02:52:56.5  -0.5                          T               44.3  .44 Ml 3.3         4673043
HYF   002.45 052.4 m E Pn      2011/04/13 02:52:25.3   0.1                          T                                        4673074
HYF   002.45 052.4 m E Pg      2011/04/13 02:52:31.5  -0.2                          T                                        4673053
HYF   002.45 052.4 m E Sg      2011/04/13 02:53:02.9  -0.2                          T                                        4673044
GRR   002.62 350.4 m E Pn      2011/04/13 02:52:27.2  -0.3                          T                                        4673066
GRR   002.62 350.4 m E Pg      2011/04/13 02:52:34.5  -0.3                          T                                        4673084
GRR   002.62 350.4 m E Sg      2011/04/13 02:53:08.3  -0.1                          T                9.1  .32 Ml 2.7         4673036
AVF   002.65 067.1 m E Pn      2011/04/13 02:52:27.9  -0.1                          T                                        4673076
AVF   002.65 067.1 m E Sn      2011/04/13 02:52:58.7   0.0                          T                                        4673027
AVF   002.65 067.1 m E Sg      2011/04/13 02:53:09.5  -0.2                          T                8.0  .59 Ml 2.5         4673046
LDF   002.78 001.1 m E Pn      2011/04/13 02:52:29.7  -0.1                          T                                        4673067
LDF   002.78 001.1 m E Pg      2011/04/13 02:52:37.8  -0.1                          T                                        4673083
LDF   002.78 001.1 m E Sg      2011/04/13 02:53:13.5  -0.2                          T                5.9  .30 Ml 2.6         4673037
EPF   002.81 171.8 m E Pn      2011/04/13 02:52:29.8  -0.3                          T                                        4673062
EPF   002.81 171.8 m E Pg      2011/04/13 02:52:38.7   0.3                          T                                        4673056
EPF   002.81 171.8 m E Sn      2011/04/13 02:53:03.0   0.5                          T                                        4673029
EPF   002.81 171.8 m E Sg      2011/04/13 02:53:13.8  -0.7                          T                5.6  .20 Ml 2.8         4673034
SJPF  002.80 195.5 m E Pn      2011/04/13 02:52:30.4   0.4                          T                                        4673063
SJPF  002.80 195.5 m E Pg      2011/04/13 02:52:38.5   0.4                          T                                        4673055
SJPF  002.80 195.5 m E Sg      2011/04/13 02:53:13.9  -0.2                          T                6.4  .45 Ml 2.5         4673035
SSF   002.85 062.7 m E Pn      2011/04/13 02:52:30.8   0.0                          T                                        4673078
SSF   002.85 062.7 m E Sn      2011/04/13 02:53:02.6  -0.9                          T                                        4673051
SSF   002.85 062.7 m E Sg      2011/04/13 02:53:15.6  -0.3                          T                3.7  .33 Ml 2.5         4673048
MTLF  003.02 144.1 m E Pn      2011/04/13 02:52:31.7  -1.3                          T                                        4673064
MTLF  003.02 144.1 m E Pg      2011/04/13 02:52:42.3   0.1                          T                                        4673057
MTLF  003.02 144.1 m E Sg      2011/04/13 02:53:20.9  -0.1                          T                5.3  .26 Ml 2.7         4673033
SGMF  002.92 327.5 m E Pn      2011/04/13 02:52:31.7   0.0                          T                                        4673070
SGMF  002.92 327.5 m E Pg      2011/04/13 02:52:40.8   0.3                          T                                        4673080
SGMF  002.92 327.5 m E Sg      2011/04/13 02:53:18.0  -0.1                          T                4.2  .34 Ml 2.5         4673040
SMF   002.93 072.0 m E Pn      2011/04/13 02:52:31.8   0.0                          T                                        4673075
QUIF  002.92 317.1 m E Pn      2011/04/13 02:52:31.8   0.1                          T                                        4673069
QUIF  002.92 317.1 m E Pg      2011/04/13 02:52:40.1  -0.4                          T                                        4673081
SMF   002.93 072.0 m E Sn      2011/04/13 02:53:05.7   0.4                          T                                        4673028
QUIF  002.92 317.1 m E Sg      2011/04/13 02:53:18.0  -0.1                          T                4.4  .22 Ml 2.7         4673039
SMF   002.93 072.0 m E Sg      2011/04/13 02:53:18.2  -0.1                          T                4.7  .30 Ml 2.6         4673045
FLN   002.96 356.5 m E Pn      2011/04/13 02:52:32.3   0.1 174.5  -1.8              T                                        4673068
FLN   002.96 356.5 m E Pg      2011/04/13 02:52:41.0  -0.1 179.6  3.3               T                                        4673082
FLN   002.96 356.5 m E Sg      2011/04/13 02:53:19.0  -0.2 169.9  -6.3              T                7.5  .34 Ml 2.6         4673038
LOR   003.16 061.1 m E Pn      2011/04/13 02:52:34.6  -0.3 242.6  -1.5              T                                        4673077
LOR   003.16 061.1 m E Sn      2011/04/13 02:53:10.4  -0.5                          T                                        4673050
LOR   003.16 061.1 m E Sg      2011/04/13 02:53:25.3  -0.2 235.7  -8.3              T                2.6  .24 Ml 2.5         4673049
ROSF  003.28 321.4 m E Pn      2011/04/13 02:52:36.7   0.2                          T                                        4673071
ROSF  003.28 321.4 m E Pg      2011/04/13 02:52:47.2   0.1                          T                                        4673054
ROSF  003.28 321.4 m E Sg      2011/04/13 02:53:29.4   0.2                          T                2.9  .24 Ml 2.6         4673041
LASF  003.37 119.6 m E Pn      2011/04/13 02:52:38.9   1.2                          T                                        4673061
LASF  003.37 119.6 m E Pg      2011/04/13 02:52:48.8   0.1                          T                                        4673058
LASF  003.37 119.6 m E Sg      2011/04/13 02:53:31.8  -0.2                          T                7.3  .45 Ml 2.7         4673032
VIVF  003.57 103.8 m E Pn      2011/04/13 02:52:40.7   0.2                          T                                        4673060
VIVF  003.57 103.8 m E Pg      2011/04/13 02:52:52.6   0.1                          T                                        4673059
VIVF  003.57 103.8 m E Sn      2011/04/13 02:53:20.9   0.2                          T                                        4673030
VIVF  003.57 103.8 m E Sg      2011/04/13 02:53:38.2  -0.1                          T                4.5  .38 Ml 2.6         4673031

.
EVENT     258249
    Date      Time       Latitude Longitude    Depth    Ndef Nsta Gap    Mag1  N    Mag2  N    Mag3  N   Author         ID
       rms   OT_Error      Smajor Sminor Az        Err   mdist  Mdist     Err        Err        Err      Quality

2011/04/13 10:38:45.6     47.3155   -3.4327     15.0      18    7 259  Ml 2.0  8  Md 2.3  3              js067245    258249

      1.00   +-  0.27       5.1    2.5   61.68 +-  0.0    0.63   2.57   +-0.3      +-0.0                 m i ke

FRANCE
Sta     Dist  EvAz     Phase      Date       Time     TRes  Azim  AzRes  Slow  SRes Def   SNR       Amp   Per   Mag1   Mag2       ID
QUIF  000.63 016.6 m E Pg      2011/04/13 10:38:57.9   0.1                          T                                        4673139
QUIF  000.63 016.6 m E Sg      2011/04/13 10:39:06.3   0.1                          T                7.1  .20        Md 2.3  4673136
ROSF  001.03 005.9 m E Pg      2011/04/13 10:39:05.2   0.2                          T                                        4673137
ROSF  001.03 005.9 m E Sg      2011/04/13 10:39:18.2  -0.3                          T                8.7  .20 Ml 2.5 Md 2.3  4673135
SGMF  001.11 031.8 m E Pg      2011/04/13 10:39:06.4  -0.2                          T                                        4673138
SGMF  001.11 031.8 m E Sg      2011/04/13 10:39:21.2   0.2                          T                3.3  .26 Ml 2.0 Md 2.3  4673134
GRR   002.04 057.3 m E Pn      2011/04/13 10:39:17.5  -0.2                          T                                        4673145
GRR   002.04 057.3 m E Sg      2011/04/13 10:39:50.2   0.3                          T                2.1  .38 Ml 1.8         4673142
MFF   002.36 106.4 m E Pn      2011/04/13 10:39:22.0  -0.1                          T                                        4673144
MFF   002.36 106.4 m E Sg      2011/04/13 10:40:00.5   0.5                          T                 .9  .20 Ml 2.1         4673143
FLN   002.45 052.7 m E Pn      2011/04/13 10:39:23.8   0.4                          T                                        4673148
FLN   002.45 052.7 m E Sn      2011/04/13 10:39:51.4   0.2                          T                1.6  .31 Ml 1.9         4673146
LDF   002.57 058.9 m E Pn      2011/04/13 10:39:24.7  -0.2                          T                                        4673147
LDF   002.57 058.9 m E Sg      2011/04/13 10:40:06.5   0.1                          T                 .5  .21 Ml 1.7         4673141

.
EVENT     258251
    Date      Time       Latitude Longitude    Depth    Ndef Nsta Gap    Mag1  N    Mag2  N    Mag3  N   Author         ID
       rms   OT_Error      Smajor Sminor Az        Err   mdist  Mdist     Err        Err        Err      Quality

2011/04/13 13:58:38.1     43.6369    5.5471      2.0      29   10 151  Ml 2.2  9  Md 2.1  3              js067245    258251

      0.35   +-  0.06       1.1     .8   38.60 +-  0.0    0.15   2.75   +-0.3      +-0.0                 m i ke

NEAR SOUTH COAST OF FRANCE
Sta     Dist  EvAz     Phase      Date       Time     TRes  Azim  AzRes  Slow  SRes Def   SNR       Amp   Per   Mag1   Mag2       ID
SMRF  000.34 003.4 m E Pg      2011/04/13 13:58:44.9   0.2                          T                                        4673374
SMRF  000.34 003.4 m E Sg      2011/04/13 13:58:49.3   0.0                          T               33.1  .26        Md 2.1  4673368
LMR   000.76 113.1 m E Pg      2011/04/13 13:58:52.4   0.0                          T                                        4673372
LMR   000.76 113.1 m E Sg      2011/04/13 13:59:02.7   0.3                          T               14.6  .20        Md 2.1  4673369
FRF   000.80 095.1 m E Pg      2011/04/13 13:58:53.5   0.3                          T                                        4673373
FRF   000.80 095.1 m E Sg      2011/04/13 13:59:03.7   0.1                          T               12.6  .25        Md 2.1  4673367
LASF  001.30 290.3 m E Pn      2011/04/13 13:59:01.1  -0.5                          T                                        4673366
LASF  001.30 290.3 m E Pg      2011/04/13 13:59:02.4   0.0                          T                                        4674177
LASF  001.30 290.3 m E Sg      2011/04/13 13:59:19.4   0.2                          T                4.5  .29 Ml 2.1         4673357
ORIF  001.30 010.5 m E Pg      2011/04/13 13:59:02.6   0.1                          T                                        4673361
ORIF  001.30 010.5 m E Sg      2011/04/13 13:59:19.5   0.1                          T                3.3  .29 Ml 2.0         4673362
SBF   001.39 080.0 m E Pg      2011/04/13 13:59:03.7  -0.3                          T                                        4673371
SBF   001.39 080.0 m E Sg      2011/04/13 13:59:22.0   0.1                          T               17.8  .32 Ml 2.7         4673370
VIVF  001.37 333.0 m E Pg      2011/04/13 13:59:03.9   0.2                          T                                        4673365
VIVF  001.37 333.0 m E Sg      2011/04/13 13:59:21.4   0.0                          T                7.0  .40 Ml 2.2         4673364
MBDF  001.40 038.5 m E Pg      2011/04/13 13:59:04.6   0.2                          T                                        4673360
MBDF  001.40 038.5 m E Sg      2011/04/13 13:59:22.4  -0.1                          T                2.8  .29 Ml 2.0         4673363
MTLF  002.44 264.2 m E Pn      2011/04/13 13:59:17.1   0.0                          T                                        4673359
MTLF  002.44 264.2 m E Sn      2011/04/13 13:59:45.5  -0.3                          T                 .5  .21 Ml 1.6         4673358
PGF   002.75 112.1 m E Pn      2011/04/13 13:59:21.7   0.2                          T                                        4673356
PGF   002.75 112.1 m E Sn      2011/04/13 13:59:53.5   0.2                          T                 .9  .19 Ml 2.3         4673355

.
