EVENT     273929
    Date      Time       Latitude Longitude    Depth    Ndef Nsta Gap    Mag1  N    Mag2  N    Mag3  N   Author         ID
       rms   OT_Error      Smajor Sminor Az        Err   mdist  Mdist     Err        Err        Err      Quality

2012/04/18 14:44:21.3     46.3889    4.6067       .0 f    12    6 201  Ml 1.9  5  Md 2.0  1              bulletin    273949
                                                                                                         _ldg
      0.35   +-  0.20       5.7    2.1    7.10 +-  0.0    0.59   1.23   +-0.2      +-                    m i km

FRANCE
Sta     Dist  EvAz     Phase      Date       Time     TRes  Azim  AzRes  Slow  SRes Def   SNR       Amp   Per   Mag1   Mag2       ID
SMF   000.59 296.2 m E Pg      2012/04/18 14:44:33.1   0.4                          T                                        4915827
SMF   000.59 296.2 m E Sg      2012/04/18 14:44:40.6  -0.1                          T              178.1 1.66        Md 2.0  4915826
AVF   000.95 295.4 m E Pg      2012/04/18 14:44:39.4   0.0                          T                                        4915824
AVF   000.95 295.4 m E Sg      2012/04/18 14:44:52.9   0.9                          T                1.3  .16 Ml 1.7         4915825
SSF   001.01 312.0 m E Pg      2012/04/18 14:44:40.4  -0.1                          T                                        4919512
SSF   001.01 312.0 m E Sg      2012/04/18 14:44:54.2   0.3                          T                2.9  .31 Ml 1.9         4919513
LOR   001.02 330.0 m E Pg      2012/04/18 14:44:40.5  -0.2                          T                                        4919510
LOR   001.02 330.0 m E Sg      2012/04/18 14:44:53.8  -0.3                          T                4.4  .39 Ml 1.9         4919511
CABF  001.05 077.2 m E Pg      2012/04/18 14:44:41.2  -0.1                          T                                        4919516
CABF  001.05 077.2 m E Sg      2012/04/18 14:44:55.8   0.7                          T                1.9  .29 Ml 1.6         4915823
BGF   001.23 278.5 m E Pg      2012/04/18 14:44:44.2  -0.3                          T                                        4919514
BGF   001.23 278.5 m E Sg      2012/04/18 14:45:00.8   0.2                          T                8.4  .38 Ml 2.3         4919515

.
EVENT     273932
    Date      Time       Latitude Longitude    Depth    Ndef Nsta Gap    Mag1  N    Mag2  N    Mag3  N   Author         ID
       rms   OT_Error      Smajor Sminor Az        Err   mdist  Mdist     Err        Err        Err      Quality

2012/04/18 16:41:07.0     44.4817    6.6858      2.0      21    4 121  Ml 1.7  2  Md 1.9  2              bulletin    273952
                                                                                                         _ldg
      1.07   +-  0.10       2.2    1.6   53.79 +-  0.0    0.09   1.15   +-0.2      +-0.1                 m i ke

FRANCE
Sta     Dist  EvAz     Phase      Date       Time     TRes  Azim  AzRes  Slow  SRes Def   SNR       Amp   Per   Mag1   Mag2       ID
MBDF  000.25 014.0 m E Pg      2012/04/18 16:41:12.1   0.0                          T                                        4916000
MBDF  000.25 014.0 m E Sg      2012/04/18 16:41:15.8   0.2                          T                4.4  .24        Md 2.0  4915997
ORIF  000.72 307.5 m E Pg      2012/04/18 16:41:20.5  -0.2                          T                                        4915999
ORIF  000.72 307.5 m E Sg      2012/04/18 16:41:30.6   0.4                          T                1.7  .26        Md 1.8  4915998
FRF   000.92 181.8 m E Pn      2012/04/18 16:41:25.3  -0.1                          T                                        4916002
FRF   000.92 181.8 m E Sn      2012/04/18 16:41:39.2   0.8                          T                2.3  .23 Ml 1.8         4916001
LMR   001.15 186.4 m E Pg      2012/04/18 16:41:29.0   0.5                          T                                        4919517
LMR   001.15 186.4 m E P       2012/04/18 16:41:30.3   0.2                          T                                        4919520
LMR   001.15 186.4 m E Sg      2012/04/18 16:41:43.9   0.4                          T                1.1  .22 Ml 1.6         4919518

.
EVENT     273933
    Date      Time       Latitude Longitude    Depth    Ndef Nsta Gap    Mag1  N    Mag2  N    Mag3  N   Author         ID
       rms   OT_Error      Smajor Sminor Az        Err   mdist  Mdist     Err        Err        Err      Quality

2012/04/18 18:04:42.3     44.6375    7.2432      2.0      12    7 191  Ml 1.3  4  Md 1.2  1              bulletin    273953
                                                                                                         _ldg
      0.32   +-  0.20       4.5    1.8   77.03 +-  0.0    0.35   1.41   +-0.3      +-                    m i ke

NORTHERN ITALY
Sta     Dist  EvAz     Phase      Date       Time     TRes  Azim  AzRes  Slow  SRes Def   SNR       Amp   Per   Mag1   Mag2       ID
MBDF  000.35 285.0 m E Pg      2012/04/18 18:04:49.3   0.1                          T                                        4916006
MBDF  000.35 285.0 m E Sg      2012/04/18 18:04:53.8  -0.1                          T                7.8  .22        Md 1.2  4916005
LPG   000.93 338.1 m E Pg      2012/04/18 18:04:59.9  -0.1                          T                                        4919523
LPG   000.93 338.1 m E Sg      2012/04/18 18:05:11.8  -0.3                          T                 .4  .26 Ml 1.0         4919527
ORIF  001.01 286.6 m E Pg      2012/04/18 18:05:01.6   0.3                          T                                        4919525
ORIF  001.01 286.6 m E Sg      2012/04/18 18:05:13.7  -0.8                          T                 .8  .19 Ml 1.5         4919526
FRF   001.16 202.0 m E Pg      2012/04/18 18:05:04.3   0.3                          T                                        4916004
FRF   001.16 202.0 m E Sg      2012/04/18 18:05:18.6  -0.3                          T                1.7  .32 Ml 1.6         4916003
SBF   000.79 169.8 m E Sg      2012/04/18 18:05:06.9  -0.5                          T                1.7  .20                4919528
LMR   001.41 202.4 m E Pg      2012/04/18 18:05:08.3  -0.1                          T                                        4919521
LMR   001.41 202.4 m E Sg      2012/04/18 18:05:24.5  -2.2                          T                                        4919522
LPL   000.95 337.8 m E Sg      2012/04/18 18:05:13.0   0.2                          T                 .9  .29 Ml 1.3         4919524

.
EVENT     273930
    Date      Time       Latitude Longitude    Depth    Ndef Nsta Gap    Mag1  N    Mag2  N    Mag3  N   Author         ID
       rms   OT_Error      Smajor Sminor Az        Err   mdist  Mdist     Err        Err        Err      Quality

2012/04/18 22:32:28.3     44.2510   10.6970     25.0      57   14 050  Ml 2.5  7  Md 2.6  2              bulletin    273950
                                                                                                         _ldg
      0.83   +-  0.11       3.0    2.4   25.14 +-  0.0    0.20   5.66   +-0.2      +-0.0                 m i ke

NORTHERN ITALY
Sta     Dist  EvAz     Phase      Date       Time     TRes  Azim  AzRes  Slow  SRes Def   SNR       Amp   Per   Mag1   Mag2       ID
SBF   002.38 261.8 m E P       2012/04/18 22:33:06.9   0.1                          T                                        4915897
SBF   002.38 261.8 m E Sn      2012/04/18 22:33:30.7   0.1                          T               12.6  .34 Ml 2.9 Md 2.6  4915883
LPG   003.07 295.3 m E Pn      2012/04/18 22:33:13.2  -0.6                          T                                        4915885
LPG   003.07 295.3 m E P       2012/04/18 22:33:16.4  -0.5                          T                                        4921387
MBDF  002.85 281.0 m E P       2012/04/18 22:33:13.5  -0.1                          T                                        4915900
MBDF  002.85 281.0 m E Sn      2012/04/18 22:33:41.5  -0.3                          T                4.2  .54 Ml 2.3         4921385
LPL   003.09 295.6 m E Pn      2012/04/18 22:33:13.7  -0.2                          T                                        4919529
LPL   003.09 295.6 m E P       2012/04/18 22:33:17.1   0.0                          T                                        4915886
LPL   003.09 295.6 m E Sn      2012/04/18 22:33:47.6   0.0                          T                2.1  .40 Ml 2.2         4921386
FRF   003.01 258.1 m E P       2012/04/18 22:33:15.6   0.0                          T                                        4915901
FRF   003.01 258.1 m E Sn      2012/04/18 22:33:45.4   0.0                          T                4.2  .26 Ml 2.7         4915889
LMR   003.17 254.6 m E P       2012/04/18 22:33:17.4  -0.5                          T                                        4915902
LMR   003.17 254.6 m E Sn      2012/04/18 22:33:49.5   0.3                          T                3.3  .28 Ml 2.6 Md 2.6  4915884
ORIF  003.51 282.6 m E P       2012/04/18 22:33:22.5  -0.3                          T                                        4915887
SMRF  003.70 267.5 m E P       2012/04/18 22:33:26.5   1.0                          T                                        4915888
VIVF  004.35 280.1 m E P       2012/04/18 22:33:34.1  -0.6                          T                                        4915899
HINF  004.46 324.5 m E P       2012/04/18 22:33:35.4  -0.9                          T                                        4915896
HINF  004.46 324.5 m E Sn      2012/04/18 22:34:19.9  -0.2                          T                2.8  .43 Ml 2.6         4919531
CDF   004.79 331.6 m E Pn      2012/04/18 22:33:36.1  -0.8                          T                                        4915893
CDF   004.79 331.6 m E P       2012/04/18 22:33:39.9  -1.2                          T                                        4915894
HAU   004.82 322.7 m E Pn      2012/04/18 22:33:36.7  -0.5                          T                                        4915895
HAU   004.82 322.7 m E P       2012/04/18 22:33:40.7  -0.7                          T                                        4915890
HAU   004.82 322.7 m E Sn      2012/04/18 22:34:28.4  -0.4                          T                3.5  .33 Ml 2.6         4919530
LASF  004.92 270.3 m E P       2012/04/18 22:33:42.9   0.1                          T                                        4915898
LOR   005.66 304.6 m E P       2012/04/18 22:33:53.4   0.3 131.5  11.7              T                                        4915892
LOR   005.66 304.6 m E Sn      2012/04/18 22:34:53.5   4.7                          T                                        4915891

.
EVENT     274202
    Date      Time       Latitude Longitude    Depth    Ndef Nsta Gap    Mag1  N    Mag2  N    Mag3  N   Author         ID
       rms   OT_Error      Smajor Sminor Az        Err   mdist  Mdist     Err        Err        Err      Quality

2012/04/19 01:31:51.8     43.7106    7.7823      2.0      16    3 221  Ml 1.6  1  Md 1.4  2              js067245    274222

      0.39   +-  0.21       3.6    1.9  136.49 +-  0.0    0.15   1.00   +-         +-0.1                 m i ke

NEAR SOUTH COAST OF FRANCE
Sta     Dist  EvAz     Phase      Date       Time     TRes  Azim  AzRes  Slow  SRes Def   SNR       Amp   Per   Mag1   Mag2       ID
SBF   000.29 301.3 m E Pg      2012/04/19 01:31:57.0  -0.6                          T                                        4919676
SBF   000.29 301.3 m E Sg      2012/04/19 01:32:00.8  -0.8                          T               15.1  .35        Md 1.5  4919675
FRF   000.84 260.1 m E Pg      2012/04/19 01:32:08.0   0.4                          T                                        4919673
FRF   000.84 260.1 m E Sg      2012/04/19 01:32:19.0   0.6                          T                3.7  .26        Md 1.3  4919674
LMR   001.00 248.3 m E Pg      2012/04/19 01:32:10.0  -0.5                          T                                        4919672
LMR   001.00 248.3 m E Sg      2012/04/19 01:32:22.7  -0.7                          T                1.2  .22 Ml 1.6         4919671

.
EVENT     273934
    Date      Time       Latitude Longitude    Depth    Ndef Nsta Gap    Mag1  N    Mag2  N    Mag3  N   Author         ID
       rms   OT_Error      Smajor Sminor Az        Err   mdist  Mdist     Err        Err        Err      Quality

2012/04/19 06:57:48.6     45.1695    1.5741       .0 f     7    4 124  Ml 2.3  1  Md 1.7  2              bulletin    273954
                                                                                                         _ldg
      0.41   +-  0.18       4.3    3.8   39.30 +-  0.0    0.14   1.65   +-         +-0.3                 m i km

FRANCE
Sta     Dist  EvAz     Phase      Date       Time     TRes  Azim  AzRes  Slow  SRes Def   SNR       Amp   Per   Mag1   Mag2       ID
RJF   000.14 343.2 m E Pg      2012/04/19 06:57:51.3  -0.5                          T                                        4916269
RJF   000.14 343.2 m E Sg      2012/04/19 06:57:54.3   0.3                          T               43.4  .74        Md 1.9  4916268
CAF   000.42 124.9 m E Pg      2012/04/19 06:57:57.3   0.3                          T                                        4919610
CAF   000.42 124.9 m E Sg      2012/04/19 06:58:02.0  -0.9                          T                3.7  .27        Md 1.5  4919611
LFF   000.63 249.0 m E Pg      2012/04/19 06:58:00.8   0.0                          T                                        4919609
LFF   000.63 249.0 m E Sg      2012/04/19 06:58:09.5   0.2                          T                5.3  .40                4916266
BGF   001.65 032.2 m E Sg      2012/04/19 06:58:41.2   0.2                          T                4.3  .28 Ml 2.3         4922220

.
EVENT     273936
    Date      Time       Latitude Longitude    Depth    Ndef Nsta Gap    Mag1  N    Mag2  N    Mag3  N   Author         ID
       rms   OT_Error      Smajor Sminor Az        Err   mdist  Mdist     Err        Err        Err      Quality

2012/04/19 07:28:36.7     43.3471   -1.1821       .0 f     6    3 277  Ml 1.7  1  Md 1.6  2              bulletin    273956
                                                                                                         _ldg
      0.34   +-  0.67      13.3    5.4  149.67 +-  0.0    0.24   1.16   +-         +-0.1                 m i km

PYRENEES
Sta     Dist  EvAz     Phase      Date       Time     TRes  Azim  AzRes  Slow  SRes Def   SNR       Amp   Per   Mag1   Mag2       ID
SJPF  000.24 187.7 m E Pg      2012/04/19 07:28:42.0   0.3                          T                                        4919536
SJPF  000.24 187.7 m E Sg      2012/04/19 07:28:44.5  -0.5                          T                6.8  .22        Md 1.6  4919535
ETSF  000.64 134.3 m E Pg      2012/04/19 07:28:48.9  -0.3                          T                                        4919533
ETSF  000.64 134.3 m E Sg      2012/04/19 07:28:58.0   0.3                          T                1.2  .25        Md 1.5  4919534
EPF   001.16 105.4 m E Pg      2012/04/19 07:28:58.6  -0.1                          T                                        4919544
EPF   001.16 105.4 m E Sg      2012/04/19 07:29:14.4   0.6                          T                1.5  .26 Ml 1.7         4919543

.
EVENT     273941
    Date      Time       Latitude Longitude    Depth    Ndef Nsta Gap    Mag1  N    Mag2  N    Mag3  N   Author         ID
       rms   OT_Error      Smajor Sminor Az        Err   mdist  Mdist     Err        Err        Err      Quality

2012/04/19 08:04:14.8     47.4992   -2.2794       .0 f    11    5 258  Ml 1.9  3  Md 1.8  1              bulletin    273961
                                                                                                         _ldg
      0.27   +-  0.22       4.8    1.9  178.63 +-  0.0    0.73   1.75   +-0.3      +-                    m i km

FRANCE
Sta     Dist  EvAz     Phase      Date       Time     TRes  Azim  AzRes  Slow  SRes Def   SNR       Amp   Per   Mag1   Mag2       ID
QUIF  000.73 305.2 m E Pg      2012/04/19 08:04:28.9   0.0                          T                                        4916361
QUIF  000.73 305.2 m E P       2012/04/19 08:04:30.2  -0.1                          T                                        4919623
QUIF  000.73 305.2 m E Sg      2012/04/19 08:04:38.5  -0.1                          T               55.7 1.00        Md 1.8  4919612
SGMF  000.78 346.2 m E Pg      2012/04/19 08:04:30.9   1.2                          T                                        4916362
SGMF  000.78 346.2 m E Sg      2012/04/19 08:04:40.7   0.6                          T                4.9  .19                4916359
ROSF  001.07 321.8 m E Pg      2012/04/19 08:04:34.9  -0.2                          T                                        4919625
ROSF  001.07 321.8 m E Sg      2012/04/19 08:04:49.4   0.2                          T                8.3  .37 Ml 2.2         4919624
GRR   001.31 046.5 m E Pn      2012/04/19 08:04:39.0   0.2                          T                                        4919615
GRR   001.31 046.5 m E Pg      2012/04/19 08:04:39.6   0.2                          T                                        4919621
GRR   001.31 046.5 m E Sg      2012/04/19 08:04:56.2  -0.3                          T                1.2  .16 Ml 1.7         4919614
FLN   001.75 042.9 m E Sg      2012/04/19 08:05:09.7  -0.6                          T                1.6  .20 Ml 1.9         4919622

.
