EVENT     291335
    Date      Time       Latitude Longitude    Depth    Ndef Nsta Gap    Mag1  N    Mag2  N    Mag3  N   Author         ID
       rms   OT_Error      Smajor Sminor Az        Err   mdist  Mdist     Err        Err        Err      Quality

2013/02/02 06:16:58.8     45.9104    7.7486      2.0     117   32 051  Ml 2.9 24  Md 2.9  2              bulletin    291435
                                                                                                         _ldg
      0.61   +-  0.05       1.2     .9  123.24 +-  0.0    0.09   7.74   +-0.3      +-0.1                 m i ke

NORTHERN ITALY
Sta     Dist  EvAz     Phase      Date       Time     TRes  Azim  AzRes  Slow  SRes Def   SNR       Amp   Per   Mag1   Mag2       ID
LPG   000.81 239.8 m E Pg      2013/02/02 06:17:14.1  -0.4                          T   001.0                        Md 2.8  5185357
LPG   000.81 239.8 m E Sg      2013/02/02 06:17:25.2   0.2                          T   001.0       66.5  .22                5185359
LPL   000.81 241.4 m E Pg      2013/02/02 06:17:14.1  -0.3                          T   001.0                                5185360
LPL   000.81 241.4 m E Sg      2013/02/02 06:17:25.5   0.5                          T   001.0       59.9  .36        Md 3.0  5185361
MBDF  001.37 210.6 m E Pg      2013/02/02 06:17:24.3  -0.3                          T   001.0                                5185330
MBDF  001.37 210.6 m E Sn      2013/02/02 06:17:41.5   0.4                          T   001.0       76.2  .38 Ml 3.3         5185331
CABF  001.35 301.9 m E P       2013/02/02 06:17:24.9   0.0                          T   001.0                                5185326
CABF  001.35 301.9 m E Sg      2013/02/02 06:17:41.6   0.1                          T   001.0       34.1  .26 Ml 3.1         5185327
ORIF  001.65 233.7 m E Pn      2013/02/02 06:17:28.0   0.9                          T   001.0                                5185333
ORIF  001.65 233.7 m E Sn      2013/02/02 06:17:48.2   0.5                          T   001.0                                5185334
ORIF  001.65 233.7 m E Sg      2013/02/02 06:17:51.6   0.7                          T   001.0       37.6  .40 Ml 3.1         5185335
SBF   002.06 186.3 m E Pn      2013/02/02 06:17:32.7  -0.1                          T   001.0                                5185363
SBF   002.06 186.3 m E Sn      2013/02/02 06:17:57.7   0.2                          T               17.1  .28 Ml 3.0         5185383
HINF  002.00 342.5 m E Pn      2013/02/02 06:17:34.4   2.5                          T   001.0                                5185328
HINF  002.00 342.5 m E Sn      2013/02/02 06:17:56.5   0.4                          T   001.0       32.8  .32 Ml 3.2         5185329
HAU   002.31 335.9 m E P       2013/02/02 06:17:38.2  -0.2                          T   001.0                                5185349
HAU   002.31 335.9 m E Sg      2013/02/02 06:18:11.6   0.3                          T   001.0       32.7  .30 Ml 3.1         5185351
SMRF  002.47 219.4 m E Pn      2013/02/02 06:17:38.6   0.2                          T   001.0                                5185339
SMRF  002.47 219.4 m E Pg      2013/02/02 06:17:44.7   0.0                          T                                        5185382
SMRF  002.47 219.4 m E Sn      2013/02/02 06:18:07.8   0.5                          T                5.0  .35 Ml 2.5         5185381
VIVF  002.41 245.2 m E P       2013/02/02 06:17:39.6  -0.4                          T   001.0                                5185337
VIVF  002.41 245.2 m E Sn      2013/02/02 06:18:06.4   0.5                          T   001.0        5.4  .22 Ml 2.7         5185338
FRF   002.48 198.9 m E P       2013/02/02 06:17:40.3  -0.6                          T                                        5185384
CDF   002.52 352.8 m E P       2013/02/02 06:17:41.0  -0.7                          T   001.0                                5185347
CDF   002.52 352.8 m E Sg      2013/02/02 06:18:18.1  -0.1                          T   001.0         10  .38 Ml 2.8         5185348
LMR   002.72 199.4 m E P       2013/02/02 06:17:44.3  -0.1                          T   001.0                                5185352
LMR   002.72 199.4 m E Sn      2013/02/02 06:18:13.0  -0.2                          T   001.0        4.2  .22 Ml 2.7         5185353
SMF   002.81 286.6 m E P       2013/02/02 06:17:45.5  -0.1                          T   001.0                                5185364
SMF   002.81 286.6 m E Sg      2013/02/02 06:18:26.9  -0.1                          T   001.0        9.7  .20 Ml 3.1         5185367
SFTF  002.95 322.1 m E P       2013/02/02 06:17:47.9   0.2 135.4  -4.7              T                                        5185374
SFTF  002.95 322.1 m E Sg      2013/02/02 06:18:31.0  -0.4 140.2  0.1               T               22.9  .38 Ml 3.2         5185373
PAGF  002.98 333.2 m E P       2013/02/02 06:17:48.1  -0.1                          T                                        5185377
PAGF  002.98 333.2 m E Sg      2013/02/02 06:18:32.7   0.2                          T                8.7  .23 Ml 3.0         5185376
LOR   003.01 298.3 m E P       2013/02/02 06:17:48.3  -0.1 117.9  2.5               T   001.0                                5185354
LOR   003.01 298.3 m E Sn      2013/02/02 06:18:20.6   0.5                          T   001.0                                5185355
LOR   003.01 298.3 m E Sg      2013/02/02 06:18:34.0   0.8                          T   001.0        9.4  .31 Ml 2.9         5185356
MEZF  003.18 325.6 m E P       2013/02/02 06:17:50.5  -0.4                          T                                        5185375
MEZF  003.18 325.6 m E Sg      2013/02/02 06:18:38.6   0.1                          T   001.0       17.2  .39 Ml 3.1         5185332
AVF   003.17 287.7 m E P       2013/02/02 06:17:50.5  -0.2                          T   001.0                                5185340
AVF   003.17 287.7 m E Sn      2013/02/02 06:18:23.7  -0.2                          T   001.0                                5185341
AVF   003.17 287.7 m E Sg      2013/02/02 06:18:38.3   0.1                          T   001.0        2.6  .21 Ml 2.5         5185342
SSF   003.15 293.0 m E P       2013/02/02 06:17:50.6   0.1                          T   001.0                                5185368
SSF   003.15 293.0 m E Sn      2013/02/02 06:18:24.1   0.7                          T   001.0                                5185369
SSF   003.15 293.0 m E Sg      2013/02/02 06:18:38.6   1.0                          T   001.0        3.1  .21 Ml 2.7         5185370
LASF  003.31 237.8 m E P       2013/02/02 06:17:53.1   0.2                          T                                        5185380
BGF   003.46 282.5 m E P       2013/02/02 06:17:54.6  -0.4                          T   001.0                                5185343
BGF   003.46 282.5 m E Sn      2013/02/02 06:18:31.3   0.4                          T   001.0                                5185344
BGF   003.46 282.5 m E Sg      2013/02/02 06:18:47.4   0.0                          T   001.0       10.2  .38 Ml 3.0         5185345
HYF   003.78 292.9 m E P       2013/02/02 06:17:59.1  -0.3                          T                                        5185378
TCF   003.87 277.6 m E P       2013/02/02 06:18:00.4  -0.4                          T   001.0                                5185371
TCF   003.87 277.6 m E Sn      2013/02/02 06:18:40.8   0.1                          T   001.0        2.4  .26 Ml 2.6         5185372
TCF   003.87 277.6 m E Sg      2013/02/02 06:19:00.4   0.2                          T   001.0        3.4  .32 Ml 2.7         5185365
CAF   004.12 258.2 m E P       2013/02/02 06:18:04.0  -0.3                          T   001.0                                5185346
MTLF  004.71 238.9 m E P       2013/02/02 06:18:12.4  -0.2                          T                                        5185379
BAIF  004.78 331.5 m E P       2013/02/02 06:18:13.5  -0.2                          T   001.0                                5185325
MFF   005.52 280.0 m E P       2013/02/02 06:18:23.1  -0.9                          T   001.0                                5185362
LDF   005.99 299.4 m E P       2013/02/02 06:18:30.4  -0.4                          T                                        5185388
GRR   006.37 296.0 m E P       2013/02/02 06:18:34.3  -1.8                          T                                        5185387
SGMF  007.42 292.1 m E P       2013/02/02 06:18:49.5  -1.3                          T                                        5185386
SGMF  007.42 292.1 m E Sn      2013/02/02 06:20:04.6  -0.8                          T   001.0                                5185336
QUIF  007.74 289.0 m E P       2013/02/02 06:18:53.3  -1.9                          T                                        5185385

.
EVENT     291336
    Date      Time       Latitude Longitude    Depth    Ndef Nsta Gap    Mag1  N    Mag2  N    Mag3  N   Author         ID
       rms   OT_Error      Smajor Sminor Az        Err   mdist  Mdist     Err        Err        Err      Quality

2013/02/02 08:43:10.3     42.7966    -.8643      2.0      13    6 244  Ml 2.1  4  Md 2.2  2              bulletin    291436
                                                                                                         _ldg
      0.07   +-  0.07       1.7     .5   15.88 +-  0.0    0.25   3.00   +-0.2      +-0.0                 m i ke

PYRENEES
Sta     Dist  EvAz     Phase      Date       Time     TRes  Azim  AzRes  Slow  SRes Def   SNR       Amp   Per   Mag1   Mag2       ID
ETSF  000.25 065.5 m E Pg      2013/02/02 08:43:15.3   0.0                          T                                        5185407
ETSF  000.25 065.5 m E Sg      2013/02/02 08:43:18.4  -0.2                          T               42.3  .18        Md 2.2  5185405
SJPF  000.41 320.2 m E Pg      2013/02/02 08:43:18.2   0.0                          T                                        5185406
SJPF  000.41 320.2 m E Sg      2013/02/02 08:43:23.8   0.1                          T               28.1  .26        Md 2.2  5185404
EPF   000.92 074.8 m E Pg      2013/02/02 08:43:27.6   0.0                          T                                        5185403
EPF   000.92 074.8 m E Sg      2013/02/02 08:43:39.4   0.0                          T                3.7  .21 Ml 2.0         5185402
LFF   002.44 027.9 m E Pn      2013/02/02 08:43:49.1  -0.1                          T                                        5185400
LFF   002.44 027.9 m E Sn      2013/02/02 08:44:17.8   0.0                          T                4.0  .31 Ml 2.2         5195822
MTLF  002.32 075.4 m E Pg      2013/02/02 08:43:53.4   0.0                          T                                        5195823
MTLF  002.32 075.4 m E Sn      2013/02/02 08:44:15.1  -0.1                          T                 .7  .23 Ml 1.7         5185401
CAF   003.00 043.9 m E Pn      2013/02/02 08:43:57.0   0.0                          T                                        5185399
CAF   003.00 043.9 m E Pg      2013/02/02 08:44:06.0   0.1                          T                                        5195824
CAF   003.00 043.9 m E Sn      2013/02/02 08:44:31.6   0.1                          T                1.5  .21 Ml 2.3         5185398

.
EVENT     291337
    Date      Time       Latitude Longitude    Depth    Ndef Nsta Gap    Mag1  N    Mag2  N    Mag3  N   Author         ID
       rms   OT_Error      Smajor Sminor Az        Err   mdist  Mdist     Err        Err        Err      Quality

2013/02/02 08:52:03.7     46.5150    1.8550      6.0 f    32   11 120  Ml 1.9 10  Md 1.9  2              bulletin    291437
                                                                                                         _ldg
      0.27   +-  0.05       1.3     .9  150.21 +-  0.0    0.33   1.76   +-0.2      +-0.1                 m i ke

FRANCE
Sta     Dist  EvAz     Phase      Date       Time     TRes  Azim  AzRes  Slow  SRes Def   SNR       Amp   Per   Mag1   Mag2       ID
TCF   000.33 132.6 m E Pg      2013/02/02 08:52:10.2  -0.2                          T                                        5185427
TCF   000.33 132.6 m E Sg      2013/02/02 08:52:15.0   0.2                          T                3.5  .22        Md 1.8  5185426
BGF   000.69 086.1 m E Pg      2013/02/02 08:52:16.8   0.1                          T                                        5185425
BGF   000.69 086.1 m E Sg      2013/02/02 08:52:25.7   0.0                          T                8.9  .30        Md 2.0  5185424
HYF   000.93 035.2 m E Pg      2013/02/02 08:52:21.6   0.4                          T                                        5185419
HYF   000.93 035.2 m E Sg      2013/02/02 08:52:32.9  -0.2                          T                                        5195836
AVF   001.07 074.5 m E Pg      2013/02/02 08:52:23.8   0.1                          T                                        5185423
AVF   001.07 074.5 m E Sg      2013/02/02 08:52:37.5  -0.1                          T                4.7  .24 Ml 2.1         5185418
RJF   001.23 191.2 m E Pn      2013/02/02 08:52:25.4  -0.4                          T                                        5185414
RJF   001.23 191.2 m E Pg      2013/02/02 08:52:27.1   0.4                          T                                        5195832
RJF   001.23 191.2 m E Sg      2013/02/02 08:52:43.3   0.5                          T                2.2  .21 Ml 1.6         5185415
SSF   001.26 063.7 m E Pn      2013/02/02 08:52:26.2   0.0                          T                                        5185408
SSF   001.26 063.7 m E Pg      2013/02/02 08:52:26.8  -0.5                          T                                        5195842
SSF   001.26 063.7 m E Sg      2013/02/02 08:52:43.3  -0.2                          T                2.5  .29 Ml 1.9         5185411
MFF   001.38 274.3 m E Pn      2013/02/02 08:52:27.9   0.0                          T                                        5185422
MFF   001.38 274.3 m E Pg      2013/02/02 08:52:29.6   0.1                          T                                        5195833
MFF   001.38 274.3 m E Sg      2013/02/02 08:52:47.5   0.0                          T                3.8  .23 Ml 2.4         5185417
SMF   001.38 083.8 m E Pn      2013/02/02 08:52:28.2   0.4                          T                                        5185421
SMF   001.38 083.8 m E Pg      2013/02/02 08:52:29.7   0.3                          T                                        5185420
SMF   001.38 083.8 m E Sg      2013/02/02 08:52:47.1  -0.1                          T                2.2  .20 Ml 2.0         5185416
CAF   001.60 174.7 m E Pn      2013/02/02 08:52:30.5  -0.3                          T                                        5185413
CAF   001.60 174.7 m E Pg      2013/02/02 08:52:33.4   0.0                          T                                        5195843
CAF   001.60 174.7 m E Sg      2013/02/02 08:52:53.9  -0.2                          T                1.1  .19 Ml 1.9         5185412
LOR   001.57 060.5 m E Pn      2013/02/02 08:52:30.7   0.3 241.2  -0.8              T                                        5185409
LOR   001.57 060.5 m E Pg      2013/02/02 08:52:32.6  -0.4                          T                                        5195837
LOR   001.57 060.5 m E Sg      2013/02/02 08:52:52.7  -0.5                          T                1.2  .21 Ml 1.8         5185410
LFF   001.76 206.8 m E Pg      2013/02/02 08:52:36.4   0.0                          T                                        5195844
LFF   001.76 206.8 m E Sg      2013/02/02 08:52:59.1   0.0                          T                3.5  .37 Ml 2.0         5195845

.
