EVENT     295285
    Date      Time       Latitude Longitude    Depth    Ndef Nsta Gap    Mag1  N    Mag2  N    Mag3  N   Author         ID
       rms   OT_Error      Smajor Sminor Az        Err   mdist  Mdist     Err        Err        Err      Quality

2013/04/03 10:07:43.0     45.6367    3.4220       .0 f    27   14 069  Ml 2.4 11  Md 2.2  1              bulletin    295385
                                                                                                         _ldg
      0.21   +-  0.03        .7     .4   92.30 +-  0.0    0.31   2.45   +-0.3      +-                    m i km

FRANCE
Sta     Dist  EvAz     Phase      Date       Time     TRes  Azim  AzRes  Slow  SRes Def   SNR       Amp   Per   Mag1   Mag2       ID
BGF   001.00 336.7 m E Pg      2013/04/03 10:08:02.3   0.2                          T   001.0                                5243781
BGF   001.00 336.7 m E Sg      2013/04/03 10:08:15.4   0.0                          T   001.0       74.8  .42 Ml 3.1         5243784
SMF   001.05 016.0 m E Pg      2013/04/03 10:08:03.1   0.1                          T                                        5250261
SMF   001.05 016.0 m E Sg      2013/04/03 10:08:16.9   0.1                          T               32.4  .48 Ml 2.7         5243800
TCF   001.07 308.1 m E Pg      2013/04/03 10:08:03.3   0.0                          T                                        5250264
TCF   001.07 308.1 m E Sg      2013/04/03 10:08:17.5   0.1                          T   001.0       19.9  .48 Ml 2.5         5243792
TCF   001.07 308.1 m E Sn      2013/04/03 10:08:18.7   0.1                          T                                        5250265
AVF   001.16 357.6 m E Pg      2013/04/03 10:08:04.6  -0.3                          T   001.0                                5243779
AVF   001.16 357.6 m E Sn      2013/04/03 10:08:20.7   0.0                          T   001.0       12.2  .48 Ml 2.3         5243780
VIVF  001.18 131.0 m E Pg      2013/04/03 10:08:05.3   0.0                          T   001.0                                5243794
VIVF  001.18 131.0 m E Sn      2013/04/03 10:08:21.3   0.0                          T   001.0       23.2  .44 Ml 2.6         5243796
CAF   001.19 233.9 m E Pg      2013/04/03 10:08:05.6  -0.1                          T                                        5243801
CAF   001.19 233.9 m E Sg      2013/04/03 10:08:21.4   0.1                          T               10.3  .40 Ml 2.3         5243804
RJF   001.38 256.8 m E Pn      2013/04/03 10:08:08.0   0.0                          T                                        5243798
RJF   001.38 256.8 m E Pg      2013/04/03 10:08:09.3   0.2                          T                                        5250257
RJF   001.38 256.8 m E Sg      2013/04/03 10:08:27.3   0.2                          T               12.0  .50 Ml 2.0         5243797
SSF   001.43 002.3 m E Pg      2013/04/03 10:08:09.9   0.0                          T                                        5250263
SSF   001.43 002.3 m E Sg      2013/04/03 10:08:28.5   0.0                          T   001.0        7.0  .26 Ml 2.5         5243791
LASF  001.59 168.6 m E Pg      2013/04/03 10:08:13.0   0.1                          T                                        5243802
LASF  001.59 168.6 m E Sg      2013/04/03 10:08:33.7   0.0                          T                6.6  .36 Ml 2.3         5243803
LOR   001.66 010.3 m E Pg      2013/04/03 10:08:14.2   0.0 193.3  2.6               T   001.0                                5243786
LOR   001.66 010.3 m E Sg      2013/04/03 10:08:35.9   0.1                          T   001.0        3.7  .28 Ml 2.2         5243787
HYF   001.72 341.9 m E Pg      2013/04/03 10:08:15.1  -0.2                          T                                        5250259
HYF   001.72 341.9 m E Sg      2013/04/03 10:08:37.9   0.2                          T                                        5250260
LFF   002.02 250.7 m E Pg      2013/04/03 10:08:20.8   0.0                          T                                        5250258
MTLF  002.45 201.0 m E Pg      2013/04/03 10:08:28.7  -0.1                          T                                        5250256
CABF  002.09 061.3 m E Sg      2013/04/03 10:08:49.7   0.2                          T                4.5  .40 Ml 2.3         5250262

.
EVENT     295278
    Date      Time       Latitude Longitude    Depth    Ndef Nsta Gap    Mag1  N    Mag2  N    Mag3  N   Author         ID
       rms   OT_Error      Smajor Sminor Az        Err   mdist  Mdist     Err        Err        Err      Quality

2013/04/03 11:11:02.4     46.3115     .4142      2.0      64   24 103  Ml 2.5 23  Md 2.4  4              bulletin    295378
                                                                                                         _ldg
      0.84   +-  0.05       1.3     .8   36.78 +-  0.0    0.48   4.08   +-0.2      +-0.3                 m i ke

FRANCE
Sta     Dist  EvAz     Phase      Date       Time     TRes  Azim  AzRes  Slow  SRes Def   SNR       Amp   Per   Mag1   Mag2       ID
MFF   000.48 307.1 m E Pg      2013/04/03 11:11:11.8   0.2                          T   001.0                                5243467
MFF   000.48 307.1 m E Sg      2013/04/03 11:11:18.5   0.6                          T   001.0       25.3  .19        Md 2.6  5243468
RJF   001.27 142.2 m E Pn      2013/04/03 11:11:25.5   0.1                          T   001.0                                5243445
RJF   001.27 142.2 m E Pg      2013/04/03 11:11:26.0   0.0                          T                                        5250298
RJF   001.27 142.2 m E Sn      2013/04/03 11:11:42.1   0.1                          T   001.0        9.6  .18 Ml 2.3 Md 2.6  5243446
TCF   001.25 090.4 m E Pg      2013/04/03 11:11:26.1   0.4                          T   001.0                                5243472
TCF   001.25 090.4 m E Sn      2013/04/03 11:11:41.9   0.4                          T   001.0       13.4  .16 Ml 2.9 Md 2.1  5243473
LFF   001.39 170.4 m E Pg      2013/04/03 11:11:28.3   0.0                          T   001.0                                5243463
LFF   001.39 170.4 m E Sn      2013/04/03 11:11:45.1   0.2                          T   001.0       31.9  .40 Ml 2.7         5243464
LFF   001.39 170.4 m E Sg      2013/04/03 11:11:46.6   0.3                          T               31.1  .38 Ml 2.7         5250266
CAF   001.81 139.5 m E Pn      2013/04/03 11:11:32.8   0.0                          T   001.0                                5243451
CAF   001.81 139.5 m E Pg      2013/04/03 11:11:35.5  -0.5                          T   001.0                                5243452
CAF   001.81 139.5 m E Sn      2013/04/03 11:11:55.0   0.1                          T                                        5243613
CAF   001.81 139.5 m E Sg      2013/04/03 11:11:59.4   0.1                          T   001.0        4.2  .20 Ml 2.5         5243453
BGF   001.70 080.8 m E Pg      2013/04/03 11:11:34.3   0.3                          T   001.0                                5243449
BGF   001.70 080.8 m E Sg      2013/04/03 11:11:55.5  -0.4                          T   001.0       22.5  .36 Ml 2.9         5243450
AVF   002.08 075.6 m E Pn      2013/04/03 11:11:35.9  -0.6                          T   001.0                                5243447
AVF   002.08 075.6 m E Sn      2013/04/03 11:12:01.2  -0.3                          T   001.0        2.9  .24 Ml 2.3         5243448
AVF   002.08 075.6 m E Sg      2013/04/03 11:12:07.4  -0.5                          T                                        5243638
SSF   002.26 069.5 m E Pn      2013/04/03 11:11:38.6  -0.3                          T                                        5243635
SSF   002.26 069.5 m E Pg      2013/04/03 11:11:43.7  -0.5                          T                                        5243634
SSF   002.26 069.5 m E Sn      2013/04/03 11:12:05.2  -0.5                          T   001.0                                5243470
SSF   002.26 069.5 m E Sg      2013/04/03 11:12:12.6  -0.7                          T   001.0        2.3  .24 Ml 2.3         5243471
GRR   002.25 337.9 m E Pn      2013/04/03 11:11:39.1   0.3                          T                                        5243628
GRR   002.25 337.9 m E Pg      2013/04/03 11:11:44.1   0.0                          T   001.0                                5243457
GRR   002.25 337.9 m E Sn      2013/04/03 11:12:05.4  -0.1                          T                                        5243629
GRR   002.25 337.9 m E Sg      2013/04/03 11:12:12.9  -0.2                          T   001.0        4.0  .20 Ml 2.4         5243458
LDF   002.31 351.1 m E Pn      2013/04/03 11:11:40.1   0.5                          T                                        5243630
LDF   002.31 351.1 m E Pg      2013/04/03 11:11:45.5   0.2                          T   001.0                                5243460
LDF   002.31 351.1 m E Sn      2013/04/03 11:12:06.9  -0.1                          T   001.0                                5243461
LDF   002.31 351.1 m E Sg      2013/04/03 11:12:15.2   0.2                          T   001.0          4  .28 Ml 2.4         5243462
FLN   002.53 346.4 m E Pn      2013/04/03 11:11:42.1  -0.4 169.4  3.6               T                                        5243632
FLN   002.53 346.4 m E Pg      2013/04/03 11:11:48.8  -0.4 165.3  -0.5              T                                        5243631
FLN   002.53 346.4 m E Sn      2013/04/03 11:12:12.4   0.3 163.1  -2.6              T                                        5243633
FLN   002.53 346.4 m E Sg      2013/04/03 11:12:21.4  -0.3 167.8  2.1               T   001.0        2.8  .20 Ml 2.3         5243456
SMF   002.39 080.7 m E Pg      2013/04/03 11:11:46.9   0.1                          T                                        5243642
SMF   002.39 080.7 m E Sg      2013/04/03 11:12:17.1  -0.4                          T   001.0        4.9  .44 Ml 2.3         5243469
QUIF  002.92 304.6 m E Pn      2013/04/03 11:11:48.3   0.3                          T                                        5243640
QUIF  002.92 304.6 m E Pg      2013/04/03 11:11:56.6   0.1                          T                                        5243639
QUIF  002.92 304.6 m E Sg      2013/04/03 11:12:33.6  -0.5                          T   001.0          8  .64 Ml 2.5         5243476
LOR   002.55 066.7 m E Pg      2013/04/03 11:11:49.4  -0.4 250.4  1.2               T   001.0                                5243465
LOR   002.55 066.7 m E Sg      2013/04/03 11:12:21.8  -0.8 246.9  -2.4              T   001.0        3.9  .28 Ml 2.5         5243466
ROSF  003.22 310.3 m E Pn      2013/04/03 11:11:52.3   0.2                          T                                        5243626
ROSF  003.22 310.3 m E Pg      2013/04/03 11:12:02.1   0.0                          T                                        5243627
ROSF  003.22 310.3 m E Sn      2013/04/03 11:12:29.1   0.3                          T                                        5243625
ROSF  003.22 310.3 m E Sg      2013/04/03 11:12:42.7  -0.8                          T                                        5243624
SGMF  002.80 314.9 m E Pg      2013/04/03 11:11:53.7  -0.7                          T                                        5243641
SGMF  002.80 314.9 m E Sg      2013/04/03 11:12:30.1  -0.3                          T   001.0        3.2  .32 Ml 2.4         5243477
HYF   001.80 057.1 m E Sg      2013/04/03 11:11:58.6  -0.5                          T                                        5250295
MTLF  003.24 156.0 m E Sg      2013/04/03 11:12:44.7   0.9                          T   001.0        2.5  .48 Ml 2.2         5243475
EPF   003.28 181.0 m E Sg      2013/04/03 11:12:45.8   0.4                          T   001.0        1.6  .18 Ml 2.4         5243455
LASF  003.30 131.3 m E Sg      2013/04/03 11:12:46.3   0.3                          T   001.0        2.5  .28 Ml 2.4         5243459
VIVF  003.33 114.4 m E Sg      2013/04/03 11:12:46.8   0.1                          T   001.0        1.3  .24 Ml 2.2         5243478
SJPF  003.40 200.7 m E Sg      2013/04/03 11:12:49.4   0.2                          T                1.1  .23 Ml 2.2         5250296
ETSF  003.48 191.9 m E Sg      2013/04/03 11:12:50.7  -0.9                          T   001.0        1.7  .32 Ml 2.3         5243474
ORIF  004.08 108.0 m E Sg      2013/04/03 11:13:10.2  -0.1                          T                3.8  .38 Ml 2.7         5250297

.
EVENT     295318
    Date      Time       Latitude Longitude    Depth    Ndef Nsta Gap    Mag1  N    Mag2  N    Mag3  N   Author         ID
       rms   OT_Error      Smajor Sminor Az        Err   mdist  Mdist     Err        Err        Err      Quality

2013/04/03 11:51:37.0     43.0534    -.3673     10.0      19    7 101  Ml 2.0  5  Md 2.1  3              bulletin    295418
                                                                                                         _ldg
      0.31   +-  0.05       1.5     .9  168.96 +-  0.0    0.02   3.24   +-0.2      +-0.1                 m i ke

PYRENEES
Sta     Dist  EvAz     Phase      Date       Time     TRes  Azim  AzRes  Slow  SRes Def   SNR       Amp   Per   Mag1   Mag2       ID
ETSF  000.21 222.4 m E Pg      2013/04/03 11:51:41.5   0.0                          T                                        5246161
ETSF  000.21 222.4 m E Sg      2013/04/03 11:51:44.7   0.0                          T               12.1  .16        Md 2.2  5246160
EPF   000.52 092.3 m E Pg      2013/04/03 11:51:47.0  -0.1                          T                                        5246159
EPF   000.52 092.3 m E Sg      2013/04/03 11:51:54.6   0.7                          T                5.3  .17        Md 2.1  5246158
SJPF  000.63 275.7 m E Pg      2013/04/03 11:51:49.0   0.0                          T                                        5246157
SJPF  000.63 275.7 m E Sg      2013/04/03 11:51:57.3   0.0                          T                4.6  .23        Md 2.2  5246156
MTLF  001.91 080.5 m E Pn      2013/04/03 11:52:07.9   0.0                          T                                        5246171
MTLF  001.91 080.5 m E Sn      2013/04/03 11:52:30.4  -0.1                          T                                        5246170
MTLF  001.91 080.5 m E Sg      2013/04/03 11:52:37.3   0.1                          T                1.1  .26 Ml 1.8         5246169
LFF   002.05 022.6 m E Pn      2013/04/03 11:52:09.6  -0.2                          T                                        5246164
LFF   002.05 022.6 m E Pg      2013/04/03 11:52:15.2   0.2                          T                                        5246163
LFF   002.05 022.6 m E Sg      2013/04/03 11:52:41.5   0.1                          T                3.7  .30 Ml 2.1         5246162
CAF   002.57 042.3 m E Pn      2013/04/03 11:52:17.0   0.2                          T                                        5246166
CAF   002.57 042.3 m E Sg      2013/04/03 11:52:56.9  -0.7                          T                 .9  .16 Ml 2.1         5246165
LASF  003.24 070.1 m E Pn      2013/04/03 11:52:26.1   0.2                          T                                        5246168
LASF  003.24 070.1 m E Sg      2013/04/03 11:53:17.9  -0.6                          T                1.4  .29 Ml 2.2         5246167

.
