EVENT     278458
    Date      Time       Latitude Longitude    Depth    Ndef Nsta Gap    Mag1  N    Mag2  N    Mag3  N   Author         ID
       rms   OT_Error      Smajor Sminor Az        Err   mdist  Mdist     Err        Err        Err      Quality

2012/06/20 09:12:49.6     47.0507     .1540      4.0 f    83   29 087  Ml 3.1 28  Md 3.2  1              bulletin    278558
                                                                                                         _ldg
      0.48   +-  0.06       1.4    1.0   44.27 +-  0.0    0.49   4.90   +-0.2      +-                    m i ke

FRANCE
Sta     Dist  EvAz     Phase      Date       Time     TRes  Azim  AzRes  Slow  SRes Def   SNR       Amp   Per   Mag1   Mag2       ID
MFF   000.49 204.8 m E Pg      2012/06/20 09:12:59.6   0.5                          T   001.0                                5007662
MFF   000.49 204.8 m E Sg      2012/06/20 09:13:06.4   0.8                          T   001.0      148.8  .24        Md 3.2  5007663
GRR   001.50 333.3 m E Pn      2012/06/20 09:13:16.1   0.4                          T   001.0                                5007652
GRR   001.50 333.3 m E Pg      2012/06/20 09:13:17.8   0.2                          T                                        5022026
GRR   001.50 333.3 m E Sn      2012/06/20 09:13:33.9  -0.6                          T   001.0       22.5  .16 Ml 3.0         5007653
GRR   001.50 333.3 m E Sg      2012/06/20 09:13:37.1   0.0                          T               25.0  .18 Ml 3.0         5007768
LDF   001.56 353.2 m E Pn      2012/06/20 09:13:16.6   0.2                          T                                        5007747
LDF   001.56 353.2 m E Pg      2012/06/20 09:13:18.7   0.1                          T   001.0                                5007654
LDF   001.56 353.2 m E Sg      2012/06/20 09:13:39.0   0.3                          T               42.3  .20 Ml 3.4         5007769
TCF   001.61 117.6 m E Pn      2012/06/20 09:13:17.4   0.2                          T                                        5007765
TCF   001.61 117.6 m E Pg      2012/06/20 09:13:19.6   0.0                          T   001.0                                5007668
TCF   001.61 117.6 m E Sn      2012/06/20 09:13:37.5   0.4                          T   001.0       18.8  .20 Ml 3.1         5007670
FLN   001.77 346.2 m E Pn      2012/06/20 09:13:20.1   0.8                          T                                        5007746
FLN   001.77 346.2 m E Pg      2012/06/20 09:13:23.0   0.5                          T   001.0                                5007649
FLN   001.77 346.2 m E Sn      2012/06/20 09:13:40.5  -0.3                          T   001.0                                5007650
FLN   001.77 346.2 m E Sg      2012/06/20 09:13:45.7   0.5                          T   001.0       42.4  .22 Ml 3.3         5007651
BGF   001.91 103.9 m E Pn      2012/06/20 09:13:21.6   0.3                          T                                        5007744
BGF   001.91 103.9 m E Pg      2012/06/20 09:13:25.7   0.4                          T   001.0                                5007643
BGF   001.91 103.9 m E Sg      2012/06/20 09:13:48.2  -1.7                          T   001.0       94.7  .36 Ml 3.6         5007644
HYF   001.71 081.8 m E Pg      2012/06/20 09:13:21.8   0.3                          T                                        5007760
HYF   001.71 081.8 m E Sn      2012/06/20 09:13:39.3  -0.3                          T                                        5007761
HYF   001.71 081.8 m E Sg      2012/06/20 09:13:42.3  -1.2                          T                                        5007762
RJF   001.99 151.1 m E Pn      2012/06/20 09:13:22.3   0.0                          T   001.0                                5007638
RJF   001.99 151.1 m E Pg      2012/06/20 09:13:26.4  -0.2                          T                                        5007759
RJF   001.99 151.1 m E Sn      2012/06/20 09:13:45.9  -0.2                          T   001.0                                5007639
RJF   001.99 151.1 m E Sg      2012/06/20 09:13:51.7  -0.5                          T   001.0       35.2  .20 Ml 3.1         5007640
SGMF  002.19 304.3 m E Pn      2012/06/20 09:13:24.5  -0.5                          T                                        5007748
SGMF  002.19 304.3 m E Pg      2012/06/20 09:13:29.7  -0.7                          T   001.0                                5007679
SGMF  002.19 304.3 m E Sn      2012/06/20 09:13:46.5  -4.5                          T   001.0                                5007680
SGMF  002.19 304.3 m E Sg      2012/06/20 09:13:57.7  -0.9                          T   001.0       16.5  .22 Ml 3.1         5007681
LFF   002.15 168.8 m E Pn      2012/06/20 09:13:24.7   0.2                          T                                        5007743
LFF   002.15 168.8 m E Pg      2012/06/20 09:13:30.0   0.4                          T   001.0                                5007656
LFF   002.15 168.8 m E Sn      2012/06/20 09:13:49.7  -0.3                          T   001.0                                5007657
LFF   002.15 168.8 m E Sg      2012/06/20 09:13:57.0  -0.3                          T   001.0       54.3  .26 Ml 3.4         5007658
AVF   002.21 095.6 m E Pn      2012/06/20 09:13:25.3   0.0                          T   001.0                                5007641
AVF   002.21 095.6 m E Pg      2012/06/20 09:13:31.1   0.4                          T                                        5007764
AVF   002.21 095.6 m E Sn      2012/06/20 09:13:56.2   4.8                          T   001.0       13.5  .20 Ml 3.1         5007642
SSF   002.29 088.5 m E Pn      2012/06/20 09:13:26.4   0.0                          T   001.0                                5007665
SSF   002.29 088.5 m E Pg      2012/06/20 09:13:32.9   0.7                          T                                        5007766
SSF   002.29 088.5 m E Sg      2012/06/20 09:13:58.9  -2.8                          T   001.0       30.3  .44 Ml 3.2         5007667
QUIF  002.41 292.3 m E Pn      2012/06/20 09:13:28.4   0.4                          T   001.0                                5007675
QUIF  002.41 292.3 m E Pg      2012/06/20 09:13:34.6   0.2                          T                                        5022020
QUIF  002.41 292.3 m E Sg      2012/06/20 09:14:05.3  -0.1                          T   001.0       31.9  .32 Ml 3.3         5007676
LOR   002.54 083.7 m E Pn      2012/06/20 09:13:29.5  -0.3                          T   001.0                                5007659
LOR   002.54 083.7 m E Pg      2012/06/20 09:13:37.1   0.3                          T                                        5022027
LOR   002.54 083.7 m E Sn      2012/06/20 09:13:58.3  -1.0                          T   001.0                                5007660
LOR   002.54 083.7 m E Sg      2012/06/20 09:14:06.6  -2.8                          T   001.0       28.7  .26 Ml 3.4         5007661
CAF   002.51 147.2 m E Pn      2012/06/20 09:13:29.8   0.4                          T   001.0                                5007645
CAF   002.51 147.2 m E Pg      2012/06/20 09:13:36.0  -0.2                          T   001.0                                5007646
CAF   002.51 147.2 m E Sn      2012/06/20 09:13:57.4  -1.2                          T   001.0                                5007647
CAF   002.51 147.2 m E Sg      2012/06/20 09:14:08.1  -0.4                          T   001.0       15.4  .20 Ml 3.2         5007648
ROSF  002.65 300.3 m E Pn      2012/06/20 09:13:30.6  -0.7                          T                                        5007767
ROSF  002.65 300.3 m E Pg      2012/06/20 09:13:37.0  -0.8                          T   001.0                                5007677
ROSF  002.65 300.3 m E Sg      2012/06/20 09:14:11.9  -0.9                          T   001.0        8.7  .20 Ml 3.0         5007678
SMF   002.56 097.8 m E Pn      2012/06/20 09:13:31.4   1.3                          T                                        5007745
SMF   002.56 097.8 m E Pg      2012/06/20 09:13:36.3  -0.9                          T   001.0                                5007664
SMF   002.56 097.8 m E Sg      2012/06/20 09:14:06.6  -3.6                          T               12.6  .16 Ml 3.2         5007763
SFTF  003.50 068.9 m E Pn      2012/06/20 09:13:43.3   0.4                          T                                        5007742
SFTF  003.50 068.9 m E Sn      2012/06/20 09:14:21.9  -0.4                          T                9.0  .32 Ml 3.0         5007741
MEZF  003.61 064.5 m E Pn      2012/06/20 09:13:44.4   0.0                          T                                        5007736
MEZF  003.61 064.5 m E Pg      2012/06/20 09:13:56.2  -0.3                          T                                        5007735
MEZF  003.61 064.5 m E Sg      2012/06/20 09:14:42.5  -0.3                          T               16.6  .28 Ml 3.3         5007734
LASF  003.95 137.5 m E Pn      2012/06/20 09:13:48.8  -0.3                          T                                        5007752
LASF  003.95 137.5 m E Sn      2012/06/20 09:14:32.9  -0.2                          T                                        5007751
LASF  003.95 137.5 m E Sg      2012/06/20 09:14:53.3  -0.2                          T               11.8  .64 Ml 2.9         5007750
MTLF  003.99 157.8 m E Pn      2012/06/20 09:13:49.1  -0.4                          T                                        5007754
MTLF  003.99 157.8 m E Sn      2012/06/20 09:14:33.8  -0.1                          T                                        5007753
MTLF  003.99 157.8 m E Sg      2012/06/20 09:14:54.7   0.1                          T   001.0        2.8  .22 Ml 2.8         5007674
EPF   004.02 178.1 m E Pn      2012/06/20 09:13:49.7  -0.4                          T                                        5007755
EPF   004.02 178.1 m E Sn      2012/06/20 09:14:32.6  -2.3                          T               10.1  .38 Ml 3.1         5007756
SJPF  004.06 194.4 m E Pn      2012/06/20 09:13:51.0   0.5                          T   001.0                                5007682
SJPF  004.06 194.4 m E Sn      2012/06/20 09:14:35.4  -0.2                          T                                        5007758
SJPF  004.06 194.4 m E Sg      2012/06/20 09:14:56.3  -0.5                          T   001.0        3.8  .32 Ml 2.7         5007683
THEF  004.12 071.3 m E Pn      2012/06/20 09:13:51.1  -0.2                          T                                        5007740
THEF  004.12 071.3 m E Sg      2012/06/20 09:14:57.7  -1.1                          T               10.8  .36 Ml 3.2         5007739
ETSF  004.18 187.2 m E Pn      2012/06/20 09:13:52.5   0.2                          T                                        5007757
ETSF  004.18 187.2 m E Sg      2012/06/20 09:15:00.2  -0.6                          T   001.0        3.0  .28 Ml 2.7         5007672
HINF  004.61 078.0 m E Pn      2012/06/20 09:13:58.1   0.0                          T                                        5007738
HINF  004.61 078.0 m E Pg      2012/06/20 09:14:15.1   0.1                          T                                        5007737
HINF  004.61 078.0 m E Sg      2012/06/20 09:15:13.4  -0.7                          T   001.0        8.1  .38 Ml 3.1         5007673
VIVF  003.84 123.2 m E Pg      2012/06/20 09:14:01.1   0.4                          T                                        5007749
CABF  004.10 094.0 m E Sg      2012/06/20 09:14:57.8  -0.3                          T   001.0       14.5  .82 Ml 2.9         5007671
SMRF  004.90 126.9 m E Sg      2012/06/20 09:15:24.3   1.3                          T   001.0        2.9  .60 Ml 2.5         5007685

.
EVENT     278466
    Date      Time       Latitude Longitude    Depth    Ndef Nsta Gap    Mag1  N    Mag2  N    Mag3  N   Author         ID
       rms   OT_Error      Smajor Sminor Az        Err   mdist  Mdist     Err        Err        Err      Quality

2012/06/20 09:57:46.1     45.0948    2.1947       .0 f    17    9 071  Ml 2.1  8  Md 2.4  1              bulletin    278566
                                                                                                         _ldg
      0.30   +-  0.07       1.4    1.2   73.80 +-  0.0    0.19   1.88   +-0.2      +-                    m i km

FRANCE
Sta     Dist  EvAz     Phase      Date       Time     TRes  Azim  AzRes  Slow  SRes Def   SNR       Amp   Per   Mag1   Mag2       ID
CAF   000.19 208.7 m E Pg      2012/06/20 09:57:49.2  -1.0                          T                                        5007947
CAF   000.19 208.7 m E Sg      2012/06/20 09:57:52.0  -1.1                          T              180.5  .72        Md 2.4  5007954
RJF   000.52 293.8 m E Pg      2012/06/20 09:57:56.4   0.1                          T                                        5022042
RJF   000.52 293.8 m E Sg      2012/06/20 09:58:03.6   0.2                          T               63.1  .88                5007952
LFF   001.04 262.0 m E P       2012/06/20 09:58:07.7  -0.1                          T                                        5022040
LFF   001.04 262.0 m E Sg      2012/06/20 09:58:19.6   0.0                          T               23.2  .58 Ml 2.3         5022041
TCF   001.19 000.5 m E Pg      2012/06/20 09:58:08.9   0.2                          T                                        5022039
TCF   001.19 000.5 m E Sg      2012/06/20 09:58:24.6   0.2                          T                5.9  .34 Ml 2.2         5007951
LASF  001.56 130.0 m E Pn      2012/06/20 09:58:13.7   0.1                          T                                        5007943
LASF  001.56 130.0 m E Pg      2012/06/20 09:58:15.5   0.0                          T                                        5022034
LASF  001.56 130.0 m E Sg      2012/06/20 09:58:36.3   0.4                          T                2.7  .23 Ml 2.1         5022036
BGF   001.53 017.1 m E Pg      2012/06/20 09:58:14.7  -0.1                          T                                        5022037
BGF   001.53 017.1 m E Sg      2012/06/20 09:58:34.8  -0.1                          T                7.6  .32 Ml 2.4         5022029
VIVF  001.78 096.9 m E Pg      2012/06/20 09:58:19.3  -0.1                          T                                        5022035
VIVF  001.78 096.9 m E Sn      2012/06/20 09:58:38.7   0.1                          T                1.3  .22 Ml 1.9         5007958
MTLF  001.75 179.5 m E Sg      2012/06/20 09:58:42.4   0.6                          T                1.7  .29 Ml 1.9         5007956
AVF   001.88 025.1 m E Sg      2012/06/20 09:58:45.1  -0.5                          T                1.6  .31 Ml 1.9         5022043

.
EVENT     278469
    Date      Time       Latitude Longitude    Depth    Ndef Nsta Gap    Mag1  N    Mag2  N    Mag3  N   Author         ID
       rms   OT_Error      Smajor Sminor Az        Err   mdist  Mdist     Err        Err        Err      Quality

2012/06/20 12:10:41.2     47.6195    8.0874       .0 f    13    4 080  Ml 2.1  5  Md 2.1  1              bulletin    278569
                                                                                                         _ldg
      0.21   +-  0.06       1.3    1.2  170.78 +-  0.0    0.09   1.70   +-0.3      +-                    m i km

SWITZERLAND
Sta     Dist  EvAz     Phase      Date       Time     TRes  Azim  AzRes  Slow  SRes Def   SNR       Amp   Per   Mag1   Mag2       ID
HINF  000.86 283.8 m E Pg      2012/06/20 12:10:57.6   0.0                          T                                        5007969
HINF  000.86 283.8 m E Pn      2012/06/20 12:10:58.7  -0.4                          T                                        5007963
HINF  000.86 283.8 m E Sg      2012/06/20 12:11:09.0   0.0                          T               20.0  .38 Ml 2.5         5007965
CDF   000.96 325.8 m E Pg      2012/06/20 12:10:59.9   0.2                          T                                Md 2.1  5007961
CDF   000.96 325.8 m E Sg      2012/06/20 12:11:12.5   0.1                          T                5.6  .26 Ml 2.2         5007960
HAU   001.23 288.9 m E Pg      2012/06/20 12:11:04.5  -0.1                          T                                        5007967
HAU   001.23 288.9 m E Sn      2012/06/20 12:11:20.5  -0.4                          T                4.9  .27 Ml 2.0         5007966
CABF  001.70 234.3 m E Pn      2012/06/20 12:11:10.7   0.0                          T                                        5007962
CABF  001.70 234.3 m E Pg      2012/06/20 12:11:13.1  -0.1                          T                                        5007968
CABF  001.70 234.3 m E Sn      2012/06/20 12:11:31.7  -0.3                          T                  1  .19 Ml 1.8         5007964
CABF  001.70 234.3 m E Sg      2012/06/20 12:11:35.6   0.3                          T                5.0  .54 Ml 2.1         5022044

.
EVENT     278477
    Date      Time       Latitude Longitude    Depth    Ndef Nsta Gap    Mag1  N    Mag2  N    Mag3  N   Author         ID
       rms   OT_Error      Smajor Sminor Az        Err   mdist  Mdist     Err        Err        Err      Quality

2012/06/20 15:21:46.6     45.2809    6.5130      2.0      21    5 161  Ml 1.9  1  Md 1.5  2              bulletin    278577
                                                                                                         _ldg
      0.30   +-  0.05       1.1     .7  125.42 +-  0.0    0.27   1.72   +-         +-0.0                 m i ke

FRANCE
Sta     Dist  EvAz     Phase      Date       Time     TRes  Azim  AzRes  Slow  SRes Def   SNR       Amp   Per   Mag1   Mag2       ID
LPG   000.27 037.7 m E Pg      2012/06/20 15:21:52.5   0.1                          T                                        5008695
LPG   000.27 037.7 m E Sg      2012/06/20 15:21:56.3   0.2                          T                6.3  .24        Md 1.6  5008691
LPL   000.28 033.2 m E Pg      2012/06/20 15:21:52.5   0.1                          T                                        5008696
LPL   000.28 033.2 m E Sg      2012/06/20 15:21:56.2   0.0                          T                8.1  .20        Md 1.5  5008692
ORIF  000.58 231.3 m E Pg      2012/06/20 15:21:57.5  -0.1                          T                                        5008694
ORIF  000.58 231.3 m E Sg      2012/06/20 15:22:04.9  -0.4                          T                6.2  .20                5008693
MBDF  000.58 161.6 m E Pg      2012/06/20 15:21:57.8  -0.1                          T                                        5008689
MBDF  000.58 161.6 m E Sg      2012/06/20 15:22:05.2  -0.4                          T                2.9  .22                5008690
FRF   001.72 176.8 m E Sg      2012/06/20 15:22:40.7  -0.2                          T                2.5  .42 Ml 1.9         5022073

.
