EVENT     262707
    Date      Time       Latitude Longitude    Depth    Ndef Nsta Gap    Mag1  N    Mag2  N    Mag3  N   Author         ID
       rms   OT_Error      Smajor Sminor Az        Err   mdist  Mdist     Err        Err        Err      Quality

2011/08/18 16:20:55.7     43.1157    -.4644      2.0      84   18 054  Ml 2.8 18  Md 2.8  3              js067245    262707

      0.50   +-  0.05       1.1     .8  151.13 +-  0.0    0.07   5.65   +-0.3      +-0.0                 m i ke

PYRENEES
Sta     Dist  EvAz     Phase      Date       Time     TRes  Azim  AzRes  Slow  SRes Def   SNR       Amp   Per   Mag1   Mag2       ID
ETSF  000.23 197.8 m E Pg      2011/08/18 16:20:59.8  -0.6                          T   001.0                                4737979
ETSF  000.23 197.8 m E Sg      2011/08/18 16:21:02.7  -0.8                          T              462.2  .25        Md 2.8  4739198
SJPF  000.56 270.0 m E Pg      2011/08/18 16:21:06.3   0.0                          T   001.0                                4737982
SJPF  000.56 270.0 m E Sg      2011/08/18 16:21:14.0   0.3                          T               23.8  .24        Md 2.8  4739199
EPF   000.60 098.0 m E Pg      2011/08/18 16:21:07.0  -0.1                          T   001.0                                4737969
EPF   000.60 098.0 m E Sg      2011/08/18 16:21:15.9   1.0                          T   001.0       44.8  .22        Md 2.7  4737970
MTLF  001.97 082.5 m E Pg      2011/08/18 16:21:32.5   0.1                          T   001.0                                4737980
MTLF  001.97 082.5 m E Sg      2011/08/18 16:21:57.5  -0.3                          T   001.0        8.9  .25 Ml 2.7         4737981
LFF   002.02 025.1 m E Pg      2011/08/18 16:21:33.7   0.5                          T   001.0                                4737974
LFF   002.02 025.1 m E Sg      2011/08/18 16:22:00.0   0.7                          T   001.0       23.3  .21 Ml 3.1         4737975
RJF   002.61 032.4 m E Pg      2011/08/18 16:21:43.5  -0.6                          T   001.0                                4737961
RJF   002.61 032.4 m E Sg      2011/08/18 16:22:18.1   0.3                          T   001.0       10.0  .18 Ml 2.7         4737962
CAF   002.57 044.4 m E Pg      2011/08/18 16:21:44.1   0.6                          T   001.0                                4737967
CAF   002.57 044.4 m E Sg      2011/08/18 16:22:17.0   0.5                          T   001.0        7.7  .19 Ml 2.9         4737968
LASF  003.28 071.5 m E Pn      2011/08/18 16:21:46.8   0.6                          T                                        4739187
LASF  003.28 071.5 m E Sg      2011/08/18 16:22:39.0   0.2                          T                2.7  .30 Ml 2.4         4739197
MFF   003.49 003.6 m E Pg      2011/08/18 16:22:00.7   0.3                          T                                        4739196
MFF   003.49 003.6 m E Sg      2011/08/18 16:22:44.1  -1.2                          T   001.0        7.4  .31 Ml 3.1         4737976
TCF   003.70 030.1 m E Pg      2011/08/18 16:22:05.0   0.8                          T                                        4739194
TCF   003.70 030.1 m E Sn      2011/08/18 16:22:32.9  -0.7                          T   001.0                                4737977
TCF   003.70 030.1 m E Sg      2011/08/18 16:22:52.0   0.2                          T   001.0        3.0  .19 Ml 2.8         4737978
ROSF  005.58 340.3 m E Pn      2011/08/18 16:22:17.2  -0.2                          T                                        4739200
FLN   005.65 359.9 m E Pn      2011/08/18 16:22:19.5   1.1                          T   001.0                                4737971
FLN   005.65 359.9 m E Sn      2011/08/18 16:23:19.6  -0.4                          T   001.0          1  .20 Ml 2.6         4737972
BGF   004.17 033.2 m E Sn      2011/08/18 16:22:44.3  -0.4                          T   001.0                                4737965
BGF   004.17 033.2 m E Sg      2011/08/18 16:23:06.3  -0.1                          T   001.0       26.7  .38 Ml 3.5         4737966
AVF   004.56 035.1 m E Sn      2011/08/18 16:22:53.7  -0.5                          T   001.0                                4737963
AVF   004.56 035.1 m E Sg      2011/08/18 16:23:18.2  -0.5                          T   001.0        3.1  .30 Ml 2.8         4737964
VIVF  004.10 063.1 m E Sg      2011/08/18 16:23:03.2  -0.9                          T   001.0        1.4  .25 Ml 2.4         4737983
LOR   005.15 034.8 m E Sg      2011/08/18 16:23:37.7   0.5                          T                3.3  .34 Ml 2.9         4739193
GRR   005.28 357.1 m E Sg      2011/08/18 16:23:42.3   1.3                          T   001.0        1.4  .24 Ml 2.6         4737973
LDF   005.48 002.4 m E Sg      2011/08/18 16:23:47.2  -0.2                          T                 .6  .24 Ml 2.4         4739195

.
EVENT     262708
    Date      Time       Latitude Longitude    Depth    Ndef Nsta Gap    Mag1  N    Mag2  N    Mag3  N   Author         ID
       rms   OT_Error      Smajor Sminor Az        Err   mdist  Mdist     Err        Err        Err      Quality

2011/08/18 16:21:45.7     45.0862    6.0897      2.0      20    9 148  Ml 1.8  5  Md 1.9  3              js067245    262708

      1.02   +-  0.19       3.4    2.9  143.48 +-  0.0    0.22   1.78   +-0.3      +-0.1                 m i ke

FRANCE
Sta     Dist  EvAz     Phase      Date       Time     TRes  Azim  AzRes  Slow  SRes Def   SNR       Amp   Per   Mag1   Mag2       ID
ORIF  000.22 221.6 m E Pg      2011/08/18 16:21:49.3  -1.0                          T                                        4739215
ORIF  000.22 221.6 m E Sg      2011/08/18 16:21:53.1  -0.2                          T               13.0  .21        Md 2.0  4739208
MBDF  000.60 126.3 m E Pg      2011/08/18 16:21:57.2  -0.1                          T                                        4739221
MBDF  000.60 126.3 m E Sg      2011/08/18 16:22:05.4   0.2                          T                2.5  .21        Md 1.8  4739216
LPL   000.63 046.3 m E Pg      2011/08/18 16:21:57.7  -0.1                          T                                        4739220
LPL   000.63 046.3 m E Sg      2011/08/18 16:22:06.3   0.3                          T                4.2  .23        Md 1.9  4739214
LPG   000.62 048.4 m E Pg      2011/08/18 16:21:57.9   0.0                          T                                        4739213
LPG   000.62 048.4 m E Sg      2011/08/18 16:22:05.8  -0.2                          T                4.1  .27                4739205
VIVF  001.03 257.6 m E Pg      2011/08/18 16:22:06.1   1.1                          T                                        4739218
VIVF  001.03 257.6 m E Sg      2011/08/18 16:22:19.2   0.8                          T                3.2  .26 Ml 1.9         4739217
SMRF  001.17 198.5 m E Pg      2011/08/18 16:22:07.5  -0.1                          T                                        4739219
SMRF  001.17 198.5 m E Sg      2011/08/18 16:22:22.4  -0.3                          T                 .4  .17 Ml 1.3         4739204
SBF   001.56 141.3 m E Pg      2011/08/18 16:22:13.8  -1.0                          T                                        4739210
SBF   001.56 141.3 m E Sg      2011/08/18 16:22:36.5   1.6                          T                4.5  .36 Ml 2.2         4739209
FRF   001.58 165.1 m E Pg      2011/08/18 16:22:14.8  -0.2                          T                                        4739212
FRF   001.58 165.1 m E Sg      2011/08/18 16:22:35.9   0.5                          T                 .9  .20 Ml 1.7         4739203
LMR   001.78 170.1 m E Pg      2011/08/18 16:22:19.5   0.8                          T                                        4739211
LMR   001.78 170.1 m E Sg      2011/08/18 16:22:41.7   0.0                          T                1.2  .28 Ml 1.8         4739202

.
EVENT     262727
    Date      Time       Latitude Longitude    Depth    Ndef Nsta Gap    Mag1  N    Mag2  N    Mag3  N   Author         ID
       rms   OT_Error      Smajor Sminor Az        Err   mdist  Mdist     Err        Err        Err      Quality

2011/08/18 19:44:48.6     43.1441    -.3432      2.0      45    7 107  Ml 1.8  5  Md 1.9  3              js067245    262727

      0.45   +-  0.07       1.8    1.0  162.15 +-  0.0    0.27   2.54   +-0.1      +-0.1                 m i ke

PYRENEES
Sta     Dist  EvAz     Phase      Date       Time     TRes  Azim  AzRes  Slow  SRes Def   SNR       Amp   Per   Mag1   Mag2       ID
ETSF  000.29 212.9 m E Pg      2011/08/18 19:44:53.5  -0.9                          T                                        4739237
ETSF  000.29 212.9 m E Sg      2011/08/18 19:44:57.4  -1.0                          T                6.6  .18        Md 1.9  4739233
EPF   000.51 102.6 m E Pg      2011/08/18 19:44:58.2  -0.3                          T                                        4739236
EPF   000.51 102.6 m E Sg      2011/08/18 19:45:04.5  -0.8                          T                6.6  .27        Md 1.9  4739231
SJPF  000.65 267.6 m E Pg      2011/08/18 19:45:00.9   0.1                          T                                        4739235
SJPF  000.65 267.6 m E Sg      2011/08/18 19:45:08.3  -1.0                          T                3.1  .27        Md 1.7  4739232
MTLF  001.88 083.1 m E Pg      2011/08/18 19:45:24.1   0.4                          T                                        4739234
MTLF  001.88 083.1 m E Sg      2011/08/18 19:45:47.3  -0.5                          T                1.5  .31 Ml 1.9         4739230
LFF   001.96 023.1 m E Pg      2011/08/18 19:45:25.2   0.2                          T                                        4739223
LFF   001.96 023.1 m E Sg      2011/08/18 19:45:50.0  -0.2                          T                2.0  .29 Ml 1.9         4739226
CAF   002.49 043.4 m E Pg      2011/08/18 19:45:33.8  -1.0                          T                                        4739224
CAF   002.49 043.4 m E Sg      2011/08/18 19:46:07.0   0.2                          T                 .5  .18 Ml 1.8         4739225
RJF   002.54 031.1 m E Pg      2011/08/18 19:45:35.4  -0.3                          T                                        4739222
RJF   002.54 031.1 m E Sg      2011/08/18 19:46:08.9   0.5                          T                  1  .22 Ml 1.6         4739227

.
EVENT     262798
    Date      Time       Latitude Longitude    Depth    Ndef Nsta Gap    Mag1  N    Mag2  N    Mag3  N   Author         ID
       rms   OT_Error      Smajor Sminor Az        Err   mdist  Mdist     Err        Err        Err      Quality

2011/08/18 20:28:32.5     45.0250    7.3463      3.0 f    17    7 218  Ml 1.8  5  Md 2.0  3              js067245    262798

      0.33   +-  0.16       3.3    1.6   72.28 +-  0.0    0.51   1.79   +-0.2      +-0.0                 m i ke

NORTHERN ITALY
Sta     Dist  EvAz     Phase      Date       Time     TRes  Azim  AzRes  Slow  SRes Def   SNR       Amp   Per   Mag1   Mag2       ID
MBDF  000.51 234.1 m E Pg      2011/08/18 20:28:42.8   0.4                          T                                        4739255
MBDF  000.51 234.1 m E Sg      2011/08/18 20:28:48.9  -0.1                          T                7.2  .24        Md 2.0  4739246
LPG   000.63 318.6 m E Pg      2011/08/18 20:28:44.8   0.0                          T                                        4739252
LPG   000.63 318.6 m E Sg      2011/08/18 20:28:52.4  -0.7                          T                2.8  .16        Md 2.0  4739248
LPL   000.66 318.8 m E Pg      2011/08/18 20:28:45.1  -0.1                          T                                        4739253
LPL   000.66 318.8 m E Sg      2011/08/18 20:28:53.6  -0.2                          T                6.8  .25        Md 2.0  4739249
ORIF  001.05 264.7 m E Pg      2011/08/18 20:28:52.5   0.3                          T                                        4739254
ORIF  001.05 264.7 m E Sg      2011/08/18 20:29:05.5  -0.3                          T                4.0  .30 Ml 2.0         4739250
SBF   001.16 176.8 m E Pn      2011/08/18 20:28:54.2   0.1                          T                                        4739241
SBF   001.16 176.8 m E Sg      2011/08/18 20:29:08.9  -0.5                          T                1.8  .22 Ml 1.8         4739245
FRF   001.55 199.2 m E Pg      2011/08/18 20:29:01.1  -0.2                          T                                        4739251
FRF   001.55 199.2 m E Sg      2011/08/18 20:29:20.7  -0.6                          T                1.9  .27 Ml 1.9         4739247
LMR   001.79 199.9 m E Pn      2011/08/18 20:29:02.6   0.0                          T                                        4739242
LMR   001.79 199.9 m E Sn      2011/08/18 20:29:23.9  -0.6                          T                                        4739243
LMR   001.79 199.9 m E Sg      2011/08/18 20:29:29.5   0.5                          T                 .6  .26 Ml 1.6         4739244

.
EVENT     262712
    Date      Time       Latitude Longitude    Depth    Ndef Nsta Gap    Mag1  N    Mag2  N    Mag3  N   Author         ID
       rms   OT_Error      Smajor Sminor Az        Err   mdist  Mdist     Err        Err        Err      Quality

2011/08/18 22:15:23.7     45.2018    5.6287     23.0 f    17   11 078  Ml 1.6  8  Md 1.7  2              js067245    262712

      0.53   +-  0.10       1.8    1.6   15.33 +-  0.0    0.33   2.91   +-0.3      +-0.2                 m i ke

FRANCE
Sta     Dist  EvAz     Phase      Date       Time     TRes  Azim  AzRes  Slow  SRes Def   SNR       Amp   Per   Mag1   Mag2       ID
ORIF  000.33 147.8 m E Pg      2011/08/18 22:15:31.6   0.2                          T                                        4739272
ORIF  000.33 147.8 m E Sg      2011/08/18 22:15:36.1  -0.5                          T                5.0  .32        Md 1.8  4739269
VIVF  000.76 243.3 m E Pg      2011/08/18 22:15:38.6  -0.1                          T                                        4739271
VIVF  000.76 243.3 m E Sg      2011/08/18 22:15:48.8  -0.1                          T                6.2  .18        Md 1.5  4739270
LPG   000.85 069.1 m E Pg      2011/08/18 22:15:40.5   0.1                          T                                        4739266
SMRF  001.23 181.8 m E Pg      2011/08/18 22:15:47.1   0.1                          T                                        4739265
SMRF  001.23 181.8 m E Sn      2011/08/18 22:15:58.4  -0.2                          T                 .3  .24 Ml 1           4739264
LASF  001.69 229.0 m E Pg      2011/08/18 22:15:55.8   0.3                          T                                        4739268
LASF  001.69 229.0 m E Sg      2011/08/18 22:16:16.5  -1.1                          T                 .9  .27 Ml 1.7         4739267
SMF   001.91 319.8 m E Sg      2011/08/18 22:16:24.8   0.6                          T                1.5  .27 Ml 1.9         4739261
AVF   002.25 315.9 m E Sg      2011/08/18 22:16:34.1  -0.5                          T                 .4  .24 Ml 1.4         4739258
LOR   002.40 329.9 m E Sg      2011/08/18 22:16:39.8   0.2                          T                 .4  .22 Ml 1.5         4739259
CAF   002.54 265.0 m E Sg      2011/08/18 22:16:44.1   0.2                          T                 .5  .21 Ml 1.7         4739263
HAU   002.85 009.8 m E Sg      2011/08/18 22:16:53.1  -0.3                          T                1.4  .35 Ml 1.8         4739260
RJF   002.91 273.5 m E Sg      2011/08/18 22:16:54.4  -0.8                          T                 .5  .26 Ml 1.4         4739262

.
EVENT     262713
    Date      Time       Latitude Longitude    Depth    Ndef Nsta Gap    Mag1  N    Mag2  N    Mag3  N   Author         ID
       rms   OT_Error      Smajor Sminor Az        Err   mdist  Mdist     Err        Err        Err      Quality

2011/08/18 22:29:23.6     45.0292    9.2616      2.0      33   17 205  Ml 2.2 14                         js067245    262713

      0.40   +-  0.16       3.6    2.2   81.07 +-  0.0    1.75   5.10   +-0.3                            m i ke

NORTHERN ITALY
Sta     Dist  EvAz     Phase      Date       Time     TRes  Azim  AzRes  Slow  SRes Def   SNR       Amp   Per   Mag1   Mag2       ID
SBF   001.75 228.9 m E Pn      2011/08/18 22:29:54.3   0.9                          T                                        4739305
SBF   001.75 228.9 m E Sn      2011/08/18 22:30:15.5   0.6                          T                4.6  .21 Ml 2.5         4739299
LPG   001.83 285.7 m E Pn      2011/08/18 22:29:54.7  -0.1                          T                                        4739296
LPG   001.83 285.7 m E Sn      2011/08/18 22:30:15.7  -1.4                          T                2.0  .27 Ml 2.0         4739288
LPL   001.85 286.2 m E Pn      2011/08/18 22:29:55.1   0.2                          T                                        4739289
LPL   001.85 286.2 m E Sn      2011/08/18 22:30:16.3  -1.2                          T                3.2  .36 Ml 2.1         4739287
FRF   002.38 232.9 m E Pn      2011/08/18 22:30:02.0   0.1                          T                                        4739303
FRF   002.38 232.9 m E Sn      2011/08/18 22:30:30.5   0.6                          T                1.1  .23 Ml 2.0         4739301
ORIF  002.40 268.5 m E Pn      2011/08/18 22:30:02.5   0.3                          T                                        4739297
ORIF  002.40 268.5 m E Sn      2011/08/18 22:30:29.9  -0.6                          T                 .9  .26 Ml 1.8         4739298
PGF   002.49 184.5 m E Pn      2011/08/18 22:30:03.4   0.0                          T                                        4739304
LMR   002.61 230.4 m E Pn      2011/08/18 22:30:04.8  -0.1                          T                                        4739302
LMR   002.61 230.4 m E Sn      2011/08/18 22:30:35.1  -0.1                          T                 .7  .18 Ml 2.0         4739300
CABF  002.73 306.6 m E Pn      2011/08/18 22:30:06.5  -0.2                          T                                        4739284
HINF  003.25 330.0 m E Pn      2011/08/18 22:30:13.8   0.1                          T                                        4739295
HINF  003.25 330.0 m E Sn      2011/08/18 22:30:51.7   1.1                          T                 .8  .20 Ml 2.1         4739279
HAU   003.59 327.0 m E Pn      2011/08/18 22:30:18.3   0.0                          T                                        4739294
HAU   003.59 327.0 m E Sn      2011/08/18 22:31:00.4   1.6                          T                7.4  .27 Ml 2.8         4739280
CDF   003.65 338.7 m E Pn      2011/08/18 22:30:19.1  -0.1                          T                                        4739291
SMF   004.12 295.0 m E Pn      2011/08/18 22:30:25.4  -0.1                          T                                        4739285
LOR   004.37 302.7 m E Pn      2011/08/18 22:30:29.0   0.0                          T                                        4739293
LOR   004.37 302.7 m E Sn      2011/08/18 22:31:18.0   0.5                          T                1.6  .24 Ml 2.6         4739282
AVF   004.48 295.2 m E Pn      2011/08/18 22:30:30.3  -0.1                          T                                        4739283
BGF   004.74 291.1 m E Pn      2011/08/18 22:30:34.0   0.0                          T                                        4739290
TCF   005.10 286.8 m E Pn      2011/08/18 22:30:38.6  -0.3                          T                                        4739292
TCF   005.10 286.8 m E Sn      2011/08/18 22:31:35.0   0.0                          T                 .8  .20 Ml 2.6         4739281
VIVF  003.26 268.6 m E Sn      2011/08/18 22:30:49.7  -1.3                          T                 .6  .25 Ml 1.9         4739286

.
