EVENT     266200
    Date      Time       Latitude Longitude    Depth    Ndef Nsta Gap    Mag1  N    Mag2  N    Mag3  N   Author         ID
       rms   OT_Error      Smajor Sminor Az        Err   mdist  Mdist     Err        Err        Err      Quality

2011/11/12 00:37:59.3     46.1022    7.4236      3.0 f    61   19 061  Ml 2.3 18  Md 2.2  2              js067245    266220

      0.56   +-  0.04       1.0     .8  108.89 +-  0.0    0.02   3.23   +-0.3      +-0.0                 m i ke

SWITZERLAND
Sta     Dist  EvAz     Phase      Date       Time     TRes  Azim  AzRes  Slow  SRes Def   SNR       Amp   Per   Mag1   Mag2       ID
LPL   000.76 219.8 m E Pg      2011/11/12 00:38:13.9   0.0                          T   001.0                                4784995
LPL   000.76 219.8 m E Sg      2011/11/12 00:38:23.9   0.0                          T   001.0        8.5  .24        Md 2.2  4784996
LPG   000.77 218.1 m E Pg      2011/11/12 00:38:14.0  -0.1                          T   001.0                                4784993
LPG   000.77 218.1 m E Sg      2011/11/12 00:38:24.0  -0.1                          T   001.0       10.9  .20        Md 2.2  4784994
CABF  001.06 299.3 m E Pn      2011/11/12 00:38:19.8   0.3                          T   001.0                                4785001
CABF  001.06 299.3 m E Sg      2011/11/12 00:38:32.9   0.0                          T                                        4785691
CABF  001.06 299.3 m E Sn      2011/11/12 00:38:34.6   0.7                          T   001.0          5  .24 Ml 2.2         4785002
MBDF  001.45 198.7 m E Pn      2011/11/12 00:38:25.1   0.2                          T   001.0                                4785005
MBDF  001.45 198.7 m E Pg      2011/11/12 00:38:26.6   0.0                          T                                        4785704
MBDF  001.45 198.7 m E Sg      2011/11/12 00:38:45.5   0.2                          T                2.7  .27 Ml 2.0         4785707
ORIF  001.61 223.1 m E Pg      2011/11/12 00:38:29.2  -0.2                          T   001.0                                4785006
ORIF  001.61 223.1 m E Sg      2011/11/12 00:38:50.1   0.0                          T   001.0        2.5  .20 Ml 2.2         4785007
HINF  001.76 347.4 m E Pn      2011/11/12 00:38:29.4   0.4                          T   001.0                                4785003
HINF  001.76 347.4 m E Pg      2011/11/12 00:38:32.2   0.1                          T                                        4785698
HINF  001.76 347.4 m E Sn      2011/11/12 00:38:50.5  -0.1                          T   001.0        7.9  .16 Ml 2.8         4785004
HINF  001.76 347.4 m E Sg      2011/11/12 00:38:54.6  -0.2                          T               10.4  .20 Ml 2.9         4785692
HAU   002.04 339.3 m E Pn      2011/11/12 00:38:33.6   0.7                          T   001.0                                4784985
HAU   002.04 339.3 m E Pg      2011/11/12 00:38:37.3  -0.1                          T   001.0                                4784986
HAU   002.04 339.3 m E Sg      2011/11/12 00:39:04.0   0.4                          T   001.0        6.8  .24 Ml 2.4         4784987
VIVF  002.30 238.2 m E Pn      2011/11/12 00:38:36.6   0.2                          T   001.0                                4785008
VIVF  002.30 238.2 m E Pg      2011/11/12 00:38:42.1   0.0                          T                                        4785703
VIVF  002.30 238.2 m E Sg      2011/11/12 00:39:11.8   0.0                          T   001.0        3.5  .32 Ml 2.3         4785009
CDF   002.31 357.6 m E Pn      2011/11/12 00:38:37.3   0.7                          T   001.0                                4784982
CDF   002.31 357.6 m E Pg      2011/11/12 00:38:42.7   0.3                          T                                        4785695
CDF   002.31 357.6 m E Sg      2011/11/12 00:39:12.1   0.0                          T   001.0        2.6  .40 Ml 2.2         4784983
SBF   002.24 179.8 m E P       2011/11/12 00:38:38.0   0.0                          T   001.0                                4784997
SBF   002.24 179.8 m E Sg      2011/11/12 00:39:10.5   0.7                          T   001.0       17.2  .72 Ml 2.6         4784998
SMF   002.54 283.6 m E Pn      2011/11/12 00:38:39.6   0.0                          T   001.0                                4784999
SMF   002.54 283.6 m E Pg      2011/11/12 00:38:46.2  -0.3                          T                                        4785702
SMF   002.54 283.6 m E Sg      2011/11/12 00:39:18.8  -0.3                          T   001.0        2.4  .24 Ml 2.3         4785000
THEF  002.34 335.9 m E Pg      2011/11/12 00:38:43.0   0.2                          T                                        4785697
THEF  002.34 335.9 m E Sg      2011/11/12 00:39:13.1   0.2                          T                7.4  .24 Ml 2.8         4785693
LOR   002.72 296.7 m E Pn      2011/11/12 00:38:43.2   1.1                          T   001.0                                4784988
LOR   002.72 296.7 m E Pg      2011/11/12 00:38:49.5  -0.2 110.1  -4.0              T   001.0                                4784989
LOR   002.72 296.7 m E Sn      2011/11/12 00:39:14.1   0.6                          T   001.0                                4784990
LOR   002.72 296.7 m E Sg      2011/11/12 00:39:24.4  -0.3                          T   001.0        1.6  .22 Ml 2.2         4784991
AVF   002.90 285.2 m E Pn      2011/11/12 00:38:45.0   0.6                          T   001.0                                4784979
AVF   002.90 285.2 m E Sg      2011/11/12 00:39:29.8  -0.4                          T   001.0        3.6  .92 Ml 2.0         4784980
FRF   002.60 192.5 m E Pg      2011/11/12 00:38:47.5  -0.1                          T   001.0                                4784984
FRF   002.60 192.5 m E Sg      2011/11/12 00:39:21.2   0.2                          T                1.0  .22 Ml 2.0         4785706
BGF   003.20 279.8 m E Pn      2011/11/12 00:38:48.7   0.1                          T   001.0                                4784981
BGF   003.20 279.8 m E P       2011/11/12 00:38:51.6  -0.1                          T                                        4785701
BGF   003.20 279.8 m E Pg      2011/11/12 00:38:58.6  -0.1                          T                                        4785700
BGF   003.20 279.8 m E Sg      2011/11/12 00:39:39.7  -0.1                          T                2.7  .33 Ml 2.4         4785690
PAGF  002.71 335.4 m E Pg      2011/11/12 00:38:49.6  -0.1                          T                                        4785696
SMRF  002.50 212.3 m E Sn      2011/11/12 00:39:08.5   0.2                          T                1.7  .28 Ml 2.1         4785705
SFTF  002.66 323.1 m E Sg      2011/11/12 00:39:22.9   0.0                          T                2.0  .24 Ml 2.3         4785694

.
EVENT     266199
    Date      Time       Latitude Longitude    Depth    Ndef Nsta Gap    Mag1  N    Mag2  N    Mag3  N   Author         ID
       rms   OT_Error      Smajor Sminor Az        Err   mdist  Mdist     Err        Err        Err      Quality

2011/11/12 00:42:58.7     46.1042    7.4272      2.0      27    9 100  Ml 1.8  7  Md 1.7  2              js067245    266219

      0.22   +-  0.04        .9     .7  130.31 +-  0.0    0.03   2.66   +-0.2      +-0.0                 m i ke

SWITZERLAND
Sta     Dist  EvAz     Phase      Date       Time     TRes  Azim  AzRes  Slow  SRes Def   SNR       Amp   Per   Mag1   Mag2       ID
LPL   000.76 219.8 m E Pg      2011/11/12 00:43:13.3  -0.1                          T                                        4785719
LPL   000.76 219.8 m E Sg      2011/11/12 00:43:23.2  -0.1                          T                2.0  .26        Md 1.7  4785716
LPG   000.77 218.2 m E Pg      2011/11/12 00:43:13.5  -0.1                          T                                        4785718
LPG   000.77 218.2 m E Sg      2011/11/12 00:43:23.3  -0.2                          T                3.1  .21        Md 1.7  4785717
CABF  001.06 299.1 m E Pn      2011/11/12 00:43:19.2   0.2                          T                                        4785722
CABF  001.06 299.1 m E Sn      2011/11/12 00:43:34.0   0.6                          T                 .9  .23 Ml 1.4         4785712
MBDF  001.45 198.8 m E Pg      2011/11/12 00:43:26.0   0.0                          T                                        4785721
MBDF  001.45 198.8 m E Sg      2011/11/12 00:43:45.0   0.2                          T                 .9  .23 Ml 1.6         4785714
ORIF  001.61 223.1 m E Pg      2011/11/12 00:43:28.6  -0.2                          T                                        4785720
ORIF  001.61 223.1 m E Sg      2011/11/12 00:43:49.5  -0.1                          T                  1  .25 Ml 1.7         4785715
HINF  001.76 347.3 m E Pg      2011/11/12 00:43:31.5   0.1                          T                                        4785723
HINF  001.76 347.3 m E Sg      2011/11/12 00:43:54.0  -0.1                          T                2.9  .28 Ml 2.2         4785711
HAU   002.04 339.2 m E Pg      2011/11/12 00:43:36.6   0.0                          T                                        4785710
HAU   002.04 339.2 m E Sg      2011/11/12 00:44:03.3   0.4                          T                1.4  .22 Ml 1.8         4785709
VIVF  002.30 238.2 m E Sg      2011/11/12 00:44:11.2   0.1                          T                1.0  .30 Ml 1.8         4785713
SFTF  002.66 323.1 m E Sg      2011/11/12 00:44:22.3   0.1                          T                 .8  .21 Ml 1.9         4785708

.
EVENT     266201
    Date      Time       Latitude Longitude    Depth    Ndef Nsta Gap    Mag1  N    Mag2  N    Mag3  N   Author         ID
       rms   OT_Error      Smajor Sminor Az        Err   mdist  Mdist     Err        Err        Err      Quality

2011/11/12 01:42:10.0     46.0997    7.4370      3.0 f    88   30 062  Ml 2.8 25  Md 2.8  3              js067245    266221

      0.67   +-  0.06       1.3    1.0   96.50 +-  0.0    0.03   6.09   +-0.3      +-0.3                 m i ke

SWITZERLAND
Sta     Dist  EvAz     Phase      Date       Time     TRes  Azim  AzRes  Slow  SRes Def   SNR       Amp   Per   Mag1   Mag2       ID
LPL   000.76 220.4 m E Pg      2011/11/12 01:42:24.5  -0.2                          T                                        4785800
LPL   000.76 220.4 m E Sg      2011/11/12 01:42:34.8   0.2                          T               38.1  .28        Md 3.0  4785801
LPG   000.77 218.8 m E Pg      2011/11/12 01:42:24.7  -0.2                          T                                        4785798
LPG   000.77 218.8 m E Sg      2011/11/12 01:42:34.7  -0.2                          T               56.0  .28        Md 2.9  4785799
CABF  001.07 299.2 m E Pn      2011/11/12 01:42:30.5   0.2                          T   001.0                                4785078
CABF  001.07 299.2 m E Sg      2011/11/12 01:42:43.5  -0.4                          T   001.0       28.8  .36 Ml 2.7         4785079
CABF  001.07 299.2 m E Sn      2011/11/12 01:42:44.9   0.2                          T               14.9  .21 Ml 2.7 Md 2.4  4785844
MBDF  001.45 199.1 m E Pg      2011/11/12 01:42:37.2  -0.1                          T                                        4785803
MBDF  001.45 199.1 m E Sn      2011/11/12 01:42:55.0   2.0                          T   001.0       45.5  .72 Ml 2.8         4785083
ORIF  001.61 223.4 m E Pg      2011/11/12 01:42:40.0  -0.1                          T                                        4785802
ORIF  001.61 223.4 m E Sn      2011/11/12 01:43:01.0   3.2                          T   001.0       15.9  .24 Ml 2.9         4785085
HINF  001.76 347.1 m E Pn      2011/11/12 01:42:40.6   0.8                          T   001.0                                4785080
HINF  001.76 347.1 m E Pg      2011/11/12 01:42:43.4   0.6                          T                                        4785833
HINF  001.76 347.1 m E Sn      2011/11/12 01:43:01.0  -0.4                          T   001.0       42.5  .24 Ml 3.4         4785081
HINF  001.76 347.1 m E Sg      2011/11/12 01:43:05.3  -0.3                          T               44.4  .24 Ml 3.4         4785827
HAU   002.05 339.1 m E Pn      2011/11/12 01:42:44.7   1.2                          T   001.0                                4785057
HAU   002.05 339.1 m E Pg      2011/11/12 01:42:48.0  -0.1                          T                                        4785832
HAU   002.05 339.1 m E Sg      2011/11/12 01:43:14.5   0.1                          T   001.0       24.6  .24 Ml 3.0         4785058
CDF   002.32 357.3 m E Pn      2011/11/12 01:42:47.4   0.1                          T   001.0                                4785053
CDF   002.32 357.3 m E Sn      2011/11/12 01:43:14.5  -0.1                          T   001.0                                4785054
CDF   002.32 357.3 m E Sg      2011/11/12 01:43:23.1   0.2                          T   001.0        9.1  .36 Ml 2.8         4785055
SBF   002.24 180.0 m E P       2011/11/12 01:42:48.1  -0.4                          T   001.0                                4785066
SBF   002.24 180.0 m E Pg      2011/11/12 01:42:51.7   0.1                          T                                        4785838
SBF   002.24 180.0 m E Sg      2011/11/12 01:43:21.1   0.7                          T               17.1  .42 Ml 2.9         4785822
VIVF  002.31 238.4 m E P       2011/11/12 01:42:49.4  -0.2                          T   001.0                                4785044
VIVF  002.31 238.4 m E Pg      2011/11/12 01:42:52.6  -0.2                          T   001.0                                4785045
VIVF  002.31 238.4 m E Sg      2011/11/12 01:43:22.6   0.0                          T                8.6  .24 Ml 2.8         4785825
SMF   002.55 283.7 m E Pn      2011/11/12 01:42:50.3  -0.1                          T   001.0                                4785067
SMF   002.55 283.7 m E Pg      2011/11/12 01:42:56.8  -0.4                          T   001.0                                4785068
SMF   002.55 283.7 m E Sn      2011/11/12 01:43:20.4   0.3                          T   001.0                                4785069
SMF   002.55 283.7 m E Sg      2011/11/12 01:43:29.7  -0.3                          T   001.0        7.6  .20 Ml 2.9         4785070
THEF  002.35 335.7 m E Pg      2011/11/12 01:42:53.2  -0.3                          T                                        4785831
SMRF  002.50 212.5 m E Pn      2011/11/12 01:42:53.5   3.8                          T   001.0                                4785046
SMRF  002.50 212.5 m E Sn      2011/11/12 01:43:19.1   0.2                          T                5.5  .23 Ml 2.7         4785824
FRF   002.60 192.8 m E P       2011/11/12 01:42:53.7   0.0                          T   001.0                                4785056
FRF   002.60 192.8 m E Pg      2011/11/12 01:42:57.9  -0.3                          T                                        4785837
FRF   002.60 192.8 m E Sg      2011/11/12 01:43:31.9   0.3                          T                4.9  .28 Ml 2.6         4785823
LOR   002.73 296.7 m E Pn      2011/11/12 01:42:54.1   1.3                          T   001.0                                4785062
LOR   002.73 296.7 m E Pg      2011/11/12 01:43:00.6   0.1 115.2  1.1               T   001.0                                4785063
LOR   002.73 296.7 m E Sn      2011/11/12 01:43:24.6   0.3                          T   001.0                                4785064
LOR   002.73 296.7 m E Sg      2011/11/12 01:43:35.0  -0.6 130.4  16.3              T   001.0        9.9  .29 Ml 2.9         4785065
AVF   002.91 285.2 m E Pn      2011/11/12 01:42:56.9   1.7                          T   001.0                                4785049
SSF   002.88 291.0 m E Pn      2011/11/12 01:42:57.5   2.7                          T   001.0                                4785071
SSF   002.88 291.0 m E Sn      2011/11/12 01:43:29.1   1.2                          T   001.0                                4785072
SSF   002.88 291.0 m E Sg      2011/11/12 01:43:40.1  -0.2                          T   001.0          5  .28 Ml 2.7         4785073
BGF   003.21 279.8 m E Pn      2011/11/12 01:42:59.2  -0.2                          T   001.0                                4785050
BGF   003.21 279.8 m E P       2011/11/12 01:43:02.1  -0.4                          T                                        4785835
BGF   003.21 279.8 m E Pg      2011/11/12 01:43:09.2  -0.3                          T                                        4785834
BGF   003.21 279.8 m E Sg      2011/11/12 01:43:50.9   0.1                          T   001.0       13.5  .36 Ml 3.0         4785051
PAGF  002.72 335.3 m E Pg      2011/11/12 01:42:59.9  -0.5 151.5  -2.5              T                                        4785830
PAGF  002.72 335.3 m E Sg      2011/11/12 01:43:35.6   0.3                          T                1.2  .26 Ml 2.0         4785843
LMR   002.84 193.8 m E Pg      2011/11/12 01:43:02.6   0.0                          T                                        4785836
LASF  003.24 232.7 m E Pn      2011/11/12 01:43:03.0   3.2                          T   001.0                                4785059
LASF  003.24 232.7 m E Sn      2011/11/12 01:43:37.3   0.6                          T   001.0          7  .60 Ml 2.5         4785060
HYF   003.50 291.2 m E Pn      2011/11/12 01:43:03.6   0.2                          T                                        4785845
TCF   003.64 274.9 m E Pn      2011/11/12 01:43:07.5   2.3                          T   001.0                                4785074
TCF   003.64 274.9 m E Sn      2011/11/12 01:43:47.6   1.5                          T   001.0        3.9  .48 Ml 2.5         4785075
CAF   003.96 254.7 m E Pn      2011/11/12 01:43:10.6   1.0                          T   001.0                                4785052
RJF   004.22 261.3 m E Pn      2011/11/12 01:43:13.7   0.5                          T   001.0                                4785047
RJF   004.22 261.3 m E Sg      2011/11/12 01:44:23.8   1.5                          T   001.0          3  .44 Ml 2.2         4785048
BAIF  004.51 332.5 m E Pn      2011/11/12 01:43:19.1   2.0                          T   001.0                                4785076
BAIF  004.51 332.5 m E Sn      2011/11/12 01:44:08.7   1.7                          T   001.0        4.9  .76 Ml 2.6         4785077
LFF   004.85 258.6 m E Pn      2011/11/12 01:43:23.5   1.9                          T   001.0                                4785061
SFTF  002.67 323.0 m E Sg      2011/11/12 01:43:33.7  -0.1 143.8  2.6               T                6.9  .19 Ml 2.9         4785828
GRR   006.09 295.1 m E Pn      2011/11/12 01:43:38.8   0.2                          T                                        4785847
MEZF  002.90 326.8 m E Sg      2011/11/12 01:43:41.0   0.0 147.4  2.4               T               14.7  .48 Ml 2.9         4785829

.
