EVENT     289299
    Date      Time       Latitude Longitude    Depth    Ndef Nsta Gap    Mag1  N    Mag2  N    Mag3  N   Author         ID
       rms   OT_Error      Smajor Sminor Az        Err   mdist  Mdist     Err        Err        Err      Quality

2013/01/01 05:26:27.6     43.0704    -.2048      2.0     114   20 052  Ml 2.9 18  Md 2.9  3              bulletin    289399
                                                                                                         _ldg
      0.76   +-  0.07       1.3    1.2   25.78 +-  0.0    0.12   5.52   +-0.2      +-0.0                 m i ke

PYRENEES
Sta     Dist  EvAz     Phase      Date       Time     TRes  Azim  AzRes  Slow  SRes Def   SNR       Amp   Per   Mag1   Mag2       ID
ETSF  000.31 236.7 m E Pg      2013/01/01 05:26:33.0  -0.8                          T                                Md 2.9  5151748
ETSF  000.31 236.7 m E Sg      2013/01/01 05:26:37.1  -0.9                          T              489.0  .24                5151747
EPF   000.40 095.5 m E Pg      2013/01/01 05:26:35.2  -0.2                          T                                Md 3.0  5151746
EPF   000.40 095.5 m E Sg      2013/01/01 05:26:40.9   0.1                          T              148.6  .32                5151745
SJPF  000.75 273.6 m E Pg      2013/01/01 05:26:41.2  -0.6                          T                                Md 2.9  5151744
SJPF  000.75 273.6 m E Sg      2013/01/01 05:26:50.9  -0.6                          T               47.6  .24                5151743
LFF   001.99 019.7 m E Pn      2013/01/01 05:27:00.4  -0.1                          T                                        5151735
LFF   001.99 019.7 m E Pg      2013/01/01 05:27:04.6   0.0                          T                                        5151742
LFF   001.99 019.7 m E Sn      2013/01/01 05:27:24.8   0.2                          T                                        5151736
LFF   001.99 019.7 m E Sg      2013/01/01 05:27:30.5   0.3                          T               64.4  .38 Ml 3.3         5151741
MTLF  001.79 080.5 m E Pg      2013/01/01 05:27:01.1   0.1                          T                                        5151739
MTLF  001.79 080.5 m E Sg      2013/01/01 05:27:24.1   0.1                          T               12.8  .24 Ml 2.9         5151738
CAF   002.47 040.7 m E Pn      2013/01/01 05:27:06.9  -0.3                          T                                        5151734
CAF   002.47 040.7 m E Pg      2013/01/01 05:27:13.5  -0.1                          T                                        5151740
CAF   002.47 040.7 m E Sn      2013/01/01 05:27:36.3   0.1                          T                                        5151733
CAF   002.47 040.7 m E Sg      2013/01/01 05:27:45.8   0.4                          T                9.4  .18 Ml 3.0         5151732
RJF   002.55 028.4 m E Pn      2013/01/01 05:27:07.9  -0.3                          T                                        5151731
RJF   002.55 028.4 m E Pg      2013/01/01 05:27:14.8  -0.2                          T                                        5151737
RJF   002.55 028.4 m E Sn      2013/01/01 05:27:38.2   0.1                          T                                        5151730
RJF   002.55 028.4 m E Sg      2013/01/01 05:27:48.1   0.2                          T               20.2  .26 Ml 2.9         5151729
LASF  003.12 069.8 m E Pn      2013/01/01 05:27:16.2   0.3                          T                                        5151685
LASF  003.12 069.8 m E Pg      2013/01/01 05:27:24.8  -0.6                          T                                        5151684
LASF  003.12 069.8 m E Sn      2013/01/01 05:27:51.9   0.4                          T                                        5151683
LASF  003.12 069.8 m E Sg      2013/01/01 05:28:06.0   0.5                          T                4.2  .22 Ml 2.7         5151682
MFF   003.53 000.7 m E Pn      2013/01/01 05:27:21.7   0.1                          T                                        5151709
MFF   003.53 000.7 m E Pg      2013/01/01 05:27:33.6   0.6                          T                                        5151708
MFF   003.53 000.7 m E Sn      2013/01/01 05:28:01.4   0.0                          T                                        5151707
MFF   003.53 000.7 m E Sg      2013/01/01 05:28:18.3  -0.1                          T                6.1  .23 Ml 3.1         5151706
TCF   003.65 027.3 m E Pn      2013/01/01 05:27:22.7  -0.4                          T                                        5151713
TCF   003.65 027.3 m E Pg      2013/01/01 05:27:34.7  -0.5                          T                                        5151712
TCF   003.65 027.3 m E Sn      2013/01/01 05:28:05.0   0.7                          T                                        5151711
TCF   003.65 027.3 m E Sg      2013/01/01 05:28:22.0   0.0                          T                5.3  .24 Ml 2.9         5151710
VIVF  003.95 061.4 m E Pn      2013/01/01 05:27:27.3   0.1                          T                                        5151681
VIVF  003.95 061.4 m E Pg      2013/01/01 05:27:41.1   0.3                          T                                        5151680
VIVF  003.95 061.4 m E Sn      2013/01/01 05:28:12.3   0.9                          T                                        5151679
VIVF  003.95 061.4 m E Sg      2013/01/01 05:28:31.1  -0.3                          T                4.4  .32 Ml 2.8         5151678
BGF   004.11 030.9 m E Pn      2013/01/01 05:27:29.1  -0.3                          T                                        5151728
BGF   004.11 030.9 m E Pg      2013/01/01 05:27:43.7   0.0                          T                                        5151727
BGF   004.11 030.9 m E Sn      2013/01/01 05:28:15.5   0.4                          T                                        5151726
BGF   004.11 030.9 m E Sg      2013/01/01 05:28:36.6   0.3                          T               25.4  .38 Ml 3.5         5151725
AVF   004.50 032.9 m E Pn      2013/01/01 05:27:34.3  -0.3                          T                                        5151717
AVF   004.50 032.9 m E Pg      2013/01/01 05:27:50.4  -0.4                          T                                        5151716
AVF   004.50 032.9 m E Sn      2013/01/01 05:28:24.3  -0.2                          T                                        5151715
AVF   004.50 032.9 m E Sg      2013/01/01 05:28:48.4  -0.1                          T                4.3  .34 Ml 2.9         5151714
SMF   004.59 037.4 m E Pn      2013/01/01 05:27:36.1   0.2                          T                                        5151721
SMF   004.59 037.4 m E Pg      2013/01/01 05:27:52.3  -0.2                          T                                        5151720
SMF   004.59 037.4 m E Sn      2013/01/01 05:28:26.6  -0.1                          T                                        5151719
SMF   004.59 037.4 m E Sg      2013/01/01 05:28:51.6   0.2                          T                2.0  .25 Ml 2.7         5151718
HYF   004.65 024.6 m E Pn      2013/01/01 05:27:36.9   0.1                          T                                        5151724
HYF   004.65 024.6 m E Pg      2013/01/01 05:27:54.0   0.3                          T                                        5151723
HYF   004.65 024.6 m E Sg      2013/01/01 05:28:53.9   0.4                          T                                        5151722
SSF   004.78 032.1 m E Pn      2013/01/01 05:27:39.0   0.5                          T                                        5151697
SSF   004.78 032.1 m E Pg      2013/01/01 05:27:56.6   0.6                          T                                        5151696
SSF   004.78 032.1 m E Sn      2013/01/01 05:28:32.0   0.8                          T                                        5151695
SSF   004.78 032.1 m E Sg      2013/01/01 05:28:56.7  -0.5                          T                2.3  .24 Ml 2.9         5151694
LOR   005.09 033.0 m E Pn      2013/01/01 05:27:43.4   0.7 215.3  -0.5              T                                        5151693
LOR   005.09 033.0 m E Pg      2013/01/01 05:28:01.4  -0.3 213.6  -2.3              T                                        5151692
LOR   005.09 033.0 m E Sn      2013/01/01 05:28:39.0   0.4 211.9  -4.0              T                                        5151691
LOR   005.09 033.0 m E Sg      2013/01/01 05:29:07.5   0.5 213.1  -2.8              T                3.7  .35 Ml 2.9         5151690
QUIF  005.27 337.8 m E Pn      2013/01/01 05:27:45.6   0.4                          T                                        5151705
QUIF  005.27 337.8 m E Pg      2013/01/01 05:28:05.9   0.8                          T                                        5151704
QUIF  005.27 337.8 m E Sn      2013/01/01 05:28:43.2   0.2                          T                                        5151703
QUIF  005.27 337.8 m E Sg      2013/01/01 05:29:13.4   0.7                          T                1.8  .25 Ml 2.8         5151702
SGMF  005.44 343.2 m E Pn      2013/01/01 05:27:47.5   0.0                          T                                        5151689
SGMF  005.44 343.2 m E Pg      2013/01/01 05:28:08.1  -0.1                          T                                        5151688
SGMF  005.44 343.2 m E Sn      2013/01/01 05:28:46.5  -0.5                          T                                        5151687
SGMF  005.44 343.2 m E Sg      2013/01/01 05:29:17.6  -0.3                          T                 .8  .22 Ml 2.5         5151686
LDF   005.52 000.6 m E Pn      2013/01/01 05:27:48.1  -0.6                          T                                        5151701
LDF   005.52 000.6 m E Pg      2013/01/01 05:28:10.1   0.3                          T                                        5151700
LDF   005.52 000.6 m E Sn      2013/01/01 05:28:47.8  -1.2                          T                                        5151699
LDF   005.52 000.6 m E Sg      2013/01/01 05:29:20.6   0.0                          T                2.5  .27 Ml 2.9         5151698

.
EVENT     289300
    Date      Time       Latitude Longitude    Depth    Ndef Nsta Gap    Mag1  N    Mag2  N    Mag3  N   Author         ID
       rms   OT_Error      Smajor Sminor Az        Err   mdist  Mdist     Err        Err        Err      Quality

2013/01/01 05:31:57.7     43.0228    -.2271      2.0      45   11 069  Ml 2.1  8  Md 2.2  2              bulletin    289400
                                                                                                         _ldg
      0.46   +-  0.08       1.5    1.2    7.08 +-  0.0    0.13   4.16   +-0.1      +-0.1                 m i ke

PYRENEES
Sta     Dist  EvAz     Phase      Date       Time     TRes  Azim  AzRes  Slow  SRes Def   SNR       Amp   Per   Mag1   Mag2       ID
ETSF  000.27 243.1 m E Pg      2013/01/01 05:32:02.7  -0.5                          T                                        5151785
ETSF  000.27 243.1 m E Sg      2013/01/01 05:32:06.8  -0.1                          T               57.7  .22        Md 2.1  5151784
EPF   000.42 088.8 m E Pg      2013/01/01 05:32:04.8  -0.9                          T                                        5151783
EPF   000.42 088.8 m E Sg      2013/01/01 05:32:10.7  -0.6                          T               12.5  .26        Md 2.2  5151782
SJPF  000.74 277.4 m E Pg      2013/01/01 05:32:11.6   0.0                          T                                        5151781
SJPF  000.74 277.4 m E Sg      2013/01/01 05:32:21.3   0.0                          T                3.5  .20                5151780
MTLF  001.82 079.1 m E Pn      2013/01/01 05:32:28.1  -0.1                          T                                        5151777
MTLF  001.82 079.1 m E Pg      2013/01/01 05:32:31.2  -0.3                          T                                        5151779
MTLF  001.82 079.1 m E Sg      2013/01/01 05:32:54.6  -0.3                          T                1.0  .18 Ml 1.9         5151778
LFF   002.04 019.7 m E Pn      2013/01/01 05:32:31.8   0.6                          T                                        5151771
LFF   002.04 019.7 m E Pg      2013/01/01 05:32:35.6   0.0                          T                                        5151772
LFF   002.04 019.7 m E Sn      2013/01/01 05:32:55.9   0.2                          T                                        5151770
LFF   002.04 019.7 m E Sg      2013/01/01 05:33:02.2   0.3                          T                2.7  .26 Ml 2.1         5151769
CAF   002.52 040.2 m E Pn      2013/01/01 05:32:38.0   0.1                          T                                        5151776
CAF   002.52 040.2 m E Pg      2013/01/01 05:32:44.6   0.1                          T                                        5151775
CAF   002.52 040.2 m E Sn      2013/01/01 05:33:07.5   0.2                          T                                        5151774
CAF   002.52 040.2 m E Sg      2013/01/01 05:33:16.9   0.0                          T                1.5  .22 Ml 2.2         5151773
RJF   002.60 028.2 m E Pn      2013/01/01 05:32:38.9   0.0                          T                                        5151768
RJF   002.60 028.2 m E Pg      2013/01/01 05:32:46.0   0.0                          T                                        5151767
RJF   002.60 028.2 m E Sn      2013/01/01 05:33:09.5   0.3                          T                                        5151766
RJF   002.60 028.2 m E Sg      2013/01/01 05:33:20.0   0.6                          T                1.8  .22 Ml 1.9         5151765
LASF  003.15 069.1 m E Pn      2013/01/01 05:32:46.7   0.3                          T                                        5151753
LASF  003.15 069.1 m E Pg      2013/01/01 05:32:55.4  -0.7                          T                                        5151754
LASF  003.15 069.1 m E Sn      2013/01/01 05:33:22.7   0.3                          T                                        5151752
LASF  003.15 069.1 m E Sg      2013/01/01 05:33:36.1  -0.4                          T                 .6  .21 Ml 2.0         5151755
MFF   003.58 000.9 m E Pn      2013/01/01 05:32:52.6   0.4                          T                                        5151756
MFF   003.58 000.9 m E Pg      2013/01/01 05:33:03.5  -0.5                          T                                        5151758
MFF   003.58 000.9 m E Sn      2013/01/01 05:33:33.5   0.9                          T                                        5151757
MFF   003.58 000.9 m E Sg      2013/01/01 05:33:50.9   0.9                          T                 .6  .19 Ml 2.3         5151759
TCF   003.70 027.2 m E Pn      2013/01/01 05:32:53.6  -0.3                          T                                        5151761
TCF   003.70 027.2 m E Pg      2013/01/01 05:33:06.1  -0.1                          T                                        5151762
TCF   003.70 027.2 m E Sn      2013/01/01 05:33:35.9   0.4                          T                                        5151763
TCF   003.70 027.2 m E Sg      2013/01/01 05:33:53.8   0.1                          T                 .6  .17 Ml 2.2         5151760
BGF   004.16 030.7 m E Pn      2013/01/01 05:33:00.1   0.0                          T                                        5151764

.
EVENT     289302
    Date      Time       Latitude Longitude    Depth    Ndef Nsta Gap    Mag1  N    Mag2  N    Mag3  N   Author         ID
       rms   OT_Error      Smajor Sminor Az        Err   mdist  Mdist     Err        Err        Err      Quality

2013/01/01 05:38:17.4     43.0426    -.2212      2.0 f    29    7 098  Ml 1.8  5  Md 1.7  2              bulletin    289402
                                                                                                         _ldg
      0.49   +-  0.08       1.7    1.3  170.21 +-  0.0    0.29   2.58   +-0.1      +-0.2                 m i ke

PYRENEES
Sta     Dist  EvAz     Phase      Date       Time     TRes  Azim  AzRes  Slow  SRes Def   SNR       Amp   Per   Mag1   Mag2       ID
ETSF  000.29 240.0 m E Pg      2013/01/01 05:38:22.9  -0.3                          T                                        5151878
ETSF  000.29 240.0 m E Sg      2013/01/01 05:38:26.7  -0.3                          T               23.0  .22        Md 1.9  5151877
EPF   000.41 091.5 m E Pg      2013/01/01 05:38:25.0  -0.4                          T                                        5151876
EPF   000.41 091.5 m E Sg      2013/01/01 05:38:30.4  -0.5                          T                6.7  .30        Md 1.6  5151875
SJPF  000.74 275.8 m E Pg      2013/01/01 05:38:31.4   0.0                          T                                        5151873
SJPF  000.74 275.8 m E Sg      2013/01/01 05:38:41.2   0.2                          T                2.7  .23                5151874
MTLF  001.81 079.7 m E Pn      2013/01/01 05:38:47.8   0.0                          T                                        5151872
MTLF  001.81 079.7 m E Sn      2013/01/01 05:39:09.7  -0.3                          T                                        5151871
MTLF  001.81 079.7 m E Sg      2013/01/01 05:39:13.9  -0.5                          T                 .8  .23 Ml 1.7         5151870
LFF   002.02 019.8 m E Pn      2013/01/01 05:38:51.1   0.4                          T                                        5151869
LFF   002.02 019.8 m E Pg      2013/01/01 05:38:55.2   0.3                          T                                        5151868
LFF   002.02 019.8 m E Sn      2013/01/01 05:39:15.6   0.5                          T                                        5151867
LFF   002.02 019.8 m E Sg      2013/01/01 05:39:21.3   0.4                          T                1.2  .19 Ml 1.9         5151866
CAF   002.50 040.4 m E Pn      2013/01/01 05:38:57.1  -0.3                          T                                        5151859
CAF   002.50 040.4 m E Pg      2013/01/01 05:39:03.4  -0.5                          T                                        5151860
CAF   002.50 040.4 m E Sn      2013/01/01 05:39:26.6   0.0                          T                                        5151861
CAF   002.50 040.4 m E Sg      2013/01/01 05:39:35.6  -0.5                          T                 .4  .19 Ml 1.6         5151862
RJF   002.58 028.3 m E Pn      2013/01/01 05:38:58.9   0.5                          T                                        5151865
RJF   002.58 028.3 m E Pg      2013/01/01 05:39:05.7   0.3                          T                                        5151864
RJF   002.58 028.3 m E Sg      2013/01/01 05:39:39.0   0.4                          T                1.5  .20 Ml 1.9         5151863

.
