EVENT     280500
    Date      Time       Latitude Longitude    Depth    Ndef Nsta Gap    Mag1  N    Mag2  N    Mag3  N   Author         ID
       rms   OT_Error      Smajor Sminor Az        Err   mdist  Mdist     Err        Err        Err      Quality

2012/08/02 21:59:48.2     44.7224    6.7748      6.2      26    8 057  Ml 1.3  4  Md 1.4  1              bulletin    280600
                                                                                                         _ldg
      0.12   +-  0.02        .5     .3   81.39 +-  0.4    0.01   1.40   +-0.2      +-                    m i ke

FRANCE
Sta     Dist  EvAz     Phase      Date       Time     TRes  Azim  AzRes  Slow  SRes Def   SNR       Amp   Per   Mag1   Mag2       ID
MBDF  000.01 331.6 m E Pg      2012/08/02 21:59:49.8   0.1                          T                                        5038520
MBDF  000.01 331.6 m E Sg      2012/08/02 21:59:50.7   0.1                          T               19.5  .16        Md 1.4  5038519
ORIF  000.67 287.4 m E Pg      2012/08/02 22:00:01.0   0.1                          T                                        5038518
ORIF  000.67 287.4 m E Sg      2012/08/02 22:00:09.6  -0.1                          T                1.0  .20                5038515
LPG   000.78 358.8 m E Pg      2012/08/02 22:00:03.3   0.1                          T                                        5038516
LPG   000.78 358.8 m E Sg      2012/08/02 22:00:13.4   0.0                          T                 .4  .17                5038513
LPL   000.79 357.8 m E Pg      2012/08/02 22:00:03.4   0.0                          T                                        5038517
LPL   000.79 357.8 m E Sg      2012/08/02 22:00:13.8  -0.1                          T                  1  .31                5038514
SBF   000.98 150.9 m E Pg      2012/08/02 22:00:06.7   0.0                          T                                        5038506
SBF   000.98 150.9 m E Sg      2012/08/02 22:00:19.4  -0.1                          T                 .8  .18 Ml 1.5         5038505
SMRF  001.14 229.5 m E Pg      2012/08/02 22:00:09.4  -0.1                          T                                        5038512
SMRF  001.14 229.5 m E Sg      2012/08/02 22:00:24.3   0.0                          T                 .8  .30 Ml 1.3         5038511
FRF   001.17 184.6 m E Pg      2012/08/02 22:00:10.0   0.0                          T                                        5038510
FRF   001.17 184.6 m E Sg      2012/08/02 22:00:25.1   0.0                          T                 .3  .20 Ml 1.1         5038509
LMR   001.40 188.0 m E Pn      2012/08/02 22:00:12.7   0.1                          T                                        5038508
LMR   001.40 188.0 m E Sn      2012/08/02 22:00:30.2  -0.1                          T                 .5  .25 Ml 1.3         5038507

.
EVENT     280503
    Date      Time       Latitude Longitude    Depth    Ndef Nsta Gap    Mag1  N    Mag2  N    Mag3  N   Author         ID
       rms   OT_Error      Smajor Sminor Az        Err   mdist  Mdist     Err        Err        Err      Quality

2012/08/02 22:00:10.7     44.6078    7.2384     11.0 f    29    6 125  Ml 1.3  6  Md 1.4  1              bulletin    280603
                                                                                                         _ldg
      0.24   +-  0.05       1.2     .7   74.05 +-  0.0    0.10   1.38   +-0.1      +-                    m i ke

NORTHERN ITALY
Sta     Dist  EvAz     Phase      Date       Time     TRes  Azim  AzRes  Slow  SRes Def   SNR       Amp   Per   Mag1   Mag2       ID
MBDF  000.35 289.8 m E Pg      2012/08/02 22:00:18.1   0.2                          T                                        5038550
MBDF  000.35 289.8 m E Sg      2012/08/02 22:00:22.8  -0.1                          T                3.8  .24        Md 1.4  5038549
LPG   000.95 339.0 m E Pg      2012/08/02 22:00:29.1   0.0                          T                                        5038543
LPG   000.95 339.0 m E Sg      2012/08/02 22:00:41.5   0.0                          T                1.0  .30 Ml 1.3         5038544
LPL   000.98 338.6 m E Pg      2012/08/02 22:00:29.3   0.0                          T                                        5038546
LPL   000.98 338.6 m E Sg      2012/08/02 22:00:42.1   0.0                          T                 .8  .30 Ml 1.2         5038545
ORIF  001.02 288.3 m E Pg      2012/08/02 22:00:29.7  -0.2                          T                                        5038548
ORIF  001.02 288.3 m E Sg      2012/08/02 22:00:43.3   0.1                          T                 .5  .21 Ml 1.2         5038547
FRF   001.13 202.4 m E Pg      2012/08/02 22:00:31.7  -0.2                          T                                        5038542
FRF   001.13 202.4 m E Sg      2012/08/02 22:00:46.5  -0.1                          T                 .6  .18 Ml 1.4         5038541
LMR   001.38 202.7 m E Pn      2012/08/02 22:00:34.3   0.1                          T                                        5038540
LMR   001.38 202.7 m E Sn      2012/08/02 22:00:51.4   0.1                          T                                        5038539
LMR   001.38 202.7 m E Sg      2012/08/02 22:00:54.3   0.0                          T                 .6  .23 Ml 1.4         5038538

.
EVENT     280504
    Date      Time       Latitude Longitude    Depth    Ndef Nsta Gap    Mag1  N    Mag2  N    Mag3  N   Author         ID
       rms   OT_Error      Smajor Sminor Az        Err   mdist  Mdist     Err        Err        Err      Quality

2012/08/03 03:00:47.3     43.1573   -1.1243     15.0      10    2 180             Md 1.5  2              bulletin    280604
                                                                                                         _ldg
      0.17   +-  0.07       1.7    1.0    6.49 +-  0.0    0.09   0.49              +-0.0                 m i ke

PYRENEES
Sta     Dist  EvAz     Phase      Date       Time     TRes  Azim  AzRes  Slow  SRes Def   SNR       Amp   Per   Mag1   Mag2       ID
SJPF  000.09 239.2 m E Pg      2012/08/03 03:00:50.6   0.1                          T                                        5038596
SJPF  000.09 239.2 m E Sg      2012/08/03 03:00:52.7   0.0                          T                1.7  .17        Md 1.5  5038595
ETSF  000.49 121.8 m E Pg      2012/08/03 03:00:57.1   0.1                          T                                Md 1.5  5038593
ETSF  000.49 121.8 m E Sg      2012/08/03 03:01:03.1  -0.6                          T                 .4  .28                5038594

.
EVENT     280505
    Date      Time       Latitude Longitude    Depth    Ndef Nsta Gap    Mag1  N    Mag2  N    Mag3  N   Author         ID
       rms   OT_Error      Smajor Sminor Az        Err   mdist  Mdist     Err        Err        Err      Quality

2012/08/03 03:20:33.5     42.7114   -1.4619      2.0      13    3 280  Ml 1.3  1  Md 1.4  2              bulletin    280605
                                                                                                         _ldg
      0.21   +-  0.21       3.2    2.1   50.28 +-  0.0    0.12   1.36   +-         +-0.1                 m i ke

PYRENEES
Sta     Dist  EvAz     Phase      Date       Time     TRes  Azim  AzRes  Slow  SRes Def   SNR       Amp   Per   Mag1   Mag2       ID
SJPF  000.44 023.3 m E Pg      2012/08/03 03:20:42.1   0.2                          T                                        5038612
SJPF  000.44 023.3 m E Sg      2012/08/03 03:20:47.5  -0.2                          T                 .9  .21        Md 1.4  5038611
ETSF  000.69 074.0 m E Pg      2012/08/03 03:20:46.5  -0.1                          T                                        5038610
ETSF  000.69 074.0 m E Sg      2012/08/03 03:20:55.7   0.1                          T                 .3  .23        Md 1.3  5038609
EPF   001.36 075.9 m E Pn      2012/08/03 03:20:57.9   0.0                          T                                        5038607
EPF   001.36 075.9 m E Sg      2012/08/03 03:21:16.7   0.1                          T                 .7  .30 Ml 1.3         5038608

.
EVENT     280462
    Date      Time       Latitude Longitude    Depth    Ndef Nsta Gap    Mag1  N    Mag2  N    Mag3  N   Author         ID
       rms   OT_Error      Smajor Sminor Az        Err   mdist  Mdist     Err        Err        Err      Quality

2012/08/03 04:32:54.5     45.0291    6.7242      3.0 f    21    8 069  Ml 1.4  2  Md 1.3  1              bulletin    280562
                                                                                                         _ldg
      0.27   +-  0.06       1.5    1.1   78.98 +-  0.0    0.04   5.05   +-0.2      +-                    m i ke

FRANCE
Sta     Dist  EvAz     Phase      Date       Time     TRes  Azim  AzRes  Slow  SRes Def   SNR       Amp   Per   Mag1   Mag2       ID
MBDF  000.30 173.6 m E Pg      2012/08/03 04:33:00.3  -0.3                          T                                        5038171
MBDF  000.30 173.6 m E Sg      2012/08/03 04:33:04.6  -0.1                          T                5.6  .44        Md 1.3  5038167
LPG   000.47 002.3 m E Pg      2012/08/03 04:33:03.7  -0.1                          T                                        5038168
LPG   000.47 002.3 m E Sg      2012/08/03 04:33:09.9  -0.1                          T                3.6  .27                5038165
LPL   000.49 000.7 m E Pg      2012/08/03 04:33:04.0  -0.1                          T                                        5038169
LPL   000.49 000.7 m E Sg      2012/08/03 04:33:10.2  -0.3                          T                2.2  .22                5038180
ORIF  000.61 259.8 m E Pg      2012/08/03 04:33:05.8  -0.4                          T                                        5038170
ORIF  000.61 259.8 m E Sg      2012/08/03 04:33:12.5  -1.6                          T                2.8  .44                5038166
SMRF  001.34 218.4 m E P       2012/08/03 04:33:20.4   0.3                          T                                        5038178
SMRF  001.34 218.4 m E Sn      2012/08/03 04:33:35.4  -0.2                          T                 .5  .25 Ml 1.3         5038182
VIVF  001.47 264.0 m E P       2012/08/03 04:33:22.2   0.2                          T                                        5038179
FRF   001.47 182.2 m E P       2012/08/03 04:33:23.0   1.0                          T                                        5038177
FRF   001.47 182.2 m E Sn      2012/08/03 04:33:38.9   0.2                          T                 .8  .22 Ml 1.6         5038181
MFF   005.05 290.6 m E Pn      2012/08/03 04:34:07.7  -1.3                          T                                        5038173
MFF   005.05 290.6 m E P       2012/08/03 04:34:13.8   0.8                          T                                        5038172

.
EVENT     280556
    Date      Time       Latitude Longitude    Depth    Ndef Nsta Gap    Mag1  N    Mag2  N    Mag3  N   Author         ID
       rms   OT_Error      Smajor Sminor Az        Err   mdist  Mdist     Err        Err        Err      Quality

2012/08/03 09:54:10.0     47.3133    5.8244       .0 f    13    7 111  Ml 2.2  4  Md 2.1  2              bulletin    280656
                                                                                                         _ldg
      0.32   +-  0.10       2.4    1.6   80.92 +-  0.0    0.73   1.34   +-0.1      +-0.0                 m i km

FRANCE
Sta     Dist  EvAz     Phase      Date       Time     TRes  Azim  AzRes  Slow  SRes Def   SNR       Amp   Per   Mag1   Mag2       ID
CABF  000.73 165.5 m E Pg      2012/08/03 09:54:23.8  -0.3                          T                                        5045713
CABF  000.73 165.5 m E Sg      2012/08/03 09:54:33.3  -0.4                          T                                        5045714
CABF  000.73 165.5 m E Sn      2012/08/03 09:54:38.1   0.6                          T                2.5  .19                5045715
HAU   000.78 026.9 m E Pg      2012/08/03 09:54:24.6  -0.3                          T                                        5041850
HAU   000.78 026.9 m E Sg      2012/08/03 09:54:35.2  -0.1                          T                9.5  .32        Md 2.1  5041847
HINF  000.86 053.8 m E Pg      2012/08/03 09:54:26.5   0.1                          T                                        5041849
HINF  000.86 053.8 m E Sg      2012/08/03 09:54:37.6  -0.2                          T               15.1  .50 Ml 2.2 Md 2.1  5041848
SFTF  001.04 329.6 m E Pg      2012/08/03 09:54:29.8   0.1                          T                                        5041852
SFTF  001.04 329.6 m E Sg      2012/08/03 09:54:42.8  -0.6                          T                                        5041851
PAGF  001.24 357.0 m E Pg      2012/08/03 09:54:33.7   0.3                          T                                        5041854
PAGF  001.24 357.0 m E Sg      2012/08/03 09:54:50.0   0.2                          T               15.4  .61 Ml 2.3         5041853
MEZF  001.30 336.7 m E Sg      2012/08/03 09:54:50.7  -0.7                          T                6.5  .39 Ml 2.2         5045716
LOR   001.34 268.8 m E Sg      2012/08/03 09:54:52.6  -0.1                          T                4.8  .32 Ml 2.2         5045717

.
EVENT     280568
    Date      Time       Latitude Longitude    Depth    Ndef Nsta Gap    Mag1  N    Mag2  N    Mag3  N   Author         ID
       rms   OT_Error      Smajor Sminor Az        Err   mdist  Mdist     Err        Err        Err      Quality

2012/08/03 11:47:49.1     42.8318     .0421      2.0       6    3 231  Ml 1.5  1  Md 1.3  2              bulletin    280668
                                                                                                         _ldg
      0.76   +-  1.56      55.4    8.1  165.88 +-  0.0    0.30   0.97   +-         +-0.1                 m i ke

PYRENEES
Sta     Dist  EvAz     Phase      Date       Time     TRes  Azim  AzRes  Slow  SRes Def   SNR       Amp   Per   Mag1   Mag2       ID
EPF   000.30 047.7 m E Pg      2012/08/03 11:47:54.9   0.0                          T                                        5039914
EPF   000.30 047.7 m E Sg      2012/08/03 11:47:58.6  -0.4                          T                8.4  .32        Md 1.4  5039915
ETSF  000.45 278.8 m E Pg      2012/08/03 11:47:57.0  -0.8                          T                                        5039917
ETSF  000.45 278.8 m E Sg      2012/08/03 11:48:02.2  -1.5                          T                 10  .36        Md 1.2  5039916
SJPF  000.97 287.3 m E Pg      2012/08/03 11:48:08.2   0.9                          T                                        5045718
SJPF  000.97 287.3 m E Sg      2012/08/03 11:48:19.6  -0.3                          T                1.4  .27 Ml 1.5         5039913

.
EVENT     280508
    Date      Time       Latitude Longitude    Depth    Ndef Nsta Gap    Mag1  N    Mag2  N    Mag3  N   Author         ID
       rms   OT_Error      Smajor Sminor Az        Err   mdist  Mdist     Err        Err        Err      Quality

2012/08/03 14:45:36.4     47.6807    5.8099       .0 f    16   10 091  Ml 2.1  5  Md 2.2  1              bulletin    280608
                                                                                                         _ldg
      1.06   +-  0.14       3.1    2.3  149.54 +-  0.0    0.49   1.70   +-0.1      +-                    m i km

FRANCE
Sta     Dist  EvAz     Phase      Date       Time     TRes  Azim  AzRes  Slow  SRes Def   SNR       Amp   Per   Mag1   Mag2       ID
HAU   000.49 047.9 m E Pg      2012/08/03 14:45:46.2   0.2                          T                                        5038624
HAU   000.49 047.9 m E Sg      2012/08/03 14:45:52.7   0.1                          T                8.2  .30        Md 2.2  5038623
SFTF  000.74 315.6 m E Pg      2012/08/03 14:45:49.6  -1.0 129.1  -5.9              T                                        5038617
SFTF  000.74 315.6 m E Sn      2012/08/03 14:46:04.6   0.5                          T               14.1  .46                5045727
HINF  000.72 078.7 m E Pg      2012/08/03 14:45:50.7   0.4                          T                                        5038622
HINF  000.72 078.7 m E Sg      2012/08/03 14:45:59.5  -0.4                          T                4.3  .40                5045721
PAGF  000.88 356.3 m E Pg      2012/08/03 14:45:53.6   0.5 170.6  -5.6              T                                        5038620
MEZF  000.97 328.5 m E Pg      2012/08/03 14:45:54.2  -0.6 148.3  0.3               T                                        5038618
CABF  001.09 169.9 m E Pg      2012/08/03 14:45:56.8  -0.3                          T                                        5045722
CABF  001.09 169.9 m E Sg      2012/08/03 14:46:10.5  -0.9                          T                8.0  .34 Ml 2.2         5045723
LOR   001.39 253.4 m E Pg      2012/08/03 14:46:02.7   0.2  76.1  4.1               T                                        5045725
LOR   001.39 253.4 m E Sg      2012/08/03 14:46:21.1   0.5  79.6  7.6               T                2.3  .22 Ml 2.0         5045720
SSF   001.68 249.3 m E Pg      2012/08/03 14:46:08.0   0.0                          T                                        5045724
SSF   001.68 249.3 m E Sg      2012/08/03 14:46:30.4   0.4                          T                3.9  .35 Ml 2.3         5045719
CDF   001.23 052.8 m E Sg      2012/08/03 14:46:15.7  -0.1                          T                5.9  .36 Ml 2.2         5038619
SMF   001.70 233.1 m E Sg      2012/08/03 14:46:30.6   0.3                          T                2.3  .33 Ml 2.0         5045726

.
