EVENT     295328
    Date      Time       Latitude Longitude    Depth    Ndef Nsta Gap    Mag1  N    Mag2  N    Mag3  N   Author         ID
       rms   OT_Error      Smajor Sminor Az        Err   mdist  Mdist     Err        Err        Err      Quality

2013/04/04 12:27:53.3     38.9041  -10.9441     30.0     131   22 243  Ml 4.1 15                         bulletin    295428
                                                                                                         _ldg
      0.98   +-  0.20       4.1    2.1   76.50 +-  0.0    1.30  13.65   +-0.2                            m i ke

NORTH ATLANTIC OCEAN
Sta     Dist  EvAz     Phase      Date       Time     TRes  Azim  AzRes  Slow  SRes Def   SNR       Amp   Per   Mag1   Mag2       ID
SJPF  008.46 057.1 m E Pn      2013/04/04 12:29:52.9   1.2                          T                                        5244612
SJPF  008.46 057.1 m E Sn      2013/04/04 12:31:21.0   0.3                          T               17.3  .40 Ml 4.1         5244586
ETSF  008.82 059.8 m E Pn      2013/04/04 12:29:57.7   1.1                          T                                        5244611
ETSF  008.82 059.8 m E Sn      2013/04/04 12:31:29.4   0.3                          T               11.1  .40 Ml 4.0         5244587
EPF   009.48 060.6 m E Pn      2013/04/04 12:30:07.2   1.6                          T                                        5244610
EPF   009.48 060.6 m E Sn      2013/04/04 12:31:45.2   0.3                          T               18.6  .42 Ml 4.3         5244588
LFF   010.59 051.5 m E Pn      2013/04/04 12:30:20.8   0.3                          T                                        5244607
LFF   010.59 051.5 m E Sn      2013/04/04 12:32:11.7   0.4                          T                                        5244585
QUIF  010.63 029.6 m E Pn      2013/04/04 12:30:21.0  -0.1                          T                                        5244600
QUIF  010.63 029.6 m E Sn      2013/04/04 12:32:10.8  -1.6                          T               13.6  .49 Ml 4.3         5244581
ROSF  010.94 028.0 m E Pn      2013/04/04 12:30:24.9  -0.4                          T                                        5244598
ROSF  010.94 028.0 m E Sn      2013/04/04 12:32:19.5  -0.2                          T                4.3  .27 Ml 4.1         5244579
MTLF  010.87 061.7 m E Pn      2013/04/04 12:30:25.8   1.3                          T                                        5244609
MTLF  010.87 061.7 m E Sn      2013/04/04 12:32:18.2   0.0                          T                5.2  .49 Ml 3.9         5250742
MFF   011.05 042.4 m E Pn      2013/04/04 12:30:26.8   0.0                          T                                        5244601
MFF   011.05 042.4 m E Sn      2013/04/04 12:32:22.3   0.0                          T               12.4  .58 Ml 4.4         5250743
SGMF  011.14 030.3 m E Pn      2013/04/04 12:30:28.2   0.0                          T                                        5244599
SGMF  011.14 030.3 m E Sn      2013/04/04 12:32:20.9  -3.7                          T                2.3  .28 Ml 3.8         5244580
RJF   011.24 051.3 m E Pn      2013/04/04 12:30:29.9   0.3                          T                                        5244590
RJF   011.24 051.3 m E Sn      2013/04/04 12:32:26.9  -0.1                          T                4.8  .24 Ml 3.9         5244583
CAF   011.40 054.0 m E Pn      2013/04/04 12:30:31.0  -0.8                          T                                        5244606
CAF   011.40 054.0 m E Sn      2013/04/04 12:32:31.2   0.4                          T                3.5  .33 Ml 3.9         5244584
TCF   012.17 048.5 m E Pn      2013/04/04 12:30:42.0  -0.2                          T                                        5244602
TCF   012.17 048.5 m E Sn      2013/04/04 12:32:48.9  -0.4                          T                3.3  .31 Ml 4.1         5250744
LASF  012.24 060.3 m E Pn      2013/04/04 12:30:43.2   0.1                          T                                        5244605
FLN   012.40 034.0 m E Pn      2013/04/04 12:30:45.3   0.0 211.2  -10.0             T                                        5244596
LDF   012.44 035.4 m E Pn      2013/04/04 12:30:45.5  -0.3                          T                                        5244597
BGF   012.69 048.5 m E Pn      2013/04/04 12:30:49.0  -0.2                          T                                        5244608
BGF   012.69 048.5 m E Sn      2013/04/04 12:33:01.7   0.2                          T               13.0  .47 Ml 4.5         5244582
HYF   012.96 045.5 m E Pn      2013/04/04 12:30:52.9  -0.1                          T                                        5244603
AVF   013.11 048.4 m E Pn      2013/04/04 12:30:54.2  -0.6                          T                                        5244604
VIVF  013.06 057.9 m E Pn      2013/04/04 12:30:54.4   0.1                          T                                        5244589
SMF   013.32 049.7 m E Pn      2013/04/04 12:30:57.9   0.1                          T                                        5244591
SSF   013.34 047.7 m E Pn      2013/04/04 12:30:58.0  -0.1                          T                                        5244595
LOR   013.65 047.5 m E Pn      2013/04/04 12:31:02.4   0.0 226.7  -10.9             T                                        5244594

.
EVENT     295336
    Date      Time       Latitude Longitude    Depth    Ndef Nsta Gap    Mag1  N    Mag2  N    Mag3  N   Author         ID
       rms   OT_Error      Smajor Sminor Az        Err   mdist  Mdist     Err        Err        Err      Quality

2013/04/04 18:58:24.9     33.6058    7.8643     30.0      95   33 094                                    bulletin    295436
                                                                                                         _ldg
                                               +-         2.45  47.74                                    m i ke

NORTHERN ALGERIA
Sta     Dist  EvAz     Phase      Date       Time     TRes  Azim  AzRes  Slow  SRes Def   SNR       Amp   Per   Mag1   Mag2       ID
PGF   008.97 005.4 m E Pn      2013/04/04 19:00:31.5   1.2                          T                                        5244718
PGF   008.97 005.4 m E Sn      2013/04/04 19:02:05.0   0.4                          T                1.5  .27                5244717
MTLF  010.68 337.2 m E P       2013/04/04 19:00:59.2   0.2                          T                                        5245563
MTLF  010.68 337.2 m E Sn      2013/04/04 19:02:44.7  -0.5                          T                 .6  .20                5244713
EPF   011.11 330.1 m E Pn      2013/04/04 19:01:00.8   1.5                          T                                        5244721
EPF   011.11 330.1 m E Sn      2013/04/04 19:02:55.9   0.4                          T                9.6  .47                5244714
ORIF  011.40 352.9 m E Pn      2013/04/04 19:01:03.4   0.0                          T                                        5244720
ETSF  011.39 327.0 m E Pn      2013/04/04 19:01:03.7   0.4                          T                                        5244711
ETSF  011.39 327.0 m E P       2013/04/04 19:01:09.7   1.0                          T                                        5245564
ETSF  011.39 327.0 m E Sn      2013/04/04 19:03:01.6  -0.7                          T                2.6  .37                5244712
LPG   011.91 356.2 m E Pn      2013/04/04 19:01:10.4  -0.2                          T                                        5244722
SJPF  011.87 325.8 m E Pn      2013/04/04 19:01:10.4   0.8                          T                                        5244710
SJPF  011.87 325.8 m E P       2013/04/04 19:01:15.2   0.1                          T                                        5245565
VIVF  011.50 348.5 m E P       2013/04/04 19:01:10.8   0.6                          T                                        5244729
CAF   012.16 340.1 m E Pn      2013/04/04 19:01:12.7  -1.0                          T                                        5244709
CAF   012.16 340.1 m E Sn      2013/04/04 19:03:19.4  -1.3                          T                 .8  .31                5244708
LPL   011.93 356.1 m E P       2013/04/04 19:01:16.4   0.2                          T                                        5245562
LFF   012.58 336.2 m E P       2013/04/04 19:01:25.0   0.3                          T                                        5244730
LFF   012.58 336.2 m E Sn      2013/04/04 19:03:29.3  -1.4                          T                3.3  .40                5244707
CABF  013.06 354.6 m E P       2013/04/04 19:01:31.4   0.3                          T                                        5244733
BGF   013.49 345.0 m E Pn      2013/04/04 19:01:31.5  -0.2                          T                                        5245568
SMF   013.38 347.9 m E P       2013/04/04 19:01:36.2   0.9                          T                                        5244727
AVF   013.61 346.7 m E P       2013/04/04 19:01:37.3  -1.0                          T                                        5244726
HINF  014.22 357.2 m E P       2013/04/04 19:01:46.6   0.2                          T                                        5244736
MFF   014.34 337.2 m E P       2013/04/04 19:01:48.6   0.6                          T                                        5244725
SFTF  014.74 352.6 m E Pn      2013/04/04 19:01:49.1   0.3 172.3  1.6               T                                        5244732
HAU   014.43 355.9 m E P       2013/04/04 19:01:49.9   0.7                          T                                        5244723
MEZF  015.03 352.8 m E Pn      2013/04/04 19:01:52.6  -0.1 173.3  2.3               T                                        5244704
CDF   014.80 358.5 m E P       2013/04/04 19:01:54.8   0.8                          T                                        5244705
PAGF  015.02 354.5 m E P       2013/04/04 19:01:57.1   0.3                          T                                        5244728
FLN   016.38 340.1 m E Pn      2013/04/04 19:02:11.3   0.3 164.7  10.2              T                                        5245567
LDF   016.12 340.6 m E P       2013/04/04 19:02:11.4   0.4                          T                                        5244731
GRR   016.15 338.7 m E P       2013/04/04 19:02:11.6   0.3                          T                                        5245566
BAIF  016.66 351.8 m E Pn      2013/04/04 19:02:14.8  -0.1                          T                                        5244734
SGMF  016.59 335.0 m E P       2013/04/04 19:02:17.0   0.0                          T                                        5244724
GIVF  016.64 353.1 m E P       2013/04/04 19:02:18.3   0.8                          T                                        5244735
LMR   009.77 354.2 m E Sn      2013/04/04 19:02:22.9  -0.6                          T                4.2  .32                5244716
FRF   009.99 354.9 m E Sn      2013/04/04 19:02:27.7  -1.0                          T                3.2  .44                5244715
LASF  010.91 344.6 m E Sn      2013/04/04 19:02:50.1  -0.6                          T                                        5245088
MBDF  011.14 356.0 m E Sn      2013/04/04 19:02:56.7   0.4                          T                1.6  .27                5245089
LIC   029.76 206.5 m E P       2013/04/04 19:04:28.4  -2.6  21.0  -1.0              T                                        5245591
LIC   029.76 206.5 m E Sg      2013/04/04 19:14:18.7 *****                          T              106.3 1.46                5245592

.
EVENT     295337
    Date      Time       Latitude Longitude    Depth    Ndef Nsta Gap    Mag1  N    Mag2  N    Mag3  N   Author         ID
       rms   OT_Error      Smajor Sminor Az        Err   mdist  Mdist     Err        Err        Err      Quality

2013/04/04 19:28:33.0     41.5615    2.6306      4.0 f    87   11 118  Ml 2.5 11  Md 2.7  2              bulletin    295437
                                                                                                         _ldg
      0.54   +-  0.09       1.7    1.1  131.04 +-  0.0    0.25   4.33   +-0.3      +-0.1                 m i ke

SPAIN
Sta     Dist  EvAz     Phase      Date       Time     TRes  Azim  AzRes  Slow  SRes Def   SNR       Amp   Per   Mag1   Mag2       ID
FBR   000.41 249.1 m E Pg      2013/04/04 19:28:41.1   0.2                          T                                        5245742
FBR   000.41 249.1 m E Sg      2013/04/04 19:28:46.5   0.2                          T                                        5245743
MTLF  001.80 350.4 m E Pn      2013/04/04 19:29:03.7   0.5                          T                                        5244812
MTLF  001.80 350.4 m E Pg      2013/04/04 19:29:06.1  -0.5                          T                                        5244821
MTLF  001.80 350.4 m E Sn      2013/04/04 19:29:24.0  -1.2                          T                                        5244826
MTLF  001.80 350.4 m E Sg      2013/04/04 19:29:29.1  -0.8                          T                7.9  .22 Ml 2.7 Md 2.7  5244819
EPF   002.25 311.6 m E Pn      2013/04/04 19:29:09.7   0.4                          T                                        5244813
EPF   002.25 311.6 m E Pg      2013/04/04 19:29:14.3  -0.5                          T                                        5244820
EPF   002.25 311.6 m E Sg      2013/04/04 19:29:43.3  -0.4                          T                7.6  .18 Ml 2.9 Md 2.6  5244818
LASF  002.67 019.3 m E Pn      2013/04/04 19:29:14.7  -0.3                          T                                        5244795
LASF  002.67 019.3 m E Pg      2013/04/04 19:29:22.3  -0.2                          T                                        5244796
LASF  002.67 019.3 m E Sn      2013/04/04 19:29:46.0   0.1                          T                                        5244797
LASF  002.67 019.3 m E Sg      2013/04/04 19:29:56.5  -0.4                          T                3.3  .32 Ml 2.4         5244798
ETSF  002.72 300.5 m E Pn      2013/04/04 19:29:16.0   0.3                          T                                        5244814
ETSF  002.72 300.5 m E Pg      2013/04/04 19:29:24.0   0.4                          T                                        5244815
ETSF  002.72 300.5 m E Sn      2013/04/04 19:29:47.9   0.7                          T                                        5244816
ETSF  002.72 300.5 m E Sg      2013/04/04 19:29:56.9  -1.6                          T                9.2  .40 Ml 2.7         5244817
SJPF  003.25 299.8 m E Pn      2013/04/04 19:29:23.4   0.5                          T                                        5244811
SJPF  003.25 299.8 m E Pg      2013/04/04 19:29:33.5   0.3                          T                                        5244808
SJPF  003.25 299.8 m E Sn      2013/04/04 19:30:00.1   0.4                          T                                        5244809
SJPF  003.25 299.8 m E Sg      2013/04/04 19:30:15.3   0.2                          T                3.6  .28 Ml 2.6         5244810
LMR   003.37 057.0 m E Pn      2013/04/04 19:29:25.0   0.5                          T                                        5244828
LMR   003.37 057.0 m E Sn      2013/04/04 19:30:03.0   0.4                          T                 .7  .25 Ml 2.0         5244827
VIVF  003.62 023.7 m E Pn      2013/04/04 19:29:27.9   0.1                          T                                        5244791
VIVF  003.62 023.7 m E Pg      2013/04/04 19:29:40.3   0.3                          T                                        5244792
VIVF  003.62 023.7 m E Sn      2013/04/04 19:30:08.6   0.1                          T                                        5244793
VIVF  003.62 023.7 m E Sg      2013/04/04 19:30:26.3  -0.1                          T                 .8  .22 Ml 2.1         5244794
LFF   003.65 338.4 m E Pn      2013/04/04 19:29:28.2  -0.1                          T                                        5244802
LFF   003.65 338.4 m E Pg      2013/04/04 19:29:40.4  -0.1                          T                                        5244803
LFF   003.65 338.4 m E Sn      2013/04/04 19:30:09.9   0.7                          T                                        5244804
LFF   003.65 338.4 m E Sg      2013/04/04 19:30:27.6   0.3                          T               11.6  .60 Ml 2.7         5244805
CAF   003.39 353.2 m E Pg      2013/04/04 19:29:35.6  -0.3                          T                                        5244807
CAF   003.39 353.2 m E Sg      2013/04/04 19:30:18.4  -0.9                          T                2.9  .24 Ml 2.6         5244806
RJF   003.83 348.1 m E Pg      2013/04/04 19:29:44.5   0.6                          T                                        5244799
RJF   003.83 348.1 m E Sn      2013/04/04 19:30:13.7   0.2                          T                                        5244800
RJF   003.83 348.1 m E Sg      2013/04/04 19:30:33.3   0.3                          T                1.5  .20 Ml 2.2         5244801

.
EVENT     295338
    Date      Time       Latitude Longitude    Depth    Ndef Nsta Gap    Mag1  N    Mag2  N    Mag3  N   Author         ID
       rms   OT_Error      Smajor Sminor Az        Err   mdist  Mdist     Err        Err        Err      Quality

2013/04/04 19:40:47.6     42.7203   -1.7187      2.0      21    3 105  Ml 1.8  2  Md 1.9  1              bulletin    295438
                                                                                                         _ldg
      0.39   +-  0.12       1.9    1.7   38.94 +-  0.0    0.11   2.53   +-0.1      +-                    m i ke

PYRENEES
Sta     Dist  EvAz     Phase      Date       Time     TRes  Azim  AzRes  Slow  SRes Def   SNR       Amp   Per   Mag1   Mag2       ID
SJPF  000.53 042.5 m E Pg      2013/04/04 19:40:57.8   0.1                          T                                        5244848
SJPF  000.53 042.5 m E Sg      2013/04/04 19:41:05.1   0.3                          T                7.5  .32        Md 1.9  5244845
ETSF  000.87 077.8 m E Pg      2013/04/04 19:41:04.2   0.2                          T                                        5244847
ETSF  000.87 077.8 m E Sg      2013/04/04 19:41:16.3   0.9                          T                3.2  .33 Ml 1.7         5244844
EPF   001.54 077.7 m E Pg      2013/04/04 19:41:16.3  -0.1                          T                                        5244846
EPF   001.54 077.7 m E Sg      2013/04/04 19:41:36.2  -0.2                          T                2.2  .28 Ml 1.9         5244843

.
