EVENT     259434
    Date      Time       Latitude Longitude    Depth    Ndef Nsta Gap    Mag1  N    Mag2  N    Mag3  N   Author         ID
       rms   OT_Error      Smajor Sminor Az        Err   mdist  Mdist     Err        Err        Err      Quality

2011/05/19 03:13:45.6     46.9770     .9584      2.0      38   14 098  Ml 2.1 14  Md 2.0  3              js067245    259434

      0.65   +-  0.04       1.1     .8   36.47 +-  0.0    0.85   2.19   +-0.2      +-0.0                 m i ke

FRANCE
Sta     Dist  EvAz     Phase      Date       Time     TRes  Azim  AzRes  Slow  SRes Def   SNR       Amp   Per   Mag1   Mag2       ID
MFF   000.85 244.1 m E Pg      2011/05/19 03:14:01.6   0.2                          T                                        4693151
MFF   000.85 244.1 m E Sg      2011/05/19 03:14:12.1  -0.4                          T               12.3  .26        Md 2.0  4693147
TCF   001.10 128.2 m E Pg      2011/05/19 03:14:06.4   0.1                          T                                        4693149
TCF   001.10 128.2 m E Sg      2011/05/19 03:14:20.9   0.3                          T                2.4  .22 Ml 1.9 Md 1.9  4693135
HYF   001.18 075.1 m E Pg      2011/05/19 03:14:07.9   0.1                          T                                        4693128
HYF   001.18 075.1 m E Sg      2011/05/19 03:14:23.4   0.4                          T                                Md 2.0  4693138
BGF   001.36 107.2 m E Pg      2011/05/19 03:14:11.1   0.1                          T                                        4693150
BGF   001.36 107.2 m E Sg      2011/05/19 03:14:29.0   0.3                          T                6.9  .24 Ml 2.4         4693139
AVF   001.65 095.6 m E Pn      2011/05/19 03:14:13.9   0.1                          T                                        4693130
AVF   001.65 095.6 m E Sg      2011/05/19 03:14:37.0  -0.7                          T                2.4  .28 Ml 2.0         4693136
RJF   001.72 166.7 m E Pn      2011/05/19 03:14:14.8   0.0                          T                                        4693126
RJF   001.72 166.7 m E Pg      2011/05/19 03:14:17.6   0.0                          T                                        4693127
RJF   001.72 166.7 m E Sg      2011/05/19 03:14:38.8  -0.9                          T                8.0  .36 Ml 2.2         4693146
SSF   001.75 086.3 m E Pn      2011/05/19 03:14:15.2   0.1                          T                                        4693131
SSF   001.75 086.3 m E Sg      2011/05/19 03:14:40.4  -0.1                          T                1.9  .39 Ml 1.9         4693134
LDF   001.77 336.1 m E Pn      2011/05/19 03:14:15.4  -0.1                          T                                        4693117
LDF   001.77 336.1 m E Pg      2011/05/19 03:14:18.6   0.0                          T                                        4693120
LDF   001.77 336.1 m E Sg      2011/05/19 03:14:40.6  -0.9                          T                1.6  .25 Ml 1.9         4693143
GRR   001.87 319.7 m E Pn      2011/05/19 03:14:16.8   0.0                          T                                        4693116
GRR   001.87 319.7 m E Pg      2011/05/19 03:14:20.2  -0.1                          T                                        4693121
GRR   001.87 319.7 m E Sg      2011/05/19 03:14:44.6   0.2                          T                2.3  .25 Ml 2.0         4693141
LOR   002.00 080.6 m E Pn      2011/05/19 03:14:18.7   0.1                          T                                        4693132
LOR   002.00 080.6 m E Sg      2011/05/19 03:14:48.3  -0.3 257.6  -5.1              T                2.4  .24 Ml 2.2         4693133
SMF   002.01 098.5 m E Pn      2011/05/19 03:14:18.8   0.0                          T                                        4693129
SMF   002.01 098.5 m E Sg      2011/05/19 03:14:47.3  -1.4                          T                2.1  .26 Ml 2.1         4693137
FLN   002.03 332.0 m E Pn      2011/05/19 03:14:19.1   0.1                          T                                        4693118
FLN   002.03 332.0 m E Pg      2011/05/19 03:14:23.3   0.0                          T                                        4693119
FLN   002.03 332.0 m E Sg      2011/05/19 03:14:49.4  -0.1 139.9  -11.0             T                2.7  .29 Ml 2.0         4693142
LFF   002.04 184.3 m E Pn      2011/05/19 03:14:19.2   0.0                          T                                        4693125
LFF   002.04 184.3 m E Pg      2011/05/19 03:14:23.6   0.1                          T                                        4693122
LFF   002.04 184.3 m E Sg      2011/05/19 03:14:49.6  -0.3                          T                2.2  .19 Ml 2.1         4693145
CAF   002.19 159.0 m E Pn      2011/05/19 03:14:21.3   0.0                          T                                        4693123
CAF   002.19 159.0 m E Pg      2011/05/19 03:14:26.4   0.0                          T                                        4693124
CAF   002.19 159.0 m E Sg      2011/05/19 03:14:54.5   0.0                          T                3.8  .29 Ml 2.4         4693144

.
EVENT     259433
    Date      Time       Latitude Longitude    Depth    Ndef Nsta Gap    Mag1  N    Mag2  N    Mag3  N   Author         ID
       rms   OT_Error      Smajor Sminor Az        Err   mdist  Mdist     Err        Err        Err      Quality

2011/05/19 05:40:45.9     43.0503    -.1653      2.0      38    7 098  Ml 2.0  5  Md 1.8  3              js067245    259433

      0.37   +-  0.05       1.3     .8  164.99 +-  0.0    0.17   2.56   +-0.2      +-0.0                 m i ke

PYRENEES
Sta     Dist  EvAz     Phase      Date       Time     TRes  Azim  AzRes  Slow  SRes Def   SNR       Amp   Per   Mag1   Mag2       ID
ETSF  000.33 242.5 m E Pg      2011/05/19 05:40:51.7  -0.6                          T                                        4693171
ETSF  000.33 242.5 m E Sg      2011/05/19 05:40:55.9  -0.8                          T               53.3  .24        Md 1.9  4693168
EPF   000.37 092.9 m E Pg      2011/05/19 05:40:53.1   0.0                          T                                        4693170
EPF   000.37 092.9 m E Sg      2011/05/19 05:40:58.2   0.1                          T               15.4  .26        Md 1.8  4693167
SJPF  000.78 275.0 m E Pg      2011/05/19 05:41:00.5   0.0                          T                                        4693169
SJPF  000.78 275.0 m E Sg      2011/05/19 05:41:10.0  -0.7                          T                4.1  .30        Md 1.9  4693166
MTLF  001.77 079.7 m E Pg      2011/05/19 05:41:18.8   0.1                          T                                        4693161
MTLF  001.77 079.7 m E Sg      2011/05/19 05:41:41.7   0.2                          T                2.0  .34 Ml 1.9         4693162
LFF   002.00 018.8 m E Pg      2011/05/19 05:41:22.9  -0.1                          T                                        4693159
LFF   002.00 018.8 m E Sg      2011/05/19 05:41:48.8   0.1                          T                6.3  .37 Ml 2.3         4693164
CAF   002.47 039.9 m E Pg      2011/05/19 05:41:31.8   0.0                          T                                        4693160
CAF   002.47 039.9 m E Sg      2011/05/19 05:42:03.7   0.1                          T                2.1  .31 Ml 2.1         4693165
RJF   002.56 027.7 m E Pg      2011/05/19 05:41:33.4   0.1                          T                                        4693158
RJF   002.56 027.7 m E Sg      2011/05/19 05:42:06.3   0.1                          T                2.0  .36 Ml 1.7         4693163

.
EVENT     259463
    Date      Time       Latitude Longitude    Depth    Ndef Nsta Gap    Mag1  N    Mag2  N    Mag3  N   Author         ID
       rms   OT_Error      Smajor Sminor Az        Err   mdist  Mdist     Err        Err        Err      Quality

2011/05/19 06:35:37.0     42.7637    -.6639      2.0      10    4 236  Ml 1.6  2  Md 1.6  3              js067245    259463

      0.22   +-  0.18       4.5    1.8   12.37 +-  0.0    0.16   2.19   +-0.1      +-0.0                 m i ke

PYRENEES
Sta     Dist  EvAz     Phase      Date       Time     TRes  Azim  AzRes  Slow  SRes Def   SNR       Amp   Per   Mag1   Mag2       ID
ETSF  000.16 029.7 m E Pg      2011/05/19 06:35:40.7   0.4                          T                                        4693225
ETSF  000.16 029.7 m E Sg      2011/05/19 06:35:41.9  -0.6                          T               26.4  .26        Md 1.6  4693224
SJPF  000.54 310.5 m E Pg      2011/05/19 06:35:47.3   0.0                          T                                        4693220
SJPF  000.54 310.5 m E Sg      2011/05/19 06:35:54.2  -0.2                          T                1.3  .23        Md 1.6  4693223
EPF   000.78 069.8 m E Pg      2011/05/19 06:35:51.8   0.0                          T                                        4693221
EPF   000.78 069.8 m E Sg      2011/05/19 06:36:02.0   0.0                          T                1.0  .18        Md 1.5  4693222
MTLF  002.19 073.7 m E Pn      2011/05/19 06:36:12.5  -0.2                          T                                        4693219
MTLF  002.19 073.7 m E Sn      2011/05/19 06:36:38.7   0.0                          T                 .5  .24 Ml 1.5         4693218

.
EVENT     259495
    Date      Time       Latitude Longitude    Depth    Ndef Nsta Gap    Mag1  N    Mag2  N    Mag3  N   Author         ID
       rms   OT_Error      Smajor Sminor Az        Err   mdist  Mdist     Err        Err        Err      Quality

2011/05/19 14:50:53.1     39.1964   14.9846    280.0      78   40 078                        ms 3.0 5    bulletin    259495
                                                                                                         _ldg
      1.92   +-  0.14       6.4    3.8   55.55 +-  0.0    0.71  63.11                         +-         m i ke

TYRRHENIAN SEA
Sta     Dist  EvAz     Phase      Date       Time     TRes  Azim  AzRes  Slow  SRes Def   SNR       Amp   Per   Mag1   Mag2       ID
NOV   001.17 174.1 m E P       2011/05/19 14:51:33.1   0.3                          T                                        4694896
PGF   005.64 308.3 m E P       2011/05/19 14:52:20.0   1.7                          T                                        4697282
SBF   007.33 311.9 m E P       2011/05/19 14:52:40.3   1.1                          T                                        4697281
LMR   007.60 305.6 m E P       2011/05/19 14:52:43.5   1.1                          T                                        4697280
FRF   007.63 307.5 m E P       2011/05/19 14:52:44.0   1.2                          T                                        4697279
MBDF  008.24 314.7 m E P       2011/05/19 14:52:52.4   1.9                          T                                        4697284
SMRF  008.51 307.1 m E P       2011/05/19 14:52:55.7   1.9                          T                                        4697278
LPG   008.76 318.6 m E P       2011/05/19 14:52:58.9   1.7                          T                                        4697277
ORIF  008.86 313.1 m E P       2011/05/19 14:52:58.9   0.7                          T                                        4697283
LPL   008.78 318.6 m E P       2011/05/19 14:52:59.2   1.9                          T                                        4697276
VIVF  009.53 309.7 m E P       2011/05/19 14:53:07.0   0.6                          T                                        4697285
CABF  009.87 321.5 m E P       2011/05/19 14:53:10.8   0.1                          T                                        4697258
HINF  010.44 328.3 m E P       2011/05/19 14:53:16.5  -1.3                          T                                        4697256
MTLF  010.46 297.4 m E P       2011/05/19 14:53:18.1   0.1                          T                                        4697275
HAU   010.80 327.4 m E P       2011/05/19 14:53:21.1  -1.1                          T                                        4697255
CDF   010.76 331.4 m E P       2011/05/19 14:53:21.6  -0.3                          T                                        4697252
SMF   011.05 316.0 m E P       2011/05/19 14:53:24.0  -1.2                          T                                        4697259
CAF   011.18 305.0 m E P       2011/05/19 14:53:27.4   0.5                          T                                        4697271
LOR   000.00 000.0 m E R                                                                           143.615.91                4697229
LOR   011.43 318.5 m E P       2011/05/19 14:53:28.4  -1.7 134.7  3.8               T                                        4697247
AVF   011.40 315.5 m E P       2011/05/19 14:53:28.5  -1.1                          T                                        4697257
SSF   011.49 316.9 m E P       2011/05/19 14:53:29.2  -1.5                          T                                        4697248
PAGF  011.49 327.5 m E P       2011/05/19 14:53:30.1  -0.6 137.5  -3.6              T                                        4697253
SFTF  011.52 324.6 m E P       2011/05/19 14:53:30.5  -0.6 148.0  10.2              T                                        4697254
BGF   011.54 313.5 m E P       2011/05/19 14:53:31.0  -0.5                          T                                        4697260
RJF   011.69 305.8 m E P       2011/05/19 14:53:32.2  -1.0                          T                                        4697269
TCF   011.76 311.2 m E P       2011/05/19 14:53:34.0  -0.1                          T                                        4697249
EPF   011.69 293.8 m E P       2011/05/19 14:53:35.0   1.7                          T                                        4697274
LFF   012.04 303.1 m E P       2011/05/19 14:53:38.1   0.6                          T                                        4697270
ETSF  012.30 292.5 m E P       2011/05/19 14:53:41.0   0.1                          T                                        4697273
SJPF  012.83 293.0 m E P       2011/05/19 14:53:42.6  -4.6                          T                                        4697272
GIVF  013.07 329.8 m E P       2011/05/19 14:53:49.5  -0.7                          T                                        4697250
BAIF  013.28 328.4 m E P       2011/05/19 14:53:51.9  -0.9                          T                                        4697251
MFF   013.32 308.6 m E P       2011/05/19 14:53:53.4   0.1                          T                                        4697268
LDF   014.36 315.8 m E P       2011/05/19 14:54:04.4  -1.4                          T                                        4697266
GRR   014.65 314.0 m E P       2011/05/19 14:54:06.6  -2.6                          T                                        4697267
FLN   000.00 000.0 m E R                                                                           174.817.07                4697228
FLN   014.65 315.8 m E P       2011/05/19 14:54:07.8  -1.4 129.9  4.9               T                                        4697265
SGMF  015.55 311.3 m E P       2011/05/19 14:54:17.3  -2.3                          T                                        4697263
QUIF  015.75 309.5 m E P       2011/05/19 14:54:19.6  -2.2                          T                                        4697264
ROSF  016.01 310.7 m E P       2011/05/19 14:54:22.6  -2.2                          T                                        4697262
LIC   037.47 214.0 m E P       2011/05/19 14:57:40.8  -0.8  38.2  12.3              T               13.4  .38                4697246
LIC   037.47 214.0 m E pP      2011/05/19 14:58:36.4   0.4                          T                                        4697286

.
EVENT     259520
    Date      Time       Latitude Longitude    Depth    Ndef Nsta Gap    Mag1  N    Mag2  N    Mag3  N   Author         ID
       rms   OT_Error      Smajor Sminor Az        Err   mdist  Mdist     Err        Err        Err      Quality

2011/05/19 18:41:35.4     40.4000   -1.2196      2.0      39    5 088  Ml 2.3  4                         js067245    259520

      0.56   +-  0.10       2.7    1.6  127.19 +-  0.0    0.57   5.13   +-0.2                            m i ke

SPAIN
Sta     Dist  EvAz     Phase      Date       Time     TRes  Azim  AzRes  Slow  SRes Def   SNR       Amp   Per   Mag1   Mag2       ID
ETSF  002.55 011.0 m E Pn      2011/05/19 18:42:15.7  -0.2                          T                                        4697305
ETSF  002.55 011.0 m E Pg      2011/05/19 18:42:22.8   0.1                          T                                        4697304
ETSF  002.55 011.0 m E Sn      2011/05/19 18:42:45.6  -0.1                          T                                        4697306
ETSF  002.55 011.0 m E Sg      2011/05/19 18:42:55.1  -0.3                          T                1.1  .21 Ml 2.0         4697307
SJPF  002.71 359.9 m E Pn      2011/05/19 18:42:18.0  -0.1                          T                                        4697291
SJPF  002.71 359.9 m E P       2011/05/19 18:42:20.8   0.0                          T                                        4697292
SJPF  002.71 359.9 m E Pg      2011/05/19 18:42:25.9   0.2                          T                                        4697290
SJPF  002.71 359.9 m E Sn      2011/05/19 18:42:49.6   0.0                          T                                        4697293
SJPF  002.71 359.9 m E Sg      2011/05/19 18:43:01.0   0.4                          T                2.0  .25 Ml 2.3         4697294
EPF   002.88 023.4 m E Pn      2011/05/19 18:42:21.1   0.6                          T                                        4697301
EPF   002.88 023.4 m E Pg      2011/05/19 18:42:28.8   0.0                          T                                        4697300
EPF   002.88 023.4 m E Sn      2011/05/19 18:42:53.6   0.0                          T                                        4697302
EPF   002.88 023.4 m E Sg      2011/05/19 18:43:05.9   0.1                          T                2.9  .23 Ml 2.5         4697303
MTLF  003.90 040.0 m E Pn      2011/05/19 18:42:33.9  -0.4                          T                                        4697297
MTLF  003.90 040.0 m E Pg      2011/05/19 18:42:47.3  -0.3                          T                                        4697296
MTLF  003.90 040.0 m E Sn      2011/05/19 18:43:17.6  -0.4                          T                                        4697298
MTLF  003.90 040.0 m E Sg      2011/05/19 18:43:38.0   0.3                          T                1.4  .33 Ml 2.2         4697299
CAF   005.13 027.1 m E Pn      2011/05/19 18:42:50.9  -0.2                          T                                        4697295

.
