BEGIN GSE2.0
MSG_TYPE DATA
MSG_ID 11-AUG-1210:21:51  FRA_NDC
E-MAIL
DATA_TYPE BULLETIN
Reviewed Bulletin (REB) # P2012-030  from French NDC for regional phases     PERIOD 25 JUL 2012 TO 31 JUL 2012 Cenalt JP S
EVENT     280006
    Date      Time       Latitude Longitude    Depth    Ndef Nsta Gap    Mag1  N    Mag2  N    Mag3  N   Author         ID
       rms   OT_Error      Smajor Sminor Az        Err   mdist  Mdist     Err        Err        Err      Quality

2012/07/25 00:23:11.9     46.9502    1.5882      3.0 f    38   14 100  Ml 2.1 15  Md 2.0  3              bulletin    280106
                                                                                                         _ldg
      0.65   +-  0.07       1.4    1.1  172.60 +-  0.0    0.79   3.64   +-0.2      +-0.2                 m i ke

FRANCE
Sta     Dist  EvAz     Phase      Date       Time     TRes  Azim  AzRes  Slow  SRes Def   SNR       Amp   Per   Mag1   Mag2       ID
TCF   000.79 146.9 m E Pg      2012/07/25 00:23:27.1   0.3                          T                                        5032182
TCF   000.79 146.9 m E Pn      2012/07/25 00:23:28.6   0.2                          T                                        5036055
TCF   000.79 146.9 m E Sg      2012/07/25 00:23:36.2  -0.9                          T                2.4  .18        Md 2.1  5032189
HYF   000.79 065.7 m E Pn      2012/07/25 00:23:28.2  -0.1                          T                                        5036057
HYF   000.79 065.7 m E Sg      2012/07/25 00:23:37.2   0.2                          T                                Md 1.9  5032204
BGF   000.95 113.9 m E Pg      2012/07/25 00:23:29.7  -0.1                          T                                        5032183
BGF   000.95 113.9 m E Pn      2012/07/25 00:23:30.4  -0.2                          T                                        5036054
BGF   000.95 113.9 m E Sg      2012/07/25 00:23:42.5   0.4                          T               16.0  .30 Ml 2.5 Md 2.1  5032191
AVF   001.22 096.9 m E Pg      2012/07/25 00:23:35.2   0.5                          T                                        5032181
AVF   001.22 096.9 m E Sg      2012/07/25 00:23:50.2  -0.4                          T                3.4  .19 Ml 2.2         5032190
MFF   001.24 254.3 m E Pg      2012/07/25 00:23:35.5   0.3                          T                                        5032179
MFF   001.24 254.3 m E Sg      2012/07/25 00:23:50.8  -0.3                          T                2.2  .21 Ml 2.1         5032197
SSF   001.32 084.5 m E Pg      2012/07/25 00:23:37.0   0.4                          T                                        5032180
SSF   001.32 084.5 m E Sg      2012/07/25 00:23:53.3  -0.3                          T                2.9  .20 Ml 2.2         5032196
LOR   001.58 077.6 m E Pn      2012/07/25 00:23:39.5   0.3 257.2  -2.0              T                                        5032193
LOR   001.58 077.6 m E Pg      2012/07/25 00:23:41.5   0.0 257.1  -2.1              T                                        5032194
LOR   001.58 077.6 m E Sn      2012/07/25 00:23:59.2   0.2                          T                                        5036056
LOR   001.58 077.6 m E Sg      2012/07/25 00:24:01.7  -0.2 254.1  -5.2              T                7.0  .22 Ml 2.6         5032195
RJF   001.65 181.8 m E Pn      2012/07/25 00:23:40.5   0.4                          T                                        5032187
RJF   001.65 181.8 m E Pg      2012/07/25 00:23:42.6  -0.1                          T                                        5032186
RJF   001.65 181.8 m E Sg      2012/07/25 00:24:03.1  -0.8                          T                4.0  .18 Ml 2.1         5032184
SMF   001.58 100.3 m E Pg      2012/07/25 00:23:40.6  -0.8                          T                                        5032178
SMF   001.58 100.3 m E Sg      2012/07/25 00:24:01.2  -0.5                          T                2.8  .28 Ml 2.1         5032192
CAF   002.05 170.5 m E Pn      2012/07/25 00:23:45.7   0.1                          T                                        5032199
CAF   002.05 170.5 m E Pg      2012/07/25 00:23:50.5   0.4                          T                                        5032198
CAF   002.05 170.5 m E Sn      2012/07/25 00:24:09.4  -0.8                          T                                        5032201
CAF   002.05 170.5 m E Sg      2012/07/25 00:24:16.1  -0.4                          T                1.7  .20 Ml 2.1         5032200
LDF   002.01 325.6 m E Pg      2012/07/25 00:23:48.9  -0.3                          T                                        5032207
LDF   002.01 325.6 m E Sg      2012/07/25 00:24:14.8  -0.4                          T                1.1  .23 Ml 1.9         5032206
LFF   002.10 196.7 m E Pg      2012/07/25 00:23:50.6  -0.2                          T                                        5032205
LFF   002.10 196.7 m E Sg      2012/07/25 00:24:18.3   0.5                          T                5.1  .48 Ml 2.1         5032203
GRR   002.19 311.9 m E Sg      2012/07/25 00:24:20.5  -0.4                          T                1.1  .19 Ml 1.9         5032202
FLN   002.29 323.2 m E Sg      2012/07/25 00:24:23.4  -0.4 135.2  -6.5              T                1.3  .23 Ml 1.9         5039142

.
EVENT     280007
    Date      Time       Latitude Longitude    Depth    Ndef Nsta Gap    Mag1  N    Mag2  N    Mag3  N   Author         ID
       rms   OT_Error      Smajor Sminor Az        Err   mdist  Mdist     Err        Err        Err      Quality

2012/07/25 01:32:39.0     43.6524    7.3052      8.0 f    11    5 217  Ml 1.6  2  Md 1.7  3              bulletin    280107
                                                                                                         _ldg
      0.45   +-  0.35       8.5    3.0  131.27 +-  0.0    0.23   1.29   +-0.4      +-0.1                 m i ke

NEAR SOUTH COAST OF FRANCE
Sta     Dist  EvAz     Phase      Date       Time     TRes  Azim  AzRes  Slow  SRes Def   SNR       Amp   Per   Mag1   Mag2       ID
SBF   000.23 024.0 m E Pg      2012/07/25 01:32:44.2   0.3                          T                                        5032221
SBF   000.23 024.0 m E Sg      2012/07/25 01:32:46.6  -0.5                          T                8.1  .20        Md 1.8  5032214
FRF   000.49 259.4 m E Pg      2012/07/25 01:32:48.2  -0.2                          T                                        5032219
FRF   000.49 259.4 m E Sg      2012/07/25 01:32:54.4  -0.4                          T                9.9  .20        Md 1.7  5032216
LMR   000.66 241.5 m E Pg      2012/07/25 01:32:51.8   0.2                          T                                        5032220
LMR   000.66 241.5 m E Sg      2012/07/25 01:33:00.5   0.3                          T                3.3  .24        Md 1.7  5032215
MBDF  001.14 340.5 m E Pg      2012/07/25 01:33:00.2  -0.3                          T                                        5036058
MBDF  001.14 340.5 m E Sg      2012/07/25 01:33:16.1   0.7                          T                1.1  .36 Ml 1.4         5036059
SMRF  001.29 285.1 m E Pn      2012/07/25 01:33:01.4  -0.4                          T                                        5032218
SMRF  001.29 285.1 m E Pg      2012/07/25 01:33:01.8  -1.4                          T                                        5039143
SMRF  001.29 285.1 m E Sn      2012/07/25 01:33:19.3   1.1                          T                1.7  .20 Ml 1.9         5032217

.
EVENT     280008
    Date      Time       Latitude Longitude    Depth    Ndef Nsta Gap    Mag1  N    Mag2  N    Mag3  N   Author         ID
       rms   OT_Error      Smajor Sminor Az        Err   mdist  Mdist     Err        Err        Err      Quality

2012/07/25 01:47:15.4     50.1001   -1.1450      2.0      11    4 296  Ml 2.1  5  Md 2.4  3              bulletin    280108
                                                                                                         _ldg
      1.33   +-  0.73      13.5    9.6   16.64 +-  0.0    1.41   2.25   +-0.1      +-0.1                 m i ke

UNITED KINGDOM
Sta     Dist  EvAz     Phase      Date       Time     TRes  Azim  AzRes  Slow  SRes Def   SNR       Amp   Per   Mag1   Mag2       ID
FLN   001.41 161.8 m E Pn      2012/07/25 01:47:39.4  -1.0 349.5  7.2               T                                        5032224
FLN   001.41 161.8 m E Sn      2012/07/25 01:47:57.5  -0.9                          T                                Md 2.4  5036067
FLN   001.41 161.8 m E Sg      2012/07/25 01:48:01.4   1.5                          T                4.6  .21 Ml 2.2         5032229
LDF   001.65 155.7 m E Pn      2012/07/25 01:47:43.1  -0.6                          T                                        5032230
LDF   001.65 155.7 m E Sg      2012/07/25 01:48:08.1   0.7                          T                2.6  .19 Ml 2.2 Md 2.4  5032228
GRR   001.72 173.6 m E Pn      2012/07/25 01:47:45.0   0.3                          T                                        5032225
GRR   001.72 173.6 m E Sg      2012/07/25 01:48:10.2   0.5                          T                3.4  .26 Ml 2.1 Md 2.3  5032227
ROSF  002.25 219.1 m E Pn      2012/07/25 01:47:52.5   0.7                          T                                        5032223
ROSF  002.25 219.1 m E Sg      2012/07/25 01:48:24.0  -2.2                          T                1.6  .28 Ml 2.0         5032226

.
EVENT     280009
    Date      Time       Latitude Longitude    Depth    Ndef Nsta Gap    Mag1  N    Mag2  N    Mag3  N   Author         ID
       rms   OT_Error      Smajor Sminor Az        Err   mdist  Mdist     Err        Err        Err      Quality

2012/07/25 02:21:01.9     42.4954    1.7568      4.0 f    43    7 046  Ml 1.7  6  Md 2.0  1              bulletin    280109
                                                                                                         _ldg
      0.56   +-  0.07       1.5    1.2    7.40 +-  0.0    0.16   2.81   +-0.2      +-                    m i ke

PYRENEES
Sta     Dist  EvAz     Phase      Date       Time     TRes  Azim  AzRes  Slow  SRes Def   SNR       Amp   Per   Mag1   Mag2       ID
MTLF  000.91 021.7 m E Pg      2012/07/25 02:21:19.6   0.6                          T                                        5032237
MTLF  000.91 021.7 m E Sg      2012/07/25 02:21:32.1   1.2                          T                2.0  .18 Ml 1.8 Md 2.0  5032236
EPF   001.17 297.6 m E Pg      2012/07/25 02:21:24.3   0.4                          T                                        5032239
EPF   001.17 297.6 m E Sg      2012/07/25 02:21:38.2  -0.9                          T                 .9  .25 Ml 1.4         5032238
ETSF  001.75 284.1 m E Pg      2012/07/25 02:21:34.9   0.2                          T                                        5032240
ETSF  001.75 284.1 m E Sg      2012/07/25 02:21:58.1   0.8                          T                1.2  .23 Ml 1.9         5032235
SJPF  002.28 286.7 m E Pn      2012/07/25 02:21:39.0   0.4                          T                                        5032241
SJPF  002.28 286.7 m E Sg      2012/07/25 02:22:14.3   0.7                          T                                        5032234
CAF   002.44 005.1 m E Pg      2012/07/25 02:21:47.8   0.5                          T                                        5036071
CAF   002.44 005.1 m E Sg      2012/07/25 02:22:18.6   0.0                          T                1.5  .26 Ml 2.1         5032233
LASF  002.20 043.4 m E Sg      2012/07/25 02:22:10.5  -0.7                          T                 .4  .18 Ml 1.6         5032244
RJF   002.81 356.5 m E Sg      2012/07/25 02:22:30.2  -0.1                          T                 .8  .26 Ml 1.6         5036072

.
EVENT     280012
    Date      Time       Latitude Longitude    Depth    Ndef Nsta Gap    Mag1  N    Mag2  N    Mag3  N   Author         ID
       rms   OT_Error      Smajor Sminor Az        Err   mdist  Mdist     Err        Err        Err      Quality

2012/07/25 05:13:56.0     44.7233    7.6515     25.0      21    3 138  Ml 1.9  3  Md 2.0  1              bulletin    280112
                                                                                                         _ldg
      1.51   +-  0.19       3.9    2.5   43.44 +-  0.0    0.30   1.28   +-0.0      +-                    m i ke

NORTHERN ITALY
Sta     Dist  EvAz     Phase      Date       Time     TRes  Azim  AzRes  Slow  SRes Def   SNR       Amp   Per   Mag1   Mag2       ID
MBDF  000.63 270.6 m E Pg      2012/07/25 05:14:08.9   0.1                          T                                        5032255
MBDF  000.63 270.6 m E Sg      2012/07/25 05:14:17.4  -0.1                          T                3.2  .29        Md 2.0  5032254
ORIF  001.28 279.4 m E Pg      2012/07/25 05:14:20.5   0.2                          T                                        5032252
ORIF  001.28 279.4 m E Sn      2012/07/25 05:14:30.8  -1.1                          T                3.7  .46 Ml 1.8         5032253
SBF   000.87 190.3 m E Sg      2012/07/25 05:14:24.9   0.1                          T                4.5  .36 Ml 1.9         5039144

.
EVENT     280213
    Date      Time       Latitude Longitude    Depth    Ndef Nsta Gap    Mag1  N    Mag2  N    Mag3  N   Author         ID
       rms   OT_Error      Smajor Sminor Az        Err   mdist  Mdist     Err        Err        Err      Quality

2012/07/25 10:24:20.8     47.8489   -1.7499       .0 f    21    7 136  Ml 2.2  6  Md 1.9  2              bulletin    280313
                                                                                                         _ldg
      1.24   +-  0.11       2.7    1.6    3.25 +-  0.0    0.68   1.66   +-0.3      +-0.0                 m i km

FRANCE
Sta     Dist  EvAz     Phase      Date       Time     TRes  Azim  AzRes  Slow  SRes Def   SNR       Amp   Per   Mag1   Mag2       ID
SGMF  000.68 307.1 m E Pg      2012/07/25 10:24:33.4  -0.5                          T                                        5039169
SGMF  000.68 307.1 m E P       2012/07/25 10:24:35.1   0.0                          T                                        5033890
SGMF  000.68 307.1 m E Sn      2012/07/25 10:24:46.9  -0.1                          T                6.3  .48        Md 1.9  5033878
GRR   000.81 047.6 m E Pg      2012/07/25 10:24:36.2   0.0                          T                                        5039165
GRR   000.81 047.6 m E Pn      2012/07/25 10:24:38.0   0.0                          T                                        5033884
GRR   000.81 047.6 m E Sg      2012/07/25 10:24:47.0   0.2                          T                2.2  .16        Md 1.9  5033883
QUIF  000.96 274.6 m E Pg      2012/07/25 10:24:39.1   0.2                          T                                        5039167
QUIF  000.96 274.6 m E Pn      2012/07/25 10:24:40.2   0.2                          T                                        5039168
QUIF  000.96 274.6 m E Sg      2012/07/25 10:24:51.6   0.1                          T                                        5033888
QUIF  000.96 274.6 m E Sn      2012/07/25 10:24:53.7   0.0                          T               13.2  .20 Ml 2.6         5033880
ROSF  001.13 296.1 m E Pg      2012/07/25 10:24:42.2   0.0                          T                                        5033889
ROSF  001.13 296.1 m E Sg      2012/07/25 10:24:57.2   0.1                          T                4.8  .26 Ml 2.1         5033881
FLN   001.25 042.3 m E Pg      2012/07/25 10:24:44.2  -0.1 219.9  -3.4              T                                        5039166
FLN   001.25 042.3 m E Sg      2012/07/25 10:25:00.5  -0.1 211.8  -11.5             T                3.7  .38 Ml 1.8         5033886
LDF   001.32 055.0 m E Pg      2012/07/25 10:24:45.7   0.0                          T                                        5033887
LDF   001.32 055.0 m E Sg      2012/07/25 10:25:02.8  -0.2                          T                9.6  .50 Ml 2.2         5033882
MFF   001.66 138.2 m E Pn      2012/07/25 10:24:49.6   0.0                          T                                        5033885
MFF   001.66 138.2 m E Pg      2012/07/25 10:24:51.9   0.0                          T                                        5039164
MFF   001.66 138.2 m E Sg      2012/07/25 10:25:13.8   0.3                          T                3.2  .30 Ml 2.3         5033879

.
EVENT     280079
    Date      Time       Latitude Longitude    Depth    Ndef Nsta Gap    Mag1  N    Mag2  N    Mag3  N   Author         ID
       rms   OT_Error      Smajor Sminor Az        Err   mdist  Mdist     Err        Err        Err      Quality

2012/07/25 12:25:10.5     42.9667     .2255      2.0      55    8 066  Ml 2.8  4  Md 2.7  2              bulletin    280179
                                                                                                         _ldg
      1.09   +-  0.15       3.4    2.4    5.32 +-  0.0    0.11   2.86   +-0.1      +-0.1                 m i ke

PYRENEES
Sta     Dist  EvAz     Phase      Date       Time     TRes  Azim  AzRes  Slow  SRes Def   SNR       Amp   Per   Mag1   Mag2       ID
EPF   000.11 052.8 m E Pg      2012/07/25 12:25:12.2  -0.7                          T                                        5032515
EPF   000.11 052.8 m E Sg      2012/07/25 12:25:13.9  -0.5                          T                                Md 2.6  5032507
ETSF  000.58 263.5 m E Pg      2012/07/25 12:25:20.3  -1.3                          T                                        5032514
ETSF  000.58 263.5 m E Sg      2012/07/25 12:25:27.7  -1.5                          T               57.3  .24        Md 2.7  5032506
SJPF  001.07 278.3 m E Pn      2012/07/25 12:25:31.7   0.8                          T                                        5032513
SJPF  001.07 278.3 m E Sg      2012/07/25 12:25:43.7  -0.8                          T                                        5032516
MTLF  001.50 074.9 m E Pn      2012/07/25 12:25:37.5   0.7                          T                                        5032509
MTLF  001.50 074.9 m E Sn      2012/07/25 12:25:56.7   0.9                          T               12.0  .22 Ml 2.8         5032508
LFF   002.01 010.5 m E Pn      2012/07/25 12:25:45.9   2.3                          T                                        5032511
LFF   002.01 010.5 m E Sn      2012/07/25 12:26:09.7   1.9                          T               19.0  .26 Ml 2.9         5032504
CAF   002.37 033.5 m E Pn      2012/07/25 12:25:52.4   3.9                          T                                        5032512
CAF   002.37 033.5 m E Sn      2012/07/25 12:26:22.6   6.1                          T                8.1  .22 Ml 2.9         5032505
RJF   002.52 021.2 m E Pn      2012/07/25 12:25:54.7   4.1                          T                                        5032510
RJF   002.52 021.2 m E Sn      2012/07/25 12:26:26.2   6.2                          T               11.7  .30 Ml 2.6         5032503
LASF  002.86 066.0 m E Pn      2012/07/25 12:25:56.5   1.2                          T                                        5032659
LASF  002.86 066.0 m E Pg      2012/07/25 12:26:04.8   1.2                          T                                        5032658
LASF  002.86 066.0 m E Sn      2012/07/25 12:26:29.7   1.4                          T                                        5032660

.
