BEGIN GSE2.0
MSG_TYPE DATA
MSG_ID 13-SEP-1214:28:27  FRA_NDC
E-MAIL
DATA_TYPE BULLETIN
Reviewed Bulletin (REB) # P2012-036  from French NDC for regional phases     PERIOD 05 SEP 2012 TO 11 SEP 2012 Cenalt JP S
EVENT     282568
    Date      Time       Latitude Longitude    Depth    Ndef Nsta Gap    Mag1  N    Mag2  N    Mag3  N   Author         ID
       rms   OT_Error      Smajor Sminor Az        Err   mdist  Mdist     Err        Err        Err      Quality

2012/09/05 00:18:41.0     42.9445    -.9293      2.0      13    3 137  Ml 1.0  1  Md 1.4  2              bulletin    282668
                                                                                                         _ldg
      0.36   +-  0.09       3.0    1.4    1.80 +-  0.0    0.22   0.94   +-         +-0.1                 m i ke

PYRENEES
Sta     Dist  EvAz     Phase      Date       Time     TRes  Azim  AzRes  Slow  SRes Def   SNR       Amp   Per   Mag1   Mag2       ID
SJPF  000.27 308.0 m E Pg      2012/09/05 00:18:46.3  -0.1                          T                                        5062009
SJPF  000.27 308.0 m E Sg      2012/09/05 00:18:49.6  -0.5                          T                3.8  .30        Md 1.5  5062008
ETSF  000.28 099.5 m E Pg      2012/09/05 00:18:46.3  -0.2                          T                                        5062007
ETSF  000.28 099.5 m E Sg      2012/09/05 00:18:49.3  -0.9                          T                 .9  .18        Md 1.4  5062006
EPF   000.94 084.3 m E Pg      2012/09/05 00:18:58.6   0.0                          T                                        5062011
EPF   000.94 084.3 m E Sg      2012/09/05 00:19:10.5  -0.3                          T                 .5  .30 Ml 1           5062010

.
EVENT     282569
    Date      Time       Latitude Longitude    Depth    Ndef Nsta Gap    Mag1  N    Mag2  N    Mag3  N   Author         ID
       rms   OT_Error      Smajor Sminor Az        Err   mdist  Mdist     Err        Err        Err      Quality

2012/09/05 00:56:12.3     42.8727     .0673      2.0       6    3 221  Ml 0.9  1  Md 1.0  2              bulletin    282669
                                                                                                         _ldg
      0.27   +-  0.48      19.4    2.7  165.73 +-  0.0    0.25   0.98   +-         +-0.2                 m i ke

PYRENEES
Sta     Dist  EvAz     Phase      Date       Time     TRes  Azim  AzRes  Slow  SRes Def   SNR       Amp   Per   Mag1   Mag2       ID
EPF   000.25 051.7 m E Pg      2012/09/05 00:56:17.2  -0.2                          T                                        5062015
EPF   000.25 051.7 m E Sg      2012/09/05 00:56:20.8  -0.1                          T                4.5  .24        Md 1.2  5062014
ETSF  000.46 273.4 m E Pg      2012/09/05 00:56:21.1  -0.1                          T                                        5062013
ETSF  000.46 273.4 m E Sg      2012/09/05 00:56:26.8  -0.5                          T                1.7  .23        Md  .9  5062012
SJPF  000.98 284.7 m E Pg      2012/09/05 00:56:31.0   0.3                          T                                        5062017
SJPF  000.98 284.7 m E Sg      2012/09/05 00:56:43.1  -0.3                          T                 .4  .29 Ml  .9         5062016

.
EVENT     282570
    Date      Time       Latitude Longitude    Depth    Ndef Nsta Gap    Mag1  N    Mag2  N    Mag3  N   Author         ID
       rms   OT_Error      Smajor Sminor Az        Err   mdist  Mdist     Err        Err        Err      Quality

2012/09/05 02:47:43.2     44.5034    6.6847      2.0      30    9 053  Ml 1.4  5  Md 1.4  3              bulletin    282670
                                                                                                         _ldg
      0.28   +-  0.05       1.0     .8   60.74 +-  0.0    0.09   1.48   +-0.3      +-0.2                 m i ke

FRANCE
Sta     Dist  EvAz     Phase      Date       Time     TRes  Azim  AzRes  Slow  SRes Def   SNR       Amp   Per   Mag1   Mag2       ID
MBDF  000.23 015.5 m E Pg      2012/09/05 02:47:49.0   1.0                          T                                        5062023
MBDF  000.23 015.5 m E Sg      2012/09/05 02:47:51.7   0.6                          T                2.8  .19        Md 1.6  5062022
ORIF  000.71 306.1 m E Pg      2012/09/05 02:47:56.2  -0.4                          T                                        5062021
ORIF  000.71 306.1 m E Sg      2012/09/05 02:48:05.6  -0.3                          T                  1  .20        Md 1.5  5062020
SBF   000.84 139.6 m E Pg      2012/09/05 02:47:58.9  -0.1                          T                                        5062046
SBF   000.84 139.6 m E Sg      2012/09/05 02:48:10.3   0.4                          T                1.9  .28        Md 1.1  5062045
FRF   000.94 181.7 m E Pg      2012/09/05 02:48:01.1   0.2                          T                                        5062027
FRF   000.94 181.7 m E Sg      2012/09/05 02:48:13.2   0.1                          T                1.3  .18 Ml 1.7         5062026
SMRF  000.96 236.9 m E Pg      2012/09/05 02:48:01.3   0.1                          T                                        5062029
SMRF  000.96 236.9 m E Sg      2012/09/05 02:48:14.1   0.5                          T                 .8  .25 Ml 1.3         5062028
LPL   001.01 001.9 m E Pg      2012/09/05 02:48:02.3  -0.2                          T                                        5062019
LPG   001.00 002.7 m E Pg      2012/09/05 02:48:02.4   0.2                          T                                        5062044
LPG   001.00 002.7 m E Sg      2012/09/05 02:48:15.3   0.2                          T                 .7  .19 Ml 1.4         5062043
LMR   001.18 186.3 m E Pg      2012/09/05 02:48:05.3   0.2                          T                                        5062025
LMR   001.18 186.3 m E Sg      2012/09/05 02:48:20.6   0.2                          T                1.1  .20 Ml 1.6         5062024
VIVF  001.48 284.5 m E Pn      2012/09/05 02:48:09.5   0.4                          T                                        5062042
VIVF  001.48 284.5 m E Sn      2012/09/05 02:48:27.9   0.0                          T                 .1  .13 Ml 1           5062041

.
EVENT     282608
    Date      Time       Latitude Longitude    Depth    Ndef Nsta Gap    Mag1  N    Mag2  N    Mag3  N   Author         ID
       rms   OT_Error      Smajor Sminor Az        Err   mdist  Mdist     Err        Err        Err      Quality

2012/09/05 10:35:15.7     44.9090   11.2098      2.0      19    4 173  Ml 2.7  3                         bulletin    282708
                                                                                                         _ldg
      0.63   +-  0.29       8.6    4.2  109.86 +-  0.0    0.17   3.73   +-0.2                            m i ke

NORTHERN ITALY
Sta     Dist  EvAz     Phase      Date       Time     TRes  Azim  AzRes  Slow  SRes Def   SNR       Amp   Per   Mag1   Mag2       ID
PGF   002.85 214.9 m E Pn      2012/09/05 10:36:00.3  -0.2                          T                                        5062727
PGF   002.85 214.9 m E Sn      2012/09/05 10:36:33.6   0.2                          T                                        5062728
SBF   002.90 250.2 m E Pn      2012/09/05 10:36:01.5   0.3                          T                                        5062732
SBF   002.90 250.2 m E Sn      2012/09/05 10:36:34.9   0.4                          T                6.7  .35 Ml 2.7         5062729
FRF   003.55 249.3 m E Pn      2012/09/05 10:36:10.9   1.0                          T                                        5062733
FRF   003.55 249.3 m E Sn      2012/09/05 10:36:50.4   0.5                          T                3.0  .31 Ml 2.6         5062730
LMR   003.73 246.7 m E Pn      2012/09/05 10:36:13.2   0.8                          T                                        5062734
LMR   003.73 246.7 m E Sn      2012/09/05 10:36:54.2  -0.1                          T                7.1  .34 Ml 2.9         5062731

.
EVENT     282633
    Date      Time       Latitude Longitude    Depth    Ndef Nsta Gap    Mag1  N    Mag2  N    Mag3  N   Author         ID
       rms   OT_Error      Smajor Sminor Az        Err   mdist  Mdist     Err        Err        Err      Quality

2012/09/05 16:43:13.3     43.7271   11.9457      2.0      55   18 114  Ml 2.9 13                         bulletin    282733
                                                                                                         _ldg
      0.91   +-  0.11       4.4    2.0   35.22 +-  0.0    0.13  11.54   +-0.3                            m i ke

CENTRAL ITALY
Sta     Dist  EvAz     Phase      Date       Time     TRes  Azim  AzRes  Slow  SRes Def   SNR       Amp   Per   Mag1   Mag2       ID
PGF   002.46 242.4 m E Pn      2012/09/05 16:43:52.1  -0.5                          T                                        5062941
PGF   002.46 242.4 m E Sn      2012/09/05 16:44:21.5   0.0                          T               12.2  .30 Ml 3.1         5062923
SBF   003.27 273.9 m E Pn      2012/09/05 16:44:03.6  -0.1                          T                                        5062940
SBF   003.27 273.9 m E Sn      2012/09/05 16:44:40.4  -0.4                          T               21.5  .33 Ml 3.3         5062922
FRF   003.85 269.3 m E Pn      2012/09/05 16:44:11.5   0.0                          T                                        5062938
FRF   003.85 269.3 m E Sn      2012/09/05 16:44:54.8   0.2                          T                9.4  .30 Ml 3.1         5062920
MBDF  003.85 286.8 m E Pn      2012/09/05 16:44:11.8   0.1                          T                                        5062932
MBDF  003.85 286.8 m E Sn      2012/09/05 16:44:54.5  -0.3                          T               10.2  .54 Ml 2.9         5062915
LMR   003.97 266.2 m E Pn      2012/09/05 16:44:12.8  -0.4                          T                                        5062939
LMR   003.97 266.2 m E Sn      2012/09/05 16:44:55.9  -1.7                          T                2.5  .22 Ml 2.7         5062921
LPG   004.11 297.3 m E Pn      2012/09/05 16:44:15.4   0.0                          T                                        5062936
LPG   004.11 297.3 m E Sn      2012/09/05 16:45:01.0  -0.2                          T                1.0  .20 Ml 2.4         5062918
LPL   004.13 297.5 m E Pn      2012/09/05 16:44:15.6   0.0                          T                                        5062935
LPL   004.13 297.5 m E Sn      2012/09/05 16:45:01.7   0.1                          T                5.1  .44 Ml 2.7         5062917
ORIF  004.51 287.4 m E Pn      2012/09/05 16:44:20.8   0.2                          T                                        5062934
ORIF  004.51 287.4 m E Sn      2012/09/05 16:45:11.3   0.7                          T                6.4  .48 Ml 2.9         5062916
SMRF  004.61 275.3 m E Pn      2012/09/05 16:44:22.7   0.7                          T                                        5062937
SMRF  004.61 275.3 m E Sn      2012/09/05 16:45:13.2   0.2                          T                1.1  .25 Ml 2.4         5062919
CABF  005.05 306.9 m E Pn      2012/09/05 16:44:27.3  -0.6                          T                                        5062931
HINF  005.42 320.7 m E Pn      2012/09/05 16:44:33.3   0.3                          T                                        5062930
HINF  005.42 320.7 m E Sn      2012/09/05 16:45:33.5   1.2                          T                1.1  .26 Ml 2.6         5062914
CDF   005.70 326.9 m E Pn      2012/09/05 16:44:37.4   0.5                          T                                        5062928
CDF   005.70 326.9 m E Sn      2012/09/05 16:45:39.0  -0.1                          T                9.1  .50 Ml 3.4         5062912
HAU   005.79 319.5 m E Pn      2012/09/05 16:44:37.8  -0.3                          T                                        5062929
HAU   005.79 319.5 m E Sn      2012/09/05 16:45:40.9  -0.2                          T               11.6  .35 Ml 3.4         5062913
PAGF  006.48 320.4 m E Pn      2012/09/05 16:44:47.0  -0.3                          T                                        5062926
MEZF  006.76 317.3 m E Pn      2012/09/05 16:44:48.4  -2.8                          T                                        5062925
LOR   006.70 304.7 m E Pn      2012/09/05 16:44:50.2  -0.1 128.8  9.8               T                                        5062927
LOR   006.70 304.7 m E Sn      2012/09/05 16:46:02.8   0.1                          T                 .8  .20 Ml 2.8         5062911
MTLF  007.08 270.2 m E Pn      2012/09/05 16:44:55.5   0.0                          T                                        5062933
ROSF  011.54 298.9 m E Pn      2012/09/05 16:45:57.4   1.2                          T                                        5062924

.
EVENT     282634
    Date      Time       Latitude Longitude    Depth    Ndef Nsta Gap    Mag1  N    Mag2  N    Mag3  N   Author         ID
       rms   OT_Error      Smajor Sminor Az        Err   mdist  Mdist     Err        Err        Err      Quality

2012/09/05 17:06:10.6     43.7299   11.9227      2.0      50   16 110  Ml 2.8 14                         bulletin    282734
                                                                                                         _ldg
      0.67   +-  0.10       3.5    1.7   36.74 +-  0.0    0.12   8.47   +-0.3                            m i ke

CENTRAL ITALY
Sta     Dist  EvAz     Phase      Date       Time     TRes  Azim  AzRes  Slow  SRes Def   SNR       Amp   Per   Mag1   Mag2       ID
PGF   002.44 242.1 m E Pn      2012/09/05 17:06:49.5  -0.3                          T                                        5062966
PGF   002.44 242.1 m E Sn      2012/09/05 17:07:17.9  -0.6                          T                3.9  .19 Ml 2.8         5062969
SBF   003.25 273.9 m E Pn      2012/09/05 17:07:00.2  -0.6                          T                                        5062968
SBF   003.25 273.9 m E Sn      2012/09/05 17:07:37.5  -0.3                          T                8.4  .29 Ml 2.9         5062992
MBDF  003.83 286.8 m E Pn      2012/09/05 17:07:08.7  -0.1                          T                                        5062986
MBDF  003.83 286.8 m E Sn      2012/09/05 17:07:50.9  -0.9                          T                3.7  .39 Ml 2.6         5062976
LMR   003.96 266.1 m E Pn      2012/09/05 17:07:10.7   0.5                          T                                        5062967
LMR   003.96 266.1 m E Sn      2012/09/05 17:07:53.7  -0.8                          T                1.6  .19 Ml 2.6         5062990
LPL   004.11 297.5 m E Pn      2012/09/05 17:07:12.3  -0.4                          T                                        5062988
LPL   004.11 297.5 m E Sn      2012/09/05 17:07:57.7  -0.9                          T                 .8  .23 Ml 2.2         5062989
LPG   004.09 297.4 m E Pn      2012/09/05 17:07:12.6   0.1                          T                                        5062991
LPG   004.09 297.4 m E Sn      2012/09/05 17:07:58.0  -0.2                          T                1.5  .27 Ml 2.4         5062978
ORIF  004.50 287.4 m E Pn      2012/09/05 17:07:18.1   0.3                          T                                        5062987
ORIF  004.50 287.4 m E Sn      2012/09/05 17:08:07.5   0.0                          T                3.4  .50 Ml 2.6         5062977
CABF  005.03 307.0 m E Pn      2012/09/05 17:07:25.1   0.1                          T                                        5062979
HINF  005.41 320.8 m E Pn      2012/09/05 17:07:30.3   0.1                          T                                        5062983
HINF  005.41 320.8 m E Sn      2012/09/05 17:08:29.6   0.2                          T                3.2  .36 Ml 2.9         5062974
HAU   005.78 319.6 m E Pn      2012/09/05 17:07:35.1  -0.1                          T                                        5062982
HAU   005.78 319.6 m E Sn      2012/09/05 17:08:37.9  -0.2                          T                5.4  .32 Ml 3.1         5062973
CDF   005.69 327.0 m E Pn      2012/09/05 17:07:35.2   1.2                          T                                        5062981
CDF   005.69 327.0 m E Sn      2012/09/05 17:08:36.0   0.0                          T                3.7  .53 Ml 3.0         5062971
LOR   006.68 304.8 m E Pn      2012/09/05 17:07:47.4   0.0                          T                                        5062980
LOR   006.68 304.8 m E Sn      2012/09/05 17:08:59.5  -0.1                          T                1.5  .26 Ml 3.0         5062970
FRF   003.83 269.3 m E Sn      2012/09/05 17:07:51.9   0.3                          T                3.8  .33 Ml 2.7         5062993
MTLF  007.06 270.2 m E Pn      2012/09/05 17:07:52.8   0.2                          T                                        5062985
EPF   008.47 269.3 m E Pn      2012/09/05 17:08:11.9   0.2                          T                                        5062984
EPF   008.47 269.3 m E Sn      2012/09/05 17:09:42.6   0.2                          T                 .4  .19 Ml 2.8         5062975
SFTF  006.56 315.4 m E Sn      2012/09/05 17:08:57.1   0.4                          T                6.3  .40 Ml 3.4         5062972

.
EVENT     282635
    Date      Time       Latitude Longitude    Depth    Ndef Nsta Gap    Mag1  N    Mag2  N    Mag3  N   Author         ID
       rms   OT_Error      Smajor Sminor Az        Err   mdist  Mdist     Err        Err        Err      Quality

2012/09/05 21:00:07.1     41.8940    7.6862     25.0      10    4 273  Ml 2.0  5                         bulletin    282735
                                                                                                         _ldg
      0.30   +-  0.20       4.9    1.8   17.90 +-  0.0    1.17   1.98   +-0.3                            m i ke

WESTERN MEDITERRANEAN SEA
Sta     Dist  EvAz     Phase      Date       Time     TRes  Azim  AzRes  Slow  SRes Def   SNR       Amp   Per   Mag1   Mag2       ID
PGF   001.17 055.7 m E Pn      2012/09/05 21:00:26.5   0.0                          T                                        5063001
PGF   001.17 055.7 m E Sn      2012/09/05 21:00:40.3  -0.2                          T                4.3  .22 Ml 2.4         5063000
LMR   001.68 329.3 m E Pn      2012/09/05 21:00:33.0  -0.2                          T                                        5062999
LMR   001.68 329.3 m E Sn      2012/09/05 21:00:52.7   0.2                          T                1.6  .16 Ml 2.1         5062998
FRF   001.83 335.7 m E Pn      2012/09/05 21:00:35.4   0.1                          T                                        5062997
FRF   001.83 335.7 m E Sn      2012/09/05 21:00:56.3   0.1                          T                 .7  .16 Ml 1.8         5062996
SBF   001.98 354.7 m E Pn      2012/09/05 21:00:37.4   0.0                          T                                        5063003
SBF   001.98 354.7 m E Sn      2012/09/05 21:01:00.0   0.3                          T                 .5  .21 Ml 1.6         5063002

.
