EVENT     297417
    Date      Time       Latitude Longitude    Depth    Ndef Nsta Gap    Mag1  N    Mag2  N    Mag3  N   Author         ID
       rms   OT_Error      Smajor Sminor Az        Err   mdist  Mdist     Err        Err        Err      Quality

2013/05/04 05:37:51.6     44.8773   11.4849      8.0 f    75   25 149  Ml 2.9 25  Md 2.9  2              bulletin    297517
                                                                                                         _ldg
      0.94   +-  0.10       2.0    1.5   91.95 +-  0.0    0.19   6.90   +-0.3      +-0.1                 m i ke

NORTHERN ITALY
Sta     Dist  EvAz     Phase      Date       Time     TRes  Azim  AzRes  Slow  SRes Def   SNR       Amp   Per   Mag1   Mag2       ID
PGF   002.94 218.6 m E Pn      2013/05/04 05:38:37.0   0.1                          T                                        5274425
PGF   002.94 218.6 m E Sn      2013/05/04 05:39:10.5   0.2                          T               15.0  .34 Ml 3.3 Md 3.0  5274419
SBF   003.08 252.2 m E Pn      2013/05/04 05:38:38.8   0.1                          T                                        5274424
SBF   003.08 252.2 m E Pg      2013/05/04 05:38:48.7   0.0                          T                                        5274418
SBF   003.08 252.2 m E Sn      2013/05/04 05:39:13.8   0.3                          T               17.4  .40 Ml 3.1 Md 2.9  5274417
MBDF  003.36 269.1 m E Pn      2013/05/04 05:38:42.5  -0.2                          T                                        5274402
MBDF  003.36 269.1 m E Sn      2013/05/04 05:39:20.6   0.2                          T                6.3  .41 Ml 2.7         5274403
LPG   003.40 282.2 m E Pn      2013/05/04 05:38:43.4   0.0                          T                                        5274421
LPG   003.40 282.2 m E P       2013/05/04 05:38:46.5  -0.2                          T                                        5274420
LPG   003.40 282.2 m E Sn      2013/05/04 05:39:21.5  -0.1                          T                                        5274411
LPG   003.40 282.2 m E Sg      2013/05/04 05:39:38.6  -0.1                          T                8.4  .60 Ml 2.7         5274410
LPL   003.42 282.4 m E Pn      2013/05/04 05:38:43.6   0.0                          T                                        5274408
LPL   003.42 282.4 m E P       2013/05/04 05:38:46.5  -0.3                          T                                        5274409
LPL   003.42 282.4 m E Sn      2013/05/04 05:39:21.9   0.0                          T                                        5274407
LPL   003.42 282.4 m E Sg      2013/05/04 05:39:39.4   0.3                          T                3.9  .36 Ml 2.6         5274406
FRF   003.72 251.0 m E Pn      2013/05/04 05:38:47.4   0.0                          T                                        5274422
FRF   003.72 251.0 m E Sn      2013/05/04 05:39:29.0   0.3                          T                6.8  .35 Ml 2.9         5274415
LMR   003.90 248.4 m E Pn      2013/05/04 05:38:49.4  -0.5                          T                                        5274423
LMR   003.90 248.4 m E Sn      2013/05/04 05:39:33.5   0.4                          T                4.7  .30 Ml 2.8         5274416
ORIF  003.98 272.6 m E Pn      2013/05/04 05:38:52.6   1.5                          T                                        5274405
ORIF  003.98 272.6 m E Sn      2013/05/04 05:39:35.3   0.1                          T                7.9  .48 Ml 2.9         5274404
CABF  004.16 296.6 m E Pn      2013/05/04 05:38:53.7   0.3                          T                                        5274391
CABF  004.16 296.6 m E Sn      2013/05/04 05:39:39.3   0.0                          T                2.4  .40 Ml 2.5         5274378
HINF  004.35 314.2 m E Pn      2013/05/04 05:38:55.6  -0.4                          T                                        5274390
HINF  004.35 314.2 m E Sn      2013/05/04 05:39:43.8  -0.1                          T                4.3  .32 Ml 2.9         5274377
SMRF  004.33 260.1 m E Pn      2013/05/04 05:38:56.0   0.3                          T                                        5274414
SMRF  004.33 260.1 m E Pg      2013/05/04 05:39:11.7   0.0                          T                                        5274413
SMRF  004.33 260.1 m E Sn      2013/05/04 05:39:43.9   0.5                          T                1.9  .35 Ml 2.4         5274412
CDF   004.57 322.2 m E Pn      2013/05/04 05:38:59.8   0.7                          T                                        5274386
CDF   004.57 322.2 m E Sn      2013/05/04 05:39:49.0  -0.2                          T                5.3  .49 Ml 2.9         5274373
HAU   004.73 313.2 m E Pn      2013/05/04 05:39:01.2   0.0                          T                                        5274389
HAU   004.73 313.2 m E Sn      2013/05/04 05:39:52.7  -0.3                          T                8.1  .34 Ml 3.0         5274376
VIVF  004.84 272.1 m E Pn      2013/05/04 05:39:02.0  -0.7                          T                                        5274401
VIVF  004.84 272.1 m E Pg      2013/05/04 05:39:21.3   0.1                          T                                        5274400
VIVF  004.84 272.1 m E Sn      2013/05/04 05:39:55.8   0.1                          T                1.7  .38 Ml 2.5         5274399
LASF  005.52 264.3 m E Pn      2013/05/04 05:39:11.6  -0.3                          T                                        5274398
SFTF  005.55 309.1 m E Pn      2013/05/04 05:39:12.6   0.2 128.6  4.2               T                                        5274388
SFTF  005.55 309.1 m E Sn      2013/05/04 05:40:12.4  -0.3                          T                 .9  .16 Ml 2.8         5274375
SMF   005.63 291.0 m E Pn      2013/05/04 05:39:13.8   0.4                          T                                        5274394
SMF   005.63 291.0 m E Sn      2013/05/04 05:40:14.6   0.1                          T                5.5  .38 Ml 3.2         5274380
MEZF  005.72 311.6 m E Pn      2013/05/04 05:39:14.3  -0.3 131.5  4.5               T                                        5274387
MEZF  005.72 311.6 m E Sn      2013/05/04 05:40:16.4  -0.2                          T                2.3  .29 Ml 2.9         5274374
LOR   005.82 297.0 m E Pn      2013/05/04 05:39:16.0   0.0 121.1  9.6               T                                        5274383
LOR   005.82 297.0 m E Sn      2013/05/04 05:40:18.9  -0.1 131.5  20.0              T                5.2  .39 Ml 3.2         5274371
SSF   005.97 294.3 m E Pn      2013/05/04 05:39:17.9  -0.2                          T                                        5274384
SSF   005.97 294.3 m E Sn      2013/05/04 05:40:22.7   0.0                          T                2.3  .46 Ml 2.9         5274372
AVF   006.00 291.5 m E Pn      2013/05/04 05:39:18.4   0.0                          T                                        5274393
AVF   006.00 291.5 m E Sn      2013/05/04 05:40:23.2   0.1                          T                 .9  .40 Ml 2.4         5274379
BGF   006.28 288.6 m E Pn      2013/05/04 05:39:22.6   0.4                          T                                        5274395
BGF   006.28 288.6 m E Sn      2013/05/04 05:40:29.9   0.0                          T                7.7  .55 Ml 3.3         5274381
TCF   006.66 285.5 m E Pn      2013/05/04 05:39:27.5   0.0                          T                                        5274392
CAF   006.69 273.7 m E Pn      2013/05/04 05:39:27.6  -0.3                          T                                        5274397
CAF   006.69 273.7 m E Pg      2013/05/04 05:39:55.4   0.1                          T                                        5274396
CAF   006.69 273.7 m E Sn      2013/05/04 05:40:40.1   0.2                          T                 .4  .20 Ml 2.5         5274382
GIVF  006.90 321.6 m E Pn      2013/05/04 05:39:30.4  -0.3                          T                                        5274385

.
EVENT     297418
    Date      Time       Latitude Longitude    Depth    Ndef Nsta Gap    Mag1  N    Mag2  N    Mag3  N   Author         ID
       rms   OT_Error      Smajor Sminor Az        Err   mdist  Mdist     Err        Err        Err      Quality

2013/05/04 09:35:56.7     42.8938     .2102      2.0      10    4 198  Ml 1.5  3  Md 1.5  2              bulletin    297518
                                                                                                         _ldg
      0.37   +-  0.08       2.9     .9  169.56 +-  0.0    0.17   1.54   +-0.1      +-0.0                 m i ke

PYRENEES
Sta     Dist  EvAz     Phase      Date       Time     TRes  Azim  AzRes  Slow  SRes Def   SNR       Amp   Per   Mag1   Mag2       ID
EPF   000.17 034.9 m E Pg      2013/05/04 09:35:59.7  -0.5                          T                                        5274433
EPF   000.17 034.9 m E Sg      2013/05/04 09:36:01.9  -0.6                          T               41.2  .28        Md 1.5  5274432
ETSF  000.57 270.7 m E Pg      2013/05/04 09:36:07.4  -0.1                          T                                        5274431
ETSF  000.57 270.7 m E Sg      2013/05/04 09:36:14.8  -0.2                          T                4.3  .24        Md 1.5  5274430
SJPF  001.08 282.3 m E Pg      2013/05/04 09:36:16.9   0.0                          T                                        5274428
SJPF  001.08 282.3 m E Sg      2013/05/04 09:36:30.6  -0.3                          T                1.1  .27 Ml 1.4         5274429
MTLF  001.54 072.4 m E Pn      2013/05/04 09:36:23.5   0.1                          T                                        5274427
MTLF  001.54 072.4 m E Sn      2013/05/04 09:36:42.6  -0.2                          T                 .8  .30 Ml 1.5         5274426

.
EVENT     297419
    Date      Time       Latitude Longitude    Depth    Ndef Nsta Gap    Mag1  N    Mag2  N    Mag3  N   Author         ID
       rms   OT_Error      Smajor Sminor Az        Err   mdist  Mdist     Err        Err        Err      Quality

2013/05/04 09:35:57.7     45.2535    6.5153      2.0      24    7 136  Ml 1.6  3  Md 1.6  2              bulletin    297519
                                                                                                         _ldg
      0.33   +-  0.05       1.2     .8  135.08 +-  0.0    0.23   1.70   +-0.1      +-0.0                 m i ke

FRANCE
Sta     Dist  EvAz     Phase      Date       Time     TRes  Azim  AzRes  Slow  SRes Def   SNR       Amp   Per   Mag1   Mag2       ID
LPG   000.30 034.2 m E Pg      2013/05/04 09:36:04.0   0.2                          T                                        5274447
LPG   000.30 034.2 m E Sg      2013/05/04 09:36:08.2   0.4                          T                7.1  .18        Md 1.6  5274440
LPL   000.30 030.1 m E Pg      2013/05/04 09:36:04.2   0.3                          T                                        5274446
LPL   000.30 030.1 m E Sg      2013/05/04 09:36:08.4   0.4                          T                4.4  .20        Md 1.6  5274441
ORIF  000.56 233.5 m E Pg      2013/05/04 09:36:08.6   0.1                          T                                        5274445
ORIF  000.56 233.5 m E Sg      2013/05/04 09:36:15.6  -0.3                          T               12.4  .32                5274444
MBDF  000.56 160.9 m E Pg      2013/05/04 09:36:08.8   0.3                          T                                        5274443
MBDF  000.56 160.9 m E Sg      2013/05/04 09:36:16.1   0.2                          T                5.2  .30                5274442
VIVF  001.37 253.7 m E Pg      2013/05/04 09:36:22.9  -0.3                          T                                        5274438
VIVF  001.37 253.7 m E Sg      2013/05/04 09:36:40.9   0.0                          T                1.4  .28 Ml 1.7         5274439
SMRF  001.44 208.1 m E Pg      2013/05/04 09:36:24.8   0.1                          T                                        5274437
SMRF  001.44 208.1 m E Sg      2013/05/04 09:36:43.2  -0.2                          T                 .7  .22 Ml 1.5         5274436
FRF   001.70 176.8 m E Pg      2013/05/04 09:36:29.5   0.2                          T                                        5274435
FRF   001.70 176.8 m E Sg      2013/05/04 09:36:51.2   0.1                          T                 .5  .18 Ml 1.6         5274434

.
EVENT     297420
    Date      Time       Latitude Longitude    Depth    Ndef Nsta Gap    Mag1  N    Mag2  N    Mag3  N   Author         ID
       rms   OT_Error      Smajor Sminor Az        Err   mdist  Mdist     Err        Err        Err      Quality

2013/05/04 11:16:10.3     42.7545   -1.8657      2.0      16    3 158  Ml 1.6  2  Md 1.9  2              bulletin    297520
                                                                                                         _ldg
      0.22   +-  0.11       2.5    1.3   10.51 +-  0.0    0.21   1.64   +-0.3      +-0.2                 m i ke

PYRENEES
Sta     Dist  EvAz     Phase      Date       Time     TRes  Azim  AzRes  Slow  SRes Def   SNR       Amp   Per   Mag1   Mag2       ID
SJPF  000.59 052.5 m E Pg      2013/05/04 11:16:21.8   0.3                          T                                        5274457
SJPF  000.59 052.5 m E Sg      2013/05/04 11:16:29.1  -0.2                          T                4.9  .32        Md 1.8  5274454
ETSF  000.97 081.0 m E Pg      2013/05/04 11:16:29.0   0.4                          T                                        5274456
ETSF  000.97 081.0 m E Sg      2013/05/04 11:16:41.3   0.1                          T                 .8  .20 Ml 1.4 Md 2.1  5274455
EPF   001.64 079.6 m E Pg      2013/05/04 11:16:41.1   0.1                          T                                        5274453
EPF   001.64 079.6 m E Sg      2013/05/04 11:17:02.2   0.0                          T                1.6  .26 Ml 1.9         5274452

.
EVENT     297422
    Date      Time       Latitude Longitude    Depth    Ndef Nsta Gap    Mag1  N    Mag2  N    Mag3  N   Author         ID
       rms   OT_Error      Smajor Sminor Az        Err   mdist  Mdist     Err        Err        Err      Quality

2013/05/04 15:09:49.7     42.8493   -1.4716      2.0      17    3 070  Ml 1.8  1  Md 1.8  2              bulletin    297522
                                                                                                         _ldg
      0.41   +-  0.11       2.3    1.9  149.50 +-  0.0    0.10   1.49   +-         +-0.1                 m i ke

PYRENEES
Sta     Dist  EvAz     Phase      Date       Time     TRes  Azim  AzRes  Slow  SRes Def   SNR       Amp   Per   Mag1   Mag2       ID
SJPF  000.32 034.4 m E Pg      2013/05/04 15:09:55.8  -0.2                          T                                        5274463
SJPF  000.32 034.4 m E Sg      2013/05/04 15:10:00.5   0.3                          T                9.6  .18        Md 1.8  5274458
ETSF  000.67 085.5 m E Pg      2013/05/04 15:10:02.2  -0.3                          T                                        5274462
ETSF  000.67 085.5 m E Sg      2013/05/04 15:10:11.8   0.5                          T                3.4  .29        Md 1.7  5274459
EPF   001.34 081.6 m E Pg      2013/05/04 15:10:14.6  -0.3                          T                                        5274461
EPF   001.34 081.6 m E Sg      2013/05/04 15:10:32.3   0.1                          T                1.8  .26 Ml 1.8         5274460

.
