EVENT     257801
    Date      Time       Latitude Longitude    Depth    Ndef Nsta Gap    Mag1  N    Mag2  N    Mag3  N   Author         ID
       rms   OT_Error      Smajor Sminor Az        Err   mdist  Mdist     Err        Err        Err      Quality

2011/04/01 00:36:36.8     51.4844    6.5400      1.0 f    56   22 160  Ml 3.1 14  Md 3.5  1              js067245    257801

      0.62   +-  0.10       2.1    1.4  149.40 +-  0.0    0.31   7.03   +-0.3      +-                    m i sr

GERMANY
Sta     Dist  EvAz     Phase      Date       Time     TRes  Azim  AzRes  Slow  SRes Def   SNR       Amp   Per   Mag1   Mag2       ID
RUP   001.82 169.3 m E Pn      2011/04/01 00:37:07.5   0.0                          T                                        4668923
RUP   001.82 169.3 m E Sg      2011/04/01 00:37:34.1   0.0                          T                                Md 3.5  4668924
GIVF  001.76 218.9 m E Pn      2011/04/01 00:37:08.3   1.6                          T                                        4668926
GIVF  001.76 218.9 m E Sg      2011/04/01 00:37:31.8  -0.5                          T               82.8  .40 Ml 3.5         4668927
BAIF  002.06 227.0 m E Pn      2011/04/01 00:37:10.0  -0.7                          T                                        4668973
BAIF  002.06 227.0 m E Pg      2011/04/01 00:37:14.9  -0.1                          T                                        4668974
BAIF  002.06 227.0 m E Sg      2011/04/01 00:37:41.0  -0.5                          T               36.4  .56 Ml 3.0         4668925
LANF  002.64 161.6 m E Pn      2011/04/01 00:37:19.2   0.5                          T                                        4668971
LANF  002.64 161.6 m E Pg      2011/04/01 00:37:25.8   0.1                          T                                        4668972
LANF  002.64 161.6 m E Sg      2011/04/01 00:37:59.6   0.0                          T               24.9  .45 Ml 3.1         4668939
PAGF  002.98 190.5 m E Pn      2011/04/01 00:37:23.3   0.0                          T                                        4668967
PAGF  002.98 190.5 m E Pg      2011/04/01 00:37:31.7  -0.3  11.5  1.6               T                                        4668968
PAGF  002.98 190.5 m E Sg      2011/04/01 00:38:09.7  -0.7  16.0  6.2               T                3.8  .38 Ml 2.4         4668941
CDF   003.11 170.9 m E Pn      2011/04/01 00:37:25.3   0.1                          T                                        4668969
CDF   003.11 170.9 m E Pg      2011/04/01 00:37:34.7   0.1                          T                                        4668970
CDF   003.11 170.9 m E Sg      2011/04/01 00:38:14.3  -0.3                          T                5.6  .35 Ml 2.8         4668940
MEZF  003.14 198.4 m E Pn      2011/04/01 00:37:26.0   0.6  15.8  -1.5              T                                        4668966
MEZF  003.14 198.4 m E Sg      2011/04/01 00:38:15.1  -0.1  17.4  0.1               T               30.1  .50 Ml 3.2         4668942
THEF  003.28 186.4 m E Pn      2011/04/01 00:37:27.5   0.1                          T                                        4668962
THEF  003.28 186.4 m E Pg      2011/04/01 00:37:37.4  -0.2                          T                                        4668963
THEF  003.28 186.4 m E Sg      2011/04/01 00:38:19.9   0.2                          T               27.6  .59 Ml 3.2         4668944
SFTF  003.42 197.1 m E Pn      2011/04/01 00:37:29.4   0.0   9.6  -6.3              T                                        4668964
SFTF  003.42 197.1 m E Pg      2011/04/01 00:37:40.3   0.0  21.7  5.8               T                                        4668965
SFTF  003.42 197.1 m E Sg      2011/04/01 00:38:23.8  -0.4                          T               13.9  .43 Ml 3.0         4668943
HINF  003.68 176.7 m E Pn      2011/04/01 00:37:33.0   0.1                          T                                        4668960
HINF  003.68 176.7 m E Pg      2011/04/01 00:37:44.9  -0.1                          T                                        4668961
HINF  003.68 176.7 m E Sg      2011/04/01 00:38:31.8  -0.3                          T                4.3  .32 Ml 2.7         4668946
LOR   004.57 203.6 m E Pn      2011/04/01 00:37:45.1   0.1  26.6  5.0               T                                        4668929
LOR   004.57 203.6 m E Sg      2011/04/01 00:39:00.4   0.5                          T                                        4668937
SSF   004.85 205.3 m E Pn      2011/04/01 00:37:48.5  -0.3                          T                                        4668928
SSF   004.85 205.3 m E Sg      2011/04/01 00:39:09.1   0.3                          T               10.5  .38 Ml 3.4         4668938
CABF  004.89 183.7 m E Pn      2011/04/01 00:37:49.3  -0.1                          T                                        4668959
AVF   005.14 205.2 m E Pn      2011/04/01 00:37:52.9   0.2                          T                                        4668958
SMF   005.16 201.2 m E Pn      2011/04/01 00:37:53.2   0.2                          T                                        4668957
SMF   005.16 201.2 m E Sg      2011/04/01 00:39:18.4   0.1                          T                5.8  .30 Ml 3.2         4668947
LDF   005.18 238.6 m E Pn      2011/04/01 00:37:53.5   0.3                          T                                        4668954
LDF   005.18 238.6 m E Sn      2011/04/01 00:38:49.8  -0.2                          T                                        4668950
FLN   005.27 241.6 m E Pn      2011/04/01 00:37:54.7   0.2  55.4  -0.8              T                                        4668955
FLN   005.27 241.6 m E Sn      2011/04/01 00:38:52.1  -0.3                          T                3.1  .28 Ml 2.8         4668949
BGF   005.50 207.7 m E Pn      2011/04/01 00:37:57.5  -0.1                          T                                        4668956
BGF   005.50 207.7 m E Sn      2011/04/01 00:38:57.7   0.0                          T               15.6  .38 Ml 3.6         4668948
GRR   005.69 239.9 m E Pn      2011/04/01 00:38:00.7   0.5                          T                                        4668953
GRR   005.69 239.9 m E Sn      2011/04/01 00:39:01.5  -0.9                          T                                        4668951
TCF   005.93 210.4 m E Pn      2011/04/01 00:38:03.5   0.0                          T                                        4668975
RJF   007.03 210.3 m E Pn      2011/04/01 00:38:17.9  -0.5                          T                                        4668952
HAU   003.48 182.1 m E Sg      2011/04/01 00:38:25.8  -0.4                          T               16.0  .46 Ml 2.9         4668945

.
EVENT     257802
    Date      Time       Latitude Longitude    Depth    Ndef Nsta Gap    Mag1  N    Mag2  N    Mag3  N   Author         ID
       rms   OT_Error      Smajor Sminor Az        Err   mdist  Mdist     Err        Err        Err      Quality

2011/04/01 05:17:52.9     45.2082    6.5430      2.0       9    5 134  Ml 1.4  1  Md 1.6  2              js067245    257802

      0.25   +-  0.09       2.7    1.5  119.28 +-  0.0    0.32   1.37   +-         +-0.0                 m i ke

FRANCE
Sta     Dist  EvAz     Phase      Date       Time     TRes  Azim  AzRes  Slow  SRes Def   SNR       Amp   Per   Mag1   Mag2       ID
LPG   000.32 026.8 m E Pg      2011/04/01 05:17:59.3  -0.2                          T                                        4669003
LPG   000.32 026.8 m E Sg      2011/04/01 05:18:04.2   0.3                          T                4.1  .20        Md 1.6  4669004
LPL   000.34 023.4 m E Pg      2011/04/01 05:17:59.7   0.0                          T                                        4669001
LPL   000.34 023.4 m E Sg      2011/04/01 05:18:04.5   0.3                          T                3.2  .20        Md 1.6  4669002
MBDF  000.51 161.3 m E Pg      2011/04/01 05:18:02.5  -0.2                          T                                        4668997
MBDF  000.51 161.3 m E Sg      2011/04/01 05:18:10.0   0.6                          T                2.9  .26                4668998
ORIF  000.55 238.6 m E Pg      2011/04/01 05:18:03.6   0.1                          T                                        4668999
ORIF  000.55 238.6 m E Sg      2011/04/01 05:18:10.5  -0.2                          T                4.2  .28                4669000
VIVF  001.37 255.8 m E Sg      2011/04/01 05:18:36.3   0.1                          T                 .6  .23 Ml 1.4         4668996

.
EVENT     257815
    Date      Time       Latitude Longitude    Depth    Ndef Nsta Gap    Mag1  N    Mag2  N    Mag3  N   Author         ID
       rms   OT_Error      Smajor Sminor Az        Err   mdist  Mdist     Err        Err        Err      Quality

2011/04/01 09:18:47.0     47.9861    6.3965       .0 f    14    7 129  Ml 1.9  2  Md 1.7  3              js067245    257815

      0.96   +-  0.14       3.8    2.4    9.92 +-  0.0    0.04   1.86   +-0.0      +-0.5                 m i km

FRANCE
Sta     Dist  EvAz     Phase      Date       Time     TRes  Azim  AzRes  Slow  SRes Def   SNR       Amp   Per   Mag1   Mag2       ID
HAU   000.04 301.0 m E Pg      2011/04/01 09:18:48.6   0.6                          T                                        4669017
HAU   000.04 301.0 m E Sg      2011/04/01 09:18:49.1   0.4                          T              122.0  .54        Md 2.1  4669018
THEF  000.36 312.1 m E Pg      2011/04/01 09:18:53.8  -0.4                          T                                        4669013
THEF  000.36 312.1 m E Sg      2011/04/01 09:18:58.4  -0.8                          T               21.4  .79        Md 1.8  4669014
HINF  000.35 118.7 m E Pg      2011/04/01 09:18:54.2   0.1                          T                                        4669015
HINF  000.35 118.7 m E Sg      2011/04/01 09:18:58.5  -0.4                          T                3.9  .27        Md 1.2  4669016
PAGF  000.72 322.0 m E Pg      2011/04/01 09:19:01.0   0.1                          T                                        4669007
PAGF  000.72 322.0 m E Sn      2011/04/01 09:19:14.6   0.2                          T                5.0  .65                4669008
CDF   000.73 053.7 m E Pg      2011/04/01 09:19:01.1   0.0                          T                                        4669011
CDF   000.73 053.7 m E Sg      2011/04/01 09:19:10.1  -0.6                          T                3.0  .30                4669012
SFTF  000.94 284.0 m E Pg      2011/04/01 09:19:04.8   0.0 109.6  6.5               T                                        4669005
SFTF  000.94 284.0 m E Sn      2011/04/01 09:19:19.3  -0.1                          T                6.6  .46 Ml 2.0         4669006
LOR   001.86 248.2 m E Pg      2011/04/01 09:19:21.7  -0.1  72.8  6.5               T                                        4669009
LOR   001.86 248.2 m E Sg      2011/04/01 09:19:46.2   0.2                          T                1.2  .23 Ml 1.9         4669010

.
EVENT     257882
    Date      Time       Latitude Longitude    Depth    Ndef Nsta Gap    Mag1  N    Mag2  N    Mag3  N   Author         ID
       rms   OT_Error      Smajor Sminor Az        Err   mdist  Mdist     Err        Err        Err      Quality

2011/04/01 16:32:05.6     46.1665    8.3235      3.0 f    19    7 172  Ml 2.2  7  Md 2.2  2              js067245    257882

      0.15   +-  0.07       1.3     .7  115.70 +-  0.0    0.22   2.28   +-0.1      +-0.1                 m i ke

SWITZERLAND
Sta     Dist  EvAz     Phase      Date       Time     TRes  Azim  AzRes  Slow  SRes Def   SNR       Amp   Per   Mag1   Mag2       ID
LPL   001.29 240.3 m E Pg      2011/04/01 16:32:29.8  -0.1                          T                                        4669021
LPL   001.29 240.3 m E Sg      2011/04/01 16:32:46.6   0.0                          T                4.8  .32 Ml 2.1 Md 2.1  4669025
LPG   001.29 239.2 m E Pg      2011/04/01 16:32:30.3   0.3                          T                                        4669020
LPG   001.29 239.2 m E Sg      2011/04/01 16:32:46.5  -0.1                          T                6.0  .24 Ml 2.3 Md 2.2  4669024
CABF  001.61 286.8 m E Pg      2011/04/01 16:32:35.3  -0.4                          T                                        4669028
CABF  001.61 286.8 m E Sg      2011/04/01 16:32:56.5   0.0                          T                3.6  .32 Ml 2.1         4669029
MBDF  001.81 217.7 m E Pg      2011/04/01 16:32:39.4   0.0                          T                                        4669019
MBDF  001.81 217.7 m E Sg      2011/04/01 16:33:02.4  -0.3                          T                2.1  .33 Ml 2.0         4669026
HINF  001.93 329.2 m E Pg      2011/04/01 16:32:41.6   0.0                          T                                        4669030
HINF  001.93 329.2 m E Sg      2011/04/01 16:33:06.4  -0.1                          T                2.5  .26 Ml 2.2         4669031
ORIF  002.12 234.9 m E Pg      2011/04/01 16:32:45.0  -0.1                          T                                        4669022
ORIF  002.12 234.9 m E Sg      2011/04/01 16:33:12.6   0.1                          T                3.4  .46 Ml 2.1         4669023
HAU   002.28 324.5 m E Sg      2011/04/01 16:33:17.5   0.2                          T                4.7  .30 Ml 2.2         4669027

.
EVENT     257884
    Date      Time       Latitude Longitude    Depth    Ndef Nsta Gap    Mag1  N    Mag2  N    Mag3  N   Author         ID
       rms   OT_Error      Smajor Sminor Az        Err   mdist  Mdist     Err        Err        Err      Quality

2011/04/01 20:27:50.1     43.2078   -1.7352     15.0 f    44    6 135  Ml 1.8  5  Md 2.3  2              js067245    257884

      0.50   +-  0.13       2.1    2.0  104.58 +-  0.0    0.16   3.23   +-0.5      +-0.0                 m i ke

PYRENEES
Sta     Dist  EvAz     Phase      Date       Time     TRes  Azim  AzRes  Slow  SRes Def   SNR       Amp   Per   Mag1   Mag2       ID
SJPF  000.39 104.0 m E Pg      2011/04/01 20:27:57.8  -0.2                          T                                        4669034
SJPF  000.39 104.0 m E Sg      2011/04/01 20:28:02.6  -0.7                          T               13.4  .24        Md 2.3  4669035
ETSF  000.92 109.3 m E Pg      2011/04/01 20:28:07.3  -0.3                          T                                        4669043
ETSF  000.92 109.3 m E P       2011/04/01 20:28:08.4   0.0                          T                                        4669032
ETSF  000.92 109.3 m E Sg      2011/04/01 20:28:19.9   0.3                          T                9.1  .24 Ml 2.4 Md 2.3  4669033
EPF   001.53 096.0 m E Pg      2011/04/01 20:28:18.9   0.2                          T                                        4669044
EPF   001.53 096.0 m E Sg      2011/04/01 20:28:38.6   0.0                          T                3.6  .20 Ml 2.3         4669045
MTLF  002.89 086.0 m E Pn      2011/04/01 20:28:33.8   0.0                          T                                        4669041
MTLF  002.89 086.0 m E Pg      2011/04/01 20:28:43.7   0.0                          T                                        4669040
MTLF  002.89 086.0 m E Sn      2011/04/01 20:29:06.1   0.0                          T                 .5  .24 Ml 1.7         4669042
RJF   003.14 047.0 m E P       2011/04/01 20:28:40.2  -0.1                          T                                        4669036
RJF   003.14 047.0 m E Sn      2011/04/01 20:29:12.3   0.2                          T                 .2  .16 Ml 1.3         4669038
CAF   003.23 056.6 m E P       2011/04/01 20:28:41.2  -0.4                          T                                        4669037
CAF   003.23 056.6 m E Sn      2011/04/01 20:29:14.9   0.5                          T                 .2  .23 Ml 1.5         4669039

.
EVENT     257885
    Date      Time       Latitude Longitude    Depth    Ndef Nsta Gap    Mag1  N    Mag2  N    Mag3  N   Author         ID
       rms   OT_Error      Smajor Sminor Az        Err   mdist  Mdist     Err        Err        Err      Quality

2011/04/01 20:50:10.6     50.4202    7.3302     10.0      18    7 060  Ml 1.8  6  Md 2.3  1              js067245    257885

      0.37   +-  0.07       1.3    1.1   15.07 +-  0.0    0.20   2.62   +-0.3      +-                    m i ke

GERMANY
Sta     Dist  EvAz     Phase      Date       Time     TRes  Azim  AzRes  Slow  SRes Def   SNR       Amp   Per   Mag1   Mag2       ID
RUP   000.74 193.7 m E Pg      2011/04/01 20:50:24.8   0.1                          T                                        4669056
RUP   000.74 193.7 m E Sg      2011/04/01 20:50:34.3  -0.1                          T                                Md 2.3  4669057
LANF  001.47 167.7 m E Pg      2011/04/01 20:50:37.7  -0.4                          T                                        4669047
LANF  001.47 167.7 m E Sg      2011/04/01 20:50:57.5   0.3                          T                2.0  .23 Ml 2.0         4669048
GIVF  001.64 259.8 m E Pg      2011/04/01 20:50:41.4   0.2                          T                                        4669050
GIVF  001.64 259.8 m E Sg      2011/04/01 20:51:02.3   0.0                          T                2.7  .26 Ml 2.1         4669051
BAIF  002.04 261.0 m E Pg      2011/04/01 20:50:47.8  -0.6                          T                                        4669049
BAIF  002.04 261.0 m E Sg      2011/04/01 20:51:13.0  -1.7                          T                1.3  .25 Ml 1.9         4669055
CDF   002.01 181.0 m E Pg      2011/04/01 20:50:47.9  -0.2                          T                                        4669046
CDF   002.01 181.0 m E Sg      2011/04/01 20:51:13.8  -0.2                          T                1.1  .34 Ml 1.8         4669054
PAGF  002.14 209.9 m E Sn      2011/04/01 20:51:09.5  -0.1                          T                 .4  .30 Ml 1.3         4669053
HINF  002.62 187.0 m E Sg      2011/04/01 20:51:33.5   0.4                          T                 .4  .18 Ml 1.7         4669052

.
