BEGIN GSE2.0
MSG_TYPE DATA
MSG_ID 23-FEB-1209:49:30  FRA_NDC
E-MAIL
DATA_TYPE BULLETIN
Reviewed Bulletin (REB) # P2012-007  from French NDC for regional phases     PERIOD 15 FEB 2012 TO 21 FEB 2012 S M., J-P S.
EVENT     270112
    Date      Time       Latitude Longitude    Depth    Ndef Nsta Gap    Mag1  N    Mag2  N    Mag3  N   Author         ID
       rms   OT_Error      Smajor Sminor Az        Err   mdist  Mdist     Err        Err        Err      Quality

2012/02/15 02:07:30.0     44.4617   10.0477     47.9      24    4 080  Ml 2.6  5                         js067245    270132

      1.38   +-  0.40       4.8    4.2  175.06 +-  3.8    0.03   2.80   +-0.1                            m i ke

NORTHERN ITALY
Sta     Dist  EvAz     Phase      Date       Time     TRes  Azim  AzRes  Slow  SRes Def   SNR       Amp   Per   Mag1   Mag2       ID
SBF   001.97 253.3 m E Pn      2012/02/15 02:08:00.3  -0.7                          T                                        4839307
SBF   001.97 253.3 m E Sn      2012/02/15 02:08:22.5  -1.5                          T                5.9  .26 Ml 2.5         4839304
PGF   002.06 202.1 m E Pn      2012/02/15 02:08:02.8   0.6                          T                                        4839306
PGF   002.06 202.1 m E Sn      2012/02/15 02:08:26.2   0.2                          T                2.6  .20 Ml 2.6         4839305
FRF   002.61 251.0 m E Pn      2012/02/15 02:08:09.9   0.4                          T                                        4839309
FRF   002.61 251.0 m E Sn      2012/02/15 02:08:40.2   1.3                          T                7.2  .28 Ml 2.8         4839302
LMR   002.80 247.4 m E Pn      2012/02/15 02:08:12.6   0.7                          T                                        4839308
LMR   002.80 247.4 m E Sn      2012/02/15 02:08:43.3   0.3                          T                3.3  .20 Ml 2.6         4839303

.
EVENT     270113
    Date      Time       Latitude Longitude    Depth    Ndef Nsta Gap    Mag1  N    Mag2  N    Mag3  N   Author         ID
       rms   OT_Error      Smajor Sminor Az        Err   mdist  Mdist     Err        Err        Err      Quality

2012/02/15 04:09:42.9     42.9578     .1776      8.0 f    37    5 060  Ml 2.0  4  Md 2.0  1              js067245    270133

      0.55   +-  0.08       1.6    1.2   20.17 +-  0.0    0.14   2.71   +-0.3      +-                    m i ke

PYRENEES
Sta     Dist  EvAz     Phase      Date       Time     TRes  Azim  AzRes  Slow  SRes Def   SNR       Amp   Per   Mag1   Mag2       ID
EPF   000.14 058.7 m E Pg      2012/02/15 04:09:46.2   0.0                          T                                        4839311
EPF   000.14 058.7 m E Sg      2012/02/15 04:09:48.2  -0.2                          T               99.2  .22        Md 2.0  4839312
SJPF  001.04 279.1 m E Sg      2012/02/15 04:10:16.2   0.2                          T                1.6  .26 Ml 1.6         4839315
LFF   002.02 011.4 m E Pg      2012/02/15 04:10:20.0  -0.5                          T                                        4839318
LFF   002.02 011.4 m E Sg      2012/02/15 04:10:46.9   0.3                          T                6.3  .31 Ml 2.3         4839310
CAF   002.39 034.1 m E Pg      2012/02/15 04:10:27.3  -0.1                          T                                        4839316
CAF   002.39 034.1 m E Sg      2012/02/15 04:10:58.3   0.0                          T                1.0  .17 Ml 2.1         4839314
RJF   002.54 021.9 m E Pg      2012/02/15 04:10:29.9  -0.1                          T                                        4839317
RJF   002.54 021.9 m E Sg      2012/02/15 04:11:03.3   0.7                          T                1.5  .19 Ml 1.9         4839313

.
EVENT     270115
    Date      Time       Latitude Longitude    Depth    Ndef Nsta Gap    Mag1  N    Mag2  N    Mag3  N   Author         ID
       rms   OT_Error      Smajor Sminor Az        Err   mdist  Mdist     Err        Err        Err      Quality

2012/02/15 04:17:53.9     45.5983   11.0438     10.0 f    86   17 044  Ml 2.7 13                         js067245    270135

      0.77   +-  0.09       2.2    1.9  142.84 +-  0.0    0.05   6.20   +-0.2                            m i ke

NORTHERN ITALY
Sta     Dist  EvAz     Phase      Date       Time     TRes  Azim  AzRes  Slow  SRes Def   SNR       Amp   Per   Mag1   Mag2       ID
LPL   003.03 270.0 m E Pn      2012/02/15 04:18:40.5   0.1                          T                                        4839398
LPL   003.03 270.0 m E Sn      2012/02/15 04:19:15.7   1.2                          T                5.4  .25 Ml 2.8         4839387
SBF   003.10 237.3 m E Pn      2012/02/15 04:18:40.8  -0.3                          T                                        4839393
SBF   003.10 237.3 m E Sn      2012/02/15 04:19:16.9   0.9                          T                9.3  .29 Ml 3.0         4839390
MBDF  003.15 255.4 m E Pn      2012/02/15 04:18:41.6  -0.2                          T                                        4839401
MBDF  003.15 255.4 m E P       2012/02/15 04:18:45.1   0.3                          T                                        4839402
MBDF  003.15 255.4 m E Sn      2012/02/15 04:19:18.0   0.8                          T                3.0  .33 Ml 2.4         4839385
LPG   003.02 269.6 m E P       2012/02/15 04:18:43.0  -0.3                          T                                        4839397
LPG   003.02 269.6 m E Sn      2012/02/15 04:19:15.2   0.9                          T                4.9  .32 Ml 2.6         4839388
PGF   003.39 206.5 m E P       2012/02/15 04:18:47.9  -0.4                          T                                        4839392
PGF   003.39 206.5 m E Sn      2012/02/15 04:19:21.1  -1.8                          T                3.7  .33 Ml 2.8         4839391
CABF  003.59 288.1 m E Pn      2012/02/15 04:18:48.0   0.2                          T                                        4839406
HINF  003.64 309.1 m E Pn      2012/02/15 04:18:48.4   0.0                          T                                        4839407
HINF  003.64 309.1 m E Sn      2012/02/15 04:19:29.6   0.8                          T                2.1  .23 Ml 2.5         4839382
HINF  003.64 309.1 m E Sg      2012/02/15 04:19:46.8  -1.2                          T                3.3  .36 Ml 2.5         4839383
FRF   003.74 238.6 m E Pn      2012/02/15 04:18:49.2  -0.6                          T                                        4839395
FRF   003.74 238.6 m E Pg      2012/02/15 04:19:01.5  -1.7                          T                                        4839396
FRF   003.74 238.6 m E Sn      2012/02/15 04:19:31.9   0.6                          T                2.3  .23 Ml 2.6         4839389
CDF   003.82 318.9 m E Pn      2012/02/15 04:18:51.7   0.8                          T                                        4839409
LMR   003.96 236.7 m E Pn      2012/02/15 04:18:52.4  -0.3                          T                                        4839394
ORIF  003.71 261.3 m E P       2012/02/15 04:18:52.9   0.0                          T                                        4839400
ORIF  003.71 261.3 m E Pg      2012/02/15 04:19:01.3  -1.4                          T                                        4839399
ORIF  003.71 261.3 m E Sn      2012/02/15 04:19:30.9   0.3                          T                3.4  .42 Ml 2.5         4839386
HAU   004.02 308.4 m E Pn      2012/02/15 04:18:53.8   0.1                          T                                        4839408
HAU   004.02 308.4 m E Sn      2012/02/15 04:19:38.5   0.5                          T                3.3  .25 Ml 2.6         4839380
HAU   004.02 308.4 m E Sg      2012/02/15 04:19:59.3  -0.8                          T                3.9  .31 Ml 2.5         4839381
VIVF  004.56 262.9 m E Pn      2012/02/15 04:19:01.0   0.0                          T                                        4839403
SMF   005.12 284.4 m E Pn      2012/02/15 04:19:08.7   0.2                          T                                        4839404
SMF   005.12 284.4 m E Sn      2012/02/15 04:20:05.2   1.1                          T                3.0  .22 Ml 3.0         4839384
LOR   005.24 291.2 m E Pn      2012/02/15 04:19:10.2   0.0                          T                                        4839411
LOR   005.24 291.2 m E Sn      2012/02/15 04:20:07.7   0.7                          T                1.2  .20 Ml 2.7         4839379
AVF   005.47 285.3 m E Pn      2012/02/15 04:19:13.3   0.0                          T                                        4839405
TCF   006.20 279.5 m E Pn      2012/02/15 04:19:23.0  -0.2                          T                                        4839410

.
EVENT     270136
    Date      Time       Latitude Longitude    Depth    Ndef Nsta Gap    Mag1  N    Mag2  N    Mag3  N   Author         ID
       rms   OT_Error      Smajor Sminor Az        Err   mdist  Mdist     Err        Err        Err      Quality

2012/02/15 09:39:44.1     45.1136    7.4103      2.0      22    6 129  Ml 1.8  3  Md 1.7  2              js067245    270156

      0.30   +-  0.09       1.6    1.3  104.76 +-  0.0    0.11   1.96   +-0.2      +-0.1                 m i ke

NORTHERN ITALY
Sta     Dist  EvAz     Phase      Date       Time     TRes  Azim  AzRes  Slow  SRes Def   SNR       Amp   Per   Mag1   Mag2       ID
MBDF  000.60 229.8 m E Pg      2012/02/15 09:39:55.7   0.1                          T                                        4839449
MBDF  000.60 229.8 m E Sg      2012/02/15 09:40:03.5   0.1                          T                9.3  .22        Md 1.6  4839450
LPG   000.60 309.8 m E Pg      2012/02/15 09:39:56.2   0.3                          T                                        4839447
LPG   000.60 309.8 m E Sg      2012/02/15 09:40:03.3  -0.5                          T                5.0  .27        Md 1.7  4839448
LPL   000.63 310.3 m E Pg      2012/02/15 09:39:56.2   0.0                          T                                        4839455
LPL   000.63 310.3 m E Sg      2012/02/15 09:40:04.3  -0.1                          T                4.7  .27                4839456
ORIF  001.10 260.3 m E Pg      2012/02/15 09:40:04.9   0.1                          T                                        4839457
ORIF  001.10 260.3 m E Sg      2012/02/15 09:40:19.4   0.3                          T                1.3  .25 Ml 1.6         4839458
SMRF  001.74 229.7 m E Pg      2012/02/15 09:40:16.5   0.0                          T                                        4839453
SMRF  001.74 229.7 m E Sg      2012/02/15 09:40:38.8   0.0                          T                1.7  .27 Ml 1.9         4839454
VIVF  001.96 263.4 m E Pg      2012/02/15 09:40:20.3  -0.3                          T                                        4839451
VIVF  001.96 263.4 m E Sg      2012/02/15 09:40:45.8   0.0                          T                1.9  .41 Ml 1.9         4839452

.
EVENT     270137
    Date      Time       Latitude Longitude    Depth    Ndef Nsta Gap    Mag1  N    Mag2  N    Mag3  N   Author         ID
       rms   OT_Error      Smajor Sminor Az        Err   mdist  Mdist     Err        Err        Err      Quality

2012/02/15 11:38:48.8     44.3357    7.2773      2.0      20    6 110  Ml 1.3  4  Md 1.3  2              js067245    270157

      0.14   +-  0.03        .6     .5   73.00 +-  0.0    0.10   1.28   +-0.4      +-0.2                 m i ke

NORTHERN ITALY
Sta     Dist  EvAz     Phase      Date       Time     TRes  Azim  AzRes  Slow  SRes Def   SNR       Amp   Per   Mag1   Mag2       ID
SBF   000.49 166.4 m E Pg      2012/02/15 11:38:58.1   0.0                          T                                        4839469
SBF   000.49 166.4 m E Sg      2012/02/15 11:39:04.4  -0.2                          T                1.7  .22        Md 1.4  4839470
MBDF  000.53 317.4 m E Pg      2012/02/15 11:38:59.1   0.0                          T                                        4839459
MBDF  000.53 317.4 m E Sg      2012/02/15 11:39:06.1  -0.1                          T                 .6  .21        Md 1.1  4839460
FRF   000.90 210.7 m E Pg      2012/02/15 11:39:05.7   0.0                          T                                        4839465
FRF   000.90 210.7 m E Sg      2012/02/15 11:39:17.3  -0.1                          T                2.5  .28 Ml 1.8         4839466
LMR   001.15 209.3 m E Pg      2012/02/15 11:39:10.3   0.1                          T                                        4839467
LMR   001.15 209.3 m E Sg      2012/02/15 11:39:25.1   0.1                          T                 .6  .18 Ml 1.4         4839468
LPG   001.22 342.4 m E Pg      2012/02/15 11:39:12.0   0.0                          T                                        4839461
LPG   001.22 342.4 m E Sg      2012/02/15 11:39:27.7  -0.1                          T                 .1  .15 Ml  .8         4839462
SMRF  001.28 254.2 m E Pg      2012/02/15 11:39:12.7   0.0                          T                                        4839463
SMRF  001.28 254.2 m E Sg      2012/02/15 11:39:29.1  -0.1                          T                 .5  .19 Ml 1.4         4839464

.
EVENT     270161
    Date      Time       Latitude Longitude    Depth    Ndef Nsta Gap    Mag1  N    Mag2  N    Mag3  N   Author         ID
       rms   OT_Error      Smajor Sminor Az        Err   mdist  Mdist     Err        Err        Err      Quality

2012/02/15 17:50:30.2     44.4321    7.2967     15.0 f    33    8 085  Ml 2.0  6  Md 2.0  2              js067245    270181

      0.36   +-  0.06       1.5    1.0   59.05 +-  0.0    0.08   1.32   +-0.3      +-0.0                 m i ke

NORTHERN ITALY
Sta     Dist  EvAz     Phase      Date       Time     TRes  Azim  AzRes  Slow  SRes Def   SNR       Amp   Per   Mag1   Mag2       ID
MBDF  000.48 308.3 m E Pg      2012/02/15 17:50:40.1   0.2                          T                                        4839486
MBDF  000.48 308.3 m E Sg      2012/02/15 17:50:46.4   0.0                          T               14.8  .32        Md 2.0  4839472
SBF   000.58 170.0 m E Pg      2012/02/15 17:50:41.8   0.2                          T                                        4839480
SBF   000.58 170.0 m E Sg      2012/02/15 17:50:49.1  -0.2                          T                6.0  .16        Md 2.0  4839479
FRF   000.99 208.5 m E Pg      2012/02/15 17:50:48.9   0.0                          T                                        4839485
FRF   000.99 208.5 m E Sg      2012/02/15 17:51:01.6  -0.3                          T                4.6  .23 Ml 2.2         4839477
ORIF  001.12 296.2 m E Pg      2012/02/15 17:50:51.3  -0.1                          T                                        4839483
ORIF  001.12 296.2 m E Sg      2012/02/15 17:51:06.1   0.0                          T                1.7  .25 Ml 1.7         4839473
LPL   001.16 339.9 m E Pg      2012/02/15 17:50:52.3   0.0                          T                                        4839484
LPL   001.16 339.9 m E Sg      2012/02/15 17:51:07.4   0.0                          T                1.9  .29 Ml 1.7         4839474
LMR   001.24 207.7 m E Pg      2012/02/15 17:50:53.4  -0.1                          T                                        4839481
LMR   001.24 207.7 m E P       2012/02/15 17:50:53.7   0.5                          T                                        4839482
LMR   001.24 207.7 m E Sg      2012/02/15 17:51:09.7   0.2                          T                5.7  .19 Ml 2.4         4839478
LPG   001.13 340.2 m E Sg      2012/02/15 17:51:06.7  -0.1                          T                2.1  .28 Ml 1.8         4839475
SMRF  001.32 250.4 m E Sg      2012/02/15 17:51:12.1  -0.1                          T                5.4  .37 Ml 2.1         4839476

.
