EVENT     256123
    Date      Time       Latitude Longitude    Depth    Ndef Nsta Gap    Mag1  N    Mag2  N    Mag3  N   Author         ID
       rms   OT_Error      Smajor Sminor Az        Err   mdist  Mdist     Err        Err        Err      Quality

2011/02/18 05:25:03.5     48.1887    7.6954     10.0      29   10 041  Ml 2.1  7  Md 1.9  3              js067245    256143

      0.58   +-  0.06       1.3    1.1  179.37 +-  0.0    0.07   2.75   +-0.2      +-0.2                 m i ke

FRANCE
Sta     Dist  EvAz     Phase      Date       Time     TRes  Azim  AzRes  Slow  SRes Def   SNR       Amp   Per   Mag1   Mag2       ID
CDF   000.36 308.8 m E Pg      2011/02/18 05:25:10.5  -0.2                          T                                        4651155
CDF   000.36 308.8 m E Sg      2011/02/18 05:25:14.9  -0.7                          T                6.0  .22        Md 1.9  4651149
HINF  000.68 237.0 m E Pg      2011/02/18 05:25:16.5   0.1                          T                                        4651153
HINF  000.68 237.0 m E Sg      2011/02/18 05:25:25.2  -0.1                          T                7.7  .28        Md 1.8  4651152
LANF  000.80 005.2 m E Pg      2011/02/18 05:25:19.1   0.5                          T                                        4651164
LANF  000.80 005.2 m E Sg      2011/02/18 05:25:29.3   0.3                          T                5.3  .25        Md 2.1  4651170
HAU   000.92 259.0 m E Pg      2011/02/18 05:25:20.9   0.1                          T                                        4651154
HAU   000.92 259.0 m E Sg      2011/02/18 05:25:32.0  -0.9                          T                6.8  .22 Ml 2.1         4651151
THEF  001.14 272.6 m E Pg      2011/02/18 05:25:24.7  -0.2                          T                                        4651167
THEF  001.14 272.6 m E Sg      2011/02/18 05:25:39.1  -0.6                          T                7.4  .29 Ml 2.3         4651150
PAGF  001.36 286.3 m E Pg      2011/02/18 05:25:28.8  -0.1                          T                                        4651160
PAGF  001.36 286.3 m E Sg      2011/02/18 05:25:45.9  -0.7 106.4  1.5               T                1.1  .24 Ml 1.6         4651161
RUP   001.57 344.8 m E Pg      2011/02/18 05:25:33.3   0.4                          T                                        4651163
RUP   001.57 344.8 m E Sg      2011/02/18 05:25:53.2   0.0                          T                                        4651162
SFTF  001.78 271.5 m E Pg      2011/02/18 05:25:36.5  -0.1                          T                                        4651166
SFTF  001.78 271.5 m E Sg      2011/02/18 05:25:58.9  -0.6                          T                3.2  .28 Ml 2.2         4651168
MEZF  001.79 281.1 m E Pg      2011/02/18 05:25:36.6  -0.2 106.1  7.0               T                                        4651165
MEZF  001.79 281.1 m E Sg      2011/02/18 05:25:59.1  -0.8                          T                2.4  .34 Ml 2.0         4651169
LOR   002.75 251.8 m E Pg      2011/02/18 05:25:54.5   0.0  81.2  12.2              T                                        4651158
LOR   002.75 251.8 m E Sg      2011/02/18 05:26:29.4  -0.4  70.4  1.4               T                1.5  .26 Ml 2.1         4651159

.
EVENT     256128
    Date      Time       Latitude Longitude    Depth    Ndef Nsta Gap    Mag1  N    Mag2  N    Mag3  N   Author         ID
       rms   OT_Error      Smajor Sminor Az        Err   mdist  Mdist     Err        Err        Err      Quality

2011/02/18 07:59:21.0     50.3351    7.8397     12.0 f    32   13 115  Ml 2.5 12  Md 2.6  4              js067245    256148

      0.38   +-  0.07       1.3    1.0   28.54 +-  0.0    0.10   4.35   +-0.3      +-0.1                 m i ke

GERMANY
Sta     Dist  EvAz     Phase      Date       Time     TRes  Azim  AzRes  Slow  SRes Def   SNR       Amp   Per   Mag1   Mag2       ID
RUP   000.81 218.7 m E Pg      2011/02/18 07:59:35.7  -0.8                          T                                        4651258
RUP   000.81 218.7 m E Sg      2011/02/18 07:59:46.8  -0.2                          T                                Md 2.5  4651256
LANF  001.36 181.0 m E Pn      2011/02/18 07:59:44.2   0.0                          T                                        4653855
LANF  001.36 181.0 m E Pg      2011/02/18 07:59:46.4   0.0                          T                                        4651249
LANF  001.36 181.0 m E Sg      2011/02/18 08:00:03.7  -0.3                          T               21.4  .43 Ml 2.7 Md 2.7  4651255
CDF   001.96 191.0 m E Pn      2011/02/18 07:59:52.6   0.1                          T                                        4651251
CDF   001.96 191.0 m E Pg      2011/02/18 07:59:57.3  -0.3                          T                                        4653854
CDF   001.96 191.0 m E Sg      2011/02/18 08:00:22.6  -0.3                          T                5.5  .34 Ml 2.5 Md 2.4  4651257
PAGF  002.25 218.6 m E Pn      2011/02/18 07:59:56.6   0.2  32.8  -4.1              T                                        4651248
PAGF  002.25 218.6 m E Sg      2011/02/18 08:00:31.9   0.0                          T                3.1  .44 Ml 2.1         4651250
GIVF  001.95 264.3 m E Pg      2011/02/18 07:59:57.3   0.0                          T                                        4651252
GIVF  001.95 264.3 m E Sg      2011/02/18 08:00:22.0  -0.5                          T                6.1  .22 Ml 2.6 Md 2.6  4651254
THEF  002.43 210.5 m E Pn      2011/02/18 07:59:58.9   0.1                          T                                        4651246
THEF  002.43 210.5 m E P       2011/02/18 08:00:01.4   0.0                          T                                        4653852
THEF  002.43 210.5 m E Sg      2011/02/18 08:00:37.0  -0.5                          T                7.4  .25 Ml 2.8         4651237
HAU   002.53 203.3 m E Pn      2011/02/18 08:00:00.2   0.0                          T                                        4651245
HAU   002.53 203.3 m E Sg      2011/02/18 08:00:40.2  -0.3                          T                5.7  .28 Ml 2.4         4651236
HINF  002.60 194.8 m E Pn      2011/02/18 08:00:01.1  -0.1                          T                                        4651244
HINF  002.60 194.8 m E Sg      2011/02/18 08:00:42.7  -0.2                          T                6.1  .32 Ml 2.6         4651235
MEZF  002.58 225.8 m E Pn      2011/02/18 08:00:01.2   0.3  41.0  -2.8              T                                        4651247
MEZF  002.58 225.8 m E Sg      2011/02/18 08:00:41.7  -0.5                          T               12.4  .34 Ml 2.9         4651238
SFTF  002.81 221.8 m E Pn      2011/02/18 08:00:04.0   0.0                          T                                        4653853
BAIF  002.35 264.6 m E Pg      2011/02/18 08:00:04.7   0.0                          T                                        4651243
BAIF  002.35 264.6 m E Sg      2011/02/18 08:00:34.6  -0.3                          T                5.4  .30 Ml 2.5         4651253
LOR   004.04 222.1 m E Pn      2011/02/18 08:00:22.6   1.8  49.8  10.7              T                                        4651242
LOR   004.04 222.1 m E Sn      2011/02/18 08:01:05.3   0.1                          T                1.1  .32 Ml 2.2         4651240
SSF   004.35 222.9 m E Sn      2011/02/18 08:01:12.7   0.0                          T                 .7  .28 Ml 2.2         4651239

.
EVENT     256127
    Date      Time       Latitude Longitude    Depth    Ndef Nsta Gap    Mag1  N    Mag2  N    Mag3  N   Author         ID
       rms   OT_Error      Smajor Sminor Az        Err   mdist  Mdist     Err        Err        Err      Quality

2011/02/18 08:15:36.0     46.5852    2.1488      3.0 f    32   12 114  Ml 2.3  9  Md 2.3  3              js067245    256147

      0.56   +-  0.06       1.6    1.0  144.51 +-  0.0    0.30   2.55   +-0.1      +-0.1                 m i ke

FRANCE
Sta     Dist  EvAz     Phase      Date       Time     TRes  Azim  AzRes  Slow  SRes Def   SNR       Amp   Per   Mag1   Mag2       ID
TCF   000.30 171.9 m E Pg      2011/02/18 08:15:41.9   0.0                          T                                        4651212
TCF   000.30 171.9 m E Sg      2011/02/18 08:15:45.5  -0.5                          T                8.8  .20        Md 2.4  4651208
BGF   000.48 093.0 m E Pg      2011/02/18 08:15:45.3   0.1                          T                                        4651216
BGF   000.48 093.0 m E Sg      2011/02/18 08:15:51.2  -0.4                          T               25.0  .30        Md 2.3  4651207
HYF   000.76 026.0 m E Pn      2011/02/18 08:15:51.7  -0.4                          T                                        4653857
HYF   000.76 026.0 m E Sg      2011/02/18 08:15:57.9  -2.4                          T                                        4653858
HYF   000.76 026.0 m E Sn      2011/02/18 08:16:03.8   0.4                          T                                        4653859
AVF   000.85 075.6 m E Pg      2011/02/18 08:15:52.2   0.2                          T                                        4653860
AVF   000.85 075.6 m E P       2011/02/18 08:15:54.1   0.2                          T                                        4653861
AVF   000.85 075.6 m E Sg      2011/02/18 08:16:03.1   0.0                          T                8.6  .24                4651206
AVF   000.85 075.6 m E Sn      2011/02/18 08:16:05.9   0.3                          T                4.8  .26                4651214
SSF   001.05 062.4 m E Pg      2011/02/18 08:15:55.8   0.2                          T                                        4653863
SSF   001.05 062.4 m E P       2011/02/18 08:15:57.3  -0.2                          T                                        4651211
SSF   001.05 062.4 m E Sg      2011/02/18 08:16:10.0   0.8                          T                8.9  .23 Ml 2.5         4651203
SMF   001.17 086.4 m E Pg      2011/02/18 08:15:57.6  -0.3                          T                                        4651213
SMF   001.17 086.4 m E Sg      2011/02/18 08:16:13.0   0.0                          T                4.8  .22 Ml 2.2         4651205
RJF   001.35 199.2 m E Pn      2011/02/18 08:16:00.5   0.4                          T                                        4651196
RJF   001.35 199.2 m E Pg      2011/02/18 08:16:01.6   0.3                          T                                        4653856
RJF   001.35 199.2 m E Sg      2011/02/18 08:16:19.1   0.3                          T               10.3  .27 Ml 2.2         4651201
LOR   001.36 059.1 m E P       2011/02/18 08:16:01.9   0.0 242.4  2.1               T                                        4651210
LOR   001.36 059.1 m E Sg      2011/02/18 08:16:19.0   0.2 230.2  -10.2             T               10.4  .30 Ml 2.5         4651209
MFF   001.58 271.4 m E Pg      2011/02/18 08:16:05.1  -0.4                          T                                        4651195
MFF   001.58 271.4 m E Sg      2011/02/18 08:16:26.1   0.2                          T                3.1  .25 Ml 2.3         4651202
CAF   001.66 182.1 m E Pg      2011/02/18 08:16:07.1   0.2                          T                                        4651198
CAF   001.66 182.1 m E Sg      2011/02/18 08:16:28.6   0.2                          T                7.0  .33 Ml 2.4         4651199
LFF   001.92 211.4 m E Pg      2011/02/18 08:16:11.6   0.0                          T                                        4651197
LFF   001.92 211.4 m E Sg      2011/02/18 08:16:36.0  -0.4                          T                2.9  .26 Ml 2.1         4651200
SFTF  002.55 049.4 m E Pn      2011/02/18 08:16:15.8  -0.5                          T                                        4653862

.
EVENT     256131
    Date      Time       Latitude Longitude    Depth    Ndef Nsta Gap    Mag1  N    Mag2  N    Mag3  N   Author         ID
       rms   OT_Error      Smajor Sminor Az        Err   mdist  Mdist     Err        Err        Err      Quality

2011/02/18 10:21:48.8     43.4767    3.4156       .0 f    25    9 188  Ml 2.4 10  Md 2.4  3              js067245    256151

      0.49   +-  0.09       1.9    1.0  149.46 +-  0.0    0.68   2.96   +-0.2      +-0.0                 m i km

NEAR SOUTH COAST OF FRANCE
Sta     Dist  EvAz     Phase      Date       Time     TRes  Azim  AzRes  Slow  SRes Def   SNR       Amp   Per   Mag1   Mag2       ID
LASF  000.68 027.9 m E Pg      2011/02/18 10:22:02.2   0.3                          T                                        4651346
LASF  000.68 027.9 m E Sg      2011/02/18 10:22:11.1   0.2                          T               13.8  .30        Md 2.5  4651342
MTLF  000.88 261.6 m E Pg      2011/02/18 10:22:05.6   0.0                          T                                        4653864
MTLF  000.88 261.6 m E Pn      2011/02/18 10:22:07.3   0.3                          T                                        4651345
MTLF  000.88 261.6 m E Sg      2011/02/18 10:22:17.3  -0.1                          T                9.2  .22 Ml 2.4 Md 2.4  4651343
CAF   001.74 326.6 m E Pn      2011/02/18 10:22:18.1  -0.7                          T                                        4651330
CAF   001.74 326.6 m E Pg      2011/02/18 10:22:21.7   0.1                          T                                        4651338
CAF   001.74 326.6 m E Sn      2011/02/18 10:22:40.0  -0.6                          T                5.1  .26 Ml 2.4         4651334
SMRF  001.64 071.6 m E Pg      2011/02/18 10:22:19.4  -0.3                          T                                        4651329
SMRF  001.64 071.6 m E Sg      2011/02/18 10:22:40.7  -0.4                          T                8.3  .55 Ml 2.3         4651328
VIVF  001.65 032.8 m E Pg      2011/02/18 10:22:20.0   0.1                          T                                        4651339
VIVF  001.65 032.8 m E Sg      2011/02/18 10:22:40.9  -0.3                          T                9.6  .44 Ml 2.4 Md 2.4  4651344
RJF   002.28 324.0 m E Pn      2011/02/18 10:22:26.1   0.1                          T                                        4651326
RJF   002.28 324.0 m E Pg      2011/02/18 10:22:31.4   0.0                          T                                        4651327
RJF   002.28 324.0 m E Sg      2011/02/18 10:23:00.4  -0.5                          T                4.2  .34 Ml 2.0         4651337
EPF   002.29 259.8 m E Pn      2011/02/18 10:22:26.2   0.0                          T                                        4651331
EPF   002.29 259.8 m E Pg      2011/02/18 10:22:31.5  -0.2                          T                                        4651340
EPF   002.29 259.8 m E Sg      2011/02/18 10:23:01.7   0.4                          T                9.6  .34 Ml 2.7         4651341
LFF   002.42 308.2 m E Pn      2011/02/18 10:22:27.9   0.0                          T                                        4651325
LFF   002.42 308.2 m E Pg      2011/02/18 10:22:33.8  -0.1                          T                                        4651335
LFF   002.42 308.2 m E Sg      2011/02/18 10:23:04.5  -0.6                          T                5.0  .30 Ml 2.3         4651336
ETSF  002.96 260.1 m E Pn      2011/02/18 10:22:35.5   0.1                          T                                        4651332
ETSF  002.96 260.1 m E Sg      2011/02/18 10:23:22.7   0.4                          T                6.0  .59 Ml 2.4         4651333

.
EVENT     256132
    Date      Time       Latitude Longitude    Depth    Ndef Nsta Gap    Mag1  N    Mag2  N    Mag3  N   Author         ID
       rms   OT_Error      Smajor Sminor Az        Err   mdist  Mdist     Err        Err        Err      Quality

2011/02/18 11:22:29.6     43.0862    -.5567     17.3       6    3 181             Md 1.1  2              js067245    256152

      0.47   +-  0.23       7.7    2.7    7.72 +-  2.3    0.11   0.66              +-0.0                 m i ke

PYRENEES
Sta     Dist  EvAz     Phase      Date       Time     TRes  Azim  AzRes  Slow  SRes Def   SNR       Amp   Per   Mag1   Mag2       ID
ETSF  000.19 180.6 m E Pg      2011/02/18 11:22:35.1   0.6                          T                                        4651314
ETSF  000.19 180.6 m E Sg      2011/02/18 11:22:37.1  -0.7                          T               26.9  .18        Md 1.1  4651315
SJPF  000.49 273.4 m E Pg      2011/02/18 11:22:39.5   0.0                          T                                        4651348
SJPF  000.49 273.4 m E Sg      2011/02/18 11:22:46.4   0.2                          T               10.8  .20        Md 1.1  4651349
EPF   000.66 094.6 m E Pg      2011/02/18 11:22:42.5   0.0                          T                                        4653865
EPF   000.66 094.6 m E Sn      2011/02/18 11:22:51.9  -0.1                          T                7.2  .22                4651347

.
EVENT     256374
    Date      Time       Latitude Longitude    Depth    Ndef Nsta Gap    Mag1  N    Mag2  N    Mag3  N   Author         ID
       rms   OT_Error      Smajor Sminor Az        Err   mdist  Mdist     Err        Err        Err      Quality

2011/02/18 11:26:33.8     48.9298    6.0337       .0 f     8    4 273  Ml 2.2  3  Md 2.2  1              js067245    256394

      0.31   +-  0.25       4.4    2.5  178.44 +-  0.0    0.43   1.24   +-0.1      +-                    m i km

FRANCE
Sta     Dist  EvAz     Phase      Date       Time     TRes  Azim  AzRes  Slow  SRes Def   SNR       Amp   Per   Mag1   Mag2       ID
PAGF  000.43 208.7 m E Pg      2011/02/18 11:26:42.0  -0.2  27.7  -0.8              T                                        4653867
PAGF  000.43 208.7 m E Sg      2011/02/18 11:26:48.6   0.5  30.2  1.8               T               53.2  .90        Md 2.2  4653868
HAU   000.95 167.1 m E Pg      2011/02/18 11:26:52.2   0.3                          T                                        4653871
HAU   000.95 167.1 m E Sg      2011/02/18 11:27:04.1  -0.3                          T               17.9  .46 Ml 2.2         4653872
CDF   000.97 121.7 m E Pg      2011/02/18 11:26:52.4   0.0                          T                                        4653869
CDF   000.97 121.7 m E Sn      2011/02/18 11:27:07.1  -0.1                          T                6.3  .39 Ml 2.1         4653870
HINF  001.24 153.6 m E Pg      2011/02/18 11:26:57.3   0.0                          T                                        4653866
HINF  001.24 153.6 m E Sg      2011/02/18 11:27:13.2  -0.3                          T                7.8  .28 Ml 2.4         4653873

.
