EVENT     280514
    Date      Time       Latitude Longitude    Depth    Ndef Nsta Gap    Mag1  N    Mag2  N    Mag3  N   Author         ID
       rms   OT_Error      Smajor Sminor Az        Err   mdist  Mdist     Err        Err        Err      Quality

2012/08/04 21:01:08.6     43.0537    -.0007      2.0      19    4 160  Ml 1.5  2  Md 1.7  2              bulletin    280614
                                                                                                         _ldg
      0.51   +-  0.15       3.7    1.5   14.74 +-  0.0    0.25   2.22   +-0.1      +-0.1                 m i ke

PYRENEES
Sta     Dist  EvAz     Phase      Date       Time     TRes  Azim  AzRes  Slow  SRes Def   SNR       Amp   Per   Mag1   Mag2       ID
EPF   000.25 095.2 m E Pg      2012/08/04 21:01:13.5  -0.1                          T                                        5039089
EPF   000.25 095.2 m E Sg      2012/08/04 21:01:17.6   0.6                          T                5.2  .18        Md 1.6  5039088
ETSF  000.44 249.5 m E Pg      2012/08/04 21:01:16.3  -0.8                          T                                        5039090
ETSF  000.44 249.5 m E Sg      2012/08/04 21:01:22.3  -0.6                          T               11.2  .22        Md 1.7  5039087
SJPF  000.90 274.2 m E Pg      2012/08/04 21:01:25.6   0.1                          T                                        5039091
SJPF  000.90 274.2 m E Sg      2012/08/04 21:01:36.7  -0.5                          T                 .9  .22 Ml 1.4         5039092
MTLF  001.65 079.2 m E Sg      2012/08/04 21:02:01.0   0.5                          T                 .7  .22 Ml 1.6         5046335

.
EVENT     280515
    Date      Time       Latitude Longitude    Depth    Ndef Nsta Gap    Mag1  N    Mag2  N    Mag3  N   Author         ID
       rms   OT_Error      Smajor Sminor Az        Err   mdist  Mdist     Err        Err        Err      Quality

2012/08/04 22:57:45.0     44.4994    6.6959      2.0      36    9 052  Ml 2.2  6  Md 2.1  1              bulletin    280615
                                                                                                         _ldg
      0.33   +-  0.05       1.2     .8   58.56 +-  0.0    0.09   1.49   +-0.3      +-                    m i ke

FRANCE
Sta     Dist  EvAz     Phase      Date       Time     TRes  Azim  AzRes  Slow  SRes Def   SNR       Amp   Per   Mag1   Mag2       ID
MBDF  000.23 013.3 m E Pg      2012/08/04 22:57:49.9   0.1                          T                                        5039112
MBDF  000.23 013.3 m E Sg      2012/08/04 22:57:52.8  -0.2                          T               20.3  .30        Md 2.1  5039107
ORIF  000.72 306.0 m E Pg      2012/08/04 22:57:58.2  -0.4                          T                                        5039111
ORIF  000.72 306.0 m E Sg      2012/08/04 22:58:07.6  -0.4                          T                4.9  .20                5039106
SBF   000.83 139.8 m E Pg      2012/08/04 22:58:00.4  -0.2                          T                                        5039100
SBF   000.83 139.8 m E Sg      2012/08/04 22:58:11.6   0.1                          T               13.5  .36                5039097
FRF   000.94 182.2 m E Pg      2012/08/04 22:58:02.5  -0.1                          T                                        5039102
FRF   000.94 182.2 m E Sg      2012/08/04 22:58:15.5   0.7                          T               12.6  .22 Ml 2.6         5039099
SMRF  000.96 237.4 m E Pg      2012/08/04 22:58:03.9   0.8                          T                                        5039109
SMRF  000.96 237.4 m E Sg      2012/08/04 22:58:15.7   0.1                          T                7.3  .34 Ml 2.1         5039103
LPG   001.00 002.2 m E Pg      2012/08/04 22:58:03.9  -0.2                          T                                        5039095
LPG   001.00 002.2 m E Sg      2012/08/04 22:58:16.3  -0.8                          T                4.6  .28 Ml 2.0         5039104
LPL   001.02 001.4 m E Pg      2012/08/04 22:58:04.5   0.2                          T                                        5039110
LPL   001.02 001.4 m E Sg      2012/08/04 22:58:16.6  -1.0                          T                3.0  .28 Ml 1.9         5039105
LMR   001.17 186.7 m E Pn      2012/08/04 22:58:07.2   0.4                          T                                        5039101
LMR   001.17 186.7 m E Sn      2012/08/04 22:58:22.6   0.3                          T                5.6  .18 Ml 2.4         5039098
VIVF  001.49 284.6 m E Pn      2012/08/04 22:58:11.5   0.4                          T                                        5039108
VIVF  001.49 284.6 m E Sn      2012/08/04 22:58:29.8  -0.1                          T                2.8  .34 Ml 1.9         5039096

.
EVENT     280516
    Date      Time       Latitude Longitude    Depth    Ndef Nsta Gap    Mag1  N    Mag2  N    Mag3  N   Author         ID
       rms   OT_Error      Smajor Sminor Az        Err   mdist  Mdist     Err        Err        Err      Quality

2012/08/05 01:52:12.4     42.9608     .1714      3.0 f    23    4 109  Ml 1.4  1  Md 1.5  2              bulletin    280616
                                                                                                         _ldg
      0.35   +-  0.06       1.5    1.0   14.84 +-  0.0    0.14   5.09   +-         +-0.1                 m i ke

PYRENEES
Sta     Dist  EvAz     Phase      Date       Time     TRes  Azim  AzRes  Slow  SRes Def   SNR       Amp   Per   Mag1   Mag2       ID
EPF   000.14 060.6 m E Pg      2012/08/05 01:52:15.6   0.1                          T                                        5039139
EPF   000.14 060.6 m E Sg      2012/08/05 01:52:17.4  -0.1                          T               20.0  .22        Md 1.6  5039137
ETSF  000.54 263.6 m E Pg      2012/08/05 01:52:22.5  -0.3                          T                                        5039138
ETSF  000.54 263.6 m E Sg      2012/08/05 01:52:29.7  -0.2                          T                6.8  .38        Md 1.5  5039136
MTLF  001.54 075.1 m E Pg      2012/08/05 01:52:41.1  -0.1                          T                                        5039134
MTLF  001.54 075.1 m E Sg      2012/08/05 01:53:00.9  -0.2                          T                 .5  .23 Ml 1.4         5039133
MBDF  005.09 067.5 m E Pn      2012/08/05 01:53:27.6   0.1                          T                                        5039135

.
EVENT     280599
    Date      Time       Latitude Longitude    Depth    Ndef Nsta Gap    Mag1  N    Mag2  N    Mag3  N   Author         ID
       rms   OT_Error      Smajor Sminor Az        Err   mdist  Mdist     Err        Err        Err      Quality

2012/08/05 04:39:28.1     43.0263    -.5541      2.0       6    3 169             Md 1.0  3              bulletin    280699
                                                                                                         _ldg
      0.37   +-  0.21       6.0    3.8    6.64 +-  0.0    0.13   0.66              +-0.1                 m i ke

PYRENEES
Sta     Dist  EvAz     Phase      Date       Time     TRes  Azim  AzRes  Slow  SRes Def   SNR       Amp   Per   Mag1   Mag2       ID
ETSF  000.13 181.7 m E Pg      2012/08/05 04:39:30.8  -0.2                          T                                        5040021
ETSF  000.13 181.7 m E Sg      2012/08/05 04:39:33.2   0.4                          T                1.8  .21        Md 1.2  5040020
SJPF  000.50 280.3 m E Pg      2012/08/05 04:39:37.5  -0.2                          T                                        5040017
SJPF  000.50 280.3 m E Sg      2012/08/05 04:39:44.8   0.5                          T                 .4  .26        Md  .9  5040016
EPF   000.66 089.3 m E Pg      2012/08/05 04:39:40.9   0.3                          T                                        5040019
EPF   000.66 089.3 m E Sg      2012/08/05 04:39:48.5  -0.7                          T                 .8  .32        Md 1.0  5040018

.
EVENT     280519
    Date      Time       Latitude Longitude    Depth    Ndef Nsta Gap    Mag1  N    Mag2  N    Mag3  N   Author         ID
       rms   OT_Error      Smajor Sminor Az        Err   mdist  Mdist     Err        Err        Err      Quality

2012/08/05 13:53:10.4     42.5152    2.4628      2.0     121   19 037  Ml 2.8 20  Md 2.8  3              bulletin    280619
                                                                                                         _ldg
      0.62   +-  0.06       1.2    1.0  136.21 +-  0.0    0.06   5.94   +-0.3      +-0.1                 m i ke

PYRENEES
Sta     Dist  EvAz     Phase      Date       Time     TRes  Azim  AzRes  Slow  SRes Def   SNR       Amp   Per   Mag1   Mag2       ID
MTLF  000.84 347.8 m E Pg      2012/08/05 13:53:25.8  -0.5                          T   001.0                                5039248
MTLF  000.84 347.8 m E Sg      2012/08/05 13:53:37.5   0.2                          T   001.0       17.7  .20        Md 2.7  5039249
EPF   001.65 288.9 m E Pn      2012/08/05 13:53:39.1   0.4                          T                                        5039258
EPF   001.65 288.9 m E Pg      2012/08/05 13:53:41.2   0.1                          T   001.0                                5039239
EPF   001.65 288.9 m E Sn      2012/08/05 13:53:59.3   0.1                          T   001.0                                5039240
EPF   001.65 288.9 m E Sg      2012/08/05 13:54:03.1   0.7                          T               16.7  .20 Ml 3.0 Md 2.8  5039292
LASF  001.86 032.6 m E Pn      2012/08/05 13:53:41.7   0.1                          T                                        5039261
LASF  001.86 032.6 m E Pg      2012/08/05 13:53:45.4   0.3                          T   001.0                                5039241
LASF  001.86 032.6 m E Sg      2012/08/05 13:54:08.7  -0.4                          T   001.0        7.8  .18 Ml 2.8 Md 2.8  5039242
ETSF  002.26 280.8 m E Pg      2012/08/05 13:53:52.8   0.3                          T   001.0                                5039232
ETSF  002.26 280.8 m E Sn      2012/08/05 13:54:14.5   0.6                          T   001.0       37.4  .32 Ml 3.3         5039245
ETSF  002.26 280.8 m E Sg      2012/08/05 13:54:21.8   0.2                          T               44.7  .38 Ml 3.3         5039291
SMRF  002.70 056.2 m E Pn      2012/08/05 13:53:53.5   0.4                          T                                        5039270
SMRF  002.70 056.2 m E Pg      2012/08/05 13:54:01.5   0.9                          T   001.0                                5039254
SMRF  002.70 056.2 m E Sn      2012/08/05 13:54:24.4  -0.1                          T                                        5039269
SMRF  002.70 056.2 m E Sg      2012/08/05 13:54:34.0  -0.4                          T                7.6  .56 Ml 2.5         5039268
LFF   002.73 333.3 m E Pn      2012/08/05 13:53:53.9   0.6                          T   001.0                                5039243
LFF   002.73 333.3 m E Pg      2012/08/05 13:54:01.0   0.1                          T   001.0                                5039244
LFF   002.73 333.3 m E Sn      2012/08/05 13:54:25.3   0.4                          T   001.0                                5039247
LFF   002.73 333.3 m E Sg      2012/08/05 13:54:36.4   0.4                          T   001.0       20.9  .38 Ml 2.9         5039250
SJPF  002.78 283.7 m E Pn      2012/08/05 13:53:54.8   0.7                          T   001.0                                5039251
SJPF  002.78 283.7 m E Pg      2012/08/05 13:54:02.5   0.5                          T                                        5039290
SJPF  002.78 283.7 m E Sg      2012/08/05 13:54:37.8   0.1                          T   001.0        5.7  .24 Ml 2.8         5039252
VIVF  002.84 033.7 m E Pn      2012/08/05 13:53:55.1   0.2                          T                                        5039262
VIVF  002.84 033.7 m E Pg      2012/08/05 13:54:03.1   0.1                          T                                        5039294
VIVF  002.84 033.7 m E Sn      2012/08/05 13:54:27.4  -0.3                          T                                        5039293
VIVF  002.84 033.7 m E Sg      2012/08/05 13:54:39.1  -0.4                          T   001.0        3.8  .22 Ml 2.6         5039253
CAF   002.43 353.3 m E Pg      2012/08/05 13:53:55.2  -0.3                          T   001.0                                5039237
CAF   002.43 353.3 m E Sn      2012/08/05 13:54:18.1   0.3                          T   001.0       19.8  .44 Ml 3.0         5039238
CAF   002.43 353.3 m E Sg      2012/08/05 13:54:26.3  -0.5                          T                5.8  .16 Ml 2.9         5039289
RJF   002.87 346.5 m E Pn      2012/08/05 13:53:55.8   0.5                          T                                        5039287
RJF   002.87 346.5 m E Pg      2012/08/05 13:54:04.1   0.4                          T                                        5039288
RJF   002.87 346.5 m E Sn      2012/08/05 13:54:28.2  -0.3                          T   001.0                                5039233
RJF   002.87 346.5 m E Sg      2012/08/05 13:54:40.4  -0.2                          T   001.0        5.9  .20 Ml 2.5         5039234
LMR   003.08 073.2 m E Pn      2012/08/05 13:53:58.9   0.7                          T   001.0                                5039255
LMR   003.08 073.2 m E Sn      2012/08/05 13:54:33.4   0.0                          T               37.0 1.06 Ml 3.0         5039263
FRF   003.24 069.8 m E Pn      2012/08/05 13:54:00.6   0.2                          T                                        5039267
FRF   003.24 069.8 m E Pg      2012/08/05 13:54:10.5   0.0                          T                                        5039266
FRF   003.24 069.8 m E Sn      2012/08/05 13:54:37.1  -0.2                          T                                        5039265
FRF   003.24 069.8 m E Sg      2012/08/05 13:54:51.7  -0.3                          T                2.3  .32 Ml 2.4         5039264
TCF   003.78 357.3 m E Pn      2012/08/05 13:54:07.8   0.1                          T                                        5039276
TCF   003.78 357.3 m E Pg      2012/08/05 13:54:19.6  -0.8                          T                                        5039277
TCF   003.78 357.3 m E Sn      2012/08/05 13:54:50.0  -0.1                          T                                        5039278
TCF   003.78 357.3 m E Sg      2012/08/05 13:55:08.5  -0.3                          T   001.0        4.8  .26 Ml 2.9         5039231
BGF   004.05 003.7 m E Pn      2012/08/05 13:54:11.8   0.4                          T                                        5039286
BGF   004.05 003.7 m E Pg      2012/08/05 13:54:25.3  -0.1                          T                                        5039285
BGF   004.05 003.7 m E Sn      2012/08/05 13:54:56.8   0.2                          T                                        5039284
BGF   004.05 003.7 m E Sg      2012/08/05 13:55:17.2  -0.2                          T   001.0       13.5  .42 Ml 3.2         5039236
SMF   004.25 012.9 m E Pn      2012/08/05 13:54:14.0  -0.1                          T                                        5039281
SMF   004.25 012.9 m E Pg      2012/08/05 13:54:29.1   0.1                          T                                        5039282
SMF   004.25 012.9 m E Sn      2012/08/05 13:55:01.4   0.1                          T                                        5039283
SMF   004.25 012.9 m E Sg      2012/08/05 13:55:23.4   0.0                          T   001.0       17.8 1.10 Ml 2.9         5039229
AVF   004.32 008.1 m E Pn      2012/08/05 13:54:15.2   0.1                          T                                        5039279
AVF   004.32 008.1 m E Sn      2012/08/05 13:55:03.5   0.4                          T                                        5039280
AVF   004.32 008.1 m E Sg      2012/08/05 13:55:25.7  -0.1                          T   001.0        4.3  .42 Ml 2.7         5039235
MFF   004.49 336.4 m E Pn      2012/08/05 13:54:17.5   0.1                          T   001.0                                5039257
MFF   004.49 336.4 m E Pg      2012/08/05 13:54:33.7   0.2                          T                                        5039272
MFF   004.49 336.4 m E Sg      2012/08/05 13:55:31.3   0.2                          T                1.1  .21 Ml 2.7         5039271
SSF   004.61 008.9 m E Pn      2012/08/05 13:54:19.3   0.3                          T                                        5039273
SSF   004.61 008.9 m E Pg      2012/08/05 13:54:35.6   0.0                          T                                        5039274
SSF   004.61 008.9 m E Sn      2012/08/05 13:55:10.0   0.2                          T                                        5039275
SSF   004.61 008.9 m E Sg      2012/08/05 13:55:34.1  -0.6                          T   001.0        1.4  .28 Ml 2.6         5039230
LOR   004.86 011.3 m E Sg      2012/08/05 13:55:42.5   0.0                          T   001.0        1.4  .22 Ml 2.6         5039256

.
