EVENT     280294
    Date      Time       Latitude Longitude    Depth    Ndef Nsta Gap    Mag1  N    Mag2  N    Mag3  N   Author         ID
       rms   OT_Error      Smajor Sminor Az        Err   mdist  Mdist     Err        Err        Err      Quality

2012/07/27 08:17:41.3     47.7027    4.6843       .0 f    13    8 152  Ml 2.3  6  Md 2.2  2              bulletin    280394
                                                                                                         _ldg
      2.60   +-  0.28       9.2    3.7  145.56 +-  0.0    0.56   1.88   +-0.1      +-0.2                 m i km

FRANCE
Sta     Dist  EvAz     Phase      Date       Time     TRes  Azim  AzRes  Slow  SRes Def   SNR       Amp   Per   Mag1   Mag2       ID
SFTF  000.56 025.2 m E Pg      2012/07/27 08:17:52.8   0.7 205.4  0.0               T                                        5041408
SFTF  000.56 025.2 m E Sg      2012/07/27 08:18:01.5   1.9 217.8  12.4              T               55.6  .49        Md 2.4  5041409
LOR   000.71 232.5 m E Pg      2012/07/27 08:17:55.1   0.2  53.7  1.9               T                                        5041414
LOR   000.71 232.5 m E Sg      2012/07/27 08:18:05.0   0.6  31.9  -20.0             T                                        5041415
LOR   000.71 232.5 m E Sn      2012/07/27 08:18:07.9  -0.4  31.8  -20.1             T               12.2  .32        Md 2.1  5041416
SSF   001.03 231.7 m E Pg      2012/07/27 08:18:00.0  -0.8                          T                                        5041412
SSF   001.03 231.7 m E Sg      2012/07/27 08:18:15.5   1.2                          T                5.8  .22 Ml 2.3         5041413
HAU   001.16 074.2 m E Pg      2012/07/27 08:18:02.9  -0.4                          T                                        5041405
HAU   001.16 074.2 m E Sg      2012/07/27 08:18:19.2   0.7                          T               13.3  .44 Ml 2.1         5041406
THEF  001.03 058.7 m E Sg      2012/07/27 08:18:13.3  -0.9                          T               12.3  .39 Ml 2.3         5041407
PAGF  001.10 038.9 m E Sg      2012/07/27 08:18:15.2  -1.5 212.4  -7.2              T               13.0  .43 Ml 2.3         5041410
HINF  001.47 084.7 m E Sg      2012/07/27 08:18:29.8   1.7                          T                6.5  .32 Ml 2.3         5041404
CDF   001.88 066.8 m E Sg      2012/07/27 08:18:38.9  -2.1                          T                5.5  .42 Ml 2.4         5041411

.
EVENT     280188
    Date      Time       Latitude Longitude    Depth    Ndef Nsta Gap    Mag1  N    Mag2  N    Mag3  N   Author         ID
       rms   OT_Error      Smajor Sminor Az        Err   mdist  Mdist     Err        Err        Err      Quality

2012/07/27 08:59:41.1     44.7571    7.2460     10.0 f    52   13 093  Ml 2.6 10  Md 2.3  4              bulletin    280288
                                                                                                         _ldg
      0.47   +-  0.06       1.6     .9   59.66 +-  0.0    0.08   3.57   +-0.4      +-0.3                 m i ke

NORTHERN ITALY
Sta     Dist  EvAz     Phase      Date       Time     TRes  Azim  AzRes  Slow  SRes Def   SNR       Amp   Per   Mag1   Mag2       ID
MBDF  000.34 265.1 m E Pg      2012/07/27 08:59:48.4   0.3                          T                                        5033620
MBDF  000.34 265.1 m E Sg      2012/07/27 08:59:52.3  -0.4                          T              244.5  .24        Md 2.6  5033603
LPG   000.82 334.9 m E Pg      2012/07/27 08:59:56.7  -0.2                          T                                        5033617
LPG   000.82 334.9 m E Sg      2012/07/27 09:00:07.1  -0.5                          T               47.3  .44        Md 2.0  5033609
LPL   000.84 334.6 m E Pg      2012/07/27 08:59:57.1  -0.1                          T                                        5033618
LPL   000.84 334.6 m E Sg      2012/07/27 09:00:07.7  -0.5                          T               36.0  .26        Md 2.1  5033610
SBF   000.90 171.3 m E Pn      2012/07/27 08:59:58.1  -0.3                          T                                        5033614
SBF   000.90 171.3 m E Sg      2012/07/27 09:00:10.4   0.4                          T               36.6  .56 Ml 2.6 Md 2.7  5033604
ORIF  000.99 279.9 m E Pn      2012/07/27 09:00:00.0   0.5                          T                                        5033619
ORIF  000.99 279.9 m E Sn      2012/07/27 09:00:11.9  -0.7                          T               40.2  .24 Ml 3.0         5033612
FRF   001.27 200.0 m E Pn      2012/07/27 09:00:05.7   2.4                          T                                        5033616
FRF   001.27 200.0 m E Sn      2012/07/27 09:00:19.5   0.2                          T                                        5033608
FRF   001.27 200.0 m E Sg      2012/07/27 09:00:21.9   0.5                          T               18.9  .22 Ml 2.9         5041465
SMRF  001.43 237.5 m E Pn      2012/07/27 09:00:09.1   3.6                          T                                        5033605
SMRF  001.43 237.5 m E Sn      2012/07/27 09:00:23.1  -0.1                          T                                        5033606
SMRF  001.43 237.5 m E Sg      2012/07/27 09:00:26.9   0.6                          T                5.8  .24 Ml 2.4         5041464
LMR   001.52 200.7 m E Pn      2012/07/27 09:00:09.2   2.5                          T                                        5033615
LMR   001.52 200.7 m E Sn      2012/07/27 09:00:25.7   0.4                          T                                        5033607
LMR   001.52 200.7 m E Sg      2012/07/27 09:00:29.5   0.5                          T               20.0  .20 Ml 3.1         5041466
VIVF  001.83 274.0 m E Pn      2012/07/27 09:00:10.8  -0.2                          T                                        5033613
VIVF  001.83 274.0 m E Pg      2012/07/27 09:00:15.4   0.1                          T                                        5041467
VIVF  001.83 274.0 m E Sg      2012/07/27 09:00:39.2   0.3                          T                2.9  .23 Ml 2.3         5033611
CABF  002.02 336.8 m E Pg      2012/07/27 09:00:18.7  -0.2                          T                                        5041459
CABF  002.02 336.8 m E Sg      2012/07/27 09:00:44.4  -0.5                          T                2.8  .30 Ml 2.2         5041458
AVF   003.40 308.1 m E Pn      2012/07/27 09:00:32.3   0.0                          T                                        5041469
BGF   003.57 301.8 m E P       2012/07/27 09:00:38.3   0.4                          T                                        5041468
BGF   003.57 301.8 m E Sg      2012/07/27 09:01:32.8  -0.3                          T                3.9  .34 Ml 2.6         5041460
LASF  002.52 255.5 m E Sg      2012/07/27 09:01:00.3  -0.1                          T                1.8  .36 Ml 2.0         5041463

.
EVENT     280189
    Date      Time       Latitude Longitude    Depth    Ndef Nsta Gap    Mag1  N    Mag2  N    Mag3  N   Author         ID
       rms   OT_Error      Smajor Sminor Az        Err   mdist  Mdist     Err        Err        Err      Quality

2012/07/27 09:27:21.6     45.3137    3.2326       .0 f    27   13 053  Ml 2.6 14  Md 2.4  3              bulletin    280289
                                                                                                         _ldg
      0.52   +-  0.09       1.9    1.6   86.90 +-  0.0    0.87   2.38   +-0.2      +-0.0                 m i km

FRANCE
Sta     Dist  EvAz     Phase      Date       Time     TRes  Azim  AzRes  Slow  SRes Def   SNR       Amp   Per   Mag1   Mag2       ID
CAF   000.91 245.3 m E Pg      2012/07/27 09:27:38.3  -0.7                          T                                        5033636
CAF   000.91 245.3 m E Sg      2012/07/27 09:27:52.9   1.9                          T               33.7  .52 Ml 2.6 Md 2.4  5033627
VIVF  001.12 113.6 m E Pg      2012/07/27 09:27:43.0   0.2                          T                                        5033630
VIVF  001.12 113.6 m E Sg      2012/07/27 09:27:58.2   0.7                          T               15.8  .30 Ml 2.6 Md 2.3  5033629
TCF   001.21 324.1 m E Pg      2012/07/27 09:27:44.5   0.0                          T                                        5033634
TCF   001.21 324.1 m E Sg      2012/07/27 09:28:00.4   0.1                          T               32.3  .72 Ml 2.6         5033623
RJF   001.21 270.2 m E Pg      2012/07/27 09:27:44.5   0.1                          T                                        5033632
RJF   001.21 270.2 m E Sg      2012/07/27 09:28:01.0   0.7                          T               35.5  .54 Ml 2.4         5033626
LASF  001.32 160.0 m E Pg      2012/07/27 09:27:45.7  -0.7                          T                                        5033631
LASF  001.32 160.0 m E Sg      2012/07/27 09:28:05.2   1.6                          T               30.3  .42 Ml 2.8         5033628
BGF   001.27 347.9 m E Pg      2012/07/27 09:27:45.8   0.2                          T                                        5033635
BGF   001.27 347.9 m E Sg      2012/07/27 09:28:03.0   0.7                          T               77.3  .34 Ml 3.3         5033625
SMF   001.40 017.5 m E Pg      2012/07/27 09:27:47.9   0.0                          T                                        5033633
SMF   001.40 017.5 m E Sg      2012/07/27 09:28:06.4   0.2                          T               21.4  .44 Ml 2.7         5033624
AVF   001.48 003.2 m E Pg      2012/07/27 09:27:49.4   0.0                          T                                        5041485
AVF   001.48 003.2 m E Sg      2012/07/27 09:28:08.8   0.2                          T               12.9  .32 Ml 2.6         5041486
SSF   001.76 006.1 m E Pg      2012/07/27 09:27:54.5   0.0                          T                                        5033622
SSF   001.76 006.1 m E Sg      2012/07/27 09:28:16.1  -1.3                          T                 10  .36 Ml 2.7         5033621
MTLF  002.10 200.6 m E Pn      2012/07/27 09:27:56.1  -0.3                          T                                        5041480
MTLF  002.10 200.6 m E Pg      2012/07/27 09:28:01.1   0.2                          T                                        5041479
MTLF  002.10 200.6 m E Sg      2012/07/27 09:28:27.6  -0.5                          T                8.4  .49 Ml 2.5         5041481
ORIF  001.92 101.0 m E Pg      2012/07/27 09:27:57.7   0.1                          T                                        5041477
ORIF  001.92 101.0 m E Sg      2012/07/27 09:28:22.4  -0.1                          T               11.1  .46 Ml 2.6         5041478
LOR   002.00 012.3 m E Pn      2012/07/27 09:27:58.5   3.5                          T                                        5033642
LOR   002.00 012.3 m E Sg      2012/07/27 09:28:25.0  -0.1                          T                5.9  .36 Ml 2.4         5033641
CABF  002.38 055.9 m E Pg      2012/07/27 09:28:05.9  -0.1                          T                                        5041487
CABF  002.38 055.9 m E Sg      2012/07/27 09:28:36.8   0.0                          T               10.3  .56 Ml 2.6         5041488

.
EVENT     280295
    Date      Time       Latitude Longitude    Depth    Ndef Nsta Gap    Mag1  N    Mag2  N    Mag3  N   Author         ID
       rms   OT_Error      Smajor Sminor Az        Err   mdist  Mdist     Err        Err        Err      Quality

2012/07/27 09:48:57.7     44.5461    7.3889     10.0 f    28    8 150  Ml 1.5  7  Md 1.5  1              bulletin    280395
                                                                                                         _ldg
      0.42   +-  0.10       2.2    1.1   57.02 +-  0.0    0.11   1.96   +-0.2      +-                    m i ke

NORTHERN ITALY
Sta     Dist  EvAz     Phase      Date       Time     TRes  Azim  AzRes  Slow  SRes Def   SNR       Amp   Per   Mag1   Mag2       ID
MBDF  000.48 292.5 m E Pg      2012/07/27 09:49:06.9  -0.3                          T                                        5035285
MBDF  000.48 292.5 m E Sg      2012/07/27 09:49:12.8  -0.8                          T                                Md 1.5  5035284
SBF   000.68 177.2 m E Pg      2012/07/27 09:49:10.9   0.0                          T                                        5035274
SBF   000.68 177.2 m E Sg      2012/07/27 09:49:19.6  -0.3                          T                1.3  .17                5035283
LPG   001.05 334.8 m E Pg      2012/07/27 09:49:18.0   0.1                          T                                        5035280
LPG   001.05 334.8 m E Sg      2012/07/27 09:49:31.7   0.1                          T                 .9  .24 Ml 1.4         5035279
FRF   001.12 208.8 m E Pg      2012/07/27 09:49:18.7  -0.1                          T                                        5035276
FRF   001.12 208.8 m E Sg      2012/07/27 09:49:32.9  -0.4                          T                1.5  .27 Ml 1.6         5035275
ORIF  001.14 289.6 m E Pg      2012/07/27 09:49:19.1  -0.1                          T                                        5035282
ORIF  001.14 289.6 m E Sg      2012/07/27 09:49:33.6  -0.4                          T                2.2  .50 Ml 1.5         5035281
LMR   001.37 208.0 m E Pn      2012/07/27 09:49:22.2   0.9                          T                                        5035289
LMR   001.37 208.0 m E Sn      2012/07/27 09:49:39.6   1.2                          T                1.5  .23 Ml 1.8         5035288
SMRF  001.42 247.0 m E Pn      2012/07/27 09:49:22.9   0.9                          T                                        5035272
SMRF  001.42 247.0 m E Sn      2012/07/27 09:49:41.1   1.4                          T                 .4  .19 Ml 1.3         5035273
VIVF  001.96 280.0 m E Pn      2012/07/27 09:49:30.2   0.8                          T                                        5035278
VIVF  001.96 280.0 m E Sn      2012/07/27 09:49:53.7   1.1                          T                 .4  .21 Ml 1.5         5035277

.
EVENT     280298
    Date      Time       Latitude Longitude    Depth    Ndef Nsta Gap    Mag1  N    Mag2  N    Mag3  N   Author         ID
       rms   OT_Error      Smajor Sminor Az        Err   mdist  Mdist     Err        Err        Err      Quality

2012/07/27 17:49:46.3     44.5714    6.8858      2.0      16    8 156  Ml 1.5  5  Md 1.7  3              bulletin    280398
                                                                                                         _ldg
      0.26   +-  0.08       3.3    1.1   83.91 +-  0.0    0.18   1.27   +-0.1      +-0.2                 m i ke

FRANCE
Sta     Dist  EvAz     Phase      Date       Time     TRes  Azim  AzRes  Slow  SRes Def   SNR       Amp   Per   Mag1   Mag2       ID
MBDF  000.18 332.3 m E Pg      2012/07/27 17:49:50.1   0.0                          T                                        5035305
MBDF  000.18 332.3 m E Sg      2012/07/27 17:49:52.5  -0.1                          T                4.0  .19        Md 1.5  5035304
SBF   000.81 150.7 m E Pg      2012/07/27 17:50:01.8   0.2                          T                                        5035293
SBF   000.81 150.7 m E Sg      2012/07/27 17:50:12.1  -0.1                          T                1.4  .18        Md 1.6  5035292
ORIF  000.80 296.2 m E Pg      2012/07/27 17:50:02.5   1.1                          T                                        5041687
ORIF  000.80 296.2 m E Sg      2012/07/27 17:50:10.8  -1.0                          T                                        5041768
LPG   000.93 354.2 m E Pg      2012/07/27 17:50:04.0  -0.1                          T                                        5041765
LPG   000.93 354.2 m E Sg      2012/07/27 17:50:15.9  -0.4                          T                1.7  .26 Ml 1.6         5041766
LPL   000.95 353.5 m E Pg      2012/07/27 17:50:04.7   0.3                          T                                        5041767
LPL   000.95 353.5 m E Sg      2012/07/27 17:50:16.9   0.1                          T                 .8  .25 Ml 1.3         5041770
FRF   001.03 189.8 m E Pg      2012/07/27 17:50:05.3  -0.2                          T                                        5041688
FRF   001.03 189.8 m E P       2012/07/27 17:50:07.3  -0.4                          T                                        5041769
FRF   001.03 189.8 m E Sg      2012/07/27 17:50:19.2   0.4                          T                 .9  .23 Ml 1.5 Md 1.8  5035302
LMR   001.27 192.5 m E Pg      2012/07/27 17:50:10.2   0.2                          T                                        5041689
LMR   001.27 192.5 m E Sn      2012/07/27 17:50:25.4  -0.6                          T                1.4  .29 Ml 1.7         5035291
SMRF  001.11 238.2 m E Sg      2012/07/27 17:50:22.0   0.3                          T                1.2  .30 Ml 1.5         5041489

.
