EVENT     280868
    Date      Time       Latitude Longitude    Depth    Ndef Nsta Gap    Mag1  N    Mag2  N    Mag3  N   Author         ID
       rms   OT_Error      Smajor Sminor Az        Err   mdist  Mdist     Err        Err        Err      Quality

2012/08/08 13:03:38.2     44.6326    6.7812      2.0      22    6 061  Ml 2.1  4  Md 1.7  1              bulletin    280968
                                                                                                         _ldg
      0.34   +-  0.07       1.6    1.0   68.49 +-  0.0    0.09   1.31   +-0.1      +-                    m i ke

FRANCE
Sta     Dist  EvAz     Phase      Date       Time     TRes  Azim  AzRes  Slow  SRes Def   SNR       Amp   Per   Mag1   Mag2       ID
MBDF  000.09 355.8 m E Pg      2012/08/08 13:03:40.4  -0.1                          T                                        5041794
MBDF  000.09 355.8 m E Sg      2012/08/08 13:03:42.3   0.3                          T               89.8  .22        Md 1.7  5041793
ORIF  000.70 294.3 m E Pg      2012/08/08 13:03:51.2  -0.4                          T                                        5041791
ORIF  000.70 294.3 m E Sg      2012/08/08 13:04:00.1  -0.7                          T               10.1  .24                5041792
SBF   000.90 148.3 m E Pg      2012/08/08 13:03:55.7   0.5                          T                                        5041783
SBF   000.90 148.3 m E Sg      2012/08/08 13:04:07.7   0.8                          T                6.4  .20 Ml 2.3         5041784
FRF   001.08 185.2 m E Pg      2012/08/08 13:03:58.1  -0.3                          T                                        5041787
FRF   001.08 185.2 m E Sg      2012/08/08 13:04:12.8   0.5                          T                3.2  .20 Ml 2.1         5041788
SMRF  001.09 233.2 m E Pn      2012/08/08 13:03:59.0   0.2                          T                                        5041790
SMRF  001.09 233.2 m E Sn      2012/08/08 13:04:13.9   0.3                          T                6.5  .38 Ml 2.1         5041789
LMR   001.31 188.7 m E Pg      2012/08/08 13:04:02.9   0.2                          T                                        5041786
LMR   001.31 188.7 m E Sg      2012/08/08 13:04:20.5   0.8                          T                3.2  .22 Ml 2.1         5041785

.
EVENT     280939
    Date      Time       Latitude Longitude    Depth    Ndef Nsta Gap    Mag1  N    Mag2  N    Mag3  N   Author         ID
       rms   OT_Error      Smajor Sminor Az        Err   mdist  Mdist     Err        Err        Err      Quality

2012/08/08 17:15:07.5     44.1122    7.1480      2.0      28    8 061  Ml 1.5  5  Md 1.7  2              bulletin    281039
                                                                                                         _ldg
      0.18   +-  0.03        .7     .6   48.85 +-  0.0    0.10   1.43   +-0.3      +-0.0                 m i ke

NORTHERN ITALY
Sta     Dist  EvAz     Phase      Date       Time     TRes  Azim  AzRes  Slow  SRes Def   SNR       Amp   Per   Mag1   Mag2       ID
SBF   000.32 140.1 m E Pg      2012/08/08 17:15:13.9   0.0                          T                                        5042870
SBF   000.32 140.1 m E Sg      2012/08/08 17:15:18.1  -0.1                          T                2.5  .18        Md 1.8  5042841
FRF   000.66 213.5 m E Pg      2012/08/08 17:15:19.7  -0.3                          T                                        5042840
FRF   000.66 213.5 m E Sg      2012/08/08 17:15:28.5  -0.1                          T                1.2  .16                5042839
MBDF  000.67 336.4 m E Pg      2012/08/08 17:15:20.6   0.2                          T                                        5042863
MBDF  000.67 336.4 m E Sg      2012/08/08 17:15:29.1  -0.1                          T                 .9  .23        Md 1.7  5042862
LMR   000.91 211.0 m E Pg      2012/08/08 17:15:24.5   0.0                          T                                        5042836
LMR   000.91 211.0 m E Sg      2012/08/08 17:15:36.1  -0.2                          T                 .9  .13 Ml 1.6         5042835
SMRF  001.14 263.7 m E Pg      2012/08/08 17:15:29.3   0.3                          T                                        5042837
SMRF  001.14 263.7 m E Sg      2012/08/08 17:15:43.8   0.0                          T                2.6  .21 Ml 2.0         5042838
ORIF  001.21 312.1 m E Pn      2012/08/08 17:15:29.9  -0.1                          T                                        5042865
ORIF  001.21 312.1 m E Sn      2012/08/08 17:15:45.9  -0.1                          T                 .8  .27 Ml 1.4         5042864
LPG   001.41 348.6 m E Pn      2012/08/08 17:15:32.9   0.0                          T                                        5042869
LPG   001.41 348.6 m E Sn      2012/08/08 17:15:51.1   0.0                          T                 .5  .24 Ml 1.3         5042868
LPL   001.43 348.2 m E Pn      2012/08/08 17:15:33.3   0.2                          T                                        5042867
LPL   001.43 348.2 m E Sn      2012/08/08 17:15:51.5   0.0                          T                 .4  .24 Ml 1.3         5042866

.
EVENT     280940
    Date      Time       Latitude Longitude    Depth    Ndef Nsta Gap    Mag1  N    Mag2  N    Mag3  N   Author         ID
       rms   OT_Error      Smajor Sminor Az        Err   mdist  Mdist     Err        Err        Err      Quality

2012/08/08 18:16:15.7     37.7551    8.6190      2.0      12    5 317  Ml 2.8  4                         bulletin    281040
                                                                                                         _ldg
      2.61   +-  2.34      55.7   39.7  122.11 +-  0.0    4.80   7.41   +-0.4                            m i ke

WESTERN MEDITERRANEAN SEA
Sta     Dist  EvAz     Phase      Date       Time     TRes  Azim  AzRes  Slow  SRes Def   SNR       Amp   Per   Mag1   Mag2       ID
PGF   004.80 003.4 m E Pn      2012/08/08 18:17:26.6  -0.4                          T                                        5052548
PGF   004.80 003.4 m E Sn      2012/08/08 18:18:17.0  -2.8                          T                6.3  .36 Ml 3.3         5052546
LMR   005.80 344.6 m E Pn      2012/08/08 18:17:40.7   0.3                          T                                        5042873
LMR   005.80 344.6 m E P       2012/08/08 18:17:46.6   1.7                          T                                        5052551
LMR   005.80 344.6 m E Sn      2012/08/08 18:18:44.4   0.8                          T                 .8  .29 Ml 2.5         5042874
FRF   005.99 346.1 m E Pn      2012/08/08 18:17:43.4   0.3                          T                                        5042880
FRF   005.99 346.1 m E P       2012/08/08 18:17:49.1   1.5                          T                                        5052550
FRF   005.99 346.1 m E Sn      2012/08/08 18:18:50.1   1.9                          T                 .8  .32 Ml 2.5         5042872
SMRF  006.63 340.6 m E Pn      2012/08/08 18:17:52.6   0.8                          T                                        5052549
MTLF  007.41 320.9 m E Pn      2012/08/08 18:17:59.4  -3.0                          T                                        5052547

.
EVENT     281841
    Date      Time       Latitude Longitude    Depth    Ndef Nsta Gap    Mag1  N    Mag2  N    Mag3  N   Author         ID
       rms   OT_Error      Smajor Sminor Az        Err   mdist  Mdist     Err        Err        Err      Quality

2012/08/08 19:13:37.8     36.9058    9.2121     10.0 f    55   16 241  Ml 3.4 10                         bulletin    281941
                                                                                                         _ldg
      1.09   +-  0.62      13.7    6.5  130.61 +-  0.0    4.90  14.24   +-0.2                            m i ke

TUNISIA
Sta     Dist  EvAz     Phase      Date       Time     TRes  Azim  AzRes  Slow  SRes Def   SNR       Amp   Per   Mag1   Mag2       ID
PGF   005.64 358.4 m E Pn      2012/08/08 19:15:02.4   2.8                          T                                        5052641
LMR   006.75 343.0 m E Pn      2012/08/08 19:15:13.4  -1.1                          T                                        5052643
LMR   006.75 343.0 m E Sn      2012/08/08 19:16:27.0   0.1                          T                7.9  .42 Ml 3.5         5052640
FRF   006.93 344.4 m E Pn      2012/08/08 19:15:15.1  -2.0                          T                                        5052644
FRF   006.93 344.4 m E Sn      2012/08/08 19:16:31.6   0.3                          T                5.3  .47 Ml 3.3         5052639
SBF   007.08 349.5 m E Pn      2012/08/08 19:15:19.6   0.4                          T                                        5052642
SMRF  007.59 339.7 m E Pn      2012/08/08 19:15:24.9  -1.1                          T                                        5052645
SMRF  007.59 339.7 m E Sn      2012/08/08 19:16:48.2   1.2                          T                3.5  .46 Ml 3.2         5052638
MBDF  008.03 347.4 m E Pn      2012/08/08 19:15:33.2   1.0                          T                                        5052648
MBDF  008.03 347.4 m E Sn      2012/08/08 19:16:59.1   1.3                          T                3.9  .62 Ml 3.2         5052637
LASF  008.24 332.0 m E Pn      2012/08/08 19:15:33.7  -1.2                          T                                        5052650
LASF  008.24 332.0 m E Sn      2012/08/08 19:17:00.3  -2.3                          T                3.2  .41 Ml 3.3         5052636
MTLF  008.37 322.4 m E Pn      2012/08/08 19:15:34.5  -2.1                          T                                        5052651
MTLF  008.37 322.4 m E Sn      2012/08/08 19:17:05.3  -0.3                          T               12.2  .78 Ml 3.7         5052635
ORIF  008.39 343.6 m E Pn      2012/08/08 19:15:37.6   0.5                          T                                        5052627
VIVF  008.65 338.0 m E Pn      2012/08/08 19:15:40.2  -0.4                          T                                        5052649
LPL   008.80 348.5 m E Pn      2012/08/08 19:15:43.3   0.5                          T                                        5052647
LPG   008.78 348.6 m E Pn      2012/08/08 19:15:43.4   0.7                          T                                        5052646
EPF   009.15 314.7 m E Pn      2012/08/08 19:15:47.2  -0.1                          T                                        5052652
EPF   009.15 314.7 m E Sn      2012/08/08 19:17:28.7   4.2                          T                2.1  .38 Ml 3.3         5052634
ETSF  009.60 311.6 m E Pn      2012/08/08 19:15:52.7  -0.8                          T                                        5052653
ETSF  009.60 311.6 m E Sn      2012/08/08 19:17:34.7  -0.5                          T                5.4  .58 Ml 3.6         5052633
CAF   009.66 328.2 m E Pn      2012/08/08 19:15:54.0  -0.3                          T                                        5052654
CAF   009.66 328.2 m E Sn      2012/08/08 19:17:37.0   0.3                          T                1.8  .57 Ml 3.2         5052632
RJF   010.20 327.7 m E Pn      2012/08/08 19:15:59.6  -1.9                          T                                        5052631

.
EVENT     280930
    Date      Time       Latitude Longitude    Depth    Ndef Nsta Gap    Mag1  N    Mag2  N    Mag3  N   Author         ID
       rms   OT_Error      Smajor Sminor Az        Err   mdist  Mdist     Err        Err        Err      Quality

2012/08/08 20:02:46.9     43.2048    -.5400      2.0       5    3 262  Ml 0.9  1  Md 1.2  2              bulletin    281030
                                                                                                         _ldg
      0.19   +-  0.47      10.6    2.7  143.82 +-  0.0    0.31   2.02   +-         +-0.1                 m i ke

PYRENEES
Sta     Dist  EvAz     Phase      Date       Time     TRes  Azim  AzRes  Slow  SRes Def   SNR       Amp   Per   Mag1   Mag2       ID
ETSF  000.31 182.6 m E Pg      2012/08/08 20:02:53.0   0.0                          T                                        5042884
ETSF  000.31 182.6 m E Sg      2012/08/08 20:02:57.3   0.2                          T                1.5  .19        Md 1.2  5042883
EPF   000.67 104.9 m E Pg      2012/08/08 20:02:59.6  -0.1                          T                                        5042882
EPF   000.67 104.9 m E Sg      2012/08/08 20:03:08.1  -0.3                          T                 .2  .17        Md 1.1  5042881
MTLF  002.02 085.2 m E Sg      2012/08/08 20:03:50.8   0.3                          T                 .1  .19 Ml  .9         5052655

.
EVENT     280931
    Date      Time       Latitude Longitude    Depth    Ndef Nsta Gap    Mag1  N    Mag2  N    Mag3  N   Author         ID
       rms   OT_Error      Smajor Sminor Az        Err   mdist  Mdist     Err        Err        Err      Quality

2012/08/08 21:39:24.6     42.7167   -1.0167      2.0       5    3 347  Ml 1.2  2  Md 1.5  2              bulletin    281031
                                                                                                         _ldg
      0.29   +-  0.76      33.1   12.4  163.82 +-  0.0    0.38   2.45   +-0.4      +-0.1                 m i ke

PYRENEES
Sta     Dist  EvAz     Phase      Date       Time     TRes  Azim  AzRes  Slow  SRes Def   SNR       Amp   Per   Mag1   Mag2       ID
ETSF  000.38 061.5 m E Pg      2012/08/08 21:39:31.9  -0.2                          T                                        5042891
ETSF  000.38 061.5 m E Sg      2012/08/08 21:39:37.6   0.4                          T                5.8  .24        Md 1.6  5042890
EPF   001.05 072.1 m E Pg      2012/08/08 21:39:44.5   0.2                          T                                        5052656
EPF   001.05 072.1 m E Sg      2012/08/08 21:39:57.3  -0.5                          T                1.5  .34 Ml 1.5 Md 1.5  5042888
MTLF  002.45 074.2 m E Sg      2012/08/08 21:40:41.7   0.0                          T                 .1  .25 Ml 1           5052657

.
EVENT     281082
    Date      Time       Latitude Longitude    Depth    Ndef Nsta Gap    Mag1  N    Mag2  N    Mag3  N   Author         ID
       rms   OT_Error      Smajor Sminor Az        Err   mdist  Mdist     Err        Err        Err      Quality

2012/08/09 01:33:50.4     48.3500    7.7873     16.0 f    20    7 073  Ml 1.6  4  Md 1.6  3              bulletin    281182
                                                                                                         _ldg
      0.17   +-  0.03        .7     .5   15.27 +-  0.0    0.30   1.83   +-0.2      +-0.1                 m i ke

FRANCE
Sta     Dist  EvAz     Phase      Date       Time     TRes  Azim  AzRes  Slow  SRes Def   SNR       Amp   Per   Mag1   Mag2       ID
CDF   000.35 280.5 m E Pg      2012/08/09 01:33:57.5  -0.2                          T                                        5046203
CDF   000.35 280.5 m E Sg      2012/08/09 01:34:02.5  -0.2                          T                3.7  .16        Md 1.5  5046202
LANF  000.63 001.1 m E Pg      2012/08/09 01:34:02.5  -0.1                          T                                        5046201
LANF  000.63 001.1 m E Sg      2012/08/09 01:34:11.0  -0.1                          T                2.4  .22        Md 1.8  5046200
HINF  000.82 229.9 m E Pg      2012/08/09 01:34:06.0  -0.1                          T                                        5046195
HINF  000.82 229.9 m E Sg      2012/08/09 01:34:16.8  -0.2                          T                2.4  .20        Md 1.6  5046194
HAU   001.02 250.8 m E Pn      2012/08/09 01:34:08.7   0.2                          T                                        5046193
HAU   001.02 250.8 m E Sn      2012/08/09 01:34:22.0   0.3                          T                1.2  .22 Ml 1.4         5046192
THEF  001.20 264.9 m E Pn      2012/08/09 01:34:11.1   0.1                          T                                        5046191
THEF  001.20 264.9 m E Sn      2012/08/09 01:34:26.4   0.4                          T                2.1  .31 Ml 1.7         5046190
PAGF  001.39 279.3 m E Pn      2012/08/09 01:34:13.7   0.1                          T                                        5046199
PAGF  001.39 279.3 m E Sn      2012/08/09 01:34:30.7   0.3                          T                 .4  .17 Ml 1.4         5046198
MEZF  001.83 275.8 m E Pn      2012/08/09 01:34:19.4  -0.1                          T                                        5046197
MEZF  001.83 275.8 m E Sn      2012/08/09 01:34:41.0   0.1                          T                1.7  .39 Ml 1.8         5046196

.
