EVENT     254059
    Date      Time       Latitude Longitude    Depth    Ndef Nsta Gap    Mag1  N    Mag2  N    Mag3  N   Author         ID
       rms   OT_Error      Smajor Sminor Az        Err   mdist  Mdist     Err        Err        Err      Quality

2011/01/20 16:49:53.1     48.9878    8.1980     19.1      18    6 095  Ml 1.7  3  Md 1.6  1              js067245    254079

      0.35   +-  0.07       1.7    1.1   99.07 +-  0.8    0.20   1.69   +-0.1      +-                    m i ke

GERMANY
Sta     Dist  EvAz     Phase      Date       Time     TRes  Azim  AzRes  Slow  SRes Def   SNR       Amp   Per   Mag1   Mag2       ID
LANF  000.26 268.5 m E Pg      2011/01/20 16:49:59.1   0.0                          T                                        4587002
LANF  000.26 268.5 m E Sg      2011/01/20 16:50:03.4   0.1                          T                9.7  .16        Md 1.6  4587003
CDF   000.84 227.0 m E Pg      2011/01/20 16:50:09.4   0.1                          T                                        4587013
CDF   000.84 227.0 m E Sg      2011/01/20 16:50:20.7   0.3                          T                3.3  .19                4587014
RUP   001.03 314.3 m E Pg      2011/01/20 16:50:12.7   0.0                          T                                        4587011
RUP   001.03 314.3 m E Sg      2011/01/20 16:50:26.5   0.2                          T                                        4587012
HINF  001.48 217.9 m E Pg      2011/01/20 16:50:20.8   0.0                          T                                        4587006
HINF  001.48 217.9 m E Sg      2011/01/20 16:50:40.0   0.0                          T                1.5  .20 Ml 1.9         4587007
HAU   001.57 232.1 m E Pg      2011/01/20 16:50:22.5  -0.1                          T                                        4587005
HAU   001.57 232.1 m E Sg      2011/01/20 16:50:43.0   0.0                          T                1.3  .21 Ml 1.6         4587008
PAGF  001.69 256.1 m E Pg      2011/01/20 16:50:24.6  -0.1                          T                                        4587009
PAGF  001.69 256.1 m E Sn      2011/01/20 16:50:39.7   0.0                          T                1.6  .43 Ml 1.7         4587010

.
EVENT     254028
    Date      Time       Latitude Longitude    Depth    Ndef Nsta Gap    Mag1  N    Mag2  N    Mag3  N   Author         ID
       rms   OT_Error      Smajor Sminor Az        Err   mdist  Mdist     Err        Err        Err      Quality

2011/01/20 18:11:11.7     44.6159    6.5632      2.0       6    2 248             Md 1.0  2              js067245    254048

      2.82   +-  0.98      24.2    7.8  175.29 +-  0.0    0.19   0.57              +-0.1                 m i ke

FRANCE
Sta     Dist  EvAz     Phase      Date       Time     TRes  Azim  AzRes  Slow  SRes Def   SNR       Amp   Per   Mag1   Mag2       ID
MBDF  000.19 053.2 m E Pg      2011/01/20 18:11:15.7   0.0                          T                                        4584995
MBDF  000.19 053.2 m E Sg      2011/01/20 18:11:17.6  -0.7                          T               19.8  .36        Md 1.1  4584992
ORIF  000.57 302.1 m E Pg      2011/01/20 18:11:23.0   0.2                          T                                        4584994
ORIF  000.57 302.1 m E Sg      2011/01/20 18:11:29.4  -0.9                          T                2.4  .24        Md  .9  4584993

.
EVENT     254032
    Date      Time       Latitude Longitude    Depth    Ndef Nsta Gap    Mag1  N    Mag2  N    Mag3  N   Author         ID
       rms   OT_Error      Smajor Sminor Az        Err   mdist  Mdist     Err        Err        Err      Quality

2011/01/21 04:58:26.2     43.0795   -1.4341      2.0      10    3 172  Ml 0.8  1  Md 0.9  3              js067245    254052

      0.15   +-  0.06       1.5     .7   38.01 +-  0.0    0.11   1.30   +-         +-0.1                 m i ke

PYRENEES
Sta     Dist  EvAz     Phase      Date       Time     TRes  Azim  AzRes  Slow  SRes Def   SNR       Amp   Per   Mag1   Mag2       ID
SJPF  000.16 077.5 m E Pg      2011/01/21 04:58:29.5   0.0                          T                                        4585107
SJPF  000.16 077.5 m E Sg      2011/01/21 04:58:31.5  -0.2                          T                6.1  .18        Md 1.0  4585106
ETSF  000.67 105.4 m E Pg      2011/01/21 04:58:39.0   0.0                          T                                        4585102
ETSF  000.67 105.4 m E Sg      2011/01/21 04:58:47.6  -0.1                          T                2.0  .42        Md  .9  4585105
EPF   001.30 091.6 m E Pg      2011/01/21 04:58:50.5  -0.1                          T                                        4585103
EPF   001.30 091.6 m E Sg      2011/01/21 04:59:07.4   0.0                          T                 .2  .21 Ml  .8 Md  .8  4585104

.
EVENT     254055
    Date      Time       Latitude Longitude    Depth    Ndef Nsta Gap    Mag1  N    Mag2  N    Mag3  N   Author         ID
       rms   OT_Error      Smajor Sminor Az        Err   mdist  Mdist     Err        Err        Err      Quality

2011/01/21 10:45:04.7     43.2493    5.4315       .0 f    25   10 169  Ml 2.7  8  Md 2.5  3              js067245    254075

      0.46   +-  0.10       2.2    1.5    2.97 +-  0.0    0.73   2.71   +-0.4      +-0.0                 m i km

NEAR SOUTH COAST OF FRANCE
Sta     Dist  EvAz     Phase      Date       Time     TRes  Azim  AzRes  Slow  SRes Def   SNR       Amp   Per   Mag1   Mag2       ID
SMRF  000.73 008.1 m E Pg      2011/01/21 10:45:19.6   0.8                          T                                        4585115
SMRF  000.73 008.1 m E Sg      2011/01/21 10:45:28.7   0.1                          T               34.3  .26        Md 2.5  4585111
LMR   000.79 083.5 m E Pg      2011/01/21 10:45:19.8   0.0                          T                                        4585113
LMR   000.79 083.5 m E Sg      2011/01/21 10:45:30.6   0.3                          T               23.4  .22        Md 2.5  4585109
FRF   000.94 070.2 m E Pg      2011/01/21 10:45:22.4  -0.2                          T                                        4585114
FRF   000.94 070.2 m E Sg      2011/01/21 10:45:35.8   0.9                          T              101.4  .24 Ml 3.5 Md 2.5  4585110
LASF  001.41 306.4 m E Pn      2011/01/21 10:45:29.7  -0.4                          T                                        4585129
LASF  001.41 306.4 m E Sn      2011/01/21 10:45:47.7  -0.8                          T               13.0  .34 Ml 2.6         4585124
SBF   001.58 066.5 m E Pn      2011/01/21 10:45:32.7   0.2                          T                                        4585112
SBF   001.58 066.5 m E Pg      2011/01/21 10:45:34.7   0.2                          T                                        4587028
SBF   001.58 066.5 m E Sg      2011/01/21 10:45:54.6  -0.4                          T               53.9  .48 Ml 3.1         4585108
VIVF  001.70 341.5 m E Pn      2011/01/21 10:45:34.0   0.0                          T                                        4585128
VIVF  001.70 341.5 m E Sn      2011/01/21 10:45:55.2  -0.2                          T                5.4  .39 Ml 2.3         4585123
ORIF  001.70 010.8 m E Pg      2011/01/21 10:45:36.9   0.2                          T                                        4585126
ORIF  001.70 010.8 m E Sg      2011/01/21 10:45:58.4  -0.4                          T                6.6  .39 Ml 2.4         4585121
MBDF  001.77 032.8 m E Pg      2011/01/21 10:45:38.2   0.3                          T                                        4585127
MBDF  001.77 032.8 m E Sg      2011/01/21 10:46:00.8  -0.1                          T               16.3  .71 Ml 2.5         4585122
MTLF  002.35 273.3 m E Pn      2011/01/21 10:45:43.0   0.2                          T                                        4587030
MTLF  002.35 273.3 m E Pg      2011/01/21 10:45:48.9   0.3                          T                                        4587029
MTLF  002.35 273.3 m E Sn      2011/01/21 10:46:11.5   0.7                          T                                        4587031
PGF   002.71 103.7 m E Pn      2011/01/21 10:45:47.6  -0.3                          T                                        4585125
PGF   002.71 103.7 m E Sn      2011/01/21 10:46:20.1   0.4                          T                6.7  .32 Ml 2.9         4585120

.
EVENT     254054
    Date      Time       Latitude Longitude    Depth    Ndef Nsta Gap    Mag1  N    Mag2  N    Mag3  N   Author         ID
       rms   OT_Error      Smajor Sminor Az        Err   mdist  Mdist     Err        Err        Err      Quality

2011/01/21 11:31:22.2     44.9722    6.7748       .0 f    10    5 158  Ml 1.5  1  Md 1.6  3              js067245    254074

      0.09   +-  0.03       1.1     .5   82.73 +-  0.0    0.25   1.21   +-         +-0.0                 m i km

FRANCE
Sta     Dist  EvAz     Phase      Date       Time     TRes  Azim  AzRes  Slow  SRes Def   SNR       Amp   Per   Mag1   Mag2       ID
MBDF  000.25 180.6 m E Pg      2011/01/21 11:31:27.3  -0.1                          T                                        4585139
MBDF  000.25 180.6 m E Sg      2011/01/21 11:31:31.0   0.0                          T               16.7  .28        Md 1.6  4585134
LPG   000.53 358.2 m E Pg      2011/01/21 11:31:32.8   0.0                          T                                        4585137
LPG   000.53 358.2 m E Sg      2011/01/21 11:31:39.8  -0.1                          T                3.9  .21        Md 1.6  4585136
LPL   000.55 356.9 m E Pg      2011/01/21 11:31:33.1   0.0                          T                                        4585131
LPL   000.55 356.9 m E Sg      2011/01/21 11:31:40.3  -0.1                          T                2.9  .25        Md 1.6  4585130
ORIF  000.64 265.5 m E Pg      2011/01/21 11:31:34.7   0.0                          T                                        4585138
ORIF  000.64 265.5 m E Sg      2011/01/21 11:31:43.2   0.0                          T                5.3  .32                4585135
SBF   001.21 156.7 m E Pg      2011/01/21 11:31:45.2   0.1                          T                                        4585132
SBF   001.21 156.7 m E Sg      2011/01/21 11:32:00.8  -0.1                          T                1.1  .26 Ml 1.5         4585133

.
EVENT     254056
    Date      Time       Latitude Longitude    Depth    Ndef Nsta Gap    Mag1  N    Mag2  N    Mag3  N   Author         ID
       rms   OT_Error      Smajor Sminor Az        Err   mdist  Mdist     Err        Err        Err      Quality

2011/01/21 14:20:55.9     43.1805   18.7179     10.0 f    73   20 057  Ml 3.9  8                         js067245    254076

      0.81   +-  0.08       3.0    1.8   33.59 +-  0.0    0.14  12.11   +-0.2                            m i ke

NORTHWESTERN BALKAN PEN.
Sta     Dist  EvAz     Phase      Date       Time     TRes  Azim  AzRes  Slow  SRes Def   SNR       Amp   Per   Mag1   Mag2       ID
PGF   007.17 268.3 m E Pn      2011/01/21 14:22:38.6   0.1                          T                                        4585230
SBF   008.23 278.6 m E Pn      2011/01/21 14:22:53.0   0.1                          T                                        4585229
MBDF  008.76 284.3 m E Pn      2011/01/21 14:23:00.2   0.0                          T                                        4585222
MBDF  008.76 284.3 m E Sn      2011/01/21 14:24:33.8   0.6                          T               18.8  .81 Ml 3.9         4585215
FRF   008.80 276.6 m E Pn      2011/01/21 14:23:00.6   0.0                          T                                        4585227
LMR   008.91 275.2 m E Pn      2011/01/21 14:23:02.0  -0.1                          T                                        4585228
LPG   008.88 289.2 m E Pn      2011/01/21 14:23:02.1   0.0                          T                                        4585225
LPG   008.88 289.2 m E Sn      2011/01/21 14:24:37.0   0.6                          T               41.8  .90 Ml 4.2         4585212
LPL   008.90 289.3 m E Pn      2011/01/21 14:23:02.3   0.1                          T                                        4585224
LPL   008.90 289.3 m E Sn      2011/01/21 14:24:37.5   0.8                          T               40.1  .94 Ml 4.2         4585213
ORIF  009.41 285.0 m E Pn      2011/01/21 14:23:08.8  -0.2                          T                                        4585223
ORIF  009.41 285.0 m E Sn      2011/01/21 14:24:49.2   0.4                          T                5.9  .44 Ml 3.8         4585214
LANF  009.54 311.2 m E Pn      2011/01/21 14:23:10.7   0.0                          T                                        4585209
HINF  009.53 303.2 m E Pn      2011/01/21 14:23:10.8   0.2                          T                                        4585218
SMRF  009.57 279.3 m E Pn      2011/01/21 14:23:10.9  -0.3                          T                                        4585226
CDF   009.55 307.2 m E Pn      2011/01/21 14:23:11.0   0.1                          T                                        4585210
CABF  009.60 295.3 m E Pn      2011/01/21 14:23:11.7   0.2                          T                                        4585217
HAU   009.92 303.4 m E Pn      2011/01/21 14:23:15.8   0.0                          T                                        4585211
THEF  010.23 304.0 m E Pn      2011/01/21 14:23:20.0  -0.1                          T                                        4585216
VIVF  010.26 284.2 m E Pn      2011/01/21 14:23:20.4  -0.1                          T                                        4585221
LASF  010.81 279.8 m E Pn      2011/01/21 14:23:28.2   0.2                          T                                        4585220
LOR   011.25 296.4 m E Pn      2011/01/21 14:23:33.8  -0.2 116.7  10.8              T                                        4585208
LOR   011.25 296.4 m E Sn      2011/01/21 14:25:33.2   0.6                          T                8.0  .74 Ml 4.0         4585206
SSF   011.43 295.1 m E Pn      2011/01/21 14:23:36.3   0.0                          T                                        4585207
SSF   011.43 295.1 m E Sn      2011/01/21 14:25:37.5   0.7                          T                3.7  .60 Ml 3.8         4585205
CAF   012.11 284.0 m E Pn      2011/01/21 14:23:46.0   0.2                          T                                        4585219

.
EVENT     254060
    Date      Time       Latitude Longitude    Depth    Ndef Nsta Gap    Mag1  N    Mag2  N    Mag3  N   Author         ID
       rms   OT_Error      Smajor Sminor Az        Err   mdist  Mdist     Err        Err        Err      Quality

2011/01/21 15:57:04.7     42.5975     .8904      3.0 f    21    3 095  Ml 1.6  2  Md 1.4  1              js067245    254080

      0.34   +-  0.07       1.2    1.0   13.85 +-  0.0    0.27   1.48   +-0.2      +-                    m i ke

PYRENEES
Sta     Dist  EvAz     Phase      Date       Time     TRes  Azim  AzRes  Slow  SRes Def   SNR       Amp   Per   Mag1   Mag2       ID
EPF   000.59 317.1 m E Pg      2011/01/21 15:57:16.2   0.1                          T                                        4585243
EPF   000.59 317.1 m E Sg      2011/01/21 15:57:23.8  -0.1                          T                6.9  .20        Md 1.4  4585240
ETSF  001.11 286.2 m E Pg      2011/01/21 15:57:25.3  -0.3                          T                                        4585238
ETSF  001.11 286.2 m E Sg      2011/01/21 15:57:39.6  -0.3                          T                 .8  .18 Ml 1.5         4585239
MTLF  001.23 052.2 m E Pg      2011/01/21 15:57:27.8   0.2                          T                                        4585242
MTLF  001.23 052.2 m E Sg      2011/01/21 15:57:44.1   0.6                          T                  1  .14 Ml 1.8         4585241

.
