EVENT     277194
    Date      Time       Latitude Longitude    Depth    Ndef Nsta Gap    Mag1  N    Mag2  N    Mag3  N   Author         ID
       rms   OT_Error      Smajor Sminor Az        Err   mdist  Mdist     Err        Err        Err      Quality

2012/05/30 08:48:46.9     44.8479   11.4149      2.0      54   21 114  Ml 3.6 14                         bulletin    277294
                                                                                                         _ldg
      1.50   +-  0.40      10.3    6.0   64.81 +-  0.0    0.22   6.62   +-0.2                            m i ke

NORTHERN ITALY
Sta     Dist  EvAz     Phase      Date       Time     TRes  Azim  AzRes  Slow  SRes Def   SNR       Amp   Per   Mag1   Mag2       ID
PGF   002.89 218.1 m E Pn      2012/05/30 08:49:32.8   0.6                          T                                        4977261
PGF   002.89 218.1 m E Sn      2012/05/30 08:50:09.6   4.1                          T               53.9  .38 Ml 3.8         4977242
SBF   003.02 252.4 m E Pn      2012/05/30 08:49:36.5   2.6                          T                                        4977260
SBF   003.02 252.4 m E Sn      2012/05/30 08:50:10.7   2.2                          T              157.9  .44 Ml 4.0         4977241
MBDF  003.31 269.5 m E Pn      2012/05/30 08:49:38.6   0.7                          T                                        4977253
LPG   003.36 282.8 m E Pn      2012/05/30 08:49:40.6   1.7                          T                                        4977256
LPL   003.38 283.1 m E Pn      2012/05/30 08:49:41.8   2.8                          T                                        4977255
FRF   003.66 251.1 m E Pn      2012/05/30 08:49:44.9   2.3                          T                                        4977258
FRF   003.66 251.1 m E Sn      2012/05/30 08:50:22.4  -1.4                          T               25.8  .37 Ml 3.5         4977239
LMR   003.84 248.5 m E Pn      2012/05/30 08:49:46.8   1.7                          T                                        4977259
LMR   003.84 248.5 m E Sn      2012/05/30 08:50:26.7  -1.5                          T               37.6  .38 Ml 3.6         4977240
ORIF  003.93 273.0 m E Pn      2012/05/30 08:49:47.8   1.4                          T                                        4977254
ORIF  003.93 273.0 m E Sn      2012/05/30 08:50:27.9  -2.5                          T               46.9  .50 Ml 3.6         4977238
CABF  004.13 297.2 m E Pn      2012/05/30 08:49:50.2   1.2                          T                                        4977247
SMRF  004.27 260.3 m E Pn      2012/05/30 08:49:52.8   1.8                          T                                        4977257
HINF  004.34 314.8 m E Pn      2012/05/30 08:49:53.2   1.4                          T                                        4977246
CDF   004.56 322.8 m E Pn      2012/05/30 08:49:56.3   1.3                          T                                        4977244
CDF   004.56 322.8 m E Sn      2012/05/30 08:50:44.4  -1.1                          T               21.1  .50 Ml 3.5         5011767
HAU   004.72 313.8 m E Pn      2012/05/30 08:49:57.9   0.9                          T                                        4977245
HAU   004.72 313.8 m E Sn      2012/05/30 08:50:48.2  -0.8                          T               27.8  .28 Ml 3.6         4977284
VIVF  004.79 272.5 m E Pn      2012/05/30 08:49:58.0  -0.1                          T                                        4977252
VIVF  004.79 272.5 m E Sn      2012/05/30 08:50:49.9  -1.0                          T                6.3  .35 Ml 3.1         4977237
LASF  005.46 264.5 m E Pn      2012/05/30 08:50:06.6  -0.6                          T                                        4977251
LASF  005.46 264.5 m E Sn      2012/05/30 08:51:05.8  -1.1                          T               10.7  .54 Ml 3.3         4977285
SMF   005.60 291.4 m E Pn      2012/05/30 08:50:10.2   1.3                          T                                        4977250
SMF   005.60 291.4 m E Sn      2012/05/30 08:51:08.8  -1.2                          T               19.5  .56 Ml 3.5         5011766
LOR   005.79 297.4 m E Pn      2012/05/30 08:50:12.7   1.2                          T                                        4977243
LOR   005.79 297.4 m E Sn      2012/05/30 08:51:14.2  -0.4                          T               14.4  .48 Ml 3.5         5011768
SSF   005.94 294.7 m E Pn      2012/05/30 08:50:14.7   1.0                          T                                        4977264
SSF   005.94 294.7 m E Sn      2012/05/30 08:51:17.5  -0.8                          T                5.8  .38 Ml 3.4         4977263
AVF   005.96 291.9 m E Pn      2012/05/30 08:50:15.2   1.3                          T                                        4977249
TCF   006.62 285.8 m E Pn      2012/05/30 08:50:21.1  -1.8                          T                                        4977248
TCF   006.62 285.8 m E Sn      2012/05/30 08:51:32.7  -1.9                          T                8.6  .43 Ml 3.5         4977262
BGF   006.24 288.9 m E Sn      2012/05/30 08:51:26.1   0.7                          T               27.1  .44 Ml 3.9         5011765

.
EVENT     277228
    Date      Time       Latitude Longitude    Depth    Ndef Nsta Gap    Mag1  N    Mag2  N    Mag3  N   Author         ID
       rms   OT_Error      Smajor Sminor Az        Err   mdist  Mdist     Err        Err        Err      Quality

2012/05/30 10:46:56.5     44.7705   10.9859      2.0      18    7 274  Ml 2.5  7                         bulletin    277328
                                                                                                         _ldg
      0.23   +-  0.20       4.2    2.3   74.71 +-  0.0    2.65   5.56   +-0.1                            m i ke

NORTHERN ITALY
Sta     Dist  EvAz     Phase      Date       Time     TRes  Azim  AzRes  Slow  SRes Def   SNR       Amp   Per   Mag1   Mag2       ID
PGF   002.65 213.7 m E Pn      2012/05/30 10:47:38.8   0.3                          T                                        4977922
PGF   002.65 213.7 m E Sn      2012/05/30 10:48:08.6  -0.7                          T                2.8  .39 Ml 2.4         4977917
SBF   002.71 251.7 m E Pn      2012/05/30 10:47:39.2   0.0                          T                                        4977921
SBF   002.71 251.7 m E Sn      2012/05/30 10:48:11.0   0.4                          T                6.0  .31 Ml 2.6         4977916
LPG   003.08 285.1 m E Pn      2012/05/30 10:47:44.8   0.1                          T                                        4977931
LPG   003.08 285.1 m E Sn      2012/05/30 10:48:20.0   0.1                          T                2.1  .28 Ml 2.3         4977932
LPL   003.10 285.4 m E Pn      2012/05/30 10:47:45.0   0.2                          T                                        4977930
LPL   003.10 285.4 m E Sn      2012/05/30 10:48:20.4   0.1                          T                2.1  .24 Ml 2.4         4977929
FRF   003.35 250.3 m E Pn      2012/05/30 10:47:47.9   0.0                          T                                        4977919
FRF   003.35 250.3 m E Sn      2012/05/30 10:48:26.1   0.2                          T                3.5  .36 Ml 2.5         4977914
LMR   003.53 247.6 m E Pn      2012/05/30 10:47:50.2  -0.2                          T                                        4977920
LMR   003.53 247.6 m E Sn      2012/05/30 10:48:30.3   0.0                          T                1.7  .25 Ml 2.4         4977915
ORIF  003.63 274.1 m E Pn      2012/05/30 10:47:51.8  -0.1                          T                                        4977927
ORIF  003.63 274.1 m E Sn      2012/05/30 10:48:32.9   0.0                          T                2.5  .30 Ml 2.5         4977928

.
EVENT     277229
    Date      Time       Latitude Longitude    Depth    Ndef Nsta Gap    Mag1  N    Mag2  N    Mag3  N   Author         ID
       rms   OT_Error      Smajor Sminor Az        Err   mdist  Mdist     Err        Err        Err      Quality

2012/05/30 11:11:43.6     47.7025    5.6415       .0 f    22   12 082  Ml 2.2  8  Md 2.1  2              bulletin    277329
                                                                                                         _ldg
      0.66   +-  0.07       1.7    1.1  140.38 +-  0.0    0.56   1.81   +-0.2      +-0.0                 m i km

FRANCE
Sta     Dist  EvAz     Phase      Date       Time     TRes  Azim  AzRes  Slow  SRes Def   SNR       Amp   Per   Mag1   Mag2       ID
THEF  000.58 024.1 m E Pg      2012/05/30 11:11:54.4  -0.4                          T                                        5001253
THEF  000.58 024.1 m E Sg      2012/05/30 11:12:02.8   0.2                          T               48.4  .84        Md 2.2  5001254
HAU   000.56 057.2 m E Pg      2012/05/30 11:11:54.5  -0.1                          T                                        5001255
HAU   000.56 057.2 m E Sg      2012/05/30 11:12:02.1  -0.1                          T               32.1  .80        Md 2.1  5001256
SFTF  000.65 321.3 m E Pg      2012/05/30 11:11:56.3   0.2 137.0  -3.9              T                                        5001245
SFTF  000.65 321.3 m E Sg      2012/05/30 11:12:05.1   0.3 140.2  -0.7              T                7.7  .38                5001246
HINF  000.83 081.6 m E Pg      2012/05/30 11:11:59.6   0.2                          T                                        5001239
HINF  000.83 081.6 m E Sg      2012/05/30 11:12:10.3  -0.1                          T               12.1  .46                5001252
PAGF  000.86 003.7 m E Pg      2012/05/30 11:12:00.0   0.0 188.6  4.8               T                                        5001235
PAGF  000.86 003.7 m E Sg      2012/05/30 11:12:11.7   0.4                          T               19.1  .72 Ml 2.2         5001236
CABF  001.13 164.3 m E Pg      2012/05/30 11:12:05.5   0.2                          T                                        5001238
CABF  001.13 164.3 m E Sn      2012/05/30 11:12:21.1   0.2                          T               17.9  .54 Ml 2.4         5001251
LOR   001.28 250.9 m E Pn      2012/05/30 11:12:07.3   0.0  68.1  -1.5              T                                        5001248
LOR   001.28 250.9 m E Sg      2012/05/30 11:12:25.0   0.2  72.8  3.2               T                5.3  .42 Ml 2.1         5001249
SSF   001.59 246.9 m E Pg      2012/05/30 11:12:13.3  -0.1                          T                                        5001242
SSF   001.59 246.9 m E Sg      2012/05/30 11:12:34.1   0.0                          T                4.6  .44 Ml 2.2         5001247
SMF   001.62 229.9 m E Pg      2012/05/30 11:12:13.5  -0.6                          T                                        5001243
SMF   001.62 229.9 m E Sg      2012/05/30 11:12:35.8   0.6                          T                9.5  .38 Ml 2.5         5001244
MEZF  000.89 333.9 m E Sn      2012/05/30 11:12:15.4   0.5 158.6  5.1               T               11.5  .30 Ml 2.3         5001240
AVF   001.81 240.5 m E Pg      2012/05/30 11:12:17.5   0.1                          T                                        5001237
AVF   001.81 240.5 m E Sg      2012/05/30 11:12:40.9  -0.1                          T                2.0  .47 Ml 1.8         5001250
CDF   001.31 056.5 m E Sg      2012/05/30 11:12:25.5   0.0                          T                5.0  .40 Ml 2.2         5001241

.
EVENT     277224
    Date      Time       Latitude Longitude    Depth    Ndef Nsta Gap    Mag1  N    Mag2  N    Mag3  N   Author         ID
       rms   OT_Error      Smajor Sminor Az        Err   mdist  Mdist     Err        Err        Err      Quality

2012/05/30 12:01:45.6     44.8900   11.0732      2.0      67    7 066  Ml 3.2  6                         bulletin    277324
                                                                                                         _ldg
      1.07   +-  0.14       4.2    3.5   50.23 +-  0.0    0.14   5.36   +-0.1                            m i ke

NORTHERN ITALY
Sta     Dist  EvAz     Phase      Date       Time     TRes  Azim  AzRes  Slow  SRes Def   SNR       Amp   Per   Mag1   Mag2       ID
PGF   002.78 213.4 m E Pn      2012/05/30 12:02:29.3  -0.1                          T                                        4977729
PGF   002.78 213.4 m E Sn      2012/05/30 12:03:01.4  -0.2                          T               20.2  .36 Ml 3.4         4977939
SBF   002.80 249.8 m E Pn      2012/05/30 12:02:29.8   0.2                          T                                        4977944
SBF   002.80 249.8 m E Sn      2012/05/30 12:03:02.2   0.2                          T               42.0  .49 Ml 3.3         4977938
MBDF  003.07 268.5 m E Pn      2012/05/30 12:02:33.5   0.2                          T                                        4977941
FRF   003.45 248.9 m E Pn      2012/05/30 12:02:38.5   0.2                          T                                        4977942
FRF   003.45 248.9 m E Sn      2012/05/30 12:03:17.4   0.0                          T               12.6  .28 Ml 3.2         4977936
LMR   003.64 246.3 m E Pn      2012/05/30 12:02:41.0   0.2                          T                                        4977943
LMR   003.64 246.3 m E Sn      2012/05/30 12:03:21.9   0.1                          T               13.3  .32 Ml 3.2         4977937
ORIF  003.69 272.3 m E Pn      2012/05/30 12:02:41.8   0.1                          T                                        4977940
ORIF  003.69 272.3 m E Sn      2012/05/30 12:03:23.3   0.1                          T               17.8  .58 Ml 3.1         4977935
SMF   005.36 291.7 m E Pn      2012/05/30 12:03:04.7   0.4                          T                                        4977934
SMF   005.36 291.7 m E Sn      2012/05/30 12:04:03.0   0.1                          T                8.5  .48 Ml 3.2         4977933

.
EVENT     277225
    Date      Time       Latitude Longitude    Depth    Ndef Nsta Gap    Mag1  N    Mag2  N    Mag3  N   Author         ID
       rms   OT_Error      Smajor Sminor Az        Err   mdist  Mdist     Err        Err        Err      Quality

2012/05/30 13:05:05.1     44.9370   11.0336      2.0      94   17 075  Ml 3.2 14                         bulletin    277325
                                                                                                         _ldg
      1.03   +-  0.12       3.8    2.6   59.71 +-  0.0    0.14   5.95   +-0.2                            m i ke

NORTHERN ITALY
Sta     Dist  EvAz     Phase      Date       Time     TRes  Azim  AzRes  Slow  SRes Def   SNR       Amp   Per   Mag1   Mag2       ID
PGF   002.81 212.4 m E Pn      2012/05/30 13:05:50.1   0.8                          T                                        4977859
PGF   002.81 212.4 m E Sn      2012/05/30 13:06:21.4  -0.3                          T               22.6  .54 Ml 3.2         4977828
SBF   002.79 248.7 m E Pn      2012/05/30 13:05:50.9   1.9                          T                                        4977858
SBF   002.79 248.7 m E Sn      2012/05/30 13:06:21.2  -0.1                          T               60.8  .51 Ml 3.5         4977829
MBDF  003.04 267.5 m E Pn      2012/05/30 13:05:52.1  -0.4                          T                                        4977852
LPL   003.09 282.3 m E Pn      2012/05/30 13:05:55.4   2.0                          T                                        4977854
LPL   003.09 282.3 m E Sn      2012/05/30 13:06:28.4  -0.3                          T               18.6  .48 Ml 3.0         4977833
LPG   003.08 282.0 m E Pn      2012/05/30 13:05:56.8   3.6                          T                                        4977855
LPG   003.08 282.0 m E Sn      2012/05/30 13:06:28.1  -0.3                          T               22.6  .46 Ml 3.1         4977832
FRF   003.44 248.0 m E Pn      2012/05/30 13:05:59.5   1.7                          T                                        4977856
FRF   003.44 248.0 m E Sn      2012/05/30 13:06:36.4  -0.3                          T               16.3  .30 Ml 3.3         4977831
LMR   003.63 245.4 m E Pn      2012/05/30 13:06:01.1   0.7                          T                                        4977857
LMR   003.63 245.4 m E Sn      2012/05/30 13:06:41.0  -0.3                          T               16.4  .34 Ml 3.3         4977830
ORIF  003.66 271.5 m E Pn      2012/05/30 13:06:01.5   0.6                          T                                        4977853
ORIF  003.66 271.5 m E Sn      2012/05/30 13:06:41.8  -0.3                          T               20.1  .62 Ml 3.1         4977834
CABF  003.84 297.6 m E Pn      2012/05/30 13:06:04.4   0.9                          T                                        4977848
CABF  003.84 297.6 m E Sn      2012/05/30 13:06:46.3  -0.1                          T               10.8  .48 Ml 3.0         4977839
HINF  004.08 316.4 m E Pn      2012/05/30 13:06:06.5  -0.1                          T                                        4977840
HINF  004.08 316.4 m E Sn      2012/05/30 13:06:51.7  -0.5                          T                                        4977841
CDF   004.33 324.7 m E Pn      2012/05/30 13:06:10.0   0.0                          T                                        4977846
CDF   004.33 324.7 m E Sn      2012/05/30 13:06:58.1   0.0                          T                2.5  .20 Ml 2.9         4977843
HAU   004.46 315.1 m E Pn      2012/05/30 13:06:10.7  -1.0                          T                                        4977847
HAU   004.46 315.1 m E Sn      2012/05/30 13:07:01.1  -0.1                          T               21.1  .48 Ml 3.2         4977842
VIVF  004.52 271.2 m E Pn      2012/05/30 13:06:12.8   0.2                          T                                        4977851
VIVF  004.52 271.2 m E Sn      2012/05/30 13:07:02.2  -0.3                          T                2.8  .26 Ml 2.8         4977835
SMF   005.31 291.3 m E Pn      2012/05/30 13:06:23.3   0.0                          T                                        4977850
SMF   005.31 291.3 m E Sn      2012/05/30 13:07:21.4  -0.1                          T               12.4  .56 Ml 3.3         4977838
LOR   005.51 297.6 m E Pn      2012/05/30 13:06:26.1   0.1 118.4  6.0               T                                        4977845
LOR   005.51 297.6 m E Sn      2012/05/30 13:07:25.9  -0.2                          T                8.1  .32 Ml 3.4         4977844
AVF   005.68 291.8 m E Pn      2012/05/30 13:06:28.3   0.1                          T                                        4977849
BGF   005.95 288.7 m E Pn      2012/05/30 13:06:32.0   0.0                          T                                        4977837
BGF   005.95 288.7 m E Sn      2012/05/30 13:07:36.6  -0.2                          T               19.1  .52 Ml 3.6         4977836

.
