EVENT     282395
    Date      Time       Latitude Longitude    Depth    Ndef Nsta Gap    Mag1  N    Mag2  N    Mag3  N   Author         ID
       rms   OT_Error      Smajor Sminor Az        Err   mdist  Mdist     Err        Err        Err      Quality

2012/09/02 20:04:13.6     44.3777    7.3144     13.0 f    53   11 042  Ml 2.4  9  Md 2.4  3              bulletin    282495
                                                                                                         _ldg
      0.44   +-  0.04       1.0     .7   55.09 +-  0.0    0.13   3.83   +-0.5      +-0.1                 m i ke

NORTHERN ITALY
Sta     Dist  EvAz     Phase      Date       Time     TRes  Azim  AzRes  Slow  SRes Def   SNR       Amp   Per   Mag1   Mag2       ID
SBF   000.52 170.4 m E Pg      2012/09/02 20:04:24.0   0.1                          T                                        5059537
SBF   000.52 170.4 m E Sg      2012/09/02 20:04:31.0   0.1                          T               48.8  .20        Md 2.4  5059536
MBDF  000.52 312.2 m E Pg      2012/09/02 20:04:24.0   0.0                          T                                        5059544
MBDF  000.52 312.2 m E Sg      2012/09/02 20:04:31.2   0.2                          T               19.3  .16        Md 2.3  5059525
FRF   000.95 210.8 m E Pg      2012/09/02 20:04:31.3  -0.2                          T                                        5059539
FRF   000.95 210.8 m E Sg      2012/09/02 20:04:43.3  -0.6                          T               39.0  .18 Ml 3.2 Md 2.5  5059534
LPG   001.19 340.5 m E Pn      2012/09/02 20:04:35.1   0.3                          T                                        5059541
LPG   001.19 340.5 m E Pg      2012/09/02 20:04:36.7   0.4                          T                                        5063387
LPG   001.19 340.5 m E Sn      2012/09/02 20:04:50.2   0.4                          T                6.5  .34 Ml 2.2         5059532
LPL   001.21 340.3 m E Pn      2012/09/02 20:04:35.2   0.2                          T                                        5059542
LPL   001.21 340.3 m E Sg      2012/09/02 20:04:52.7   0.3                          T                5.4  .32 Ml 2.1         5059528
LMR   001.20 209.4 m E Pg      2012/09/02 20:04:35.5  -0.5                          T                                        5059538
LMR   001.20 209.4 m E Sg      2012/09/02 20:04:51.6   0.0                          T               46.8  .20 Ml 3.3         5059535
ORIF  001.16 298.3 m E Pg      2012/09/02 20:04:35.6   0.1                          T                                        5063389
ORIF  001.16 298.3 m E Sg      2012/09/02 20:04:50.8   0.2                          T                6.3  .26 Ml 2.3         5059531
SMRF  001.31 252.8 m E Pg      2012/09/02 20:04:38.5   0.2                          T                                        5063388
SMRF  001.31 252.8 m E Sg      2012/09/02 20:04:55.6   0.3                          T               16.8  .24 Ml 2.8         5059533
VIVF  001.95 285.1 m E Pn      2012/09/02 20:04:44.9   0.2                          T                                        5059530
VIVF  001.95 285.1 m E P       2012/09/02 20:04:47.2   0.2                          T                                        5063386
VIVF  001.95 285.1 m E Sn      2012/09/02 20:05:08.1   0.5                          T                  1  .14 Ml 2.0         5059529
LASF  002.50 264.3 m E P       2012/09/02 20:04:54.4  -0.5                          T                                        5059527
LASF  002.50 264.3 m E Sn      2012/09/02 20:05:21.1   0.2                          T                 .9  .23 Ml 1.9         5059526
MTLF  003.83 256.1 m E P       2012/09/02 20:05:12.6  -1.2                          T                                        5063385

.
EVENT     282453
    Date      Time       Latitude Longitude    Depth    Ndef Nsta Gap    Mag1  N    Mag2  N    Mag3  N   Author         ID
       rms   OT_Error      Smajor Sminor Az        Err   mdist  Mdist     Err        Err        Err      Quality

2012/09/02 22:02:56.6     47.7746    7.7132     10.0      14    6 092  Ml 1.5  4  Md 1.6  3              bulletin    282553
                                                                                                         _ldg
      0.20   +-  0.04        .9     .7  179.23 +-  0.0    0.06   1.54   +-0.2      +-0.1                 m i ke

SWITZERLAND
Sta     Dist  EvAz     Phase      Date       Time     TRes  Azim  AzRes  Slow  SRes Def   SNR       Amp   Per   Mag1   Mag2       ID
HINF  000.58 274.5 m E Pg      2012/09/02 22:03:07.8   0.0                          T                                        5059938
HINF  000.58 274.5 m E Sg      2012/09/02 22:03:15.6   0.1                          T                 .8  .21        Md 1.8  5059937
CDF   000.70 335.5 m E Pg      2012/09/02 22:03:10.1   0.1                          T                                        5059944
CDF   000.70 335.5 m E Sg      2012/09/02 22:03:19.2  -0.1                          T                 .4  .27        Md 1.6  5059943
HAU   000.95 284.6 m E Pg      2012/09/02 22:03:14.5   0.0                          T                                        5059940
HAU   000.95 284.6 m E Sg      2012/09/02 22:03:26.7  -0.1                          T                 .9  .19 Ml 1.2 Md 1.5  5059939
LANF  001.21 002.9 m E Pn      2012/09/02 22:03:17.9   0.0                          T                                        5059942
LANF  001.21 002.9 m E Sn      2012/09/02 22:03:33.4   0.0                          T                 .6  .11 Ml 1.6         5059941
THEF  001.24 292.1 m E Pn      2012/09/02 22:03:18.4   0.0                          T                                        5059936
THEF  001.24 292.1 m E Sn      2012/09/02 22:03:34.2   0.0                          T                1.4  .22 Ml 1.7         5059935
PAGF  001.54 301.1 m E Sg      2012/09/02 22:03:45.3  -0.1                          T                 .6  .27 Ml 1.4         5063390

.
EVENT     282396
    Date      Time       Latitude Longitude    Depth    Ndef Nsta Gap    Mag1  N    Mag2  N    Mag3  N   Author         ID
       rms   OT_Error      Smajor Sminor Az        Err   mdist  Mdist     Err        Err        Err      Quality

2012/09/02 22:48:15.2     43.7866   12.0945     10.0 f    40   20 177  Ml 3.0 13                         bulletin    282496
                                                                                                         _ldg
      0.36   +-  0.11       3.8    1.5   50.50 +-  0.0    0.17   7.19   +-0.2                            m i ke

CENTRAL ITALY
Sta     Dist  EvAz     Phase      Date       Time     TRes  Azim  AzRes  Slow  SRes Def   SNR       Amp   Per   Mag1   Mag2       ID
PGF   002.58 242.4 m E P       2012/09/02 22:48:58.0   0.0                          T                                        5059612
PGF   002.58 242.4 m E Sn      2012/09/02 22:49:24.8   0.0                          T                5.9  .38 Ml 2.8         5063416
SBF   003.37 272.9 m E P       2012/09/02 22:49:09.0  -0.3                          T                                        5059614
SBF   003.37 272.9 m E Sn      2012/09/02 22:49:43.8   0.0                          T               10.9  .36 Ml 3.0         5059610
FRF   003.96 268.6 m E P       2012/09/02 22:49:16.9  -0.6                          T                                        5059615
FRF   003.96 268.6 m E Sn      2012/09/02 22:49:57.8   0.1                          T                8.7  .36 Ml 3.1         5059611
MBDF  003.94 285.6 m E P       2012/09/02 22:49:18.1   0.7                          T                                        5059618
MBDF  003.94 285.6 m E Sn      2012/09/02 22:49:57.2  -0.1                          T                6.7  .54 Ml 2.7         5059608
LMR   004.08 265.6 m E P       2012/09/02 22:49:18.6  -0.6                          T                                        5059613
LPL   004.20 296.2 m E P       2012/09/02 22:49:21.4   0.2                          T                                        5059617
LPL   004.20 296.2 m E Sn      2012/09/02 22:50:04.4   0.7                          T                6.2  .40 Ml 2.9         5059609
ORIF  004.60 286.4 m E P       2012/09/02 22:49:27.2   0.5                          T                                        5059616
ORIF  004.60 286.4 m E Sn      2012/09/02 22:50:13.2   0.1                          T                6.7  .54 Ml 2.9         5063414
SMRF  004.72 274.5 m E P       2012/09/02 22:49:27.9  -0.4                          T                                        5063417
CABF  005.10 305.7 m E P       2012/09/02 22:49:33.9   0.1                          T                                        5059607
CABF  005.10 305.7 m E Sn      2012/09/02 22:50:25.4   0.4                          T                6.3  .64 Ml 2.9         5059633
HINF  005.45 319.6 m E P       2012/09/02 22:49:38.3  -0.3                          T                                        5059621
HINF  005.45 319.6 m E Sn      2012/09/02 22:50:33.8   0.5                          T                4.3  .42 Ml 3.0         5059606
CDF   005.71 325.8 m E P       2012/09/02 22:49:42.0  -0.4                          T                                        5059619
CDF   005.71 325.8 m E Sn      2012/09/02 22:50:40.3   0.6                          T                4.6  .38 Ml 3.2         5059604
HAU   005.82 318.5 m E P       2012/09/02 22:49:43.6  -0.2                          T                                        5059620
HAU   005.82 318.5 m E Sn      2012/09/02 22:50:42.6   0.4                          T               15.8  .54 Ml 3.3         5059605
SMF   006.49 299.0 m E P       2012/09/02 22:49:53.7   0.3                          T                                        5059636
SMF   006.49 299.0 m E Sn      2012/09/02 22:50:57.8  -0.4                          T                3.1  .46 Ml 3.0         5059634
SFTF  006.61 314.4 m E P       2012/09/02 22:49:55.5   0.6                          T                                        5063421
LOR   006.75 303.9 m E P       2012/09/02 22:49:56.2  -0.7                          T                                        5059632
LOR   006.75 303.9 m E Sn      2012/09/02 22:51:04.7   0.3                          T                6.3  .50 Ml 3.3         5059631
BGF   007.10 296.2 m E Pn      2012/09/02 22:49:56.6  -0.1                          T                                        5063420
BGF   007.10 296.2 m E P       2012/09/02 22:50:01.2  -0.6                          T                                        5063419
AVF   006.86 299.0 m E P       2012/09/02 22:49:58.1  -0.3                          T                                        5059635
SSF   006.87 301.4 m E P       2012/09/02 22:49:58.6  -0.1                          T                                        5063422
MTLF  007.19 269.9 m E P       2012/09/02 22:50:02.8  -0.3                          T                                        5063418
LPG   004.18 296.0 m E Sn      2012/09/02 22:50:02.9  -0.4                          T                6.8  .59 Ml 2.7         5063415

.
EVENT     282397
    Date      Time       Latitude Longitude    Depth    Ndef Nsta Gap    Mag1  N    Mag2  N    Mag3  N   Author         ID
       rms   OT_Error      Smajor Sminor Az        Err   mdist  Mdist     Err        Err        Err      Quality

2012/09/03 00:36:34.9     42.9503     .1334      2.0       8    4 189  Ml 1.2  2  Md 1.5  2              bulletin    282497
                                                                                                         _ldg
      0.14   +-  0.12       8.7    1.0  168.92 +-  0.0    0.17   1.57   +-0.4      +-0.1                 m i ke

PYRENEES
Sta     Dist  EvAz     Phase      Date       Time     TRes  Azim  AzRes  Slow  SRes Def   SNR       Amp   Per   Mag1   Mag2       ID
EPF   000.17 062.1 m E Pg      2012/09/03 00:36:38.6   0.1                          T                                        5059642
EPF   000.17 062.1 m E Sg      2012/09/03 00:36:40.8  -0.1                          T                6.9  .20        Md 1.4  5059640
ETSF  000.51 264.4 m E Pg      2012/09/03 00:36:44.9   0.1                          T                                        5059641
ETSF  000.51 264.4 m E Sg      2012/09/03 00:36:51.2  -0.3                          T                1.7  .29        Md 1.5  5059639
SJPF  001.01 279.8 m E Pg      2012/09/03 00:36:53.8   0.0                          T                                        5063446
SJPF  001.01 279.8 m E Sg      2012/09/03 00:37:08.8   1.8                          T                 .3  .23 Ml  .9         5063447
MTLF  001.57 074.9 m E Pg      2012/09/03 00:37:04.2  -0.1                          T                                        5059638
MTLF  001.57 074.9 m E Sg      2012/09/03 00:37:24.6   0.0                          T                 .5  .20 Ml 1.5         5059637

.
EVENT     282445
    Date      Time       Latitude Longitude    Depth    Ndef Nsta Gap    Mag1  N    Mag2  N    Mag3  N   Author         ID
       rms   OT_Error      Smajor Sminor Az        Err   mdist  Mdist     Err        Err        Err      Quality

2012/09/03 01:33:55.8     42.2612   -2.7587     12.0 f    17    3 119  Ml 1.5  5  Md 1.8  2              bulletin    282545
                                                                                                         _ldg
      0.30   +-  0.10       2.7    1.5  135.45 +-  0.0    1.09   2.41   +-0.1      +-0.1                 m i ke

SPAIN
Sta     Dist  EvAz     Phase      Date       Time     TRes  Azim  AzRes  Slow  SRes Def   SNR       Amp   Per   Mag1   Mag2       ID
SJPF  001.42 052.5 m E Pn      2012/09/03 01:34:19.8   0.0                          T                                        5060041
SJPF  001.42 052.5 m E Pg      2012/09/03 01:34:22.7   0.3                          T                                        5060046
SJPF  001.42 052.5 m E Sn      2012/09/03 01:34:37.5   0.2                          T                 .8  .29 Ml 1.4 Md 1.8  5060042
SJPF  001.42 052.5 m E Sg      2012/09/03 01:34:41.1   0.4                          T                 .8  .25 Ml 1.5 Md 1.9  5063495
ETSF  001.74 067.8 m E Pn      2012/09/03 01:34:24.3  -0.1                          T                                        5060045
ETSF  001.74 067.8 m E Pg      2012/09/03 01:34:28.4  -0.1                          T                                        5060044
ETSF  001.74 067.8 m E Sg      2012/09/03 01:34:51.3   0.3                          T                 .8  .34 Ml 1.5         5063497
EPF   002.41 070.4 m E Pn      2012/09/03 01:34:33.5   0.1                          T                                        5060040
EPF   002.41 070.4 m E Pg      2012/09/03 01:34:40.5  -0.3                          T                                        5063498
EPF   002.41 070.4 m E Sn      2012/09/03 01:35:01.0  -0.1                          T                 .3  .20 Ml 1.5         5060039
EPF   002.41 070.4 m E Sg      2012/09/03 01:35:12.0   0.2                          T                 .7  .36 Ml 1.6         5063496

.
EVENT     282446
    Date      Time       Latitude Longitude    Depth    Ndef Nsta Gap    Mag1  N    Mag2  N    Mag3  N   Author         ID
       rms   OT_Error      Smajor Sminor Az        Err   mdist  Mdist     Err        Err        Err      Quality

2012/09/03 03:33:13.2     42.9336     .2174      2.0       5    3 192  Ml 0.7  1  Md 1.1  2              bulletin    282546
                                                                                                         _ldg
      0.12   +-  0.14       6.8    1.2  159.39 +-  0.0    0.13   1.52   +-         +-0.1                 m i ke

PYRENEES
Sta     Dist  EvAz     Phase      Date       Time     TRes  Azim  AzRes  Slow  SRes Def   SNR       Amp   Per   Mag1   Mag2       ID
EPF   000.13 042.9 m E Pg      2012/09/03 03:33:16.0  -0.1                          T                                        5060237
EPF   000.13 042.9 m E Sg      2012/09/03 03:33:18.0   0.0                          T               14.2  .23        Md 1.2  5060236
ETSF  000.57 266.8 m E Pg      2012/09/03 03:33:24.3   0.1                          T                                        5060235
ETSF  000.57 266.8 m E Sg      2012/09/03 03:33:31.4  -0.3                          T                  1  .26        Md 1.1  5060234
MTLF  001.52 073.8 m E Sg      2012/09/03 03:34:01.1  -0.1                          T                 .1  .20 Ml  .7         5063516

.
EVENT     282400
    Date      Time       Latitude Longitude    Depth    Ndef Nsta Gap    Mag1  N    Mag2  N    Mag3  N   Author         ID
       rms   OT_Error      Smajor Sminor Az        Err   mdist  Mdist     Err        Err        Err      Quality

2012/09/03 04:42:23.9     41.8341    9.8583      6.9      10    4 342  Ml 2.2  5  Md 2.0  1              bulletin    282500
                                                                                                         _ldg
      0.13   +-  0.14       3.8    2.2   48.02 +-  0.6    0.96   2.93   +-0.3      +-                    m i ke

CORSICA, FRANCE
Sta     Dist  EvAz     Phase      Date       Time     TRes  Azim  AzRes  Slow  SRes Def   SNR       Amp   Per   Mag1   Mag2       ID
PGF   000.96 318.5 m E Pg      2012/09/03 04:42:42.1   0.0                          T                                        5059714
PGF   000.96 318.5 m E Sg      2012/09/03 04:42:54.7   0.1                          T                7.3  .23 Ml 2.5 Md 2.0  5059713
SBF   002.70 319.5 m E Pn      2012/09/03 04:43:06.1   0.1                          T                                        5059710
SBF   002.70 319.5 m E Sn      2012/09/03 04:43:37.1   0.1                          T                1.3  .16 Ml 2.3         5059709
LMR   002.89 302.3 m E Pn      2012/09/03 04:43:08.5   0.0                          T                                        5059715
LMR   002.89 302.3 m E Sn      2012/09/03 04:43:41.4  -0.1                          T                 .3  .14 Ml 1.8         5059708
FRF   002.93 307.2 m E Pn      2012/09/03 04:43:09.1   0.0                          T                                        5059707
FRF   002.93 307.2 m E Sn      2012/09/03 04:43:42.2  -0.2                          T                 .8  .20 Ml 2.0         5059706

.
