EVENT     271448
    Date      Time       Latitude Longitude    Depth    Ndef Nsta Gap    Mag1  N    Mag2  N    Mag3  N   Author         ID
       rms   OT_Error      Smajor Sminor Az        Err   mdist  Mdist     Err        Err        Err      Quality

2012/03/08 04:54:32.2     44.5088    6.6885      2.0      33    9 039  Ml 2.1  5  Md 1.9  3              js067245    271468

      0.67   +-  0.08       2.0    1.5   66.47 +-  0.0    0.09   2.58   +-0.3      +-0.2                 m i ke

FRANCE
Sta     Dist  EvAz     Phase      Date       Time     TRes  Azim  AzRes  Slow  SRes Def   SNR       Amp   Per   Mag1   Mag2       ID
MBDF  000.23 015.2 m E Pg      2012/03/08 04:54:36.8  -0.1                          T                                        4874685
MBDF  000.23 015.2 m E Sg      2012/03/08 04:54:40.4   0.4                          T               19.8  .18        Md 2.0  4874667
ORIF  000.71 305.7 m E Pg      2012/03/08 04:54:45.5  -0.2                          T                                        4874684
ORIF  000.71 305.7 m E Sg      2012/03/08 04:54:54.8  -0.1                          T               10.6  .20        Md 1.8  4874677
SBF   000.84 140.0 m E Pg      2012/03/08 04:54:48.9   0.8                          T                                        4874679
SBF   000.84 140.0 m E Sg      2012/03/08 04:54:58.8  -0.2                          T               11.4  .24                4874672
FRF   000.95 181.8 m E Pn      2012/03/08 04:54:50.3  -0.6                          T                                        4874681
FRF   000.95 181.8 m E Sg      2012/03/08 04:55:01.4  -0.9                          T                8.2  .20 Ml 2.4 Md 2.1  4874674
LPG   000.99 002.6 m E Pg      2012/03/08 04:54:50.9  -0.2                          T                                        4874682
LPG   000.99 002.6 m E Sg      2012/03/08 04:55:04.7   0.7                          T                1.7  .21 Ml 1.7         4874675
LPL   001.01 001.8 m E Pg      2012/03/08 04:54:51.2  -0.1                          T                                        4874683
LPL   001.01 001.8 m E Sg      2012/03/08 04:55:05.7   1.2                          T                3.2  .35 Ml 1.8         4874676
LMR   001.18 186.4 m E Pg      2012/03/08 04:54:54.2  -0.1                          T                                        4874680
LMR   001.18 186.4 m E P       2012/03/08 04:54:55.3  -0.4                          T                                        4874673
LMR   001.18 186.4 m E Sg      2012/03/08 04:55:10.5   0.9                          T                7.5  .28 Ml 2.3         4874671
VIVF  001.48 284.3 m E Pg      2012/03/08 04:55:00.5   0.6                          T                                        4874678
VIVF  001.48 284.3 m E Sg      2012/03/08 04:55:19.3   0.3                          T                4.6  .38 Ml 2.1         4874670
PGF   002.58 138.6 m E Sn      2012/03/08 04:55:42.7  -0.7                          T                                        4874669

.
EVENT     271449
    Date      Time       Latitude Longitude    Depth    Ndef Nsta Gap    Mag1  N    Mag2  N    Mag3  N   Author         ID
       rms   OT_Error      Smajor Sminor Az        Err   mdist  Mdist     Err        Err        Err      Quality

2012/03/08 04:57:08.4     44.5053    6.7016      2.0      31    8 086  Ml 1.4  4  Md 1.3  2              js067245    271469

      0.69   +-  0.08       1.8    1.3   65.16 +-  0.0    0.08   1.49   +-0.3      +-0.1                 m i ke

FRANCE
Sta     Dist  EvAz     Phase      Date       Time     TRes  Azim  AzRes  Slow  SRes Def   SNR       Amp   Per   Mag1   Mag2       ID
MBDF  000.23 012.7 m E Pg      2012/03/08 04:57:13.3   0.2                          T                                        4874689
MBDF  000.23 012.7 m E Sg      2012/03/08 04:57:16.9   0.6                          T                3.4  .20        Md 1.2  4874688
ORIF  000.72 305.5 m E Pg      2012/03/08 04:57:22.2   0.1                          T                                        4874687
ORIF  000.72 305.5 m E Sg      2012/03/08 04:57:31.3  -0.1                          T                1.9  .23        Md 1.3  4874686
LPG   000.99 002.0 m E Pg      2012/03/08 04:57:27.6   0.2                          T                                        4874733
LPL   001.01 001.2 m E Pg      2012/03/08 04:57:27.8   0.1                          T                                        4874734
LPL   001.01 001.2 m E Sg      2012/03/08 04:57:40.9   0.1                          T                 .4  .25 Ml 1.0         4874728
FRF   000.95 182.4 m E P       2012/03/08 04:57:28.2  -0.1                          T                                        4874732
FRF   000.95 182.4 m E Sg      2012/03/08 04:57:39.3   0.8                          T                1.4  .24 Ml 1.6         4874730
LMR   001.18 186.8 m E Pg      2012/03/08 04:57:31.2   0.7                          T                                        4874731
LMR   001.18 186.8 m E Sg      2012/03/08 04:57:46.2   0.5                          T                1.9  .28 Ml 1.7         4874727
SBF   000.83 140.3 m E Sg      2012/03/08 04:57:35.3   0.3                          T                3.7  .27                4874729
VIVF  001.49 284.3 m E Sg      2012/03/08 04:57:54.8  -0.6                          T                 .3  .20 Ml 1.2         4876461

.
EVENT     271450
    Date      Time       Latitude Longitude    Depth    Ndef Nsta Gap    Mag1  N    Mag2  N    Mag3  N   Author         ID
       rms   OT_Error      Smajor Sminor Az        Err   mdist  Mdist     Err        Err        Err      Quality

2012/03/08 04:58:26.3     44.5012    6.6931      2.0      37    9 046  Ml 1.7  6  Md 1.6  2              js067245    271470

      0.49   +-  0.06       1.3    1.0   50.28 +-  0.0    0.09   1.48   +-0.2      +-0.0                 m i ke

FRANCE
Sta     Dist  EvAz     Phase      Date       Time     TRes  Azim  AzRes  Slow  SRes Def   SNR       Amp   Per   Mag1   Mag2       ID
MBDF  000.23 013.9 m E Pg      2012/03/08 04:58:31.1   0.1                          T                                        4874762
MBDF  000.23 013.9 m E Sg      2012/03/08 04:58:34.5   0.2                          T                7.7  .19        Md 1.6  4874761
ORIF  000.71 306.0 m E Pg      2012/03/08 04:58:40.0   0.2                          T                                        4874760
ORIF  000.71 306.0 m E Sg      2012/03/08 04:58:49.3   0.1                          T                3.5  .20        Md 1.6  4874755
SBF   000.83 139.8 m E Pg      2012/03/08 04:58:42.8   0.8                          T                                        4874750
SBF   000.83 139.8 m E Sg      2012/03/08 04:58:52.7  -0.1                          T                3.9  .21                4874749
LPG   001.00 002.4 m E Pg      2012/03/08 04:58:45.2  -0.2                          T                                        4874758
LPG   001.00 002.4 m E Sg      2012/03/08 04:58:58.9   0.6                          T                 .8  .20 Ml 1.4         4874753
LPL   001.02 001.6 m E Pg      2012/03/08 04:58:45.6   0.0                          T                                        4874759
LPL   001.02 001.6 m E Sg      2012/03/08 04:58:58.9   0.1                          T                1.3  .23 Ml 1.6         4874754
FRF   000.94 182.1 m E P       2012/03/08 04:58:46.2   0.2                          T                                        4874757
FRF   000.94 182.1 m E Sg      2012/03/08 04:58:56.5   0.3                          T                2.4  .22 Ml 1.9         4874752
LMR   001.17 186.6 m E P       2012/03/08 04:58:49.2  -0.4                          T                                        4874756
LMR   001.17 186.6 m E Sg      2012/03/08 04:59:01.9  -1.5                          T                1.5  .27 Ml 1.7         4874751
VIVF  001.48 284.5 m E Pg      2012/03/08 04:58:53.8  -0.1                          T                                        4874768
VIVF  001.48 284.5 m E Sg      2012/03/08 04:59:12.6  -0.6                          T                1.3  .28 Ml 1.7         4874769
SMRF  000.96 237.2 m E Sg      2012/03/08 04:58:57.6   0.8                          T                2.9  .36 Ml 1.7         4876473

.
EVENT     271451
    Date      Time       Latitude Longitude    Depth    Ndef Nsta Gap    Mag1  N    Mag2  N    Mag3  N   Author         ID
       rms   OT_Error      Smajor Sminor Az        Err   mdist  Mdist     Err        Err        Err      Quality

2012/03/08 04:59:41.5     44.5030    6.7014      2.0      32    7 067  Ml 1.5  5  Md 1.6  2              js067245    271471

      0.36   +-  0.07       1.6    1.1   69.39 +-  0.0    0.08   1.18   +-0.2      +-0.1                 m i ke

FRANCE
Sta     Dist  EvAz     Phase      Date       Time     TRes  Azim  AzRes  Slow  SRes Def   SNR       Amp   Per   Mag1   Mag2       ID
MBDF  000.23 012.6 m E Pg      2012/03/08 04:59:46.3   0.1                          T                                        4874767
MBDF  000.23 012.6 m E Sg      2012/03/08 04:59:49.7   0.3                          T                6.2  .18        Md 1.6  4874766
ORIF  000.72 305.6 m E Pg      2012/03/08 04:59:55.0  -0.2                          T                                        4874765
ORIF  000.72 305.6 m E Sg      2012/03/08 05:00:04.4  -0.2                          T                3.4  .20        Md 1.5  4874777
LPG   001.00 002.0 m E Pg      2012/03/08 05:00:00.4  -0.2                          T                                        4874763
LPG   001.00 002.0 m E Sg      2012/03/08 05:00:13.9   0.4                          T                1.4  .31 Ml 1.5         4874771
LPL   001.01 001.2 m E Pg      2012/03/08 05:00:00.8   0.0                          T                                        4874764
LPL   001.01 001.2 m E Sg      2012/03/08 05:00:14.0   0.1                          T                1.6  .33 Ml 1.5         4874770
FRF   000.94 182.4 m E P       2012/03/08 05:00:00.8  -0.5                          T                                        4874776
FRF   000.94 182.4 m E Sg      2012/03/08 05:00:11.8   0.4                          T                2.0  .24 Ml 1.8         4874773
LMR   001.18 186.8 m E Pg      2012/03/08 05:00:03.8   0.3                          T                                        4876476
LMR   001.18 186.8 m E Sg      2012/03/08 05:00:18.9   0.2                          T                1.3  .25 Ml 1.6         4874774
SMRF  000.97 237.3 m E Sg      2012/03/08 05:00:12.6   0.4                          T                 .4  .22 Ml 1.1         4874772

.
EVENT     271452
    Date      Time       Latitude Longitude    Depth    Ndef Nsta Gap    Mag1  N    Mag2  N    Mag3  N   Author         ID
       rms   OT_Error      Smajor Sminor Az        Err   mdist  Mdist     Err        Err        Err      Quality

2012/03/08 05:33:02.5     44.5081    6.6887      2.0      34    9 047  Ml 1.6  6  Md 1.6  2              js067245    271472

      0.47   +-  0.08       1.7    1.3   65.53 +-  0.0    0.09   1.48   +-0.2      +-0.1                 m i ke

FRANCE
Sta     Dist  EvAz     Phase      Date       Time     TRes  Azim  AzRes  Slow  SRes Def   SNR       Amp   Per   Mag1   Mag2       ID
MBDF  000.23 015.1 m E Pg      2012/03/08 05:33:07.3   0.1                          T                                        4874808
MBDF  000.23 015.1 m E Sg      2012/03/08 05:33:10.9   0.6                          T                7.1  .20        Md 1.5  4874807
ORIF  000.71 305.7 m E Pg      2012/03/08 05:33:15.9  -0.1                          T                                        4874804
ORIF  000.71 305.7 m E Sg      2012/03/08 05:33:25.4   0.2                          T                2.8  .18        Md 1.7  4874806
FRF   000.95 181.8 m E Pg      2012/03/08 05:33:20.8   0.5                          T                                        4876477
FRF   000.95 181.8 m E Sg      2012/03/08 05:33:33.0   0.4                          T                2.0  .21 Ml 1.8         4874821
LPG   000.99 002.6 m E Pg      2012/03/08 05:33:21.4   0.0                          T                                        4874803
LPG   000.99 002.6 m E Sg      2012/03/08 05:33:35.1   0.8                          T                1.0  .24 Ml 1.4         4874820
LPL   001.01 001.7 m E Pg      2012/03/08 05:33:22.0   0.3                          T                                        4874823
LPL   001.01 001.7 m E Sg      2012/03/08 05:33:35.0   0.3                          T                1.1  .32 Ml 1.4         4874813
SMRF  000.96 236.8 m E P       2012/03/08 05:33:22.0  -0.6                          T                                        4874815
SMRF  000.96 236.8 m E Sg      2012/03/08 05:33:32.6  -0.4                          T                3.1  .41 Ml 1.7         4874814
LMR   001.18 186.4 m E P       2012/03/08 05:33:26.1   0.1                          T                                        4874818
LMR   001.18 186.4 m E Sg      2012/03/08 05:33:40.1   0.3                          T                2.2  .25 Ml 1.9         4874822
SBF   000.84 140.0 m E Sg      2012/03/08 05:33:29.1  -0.2                          T                3.1  .25                4874816
VIVF  001.48 284.3 m E Sg      2012/03/08 05:33:49.1  -0.1                          T                1.6  .32 Ml 1.7         4874819

.
EVENT     271453
    Date      Time       Latitude Longitude    Depth    Ndef Nsta Gap    Mag1  N    Mag2  N    Mag3  N   Author         ID
       rms   OT_Error      Smajor Sminor Az        Err   mdist  Mdist     Err        Err        Err      Quality

2012/03/08 05:43:07.6     44.5173    6.7138      2.0      29    7 067  Ml 1.6  4  Md 1.5  2              js067245    271473

      0.75   +-  0.11       2.5    1.8   63.65 +-  0.0    0.08   1.19   +-0.2      +-0.0                 m i ke

FRANCE
Sta     Dist  EvAz     Phase      Date       Time     TRes  Azim  AzRes  Slow  SRes Def   SNR       Amp   Per   Mag1   Mag2       ID
MBDF  000.21 011.1 m E Pg      2012/03/08 05:43:12.4   0.3                          T                                        4874824
MBDF  000.21 011.1 m E Sg      2012/03/08 05:43:16.3   1.2                          T                4.3  .20        Md 1.5  4874826
ORIF  000.72 304.3 m E Pg      2012/03/08 05:43:20.9  -0.4                          T                                        4874825
ORIF  000.72 304.3 m E Sg      2012/03/08 05:43:30.9   0.2                          T                2.0  .33        Md 1.5  4874833
LPL   001.00 000.7 m E Pg      2012/03/08 05:43:26.9   0.2                          T                                        4874832
LMR   001.19 187.2 m E Pg      2012/03/08 05:43:29.9   0.0                          T                                        4874829
LMR   001.19 187.2 m E Sg      2012/03/08 05:43:45.2  -0.2                          T                1.7  .22 Ml 1.8         4874831
FRF   000.96 182.9 m E Sg      2012/03/08 05:43:38.0   0.0                          T                1.9  .23 Ml 1.8         4874828
SMRF  000.98 236.9 m E Sg      2012/03/08 05:43:38.8   0.0                          T                1.8  .28 Ml 1.6         4876481
LPG   000.98 001.5 m E Sg      2012/03/08 05:43:39.4   0.3                          T                 .8  .22 Ml 1.4         4874827

.
EVENT     271455
    Date      Time       Latitude Longitude    Depth    Ndef Nsta Gap    Mag1  N    Mag2  N    Mag3  N   Author         ID
       rms   OT_Error      Smajor Sminor Az        Err   mdist  Mdist     Err        Err        Err      Quality

2012/03/08 07:38:58.4     43.0235    -.7283      2.0      12    2 103             Md 1.6  2              js067245    271475

      0.50   +-  0.13       4.1    2.0    6.50 +-  0.0    0.07   2.14              +-0.1                 m i ke

PYRENEES
Sta     Dist  EvAz     Phase      Date       Time     TRes  Azim  AzRes  Slow  SRes Def   SNR       Amp   Per   Mag1   Mag2       ID
SJPF  000.37 284.0 m E Pg      2012/03/08 07:39:05.5  -0.2                          T                                        4874843
SJPF  000.37 284.0 m E Sg      2012/03/08 07:39:10.6  -0.1                          T                7.2  .18        Md 1.7  4874842
EPF   000.78 089.1 m E Pg      2012/03/08 07:39:13.5   0.3                          T                                        4874841
EPF   000.78 089.1 m E Sg      2012/03/08 07:39:21.9  -1.5                          T                4.3  .23        Md 1.6  4874840

.
EVENT     271462
    Date      Time       Latitude Longitude    Depth    Ndef Nsta Gap    Mag1  N    Mag2  N    Mag3  N   Author         ID
       rms   OT_Error      Smajor Sminor Az        Err   mdist  Mdist     Err        Err        Err      Quality

2012/03/08 08:31:26.6     44.5100    6.6666      2.0      18    8 066  Ml 1.7  6  Md 1.7  1              js067245    271482

      0.81   +-  0.11       2.4    1.8   81.22 +-  0.0    0.23   1.46   +-0.2      +-                    m i ke

FRANCE
Sta     Dist  EvAz     Phase      Date       Time     TRes  Azim  AzRes  Slow  SRes Def   SNR       Amp   Per   Mag1   Mag2       ID
MBDF  000.23 019.0 m E Pg      2012/03/08 08:31:31.2  -0.2                          T                                        4874904
MBDF  000.23 019.0 m E Sg      2012/03/08 08:31:34.9   0.4                          T               22.9  .40        Md 1.7  4874903
ORIF  000.69 306.3 m E Pg      2012/03/08 08:31:39.7  -0.2                          T                                        4874901
ORIF  000.69 306.3 m E Sg      2012/03/08 08:31:49.3   0.3                          T                4.6  .20                4874902
FRF   000.95 180.9 m E Pg      2012/03/08 08:31:44.4  -0.1                          T                                        4876510
FRF   000.95 180.9 m E Sg      2012/03/08 08:31:56.8   0.1                          T                4.0  .22 Ml 2.1         4874897
LPL   001.01 002.6 m E Pg      2012/03/08 08:31:45.5  -0.3                          T                                        4874896
LPL   001.01 002.6 m E Sg      2012/03/08 08:31:58.6  -0.3                          T                1.6  .29 Ml 1.6         4876511
LMR   001.18 185.6 m E Pg      2012/03/08 08:31:48.8   0.0                          T                                        4874899
LMR   001.18 185.6 m E Sg      2012/03/08 08:32:03.9  -0.1                          T                2.3  .23 Ml 1.9         4874900
SMRF  000.95 236.1 m E Sg      2012/03/08 08:31:57.5   0.7                          T                1.2  .24 Ml 1.5         4876513
LPG   000.99 003.5 m E Sg      2012/03/08 08:31:58.3  -0.1                          T                1.5  .19 Ml 1.7         4876512
VIVF  001.46 284.4 m E Sg      2012/03/08 08:32:12.5  -0.3                          T                1.2  .25 Ml 1.7         4876509

.
