EVENT     259697
    Date      Time       Latitude Longitude    Depth    Ndef Nsta Gap    Mag1  N    Mag2  N    Mag3  N   Author         ID
       rms   OT_Error      Smajor Sminor Az        Err   mdist  Mdist     Err        Err        Err      Quality

2011/05/25 04:07:47.1     43.7906   12.0712      5.0 f    49   24 130  Ml 3.5 14                         js067245    259697

      0.98   +-  0.20       4.1    3.5  121.38 +-  0.0    0.20  11.10   +-0.3                            m i ke

CENTRAL ITALY
Sta     Dist  EvAz     Phase      Date       Time     TRes  Azim  AzRes  Slow  SRes Def   SNR       Amp   Per   Mag1   Mag2       ID
PGF   002.57 242.1 m E Pn      2011/05/25 04:08:27.8   0.2                          T                                        4698599
SBF   003.36 272.8 m E Pn      2011/05/25 04:08:37.9  -0.5                          T                                        4698598
SBF   003.36 272.8 m E Sn      2011/05/25 04:09:15.6  -0.6                          T               99.5  .52 Ml 3.8         4698566
FRF   003.94 268.5 m E Pn      2011/05/25 04:08:46.0  -0.3                          T                                        4698596
FRF   003.94 268.5 m E Sn      2011/05/25 04:09:30.1   0.0                          T               20.9  .36 Ml 3.4         4698568
MBDF  003.92 285.6 m E Pn      2011/05/25 04:08:46.6   0.5                          T                                        4698591
MBDF  003.92 285.6 m E Sn      2011/05/25 04:09:30.4   0.6                          T               67.8  .68 Ml 3.6         4698563
LMR   004.07 265.5 m E Pn      2011/05/25 04:08:47.1  -0.9                          T                                        4698597
LMR   004.07 265.5 m E Sn      2011/05/25 04:09:31.9  -1.2                          T               10.9  .38 Ml 3.1         4698567
LPG   004.16 296.0 m E Pn      2011/05/25 04:08:49.7   0.1                          T                                        4698595
LPG   004.16 296.0 m E Sn      2011/05/25 04:09:36.3   0.6                          T               32.1  .62 Ml 3.4         4698564
LPL   004.18 296.2 m E Pn      2011/05/25 04:08:49.9   0.1                          T                                        4698593
ORIF  004.58 286.4 m E Pn      2011/05/25 04:08:55.9   0.9                          T                                        4698592
SMRF  004.70 274.5 m E Pn      2011/05/25 04:08:57.2   0.6                          T                                        4698594
SMRF  004.70 274.5 m E Sn      2011/05/25 04:09:48.0  -0.2                          T                9.6  .48 Ml 3.1         4698565
CABF  005.08 305.8 m E Pn      2011/05/25 04:09:02.9   1.0                          T                                        4698589
VIVF  005.41 283.9 m E Pn      2011/05/25 04:09:05.9  -0.4                          T                                        4698590
HINF  005.43 319.6 m E Pn      2011/05/25 04:09:06.4  -0.2                          T                                        4698588
HINF  005.43 319.6 m E Sn      2011/05/25 04:10:06.9   1.1                          T               32.1  .46 Ml 3.8         4698570
CDF   005.70 325.9 m E Pn      2011/05/25 04:09:09.9  -0.4                          T                                        4698585
CDF   005.70 325.9 m E Sn      2011/05/25 04:10:10.7  -1.5                          T               30.5  .54 Ml 3.9         4698573
HAU   005.81 318.5 m E Pn      2011/05/25 04:09:11.4  -0.2                          T                                        4698587
HAU   005.81 318.5 m E Sn      2011/05/25 04:10:15.4   0.8                          T               70.2  .50 Ml 4.0         4698571
PAGF  006.49 319.5 m E Pn      2011/05/25 04:09:20.7  -0.2                          T                                        4698580
PAGF  006.49 319.5 m E Sn      2011/05/25 04:10:30.0  -1.0                          T                6.6  .56 Ml 3.2         4698572
SMF   006.48 299.0 m E Pn      2011/05/25 04:09:21.2   0.5                          T                                        4698581
SMF   006.48 299.0 m E Sn      2011/05/25 04:10:31.8   1.1                          T               24.9  .68 Ml 3.7         4698569
SFTF  006.59 314.5 m E Pn      2011/05/25 04:09:22.7   0.3 127.6  -1.8              T                                        4698586
LOR   006.73 303.9 m E Pn      2011/05/25 04:09:24.6   0.3 130.4  12.3              T                                        4698584
LOR   006.73 303.9 m E Sn      2011/05/25 04:10:38.1   1.2                          T               15.7  .40 Ml 3.8         4698575
AVF   006.84 299.0 m E Pn      2011/05/25 04:09:25.8   0.1                          T                                        4698582
SSF   006.86 301.5 m E Pn      2011/05/25 04:09:26.2   0.3                          T                                        4698583
SSF   006.86 301.5 m E Sn      2011/05/25 04:10:41.7   1.9                          T                5.2  .47 Ml 3.4         4698574
BGF   007.08 296.2 m E Pn      2011/05/25 04:09:29.1   0.1                          T                                        4698579
MTLF  007.17 269.8 m E Pn      2011/05/25 04:09:30.5   0.3                          T                                        4698578
MTLF  007.17 269.8 m E Sn      2011/05/25 04:10:47.1  -0.2                          T                4.4  .71 Ml 3.1         4698562
CAF   007.26 282.5 m E Pn      2011/05/25 04:09:30.9  -0.6                          T                                        4698577
SGMF  011.10 298.8 m E Pn      2011/05/25 04:10:22.9  -0.8                          T                                        4698576

.
EVENT     259698
    Date      Time       Latitude Longitude    Depth    Ndef Nsta Gap    Mag1  N    Mag2  N    Mag3  N   Author         ID
       rms   OT_Error      Smajor Sminor Az        Err   mdist  Mdist     Err        Err        Err      Quality

2011/05/25 06:15:53.2     44.6053    6.7503      2.0      23   10 113  Ml 2.4  6  Md 2.4  2              js067245    259698

      0.39   +-  0.05       1.2     .8   79.47 +-  0.0    0.12   2.14   +-0.2      +-0.0                 m i ke

FRANCE
Sta     Dist  EvAz     Phase      Date       Time     TRes  Azim  AzRes  Slow  SRes Def   SNR       Amp   Per   Mag1   Mag2       ID
MBDF  000.12 007.1 m E Pg      2011/05/25 06:15:55.8  -0.1                          T                                        4699022
MBDF  000.12 007.1 m E Sg      2011/05/25 06:15:58.0   0.2                          T              135.9  .22        Md 2.4  4699014
ORIF  000.69 297.1 m E Pg      2011/05/25 06:16:06.3  -0.1                          T                                        4699021
ORIF  000.69 297.1 m E Sg      2011/05/25 06:16:15.5   0.0                          T                7.5  .22        Md 2.4  4699013
SBF   000.89 146.2 m E Pg      2011/05/25 06:16:10.1   0.2                          T                                        4699015
LPG   000.89 000.1 m E Pg      2011/05/25 06:16:10.3   0.0                          T                                        4699019
LPG   000.89 000.1 m E Sg      2011/05/25 06:16:22.0   0.1                          T               12.1  .42 Ml 2.2         4699012
LPL   000.91 359.2 m E Pg      2011/05/25 06:16:10.5   0.0                          T                                        4699020
LPL   000.91 359.2 m E Sg      2011/05/25 06:16:21.9  -0.5                          T               10.5  .38 Ml 2.2         4699009
FRF   001.05 184.1 m E Pg      2011/05/25 06:16:12.6  -0.2                          T                                        4699018
FRF   001.05 184.1 m E Sg      2011/05/25 06:16:25.8  -0.5                          T               12.9  .20 Ml 2.7         4699011
SMRF  001.05 233.7 m E Pg      2011/05/25 06:16:14.1   1.2                          T                                        4699017
SMRF  001.05 233.7 m E Sg      2011/05/25 06:16:26.9   0.3                          T               13.0  .28 Ml 2.5         4699122
LMR   001.28 187.9 m E Pn      2011/05/25 06:16:16.7   0.3                          T                                        4699016
LMR   001.28 187.9 m E Pg      2011/05/25 06:16:17.3   0.2                          T                                        4699008
LMR   001.28 187.9 m E Sg      2011/05/25 06:16:33.2  -0.5                          T                9.4  .22 Ml 2.6         4699010
VIVF  001.50 280.3 m E Pn      2011/05/25 06:16:19.7   0.2                          T                                        4699124
VIVF  001.50 280.3 m E Pg      2011/05/25 06:16:21.2   0.0                          T                                        4699125
VIVF  001.50 280.3 m E Sg      2011/05/25 06:16:40.6   0.0                          T                5.2  .36 Ml 2.2         4699123
LASF  002.14 256.7 m E Sn      2011/05/25 06:16:53.7  -0.1                          T                                        4699121

.
EVENT     259722
    Date      Time       Latitude Longitude    Depth    Ndef Nsta Gap    Mag1  N    Mag2  N    Mag3  N   Author         ID
       rms   OT_Error      Smajor Sminor Az        Err   mdist  Mdist     Err        Err        Err      Quality

2011/05/25 07:22:42.2     47.5254    9.7838     15.0 f    19    2 055  Ml 2.2  2                         js067245    259722

      1.09   +-  0.22       4.9    3.7   40.63 +-  0.0    0.25   2.00   +-0.3                            m i ke

GERMANY
Sta     Dist  EvAz     Phase      Date       Time     TRes  Azim  AzRes  Slow  SRes Def   SNR       Amp   Per   Mag1   Mag2       ID
CDF   001.90 298.7 m E Pn      2011/05/25 07:23:12.0  -0.6                          T                                        4699160
CDF   001.90 298.7 m E Sn      2011/05/25 07:23:35.1   0.3                          T                1.1  .22 Ml 2.0         4699159
HINF  002.00 279.4 m E Pn      2011/05/25 07:23:13.3  -0.5                          T                                        4699157
HINF  002.00 279.4 m E Sn      2011/05/25 07:23:36.3  -0.8                          T                4.9  .26 Ml 2.5         4699158

.
EVENT     259726
    Date      Time       Latitude Longitude    Depth    Ndef Nsta Gap    Mag1  N    Mag2  N    Mag3  N   Author         ID
       rms   OT_Error      Smajor Sminor Az        Err   mdist  Mdist     Err        Err        Err      Quality

2011/05/25 09:32:25.2     42.8387   -1.1470      5.0 f    32    3 064  Ml 1.6  1  Md 1.6  2              js067245    259726

      0.23   +-  0.04        .9     .7   41.90 +-  0.0    0.07   1.11   +-         +-0.0                 m i ke

PYRENEES
Sta     Dist  EvAz     Phase      Date       Time     TRes  Azim  AzRes  Slow  SRes Def   SNR       Amp   Per   Mag1   Mag2       ID
SJPF  000.28 348.2 m E Pg      2011/05/25 09:32:31.0   0.2                          T                                        4699227
SJPF  000.28 348.2 m E Sg      2011/05/25 09:32:34.6   0.0                          T                8.2  .17        Md 1.6  4699226
ETSF  000.44 081.9 m E Pg      2011/05/25 09:32:33.3  -0.5                          T                                        4699224
ETSF  000.44 081.9 m E Sg      2011/05/25 09:32:40.1   0.6                          T                5.2  .28        Md 1.6  4699225
EPF   001.11 079.5 m E Pg      2011/05/25 09:32:45.9  -0.1                          T                                        4701337
EPF   001.11 079.5 m E Sg      2011/05/25 09:33:00.7   0.3                          T                1.3  .22 Ml 1.6         4701338

.
EVENT     259724
    Date      Time       Latitude Longitude    Depth    Ndef Nsta Gap    Mag1  N    Mag2  N    Mag3  N   Author         ID
       rms   OT_Error      Smajor Sminor Az        Err   mdist  Mdist     Err        Err        Err      Quality

2011/05/25 10:41:12.1     43.7927   12.0273      5.0 f    46   20 158  Ml 3.2 12                         js067245    259724

      1.21   +-  0.21       6.5    3.2   44.07 +-  0.0    0.17   7.14   +-0.3                            m i ke

CENTRAL ITALY
Sta     Dist  EvAz     Phase      Date       Time     TRes  Azim  AzRes  Slow  SRes Def   SNR       Amp   Per   Mag1   Mag2       ID
PGF   002.54 241.7 m E Pn      2011/05/25 10:41:51.9  -0.3                          T                                        4699275
PGF   002.54 241.7 m E Sn      2011/05/25 10:42:22.4   0.7                          T                                        4700460
SBF   003.32 272.8 m E Pn      2011/05/25 10:42:01.9  -1.0                          T                                        4699276
SBF   003.32 272.8 m E Sn      2011/05/25 10:42:39.1  -1.3                          T               41.6  .50 Ml 3.4         4699253
FRF   003.91 268.5 m E Pn      2011/05/25 10:42:10.3  -0.5                          T                                        4699273
FRF   003.91 268.5 m E Sn      2011/05/25 10:42:53.8  -0.5                          T               11.3  .39 Ml 3.1         4699251
LMR   004.04 265.4 m E Pn      2011/05/25 10:42:11.6  -0.8                          T                                        4699274
LMR   004.04 265.4 m E Sn      2011/05/25 10:42:56.0  -1.3                          T               12.7  .64 Ml 3.0         4699252
MBDF  003.89 285.7 m E Pn      2011/05/25 10:42:12.3   1.6                          T                                        4699268
LPG   004.13 296.2 m E Pn      2011/05/25 10:42:14.0  -0.1                          T                                        4699271
LPL   004.15 296.4 m E Pn      2011/05/25 10:42:14.2  -0.2                          T                                        4699270
ORIF  004.55 286.4 m E Pn      2011/05/25 10:42:20.5   0.9                          T                                        4699269
ORIF  004.55 286.4 m E Sn      2011/05/25 10:43:11.8   2.1                          T                8.1  .48 Ml 3.0         4699249
SMRF  004.67 274.5 m E Pn      2011/05/25 10:42:21.5   0.4                          T                                        4699272
SMRF  004.67 274.5 m E Sn      2011/05/25 10:43:13.7   1.2                          T                5.6  .46 Ml 2.9         4699250
CABF  005.06 305.9 m E Pn      2011/05/25 10:42:27.2   0.8                          T                                        4699265
HINF  005.41 319.9 m E Pn      2011/05/25 10:42:30.6  -0.6                          T                                        4699264
HINF  005.41 319.9 m E Sn      2011/05/25 10:43:31.0   0.8                          T                8.3  .32 Ml 3.4         4699255
VIVF  005.38 283.9 m E Pn      2011/05/25 10:42:30.8  -0.1                          T                                        4699267
VIVF  005.38 283.9 m E Sn      2011/05/25 10:43:31.0   1.4                          T                2.0  .33 Ml 2.7         4699248
CDF   005.68 326.1 m E Pn      2011/05/25 10:42:34.3  -0.7                          T                                        4699262
CDF   005.68 326.1 m E Sn      2011/05/25 10:43:38.2   1.5                          T               14.4  .56 Ml 3.5         4699257
HAU   005.78 318.7 m E Pn      2011/05/25 10:42:36.1  -0.2                          T                                        4699263
HAU   005.78 318.7 m E Sn      2011/05/25 10:43:41.2   2.1                          T               21.7  .34 Ml 3.6         4699256
SMF   006.45 299.1 m E Pn      2011/05/25 10:42:45.3   0.0                          T                                        4700464
SMF   006.45 299.1 m E Sn      2011/05/25 10:43:57.4   2.5                          T               10.1  .70 Ml 3.3         4699254
LOR   006.71 304.1 m E Pn      2011/05/25 10:42:49.0   0.1 119.7  1.5               T                                        4699260
LOR   006.71 304.1 m E Sn      2011/05/25 10:44:03.5   2.3                          T                9.8  .52 Ml 3.5         4699259
AVF   006.81 299.1 m E Pn      2011/05/25 10:42:49.2  -1.1                          T                                        4700463
SSF   006.83 301.6 m E Pn      2011/05/25 10:42:50.8   0.3                          T                                        4699261
SSF   006.83 301.6 m E Sn      2011/05/25 10:44:04.9   0.8                          T                3.5  .44 Ml 3.2         4699258
BGF   007.05 296.3 m E Pn      2011/05/25 10:42:54.3   0.7                          T                                        4700462
MTLF  007.14 269.8 m E Pn      2011/05/25 10:42:54.9   0.1                          T                                        4699266

.
EVENT     259723
    Date      Time       Latitude Longitude    Depth    Ndef Nsta Gap    Mag1  N    Mag2  N    Mag3  N   Author         ID
       rms   OT_Error      Smajor Sminor Az        Err   mdist  Mdist     Err        Err        Err      Quality

2011/05/25 10:59:21.7     48.5460    8.9520      5.0 f    19    5 076  Ml 2.0  4                         js067245    259723

      0.35   +-  0.08       1.5    1.1   15.88 +-  0.0    0.09   6.46   +-0.3                            m i ke

GERMANY
Sta     Dist  EvAz     Phase      Date       Time     TRes  Azim  AzRes  Slow  SRes Def   SNR       Amp   Per   Mag1   Mag2       ID
LANF  000.87 300.3 m E Pg      2011/05/25 10:59:38.0  -0.2                          T                                        4701340
LANF  000.87 300.3 m E Sg      2011/05/25 10:59:49.5  -0.1                          T                6.6  .24 Ml 2.2         4701341
CDF   001.12 263.8 m E Pn      2011/05/25 10:59:42.5  -0.1                          T                                        4700474
CDF   001.12 263.8 m E Sg      2011/05/25 10:59:57.4  -0.1                          T                4.2  .20 Ml 2.3         4700473
HINF  001.58 243.3 m E Pg      2011/05/25 10:59:51.0  -0.3                          T                                        4700469
HINF  001.58 243.3 m E Sn      2011/05/25 11:00:08.2  -0.2                          T                                        4700471
HINF  001.58 243.3 m E Sg      2011/05/25 11:00:11.6  -0.1                          T                1.5  .29 Ml 1.8         4700470
HAU   001.82 253.7 m E Pn      2011/05/25 10:59:52.2   0.2                          T                                        4700467
HAU   001.82 253.7 m E Pg      2011/05/25 10:59:55.5  -0.2                          T                                        4700468
HAU   001.82 253.7 m E Sg      2011/05/25 11:00:19.0  -0.1                          T                1.3  .24 Ml 1.7         4701339
LOR   003.66 251.4 m E Pn      2011/05/25 11:00:18.1   1.0                          T                                        4700472

.
