EVENT     295746
    Date      Time       Latitude Longitude    Depth    Ndef Nsta Gap    Mag1  N    Mag2  N    Mag3  N   Author         ID
       rms   OT_Error      Smajor Sminor Az        Err   mdist  Mdist     Err        Err        Err      Quality

2013/04/10 15:13:12.1     44.5406    6.6698      2.0      32    9 049  Ml 2.0  7  Md 1.9  1              bulletin    295846
                                                                                                         _ldg
      0.34   +-  0.05       1.2     .9   60.90 +-  0.0    0.12   3.27   +-0.2      +-                    m i ke

FRANCE
Sta     Dist  EvAz     Phase      Date       Time     TRes  Azim  AzRes  Slow  SRes Def   SNR       Amp   Per   Mag1   Mag2       ID
MBDF  000.20 021.2 m E Pg      2013/04/10 15:13:15.7  -0.5                          T                                        5255515
MBDF  000.20 021.2 m E Sg      2013/04/10 15:13:18.7  -0.3                          T               29.8  .36        Md 1.9  5255516
ORIF  000.68 304.1 m E Pg      2013/04/10 15:13:24.5  -0.5                          T                                        5255513
ORIF  000.68 304.1 m E Sg      2013/04/10 15:13:33.9   0.0                          T                7.0  .28                5255514
SBF   000.87 140.6 m E Pg      2013/04/10 15:13:28.7   0.1                          T                                        5255507
SBF   000.87 140.6 m E Sg      2013/04/10 15:13:39.9  -0.1                          T                5.8  .26 Ml 2.1         5255506
LPG   000.96 003.4 m E Pg      2013/04/10 15:13:30.4   0.0                          T                                        5255511
LPG   000.96 003.4 m E Sg      2013/04/10 15:13:43.1   0.2                          T                2.1  .26 Ml 1.7         5255503
SMRF  000.97 234.7 m E Pn      2013/04/10 15:13:31.1   0.0                          T                                        5255510
SMRF  000.97 234.7 m E Sg      2013/04/10 15:13:42.9   0.1                          T                4.9  .26 Ml 2.1         5255504
FRF   000.98 181.0 m E Pn      2013/04/10 15:13:31.3   0.1                          T                                        5255509
FRF   000.98 181.0 m E Sg      2013/04/10 15:13:43.2   0.1                          T                5.5  .23 Ml 2.2         5255512
LMR   001.21 185.6 m E P       2013/04/10 15:13:36.0   0.0                          T                                        5255508
LMR   001.21 185.6 m E Sg      2013/04/10 15:13:50.6   0.2                          T                5.2  .20 Ml 2.3         5255505
LPL   000.98 002.6 m E Sg      2013/04/10 15:13:43.3   0.0                          T                2.0  .22 Ml 1.8         5255502
VIVF  001.46 283.2 m E Sg      2013/04/10 15:13:58.3   0.1                          T                1.8  .24 Ml 1.9         5255501

.
EVENT     295754
    Date      Time       Latitude Longitude    Depth    Ndef Nsta Gap    Mag1  N    Mag2  N    Mag3  N   Author         ID
       rms   OT_Error      Smajor Sminor Az        Err   mdist  Mdist     Err        Err        Err      Quality

2013/04/10 16:09:06.6     42.7253   -1.7562      2.0     110   21 056  Ml 2.9 18  Md 3.0  2              bulletin    295854
                                                                                                         _ldg
      0.85   +-  0.09       1.7    1.5  159.22 +-  0.0    0.14   7.77   +-0.2      +-0.0                 m i ke

PYRENEES
Sta     Dist  EvAz     Phase      Date       Time     TRes  Azim  AzRes  Slow  SRes Def   SNR       Amp   Per   Mag1   Mag2       ID
SJPF  000.55 045.0 m E Pg      2013/04/10 16:09:16.2  -0.9                          T                                        5252487
SJPF  000.55 045.0 m E Sg      2013/04/10 16:09:24.1  -0.2                          T              109.8  .22        Md 3.1  5252481
ETSF  000.90 078.5 m E Pg      2013/04/10 16:09:22.7  -0.8                          T                                        5252486
ETSF  000.90 078.5 m E Sg      2013/04/10 16:09:35.3   0.2                          T               58.6  .32 Ml 3.0 Md 3.0  5252482
EPF   001.57 078.1 m E Pg      2013/04/10 16:09:36.0   0.2                          T                                        5252485
EPF   001.57 078.1 m E Sg      2013/04/10 16:09:56.2   0.0                          T               53.7  .38 Ml 3.2         5252480
LFF   002.86 038.4 m E Pn      2013/04/10 16:09:51.4   0.2                          T                                        5252498
LFF   002.86 038.4 m E Sn      2013/04/10 16:10:25.9   1.7                          T               25.5  .51 Ml 2.9         5252499
MTLF  002.98 076.7 m E Pn      2013/04/10 16:09:54.2   1.3                          T                                        5252494
MTLF  002.98 076.7 m E Sn      2013/04/10 16:10:26.9  -0.2                          T                8.1  .42 Ml 2.7         5252495
RJF   003.50 041.4 m E Pn      2013/04/10 16:10:01.0   1.0                          T                                        5252501
RJF   003.50 041.4 m E Sn      2013/04/10 16:10:40.3   0.8                          T                5.4  .23 Ml 2.6         5252500
CAF   003.53 050.2 m E Pn      2013/04/10 16:10:01.2   0.7                          T                                        5252497
CAF   003.53 050.2 m E Sn      2013/04/10 16:10:41.6   1.2                          T                7.2  .26 Ml 3.0         5252496
LASF  004.31 069.8 m E Pn      2013/04/10 16:10:13.6   2.6                          T                                        5252493
LASF  004.31 069.8 m E Sn      2013/04/10 16:10:59.0   0.2                          T                6.9  .36 Ml 3.0         5252492
TCF   004.55 037.2 m E Pn      2013/04/10 16:10:14.8   0.4                          T                                        5252506
TCF   004.55 037.2 m E Sn      2013/04/10 16:11:04.9   0.1                          T                2.9  .29 Ml 2.8         5252507
BGF   005.05 039.0 m E Pn      2013/04/10 16:10:21.0  -0.1                          T                                        5252509
BGF   005.05 039.0 m E Sn      2013/04/10 16:11:17.7   1.2                          T               11.5  .39 Ml 3.3         5252508
VIVF  005.12 063.2 m E Pn      2013/04/10 16:10:24.3   2.2                          T                                        5252490
VIVF  005.12 063.2 m E Sn      2013/04/10 16:11:19.0   0.7                          T                1.5  .29 Ml 2.6         5252491
QUIF  005.29 349.7 m E Pn      2013/04/10 16:10:24.3   0.0                          T                                        5253021
QUIF  005.29 349.7 m E Sn      2013/04/10 16:11:22.3   0.2                          T                1.6  .26 Ml 2.7         5253020
AVF   005.45 040.1 m E Pn      2013/04/10 16:10:26.5  -0.1                          T                                        5252505
AVF   005.45 040.1 m E Sn      2013/04/10 16:11:26.9   0.7                          T                1.8  .31 Ml 2.7         5252504
SMF   005.59 043.6 m E Pn      2013/04/10 16:10:29.4   0.9                          T                                        5252502
SMF   005.59 043.6 m E Sn      2013/04/10 16:11:34.1   4.5                          T                2.1  .25 Ml 2.9         5252503
ROSF  005.71 349.8 m E Pn      2013/04/10 16:10:30.0  -0.1                          T                                        5254802
ROSF  005.71 349.8 m E Sn      2013/04/10 16:11:32.2  -0.2                          T                                        5254801
SSF   005.72 039.0 m E Pn      2013/04/10 16:10:30.1  -0.2                          T                                        5252864
SSF   005.72 039.0 m E Sn      2013/04/10 16:11:32.3  -0.4                          T                1.1  .21 Ml 2.8         5252863
LDF   005.98 010.5 m E Pn      2013/04/10 16:10:34.0   0.3                          T                                        5253029
LDF   005.98 010.5 m E Sn      2013/04/10 16:11:38.8   0.0                          T                 .4  .12 Ml 2.6         5253028
LOR   006.04 039.3 m E Pn      2013/04/10 16:10:34.4  -0.2 225.7  2.4               T                                        5253031
LOR   006.04 039.3 m E Sn      2013/04/10 16:11:39.5  -0.8                          T                 .7  .21 Ml 2.6         5253030
ORIF  005.94 065.8 m E Pn      2013/04/10 16:10:36.1   2.8                          T                                        5252489
ORIF  005.94 065.8 m E Sn      2013/04/10 16:11:43.9   5.8                          T                 .6  .23 Ml 2.5         5252488
SBF   006.80 077.3 m E Pn      2013/04/10 16:10:44.8  -0.2                          T                                        5254800
SBF   006.80 077.3 m E Pg      2013/04/10 16:11:10.7  -1.6                          T                                        5254799
SBF   006.80 077.3 m E Sn      2013/04/10 16:11:59.5   0.9                          T                                        5254798
SBF   006.80 077.3 m E Sg      2013/04/10 16:12:39.4  -0.1                          T                                        5254797
HAU   007.77 044.4 m E Pn      2013/04/10 16:10:58.5   0.2                          T                                        5253076
HAU   007.77 044.4 m E Sn      2013/04/10 16:12:21.8   0.1                          T                4.3  .44 Ml 3.1         5253075

.
EVENT     295741
    Date      Time       Latitude Longitude    Depth    Ndef Nsta Gap    Mag1  N    Mag2  N    Mag3  N   Author         ID
       rms   OT_Error      Smajor Sminor Az        Err   mdist  Mdist     Err        Err        Err      Quality

2013/04/10 17:16:26.7     42.7311   -1.8570      2.0      45    4 103  Ml 2.2  3  Md 2.2  2              bulletin    295841
                                                                                                         _ldg
      0.60   +-  0.15       2.5    1.8  138.24 +-  0.0    0.21   3.33   +-0.4      +-0.1                 m i ke

PYRENEES
Sta     Dist  EvAz     Phase      Date       Time     TRes  Azim  AzRes  Slow  SRes Def   SNR       Amp   Per   Mag1   Mag2       ID
SJPF  000.60 050.3 m E Pg      2013/04/10 17:16:38.4   0.2                          T                                Md 2.1  5252565
SJPF  000.60 050.3 m E Sg      2013/04/10 17:16:46.2   0.2                          T               24.1  .28        Md 2.3  5252560
ETSF  000.97 079.6 m E Pg      2013/04/10 17:16:44.8  -0.2                          T                                        5252564
ETSF  000.97 079.6 m E Sg      2013/04/10 17:16:57.9   0.4                          T               10.5  .28 Ml 2.4         5252561
EPF   001.64 078.8 m E Pg      2013/04/10 17:16:57.9   0.6                          T                                        5252563
EPF   001.64 078.8 m E Sg      2013/04/10 17:17:19.6   1.0                          T                9.7  .35 Ml 2.5         5252562
MTLF  003.05 077.1 m E Pn      2013/04/10 17:17:14.3   0.3                          T                                        5254806
MTLF  003.05 077.1 m E Sn      2013/04/10 17:17:48.7  -0.3                          T                 .4  .19 Ml 1.8         5254805

.
EVENT     295742
    Date      Time       Latitude Longitude    Depth    Ndef Nsta Gap    Mag1  N    Mag2  N    Mag3  N   Author         ID
       rms   OT_Error      Smajor Sminor Az        Err   mdist  Mdist     Err        Err        Err      Quality

2013/04/10 19:45:47.4     42.7272   -1.7863      2.0      28    3 196  Ml 2.0  2  Md 2.0  1              bulletin    295842
                                                                                                         _ldg
      0.50   +-  0.26       4.0    2.3   92.80 +-  0.0    0.16   2.56   +-0.2      +-                    m i ke

PYRENEES
Sta     Dist  EvAz     Phase      Date       Time     TRes  Azim  AzRes  Slow  SRes Def   SNR       Amp   Per   Mag1   Mag2       ID
SJPF  000.56 046.7 m E Pg      2013/04/10 19:45:58.1  -0.1                          T                                        5252571
SJPF  000.56 046.7 m E Sg      2013/04/10 19:46:05.6   0.1                          T                6.0  .22        Md 2.0  5252570
ETSF  000.92 078.8 m E Pg      2013/04/10 19:46:04.9   0.2                          T                                        5252569
ETSF  000.92 078.8 m E Sg      2013/04/10 19:46:16.5  -0.1                          T                2.5  .23 Ml 1.8         5252568
EPF   001.59 078.3 m E Pg      2013/04/10 19:46:17.0   0.0                          T                                        5252567
EPF   001.59 078.3 m E Sg      2013/04/10 19:46:37.4  -0.2                          T                2.3  .23 Ml 2.1         5252566

.
EVENT     295756
    Date      Time       Latitude Longitude    Depth    Ndef Nsta Gap    Mag1  N    Mag2  N    Mag3  N   Author         ID
       rms   OT_Error      Smajor Sminor Az        Err   mdist  Mdist     Err        Err        Err      Quality

2013/04/10 20:15:05.2     50.2149    7.7103      7.0 f    26    7 058  Ml 1.9  4                         bulletin    295856
                                                                                                         _ldg
      0.34   +-  0.05       1.2     .9  173.14 +-  0.0    0.21   2.44   +-0.1                            m i ke

GERMANY
Sta     Dist  EvAz     Phase      Date       Time     TRes  Azim  AzRes  Slow  SRes Def   SNR       Amp   Per   Mag1   Mag2       ID
RUP   000.66 219.5 m E Pg      2013/04/10 20:15:17.1  -0.8                          T                                        5252919
RUP   000.66 219.5 m E Pn      2013/04/10 20:15:19.5  -0.1                          T                                        5252918
CDF   001.83 189.1 m E Pn      2013/04/10 20:15:35.3  -0.1                          T                                        5253468
CDF   001.83 189.1 m E P       2013/04/10 20:15:37.9   0.3                          T                                        5253466
CDF   001.83 189.1 m E Sn      2013/04/10 20:15:57.6   0.1                          T                 .8  .20 Ml 1.9         5253467
GIVF  001.86 267.6 m E Pn      2013/04/10 20:15:35.7  -0.1                          T                                        5253462
GIVF  001.86 267.6 m E Pg      2013/04/10 20:15:39.5  -0.3                          T                                        5253463
GIVF  001.86 267.6 m E Sn      2013/04/10 20:15:57.8  -0.3                          T                                        5253464
GIVF  001.86 267.6 m E Sg      2013/04/10 20:16:03.2  -0.6                          T                                        5253465
BAIF  002.26 267.4 m E Pn      2013/04/10 20:15:41.1  -0.1                          T                                        5253461
BAIF  002.26 267.4 m E Pg      2013/04/10 20:15:46.9  -0.3                          T                                        5253460
BAIF  002.26 267.4 m E Sn      2013/04/10 20:16:07.1  -0.6                          T                                        5253458
BAIF  002.26 267.4 m E Sg      2013/04/10 20:16:15.8  -0.4                          T                 .5  .16 Ml 1.8         5253459
HAU   002.39 202.6 m E Pn      2013/04/10 20:15:43.0   0.0                          T                                        5253454
HAU   002.39 202.6 m E Pg      2013/04/10 20:15:49.8   0.2                          T                                        5253453
HAU   002.39 202.6 m E Sg      2013/04/10 20:16:20.5   0.3                          T                1.8  .28 Ml 1.9         5253452
MEZF  002.44 226.4 m E Pn      2013/04/10 20:15:43.9   0.2                          T                                        5253457
MEZF  002.44 226.4 m E Pg      2013/04/10 20:15:50.6   0.1                          T                                        5253456
MEZF  002.44 226.4 m E Sg      2013/04/10 20:16:21.8  -0.1                          T                1.0  .24 Ml 1.9         5253455
LANF  001.24 177.1 m E Sg      2013/04/10 20:15:44.1  -0.3                          T                                        5252937

.
EVENT     295743
    Date      Time       Latitude Longitude    Depth    Ndef Nsta Gap    Mag1  N    Mag2  N    Mag3  N   Author         ID
       rms   OT_Error      Smajor Sminor Az        Err   mdist  Mdist     Err        Err        Err      Quality

2013/04/10 20:19:03.2     37.9933   -3.2580     10.0 f    92    3 045  Ml 3.4  3                         bulletin    295843
                                                                                                         _ldg
      1.30   +-  0.13       3.2    2.4  150.82 +-  0.0    0.24   5.73   +-0.2                            m i ke

SPAIN
Sta     Dist  EvAz     Phase      Date       Time     TRes  Azim  AzRes  Slow  SRes Def   SNR       Amp   Per   Mag1   Mag2       ID
ETSF  005.31 021.9 m E Pn      2013/04/10 20:20:20.9   0.3                          T                                        5252685
ETSF  005.31 021.9 m E Sg      2013/04/10 20:21:48.5  -1.2                          T               13.9  .65 Ml 3.3         5252686
SJPF  005.34 016.2 m E Pn      2013/04/10 20:20:21.5   0.6                          T                                        5252688
SJPF  005.34 016.2 m E Sg      2013/04/10 20:21:49.2  -1.3                          T               32.9  .74 Ml 3.6         5252687
EPF   005.73 027.4 m E Pn      2013/04/10 20:20:25.8  -0.4                          T                                        5252690
EPF   005.73 027.4 m E Sg      2013/04/10 20:22:00.3  -2.3                          T                8.9  .52 Ml 3.3         5252689

.
EVENT     295744
    Date      Time       Latitude Longitude    Depth    Ndef Nsta Gap    Mag1  N    Mag2  N    Mag3  N   Author         ID
       rms   OT_Error      Smajor Sminor Az        Err   mdist  Mdist     Err        Err        Err      Quality

2013/04/10 20:42:55.4     42.7478   -1.7138      2.0      51    4 086  Ml 2.2  3  Md 2.1  1              bulletin    295844
                                                                                                         _ldg
      0.54   +-  0.11       2.1    1.8  173.79 +-  0.0    0.10   4.27   +-0.1      +-                    m i ke

PYRENEES
Sta     Dist  EvAz     Phase      Date       Time     TRes  Azim  AzRes  Slow  SRes Def   SNR       Amp   Per   Mag1   Mag2       ID
SJPF  000.51 044.3 m E Pg      2013/04/10 20:43:05.5   0.3                          T                                        5252696
SJPF  000.51 044.3 m E Sg      2013/04/10 20:43:12.1   0.1                          T               34.7  .33        Md 2.1  5252695
ETSF  000.86 079.6 m E Pg      2013/04/10 20:43:12.1   0.3                          T                                        5252694
ETSF  000.86 079.6 m E Sg      2013/04/10 20:43:23.1   0.1                          T                9.3  .28 Ml 2.3         5252693
EPF   001.54 078.7 m E Pg      2013/04/10 20:43:24.4   0.3                          T                                        5252692
EPF   001.54 078.7 m E Sg      2013/04/10 20:43:44.7   0.7                          T                4.3  .24 Ml 2.3         5252691
LASF  004.27 070.0 m E Pn      2013/04/10 20:43:59.4   0.0                          T                                        5254935
LASF  004.27 070.0 m E Sn      2013/04/10 20:44:46.4  -0.5                          T                 .6  .24 Ml 2.1         5254934

.
