EVENT     262431
    Date      Time       Latitude Longitude    Depth    Ndef Nsta Gap    Mag1  N    Mag2  N    Mag3  N   Author         ID
       rms   OT_Error      Smajor Sminor Az        Err   mdist  Mdist     Err        Err        Err      Quality

2011/08/11 00:53:43.9     48.3434   -3.0217      2.0      54   20 159  Ml 2.6 17  Md 2.6  3              js067245    262431

      0.68   +-  0.09       1.7    1.5  173.06 +-  0.0    0.17   6.20   +-0.3      +-0.1                 m i ke

FRANCE
Sta     Dist  EvAz     Phase      Date       Time     TRes  Azim  AzRes  Slow  SRes Def   SNR       Amp   Per   Mag1   Mag2       ID
ROSF  000.17 267.7 m E Pg      2011/08/11 00:53:47.2  -0.1                          T                                        4735499
ROSF  000.17 267.7 m E Sg      2011/08/11 00:53:49.7   0.0                          T              378.2  .21        Md 2.6  4735492
SGMF  000.32 105.9 m E Pg      2011/08/11 00:53:49.9  -0.2                          T                                        4735498
SGMF  000.32 105.9 m E Sg      2011/08/11 00:53:54.1  -0.4                          T               53.1  .23        Md 2.5  4735491
QUIF  000.44 192.8 m E Pg      2011/08/11 00:53:52.0  -0.2                          T                                        4735497
QUIF  000.44 192.8 m E Sg      2011/08/11 00:53:57.7  -0.4                          T               30.4  .22        Md 2.7  4735490
GRR   001.44 087.4 m E Pn      2011/08/11 00:54:09.6   0.3                          T                                        4735494
GRR   001.44 087.4 m E Pg      2011/08/11 00:54:10.9   0.2                          T                                        4745386
GRR   001.44 087.4 m E Sg      2011/08/11 00:54:29.2  -0.2                          T               52.3  .19 Ml 3.3         4735487
FLN   001.74 075.1 m E Pn      2011/08/11 00:54:13.7   0.4 258.7  1.7               T                                        4735496
FLN   001.74 075.1 m E Pg      2011/08/11 00:54:15.9  -0.3 265.0  8.0               T                                        4745388
FLN   001.74 075.1 m E Sg      2011/08/11 00:54:38.0  -0.6 256.4  -0.6              T               42.5  .28 Ml 3.2         4735489
LDF   001.95 081.5 m E Pn      2011/08/11 00:54:16.6   0.5                          T                                        4735495
LDF   001.95 081.5 m E Pg      2011/08/11 00:54:19.4  -0.6                          T                                        4745387
LDF   001.95 081.5 m E Sg      2011/08/11 00:54:44.3  -0.9                          T               15.9  .28 Ml 2.9         4735488
MFF   002.62 130.7 m E Pn      2011/08/11 00:54:26.1   0.8                          T                                        4735493
MFF   002.62 130.7 m E Pg      2011/08/11 00:54:31.4  -1.0                          T                                        4745385
MFF   002.62 130.7 m E Sg      2011/08/11 00:55:05.7  -0.3                          T                3.3  .19 Ml 2.8         4735486
TCF   004.11 118.1 m E Pn      2011/08/11 00:54:45.6  -0.1                          T                                        4735479
TCF   004.11 118.1 m E Pg      2011/08/11 00:54:59.6  -0.3                          T                                        4735477
TCF   004.11 118.1 m E Sn      2011/08/11 00:55:32.2   0.7                          T                                        4738923
TCF   004.11 118.1 m E Sg      2011/08/11 00:55:53.3   0.6                          T                1.8  .45 Ml 2.3         4738922
LFF   004.28 141.3 m E Pn      2011/08/11 00:54:48.4   0.5                          T                                        4735475
LFF   004.28 141.3 m E Pg      2011/08/11 00:55:03.1   0.1                          T                                        4738917
LFF   004.28 141.3 m E Sg      2011/08/11 00:55:57.7  -0.2                          T                4.4  .41 Ml 2.6         4735484
RJF   004.35 132.6 m E Pn      2011/08/11 00:54:48.9   0.0                          T                                        4735504
RJF   004.35 132.6 m E Pg      2011/08/11 00:55:04.1  -0.3                          T                                        4735481
RJF   004.35 132.6 m E Sg      2011/08/11 00:56:00.8   0.6                          T                3.0  .39 Ml 2.3         4735485
BGF   004.36 112.0 m E Pn      2011/08/11 00:54:49.4   0.3                          T                                        4735476
BGF   004.36 112.0 m E Sn      2011/08/11 00:55:37.9   0.4                          T                                        4738916
SSF   004.59 103.8 m E Pn      2011/08/11 00:54:51.8  -0.3                          T                                        4735480
SSF   004.59 103.8 m E Sg      2011/08/11 00:56:08.2   0.5                          T                1.5  .24 Ml 2.7         4738921
AVF   004.59 107.4 m E Pn      2011/08/11 00:54:52.0  -0.1                          T                                        4738918
AVF   004.59 107.4 m E Sn      2011/08/11 00:55:43.0   0.2                          T                                        4738915
AVF   004.59 107.4 m E Sg      2011/08/11 00:56:07.2  -0.3                          T                 .8  .36 Ml 2.2         4738914
LOR   004.76 100.5 m E Pn      2011/08/11 00:54:54.5   0.0                          T                                        4738924
LOR   004.76 100.5 m E Sn      2011/08/11 00:55:47.1   0.1                          T                1.1  .22 Ml 2.5         4735478
CAF   004.89 132.4 m E Pn      2011/08/11 00:54:56.8   0.4                          T                                        4735474
CAF   004.89 132.4 m E Pg      2011/08/11 00:55:14.1  -0.3                          T                                        4735482
CAF   004.89 132.4 m E Sg      2011/08/11 00:56:16.8  -0.4                          T                1.5  .29 Ml 2.6         4735483
BAIF  005.04 067.4 m E Pn      2011/08/11 00:54:59.2   0.9                          T                                        4738920
BAIF  005.04 067.4 m E Sg      2011/08/11 00:56:21.0  -0.7                          T                2.5  .49 Ml 2.6         4738919
SJPF  005.38 165.8 m E Pn      2011/08/11 00:55:02.6  -0.3                          T                                        4735508
SJPF  005.38 165.8 m E Sn      2011/08/11 00:56:03.0   1.2                          T                 .3  .19 Ml 2.2         4735505
EPF   005.81 154.9 m E Pn      2011/08/11 00:55:08.5  -0.4                          T                                        4738909
EPF   005.81 154.9 m E Sn      2011/08/11 00:56:11.9  -0.3                          T                 .9  .19 Ml 2.7         4735506
MTLF  006.20 141.9 m E Pn      2011/08/11 00:55:14.1   0.0                          T                                        4735507
SFTF  005.38 088.5 m E Sn      2011/08/11 00:56:01.6  -0.3                          T                                        4738908
SFTF  005.38 088.5 m E Sg      2011/08/11 00:56:32.6   0.1                          T                2.2  .35 Ml 2.8         4738907

.
EVENT     262432
    Date      Time       Latitude Longitude    Depth    Ndef Nsta Gap    Mag1  N    Mag2  N    Mag3  N   Author         ID
       rms   OT_Error      Smajor Sminor Az        Err   mdist  Mdist     Err        Err        Err      Quality

2011/08/11 02:39:47.6     48.4067   -3.0918      7.0 f    17    7 197  Ml 2.1  5  Md 2.0  3              js067245    262432

      0.36   +-  0.08       1.4    1.1   14.54 +-  0.0    0.14   2.69   +-0.1      +-0.2                 m i ke

FRANCE
Sta     Dist  EvAz     Phase      Date       Time     TRes  Azim  AzRes  Slow  SRes Def   SNR       Amp   Per   Mag1   Mag2       ID
ROSF  000.14 239.9 m E Pg      2011/08/11 02:39:50.9   0.1                          T                                        4735520
ROSF  000.14 239.9 m E Sg      2011/08/11 02:39:53.1   0.1                          T                9.6  .21        Md 2.1  4735516
SGMF  000.39 112.9 m E Pg      2011/08/11 02:39:55.4   0.2                          T                                        4735519
SGMF  000.39 112.9 m E Sg      2011/08/11 02:39:59.9  -0.5                          T                4.1  .27        Md 1.8  4735511
QUIF  000.49 185.8 m E Pg      2011/08/11 02:39:56.9  -0.2                          T                                        4735518
QUIF  000.49 185.8 m E Sg      2011/08/11 02:40:03.0  -0.6                          T                6.4  .25        Md 2.1  4735515
GRR   001.49 089.9 m E Pg      2011/08/11 02:40:15.5   0.1                          T                                        4735517
GRR   001.49 089.9 m E Sg      2011/08/11 02:40:34.3  -0.3                          T                3.8  .19 Ml 2.2         4735512
FLN   001.77 077.4 m E Pg      2011/08/11 02:40:20.8   0.2                          T                                        4735510
FLN   001.77 077.4 m E Sg      2011/08/11 02:40:43.2  -0.2                          T                2.4  .18 Ml 2.1         4735514
LDF   001.98 083.5 m E Pg      2011/08/11 02:40:24.3  -0.3                          T                                        4735509
LDF   001.98 083.5 m E Sg      2011/08/11 02:40:49.9  -0.2                          T                2.6  .23 Ml 2.2         4735513
MFF   002.69 131.0 m E Pg      2011/08/11 02:40:38.0   0.4                          T                                        4738927
MFF   002.69 131.0 m E Sn      2011/08/11 02:41:00.3  -0.1                          T                 .6  .24 Ml 1.9         4738926
MFF   002.69 131.0 m E Sg      2011/08/11 02:41:11.6  -0.6                          T                1.1  .37 Ml 2.0         4738925

.
EVENT     262433
    Date      Time       Latitude Longitude    Depth    Ndef Nsta Gap    Mag1  N    Mag2  N    Mag3  N   Author         ID
       rms   OT_Error      Smajor Sminor Az        Err   mdist  Mdist     Err        Err        Err      Quality

2011/08/11 03:02:02.5     44.3809    6.9305      2.0      17    9 151  Ml 1.8  4  Md 1.6  1              js067245    262433

      0.26   +-  0.08       2.0    1.2   73.96 +-  0.0    0.36   1.68   +-0.4      +-                    m i ke

FRANCE
Sta     Dist  EvAz     Phase      Date       Time     TRes  Azim  AzRes  Slow  SRes Def   SNR       Amp   Per   Mag1   Mag2       ID
MBDF  000.36 341.9 m E Pg      2011/08/11 03:02:10.6   0.8                          T                                        4739952
MBDF  000.36 341.9 m E Sg      2011/08/11 03:02:14.4  -0.2                          T                2.2  .22        Md 1.6  4735528
SBF   000.63 144.7 m E Pg      2011/08/11 03:02:14.6   0.0                          T                                        4745389
SBF   000.63 144.7 m E Sg      2011/08/11 03:02:22.7  -0.2                          T                2.5  .19                4735526
FRF   000.85 194.1 m E Pg      2011/08/11 03:02:18.3  -0.1                          T                                        4735533
FRF   000.85 194.1 m E Sg      2011/08/11 03:02:28.4  -1.0                          T                2.6  .16                4735529
ORIF  000.92 306.0 m E Pg      2011/08/11 03:02:19.6  -0.3                          T                                        4735527
ORIF  000.92 306.0 m E Sg      2011/08/11 03:02:32.2   0.2                          T                1.8  .41 Ml 1.4         4738932
SMRF  001.06 247.9 m E Pg      2011/08/11 03:02:22.6   0.2                          T                                        4735534
SMRF  001.06 247.9 m E Sg      2011/08/11 03:02:36.1   0.1                          T                1.8  .18 Ml 1.8         4735531
LMR   001.09 196.4 m E Pg      2011/08/11 03:02:23.2   0.3                          T                                        4735532
LMR   001.09 196.4 m E Sg      2011/08/11 03:02:37.1   0.1                          T                5.1  .24 Ml 2.2         4735530
LPG   001.12 353.6 m E Pg      2011/08/11 03:02:24.1   0.2                          T                                        4745392
LPL   001.14 353.0 m E Pg      2011/08/11 03:02:24.2   0.0                          T                                        4745393
VIVF  001.68 287.2 m E Pn      2011/08/11 03:02:31.3   0.0                          T                                        4745391
VIVF  001.68 287.2 m E Sg      2011/08/11 03:02:55.6   0.1                          T                 .6  .23 Ml 1.5         4745390

.
EVENT     262435
    Date      Time       Latitude Longitude    Depth    Ndef Nsta Gap    Mag1  N    Mag2  N    Mag3  N   Author         ID
       rms   OT_Error      Smajor Sminor Az        Err   mdist  Mdist     Err        Err        Err      Quality

2011/08/11 06:44:27.9     48.9439    5.6047       .0 f    12    7 255  Ml 2.0  2  Md 2.0  2              js067245    262435

      0.34   +-  0.26       4.4    1.8  158.46 +-  0.0    0.40   1.40   +-0.0      +-0.1                 m i km

FRANCE
Sta     Dist  EvAz     Phase      Date       Time     TRes  Azim  AzRes  Slow  SRes Def   SNR       Amp   Per   Mag1   Mag2       ID
PAGF  000.40 168.4 m E Pg      2011/08/11 06:44:35.6  -0.2 347.5  -1.0              T                                        4740127
PAGF  000.40 168.4 m E Sg      2011/08/11 06:44:41.0  -0.3                          T              182.3  .86        Md 2.1  4740126
THEF  000.76 160.0 m E Pg      2011/08/11 06:44:42.8   0.2                          T                                        4740125
THEF  000.76 160.0 m E Sn      2011/08/11 06:44:56.4   0.2                          T               42.2  .79        Md 1.9  4740120
SFTF  000.83 207.2 m E Pg      2011/08/11 06:44:43.7  -0.1                          T                                        4745394
SFTF  000.83 207.2 m E Sn      2011/08/11 06:44:58.0   0.1  30.0  3.2               T              314.6 1.83                4745395
HAU   001.06 151.9 m E Pn      2011/08/11 06:44:48.8   0.1                          T                                        4740119
HAU   001.06 151.9 m E Sg      2011/08/11 06:45:01.9  -0.2                          T                9.6  .40 Ml 2.0         4740123
CDF   001.23 115.0 m E Pg      2011/08/11 06:44:50.9  -0.4                          T                                        4740124
HINF  001.40 143.1 m E Pg      2011/08/11 06:44:54.7   0.3                          T                                        4740121
HINF  001.40 143.1 m E Sn      2011/08/11 06:45:11.6   0.1                          T                2.4  .25 Ml 2.0         4740122
MEZF  000.57 219.8 m E Sn      2011/08/11 06:44:59.2   0.2                          T               82.3  .79                4745396

.
EVENT     262459
    Date      Time       Latitude Longitude    Depth    Ndef Nsta Gap    Mag1  N    Mag2  N    Mag3  N   Author         ID
       rms   OT_Error      Smajor Sminor Az        Err   mdist  Mdist     Err        Err        Err      Quality

2011/08/11 11:57:04.1     37.5655   -9.2763     28.0 f    58    5 222  Ml 3.1  3                         js067245    262459

      0.90   +-  0.34       6.9    3.9   53.70 +-  0.0    0.44  11.29   +-0.2                            m i ke

PORTUGAL
Sta     Dist  EvAz     Phase      Date       Time     TRes  Azim  AzRes  Slow  SRes Def   SNR       Amp   Per   Mag1   Mag2       ID
SJPF  008.27 045.5 m E Pn      2011/08/11 11:59:00.8   0.9                          T                                        4735581
SJPF  008.27 045.5 m E Sn      2011/08/11 12:00:26.8  -0.2                          T                 .8  .32 Ml 2.9         4745399
ETSF  008.53 048.7 m E Pn      2011/08/11 11:59:04.1   0.6                          T                                        4735580
ETSF  008.53 048.7 m E Sn      2011/08/11 12:00:33.6   0.5                          T                 .9  .25 Ml 3.0         4745398
EPF   009.15 050.4 m E Pn      2011/08/11 11:59:13.5   1.5                          T                                        4735579
EPF   009.15 050.4 m E Sn      2011/08/11 12:00:48.0   0.1                          T                1.3  .24 Ml 3.3         4745397
LFF   010.54 042.5 m E Pn      2011/08/11 11:59:31.2   0.5                          T                                        4740538
MFF   011.29 034.0 m E Pn      2011/08/11 11:59:40.9   0.0                          T                                        4740539

.
EVENT     262460
    Date      Time       Latitude Longitude    Depth    Ndef Nsta Gap    Mag1  N    Mag2  N    Mag3  N   Author         ID
       rms   OT_Error      Smajor Sminor Az        Err   mdist  Mdist     Err        Err        Err      Quality

2011/08/11 12:18:50.2     47.6320    6.2355       .0 f    15    9 119  Ml 2.2  6  Md 2.1  3              js067245    262460

      1.85   +-  0.14       3.1    2.2  134.47 +-  0.0    0.38   1.91   +-0.2      +-0.1                 m i km

FRANCE
Sta     Dist  EvAz     Phase      Date       Time     TRes  Azim  AzRes  Slow  SRes Def   SNR       Amp   Per   Mag1   Mag2       ID
HAU   000.38 011.4 m E Pg      2011/08/11 12:18:57.5  -0.3                          T                                        4735585
HAU   000.38 011.4 m E Sg      2011/08/11 12:19:02.8  -0.3                          T               58.2  .78        Md 2.1  4735582
HINF  000.46 065.9 m E Pg      2011/08/11 12:18:59.3   0.2                          T                                        4735588
HINF  000.46 065.9 m E Sg      2011/08/11 12:19:05.2  -0.2                          T               59.4  .88        Md 2.1  4735586
THEF  000.62 344.9 m E Pg      2011/08/11 12:19:02.1   0.0                          T                                        4740543
THEF  000.62 344.9 m E Sg      2011/08/11 12:19:10.5   0.1                          T                4.4  .16        Md 2.2  4740541
CDF   001.05 041.4 m E Pg      2011/08/11 12:19:10.2   0.0                          T                                        4735584
CDF   001.05 041.4 m E Sn      2011/08/11 12:19:25.5   0.2                          T                7.2  .30 Ml 2.3         4740540
CABF  001.03 185.7 m E Pn      2011/08/11 12:19:10.4   0.0                          T                                        4735589
CABF  001.03 185.7 m E Sn      2011/08/11 12:19:24.8  -0.1                          T               17.9  .66 Ml 2.3         4735587
LOR   001.65 258.2 m E Pg      2011/08/11 12:19:21.4   0.2  78.0  1.6               T                                        4745402
LOR   001.65 258.2 m E Sg      2011/08/11 12:19:42.9   0.1  79.0  2.6               T                5.7  .30 Ml 2.4         4745403
PAGF  000.99 339.9 m E Sg      2011/08/11 12:19:21.9   0.0 164.3  4.8               T                5.0  .60 Ml 1.7         4745401
SFTF  000.99 305.9 m E Sg      2011/08/11 12:19:22.1   0.1 151.5  26.5              T                5.2  .21 Ml 2.2         4745400
SMF   001.91 239.8 m E Sg      2011/08/11 12:19:50.6  -0.2                          T                2.4  .28 Ml 2.1         4740542

.
