EVENT     285915
    Date      Time       Latitude Longitude    Depth    Ndef Nsta Gap    Mag1  N    Mag2  N    Mag3  N   Author         ID
       rms   OT_Error      Smajor Sminor Az        Err   mdist  Mdist     Err        Err        Err      Quality

2012/10/28 11:38:17.1     46.0149   -2.6414      5.0 f    54   19 189  Ml 2.6 23  Md 3.5  2              bulletin    286015
                                                                                                         _ldg
      0.67   +-  0.10       2.0    1.1   61.89 +-  0.0    1.83   4.65   +-0.2      +-0.6                 m i ke

BAY OF BISCAY
Sta     Dist  EvAz     Phase      Date       Time     TRes  Azim  AzRes  Slow  SRes Def   SNR       Amp   Per   Mag1   Mag2       ID
MFF   001.83 070.3 m E Pn      2012/10/28 11:38:47.5   0.1                          T   001.0                                5105264
MFF   001.83 070.3 m E Pg      2012/10/28 11:38:51.9   0.8                          T                                        5105291
MFF   001.83 070.3 m E Sg      2012/10/28 11:39:13.9  -0.8                          T   001.0        4.4  .23 Ml 2.6 Md 3.0  5105265
QUIF  001.94 349.5 m E Pn      2012/10/28 11:38:49.0   0.1                          T                                        5105292
QUIF  001.94 349.5 m E Pg      2012/10/28 11:38:52.7  -0.3                          T                                        5105293
QUIF  001.94 349.5 m E Sn      2012/10/28 11:39:11.9  -0.3                          T   001.0                                5105269
QUIF  001.94 349.5 m E Sg      2012/10/28 11:39:17.7  -0.4                          T   001.0       10.5  .22 Ml 2.9         5105270
SGMF  002.24 001.4 m E Pn      2012/10/28 11:38:52.8  -0.3                          T   001.0                                5105274
SGMF  002.24 001.4 m E Pg      2012/10/28 11:38:57.8  -0.9                          T   001.0                                5105275
SGMF  002.24 001.4 m E Sg      2012/10/28 11:39:26.9  -0.7                          T   001.0        3.7  .20 Ml 2.5         5105276
GRR   002.67 026.5 m E Pn      2012/10/28 11:38:58.8  -0.1                          T   001.0                                5105285
GRR   002.67 026.5 m E Pg      2012/10/28 11:39:06.2  -0.4                          T   001.0                                5105286
GRR   002.67 026.5 m E Sn      2012/10/28 11:39:29.9   0.2                          T   001.0                                5105287
GRR   002.67 026.5 m E Sg      2012/10/28 11:39:40.6  -0.3                          T                3.7  .20 Ml 2.5         5117181
ROSF  002.36 349.7 m E Pg      2012/10/28 11:39:01.4   0.4                          T   001.0                                5105271
ROSF  002.36 349.7 m E Sn      2012/10/28 11:39:21.7  -0.6                          T   001.0                                5105272
ROSF  002.36 349.7 m E Sg      2012/10/28 11:39:31.0  -0.4                          T   001.0        7.4  .26 Ml 2.7         5105273
SJPF  003.07 160.3 m E Pn      2012/10/28 11:39:04.5   0.1                          T                                        5117174
SJPF  003.07 160.3 m E Pg      2012/10/28 11:39:14.2   0.2                          T                                        5117175
SJPF  003.07 160.3 m E Sg      2012/10/28 11:39:53.8   0.3                          T                3.7  .40 Ml 2.4         5117173
FLN   003.12 027.3 m E Pn      2012/10/28 11:39:05.3   0.3 210.2  1.3               T   001.0                                5105281
FLN   003.12 027.3 m E Sn      2012/10/28 11:39:40.2  -0.2                          T   001.0                                5105282
FLN   003.12 027.3 m E Sg      2012/10/28 11:39:54.4  -0.4 209.6  0.7               T   001.0        6.6  .34 Ml 2.6         5105283
LFF   002.61 113.1 m E Pg      2012/10/28 11:39:05.9   0.4                          T   001.0                                5105261
LDF   003.10 032.7 m E Pn      2012/10/28 11:39:05.9   1.2                          T   001.0                                5105288
LFF   002.61 113.1 m E Sg      2012/10/28 11:39:39.2   0.1                          T   001.0       13.9  .34 Ml 2.8         5105262
LDF   003.10 032.7 m E Sn      2012/10/28 11:39:39.9  -0.1                          T   001.0                                5105289
LDF   003.10 032.7 m E Sg      2012/10/28 11:39:53.6  -0.7                          T   001.0        6.1  .28 Ml 2.8         5105290
TCF   003.38 083.6 m E Pn      2012/10/28 11:39:09.0   0.3                          T                                        5105302
TCF   003.38 083.6 m E Pg      2012/10/28 11:39:19.6  -0.2                          T                                        5105301
TCF   003.38 083.6 m E Sn      2012/10/28 11:39:46.3  -0.5                          T                1.7  .29 Ml 2.3         5105300
TCF   003.38 083.6 m E Sg      2012/10/28 11:40:02.9  -0.4                          T                5.4  .32 Ml 2.8         5117187
RJF   003.00 102.2 m E Pg      2012/10/28 11:39:12.5  -0.2                          T   001.0                                5105277
RJF   003.00 102.2 m E Sg      2012/10/28 11:39:50.6  -0.7                          T   001.0        5.9  .27 Ml 2.4         5105278
AVF   004.22 077.3 m E Pn      2012/10/28 11:39:19.9  -0.1                          T   001.0                                5105279
AVF   004.22 077.3 m E Sn      2012/10/28 11:40:06.4  -0.3                          T   001.0        4.5  .84 Ml 2.4         5105280
ETSF  003.45 153.7 m E Pg      2012/10/28 11:39:21.0  -0.1                          T                                        5117176
SSF   004.37 073.9 m E Pn      2012/10/28 11:39:21.9  -0.2                          T   001.0                                5105266
SSF   004.37 073.9 m E Sn      2012/10/28 11:40:10.0  -0.3                          T   001.0        2.4  .32 Ml 2.7         5105267
EPF   003.67 143.4 m E Pg      2012/10/28 11:39:24.2  -0.8                          T                                        5117177
EPF   003.67 143.4 m E Sg      2012/10/28 11:40:12.0  -0.2                          T                3.2  .39 Ml 2.5         5117179
CAF   003.49 106.5 m E Sn      2012/10/28 11:39:48.8  -0.5                          T                                        5117172
CAF   003.49 106.5 m E Sg      2012/10/28 11:40:06.2  -0.3                          T                5.0  .30 Ml 2.7         5117180
MTLF  004.38 125.9 m E Sn      2012/10/28 11:40:10.0  -0.6                          T                 .6  .18 Ml 2.2         5117178
LOR   004.65 072.0 m E Sn      2012/10/28 11:40:16.6  -0.5                          T   001.0        1.9  .34 Ml 2.6         5105263
BGF   003.84 079.9 m E Sg      2012/10/28 11:40:17.7   0.1                          T                9.2  .39 Ml 3.0         5117182

.
EVENT     285916
    Date      Time       Latitude Longitude    Depth    Ndef Nsta Gap    Mag1  N    Mag2  N    Mag3  N   Author         ID
       rms   OT_Error      Smajor Sminor Az        Err   mdist  Mdist     Err        Err        Err      Quality

2012/10/28 12:12:10.8     45.7498    3.0087     23.0 f    16    8 186  Ml 1.7  6  Md 1.7  3              bulletin    286016
                                                                                                         _ldg
      0.48   +-  0.19       4.9    2.2  123.61 +-  0.0    0.40   1.63   +-0.3      +-0.1                 m i ke

FRANCE
Sta     Dist  EvAz     Phase      Date       Time     TRes  Azim  AzRes  Slow  SRes Def   SNR       Amp   Per   Mag1   Mag2       ID
TCF   000.77 314.3 m E Pg      2012/10/28 12:12:26.4   0.5                          T                                        5105307
TCF   000.77 314.3 m E Sg      2012/10/28 12:12:36.0  -0.4                          T                2.4  .20        Md 1.7  5105304
BGF   000.82 352.1 m E Pg      2012/10/28 12:12:27.0   0.3                          T                                        5117190
BGF   000.82 352.1 m E Sg      2012/10/28 12:12:36.9  -0.7                          T                2.7  .21        Md 1.8  5117191
CAF   001.06 219.3 m E Pn      2012/10/28 12:12:28.4  -0.3                          T                                        5117202
CAF   001.06 219.3 m E Sg      2012/10/28 12:12:44.4  -0.6                          T                2.1  .21 Ml 1.8         5117195
AVF   001.07 012.8 m E Pn      2012/10/28 12:12:28.7  -0.1                          T                                        5105306
AVF   001.07 012.8 m E Pg      2012/10/28 12:12:31.4   0.2                          T                                        5117196
AVF   001.07 012.8 m E Sg      2012/10/28 12:12:44.1  -1.1                          T                2.9  .27 Ml 1.9         5105305
SMF   001.07 032.5 m E Pn      2012/10/28 12:12:29.1   0.3                          T                                        5117197
SMF   001.07 032.5 m E Sg      2012/10/28 12:12:45.7   0.5                          T                3.0  .30 Ml 1.8         5105303
RJF   001.14 247.5 m E Pg      2012/10/28 12:12:32.4  -0.1                          T                                        5117200
RJF   001.14 247.5 m E Sg      2012/10/28 12:12:47.7   0.3                          T                1.1  .24 Ml 1.2         5117201
SSF   001.36 014.5 m E Pg      2012/10/28 12:12:36.0  -0.4                          T                                        5117193
SSF   001.36 014.5 m E Sg      2012/10/28 12:12:54.0  -0.2                          T                1.8  .28 Ml 1.9         5117194
LOR   001.63 020.8 m E Sg      2012/10/28 12:13:01.9  -0.6                          T                1.2  .28 Ml 1.7         5117192

.
EVENT     285974
    Date      Time       Latitude Longitude    Depth    Ndef Nsta Gap    Mag1  N    Mag2  N    Mag3  N   Author         ID
       rms   OT_Error      Smajor Sminor Az        Err   mdist  Mdist     Err        Err        Err      Quality

2012/10/28 20:05:51.5     49.1825    8.0654      2.0      10    5 083  Ml 1.5  5                         bulletin    286074
                                                                                                         _ldg
      0.23   +-  0.08       2.4    1.3  120.00 +-  0.0    0.14   2.66   +-0.2                            m i ke

GERMANY
Sta     Dist  EvAz     Phase      Date       Time     TRes  Azim  AzRes  Slow  SRes Def   SNR       Amp   Per   Mag1   Mag2       ID
CDF   000.93 214.4 m E Pg      2012/10/28 20:06:08.7  -0.4                          T                                        5105715
CDF   000.93 214.4 m E Sg      2012/10/28 20:06:21.3   0.1                          T                 .7  .20 Ml 1.4         5105714
HINF  001.59 211.0 m E Pn      2012/10/28 20:06:19.1   0.1                          T                                        5105723
HINF  001.59 211.0 m E Sn      2012/10/28 20:06:39.0   0.2                          T                 .5  .15 Ml 1.6         5105722
PAGF  001.67 248.8 m E Pn      2012/10/28 20:06:20.2   0.2                          T                                        5105721
PAGF  001.67 248.8 m E Sn      2012/10/28 20:06:41.0   0.3                          T                 .7  .31 Ml 1.4         5105720
MEZF  002.10 252.2 m E Pn      2012/10/28 20:06:26.2   0.2                          T                                        5105719
MEZF  002.10 252.2 m E Sn      2012/10/28 20:06:51.3   0.2                          T                1.2  .37 Ml 1.8         5105718
BAIF  002.66 290.7 m E Pn      2012/10/28 20:06:33.2  -0.2                          T                                        5105717
BAIF  002.66 290.7 m E Sn      2012/10/28 20:07:04.3  -0.1                          T                 .1  .18 Ml 1.1         5105716

.
EVENT     285918
    Date      Time       Latitude Longitude    Depth    Ndef Nsta Gap    Mag1  N    Mag2  N    Mag3  N   Author         ID
       rms   OT_Error      Smajor Sminor Az        Err   mdist  Mdist     Err        Err        Err      Quality

2012/10/28 20:43:44.0     36.7291   -4.4609     85.0 f    89    8 083  Ml 3.2  5                         bulletin    286018
                                                                                                         _ldg
      1.57   +-  0.23       5.7    3.6  161.92 +-  0.0    0.86  11.63   +-0.3                            m i ke

STRAIT OF GIBRALTAR
Sta     Dist  EvAz     Phase      Date       Time     TRes  Azim  AzRes  Slow  SRes Def   SNR       Amp   Per   Mag1   Mag2       ID
ETSF  006.85 024.8 m E P       2012/10/28 20:45:24.4   0.5                          T                                        5117211
ETSF  006.85 024.8 m E Sn      2012/10/28 20:46:34.3  -0.1                          T                 .5  .16 Ml 2.8         5105315
SJPF  006.84 020.3 m E P       2012/10/28 20:45:24.6   0.8                          T                                        5117212
SJPF  006.84 020.3 m E Sn      2012/10/28 20:46:34.3   0.2                          T                2.3  .22 Ml 3.2         5105316
EPF   007.29 028.9 m E P       2012/10/28 20:45:29.6  -0.3                          T                                        5117210
EPF   007.29 028.9 m E Sn      2012/10/28 20:46:45.1   0.3                          T                3.0  .19 Ml 3.5         5105314
CAF   009.56 029.1 m E P       2012/10/28 20:46:00.2  -0.5                          T                                        5117209
CAF   009.56 029.1 m E Sn      2012/10/28 20:47:38.2  -0.3                          T                1.5  .31 Ml 3.3         5117208
QUIF  011.22 004.5 m E P       2012/10/28 20:46:23.2   0.2                          T                                        5117213
SGMF  011.60 006.3 m E P       2012/10/28 20:46:28.3   0.2                          T                                        5117214
ROSF  011.63 003.9 m E P       2012/10/28 20:46:28.4  -0.1                          T                                        5117215
LFF   009.10 024.0 m E Sn      2012/10/28 20:47:27.1  -0.4                          T                3.2  .37 Ml 3.3         5117207

.
EVENT     286214
    Date      Time       Latitude Longitude    Depth    Ndef Nsta Gap    Mag1  N    Mag2  N    Mag3  N   Author         ID
       rms   OT_Error      Smajor Sminor Az        Err   mdist  Mdist     Err        Err        Err      Quality

2012/10/28 21:31:50.7     48.4282    9.0047     10.0      23    5 083  Ml 1.7  5  Md 1.8  1              bulletin    286314
                                                                                                         _ldg
      0.44   +-  0.07       1.6    1.1  151.81 +-  0.0    0.11   2.66   +-0.1      +-                    m i ke

GERMANY
Sta     Dist  EvAz     Phase      Date       Time     TRes  Azim  AzRes  Slow  SRes Def   SNR       Amp   Per   Mag1   Mag2       ID
CDF   001.15 269.8 m E Pn      2012/10/28 21:32:11.3  -0.1                          T                                        5109087
CDF   001.15 269.8 m E Pg      2012/10/28 21:32:12.3  -0.1                          T                                        5109086
CDF   001.15 269.8 m E Sn      2012/10/28 21:32:26.2  -0.1                          T                                        5109085
CDF   001.15 269.8 m E Sg      2012/10/28 21:32:27.6   0.2                          T                1.0  .17 Ml 1.8 Md 1.8  5109088
HINF  001.57 247.8 m E Pn      2012/10/28 21:32:16.9   0.0                          T                                        5109084
HINF  001.57 247.8 m E Pg      2012/10/28 21:32:19.9  -0.1                          T                                        5109083
HINF  001.57 247.8 m E Sn      2012/10/28 21:32:35.9  -0.2                          T                                        5109082
HINF  001.57 247.8 m E Sg      2012/10/28 21:32:40.3   0.1                          T                 .6  .18 Ml 1.6         5109081
PAGF  002.19 274.6 m E Pn      2012/10/28 21:32:25.3   0.0                          T                                        5109080
PAGF  002.19 274.6 m E Sn      2012/10/28 21:32:50.7  -0.2                          T                 .6  .18 Ml 1.8         5109079
MEZF  002.63 273.1 m E Pn      2012/10/28 21:32:31.4  -0.1                          T                                        5109078
MEZF  002.63 273.1 m E Sn      2012/10/28 21:33:01.4  -0.1                          T                 .3  .17 Ml 1.6         5109075
SFTF  002.66 266.7 m E Pn      2012/10/28 21:32:31.8   0.0                          T                                        5109077
SFTF  002.66 266.7 m E Sn      2012/10/28 21:33:02.1  -0.1                          T                 .2  .14 Ml 1.6         5109076

.
EVENT     285919
    Date      Time       Latitude Longitude    Depth    Ndef Nsta Gap    Mag1  N    Mag2  N    Mag3  N   Author         ID
       rms   OT_Error      Smajor Sminor Az        Err   mdist  Mdist     Err        Err        Err      Quality

2012/10/28 22:47:11.8     44.0134    7.5751      2.0      13    5 129  Ml 1.9  3  Md 2.0  3              bulletin    286019
                                                                                                         _ldg
      0.34   +-  0.14       3.0    2.2   95.40 +-  0.0    0.03   1.44   +-0.3      +-0.1                 m i ke

NORTHERN ITALY
Sta     Dist  EvAz     Phase      Date       Time     TRes  Azim  AzRes  Slow  SRes Def   SNR       Amp   Per   Mag1   Mag2       ID
SBF   000.18 214.0 m E Pg      2012/10/28 22:47:14.6  -1.0                          T                                        5105340
SBF   000.18 214.0 m E Sg      2012/10/28 22:47:17.5  -0.6                          T               22.4  .22        Md 2.0  5105339
FRF   000.81 236.4 m E Pg      2012/10/28 22:47:27.3   0.2                          T                                        5105336
FRF   000.81 236.4 m E Sg      2012/10/28 22:47:38.1   0.5                          T                3.1  .22        Md 2.1  5105335
MBDF  000.92 321.3 m E Pg      2012/10/28 22:47:28.6  -0.6                          T                                        5105350
MBDF  000.92 321.3 m E Sg      2012/10/28 22:47:40.9  -0.3                          T                2.1  .29 Ml 1.6         5105349
LMR   001.03 229.1 m E Pg      2012/10/28 22:47:31.0  -0.2                          T                                        5105338
LMR   001.03 229.1 m E Sg      2012/10/28 22:47:44.5   0.0                          T                6.7  .27 Ml 2.2 Md 1.9  5105337
SMRF  001.44 269.2 m E Pn      2012/10/28 22:47:37.6   0.2                          T                                        5105352
SMRF  001.44 269.2 m E Sn      2012/10/28 22:47:56.1   0.4                          T                1.9  .23 Ml 1.9         5105351

.
