EVENT     256106
    Date      Time       Latitude Longitude    Depth    Ndef Nsta Gap    Mag1  N    Mag2  N    Mag3  N   Author         ID
       rms   OT_Error      Smajor Sminor Az        Err   mdist  Mdist     Err        Err        Err      Quality

2011/02/17 15:03:22.9     46.6800    1.1303      3.0 f   113   36 053  Ml 3.0 39  Md 2.9  3              js067245    256126

      0.73   +-  0.05       1.0     .9   15.51 +-  0.0    0.84   4.51   +-0.3      +-0.0                 m i ke

FRANCE
Sta     Dist  EvAz     Phase      Date       Time     TRes  Azim  AzRes  Slow  SRes Def   SNR       Amp   Per   Mag1   Mag2       ID
TCF   000.84 117.3 m E Pg      2011/02/17 15:03:39.1   0.3                          T                                        4650888
TCF   000.84 117.3 m E Sg      2011/02/17 15:03:49.5  -0.3                          T              134.6  .20        Md 2.8  4650885
MFF   000.88 265.4 m E Pg      2011/02/17 15:03:39.3  -0.1                          T                                        4650896
MFF   000.88 265.4 m E Sg      2011/02/17 15:03:50.8  -0.1                          T               39.7  .20 Ml 3.2 Md 2.9  4650900
MFF   000.88 265.4 m E Sn      2011/02/17 15:03:53.1   0.0                          T                                        4654236
BGF   001.19 095.3 m E Pg      2011/02/17 15:03:45.5   0.4                          T                                        4650893
BGF   001.19 095.3 m E Sg      2011/02/17 15:04:00.5   0.0                          T               68.1  .17 Ml 3.5         4650884
HYF   001.19 059.8 m E Pg      2011/02/17 15:03:46.0   0.9                          T                                        4650891
HYF   001.19 059.8 m E Sg      2011/02/17 15:04:00.3  -0.2                          T                                Md 2.9  4650882
RJF   001.40 168.8 m E Pn      2011/02/17 15:03:47.8   0.2                          T                                        4650965
RJF   001.40 168.8 m E Pg      2011/02/17 15:03:49.1   0.0                          T                                        4650895
RJF   001.40 168.8 m E Sn      2011/02/17 15:04:05.3  -0.3                          T                                        4654235
RJF   001.40 168.8 m E Sg      2011/02/17 15:04:07.2   0.0                          T              112.6  .34 Ml 3.2         4650899
AVF   001.53 085.1 m E Pn      2011/02/17 15:03:50.0   0.6                          T                                        4650889
AVF   001.53 085.1 m E Pg      2011/02/17 15:03:51.7   0.3                          T                                        4654244
AVF   001.53 085.1 m E Sn      2011/02/17 15:04:08.5  -0.1                          T                                        4654245
AVF   001.53 085.1 m E Sg      2011/02/17 15:04:10.8  -0.4                          T               29.1  .32 Ml 3.0         4650881
SSF   001.67 076.0 m E Pn      2011/02/17 15:03:52.1   0.7                          T                                        4650973
SSF   001.67 076.0 m E Pg      2011/02/17 15:03:53.8  -0.2                          T                                        4650887
SSF   001.67 076.0 m E Sn      2011/02/17 15:04:11.8  -0.3                          T                                        4654241
SSF   001.67 076.0 m E Sg      2011/02/17 15:04:15.4  -0.2                          T               14.5  .20 Ml 3.1         4650941
LFF   001.76 189.0 m E Pn      2011/02/17 15:03:52.4  -0.2                          T                                        4650966
LFF   001.76 189.0 m E Pg      2011/02/17 15:03:55.6   0.0                          T                                        4650979
LFF   001.76 189.0 m E Sg      2011/02/17 15:04:18.3   0.0                          T               85.5  .28 Ml 3.5         4650898
CAF   001.87 159.2 m E Pn      2011/02/17 15:03:54.2   0.1                          T                                        4654234
CAF   001.87 159.2 m E Pg      2011/02/17 15:03:57.5  -0.2                          T                                        4650894
CAF   001.87 159.2 m E Sn      2011/02/17 15:04:16.4  -0.4                          T                                        4654233
CAF   001.87 159.2 m E Sg      2011/02/17 15:04:21.9   0.0                          T               26.2  .20 Ml 3.3         4650897
SMF   001.87 090.1 m E Pn      2011/02/17 15:03:54.9   0.9                          T                                        4650972
SMF   001.87 090.1 m E Pg      2011/02/17 15:03:57.0  -0.6                          T                                        4650890
SMF   001.87 090.1 m E Sn      2011/02/17 15:04:16.1  -0.6                          T                                        4654243
SMF   001.87 090.1 m E Sg      2011/02/17 15:04:21.5  -0.2                          T               12.2  .16 Ml 3.1         4650901
LOR   001.96 071.5 m E Pn      2011/02/17 15:03:55.4   0.2 247.4  -6.1              T                                        4650974
LOR   001.96 071.5 m E Pg      2011/02/17 15:03:58.6  -0.7 252.4  -1.1              T                                        4650886
LOR   001.96 071.5 m E Sn      2011/02/17 15:04:18.8  -0.1                          T                                        4654242
LOR   001.96 071.5 m E Sg      2011/02/17 15:04:24.6   0.1 242.2  -11.3             T               58.2  .50 Ml 3.3         4650942
LDF   002.09 336.6 m E Pn      2011/02/17 15:03:58.1   1.1                          T                                        4650970
LDF   002.09 336.6 m E Pg      2011/02/17 15:04:01.6  -0.2                          T                                        4650977
LDF   002.09 336.6 m E Sg      2011/02/17 15:04:28.3  -0.4                          T               12.7  .20 Ml 3.0         4650947
GRR   002.18 322.5 m E P       2011/02/17 15:04:00.4  -0.2                          T                                        4650964
GRR   002.18 322.5 m E Pg      2011/02/17 15:04:02.8  -0.4                          T                                        4650978
GRR   002.18 322.5 m E Sg      2011/02/17 15:04:31.0  -0.3                          T               16.5  .20 Ml 3.0         4650948
FLN   002.35 333.0 m E Pn      2011/02/17 15:04:00.5   0.0                          T                                        4650971
FLN   002.35 333.0 m E Pg      2011/02/17 15:04:06.2  -0.2 153.7  1.9               T                                        4650976
FLN   002.35 333.0 m E Sg      2011/02/17 15:04:36.3  -0.4 156.8  5.0               T               16.9  .26 Ml 2.9         4650946
SGMF  002.96 303.5 m E Pn      2011/02/17 15:04:09.3   0.5                          T                                        4650969
SGMF  002.96 303.5 m E Pg      2011/02/17 15:04:17.4  -0.2                          T                                        4650975
SGMF  002.96 303.5 m E Sn      2011/02/17 15:04:42.2  -0.4                          T                                        4654238
SGMF  002.96 303.5 m E Sg      2011/02/17 15:04:55.5  -0.1                          T               13.0  .55 Ml 2.8         4650944
VIVF  003.08 125.1 m E Pn      2011/02/17 15:04:09.7  -0.8                          T                                        4650956
VIVF  003.08 125.1 m E Pg      2011/02/17 15:04:19.8  -0.2                          T                                        4650963
VIVF  003.08 125.1 m E Sn      2011/02/17 15:04:45.2  -0.5                          T                                        4654230
VIVF  003.08 125.1 m E Sg      2011/02/17 15:04:59.0  -0.5                          T               18.6  .44 Ml 3.1         4650953
SFTF  003.06 058.7 m E Pn      2011/02/17 15:04:10.8   0.6                          T                                        4650938
SFTF  003.06 058.7 m E Sg      2011/02/17 15:04:58.5  -0.4 241.3  -0.2              T               11.6  .35 Ml 3.0         4650920
LASF  003.24 142.6 m E Pn      2011/02/17 15:04:12.4  -0.3                          T                                        4650957
LASF  003.24 142.6 m E Pg      2011/02/17 15:04:22.7  -0.2                          T                                        4650962
LASF  003.24 142.6 m E Sg      2011/02/17 15:05:04.3  -0.1                          T                7.8  .35 Ml 2.8         4650952
MEZF  003.22 054.1 m E Pn      2011/02/17 15:04:12.7   0.3                          T                                        4650939
MEZF  003.22 054.1 m E Sg      2011/02/17 15:05:03.4  -0.4                          T               12.1  .30 Ml 3.1         4650919
QUIF  003.17 294.5 m E Pn      2011/02/17 15:04:12.8   1.0                          T                                        4650967
QUIF  003.17 294.5 m E Sg      2011/02/17 15:05:02.0  -0.4                          T                7.5  .25 Ml 2.9         4650945
MTLF  003.43 166.6 m E Pn      2011/02/17 15:04:15.0  -0.2                          T                                        4650958
MTLF  003.43 166.6 m E Pg      2011/02/17 15:04:26.2  -0.2                          T                                        4650961
MTLF  003.43 166.6 m E Sn      2011/02/17 15:04:54.0   0.1                          T                                        4650915
MTLF  003.43 166.6 m E Sg      2011/02/17 15:05:10.5   0.1                          T                7.5  .35 Ml 2.9         4650951
CABF  003.42 089.4 m E Pn      2011/02/17 15:04:15.0  -0.2                          T                                        4650935
CABF  003.42 089.4 m E Sg      2011/02/17 15:05:09.7  -0.4                          T                7.9  .50 Ml 2.7         4650923
ROSF  003.41 300.6 m E Pn      2011/02/17 15:04:16.3   1.3                          T                                        4650968
ROSF  003.41 300.6 m E Sn      2011/02/17 15:04:52.5  -1.1                          T                                        4654237
ROSF  003.41 300.6 m E Sg      2011/02/17 15:05:09.6  -0.3                          T                8.4  .41 Ml 2.8         4650943
PAGF  003.63 057.2 m E Pn      2011/02/17 15:04:17.7  -0.3                          T                                        4650940
PAGF  003.63 057.2 m E Sg      2011/02/17 15:05:16.5  -0.2 245.3  4.8               T                4.8  .75 Ml 2.4         4650918
EPF   003.69 189.0 m E Pn      2011/02/17 15:04:18.0  -0.9                          T                                        4650959
EPF   003.69 189.0 m E Pg      2011/02/17 15:04:31.3   0.0                          T                                        4650960
EPF   003.69 189.0 m E Sn      2011/02/17 15:04:59.7  -0.6                          T                                        4654231
EPF   003.69 189.0 m E Sg      2011/02/17 15:05:18.8   0.1                          T                4.9  .20 Ml 3.0         4650950
ORIF  003.76 116.2 m E Pn      2011/02/17 15:04:19.9   0.0                          T                                        4650929
ORIF  003.76 116.2 m E Sn      2011/02/17 15:05:02.2   0.1                          T                3.9  .51 Ml 2.5         4650927
HAU   003.79 067.6 m E Pn      2011/02/17 15:04:20.2   0.1                          T                                        4650937
HAU   003.79 067.6 m E Sg      2011/02/17 15:05:21.3  -0.3                          T                9.5  .30 Ml 2.9         4650921
SJPF  003.94 206.0 m E Pn      2011/02/17 15:04:22.0  -0.2                          T                                        4650954
SJPF  003.94 206.0 m E Sn      2011/02/17 15:05:05.7  -0.6                          T                                        4654232
SJPF  003.94 206.0 m E Sg      2011/02/17 15:05:26.2  -0.2                          T                3.1  .27 Ml 2.7         4650924
ETSF  003.97 198.2 m E Pn      2011/02/17 15:04:22.2  -0.4                          T                                        4650955
ETSF  003.97 198.2 m E Sg      2011/02/17 15:05:27.4   0.1                          T                4.3  .29 Ml 2.8         4650949
BAIF  003.95 030.1 m E Pn      2011/02/17 15:04:22.4   0.0                          T                                        4650933
BAIF  003.95 030.1 m E Sg      2011/02/17 15:05:26.5  -0.3                          T                6.1  .44 Ml 2.8         4650916
HINF  004.06 071.7 m E Pn      2011/02/17 15:04:23.6  -0.3                          T                                        4650936
HINF  004.06 071.7 m E Sg      2011/02/17 15:05:29.8  -0.4                          T                4.9  .22 Ml 3.0         4650922
LPL   004.07 104.6 m E Pn      2011/02/17 15:04:24.1  -0.1                          T                                        4650931
LPG   004.09 104.8 m E Pn      2011/02/17 15:04:24.1  -0.4                          T                                        4650932
LPL   004.07 104.6 m E Sn      2011/02/17 15:05:09.5  -0.1                          T                3.5  .44 Ml 2.6         4650926
LPG   004.09 104.8 m E Sn      2011/02/17 15:05:10.0  -0.1                          T                2.5  .37 Ml 2.5         4650925
GIVF  004.22 034.3 m E Pn      2011/02/17 15:04:27.4   1.5                          T                                        4654240
GIVF  004.22 034.3 m E Sn      2011/02/17 15:05:12.6  -0.2                          T                                        4654239
MBDF  004.41 114.3 m E Pn      2011/02/17 15:04:28.8   0.1                          T                                        4650930
MBDF  004.41 114.3 m E Sn      2011/02/17 15:05:17.6   0.1                          T                8.3  .73 Ml 2.8         4650928
CDF   004.51 065.2 m E Pn      2011/02/17 15:04:30.2   0.1                          T                                        4650934
CDF   004.51 065.2 m E Sg      2011/02/17 15:05:44.0  -0.3                          T                7.3  .48 Ml 3.1         4650917

.
EVENT     256117
    Date      Time       Latitude Longitude    Depth    Ndef Nsta Gap    Mag1  N    Mag2  N    Mag3  N   Author         ID
       rms   OT_Error      Smajor Sminor Az        Err   mdist  Mdist     Err        Err        Err      Quality

2011/02/17 16:07:07.0     47.8667    6.5684       .0 f    16    8 094  Ml 1.8  4  Md 1.9  2              js067245    256137

      0.84   +-  0.10       2.1    1.5   31.31 +-  0.0    0.20   1.30   +-0.2      +-0.2                 m i km

FRANCE
Sta     Dist  EvAz     Phase      Date       Time     TRes  Azim  AzRes  Slow  SRes Def   SNR       Amp   Per   Mag1   Mag2       ID
HINF  000.20 104.5 m E Pg      2011/02/17 16:07:11.2   0.0                          T                                        4650994
HINF  000.20 104.5 m E Sg      2011/02/17 16:07:14.1  -0.1                          T               26.6  .62        Md 2.0  4650989
HAU   000.20 313.3 m E Pg      2011/02/17 16:07:11.4   0.1                          T                                        4650995
HAU   000.20 313.3 m E Sg      2011/02/17 16:07:14.2  -0.1                          T               43.5  .42        Md 1.7  4650990
THEF  000.53 313.4 m E Pg      2011/02/17 16:07:17.1  -0.2                          T                                        4650992
THEF  000.53 313.4 m E Sg      2011/02/17 16:07:24.3  -0.1                          T                4.8  .22                4650988
CDF   000.72 040.7 m E Pg      2011/02/17 16:07:21.0   0.0                          T                                        4650993
CDF   000.72 040.7 m E Sg      2011/02/17 16:07:30.7   0.1                          T               17.2  .26                4650991
PAGF  000.89 321.0 m E Pg      2011/02/17 16:07:23.6  -0.3 132.5  -7.9              T                                        4650981
PAGF  000.89 321.0 m E Sg      2011/02/17 16:07:35.5  -0.2                          T                4.5  .75 Ml 1.5         4650980
SFTF  001.08 288.8 m E Pg      2011/02/17 16:07:27.4   0.0 112.4  4.8               T                                        4650987
SFTF  001.08 288.8 m E Sg      2011/02/17 16:07:41.6  -0.1                          T                4.6  .35 Ml 2.0         4650983
MEZF  001.20 302.6 m E Pg      2011/02/17 16:07:29.5  -0.1                          T                                        4650986
MEZF  001.20 302.6 m E Sg      2011/02/17 16:07:45.2   0.0                          T                3.9  .28 Ml 2.1         4650982
CABF  001.30 194.8 m E Pg      2011/02/17 16:07:31.6   0.0                          T                                        4650985
CABF  001.30 194.8 m E Sg      2011/02/17 16:07:48.5  -0.1                          T                1.6  .24 Ml 1.8         4650984

.
EVENT     256118
    Date      Time       Latitude Longitude    Depth    Ndef Nsta Gap    Mag1  N    Mag2  N    Mag3  N   Author         ID
       rms   OT_Error      Smajor Sminor Az        Err   mdist  Mdist     Err        Err        Err      Quality

2011/02/17 22:49:42.4     42.9374     .1938      2.0      14    4 129  Ml 1.6  3  Md 1.5  3              js067245    256138

      0.57   +-  0.15       3.3    2.3    9.27 +-  0.0    0.14   1.54   +-0.3      +-0.0                 m i ke

PYRENEES
Sta     Dist  EvAz     Phase      Date       Time     TRes  Azim  AzRes  Slow  SRes Def   SNR       Amp   Per   Mag1   Mag2       ID
EPF   000.14 049.1 m E Pg      2011/02/17 22:49:46.0   0.6                          T                                        4651005
EPF   000.14 049.1 m E Sg      2011/02/17 22:49:48.4   1.0                          T               20.5  .18        Md 1.5  4651001
ETSF  000.55 266.2 m E Pg      2011/02/17 22:49:52.9  -0.1                          T                                        4651004
ETSF  000.55 266.2 m E Sg      2011/02/17 22:49:59.6  -0.7                          T                4.4  .30        Md 1.5  4651002
SJPF  001.06 280.1 m E Pg      2011/02/17 22:50:02.4   0.2                          T                                        4651000
SJPF  001.06 280.1 m E Sg      2011/02/17 22:50:16.8   0.9                          T                2.4  .23 Ml 1.9 Md 1.5  4651003
MTLF  001.54 074.1 m E Pg      2011/02/17 22:50:10.4  -0.6                          T                                        4650999
MTLF  001.54 074.1 m E Sg      2011/02/17 22:50:30.2  -0.7                          T                 .3  .18 Ml 1.3         4650998

.
