EVENT     262101
    Date      Time       Latitude Longitude    Depth    Ndef Nsta Gap    Mag1  N    Mag2  N    Mag3  N   Author         ID
       rms   OT_Error      Smajor Sminor Az        Err   mdist  Mdist     Err        Err        Err      Quality

2011/08/03 03:11:57.4     44.2977    4.4056      6.0 f    58   23 090  Ml 2.2 25  Md 2.5  2              js067245    262101

      0.55   +-  0.06       1.2     .9  130.43 +-  0.0    0.45   3.95   +-0.3      +-0.1                 m i ke

FRANCE
Sta     Dist  EvAz     Phase      Date       Time     TRes  Azim  AzRes  Slow  SRes Def   SNR       Amp   Per   Mag1   Mag2       ID
LASF  000.45 240.9 m E Pg      2011/08/03 03:12:05.9  -0.2                          T                                        4732088
LASF  000.45 240.9 m E Sg      2011/08/03 03:12:11.6  -0.6                          T               14.1  .20        Md 2.6  4732069
VIVF  000.59 018.8 m E Pg      2011/08/03 03:12:08.7   0.0                          T                                        4732087
VIVF  000.59 018.8 m E Pn      2011/08/03 03:12:10.4  -0.4                          T                                        4733444
VIVF  000.59 018.8 m E Sg      2011/08/03 03:12:16.3  -0.1                          T               17.9  .22                4732068
VIVF  000.59 018.8 m E Sn      2011/08/03 03:12:19.3  -0.9                          T               14.5  .19        Md 2.5  4733443
ORIF  001.22 059.0 m E Pn      2011/08/03 03:12:19.6   0.2                          T                                        4732086
ORIF  001.22 059.0 m E Sn      2011/08/03 03:12:35.3  -0.1                          T                1.8  .30 Ml 1.7         4732067
CAF   001.79 291.4 m E Pn      2011/08/03 03:12:27.1   0.0                          T                                        4733442
CAF   001.79 291.4 m E Pg      2011/08/03 03:12:30.9   0.2                          T                                        4732090
CAF   001.79 291.4 m E Sg      2011/08/03 03:12:52.9  -0.8                          T                8.8  .27 Ml 2.7         4732074
MTLF  001.85 239.6 m E Pn      2011/08/03 03:12:27.7  -0.2                          T                                        4733441
MTLF  001.85 239.6 m E Pg      2011/08/03 03:12:31.4  -0.4                          T                                        4732089
MTLF  001.85 239.6 m E Sn      2011/08/03 03:12:49.7  -0.5                          T                                        4732070
MTLF  001.85 239.6 m E Sg      2011/08/03 03:12:55.2  -0.5                          T                4.8  .24 Ml 2.5         4732071
FRF   001.78 113.7 m E P       2011/08/03 03:12:28.8  -0.2                          T                                        4732063
FRF   001.78 113.7 m E Sg      2011/08/03 03:12:53.0  -0.4                          T                2.1  .25 Ml 2.1         4732066
LMR   001.80 121.6 m E Pg      2011/08/03 03:12:30.6  -0.3                          T                                        4732085
LMR   001.80 121.6 m E Sg      2011/08/03 03:12:53.7  -0.5                          T                2.8  .21 Ml 2.3         4732065
RJF   002.29 297.1 m E Pn      2011/08/03 03:12:33.8  -0.1                          T                                        4733447
RJF   002.29 297.1 m E Pg      2011/08/03 03:12:40.4   0.5                          T                                        4732091
RJF   002.29 297.1 m E Sg      2011/08/03 03:13:09.1  -0.3                          T                3.1  .22 Ml 2.1         4732076
TCF   002.52 322.9 m E Pn      2011/08/03 03:12:37.2   0.1                          T                                        4733451
TCF   002.52 322.9 m E Pg      2011/08/03 03:12:44.0  -0.2                          T                                        4732097
TCF   002.52 322.9 m E Sg      2011/08/03 03:13:16.6  -0.1                          T                1.2  .24 Ml 2.1         4732082
AVF   002.60 343.8 m E Pn      2011/08/03 03:12:38.0  -0.1                          T                                        4733449
AVF   002.60 343.8 m E Pg      2011/08/03 03:12:46.3   0.7                          T                                        4732095
AVF   002.60 343.8 m E Sg      2011/08/03 03:13:18.3  -0.7                          T                1.5  .31 Ml 2.0         4732081
CABF  002.60 026.5 m E Pn      2011/08/03 03:12:38.2   0.0                          T                                        4733450
CABF  002.60 026.5 m E Pg      2011/08/03 03:12:45.8   0.1                          T                                        4732096
CABF  002.60 026.5 m E Sg      2011/08/03 03:13:18.5  -0.6                          T                1.5  .26 Ml 2.1         4733445
SSF   002.84 347.5 m E Pn      2011/08/03 03:12:42.1   0.8                          T                                        4733452
SSF   002.84 347.5 m E Pg      2011/08/03 03:12:50.2   0.3                          T                                        4732098
SSF   002.84 347.5 m E Sg      2011/08/03 03:13:25.9  -0.5                          T                1.1  .26 Ml 2.1         4732083
SMF   002.38 350.6 m E Pg      2011/08/03 03:12:42.3   0.7                          T                                        4732094
SMF   002.38 350.6 m E Sg      2011/08/03 03:13:11.6  -0.7                          T                2.3  .25 Ml 2.3         4732080
LOR   003.00 352.9 m E Pn      2011/08/03 03:12:44.0   0.4                          T                                        4733453
LOR   003.00 352.9 m E Pg      2011/08/03 03:12:53.2   0.3                          T                                        4732099
LOR   003.00 352.9 m E Sg      2011/08/03 03:13:30.8  -0.7                          T                2.2  .28 Ml 2.3         4732084
BGF   002.51 334.6 m E Pg      2011/08/03 03:12:44.5   0.5                          T                                        4732093
BGF   002.51 334.6 m E Sg      2011/08/03 03:13:15.3  -1.0                          T                3.6  .31 Ml 2.4         4732079
MBDF  001.75 074.9 m E Sg      2011/08/03 03:12:52.0  -0.6                          T                 .7  .26 Ml 1.6         4733446
EPF   003.21 248.2 m E Pg      2011/08/03 03:12:57.6   0.7                          T                                        4732064
EPF   003.21 248.2 m E Sg      2011/08/03 03:13:38.4   0.2                          T                3.3  .24 Ml 2.6         4732072
LPG   002.05 053.4 m E Sg      2011/08/03 03:13:01.8  -0.6                          T                 .8  .17 Ml 1.9         4733454
LPL   002.05 052.8 m E Sg      2011/08/03 03:13:01.8  -0.4                          T                 .8  .30 Ml 1.7         4733456
SBF   002.23 100.2 m E Sg      2011/08/03 03:13:07.5   0.0                          T                2.9  .27 Ml 2.3         4733455
LFF   002.69 285.1 m E Sg      2011/08/03 03:13:21.6  -0.4                          T                2.3  .22 Ml 2.2         4732075
ETSF  003.87 250.5 m E Sg      2011/08/03 03:13:58.5  -0.2                          T                1.5  .29 Ml 2.3         4732073
MFF   003.95 307.3 m E Sg      2011/08/03 03:13:59.8  -1.2                          T                 .6  .24 Ml 2.2         4732077

.
EVENT     262105
    Date      Time       Latitude Longitude    Depth    Ndef Nsta Gap    Mag1  N    Mag2  N    Mag3  N   Author         ID
       rms   OT_Error      Smajor Sminor Az        Err   mdist  Mdist     Err        Err        Err      Quality

2011/08/03 03:22:31.4     44.2866    4.4113      6.0 f    37   16 118  Ml 1.8 17  Md 2.2  2              js067245    262105

      0.66   +-  0.09       1.6    1.3  152.10 +-  0.0    0.45   3.92   +-0.3      +-0.0                 m i ke

FRANCE
Sta     Dist  EvAz     Phase      Date       Time     TRes  Azim  AzRes  Slow  SRes Def   SNR       Amp   Per   Mag1   Mag2       ID
LASF  000.45 242.4 m E Pg      2011/08/03 03:22:40.1   0.0                          T                                        4732109
LASF  000.45 242.4 m E Sg      2011/08/03 03:22:46.0  -0.1                          T                5.4  .21        Md 2.2  4732118
VIVF  000.60 018.1 m E Pg      2011/08/03 03:22:42.9   0.1                          T                                        4732110
VIVF  000.60 018.1 m E Pn      2011/08/03 03:22:44.7  -0.3                          T                                        4733459
VIVF  000.60 018.1 m E Sg      2011/08/03 03:22:50.9   0.1                          T                4.8  .18                4732117
VIVF  000.60 018.1 m E Sn      2011/08/03 03:22:53.7  -0.7                          T                3.9  .14        Md 2.2  4733458
ORIF  001.22 058.4 m E Pn      2011/08/03 03:22:54.0   0.5                          T                                        4733461
ORIF  001.22 058.4 m E Sn      2011/08/03 03:23:09.6   0.2                          T                 .7  .24 Ml 1.4         4733462
CAF   001.79 291.7 m E Pn      2011/08/03 03:23:01.0  -0.2                          T                                        4733470
CAF   001.79 291.7 m E Pg      2011/08/03 03:23:04.8   0.0                          T                                        4732107
CAF   001.79 291.7 m E Sg      2011/08/03 03:23:27.2  -0.8                          T                2.2  .22 Ml 2.1         4732121
MTLF  001.85 240.0 m E Pn      2011/08/03 03:23:02.0   0.1                          T                                        4733457
MTLF  001.85 240.0 m E Pg      2011/08/03 03:23:06.3   0.5                          T                                        4732108
MTLF  001.85 240.0 m E Sg      2011/08/03 03:23:29.5  -0.1                          T                2.4  .31 Ml 2.1         4732119
LMR   001.79 121.4 m E Pg      2011/08/03 03:23:04.4  -0.4                          T                                        4732111
LMR   001.79 121.4 m E Sg      2011/08/03 03:23:27.6  -0.2                          T                 .9  .18 Ml 1.9         4732115
RJF   002.30 297.3 m E Pg      2011/08/03 03:23:14.6   0.5                          T                                        4733468
RJF   002.30 297.3 m E Sn      2011/08/03 03:23:35.8   0.8                          T                                        4732106
RJF   002.30 297.3 m E Sg      2011/08/03 03:23:43.6   0.0                          T                1.8  .23 Ml 1.8         4732123
CABF  002.61 026.3 m E Pg      2011/08/03 03:23:20.0   0.1                          T                                        4732104
CABF  002.61 026.3 m E Sg      2011/08/03 03:23:52.7  -0.7                          T                 .7  .30 Ml 1.7         4733465
AVF   002.61 343.8 m E Pg      2011/08/03 03:23:20.4   0.6                          T                                        4733467
AVF   002.61 343.8 m E Sg      2011/08/03 03:23:52.9  -0.6                          T                 .4  .24 Ml 1.5         4732113
LFF   002.70 285.3 m E Pg      2011/08/03 03:23:21.5   0.0                          T                                        4733469
LFF   002.70 285.3 m E Sg      2011/08/03 03:23:55.8  -0.4                          T                1.1  .19 Ml 2.0         4732122
MBDF  001.75 074.6 m E Sg      2011/08/03 03:23:26.2  -0.4                          T                 .6  .23 Ml 1.5         4733463
FRF   001.77 113.4 m E Sg      2011/08/03 03:23:26.7  -0.5                          T                1.1  .25 Ml 1.9         4732116
HINF  003.92 024.8 m E Pn      2011/08/03 03:23:28.8  -1.3                          T                                        4732103
HINF  003.92 024.8 m E Sg      2011/08/03 03:24:34.1  -0.2                          T                1.5  .35 Ml 2.3         4733466
BGF   002.52 334.7 m E Sg      2011/08/03 03:23:49.8  -1.0                          T                2.8  .43 Ml 2.1         4733464
TCF   002.53 322.9 m E Sg      2011/08/03 03:23:50.7  -0.3                          T                 .2  .15 Ml 1.5         4732112
EPF   003.21 248.4 m E Sg      2011/08/03 03:24:11.2  -1.0                          T                1.4  .23 Ml 2.3         4732120

.
EVENT     262106
    Date      Time       Latitude Longitude    Depth    Ndef Nsta Gap    Mag1  N    Mag2  N    Mag3  N   Author         ID
       rms   OT_Error      Smajor Sminor Az        Err   mdist  Mdist     Err        Err        Err      Quality

2011/08/03 03:25:37.1     44.5564   10.5328     10.0 f    64   19 076  Ml 2.8 16  Md 2.7  1              js067245    262106

      0.85   +-  0.13       3.4    2.3   68.67 +-  0.0    0.26   6.11   +-0.3      +-                    m i ke

NORTHERN ITALY
Sta     Dist  EvAz     Phase      Date       Time     TRes  Azim  AzRes  Slow  SRes Def   SNR       Amp   Per   Mag1   Mag2       ID
PGF   002.30 209.6 m E Pn      2011/08/03 03:26:12.8  -0.6                          T                                        4732179
PGF   002.30 209.6 m E Sn      2011/08/03 03:26:39.6  -0.4                          T                5.1  .24 Ml 2.8 Md 2.7  4732153
SBF   002.33 253.8 m E Pn      2011/08/03 03:26:14.2   0.3                          T                                        4732178
SBF   002.33 253.8 m E Sn      2011/08/03 03:26:42.9   2.0                          T               29.8  .31 Ml 3.3         4732154
MBDF  002.69 274.9 m E Pn      2011/08/03 03:26:19.0   0.2                          T                                        4732173
MBDF  002.69 274.9 m E Sn      2011/08/03 03:26:51.3   1.8                          T                3.7  .29 Ml 2.5         4732157
LPL   002.86 290.9 m E Pn      2011/08/03 03:26:21.2  -0.1                          T                                        4732175
FRF   002.97 251.8 m E Pn      2011/08/03 03:26:22.6   0.1                          T                                        4732176
FRF   002.97 251.8 m E Sn      2011/08/03 03:26:58.0   2.0                          T               11.0  .19 Ml 3.2         4732156
LMR   003.15 248.6 m E Pn      2011/08/03 03:26:24.7  -0.2                          T                                        4732177
LMR   003.15 248.6 m E Sn      2011/08/03 03:27:02.0   1.6                          T               10.4  .30 Ml 3.0         4732155
ORIF  003.34 277.9 m E Pn      2011/08/03 03:26:27.8   0.3                          T                                        4732174
CABF  003.74 304.9 m E Pn      2011/08/03 03:26:33.0   0.0                          T                                        4732169
HINF  004.14 323.2 m E Pn      2011/08/03 03:26:37.2  -1.3                          T                                        4732168
HINF  004.14 323.2 m E Sn      2011/08/03 03:27:22.9  -1.2                          T                2.1  .17 Ml 2.8         4732160
VIVF  004.19 276.2 m E Pn      2011/08/03 03:26:39.3   0.3                          T                                        4732172
VIVF  004.19 276.2 m E Sn      2011/08/03 03:27:26.7   1.6                          T                1.6  .22 Ml 2.6         4732158
CDF   004.46 330.9 m E Pn      2011/08/03 03:26:41.7  -1.2                          T                                        4732166
CDF   004.46 330.9 m E Sn      2011/08/03 03:27:30.0  -1.8                          T                2.2  .23 Ml 2.9         4732162
HAU   004.51 321.4 m E Pn      2011/08/03 03:26:42.4  -1.0                          T                                        4732167
HAU   004.51 321.4 m E Sn      2011/08/03 03:27:31.1  -1.6                          T               11.0  .25 Ml 3.2         4732161
SMF   005.14 296.3 m E Pn      2011/08/03 03:26:51.4  -0.6                          T                                        4732171
SMF   005.14 296.3 m E Sn      2011/08/03 03:27:48.3   0.5                          T                2.0  .30 Ml 2.7         4732159
LOR   005.39 302.6 m E Pn      2011/08/03 03:26:55.1  -0.3                          T                                        4732165
LOR   005.39 302.6 m E Sn      2011/08/03 03:27:54.3   0.5                          T                2.2  .24 Ml 2.9         4732163
AVF   005.51 296.5 m E Pn      2011/08/03 03:26:56.5  -0.4                          T                                        4732170
BGF   005.76 293.0 m E Pn      2011/08/03 03:26:59.9  -0.5                          T                                        4732149
CAF   006.04 276.5 m E Pn      2011/08/03 03:27:04.7   0.3                          T                                        4732152
TCF   006.11 289.4 m E Pn      2011/08/03 03:27:05.0  -0.2                          T                                        4732164
TCF   006.11 289.4 m E Sn      2011/08/03 03:28:12.2   1.2                          T                 .6  .20 Ml 2.6         4732151
PAGF  005.19 322.0 m E Sn      2011/08/03 03:27:48.2  -1.0                          T                 .8  .27 Ml 2.4         4732150

.
EVENT     262152
    Date      Time       Latitude Longitude    Depth    Ndef Nsta Gap    Mag1  N    Mag2  N    Mag3  N   Author         ID
       rms   OT_Error      Smajor Sminor Az        Err   mdist  Mdist     Err        Err        Err      Quality

2011/08/03 03:35:22.0     44.4886    6.8753      2.0      12    4 149  Ml 1.4  2  Md 1.6  2              js067245    262152

      0.25   +-  0.09       2.8    1.2   75.26 +-  0.0    0.05   1.18   +-0.2      +-0.0                 m i ke

FRANCE
Sta     Dist  EvAz     Phase      Date       Time     TRes  Azim  AzRes  Slow  SRes Def   SNR       Amp   Per   Mag1   Mag2       ID
MBDF  000.25 342.7 m E Pg      2011/08/03 03:35:27.1   0.0                          T                                        4732974
MBDF  000.25 342.7 m E Sg      2011/08/03 03:35:30.9   0.4                          T                2.1  .16        Md 1.6  4732973
ORIF  000.83 301.5 m E Pn      2011/08/03 03:35:39.4   0.2                          T                                        4732965
ORIF  000.83 301.5 m E Sg      2011/08/03 03:35:48.3  -0.2                          T                 .6  .25        Md 1.6  4732968
FRF   000.94 190.2 m E Pg      2011/08/03 03:35:39.8   0.1                          T                                        4732972
FRF   000.94 190.2 m E Sg      2011/08/03 03:35:52.1   0.2                          T                1.0  .17 Ml 1.6         4732969
LMR   001.18 193.0 m E Pg      2011/08/03 03:35:44.4   0.3                          T                                        4732971
LMR   001.18 193.0 m E Sg      2011/08/03 03:35:59.7   0.2                          T                 .4  .18 Ml 1.3         4732970

.
