EVENT     267034
    Date      Time       Latitude Longitude    Depth    Ndef Nsta Gap    Mag1  N    Mag2  N    Mag3  N   Author         ID
       rms   OT_Error      Smajor Sminor Az        Err   mdist  Mdist     Err        Err        Err      Quality

2011/12/04 02:40:22.2     50.4222   -4.8322      3.0 f    70   27 153  Ml 2.9 24                         js067245    267054

      0.52   +-  0.14       2.5    2.0  146.06 +-  0.0    0.35   8.67   +-0.2                            m i ke

UNITED KINGDOM
Sta     Dist  EvAz     Phase      Date       Time     TRes  Azim  AzRes  Slow  SRes Def   SNR       Amp   Per   Mag1   Mag2       ID
ROSF  002.32 153.4 m E Pn      2011/12/04 02:40:59.4  -0.1                          T   001.0                                4794344
ROSF  002.32 153.4 m E Pg      2011/12/04 02:41:05.1  -0.2                          T                                        4795223
ROSF  002.32 153.4 m E Sn      2011/12/04 02:41:26.6  -0.3                          T   001.0                                4794345
ROSF  002.32 153.4 m E Sg      2011/12/04 02:41:34.8  -0.4                          T   001.0        9.1  .23 Ml 2.9         4794346
SGMF  002.63 144.7 m E Pn      2011/12/04 02:41:04.0   0.3                          T   001.0                                4794347
SGMF  002.63 144.7 m E Pg      2011/12/04 02:41:11.2   0.2                          T   001.0                                4794348
SGMF  002.63 144.7 m E Sn      2011/12/04 02:41:34.1  -0.2                          T                                        4795210
SGMF  002.63 144.7 m E Sg      2011/12/04 02:41:45.0   0.2                          T   001.0        6.5  .26 Ml 2.7         4794349
QUIF  002.74 155.8 m E Pn      2011/12/04 02:41:05.7   0.6                          T   001.0                                4794341
QUIF  002.74 155.8 m E Pg      2011/12/04 02:41:13.1   0.2                          T                                        4795222
QUIF  002.74 155.8 m E Sn      2011/12/04 02:41:36.3  -0.5                          T   001.0                                4794342
QUIF  002.74 155.8 m E Sg      2011/12/04 02:41:47.9  -0.2                          T   001.0       13.6  .31 Ml 3.0         4794343
GRR   003.30 126.6 m E Pn      2011/12/04 02:41:12.7  -0.1                          T   001.0                                4794321
GRR   003.30 126.6 m E Pg      2011/12/04 02:41:23.2  -0.1                          T                                        4795219
GRR   003.30 126.6 m E Sn      2011/12/04 02:41:49.6  -0.7                          T   001.0                                4794322
GRR   003.30 126.6 m E Sg      2011/12/04 02:42:05.9   0.2                          T   001.0        6.2  .22 Ml 2.8         4794323
FLN   003.28 118.7 m E Pn      2011/12/04 02:41:12.8   0.3 300.3  -1.8              T   001.0                                4794320
FLN   003.28 118.7 m E Pg      2011/12/04 02:41:22.9  -0.1 297.2  -4.9              T                                        4795221
FLN   003.28 118.7 m E Sn      2011/12/04 02:41:49.6  -0.3                          T                                        4795211
FLN   003.28 118.7 m E Sg      2011/12/04 02:42:05.8   0.7                          T               10.2  .29 Ml 2.9         4795212
LDF   003.57 119.0 m E Pn      2011/12/04 02:41:17.1   0.5                          T   001.0                                4794324
LDF   003.57 119.0 m E Pg      2011/12/04 02:41:27.9  -0.5                          T                                        4795220
LDF   003.57 119.0 m E Sn      2011/12/04 02:41:57.1   0.3                          T                                        4795213
LDF   003.57 119.0 m E Sg      2011/12/04 02:42:14.1  -0.2                          T                3.5  .27 Ml 2.6         4795214
MFF   004.93 139.0 m E Pn      2011/12/04 02:41:35.3   0.3                          T   001.0                                4794327
MFF   004.93 139.0 m E Pg      2011/12/04 02:41:53.5   0.1                          T                                        4795218
MFF   004.93 139.0 m E Sn      2011/12/04 02:42:27.0  -2.2                          T   001.0                                4794328
MFF   004.93 139.0 m E Sg      2011/12/04 02:42:56.4  -0.2                          T   001.0        7.2  .68 Ml 3.1         4794329
BAIF  005.81 090.1 m E Pn      2011/12/04 02:41:47.2   0.1                          T   001.0                                4794333
BAIF  005.81 090.1 m E Sn      2011/12/04 02:42:49.6  -0.7                          T   001.0         .9  .21 Ml 2.7         4794334
TCF   006.25 128.7 m E Pn      2011/12/04 02:41:53.1   0.0                          T                                        4795202
TCF   006.25 128.7 m E Sn      2011/12/04 02:43:00.6  -0.3                          T   001.0         .8  .15 Ml 2.9         4794332
BGF   006.40 124.2 m E Pn      2011/12/04 02:41:55.0  -0.1                          T   001.0                                4794315
SSF   006.46 118.2 m E Pn      2011/12/04 02:41:55.9   0.0                          T   001.0                                4794330
LOR   006.55 115.5 m E Pn      2011/12/04 02:41:55.9  -1.2                          T   001.0                                4794326
SSF   006.46 118.2 m E Sn      2011/12/04 02:43:05.1  -0.6                          T   001.0         .7  .19 Ml 2.8         4794331
LOR   006.55 115.5 m E Sn      2011/12/04 02:43:07.9   0.1                          T                1.4  .28 Ml 2.9         4795203
AVF   006.53 120.7 m E Pn      2011/12/04 02:41:56.4  -0.4                          T   001.0                                4794314
AVF   006.53 120.7 m E Sn      2011/12/04 02:43:07.3  -0.1                          T                 .4  .22 Ml 2.5         4795208
LFF   006.65 143.4 m E Pn      2011/12/04 02:41:58.4   0.0                          T   001.0                                4794325
LFF   006.65 143.4 m E Sn      2011/12/04 02:43:09.7  -0.6                          T                                        4795216
RJF   006.67 137.8 m E Pn      2011/12/04 02:41:58.9   0.2                          T   001.0                                4794313
RJF   006.67 137.8 m E Sn      2011/12/04 02:43:09.6  -1.1                          T                 .8  .19 Ml 2.5         4795215
MEZF  006.72 102.8 m E Pn      2011/12/04 02:41:59.9   0.5 286.7  -3.6              T                                        4795225
MEZF  006.72 102.8 m E Sn      2011/12/04 02:43:11.8  -0.3                          T                  1  .26 Ml 2.8         4795204
SFTF  006.82 105.2 m E Pn      2011/12/04 02:42:01.0   0.1                          T                                        4795206
SFTF  006.82 105.2 m E Sn      2011/12/04 02:43:14.3  -0.2                          T                1.5  .22 Ml 3.1         4795205
CAF   007.20 137.1 m E Pn      2011/12/04 02:42:06.9   0.9                          T   001.0                                4794316
CAF   007.20 137.1 m E Sn      2011/12/04 02:43:20.7  -2.9                          T   001.0         .6  .19 Ml 2.8         4794317
SJPF  007.72 159.9 m E Pn      2011/12/04 02:42:13.1   0.0                          T   001.0                                4794350
SJPF  007.72 159.9 m E Sn      2011/12/04 02:43:33.7  -2.2                          T   001.0         .8  .21 Ml 3.0         4794351
ETSF  008.08 157.1 m E Pn      2011/12/04 02:42:17.9  -0.1                          T   001.0                                4794336
ETSF  008.08 157.1 m E Sn      2011/12/04 02:43:42.8  -1.7                          T   001.0         .9  .25 Ml 3.0         4794337
EPF   008.20 152.4 m E Pn      2011/12/04 02:42:20.5   0.8                          T   001.0                                4794318
EPF   008.20 152.4 m E Sn      2011/12/04 02:43:44.8  -2.7                          T   001.0        1.4  .22 Ml 3.3         4794319
CABF  008.19 113.6 m E Pn      2011/12/04 02:42:21.0   1.4                          T   001.0                                4794335
MTLF  008.57 143.1 m E Pn      2011/12/04 02:42:24.5  -0.1                          T   001.0                                4794340
LASF  008.67 133.7 m E Pn      2011/12/04 02:42:25.8  -0.2                          T                                        4795217
GIVF  006.20 089.2 m E Sn      2011/12/04 02:43:00.6   1.0                          T   001.0        3.1  .28 Ml 3.2         4794338
HAU   007.71 104.0 m E Sn      2011/12/04 02:43:35.6  -0.1                          T                 .8  .17 Ml 2.8         4795207
HINF  008.10 104.3 m E Sn      2011/12/04 02:43:45.0   0.0                          T   001.0         .5  .20 Ml 2.9         4794339

.
EVENT     267032
    Date      Time       Latitude Longitude    Depth    Ndef Nsta Gap    Mag1  N    Mag2  N    Mag3  N   Author         ID
       rms   OT_Error      Smajor Sminor Az        Err   mdist  Mdist     Err        Err        Err      Quality

2011/12/04 10:16:45.1     47.5866    7.0548      2.0      13    7 204  Ml 1.6  4  Md 1.7  1              js067245    267052

      0.61   +-  0.21       3.2    2.3  125.77 +-  0.0    0.27   1.49   +-0.5      +-                    m i ke

SWITZERLAND
Sta     Dist  EvAz     Phase      Date       Time     TRes  Azim  AzRes  Slow  SRes Def   SNR       Amp   Per   Mag1   Mag2       ID
HINF  000.27 329.5 m E Pg      2011/12/04 10:16:50.8   0.3                          T                                        4794425
HINF  000.27 329.5 m E Sg      2011/12/04 10:16:53.9  -0.2                          T                8.5  .20        Md 1.7  4794424
HAU   000.63 311.6 m E Pg      2011/12/04 10:16:57.1   0.0                          T                                        4795230
HAU   000.63 311.6 m E Sg      2011/12/04 10:17:05.4  -0.1                          T                2.1  .26                4795231
CDF   000.84 010.1 m E Pg      2011/12/04 10:17:00.9  -0.1                          T                                        4795227
CDF   000.84 010.1 m E Sg      2011/12/04 10:17:12.0   0.0                          T                1.5  .24                4795228
THEF  000.96 312.4 m E Pg      2011/12/04 10:17:03.0  -0.1                          T                                        4794427
THEF  000.96 312.4 m E Sg      2011/12/04 10:17:15.7   0.1                          T                4.2  .26 Ml 2.0         4794428
PAGF  001.32 317.9 m E Pg      2011/12/04 10:17:09.5  -0.2 133.6  -3.3              T                                        4795226
PAGF  001.32 317.9 m E Sg      2011/12/04 10:17:26.8   0.1                          T                 .3  .21 Ml 1.1         4795556
SFTF  001.49 295.3 m E Pg      2011/12/04 10:17:13.1   0.2 118.5  4.7               T                                        4794426
SFTF  001.49 295.3 m E Sg      2011/12/04 10:17:31.9  -0.3 114.9  1.1               T                3.2  .35 Ml 2.0         4795229
CABF  001.18 214.5 m E Sg      2011/12/04 10:17:22.5   0.0                          T                 .7  .20 Ml 1.4         4794431

.
EVENT     267033
    Date      Time       Latitude Longitude    Depth    Ndef Nsta Gap    Mag1  N    Mag2  N    Mag3  N   Author         ID
       rms   OT_Error      Smajor Sminor Az        Err   mdist  Mdist     Err        Err        Err      Quality

2011/12/04 13:16:42.0     45.2438    6.5517      2.0      33   11 053  Ml 1.9  7  Md 1.8  4              js067245    267053

      0.30   +-  0.05       1.1     .9   91.72 +-  0.0    0.29   2.35   +-0.1      +-0.1                 m i ke

FRANCE
Sta     Dist  EvAz     Phase      Date       Time     TRes  Azim  AzRes  Slow  SRes Def   SNR       Amp   Per   Mag1   Mag2       ID
LPG   000.29 028.9 m E Pg      2011/12/04 13:16:47.9  -0.2                          T                                        4794439
LPG   000.29 028.9 m E Sg      2011/12/04 13:16:52.5   0.6                          T               12.8  .20        Md 1.7  4794438
LPL   000.30 025.0 m E Pg      2011/12/04 13:16:48.0  -0.1                          T                                        4794440
LPL   000.30 025.0 m E Sg      2011/12/04 13:16:52.5   0.3                          T               13.3  .22        Md 1.8  4794437
MBDF  000.54 163.1 m E Pg      2011/12/04 13:16:52.8   0.3                          T                                        4794434
MBDF  000.54 163.1 m E Sg      2011/12/04 13:17:00.3   0.8                          T                6.6  .21        Md 1.8  4794435
ORIF  000.58 235.9 m E Pg      2011/12/04 13:16:52.9  -0.1                          T                                        4794433
ORIF  000.58 235.9 m E Sg      2011/12/04 13:17:00.3  -0.3                          T               11.4  .32        Md 1.9  4794436
VIVF  001.39 254.4 m E Pg      2011/12/04 13:17:07.7  -0.2                          T                                        4794445
VIVF  001.39 254.4 m E Sg      2011/12/04 13:17:25.9   0.1                          T                2.2  .31 Ml 1.8         4794432
CABF  001.41 346.8 m E Pg      2011/12/04 13:17:08.5   0.2                          T                                        4794444
CABF  001.41 346.8 m E Sg      2011/12/04 13:17:26.3  -0.1                          T                1.6  .21 Ml 1.9         4794443
SMRF  001.45 209.2 m E Pg      2011/12/04 13:17:08.9  -0.1                          T                                        4795575
SMRF  001.45 209.2 m E Sg      2011/12/04 13:17:27.8   0.1                          T                2.0  .29 Ml 1.8         4795576
SBF   001.52 155.1 m E Pg      2011/12/04 13:17:10.7   0.3                          T                                        4794449
SBF   001.52 155.1 m E Sg      2011/12/04 13:17:29.9  -0.1                          T                2.2  .25 Ml 2.0         4795574
FRF   001.68 177.6 m E Pg      2011/12/04 13:17:14.1   0.8                          T                                        4794448
FRF   001.68 177.6 m E Sg      2011/12/04 13:17:35.0   0.0                          T                1.8  .20 Ml 2.1         4794447
SMF   002.35 307.5 m E Pg      2011/12/04 13:17:25.8   0.1                          T                                        4794441
SMF   002.35 307.5 m E Sg      2011/12/04 13:17:56.2   0.3                          T                 .8  .18 Ml 1.9         4794442
LMR   001.91 180.9 m E Sg      2011/12/04 13:17:42.6   0.5                          T                 .9  .22 Ml 1.8         4794446

.
EVENT     267035
    Date      Time       Latitude Longitude    Depth    Ndef Nsta Gap    Mag1  N    Mag2  N    Mag3  N   Author         ID
       rms   OT_Error      Smajor Sminor Az        Err   mdist  Mdist     Err        Err        Err      Quality

2011/12/04 14:32:48.5     43.0396   -1.8983       .0 f     6    3 343  Ml 2.1  2  Md 1.6  2              js067245    267055

      0.19   +-  0.41      13.9    6.9  179.53 +-  0.0    0.50   1.64   +-0.2      +-0.2                 m i sm

PYRENEES
Sta     Dist  EvAz     Phase      Date       Time     TRes  Azim  AzRes  Slow  SRes Def   SNR       Amp   Per   Mag1   Mag2       ID
SJPF  000.50 081.3 m E Pg      2011/12/04 14:32:58.2  -0.1                          T                                        4794454
SJPF  000.50 081.3 m E Sg      2011/12/04 14:33:04.7  -0.4                          T                7.2  .22        Md 1.8  4794450
ETSF  000.99 097.7 m E Pg      2011/12/04 14:33:07.3  -0.1                          T                                        4794453
ETSF  000.99 097.7 m E Sg      2011/12/04 14:33:20.6   0.0                          T                3.4  .25 Ml 1.9 Md 1.5  4794455
EPF   001.64 089.6 m E Pg      2011/12/04 14:33:19.6   0.2                          T                                        4794452
EPF   001.64 089.6 m E Sg      2011/12/04 14:33:41.0   0.2                          T                3.0  .23 Ml 2.2         4794451

.
EVENT     267036
    Date      Time       Latitude Longitude    Depth    Ndef Nsta Gap    Mag1  N    Mag2  N    Mag3  N   Author         ID
       rms   OT_Error      Smajor Sminor Az        Err   mdist  Mdist     Err        Err        Err      Quality

2011/12/04 17:21:37.9     43.5743    3.2422      2.0      15    5 211  Ml 1.9  3  Md 2.0  3              js067245    267056

      1.12   +-  0.19       6.5    2.0  145.46 +-  0.0    0.67   2.19   +-0.1      +-0.2                 m i ke

NEAR SOUTH COAST OF FRANCE
Sta     Dist  EvAz     Phase      Date       Time     TRes  Azim  AzRes  Slow  SRes Def   SNR       Amp   Per   Mag1   Mag2       ID
LASF  000.67 041.4 m E Pg      2011/12/04 17:21:50.7   0.1                          T                                        4794466
LASF  000.67 041.4 m E Pn      2011/12/04 17:21:52.5  -0.3                          T                                        4794458
LASF  000.67 041.4 m E Sg      2011/12/04 17:21:59.4   0.1                          T                7.3  .24        Md 1.9  4794464
MTLF  000.78 253.0 m E Pg      2011/12/04 17:21:52.6   0.0                          T                                        4794467
MTLF  000.78 253.0 m E Pn      2011/12/04 17:21:53.9  -0.4                          T                                        4794459
MTLF  000.78 253.0 m E Sg      2011/12/04 17:22:02.9   0.1                          T                5.3  .22        Md 1.8  4794465
CAF   001.59 328.3 m E Pn      2011/12/04 17:22:05.8   0.4                          T                                        4794456
CAF   001.59 328.3 m E Sn      2011/12/04 17:22:26.5   1.1                          T                 .9  .16 Ml 1.8         4794457
VIVF  001.64 038.3 m E Pg      2011/12/04 17:22:08.6   0.1                          T                                        4794462
VIVF  001.64 038.3 m E Sg      2011/12/04 17:22:29.4  -0.3                          T                1.4  .19 Ml 2.0 Md 2.2  4794463
EPF   002.19 256.6 m E Pg      2011/12/04 17:22:18.3  -0.2                          T                                        4794460
EPF   002.19 256.6 m E Sg      2011/12/04 17:22:47.4   0.7                          T                  1  .28 Ml 1.8         4794461

.
