EVENT     262515
    Date      Time       Latitude Longitude    Depth    Ndef Nsta Gap    Mag1  N    Mag2  N    Mag3  N   Author         ID
       rms   OT_Error      Smajor Sminor Az        Err   mdist  Mdist     Err        Err        Err      Quality

2011/08/14 13:03:51.9     42.8611     .3555      2.0       9    4 203  Ml 1.4  3  Md 1.6  2              js067245    262515

      0.11   +-  0.07       1.9     .7  170.59 +-  0.0    0.17   1.45   +-0.2      +-0.1                 m i ke

PYRENEES
Sta     Dist  EvAz     Phase      Date       Time     TRes  Azim  AzRes  Slow  SRes Def   SNR       Amp   Per   Mag1   Mag2       ID
EPF   000.17 356.2 m E Pg      2011/08/14 13:03:55.5   0.0                          T                                        4738342
EPF   000.17 356.2 m E Sg      2011/08/14 13:03:57.7  -0.2                          T               12.0  .21        Md 1.7  4738341
ETSF  000.67 273.5 m E Pg      2011/08/14 13:04:04.6  -0.1                          T                                        4738339
ETSF  000.67 273.5 m E Sg      2011/08/14 13:04:13.6   0.0                          T                1.3  .21        Md 1.5  4738340
SJPF  001.19 282.8 m E Pg      2011/08/14 13:04:14.3   0.1                          T                                        4738336
SJPF  001.19 282.8 m E Sg      2011/08/14 13:04:29.3  -0.2                          T                 .4  .21 Ml 1.2         4738337
MTLF  001.45 070.0 m E Sg      2011/08/14 13:04:37.6   0.0                          T                 .8  .26 Ml 1.5         4738338

.
EVENT     262516
    Date      Time       Latitude Longitude    Depth    Ndef Nsta Gap    Mag1  N    Mag2  N    Mag3  N   Author         ID
       rms   OT_Error      Smajor Sminor Az        Err   mdist  Mdist     Err        Err        Err      Quality

2011/08/14 17:57:11.0     44.7719    6.8558      2.0      20    9 160  Ml 1.8  4  Md 1.8  1              js067245    262516

      0.08   +-  0.03        .6     .4   79.69 +-  0.0    0.08   1.56   +-0.3      +-                    m i ke

FRANCE
Sta     Dist  EvAz     Phase      Date       Time     TRes  Azim  AzRes  Slow  SRes Def   SNR       Amp   Per   Mag1   Mag2       ID
MBDF  000.08 233.2 m E Pg      2011/08/14 17:57:12.9  -0.1                          T                                        4738362
MBDF  000.08 233.2 m E Sg      2011/08/14 17:57:14.3   0.1                          T              112.5  .25        Md 1.8  4738356
ORIF  000.71 282.3 m E Pg      2011/08/14 17:57:24.4   0.0                          T                                        4738361
ORIF  000.71 282.3 m E Sg      2011/08/14 17:57:33.7   0.0                          T                5.7  .24                4738351
LPG   000.73 354.2 m E Pg      2011/08/14 17:57:25.1   0.0                          T                                        4738359
LPG   000.73 354.2 m E Sg      2011/08/14 17:57:34.7   0.1                          T                2.6  .21                4738349
LPL   000.75 353.4 m E Pg      2011/08/14 17:57:25.4   0.0                          T                                        4738360
LPL   000.75 353.4 m E Sg      2011/08/14 17:57:35.1   0.0                          T                1.8  .26                4738350
SBF   001.00 155.2 m E Pg      2011/08/14 17:57:29.7  -0.1                          T                                        4738354
SBF   001.00 155.2 m E Sg      2011/08/14 17:57:42.8   0.0                          T                3.0  .20 Ml 2.0         4738345
SMRF  001.22 229.5 m E Pg      2011/08/14 17:57:33.7   0.0                          T                                        4738355
SMRF  001.22 229.5 m E Sg      2011/08/14 17:57:49.4  -0.1                          T                 .6  .16 Ml 1.5         4738348
FRF   001.22 187.2 m E Pg      2011/08/14 17:57:33.7   0.0                          T                                        4738358
FRF   001.22 187.2 m E Sg      2011/08/14 17:57:49.6   0.1                          T                1.4  .20 Ml 1.8         4738347
VIVF  001.56 273.9 m E Pn      2011/08/14 17:57:38.1   0.1                          T                                        4738352
VIVF  001.56 273.9 m E Pg      2011/08/14 17:57:40.1   0.1                          T                                        4738353
LMR   001.46 190.0 m E Pg      2011/08/14 17:57:38.2   0.1                          T                                        4738357
LMR   001.46 190.0 m E Sg      2011/08/14 17:57:57.0   0.0                          T                2.5  .24 Ml 2.1         4738346

.
EVENT     262518
    Date      Time       Latitude Longitude    Depth    Ndef Nsta Gap    Mag1  N    Mag2  N    Mag3  N   Author         ID
       rms   OT_Error      Smajor Sminor Az        Err   mdist  Mdist     Err        Err        Err      Quality

2011/08/14 23:12:18.8     47.2274   14.7064     10.0 f    47    9 039  Ml 2.9  6  Md 3.3  1              js067245    262518

      0.74   +-  0.13       3.2    2.7   53.96 +-  0.0    0.56   8.28   +-0.2      +-                    m i ke

AUSTRIA
Sta     Dist  EvAz     Phase      Date       Time     TRes  Azim  AzRes  Slow  SRes Def   SNR       Amp   Per   Mag1   Mag2       ID
LANF  004.94 293.3 m E P       2011/08/14 23:13:34.9  -0.3                          T                                        4746265
LANF  004.94 293.3 m E Pg      2011/08/14 23:13:50.0  -0.3                          T                                        4746264
HINF  005.35 279.2 m E Pn      2011/08/14 23:13:36.4  -0.3                          T                                        4738776
HINF  005.35 279.2 m E Sn      2011/08/14 23:14:35.3   0.5                          T                1.5  .24 Ml 2.8 Md 3.3  4738775
HINF  005.35 279.2 m E Sg      2011/08/14 23:15:07.0   0.5                          T                5.6  .50 Ml 3.0         4746260
CDF   005.14 286.0 m E P       2011/08/14 23:13:37.7  -0.4                          T                                        4738780
CDF   005.14 286.0 m E Pg      2011/08/14 23:13:54.2   0.1                          T                                        4746263
CDF   005.14 286.0 m E Sg      2011/08/14 23:14:59.4  -0.6                          T                6.7  .54 Ml 3.1         4746266
HAU   005.71 280.9 m E P       2011/08/14 23:13:45.6  -0.4                          T                                        4746258
HAU   005.71 280.9 m E Pn      2011/08/14 23:14:04.5  23.0                          T                                        4746259
HAU   005.71 280.9 m E Sg      2011/08/14 23:15:16.4  -1.1                          T                7.2  .54 Ml 2.9         4746261
ORIF  006.56 252.6 m E P       2011/08/14 23:13:56.9  -1.1                          T                                        4746256
VIVF  007.37 254.9 m E Pn      2011/08/14 23:14:06.0   1.7                          T                                        4738777
PAGF  006.19 285.7 m E Pg      2011/08/14 23:14:12.1  -1.0                          T                                        4738774
PAGF  006.19 285.7 m E Sg      2011/08/14 23:15:32.3  -0.1                          T                1.5  .54 Ml 2.6         4746262
AVF   007.78 270.9 m E P       2011/08/14 23:14:14.3  -0.7                          T                                        4746257
BGF   008.15 269.6 m E Pn      2011/08/14 23:14:15.1   0.3                          T                                        4738779
BGF   008.15 269.6 m E Sn      2011/08/14 23:15:42.5   0.9                          T                 .7  .25 Ml 2.9         4738773

.
EVENT     262519
    Date      Time       Latitude Longitude    Depth    Ndef Nsta Gap    Mag1  N    Mag2  N    Mag3  N   Author         ID
       rms   OT_Error      Smajor Sminor Az        Err   mdist  Mdist     Err        Err        Err      Quality

2011/08/14 23:31:52.6     43.4909   10.9392      2.0      27    9 054  Ml 2.4  6  Md 2.8  2              js067245    262519

      0.35   +-  0.08       2.1    1.5  163.01 +-  0.0    0.26   6.54   +-0.2      +-0.1                 m i ke

CENTRAL ITALY
Sta     Dist  EvAz     Phase      Date       Time     TRes  Azim  AzRes  Slow  SRes Def   SNR       Amp   Per   Mag1   Mag2       ID
PGF   001.71 237.1 m E Pn      2011/08/14 23:32:21.8   0.0                          T                                        4738380
PGF   001.71 237.1 m E Sn      2011/08/14 23:32:43.3   0.4                          T                6.9  .32 Ml 2.7 Md 2.8  4738375
SBF   002.57 279.5 m E Pn      2011/08/14 23:32:33.2  -0.2                          T                                        4738374
FRF   003.12 272.8 m E Pn      2011/08/14 23:32:41.1   0.2                          T                                        4738373
FRF   003.12 272.8 m E Sn      2011/08/14 23:33:16.9   0.3                          T                2.0  .27 Ml 2.4 Md 2.9  4738371
LMR   003.23 268.7 m E Pn      2011/08/14 23:32:41.9  -0.5                          T                                        4738377
LMR   003.23 268.7 m E Sn      2011/08/14 23:33:19.4   0.2                          T                2.4  .48 Ml 2.2         4738384
SMRF  003.92 279.0 m E Pn      2011/08/14 23:32:51.5  -0.3                          T                                        4738378
ORIF  003.91 293.2 m E P       2011/08/14 23:32:54.8  -0.3                          T                                        4738379
CDF   005.54 333.9 m E Pn      2011/08/14 23:33:13.7  -0.4                          T                                        4738376
CDF   005.54 333.9 m E Sn      2011/08/14 23:34:14.3  -0.3                          T                 .9  .29 Ml 2.6         4738369
MBDF  003.25 293.8 m E Sn      2011/08/14 23:33:20.5   0.8                          T                1.6  .25 Ml 2.3         4738370
CAF   006.54 285.7 m E Pn      2011/08/14 23:33:26.9  -0.5                          T                                        4738372

.
EVENT     262522
    Date      Time       Latitude Longitude    Depth    Ndef Nsta Gap    Mag1  N    Mag2  N    Mag3  N   Author         ID
       rms   OT_Error      Smajor Sminor Az        Err   mdist  Mdist     Err        Err        Err      Quality

2011/08/15 03:51:31.6     43.0239    -.6343      2.0      14    3 127             Md 1.5  3              js067245    262522

      0.46   +-  0.12       3.1    1.7   18.45 +-  0.0    0.08   2.00              +-0.2                 m i ke

PYRENEES
Sta     Dist  EvAz     Phase      Date       Time     TRes  Azim  AzRes  Slow  SRes Def   SNR       Amp   Per   Mag1   Mag2       ID
ETSF  000.14 156.2 m E Pg      2011/08/15 03:51:34.3  -0.2                          T                                        4738390
ETSF  000.14 156.2 m E Sg      2011/08/15 03:51:36.7   0.2                          T               10.7  .18        Md 1.7  4738387
SJPF  000.44 281.9 m E Pg      2011/08/15 03:51:39.8  -0.2                          T                                        4738389
SJPF  000.44 281.9 m E Sg      2011/08/15 03:51:45.9   0.0                          T                2.8  .21        Md 1.4  4738386
EPF   000.71 089.2 m E Pg      2011/08/15 03:51:44.8  -0.3                          T                                        4738388
EPF   000.71 089.2 m E Sg      2011/08/15 03:51:54.2  -0.3                          T                1.1  .22        Md 1.5  4738385

.
EVENT     262523
    Date      Time       Latitude Longitude    Depth    Ndef Nsta Gap    Mag1  N    Mag2  N    Mag3  N   Author         ID
       rms   OT_Error      Smajor Sminor Az        Err   mdist  Mdist     Err        Err        Err      Quality

2011/08/15 05:14:49.1     43.0889     .1139     10.0 f    56    8 096  Ml 1.9  8  Md 2.0  3              js067245    262523

      0.48   +-  0.06       1.5     .9  175.29 +-  0.0    0.12   3.58   +-0.2      +-0.1                 m i ke

FRANCE
Sta     Dist  EvAz     Phase      Date       Time     TRes  Azim  AzRes  Slow  SRes Def   SNR       Amp   Per   Mag1   Mag2       ID
EPF   000.18 109.4 m E Pg      2011/08/15 05:14:53.0  -0.1                          T                                        4738407
EPF   000.18 109.4 m E Sg      2011/08/15 05:14:56.0   0.2                          T               15.3  .19        Md 2.0  4738403
ETSF  000.53 249.2 m E Pg      2011/08/15 05:14:58.7  -0.7                          T                                        4738406
ETSF  000.53 249.2 m E Sg      2011/08/15 05:15:05.6  -0.9                          T                7.0  .23        Md 2.1  4738402
SJPF  000.98 271.9 m E Pg      2011/08/15 05:15:07.6   0.0                          T                                        4738400
SJPF  000.98 271.9 m E Sg      2011/08/15 05:15:20.5   0.1                          T                1.2  .26 Ml 1.5 Md 1.8  4738401
MTLF  001.56 080.0 m E Pg      2011/08/15 05:15:18.1  -0.1                          T                                        4738405
MTLF  001.56 080.0 m E Sg      2011/08/15 05:15:39.0   0.7                          T                1.3  .22 Ml 1.8         4738404
CAF   002.31 036.8 m E Pg      2011/08/15 05:15:32.1   0.0                          T                                        4738399
CAF   002.31 036.8 m E Sg      2011/08/15 05:16:01.6  -0.4                          T                 .8  .17 Ml 2.0         4738398
RJF   002.43 024.0 m E Pg      2011/08/15 05:15:34.3   0.0                          T                                        4738394
RJF   002.43 024.0 m E Sg      2011/08/15 05:16:06.0   0.4                          T                1.6  .22 Ml 1.8         4738396
LFF   001.90 013.5 m E Sg      2011/08/15 05:15:49.4   0.3                          T                3.8  .29 Ml 2.1         4738397
TCF   003.53 024.3 m E Sg      2011/08/15 05:16:40.6   0.7                          T                 .3  .21 Ml 1.8         4738393

.
EVENT     262524
    Date      Time       Latitude Longitude    Depth    Ndef Nsta Gap    Mag1  N    Mag2  N    Mag3  N   Author         ID
       rms   OT_Error      Smajor Sminor Az        Err   mdist  Mdist     Err        Err        Err      Quality

2011/08/15 09:09:36.4     45.0164    7.3973      2.0      16    7 221  Ml 2.1  5  Md 2.2  3              js067245    262524

      0.33   +-  0.19       3.7    1.6   71.45 +-  0.0    0.53   1.80   +-0.2      +-0.1                 m i ke

NORTHERN ITALY
Sta     Dist  EvAz     Phase      Date       Time     TRes  Azim  AzRes  Slow  SRes Def   SNR       Amp   Per   Mag1   Mag2       ID
MBDF  000.53 237.2 m E Pg      2011/08/15 09:09:47.2   0.5                          T                                        4738411
MBDF  000.53 237.2 m E Sg      2011/08/15 09:09:54.0   0.3                          T                6.8  .17        Md 2.1  4738410
LPG   000.66 316.8 m E Pg      2011/08/15 09:09:49.3  -0.1                          T                                        4738422
LPG   000.66 316.8 m E Sg      2011/08/15 09:09:57.5  -0.5                          T               14.4  .22        Md 2.2  4738417
LPL   000.69 317.0 m E Pg      2011/08/15 09:09:49.7   0.0                          T                                        4738423
LPL   000.69 317.0 m E Sg      2011/08/15 09:09:58.1  -0.6                          T               20.5  .30        Md 2.2  4738419
ORIF  001.08 265.3 m E Pg      2011/08/15 09:09:57.2   0.4                          T                                        4738421
ORIF  001.08 265.3 m E Sg      2011/08/15 09:10:10.2  -0.6                          T                7.9  .34 Ml 2.2         4738418
SBF   001.15 178.6 m E Pg      2011/08/15 09:09:58.0   0.0                          T                                        4738414
SBF   001.15 178.6 m E Sg      2011/08/15 09:10:12.6  -0.4                          T                3.0  .22 Ml 2.0         4738413
FRF   001.55 200.6 m E Pg      2011/08/15 09:10:05.1  -0.3                          T                                        4738420
FRF   001.55 200.6 m E Sg      2011/08/15 09:10:25.2  -0.2                          T                2.1  .26 Ml 2.0         4738415
LMR   001.80 201.1 m E Pg      2011/08/15 09:10:09.8  -0.1                          T                                        4738416
LMR   001.80 201.1 m E Sg      2011/08/15 09:10:32.7  -0.4                          T                 .7  .18 Ml 1.7         4738412

.
EVENT     263645
    Date      Time       Latitude Longitude    Depth    Ndef Nsta Gap    Mag1  N    Mag2  N    Mag3  N   Author         ID
       rms   OT_Error      Smajor Sminor Az        Err   mdist  Mdist     Err        Err        Err      Quality

2011/08/15 10:25:26.2     47.6695    7.7501     10.0      12    5 066  Ml 1.8  3  Md 1.8  1              js067245    263645

      0.39   +-  0.09       1.7    1.2  177.62 +-  0.0    0.05   1.55   +-0.1      +-                    m i ke

SWITZERLAND
Sta     Dist  EvAz     Phase      Date       Time     TRes  Azim  AzRes  Slow  SRes Def   SNR       Amp   Per   Mag1   Mag2       ID
HINF  000.62 284.0 m E Pg      2011/08/15 10:25:38.7   0.6                          T                                        4746267
HINF  000.62 284.0 m E Sg      2011/08/15 10:25:45.9  -0.5                          T                                        4746268
HINF  000.62 284.0 m E Sn      2011/08/15 10:25:48.1  -1.0                          T                3.4  .18        Md 1.8  4746269
CDF   000.81 337.0 m E Pg      2011/08/15 10:25:41.6   0.1                          T                                        4746274
CDF   000.81 337.0 m E Sg      2011/08/15 10:25:51.9  -0.3                          T                 .8  .24                4746275
HAU   001.00 290.1 m E Pg      2011/08/15 10:25:45.0   0.0                          T                                        4746272
HAU   001.00 290.1 m E Sg      2011/08/15 10:25:58.1  -0.1                          T                4.2  .30 Ml 1.7         4746273
THEF  001.31 296.0 m E Sg      2011/08/15 10:26:07.6   0.0                          T                2.0  .25 Ml 1.9         4746271
CABF  001.55 227.6 m E Sg      2011/08/15 10:26:15.3   0.0                          T                1.3  .34 Ml 1.6         4746270

.
EVENT     262553
    Date      Time       Latitude Longitude    Depth    Ndef Nsta Gap    Mag1  N    Mag2  N    Mag3  N   Author         ID
       rms   OT_Error      Smajor Sminor Az        Err   mdist  Mdist     Err        Err        Err      Quality

2011/08/15 10:56:43.9     43.1622     .0473      2.0       9    4 175  Ml 1.8  2  Md 1.7  2              js067245    262553

      0.23   +-  0.09       3.8    1.1  175.55 +-  0.0    0.25   1.60   +-0.1      +-0.2                 m i ke

FRANCE
Sta     Dist  EvAz     Phase      Date       Time     TRes  Azim  AzRes  Slow  SRes Def   SNR       Amp   Per   Mag1   Mag2       ID
EPF   000.25 121.5 m E Pg      2011/08/15 10:56:48.9  -0.1                          T                                        4738432
EPF   000.25 121.5 m E Sg      2011/08/15 10:56:52.2  -0.2                          T                7.5  .23        Md 1.8  4738429
ETSF  000.52 239.6 m E Pg      2011/08/15 10:56:53.9   0.1                          T                                        4738431
ETSF  000.52 239.6 m E Sg      2011/08/15 10:57:00.4  -0.3                          T                4.5  .27        Md 1.6  4738430
SJPF  000.93 267.4 m E Pg      2011/08/15 10:57:01.3  -0.1                          T                                        4738425
SJPF  000.93 267.4 m E Sg      2011/08/15 10:57:13.5   0.0                          T                                        4738427
MTLF  001.60 082.8 m E Pg      2011/08/15 10:57:13.5  -0.1                          T                                        4738426
MTLF  001.60 082.8 m E Sg      2011/08/15 10:57:33.9  -0.4                          T                1.1  .26 Ml 1.7         4738428

.
