EVENT     283623
    Date      Time       Latitude Longitude    Depth    Ndef Nsta Gap    Mag1  N    Mag2  N    Mag3  N   Author         ID
       rms   OT_Error      Smajor Sminor Az        Err   mdist  Mdist     Err        Err        Err      Quality

2012/09/20 08:43:47.8     48.7519    5.9570       .0 f    15    7 223  Ml 2.1  3  Md 2.3  2              bulletin    283723
                                                                                                         _ldg
      1.31   +-  0.32       5.8    2.8    8.51 +-  0.0    0.25   2.05   +-0.3      +-0.2                 m i km

FRANCE
Sta     Dist  EvAz     Phase      Date       Time     TRes  Azim  AzRes  Slow  SRes Def   SNR       Amp   Per   Mag1   Mag2       ID
PAGF  000.25 218.1 m E Pg      2012/09/20 08:43:52.0  -1.0  33.0  -4.9              T                                        5074690
PAGF  000.25 218.1 m E Sg      2012/09/20 08:43:54.9  -1.7  53.7  15.8              T             1170.1  .80        Md 2.1  5074689
MEZF  000.65 247.7 m E Pg      2012/09/20 08:44:00.7   0.3  66.9  -0.1              T                                        5074697
MEZF  000.65 247.7 m E Sg      2012/09/20 08:44:10.0   1.0  65.6  -1.4              T              207.5  .78        Md 2.4  5074696
SFTF  000.82 228.5 m E Pg      2012/09/20 08:44:03.8   0.3                          T                                        5077680
SFTF  000.82 228.5 m E Sg      2012/09/20 08:44:14.7   0.4                          T              233.5 1.44                5074695
HAU   000.79 160.6 m E Pn      2012/09/20 08:44:04.5  -0.3                          T                                        5074688
HAU   000.79 160.6 m E Sg      2012/09/20 08:44:13.6   0.1                          T               34.7  .44                5074698
CDF   000.94 110.7 m E Pg      2012/09/20 08:44:05.6  -0.2                          T                                        5074692
CDF   000.94 110.7 m E Sn      2012/09/20 08:44:20.1  -0.3                          T                2.3  .30 Ml 1.8         5074691
HINF  001.11 147.1 m E Pg      2012/09/20 08:44:09.7   0.7                          T                                        5074694
HINF  001.11 147.1 m E Sn      2012/09/20 08:44:24.6   0.1                          T                8.9  .40 Ml 2.2         5074693
LOR   002.05 224.3 m E Pg      2012/09/20 08:44:26.3   0.2  41.8  -0.9              T                                        5077683
LOR   002.05 224.3 m E Sn      2012/09/20 08:44:46.4  -0.4                          T                                        5077685
LOR   002.05 224.3 m E Sg      2012/09/20 08:44:53.2   0.6  39.9  -2.8              T                8.6  .60 Ml 2.4         5077684

.
EVENT     283715
    Date      Time       Latitude Longitude    Depth    Ndef Nsta Gap    Mag1  N    Mag2  N    Mag3  N   Author         ID
       rms   OT_Error      Smajor Sminor Az        Err   mdist  Mdist     Err        Err        Err      Quality

2012/09/20 10:17:26.2     42.9492    2.1719      3.0 f     9    4 097  Ml 2.0  3  Md 1.9  1              bulletin    283815
                                                                                                         _ldg
      0.43   +-  0.06       1.4    1.2  141.91 +-  0.0    0.24   2.01   +-0.1      +-                    m i ke

PYRENEES
Sta     Dist  EvAz     Phase      Date       Time     TRes  Azim  AzRes  Slow  SRes Def   SNR       Amp   Per   Mag1   Mag2       ID
MTLF  000.39 004.9 m E Pg      2012/09/20 10:17:33.9   0.1                          T                                        5075948
MTLF  000.39 004.9 m E Sg      2012/09/20 10:17:39.0   0.0                          T                1.1  .19        Md 1.9  5075946
EPF   001.35 274.1 m E Pn      2012/09/20 10:17:50.2  -0.1                          T                                        5075947
EPF   001.35 274.1 m E Sg      2012/09/20 10:18:08.8   0.0                          T                4.4  .40 Ml 2.0         5077689
LASF  001.66 046.8 m E Pn      2012/09/20 10:17:54.8   0.2                          T                                        5075945
LASF  001.66 046.8 m E Sn      2012/09/20 10:18:15.2   0.0                          T                3.0  .26 Ml 2.2         5075944
ETSF  002.01 269.5 m E Sg      2012/09/20 10:18:29.2  -0.3                          T                1.4  .27 Ml 1.9         5077688

.
EVENT     283716
    Date      Time       Latitude Longitude    Depth    Ndef Nsta Gap    Mag1  N    Mag2  N    Mag3  N   Author         ID
       rms   OT_Error      Smajor Sminor Az        Err   mdist  Mdist     Err        Err        Err      Quality

2012/09/20 15:09:08.3     43.0211     .1334     10.0      10    4 136  Ml 1.9  2  Md 1.8  2              bulletin    283816
                                                                                                         _ldg
      0.20   +-  0.05       1.8     .9  177.05 +-  0.0    0.05   1.56   +-0.4      +-0.2                 m i ke

FRANCE
Sta     Dist  EvAz     Phase      Date       Time     TRes  Azim  AzRes  Slow  SRes Def   SNR       Amp   Per   Mag1   Mag2       ID
EPF   000.15 086.5 m E Pg      2012/09/20 15:09:11.8  -0.1                          T                                        5075854
EPF   000.15 086.5 m E Sg      2012/09/20 15:09:14.2  -0.1                          T               22.3  .16        Md 1.9  5075851
ETSF  000.52 256.7 m E Pg      2012/09/20 15:09:18.5   0.0                          T                                        5075853
ETSF  000.52 256.7 m E Sg      2012/09/20 15:09:25.5   0.0                          T               10.9  .22        Md 1.6  5075852
SJPF  001.00 275.8 m E Pg      2012/09/20 15:09:26.8  -0.3                          T                                        5077718
SJPF  001.00 275.8 m E Sg      2012/09/20 15:09:40.5   0.3                          T                2.4  .36 Ml 1.6         5077719
MTLF  001.56 077.4 m E Pn      2012/09/20 15:09:34.4  -0.1                          T                                        5075847
MTLF  001.56 077.4 m E Pg      2012/09/20 15:09:37.6   0.3                          T                                        5075850
MTLF  001.56 077.4 m E Sn      2012/09/20 15:09:53.4   0.0                          T                                        5075848
MTLF  001.56 077.4 m E Sg      2012/09/20 15:09:57.3  -0.2                          T                3.1  .22 Ml 2.2         5075849

.
EVENT     283660
    Date      Time       Latitude Longitude    Depth    Ndef Nsta Gap    Mag1  N    Mag2  N    Mag3  N   Author         ID
       rms   OT_Error      Smajor Sminor Az        Err   mdist  Mdist     Err        Err        Err      Quality

2012/09/20 16:17:24.6     43.1710     .0431      2.0       6    3 215  Ml 0.8  1  Md 1.2  2              bulletin    283760
                                                                                                         _ldg
      0.20   +-  0.21       7.7    2.2    8.24 +-  0.0    0.26   0.93   +-         +-0.0                 m i ke

FRANCE
Sta     Dist  EvAz     Phase      Date       Time     TRes  Azim  AzRes  Slow  SRes Def   SNR       Amp   Per   Mag1   Mag2       ID
EPF   000.26 122.8 m E Pg      2012/09/20 16:17:29.7  -0.1                          T                                        5074989
EPF   000.26 122.8 m E Sg      2012/09/20 16:17:33.5   0.2                          T                5.0  .20        Md 1.2  5074988
ETSF  000.52 238.5 m E Pg      2012/09/20 16:17:34.8   0.2                          T                                        5074987
ETSF  000.52 238.5 m E Sg      2012/09/20 16:17:41.0  -0.4                          T                2.8  .18        Md 1.3  5074986
SJPF  000.93 266.9 m E Pn      2012/09/20 16:17:43.1   0.0                          T                                        5074984
SJPF  000.93 266.9 m E Sn      2012/09/20 16:17:56.0  -0.3                          T                 .2  .16 Ml  .8         5074985

.
EVENT     283661
    Date      Time       Latitude Longitude    Depth    Ndef Nsta Gap    Mag1  N    Mag2  N    Mag3  N   Author         ID
       rms   OT_Error      Smajor Sminor Az        Err   mdist  Mdist     Err        Err        Err      Quality

2012/09/20 16:48:05.6     43.4567    -.6768      2.0      47    9 102  Ml 2.4  9  Md 2.4  3              bulletin    283761
                                                                                                         _ldg
      0.39   +-  0.05       1.3     .8  139.87 +-  0.0    0.31   3.98   +-0.2      +-0.3                 m i ke

PYRENEES
Sta     Dist  EvAz     Phase      Date       Time     TRes  Azim  AzRes  Slow  SRes Def   SNR       Amp   Per   Mag1   Mag2       ID
SJPF  000.53 229.6 m E Pg      2012/09/20 16:48:15.6  -0.1                          T                                        5075024
SJPF  000.53 229.6 m E Sg      2012/09/20 16:48:22.5  -0.2                          T               31.5  .26        Md 2.2  5075023
ETSF  000.56 171.2 m E Pg      2012/09/20 16:48:15.7  -0.7                          T                                        5075022
ETSF  000.56 171.2 m E Sg      2012/09/20 16:48:24.0   0.1                          T               21.5  .26        Md 2.2  5075021
EPF   000.86 119.5 m E Pg      2012/09/20 16:48:21.4  -0.3                          T                                Md 2.7  5075020
EPF   000.86 119.5 m E Sg      2012/09/20 16:48:32.9   0.0                          T               18.5  .22 Ml 2.7         5075019
LFF   001.80 034.0 m E Pn      2012/09/20 16:48:35.8  -0.1                          T                                        5075006
LFF   001.80 034.0 m E Pg      2012/09/20 16:48:39.1   0.0                          T                                        5075005
LFF   001.80 034.0 m E Sn      2012/09/20 16:48:57.9  -0.1                          T                                        5075004
LFF   001.80 034.0 m E Sg      2012/09/20 16:49:02.2   0.0                          T                3.6  .24 Ml 2.2         5075003
MTLF  002.11 092.1 m E Pn      2012/09/20 16:48:39.9  -0.3                          T                                        5075018
MTLF  002.11 092.1 m E Pg      2012/09/20 16:48:45.3   0.4                          T                                        5075016
MTLF  002.11 092.1 m E Sn      2012/09/20 16:49:05.4   0.0                          T                                        5075017
MTLF  002.11 092.1 m E Sg      2012/09/20 16:49:12.3   0.2                          T                5.1  .32 Ml 2.4         5075015
CAF   002.46 052.4 m E Pn      2012/09/20 16:48:44.2  -0.8                          T                                        5075010
CAF   002.46 052.4 m E Pg      2012/09/20 16:48:51.3   0.0                          T                                        5075009
CAF   002.46 052.4 m E Sn      2012/09/20 16:49:13.2  -0.6                          T                                        5075008
CAF   002.46 052.4 m E Sg      2012/09/20 16:49:22.6  -0.4                          T                5.7  .42 Ml 2.4         5075007
RJF   002.43 039.6 m E Pn      2012/09/20 16:48:44.4  -0.1                          T                                        5075002
RJF   002.43 039.6 m E Pg      2012/09/20 16:48:51.1   0.4                          T                                        5075001
RJF   002.43 039.6 m E Sn      2012/09/20 16:49:12.8  -0.2                          T                                        5075000
RJF   002.43 039.6 m E Sg      2012/09/20 16:49:22.1   0.2                          T                2.4  .22 Ml 2.0         5074999
LASF  003.34 077.8 m E Pn      2012/09/20 16:48:57.0   0.1                          T                                        5075014
LASF  003.34 077.8 m E Pg      2012/09/20 16:49:07.9   0.3                          T                                        5075013
LASF  003.34 077.8 m E Sn      2012/09/20 16:49:34.4  -0.5                          T                                        5075012
LASF  003.34 077.8 m E Sg      2012/09/20 16:49:50.6   0.1                          T                1.1  .21 Ml 2.2         5075011
BGF   003.98 037.6 m E Pn      2012/09/20 16:49:05.8   0.2                          T                                        5074998
BGF   003.98 037.6 m E Sn      2012/09/20 16:49:50.0  -0.2                          T                                        5074997
BGF   003.98 037.6 m E Sg      2012/09/20 16:50:10.4   0.0                          T                5.1  .40 Ml 2.8         5074996

.
EVENT     283662
    Date      Time       Latitude Longitude    Depth    Ndef Nsta Gap    Mag1  N    Mag2  N    Mag3  N   Author         ID
       rms   OT_Error      Smajor Sminor Az        Err   mdist  Mdist     Err        Err        Err      Quality

2012/09/20 19:05:17.2     37.8274   -3.3301     10.0      58    4 074  Ml 2.6  3                         bulletin    283762
                                                                                                         _ldg
      0.61   +-  0.08       1.9    1.5    5.14 +-  0.0    0.21   8.17   +-0.1                            m i ke

SPAIN
Sta     Dist  EvAz     Phase      Date       Time     TRes  Azim  AzRes  Slow  SRes Def   SNR       Amp   Per   Mag1   Mag2       ID
ETSF  005.49 021.8 m E Pn      2012/09/20 19:06:37.7   0.7                          T                                        5075086
ETSF  005.49 021.8 m E Sn      2012/09/20 19:07:36.4  -0.1                          T                1.5  .38 Ml 2.6         5075082
SJPF  005.52 016.2 m E Pn      2012/09/20 19:06:38.2   0.9                          T                                        5075084
SJPF  005.52 016.2 m E Sn      2012/09/20 19:07:37.1   0.1                          T                 .7  .21 Ml 2.5         5075081
EPF   005.90 027.2 m E Pn      2012/09/20 19:06:42.8   0.2                          T                                        5075085
EPF   005.90 027.2 m E Sn      2012/09/20 19:07:46.1  -0.2                          T                1.4  .27 Ml 2.8         5075083
CAF   008.17 028.0 m E Pn      2012/09/20 19:07:13.3  -0.1                          T                                        5075080

.
EVENT     283663
    Date      Time       Latitude Longitude    Depth    Ndef Nsta Gap    Mag1  N    Mag2  N    Mag3  N   Author         ID
       rms   OT_Error      Smajor Sminor Az        Err   mdist  Mdist     Err        Err        Err      Quality

2012/09/20 20:06:36.5     44.4823    6.7020      2.0      30    6 068  Ml 1.7  3  Md 1.7  1              bulletin    283763
                                                                                                         _ldg
      0.28   +-  0.05       1.1     .8   52.06 +-  0.0    0.08   1.16   +-0.1      +-                    m i ke

FRANCE
Sta     Dist  EvAz     Phase      Date       Time     TRes  Azim  AzRes  Slow  SRes Def   SNR       Amp   Per   Mag1   Mag2       ID
MBDF  000.25 011.4 m E Pg      2012/09/20 20:06:41.6   0.0                          T                                        5075101
MBDF  000.25 011.4 m E Sg      2012/09/20 20:06:44.9  -0.2                          T                7.1  .22        Md 1.7  5075099
ORIF  000.73 306.9 m E Pg      2012/09/20 20:06:50.1  -0.3                          T                                        5075100
ORIF  000.73 306.9 m E Sg      2012/09/20 20:06:59.6  -0.3                          T                4.2  .26                5075098
FRF   000.92 182.5 m E Pg      2012/09/20 20:06:54.3   0.5                          T                                        5075108
FRF   000.92 182.5 m E Sg      2012/09/20 20:07:05.9   0.1                          T                1.8  .24 Ml 1.7         5075105
SMRF  000.96 238.4 m E Pg      2012/09/20 20:06:54.9   0.5                          T                                        5075109
SMRF  000.96 238.4 m E Sg      2012/09/20 20:07:06.6  -0.3                          T                1.3  .22 Ml 1.5         5075104
LPL   001.03 001.2 m E Pg      2012/09/20 20:06:56.1  -0.1                          T                                        5075110
LPL   001.03 001.2 m E Sg      2012/09/20 20:07:09.2  -0.3                          T                                        5075111
LMR   001.16 187.0 m E Pn      2012/09/20 20:06:58.6   0.6                          T                                        5075107
LMR   001.16 187.0 m E Sn      2012/09/20 20:07:13.6   0.2                          T                1.6  .20 Ml 1.8         5075106

.
EVENT     283664
    Date      Time       Latitude Longitude    Depth    Ndef Nsta Gap    Mag1  N    Mag2  N    Mag3  N   Author         ID
       rms   OT_Error      Smajor Sminor Az        Err   mdist  Mdist     Err        Err        Err      Quality

2012/09/20 23:07:44.0     44.4682    6.9616      2.0      51    8 039  Ml 2.2  6  Md 2.3  3              bulletin    283764
                                                                                                         _ldg
      0.28   +-  0.04        .8     .6   53.57 +-  0.0    0.11   1.73   +-0.3      +-0.2                 m i ke

FRANCE
Sta     Dist  EvAz     Phase      Date       Time     TRes  Azim  AzRes  Slow  SRes Def   SNR       Amp   Per   Mag1   Mag2       ID
MBDF  000.29 332.3 m E Pg      2012/09/20 23:07:49.7  -0.2                          T                                        5075129
MBDF  000.29 332.3 m E Sg      2012/09/20 23:07:53.7  -0.2                          T               16.3  .18        Md 2.1  5075122
SBF   000.69 150.4 m E Pg      2012/09/20 23:07:57.5   0.3                          T                                        5075123
SBF   000.69 150.4 m E Sg      2012/09/20 23:08:06.5   0.2                          T                                Md 2.3  5075116
ORIF  000.89 300.6 m E Pg      2012/09/20 23:08:00.8  -0.1                          T                                        5075128
ORIF  000.89 300.6 m E Sg      2012/09/20 23:08:12.3  -0.2                          T                5.6  .33 Ml 2.0         5075121
FRF   000.94 194.2 m E Pg      2012/09/20 23:08:01.6   0.0                          T                                        5075125
FRF   000.94 194.2 m E Sg      2012/09/20 23:08:13.8   0.1                          T               10.9  .22 Ml 2.5 Md 2.4  5075118
LPL   001.06 351.3 m E Pg      2012/09/20 23:08:04.0  -0.1                          T                                        5075127
LPL   001.06 351.3 m E Sg      2012/09/20 23:08:18.0   0.0                          T                3.1  .32 Ml 1.8         5075120
LMR   001.18 196.2 m E Pn      2012/09/20 23:08:06.0   0.2                          T                                        5075124
LMR   001.18 196.2 m E Sn      2012/09/20 23:08:21.4  -0.2                          T               10.8  .24 Ml 2.6         5075117
SMRF  001.11 244.2 m E Pn      2012/09/20 23:08:06.1   1.1                          T                                        5075126
SMRF  001.11 244.2 m E Sn      2012/09/20 23:08:19.5  -0.4                          T                5.6  .38 Ml 2.0         5075119
VIVF  001.68 284.2 m E P       2012/09/20 23:08:14.5  -0.2                          T                                        5075115
VIVF  001.68 284.2 m E Sn      2012/09/20 23:08:33.4  -0.1                          T                                        5075114

.
