EVENT     296287
    Date      Time       Latitude Longitude    Depth    Ndef Nsta Gap    Mag1  N    Mag2  N    Mag3  N   Author         ID
       rms   OT_Error      Smajor Sminor Az        Err   mdist  Mdist     Err        Err        Err      Quality

2013/04/17 14:44:29.6     43.6717   11.1297     10.0      80   22 043  Ml 3.2 23  Md 3.2  1              bulletin    296387
                                                                                                         _ldg
      0.58   +-  0.07       1.6    1.3   36.33 +-  0.0    0.14   6.84   +-0.3      +-                    m i ke

CENTRAL ITALY
Sta     Dist  EvAz     Phase      Date       Time     TRes  Azim  AzRes  Slow  SRes Def   SNR       Amp   Per   Mag1   Mag2       ID
PGF   001.92 235.0 m E Pn      2013/04/17 14:45:00.4  -0.4                          T                                        5260511
PGF   001.92 235.0 m E Sn      2013/04/17 14:45:23.3  -0.3                          T               61.3  .65 Ml 3.4 Md 3.2  5260498
SBF   002.68 275.4 m E Pn      2013/04/17 14:45:10.7  -0.4                          T                                        5260510
SBF   002.68 275.4 m E Sn      2013/04/17 14:45:41.4  -0.4                          T               64.3  .50 Ml 3.5         5260499
FRF   003.26 269.6 m E Pn      2013/04/17 14:45:18.4  -0.5                          T                                        5260508
FRF   003.26 269.6 m E Sn      2013/04/17 14:45:54.7  -0.7                          T               14.7  .39 Ml 3.1         5260500
MBDF  003.31 290.1 m E Pn      2013/04/17 14:45:19.6  -0.2                          T                                        5260504
MBDF  003.31 290.1 m E Sn      2013/04/17 14:45:55.5  -1.3                          T               29.8  .62 Ml 3.2         5260501
LMR   003.38 265.9 m E Pn      2013/04/17 14:45:20.0  -0.5                          T                                        5260509
LMR   003.38 265.9 m E Sn      2013/04/17 14:45:58.8   0.5                          T                6.8  .27 Ml 2.9         5260503
LPL   003.64 301.9 m E Pn      2013/04/17 14:45:24.0  -0.5                          T                                        5260506
LPG   003.62 301.8 m E Pn      2013/04/17 14:45:25.3   1.1                          T                                        5260549
LPG   003.62 301.8 m E Sn      2013/04/17 14:46:03.7  -0.8                          T                7.8  .36 Ml 2.9         5260550
ORIF  003.97 290.1 m E Pn      2013/04/17 14:45:29.3   0.5                          T                                        5260505
ORIF  003.97 290.1 m E Sn      2013/04/17 14:46:12.0  -0.5                          T               29.6  .53 Ml 3.4         5260502
SMRF  004.03 276.2 m E Pn      2013/04/17 14:45:30.2   0.7                          T                                        5260507
SMRF  004.03 276.2 m E Sn      2013/04/17 14:46:13.8  -0.1                          T               10.5  .50 Ml 3.0         5260551
CABF  004.62 311.2 m E Pn      2013/04/17 14:45:37.9   0.3                          T                                        5261798
CABF  004.62 311.2 m E Sn      2013/04/17 14:46:28.6   0.5                          T                4.6  .30 Ml 3.0         5261797
VIVF  004.79 286.6 m E Pn      2013/04/17 14:45:39.6  -0.2                          T                                        5260548
VIVF  004.79 286.6 m E Sn      2013/04/17 14:46:32.5   0.5                          T                4.0  .38 Ml 2.8         5260547
LASF  005.27 276.9 m E Pn      2013/04/17 14:45:48.2   1.8                          T                                        5261810
LASF  005.27 276.9 m E Sn      2013/04/17 14:46:42.9  -0.8                          T                1.3  .27 Ml 2.6         5261809
CDF   005.45 331.9 m E Pn      2013/04/17 14:45:49.4   0.6                          T                                        5261792
CDF   005.45 331.9 m E Sn      2013/04/17 14:46:48.3   0.4                          T                3.2  .20 Ml 3.3         5261791
HAU   005.47 324.1 m E Pn      2013/04/17 14:45:49.7   0.6                          T                                        5261796
HAU   005.47 324.1 m E Sn      2013/04/17 14:46:48.3   0.0                          T               34.9  .30 Ml 3.8         5261795
SMF   005.95 302.5 m E Pn      2013/04/17 14:45:56.0   0.4                          T                                        5261804
SMF   005.95 302.5 m E Sn      2013/04/17 14:47:00.0   0.2                          T                5.7  .32 Ml 3.3         5261803
PAGF  006.16 324.3 m E Pn      2013/04/17 14:45:57.8  -0.6 135.4  -5.0              T                                        5261794
PAGF  006.16 324.3 m E Sn      2013/04/17 14:47:05.5   0.8 138.3  -2.2              T                5.9  .25 Ml 3.5         5261793
LOR   006.25 307.7 m E Pn      2013/04/17 14:46:00.1   0.4 122.8  0.4               T                                        5261788
LOR   006.25 307.7 m E Sn      2013/04/17 14:47:06.9   0.0 123.7  1.2               T                5.3  .29 Ml 3.4         5261787
SSF   006.35 304.9 m E Pn      2013/04/17 14:46:00.5  -0.5                          T                                        5261790
SSF   006.35 304.9 m E Sn      2013/04/17 14:47:09.2  -0.1                          T                5.4  .41 Ml 3.4         5261789
AVF   006.31 302.3 m E Pn      2013/04/17 14:46:00.9   0.4                          T                                        5261802
AVF   006.31 302.3 m E Sn      2013/04/17 14:47:07.8  -0.7                          T                1.5  .27 Ml 2.9         5261801
BGF   006.53 299.1 m E Pn      2013/04/17 14:46:03.2  -0.3                          T                                        5261806
BGF   006.53 299.1 m E Sn      2013/04/17 14:47:13.2  -0.5                          T                7.0  .32 Ml 3.5         5261805
MTLF  006.49 270.1 m E Pn      2013/04/17 14:46:03.3   0.4                          T                                        5261808
MTLF  006.49 270.1 m E Sn      2013/04/17 14:47:12.5  -0.2                          T                1.2  .33 Ml 2.7         5261807
TCF   006.84 295.6 m E Pn      2013/04/17 14:46:08.2   0.4                          T                                        5261800
TCF   006.84 295.6 m E Sn      2013/04/17 14:47:20.6  -0.6                          T                2.8  .34 Ml 3.2         5261799

.
EVENT     296288
    Date      Time       Latitude Longitude    Depth    Ndef Nsta Gap    Mag1  N    Mag2  N    Mag3  N   Author         ID
       rms   OT_Error      Smajor Sminor Az        Err   mdist  Mdist     Err        Err        Err      Quality

2013/04/17 14:50:35.5     43.6337   11.1193      2.0      78   26 148  Ml 3.5 28  Md 3.2  1              bulletin    296388
                                                                                                         _ldg
      1.01   +-  0.17       3.9    2.3   68.07 +-  0.0    0.19   6.85   +-0.3      +-                    m i ke

CENTRAL ITALY
Sta     Dist  EvAz     Phase      Date       Time     TRes  Azim  AzRes  Slow  SRes Def   SNR       Amp   Per   Mag1   Mag2       ID
PGF   001.89 235.8 m E Pn      2013/04/17 14:51:06.3  -0.9                          T                                        5260571
PGF   001.89 235.8 m E Sn      2013/04/17 14:51:30.0  -0.3                          T               54.0  .40 Ml 3.6 Md 3.2  5260570
SBF   002.68 276.2 m E Pn      2013/04/17 14:51:17.4  -0.5                          T                                        5260572
SBF   002.68 276.2 m E Sn      2013/04/17 14:51:49.1   0.1                          T               47.7  .25 Ml 3.6         5260566
FRF   003.25 270.3 m E Pn      2013/04/17 14:51:25.3  -0.2                          T                                        5260574
FRF   003.25 270.3 m E Sn      2013/04/17 14:52:02.1  -0.4                          T               31.0  .37 Ml 3.4         5260568
MBDF  003.31 290.8 m E Pn      2013/04/17 14:51:26.3  -0.3                          T                                        5260579
MBDF  003.31 290.8 m E Sn      2013/04/17 14:52:04.1  -0.1                          T               57.4  .59 Ml 3.5         5260565
LMR   003.37 266.5 m E Pn      2013/04/17 14:51:26.7  -0.5                          T                                        5260573
LMR   003.37 266.5 m E Pg      2013/04/17 14:51:38.4   0.5                          T                                        5261811
LMR   003.37 266.5 m E Sn      2013/04/17 14:52:05.2  -0.2                          T               11.8  .24 Ml 3.2         5260567
LPG   003.64 302.3 m E Pn      2013/04/17 14:51:31.5   0.4                          T                                        5260576
LPG   003.64 302.3 m E Sn      2013/04/17 14:52:12.9   0.8                          T               32.1  .52 Ml 3.4         5261813
LPL   003.66 302.5 m E Pn      2013/04/17 14:51:31.7   0.4                          T                                        5260577
LPL   003.66 302.5 m E Sn      2013/04/17 14:52:12.2  -0.3                          T               18.2  .32 Ml 3.3         5261814
ORIF  003.98 290.7 m E Pn      2013/04/17 14:51:36.3   0.8                          T                                        5260578
ORIF  003.98 290.7 m E Sn      2013/04/17 14:52:20.9   0.9                          T               52.1  .50 Ml 3.7         5260569
SMRF  004.03 276.8 m E Pn      2013/04/17 14:51:36.6   0.4                          T                                        5260575
SMRF  004.03 276.8 m E Sn      2013/04/17 14:52:21.9   0.8                          T                5.8  .29 Ml 3.0         5261812
CABF  004.64 311.6 m E Pn      2013/04/17 14:51:45.3   0.7                          T                                        5260585
CABF  004.64 311.6 m E Sn      2013/04/17 14:52:36.1   0.2                          T                5.0  .32 Ml 3.0         5260558
VIVF  004.79 287.0 m E Pn      2013/04/17 14:51:46.9   0.3                          T                                        5260580
VIVF  004.79 287.0 m E Sn      2013/04/17 14:52:39.5   0.1                          T                5.2  .38 Ml 3.0         5260562
HINF  005.14 326.0 m E Pn      2013/04/17 14:51:51.6   0.2                          T                                        5260586
HINF  005.14 326.0 m E Sn      2013/04/17 14:52:47.1  -0.6                          T               22.9  .33 Ml 3.7         5261819
LASF  005.27 277.3 m E Pn      2013/04/17 14:51:53.5   0.4                          T                                        5260564
LASF  005.27 277.3 m E Sn      2013/04/17 14:52:51.3   0.5                          T                8.9  .56 Ml 3.1         5260563
CDF   005.48 332.1 m E Pn      2013/04/17 14:51:56.0   0.0                          T                                        5260588
CDF   005.48 332.1 m E Sn      2013/04/17 14:52:55.8  -0.1                          T               12.0  .27 Ml 3.7         5260556
HAU   005.50 324.3 m E Pn      2013/04/17 14:51:56.6   0.4                          T                                        5260587
HAU   005.50 324.3 m E Sn      2013/04/17 14:52:56.8   0.6                          T               58.5  .32 Ml 4.0         5260557
SMF   005.96 302.8 m E Pn      2013/04/17 14:52:03.2   0.7                          T                                        5260584
SMF   005.96 302.8 m E Sn      2013/04/17 14:53:07.9   0.5                          T               22.2  .44 Ml 3.8         5260560
PAGF  006.19 324.6 m E Pn      2013/04/17 14:52:06.3   0.7                          T                                        5261825
PAGF  006.19 324.6 m E Sn      2013/04/17 14:53:12.6  -0.1                          T                3.9  .17 Ml 3.5         5261824
SFTF  006.24 319.3 m E Pn      2013/04/17 14:52:06.4   0.2 136.6  1.7               T                                        5261821
SFTF  006.24 319.3 m E Sn      2013/04/17 14:53:14.7   0.8                          T                9.0  .20 Ml 3.8         5261820
LOR   006.27 308.0 m E Pn      2013/04/17 14:52:07.0   0.3 122.8  0.0               T                                        5260554
LOR   006.27 308.0 m E Sn      2013/04/17 14:53:15.3   0.7 122.2  -0.6              T               14.2  .39 Ml 3.7         5260552
AVF   006.33 302.6 m E Pn      2013/04/17 14:52:07.8   0.4                          T                                        5260583
AVF   006.33 302.6 m E Sn      2013/04/17 14:53:16.6   0.5                          T                5.6  .40 Ml 3.3         5260559
MEZF  006.44 321.2 m E Pn      2013/04/17 14:52:08.2  -0.8                          T                                        5261823
MEZF  006.44 321.2 m E Sn      2013/04/17 14:53:19.6   0.8                          T                7.6  .31 Ml 3.6         5261822
SSF   006.37 305.2 m E Pn      2013/04/17 14:52:08.4   0.5                          T                                        5260555
SSF   006.37 305.2 m E Sn      2013/04/17 14:53:17.7   0.8                          T                9.5  .48 Ml 3.5         5260553
MTLF  006.48 270.5 m E Pn      2013/04/17 14:52:09.6   0.1                          T                                        5260581
MTLF  006.48 270.5 m E Sn      2013/04/17 14:53:20.2   0.4                          T                2.5  .38 Ml 3.0         5261815
BGF   006.54 299.4 m E Pn      2013/04/17 14:52:10.5   0.1                          T                                        5260582
BGF   006.54 299.4 m E Sn      2013/04/17 14:53:21.4   0.2                          T               16.3  .38 Ml 3.8         5260561
CAF   006.63 284.4 m E Pn      2013/04/17 14:52:11.8   0.2                          T                                        5261816
TCF   006.85 295.9 m E Pn      2013/04/17 14:52:15.1   0.5                          T                                        5261818
TCF   006.85 295.9 m E Sn      2013/04/17 14:53:29.2   0.5                          T                3.8  .31 Ml 3.4         5261817

.
