BEGIN GSE2.0
MSG_TYPE DATA
MSG_ID 29-MAI-1313:54:26  FRA_NDC
E-MAIL
DATA_TYPE BULLETIN
Reviewed Bulletin (REB) # P2013-020  from French NDC for regional phases     PERIOD 15 MAI 2013 TO 21 MAI 2013 Cenalt JP S
EVENT     298154
    Date      Time       Latitude Longitude    Depth    Ndef Nsta Gap    Mag1  N    Mag2  N    Mag3  N   Author         ID
       rms   OT_Error      Smajor Sminor Az        Err   mdist  Mdist     Err        Err        Err      Quality

2013/05/15 04:17:10.5     44.8481   10.8972      2.0      32    8 249  Ml 2.4  9  Md 2.5  2              bulletin    298254
                                                                                                         _ldg
      0.40   +-  0.18       3.4    1.9   51.55 +-  0.0    0.42   3.91   +-0.3      +-0.0                 m i ke

NORTHERN ITALY
Sta     Dist  EvAz     Phase      Date       Time     TRes  Azim  AzRes  Slow  SRes Def   SNR       Amp   Per   Mag1   Mag2       ID
PGF   002.68 211.6 m E Pn      2013/05/15 04:17:52.9   0.1                          T                                        5282461
PGF   002.68 211.6 m E Sn      2013/05/15 04:18:24.1   0.1                          T                2.4  .22 Ml 2.6 Md 2.5  5282460
SBF   002.67 249.6 m E Pn      2013/05/15 04:17:53.1   0.4                          T                                        5282459
SBF   002.67 249.6 m E Sn      2013/05/15 04:18:23.8   0.1                          T                3.1  .23 Ml 2.5 Md 2.5  5282458
LPL   003.02 284.3 m E Pn      2013/05/15 04:17:57.4  -0.2                          T                                        5284198
LPL   003.02 284.3 m E Pg      2013/05/15 04:18:07.2   0.5                          T                                        5284199
LPL   003.02 284.3 m E Sn      2013/05/15 04:18:32.4   0.1                          T                                        5284200
LPL   003.02 284.3 m E Sg      2013/05/15 04:18:45.4  -0.1                          T                1.7  .30 Ml 2.2         5284201
LPG   003.00 284.0 m E Pn      2013/05/15 04:17:57.6   0.1                          T                                        5284202
LPG   003.00 284.0 m E Pg      2013/05/15 04:18:06.7   0.3                          T                                        5284203
LPG   003.00 284.0 m E Sn      2013/05/15 04:18:32.0   0.0                          T                                        5284204
LPG   003.00 284.0 m E Sg      2013/05/15 04:18:45.1   0.0                          T                1.1  .26 Ml 2.0         5284205
FRF   003.32 248.7 m E Pn      2013/05/15 04:18:01.3  -0.1                          T                                        5282462
FRF   003.32 248.7 m E Sn      2013/05/15 04:18:40.1   1.0                          T                4.3  .19 Ml 2.9         5282463
LMR   003.50 245.9 m E Pn      2013/05/15 04:18:03.9   0.0                          T                                        5282465
LMR   003.50 245.9 m E Sn      2013/05/15 04:18:43.7   0.2                          T                3.8  .35 Ml 2.6         5282464
ORIF  003.57 272.9 m E Pn      2013/05/15 04:18:04.7  -0.2                          T                                        5284194
ORIF  003.57 272.9 m E Pg      2013/05/15 04:18:16.5  -0.1                          T                                        5284195
ORIF  003.57 272.9 m E Sn      2013/05/15 04:18:45.0  -0.2                          T                                        5284196
ORIF  003.57 272.9 m E Sg      2013/05/15 04:19:02.3  -0.1                          T                1.0  .26 Ml 2.1         5284197
SMRF  003.91 259.0 m E Pn      2013/05/15 04:18:09.8   0.2                          T                                        5284193

.
EVENT     298156
    Date      Time       Latitude Longitude    Depth    Ndef Nsta Gap    Mag1  N    Mag2  N    Mag3  N   Author         ID
       rms   OT_Error      Smajor Sminor Az        Err   mdist  Mdist     Err        Err        Err      Quality

2013/05/15 05:11:39.0     44.4602    7.2812     11.0 f    67   17 085  Ml 2.1 12  Md 2.0  4              bulletin    298256
                                                                                                         _ldg
      0.51   +-  0.06       1.7    1.0   57.76 +-  0.0    0.05   4.01   +-0.3      +-0.0                 m i ke

NORTHERN ITALY
Sta     Dist  EvAz     Phase      Date       Time     TRes  Azim  AzRes  Slow  SRes Def   SNR       Amp   Per   Mag1   Mag2       ID
MBDF  000.45 306.4 m E Pg      2013/05/15 05:11:47.6  -0.4                          T                                        5282487
MBDF  000.45 306.4 m E Sg      2013/05/15 05:11:53.7  -0.4                          T               16.3  .23        Md 2.0  5282486
SBF   000.61 169.4 m E Pg      2013/05/15 05:11:50.8   0.1                          T                                        5282477
SBF   000.61 169.4 m E Sg      2013/05/15 05:11:58.9   0.1                          T                9.5  .20        Md 2.1  5282476
FRF   001.01 207.2 m E Pn      2013/05/15 05:11:57.5   0.0                          T                                        5282483
FRF   001.01 207.2 m E Sn      2013/05/15 05:12:10.8  -0.1                          T                6.5  .20 Ml 2.4 Md 2.0  5282482
ORIF  001.10 295.1 m E Pn      2013/05/15 05:11:59.0   0.1                          T                                        5282485
ORIF  001.10 295.1 m E Sn      2013/05/15 05:12:12.9  -0.2                          T                4.1  .28 Ml 2.0 Md 2.0  5282484
LPG   001.10 340.3 m E Pn      2013/05/15 05:11:59.5   0.3                          T                                        5282475
LPG   001.10 340.3 m E Sn      2013/05/15 05:12:13.6   0.1                          T                1.7  .20 Ml 1.8         5282474
LPL   001.13 340.0 m E Pn      2013/05/15 05:11:59.7   0.3                          T                                        5282511
LPL   001.13 340.0 m E Sn      2013/05/15 05:12:14.0   0.1                          T                2.0  .27 Ml 1.7         5282510
LMR   001.26 206.6 m E Pn      2013/05/15 05:12:01.2   0.3                          T                                        5282479
LMR   001.26 206.6 m E Pg      2013/05/15 05:12:02.3  -0.3                          T                                        5284206
LMR   001.26 206.6 m E Sn      2013/05/15 05:12:17.1   0.4                          T                8.0  .21 Ml 2.5         5282478
SMRF  001.32 249.1 m E Pg      2013/05/15 05:12:04.0   0.3                          T                                        5282481
SMRF  001.32 249.1 m E Sg      2013/05/15 05:12:21.1   0.2                          T                1.3  .19 Ml 1.8         5282480
VIVF  001.90 282.9 m E Pn      2013/05/15 05:12:10.0   0.2                          T                                        5282794
VIVF  001.90 282.9 m E Sn      2013/05/15 05:12:32.3   0.0                          T                 .7  .19 Ml 1.7         5282793
CABF  002.31 339.1 m E Pn      2013/05/15 05:12:15.6   0.2                          T                                        5282788
CABF  002.31 339.1 m E Sn      2013/05/15 05:12:42.3   0.2                          T                7.7  .22 Ml 2.8         5282787
PGF   002.28 146.2 m E Pn      2013/05/15 05:12:15.9   0.9                          T                                        5282796
PGF   002.28 146.2 m E Sn      2013/05/15 05:12:43.2   1.7                          T                 .5  .22 Ml 1.9         5282795
LASF  002.49 262.3 m E Pn      2013/05/15 05:12:17.9   0.1                          T                                        5282792
SMF   003.26 313.3 m E Pn      2013/05/15 05:12:29.3   1.1                          T                                        5282791
AVF   003.61 311.6 m E Pn      2013/05/15 05:12:33.2   0.3                          T                                        5282790
SSF   003.71 315.9 m E Pn      2013/05/15 05:12:34.6   0.3                          T                                        5282784
SSF   003.71 315.9 m E Sn      2013/05/15 05:13:15.9   0.5                          T                 .4  .18 Ml 2.0         5282783
LOR   003.69 320.8 m E P       2013/05/15 05:12:37.4   0.0                          T                                        5282786
LOR   003.69 320.8 m E Sn      2013/05/15 05:13:15.6   0.7                          T                 .5  .18 Ml 2.0         5282785
TCF   004.01 298.9 m E P       2013/05/15 05:12:42.5   0.4                          T                                        5282789

.
EVENT     298196
    Date      Time       Latitude Longitude    Depth    Ndef Nsta Gap    Mag1  N    Mag2  N    Mag3  N   Author         ID
       rms   OT_Error      Smajor Sminor Az        Err   mdist  Mdist     Err        Err        Err      Quality

2013/05/15 08:55:30.5     45.1031    7.3451      9.0 f    36    9 142  Ml 1.9  7  Md 2.0  3              bulletin    298296
                                                                                                         _ldg
      0.29   +-  0.05       1.2     .7  108.10 +-  0.0    0.08   1.91   +-0.3      +-0.0                 m i ke

NORTHERN ITALY
Sta     Dist  EvAz     Phase      Date       Time     TRes  Azim  AzRes  Slow  SRes Def   SNR       Amp   Per   Mag1   Mag2       ID
MBDF  000.55 227.5 m E Pg      2013/05/15 08:55:41.7   0.4                          T                                        5282573
MBDF  000.55 227.5 m E Sg      2013/05/15 08:55:48.3  -0.4                          T                6.6  .16        Md 2.0  5282572
LPG   000.58 313.5 m E Pg      2013/05/15 08:55:42.0   0.1                          T                                        5282569
LPG   000.58 313.5 m E Sg      2013/05/15 08:55:49.4  -0.1                          T                7.9  .23        Md 1.9  5282568
LPL   000.60 313.9 m E Pg      2013/05/15 08:55:42.4   0.2                          T                                        5282571
LPL   000.60 313.9 m E Sg      2013/05/15 08:55:50.1  -0.1                          T               13.2  .34        Md 1.9  5282570
ORIF  001.06 260.4 m E Pg      2013/05/15 08:55:51.3   0.8                          T                                        5282567
ORIF  001.06 260.4 m E Sg      2013/05/15 08:56:03.8  -0.4                          T                3.6  .28 Ml 1.9         5282566
SBF   001.24 177.0 m E Pn      2013/05/15 08:55:52.3  -0.2                          T                                        5282806
SBF   001.24 177.0 m E Sn      2013/05/15 08:56:08.2  -0.2                          T                3.6  .29 Ml 2.0         5282805
FRF   001.62 198.2 m E Pn      2013/05/15 08:55:57.9   0.3                          T                                        5282810
FRF   001.62 198.2 m E Sn      2013/05/15 08:56:17.3  -0.1                          T                4.9  .29 Ml 2.4         5282809
SMRF  001.69 228.9 m E Pn      2013/05/15 08:55:58.9   0.2                          T                                        5282812
SMRF  001.69 228.9 m E Sn      2013/05/15 08:56:19.1  -0.1                          T                 .8  .20 Ml 1.7         5282811
LMR   001.87 199.1 m E Pn      2013/05/15 08:56:00.7  -0.3                          T                                        5282808
LMR   001.87 199.1 m E Sn      2013/05/15 08:56:23.5   0.2                          T                2.2  .28 Ml 2.1         5282807
VIVF  001.91 263.5 m E Pn      2013/05/15 08:56:01.6   0.0                          T                                        5282804
VIVF  001.91 263.5 m E Sn      2013/05/15 08:56:24.1  -0.3                          T                  1  .26 Ml 1.8         5282803

.
EVENT     298512
    Date      Time       Latitude Longitude    Depth    Ndef Nsta Gap    Mag1  N    Mag2  N    Mag3  N   Author         ID
       rms   OT_Error      Smajor Sminor Az        Err   mdist  Mdist     Err        Err        Err      Quality

2013/05/15 10:28:32.6     42.9906    1.1955      6.0 f    18    4 103  Ml 1.9  2  Md 1.9  2              bulletin    298612
                                                                                                         _ldg
      0.26   +-  0.05       1.0     .8  141.07 +-  0.0    0.39   2.03   +-0.4      +-0.1                 m i ke

PYRENEES
Sta     Dist  EvAz     Phase      Date       Time     TRes  Azim  AzRes  Slow  SRes Def   SNR       Amp   Per   Mag1   Mag2       ID
EPF   000.63 273.9 m E Pg      2013/05/15 10:28:44.6   0.0                          T                                        5284083
EPF   000.63 273.9 m E Sg      2013/05/15 10:28:52.5  -0.4                          T                1.7  .24        Md 2.0  5284082
MTLF  000.83 064.5 m E Pg      2013/05/15 10:28:48.1   0.0                          T                                        5284081
MTLF  000.83 064.5 m E Sg      2013/05/15 10:28:59.0   0.0                          T                 .9  .19        Md 1.9  5284080
ETSF  001.29 266.5 m E Pg      2013/05/15 10:28:57.0   0.2                          T                                        5284079
ETSF  001.29 266.5 m E Sg      2013/05/15 10:29:13.5  -0.1                          T                1.0  .24 Ml 1.6         5284078
CAF   002.03 017.7 m E Pn      2013/05/15 10:29:05.8   0.1                          T                                        5284077
CAF   002.03 017.7 m E Sn      2013/05/15 10:29:29.8  -0.1                          T                2.1  .23 Ml 2.2         5284076

.
EVENT     298259
    Date      Time       Latitude Longitude    Depth    Ndef Nsta Gap    Mag1  N    Mag2  N    Mag3  N   Author         ID
       rms   OT_Error      Smajor Sminor Az        Err   mdist  Mdist     Err        Err        Err      Quality

2013/05/15 11:11:04.2     45.8995    7.3435      3.0 f    41   10 053  Ml 1.7  8  Md 1.7  2              bulletin    298359
                                                                                                         _ldg
      0.26   +-  0.04        .9     .6  109.27 +-  0.0    0.19   2.77   +-0.2      +-0.0                 m i ke

NORTHERN ITALY
Sta     Dist  EvAz     Phase      Date       Time     TRes  Azim  AzRes  Slow  SRes Def   SNR       Amp   Per   Mag1   Mag2       ID
LPL   000.57 228.4 m E Pg      2013/05/15 11:11:15.3  -0.2                          T                                        5282826
LPL   000.57 228.4 m E Sg      2013/05/15 11:11:22.8  -0.2                          T                1.8  .34        Md 1.7  5282825
LPG   000.58 226.1 m E Pg      2013/05/15 11:11:15.3  -0.3                          T                                        5282828
LPG   000.58 226.1 m E Sg      2013/05/15 11:11:23.0  -0.2                          T                2.3  .19        Md 1.7  5282827
CABF  001.13 309.7 m E Pg      2013/05/15 11:11:25.4   0.0                          T                                        5282862
CABF  001.13 309.7 m E Sg      2013/05/15 11:11:40.1   0.1                          T                1.1  .31 Ml 1.4         5282861
MBDF  001.24 199.2 m E Pg      2013/05/15 11:11:27.0  -0.6                          T                                        5284984
MBDF  001.24 199.2 m E Sg      2013/05/15 11:11:42.9  -0.7                          T                1.9  .26 Ml 1.8         5284983
ORIF  001.42 226.9 m E Pn      2013/05/15 11:11:29.4   0.0                          T                                        5282865
ORIF  001.42 226.9 m E Sn      2013/05/15 11:11:47.3  -0.2                          T                 .8  .26 Ml 1.5         5282864
HINF  001.95 350.2 m E Pn      2013/05/15 11:11:36.6   0.1                          T                                        5282860
HINF  001.95 350.2 m E Sn      2013/05/15 11:12:00.3   0.3                          T                                        5282859
HINF  001.95 350.2 m E Sg      2013/05/15 11:12:05.7   0.1                          T                1.1  .23 Ml 1.9         5284987
VIVF  002.15 242.0 m E Pn      2013/05/15 11:11:38.8  -0.5                          T                                        5282863
HAU   002.21 342.4 m E Pn      2013/05/15 11:11:40.2   0.1                          T                                        5282867
HAU   002.21 342.4 m E Sn      2013/05/15 11:12:06.7   0.3                          T                 .7  .21 Ml 1.6         5282866
CDF   002.51 359.0 m E Pn      2013/05/15 11:11:44.3   0.1                          T                                        5284996
CDF   002.51 359.0 m E Pg      2013/05/15 11:11:50.7  -0.2                          T                                        5284997
CDF   002.51 359.0 m E Sn      2013/05/15 11:12:13.4  -0.3                          T                1.4  .26 Ml 2.2         5284995
LOR   002.77 300.9 m E Pn      2013/05/15 11:11:47.6   0.0                          T                                        5282869
LOR   002.77 300.9 m E Pg      2013/05/15 11:11:55.5  -0.1                          T                                        5284985
LOR   002.77 300.9 m E Sn      2013/05/15 11:12:19.6   0.0                          T                                        5284986
LOR   002.77 300.9 m E Sg      2013/05/15 11:12:31.1   0.1                          T                 .4  .14 Ml 1.8         5282868

.
