BEGIN GSE2.0
MSG_TYPE DATA
MSG_ID 15-NOV-1212:03:11  FRA_NDC
E-MAIL
DATA_TYPE BULLETIN
Reviewed Bulletin (REB) # P2012-043  from French NDC for regional phases     PERIOD 24 OCT 2012 TO 30 OCT 2012 Cenalt JP S
EVENT     285735
    Date      Time       Latitude Longitude    Depth    Ndef Nsta Gap    Mag1  N    Mag2  N    Mag3  N   Author         ID
       rms   OT_Error      Smajor Sminor Az        Err   mdist  Mdist     Err        Err        Err      Quality

2012/10/24 01:19:11.4     42.0783    9.2169      2.0      12    5 321  Ml 1.7  4  Md 2.0  1              bulletin    285835
                                                                                                         _ldg
      0.72   +-  0.41       7.1    5.2  130.90 +-  0.0    0.50   3.27   +-0.2      +-                    m i ke

CORSICA, FRANCE
Sta     Dist  EvAz     Phase      Date       Time     TRes  Azim  AzRes  Slow  SRes Def   SNR       Amp   Per   Mag1   Mag2       ID
PGF   000.50 341.1 m E Pg      2012/10/24 01:19:21.3   0.3                          T                                        5103428
PGF   000.50 341.1 m E Sg      2012/10/24 01:19:27.7   0.2                          T               13.3  .20        Md 2.0  5103427
SBF   002.21 324.4 m E Pn      2012/10/24 01:19:47.1  -0.3                          T                                        5103426
SBF   002.21 324.4 m E Sn      2012/10/24 01:20:13.3  -0.4                          T                 .9  .22 Ml 1.9         5103425
LMR   002.36 303.1 m E Pn      2012/10/24 01:19:49.2  -0.1                          T                                        5103424
LMR   002.36 303.1 m E Sn      2012/10/24 01:20:16.4  -0.7                          T                 .8  .18 Ml 1.9         5103423
FRF   002.40 308.9 m E Pn      2012/10/24 01:19:50.0   0.1                          T                                        5103422
FRF   002.40 308.9 m E Sn      2012/10/24 01:20:18.2   0.0                          T                 .2  .14 Ml 1.5         5103421
SMRF  003.27 306.6 m E Pn      2012/10/24 01:20:02.1   0.3                          T                                        5103420
SMRF  003.27 306.6 m E Sn      2012/10/24 01:20:37.9  -1.2                          T                 .3  .27 Ml 1.5         5103419

.
EVENT     285736
    Date      Time       Latitude Longitude    Depth    Ndef Nsta Gap    Mag1  N    Mag2  N    Mag3  N   Author         ID
       rms   OT_Error      Smajor Sminor Az        Err   mdist  Mdist     Err        Err        Err      Quality

2012/10/24 01:42:09.7     42.0674    9.2232      2.0      12    5 322  Ml 1.8  4  Md 2.0  1              bulletin    285836
                                                                                                         _ldg
      0.67   +-  0.39       6.8    5.0  129.64 +-  0.0    0.51   3.29   +-0.3      +-                    m i ke

CORSICA, FRANCE
Sta     Dist  EvAz     Phase      Date       Time     TRes  Azim  AzRes  Slow  SRes Def   SNR       Amp   Per   Mag1   Mag2       ID
PGF   000.51 341.0 m E Pg      2012/10/24 01:42:19.8   0.2                          T                                        5103438
PGF   000.51 341.0 m E Sg      2012/10/24 01:42:26.6   0.3                          T               18.8  .20        Md 2.0  5103437
SBF   002.22 324.4 m E Pn      2012/10/24 01:42:45.5  -0.4                          T                                        5103436
SBF   002.22 324.4 m E Sn      2012/10/24 01:43:11.6  -0.8                          T                 .9  .15 Ml 2.0         5103435
LMR   002.37 303.2 m E Pn      2012/10/24 01:42:47.6  -0.1                          T                                        5103434
LMR   002.37 303.2 m E Sn      2012/10/24 01:43:14.8  -0.8                          T                1.1  .20 Ml 2.1         5103433
FRF   002.41 309.1 m E Pn      2012/10/24 01:42:48.8   0.4                          T                                        5103432
FRF   002.41 309.1 m E Sn      2012/10/24 01:43:17.4   0.6                          T                 .5  .19 Ml 1.8         5103431
SMRF  003.29 306.7 m E Pn      2012/10/24 01:43:00.4   0.1                          T                                        5103442
SMRF  003.29 306.7 m E Sn      2012/10/24 01:43:37.4  -0.3                          T                 .2  .31 Ml 1.4         5103441

.
EVENT     285737
    Date      Time       Latitude Longitude    Depth    Ndef Nsta Gap    Mag1  N    Mag2  N    Mag3  N   Author         ID
       rms   OT_Error      Smajor Sminor Az        Err   mdist  Mdist     Err        Err        Err      Quality

2012/10/24 02:27:43.9     42.0646    9.1950      2.0      10    4 320  Ml 1.5  3  Md 2.1  1              bulletin    285837
                                                                                                         _ldg
      0.34   +-  0.20       3.5    2.4  133.28 +-  0.0    0.50   3.27   +-0.7      +-                    m i ke

CORSICA, FRANCE
Sta     Dist  EvAz     Phase      Date       Time     TRes  Azim  AzRes  Slow  SRes Def   SNR       Amp   Per   Mag1   Mag2       ID
PGF   000.50 343.4 m E Pg      2012/10/24 02:27:53.8   0.1                          T                                        5103448
PGF   000.50 343.4 m E Sg      2012/10/24 02:28:00.6   0.3                          T                7.7  .19        Md 2.1  5103447
SBF   002.21 324.9 m E Pn      2012/10/24 02:28:19.7  -0.2                          T                                        5103446
SBF   002.21 324.9 m E Sn      2012/10/24 02:28:46.0  -0.2                          T                1.1  .14 Ml 2.2         5103445
LMR   002.35 303.6 m E Pn      2012/10/24 02:28:21.8   0.1                          T                                        5103444
LMR   002.35 303.6 m E Sn      2012/10/24 02:28:49.2  -0.3                          T                 .4  .18 Ml 1.7         5103443
SMRF  003.27 307.0 m E Pn      2012/10/24 02:28:34.4   0.1                          T                                        5103452
SMRF  003.27 307.0 m E Sn      2012/10/24 02:29:11.2  -0.3                          T                     .17 Ml  .7         5103451

.
EVENT     285738
    Date      Time       Latitude Longitude    Depth    Ndef Nsta Gap    Mag1  N    Mag2  N    Mag3  N   Author         ID
       rms   OT_Error      Smajor Sminor Az        Err   mdist  Mdist     Err        Err        Err      Quality

2012/10/24 02:27:54.6     42.1177    9.1912      7.0      10    4 320  Ml 1.6  3  Md 1.8  1              bulletin    285838
                                                                                                         _ldg
      0.75   +-  0.48       7.5    6.1  162.49 +-  2.2    0.45   3.24   +-0.5      +-                    m i ke

CORSICA, FRANCE
Sta     Dist  EvAz     Phase      Date       Time     TRes  Azim  AzRes  Slow  SRes Def   SNR       Amp   Per   Mag1   Mag2       ID
PGF   000.45 341.8 m E Pg      2012/10/24 02:28:03.4  -0.1                          T                                        5103460
PGF   000.45 341.8 m E Sg      2012/10/24 02:28:10.1   0.5                          T                4.5  .17        Md 1.8  5103459
SBF   002.17 324.1 m E Pn      2012/10/24 02:28:29.3  -0.2                          T                                        5103458
SBF   002.17 324.1 m E Sn      2012/10/24 02:28:55.2   0.2                          T                 .7  .16 Ml 1.9         5103457
LMR   002.32 302.5 m E Pn      2012/10/24 02:28:31.5   0.1                          T                                        5103456
LMR   002.32 302.5 m E Sn      2012/10/24 02:28:58.7   0.1                          T                 .7  .23 Ml 1.8         5103455
SMRF  003.24 306.2 m E Pn      2012/10/24 02:28:44.3   0.3                          T                                        5103454
SMRF  003.24 306.2 m E Sn      2012/10/24 02:29:19.6  -0.9                          T                 .1  .15 Ml 1.0         5103453

.
EVENT     286188
    Date      Time       Latitude Longitude    Depth    Ndef Nsta Gap    Mag1  N    Mag2  N    Mag3  N   Author         ID
       rms   OT_Error      Smajor Sminor Az        Err   mdist  Mdist     Err        Err        Err      Quality

2012/10/24 10:32:38.3     44.6669    9.7849     50.0 f    16    4 202                                    bulletin    286288
                                                                                                         _ldg
                                               +-         0.36   3.10                                    m i ke

NORTHERN ITALY
Sta     Dist  EvAz     Phase      Date       Time     TRes  Azim  AzRes  Slow  SRes Def   SNR       Amp   Per   Mag1   Mag2       ID
SBF   001.87 245.4 m E Pg      2012/10/24 10:33:08.2   0.1                          T                                        5108240
SBF   001.87 245.4 m E Sg      2012/10/24 10:33:29.8  -0.2                          T                  1  .17                5108239
LMR   002.71 241.7 m E Pg      2012/10/24 10:33:19.5   0.3                          T                                        5108241
LMR   002.71 241.7 m E Sg      2012/10/24 10:33:49.3  -0.2                          T                 .7  .20                5108236
ORIF  002.79 276.5 m E Pg      2012/10/24 10:33:20.3   0.0                          T                                        5108235
ORIF  002.79 276.5 m E Sg      2012/10/24 10:33:51.6   0.0                          T                 .9  .19                5108234
SMRF  003.10 258.6 m E Pg      2012/10/24 10:33:24.7   0.4                          T                                        5108238
SMRF  003.10 258.6 m E Sg      2012/10/24 10:33:58.8   0.1                          T                 .5  .23                5108237

.
EVENT     285803
    Date      Time       Latitude Longitude    Depth    Ndef Nsta Gap    Mag1  N    Mag2  N    Mag3  N   Author         ID
       rms   OT_Error      Smajor Sminor Az        Err   mdist  Mdist     Err        Err        Err      Quality

2012/10/24 12:12:59.5     43.9365    7.2476       .0 f    32    7 082  Ml 2.3  5  Md 2.2  2              bulletin    285903
                                                                                                         _ldg
      0.59   +-  0.11       2.3    2.0   60.94 +-  0.0    0.08   1.62   +-0.3      +-0.1                 m i km

NEAR SOUTH COAST OF FRANCE
Sta     Dist  EvAz     Phase      Date       Time     TRes  Azim  AzRes  Slow  SRes Def   SNR       Amp   Per   Mag1   Mag2       ID
SBF   000.15 118.4 m E Pg      2012/10/24 12:13:02.5  -0.5                          T                                        5103713
SBF   000.15 118.4 m E Sg      2012/10/24 12:13:04.3  -1.0                          T              183.8  .62        Md 2.2  5103707
FRF   000.58 229.4 m E Pg      2012/10/24 12:13:10.9   0.2                          T                                        5103711
FRF   000.58 229.4 m E Sg      2012/10/24 12:13:18.6   0.2                          T                7.7  .28                5103704
LMR   000.81 221.9 m E Pg      2012/10/24 12:13:14.0  -0.9                          T                                        5103712
LMR   000.81 221.9 m E Sg      2012/10/24 12:13:25.7   0.1                          T               10.0  .34                5103706
MBDF  000.86 336.8 m E Pg      2012/10/24 12:13:15.8  -0.3                          T                                        5103709
MBDF  000.86 336.8 m E Sg      2012/10/24 12:13:27.3  -0.2                          T                6.1  .33 Ml 2.0 Md 2.1  5103703
SMRF  001.21 272.4 m E Pg      2012/10/24 12:13:22.1  -0.3                          T                                        5103710
SMRF  001.21 272.4 m E Sg      2012/10/24 12:13:39.1   0.9                          T               15.2  .26 Ml 2.7         5103705
ORIF  001.39 315.5 m E Pg      2012/10/24 12:13:26.2   0.5                          T                                        5116488
ORIF  001.39 315.5 m E Sg      2012/10/24 12:13:44.5   0.7                          T                6.5  .35 Ml 2.3         5103702
LPL   001.62 347.1 m E Pn      2012/10/24 12:13:28.1   0.0                          T                                        5103701
LPL   001.62 347.1 m E Sg      2012/10/24 12:13:51.2  -0.1                          T                4.4  .44 Ml 2.1         5116487

.
EVENT     285805
    Date      Time       Latitude Longitude    Depth    Ndef Nsta Gap    Mag1  N    Mag2  N    Mag3  N   Author         ID
       rms   OT_Error      Smajor Sminor Az        Err   mdist  Mdist     Err        Err        Err      Quality

2012/10/24 13:29:33.6     44.5118    7.2308      5.0 f    14    4 143  Ml 1.8  3  Md 1.6  1              bulletin    285905
                                                                                                         _ldg
      0.18   +-  0.06       1.8     .9   73.11 +-  0.0    0.01   1.29   +-0.2      +-                    m i ke

NORTHERN ITALY
Sta     Dist  EvAz     Phase      Date       Time     TRes  Azim  AzRes  Slow  SRes Def   SNR       Amp   Per   Mag1   Mag2       ID
MBDF  000.39 303.4 m E Pg      2012/10/24 13:29:41.3  -0.1                          T                                        5103777
MBDF  000.39 303.4 m E Sg      2012/10/24 13:29:46.2  -0.4                          T                3.3  .25        Md 1.6  5103775
LPL   001.07 340.8 m E Pg      2012/10/24 13:29:54.0   0.1                          T                                        5103787
LPL   001.07 340.8 m E Sg      2012/10/24 13:30:08.1   0.4                          T                3.1  .26 Ml 1.9         5103788
LMR   001.29 204.1 m E Pg      2012/10/24 13:29:57.7   0.1                          T                                        5116490
LMR   001.29 204.1 m E Sg      2012/10/24 13:30:14.1  -0.2                          T                1.1  .28 Ml 1.6         5116491
FRF   001.04 204.1 m E Sg      2012/10/24 13:30:06.8   0.2                          T                3.1  .24 Ml 2.0         5116492

.
EVENT     285808
    Date      Time       Latitude Longitude    Depth    Ndef Nsta Gap    Mag1  N    Mag2  N    Mag3  N   Author         ID
       rms   OT_Error      Smajor Sminor Az        Err   mdist  Mdist     Err        Err        Err      Quality

2012/10/24 16:23:04.0     42.8721     .0804      2.0       6    4 200  Ml 1.5  2  Md 1.3  2              bulletin    285908
                                                                                                         _ldg
      0.10   +-  0.11       4.7     .7  166.99 +-  0.0    0.25   1.63   +-0.2      +-0.3                 m i ke

PYRENEES
Sta     Dist  EvAz     Phase      Date       Time     TRes  Azim  AzRes  Slow  SRes Def   SNR       Amp   Per   Mag1   Mag2       ID
EPF   000.25 050.2 m E Pg      2012/10/24 16:23:08.9   0.0                          T                                        5103819
EPF   000.25 050.2 m E Sg      2012/10/24 16:23:12.1  -0.2                          T               12.2  .30        Md 1.5  5103817
ETSF  000.47 273.4 m E Pg      2012/10/24 16:23:13.0   0.0                          T                                        5103818
ETSF  000.47 273.4 m E Sg      2012/10/24 16:23:19.2  -0.1                          T                2.3  .18        Md 1.1  5103816
SJPF  000.99 284.6 m E Sg      2012/10/24 16:23:35.5   0.1                          T                1.1  .32 Ml 1.3         5116493
MTLF  001.63 072.6 m E Sg      2012/10/24 16:23:55.6   0.1                          T                1.5  .45 Ml 1.6         5116494

.
EVENT     285810
    Date      Time       Latitude Longitude    Depth    Ndef Nsta Gap    Mag1  N    Mag2  N    Mag3  N   Author         ID
       rms   OT_Error      Smajor Sminor Az        Err   mdist  Mdist     Err        Err        Err      Quality

2012/10/24 16:23:57.1     44.5134    6.6817      2.0      15    5 119  Ml 1.5  3  Md 1.6  2              bulletin    285910
                                                                                                         _ldg
      0.22   +-  0.07       1.7    1.2   71.33 +-  0.0    0.10   2.25   +-0.1      +-0.1                 m i ke

FRANCE
Sta     Dist  EvAz     Phase      Date       Time     TRes  Azim  AzRes  Slow  SRes Def   SNR       Amp   Per   Mag1   Mag2       ID
MBDF  000.22 016.7 m E Pg      2012/10/24 16:24:01.9   0.1                          T                                        5103834
MBDF  000.22 016.7 m E Sg      2012/10/24 16:24:04.8   0.0                          T                2.2  .24        Md 1.7  5103832
ORIF  000.70 305.6 m E Pg      2012/10/24 16:24:10.3  -0.1                          T                                        5103833
ORIF  000.70 305.6 m E Sg      2012/10/24 16:24:19.5  -0.1                          T                1.3  .21        Md 1.6  5103831
FRF   000.95 181.5 m E Pg      2012/10/24 16:24:15.3   0.3                          T                                        5103837
FRF   000.95 181.5 m E Sg      2012/10/24 16:24:27.0  -0.3                          T                1.3  .28 Ml 1.5         5103838
LPL   001.00 002.0 m E Pg      2012/10/24 16:24:16.3   0.1                          T                                        5103830
LPL   001.00 002.0 m E Sg      2012/10/24 16:24:28.9  -0.3                          T                1.4  .33 Ml 1.4         5103829
LMR   001.19 186.1 m E Pg      2012/10/24 16:24:19.2   0.0                          T                                        5103836
LMR   001.19 186.1 m E Sg      2012/10/24 16:24:34.8   0.2                          T                1.1  .24 Ml 1.6         5103835

.
EVENT     285809
    Date      Time       Latitude Longitude    Depth    Ndef Nsta Gap    Mag1  N    Mag2  N    Mag3  N   Author         ID
       rms   OT_Error      Smajor Sminor Az        Err   mdist  Mdist     Err        Err        Err      Quality

2012/10/24 17:22:56.7     42.8340     .0052     15.0       8    4 207  Ml 1.6  2  Md 1.7  2              bulletin    285909
                                                                                                         _ldg
      0.16   +-  0.13       6.4    1.1  171.73 +-  0.0    0.31   1.70   +-0.3      +-0.1                 m i ke

PYRENEES
Sta     Dist  EvAz     Phase      Date       Time     TRes  Azim  AzRes  Slow  SRes Def   SNR       Amp   Per   Mag1   Mag2       ID
EPF   000.31 051.3 m E Pg      2012/10/24 17:23:03.3  -0.1                          T                                        5103845
EPF   000.31 051.3 m E Sg      2012/10/24 17:23:08.1   0.1                          T                7.7  .24        Md 1.7  5103843
ETSF  000.42 279.0 m E Pg      2012/10/24 17:23:05.4   0.1                          T                                        5103846
ETSF  000.42 279.0 m E Sg      2012/10/24 17:23:10.7  -0.4                          T               21.3  .26        Md 1.6  5103844
SJPF  000.95 287.6 m E Pn      2012/10/24 17:23:14.0   0.1                          T                                        5103842
SJPF  000.95 287.6 m E Sn      2012/10/24 17:23:26.1  -0.2                          T                 .7  .17 Ml 1.4         5103840
MTLF  001.70 071.9 m E Pn      2012/10/24 17:23:24.1  -0.1                          T                                        5103841
MTLF  001.70 071.9 m E Sn      2012/10/24 17:23:44.4   0.0                          T                1.3  .27 Ml 1.8         5103839

.
