EVENT     257627
    Date      Time       Latitude Longitude    Depth    Ndef Nsta Gap    Mag1  N    Mag2  N    Mag3  N   Author         ID
       rms   OT_Error      Smajor Sminor Az        Err   mdist  Mdist     Err        Err        Err      Quality

2011/03/27 02:49:59.0     42.8186   -1.0553      2.0      28    3 100  Ml 1.5  1  Md 1.7  3              js067245    257627

      0.32   +-  0.08       1.5    1.1   39.79 +-  0.0    0.12   1.05   +-         +-0.0                 m i ke

PYRENEES
Sta     Dist  EvAz     Phase      Date       Time     TRes  Azim  AzRes  Slow  SRes Def   SNR       Amp   Per   Mag1   Mag2       ID
SJPF  000.32 337.1 m E Pg      2011/03/27 02:50:05.0  -0.2                          T                                        4664843
SJPF  000.32 337.1 m E Sg      2011/03/27 02:50:10.6   1.1                          T                3.8  .26        Md 1.7  4664840
ETSF  000.37 077.5 m E Pg      2011/03/27 02:50:06.5   0.2                          T                                        4664842
ETSF  000.37 077.5 m E Sg      2011/03/27 02:50:13.3   2.0                          T                2.7  .31        Md 1.7  4664841
EPF   001.05 077.9 m E Pg      2011/03/27 02:50:18.6  -0.1                          T                                        4664838
EPF   001.05 077.9 m E Sg      2011/03/27 02:50:34.2   1.9                          T                 .9  .21 Ml 1.5 Md 1.7  4664839

.
EVENT     257613
    Date      Time       Latitude Longitude    Depth    Ndef Nsta Gap    Mag1  N    Mag2  N    Mag3  N   Author         ID
       rms   OT_Error      Smajor Sminor Az        Err   mdist  Mdist     Err        Err        Err      Quality

2011/03/27 03:55:33.3     48.0581    7.9188     10.0      23    8 041  Ml 1.5  6  Md 1.8  3              js067245    257613

      0.31   +-  0.04        .9     .7    6.98 +-  0.0    0.07   1.97   +-0.3      +-0.2                 m i ke

FRANCE
Sta     Dist  EvAz     Phase      Date       Time     TRes  Azim  AzRes  Slow  SRes Def   SNR       Amp   Per   Mag1   Mag2       ID
CDF   000.56 309.7 m E Pg      2011/03/27 03:55:44.0  -0.2                          T                                        4664859
CDF   000.56 309.7 m E Sg      2011/03/27 03:55:50.8  -0.7                          T                1.9  .28        Md 1.7  4664856
HINF  000.76 251.8 m E Pg      2011/03/27 03:55:47.7   0.0                          T                                        4664858
HINF  000.76 251.8 m E Sg      2011/03/27 03:55:57.8   0.1                          T                1.6  .29        Md 1.6  4664855
LANF  000.93 355.4 m E Pg      2011/03/27 03:55:50.5  -0.3                          T                                        4664850
LANF  000.93 355.4 m E Sg      2011/03/27 03:56:02.5  -0.4                          T                1.3  .19 Ml 1.6 Md 2.0  4664851
HAU   001.06 267.7 m E Pg      2011/03/27 03:55:53.2   0.0                          T                                        4664857
HAU   001.06 267.7 m E Sg      2011/03/27 03:56:07.0   0.1                          T                2.1  .30 Ml 1.5         4664854
THEF  001.30 278.2 m E Pg      2011/03/27 03:55:57.7   0.0                          T                                        4664852
THEF  001.30 278.2 m E Sg      2011/03/27 03:56:14.5   0.0                          T                3.0  .30 Ml 1.9         4664853
PAGF  001.55 289.6 m E Pg      2011/03/27 03:56:02.2   0.0                          T                                        4664849
PAGF  001.55 289.6 m E Sg      2011/03/27 03:56:22.0  -0.1                          T                 .4  .46 Ml 1.0         4664844
SFTF  001.94 275.4 m E Pg      2011/03/27 03:56:09.4   0.1  94.8  1.5               T                                        4664847
SFTF  001.94 275.4 m E Sg      2011/03/27 03:56:34.4   0.1                          T                 .7  .24 Ml 1.7         4664846
MEZF  001.97 284.1 m E Pg      2011/03/27 03:56:09.9   0.0                          T                                        4664848
MEZF  001.97 284.1 m E Sg      2011/03/27 03:56:35.2   0.0                          T                 .9  .42 Ml 1.5         4664845

.
EVENT     257628
    Date      Time       Latitude Longitude    Depth    Ndef Nsta Gap    Mag1  N    Mag2  N    Mag3  N   Author         ID
       rms   OT_Error      Smajor Sminor Az        Err   mdist  Mdist     Err        Err        Err      Quality

2011/03/27 05:58:55.2     42.8878    -.5430      2.0      24    4 144  Ml 1.6  2  Md 1.7  3              js067245    257628

      0.60   +-  0.13       4.7    1.9  160.00 +-  0.0    0.02   2.07   +-0.2      +-0.0                 m i ke

PYRENEES
Sta     Dist  EvAz     Phase      Date       Time     TRes  Azim  AzRes  Slow  SRes Def   SNR       Amp   Per   Mag1   Mag2       ID
ETSF  000.02 312.2 m E Pg      2011/03/27 05:58:56.2   0.1                          T                                        4664869
ETSF  000.02 312.2 m E Sg      2011/03/27 05:58:57.2   0.5                          T               66.2  .24        Md 1.7  4664868
SJPF  000.55 294.5 m E Pg      2011/03/27 05:59:05.7   0.0                          T                                        4664864
SJPF  000.55 294.5 m E Sg      2011/03/27 05:59:13.0   0.1                          T                2.5  .28        Md 1.7  4664867
EPF   000.66 077.3 m E Pg      2011/03/27 05:59:08.0   0.2                          T                                        4664865
EPF   000.66 077.3 m E Sg      2011/03/27 05:59:16.7   0.2                          T                1.8  .20        Md 1.6  4664866
MTLF  002.07 076.4 m E Pn      2011/03/27 05:59:29.4   0.1                          T                                        4664863
MTLF  002.07 076.4 m E Sn      2011/03/27 05:59:54.4   0.3                          T                 .4  .25 Ml 1.4         4664862

.
EVENT     257629
    Date      Time       Latitude Longitude    Depth    Ndef Nsta Gap    Mag1  N    Mag2  N    Mag3  N   Author         ID
       rms   OT_Error      Smajor Sminor Az        Err   mdist  Mdist     Err        Err        Err      Quality

2011/03/27 09:38:18.2     43.0628    -.8520      2.0       6    3 128  Ml 1.2  1  Md 1.5  3              js067245    257629

      0.25   +-  0.07       2.2    1.1   15.30 +-  0.0    0.10   0.87   +-         +-0.0                 m i ke

PYRENEES
Sta     Dist  EvAz     Phase      Date       Time     TRes  Azim  AzRes  Slow  SRes Def   SNR       Amp   Per   Mag1   Mag2       ID
ETSF  000.27 127.3 m E Pg      2011/03/27 09:38:23.4  -0.2                          T                                        4664874
ETSF  000.27 127.3 m E Sg      2011/03/27 09:38:27.2   0.0                          T               10.4  .32        Md 1.5  4664873
SJPF  000.28 280.6 m E Pg      2011/03/27 09:38:23.7   0.0                          T                                        4664875
SJPF  000.28 280.6 m E Sg      2011/03/27 09:38:27.7   0.3                          T                6.6  .21        Md 1.5  4664872
EPF   000.87 091.7 m E Pg      2011/03/27 09:38:35.8   1.1                          T                                        4664870
EPF   000.87 091.7 m E Sg      2011/03/27 09:38:46.9   0.8                          T                 .6  .21 Ml 1.2 Md 1.4  4664871

.
EVENT     257630
    Date      Time       Latitude Longitude    Depth    Ndef Nsta Gap    Mag1  N    Mag2  N    Mag3  N   Author         ID
       rms   OT_Error      Smajor Sminor Az        Err   mdist  Mdist     Err        Err        Err      Quality

2011/03/27 12:22:49.4     51.5408    6.5974      1.0 f    48   19 246  Ml 2.6 19                         js067245    257630

      0.35   +-  0.15       2.7    1.9  178.20 +-  0.0    0.31   5.56   +-0.3                            m i sr

GERMANY
Sta     Dist  EvAz     Phase      Date       Time     TRes  Azim  AzRes  Slow  SRes Def   SNR       Amp   Per   Mag1   Mag2       ID
GIVF  001.83 218.7 m E Pn      2011/03/27 12:23:20.3   0.1                          T                                        4664910
GIVF  001.83 218.7 m E P       2011/03/27 12:23:22.4   0.1                          T                                        4668278
GIVF  001.83 218.7 m E Sn      2011/03/27 12:23:42.9   0.3                          T               14.5  .20 Ml 3.0         4664894
RUP   001.86 170.7 m E P       2011/03/27 12:23:22.8  -0.1                          T                                        4664909
RUP   001.86 170.7 m E Sn      2011/03/27 12:23:43.5  -0.1                          T                                        4664892
BAIF  002.12 226.6 m E Pn      2011/03/27 12:23:25.5   1.3                          T                                        4664906
BAIF  002.12 226.6 m E Sn      2011/03/27 12:23:49.7   0.0                          T                8.0  .34 Ml 2.6         4664893
LANF  002.68 162.7 m E Pn      2011/03/27 12:23:31.7  -0.1                          T                                        4664905
LANF  002.68 162.7 m E P       2011/03/27 12:23:34.5   0.0                          T                                        4668277
LANF  002.68 162.7 m E Sn      2011/03/27 12:24:02.8  -0.2                          T               11.7  .48 Ml 2.7         4664891
PAGF  003.04 191.0 m E Pn      2011/03/27 12:23:36.7  -0.1                          T                                        4664903
PAGF  003.04 191.0 m E Pg      2011/03/27 12:23:46.0   0.2                          T                                        4668274
PAGF  003.04 191.0 m E Sn      2011/03/27 12:24:10.9  -0.7                          T                1.4  .39 Ml 2.0         4664889
CDF   003.16 171.8 m E Pn      2011/03/27 12:23:38.5   0.0                          T                                        4664904
CDF   003.16 171.8 m E Pg      2011/03/27 12:23:48.5   0.4                          T                                        4668273
CDF   003.16 171.8 m E Sn      2011/03/27 12:24:14.5  -0.2                          T                5.9  .63 Ml 2.5         4664890
MEZF  003.20 198.7 m E Pn      2011/03/27 12:23:38.5  -0.4                          T                                        4664902
MEZF  003.20 198.7 m E Pg      2011/03/27 12:23:48.5  -0.2  26.9  9.3               T                                        4668275
MEZF  003.20 198.7 m E Sn      2011/03/27 12:24:15.2  -0.2                          T                5.5  .38 Ml 2.6         4664888
THEF  003.34 186.9 m E Pn      2011/03/27 12:23:40.7  -0.1                          T                                        4664901
THEF  003.34 186.9 m E Sn      2011/03/27 12:24:18.7  -0.1                          T                7.4  .45 Ml 2.7         4664886
SFTF  003.49 197.4 m E Pn      2011/03/27 12:23:42.6  -0.3                          T                                        4664878
SFTF  003.49 197.4 m E Pg      2011/03/27 12:23:53.9  -0.2                          T                                        4668276
SFTF  003.49 197.4 m E Sn      2011/03/27 12:24:23.0   0.6                          T                5.5  .32 Ml 2.8         4664887
HAU   003.54 182.7 m E Pn      2011/03/27 12:23:43.6   0.0                          T                                        4664900
HAU   003.54 182.7 m E Sn      2011/03/27 12:24:23.3  -0.3                          T                2.9  .30 Ml 2.3         4664885
HINF  003.73 177.4 m E Pn      2011/03/27 12:23:46.2   0.0                          T                                        4664899
HINF  003.73 177.4 m E Sn      2011/03/27 12:24:28.0  -0.2                          T                1.5  .30 Ml 2.3         4664884
LOR   004.64 203.7 m E Pn      2011/03/27 12:23:58.6   0.2  24.3  2.6               T                                        4664907
LOR   004.64 203.7 m E Sg      2011/03/27 12:25:14.5  -0.1                          T                2.3  .37 Ml 2.6         4664896
SSF   004.92 205.5 m E Pn      2011/03/27 12:24:02.3   0.0                          T                                        4664908
SSF   004.92 205.5 m E Sg      2011/03/27 12:25:23.2  -0.3                          T                2.8  .38 Ml 2.8         4664895
CABF  004.95 184.1 m E Pn      2011/03/27 12:24:04.0   1.2                          T                                        4664879
CABF  004.95 184.1 m E Sg      2011/03/27 12:25:24.8   0.4                          T                1.2  .42 Ml 2.3         4664881
AVF   005.21 205.4 m E Pn      2011/03/27 12:24:05.8  -0.4                          T                                        4664898
AVF   005.21 205.4 m E Sg      2011/03/27 12:25:32.2  -0.3                          T                 .9  .33 Ml 2.4         4664882
SMF   005.22 201.3 m E Pn      2011/03/27 12:24:06.6   0.1                          T                                        4664880
SMF   005.22 201.3 m E Sg      2011/03/27 12:25:33.0   0.0                          T                1.8  .29 Ml 2.7         4664883
LDF   005.24 238.3 m E Pn      2011/03/27 12:24:07.2   0.6                          T                                        4665457
LDF   005.24 238.3 m E Sg      2011/03/27 12:25:33.4   0.1                          T                1.9  .48 Ml 2.5         4665455
FLN   005.33 241.3 m E Pn      2011/03/27 12:24:08.0   0.0                          T                                        4665458
FLN   005.33 241.3 m E Sg      2011/03/27 12:25:36.4   0.1                          T                1.5  .30 Ml 2.5         4665456
BGF   005.56 207.8 m E Pn      2011/03/27 12:24:10.5  -0.6                          T                                        4664897
BGF   005.56 207.8 m E Sg      2011/03/27 12:25:43.6   0.1                          T                6.6  .44 Ml 3.2         4665459

.
EVENT     257631
    Date      Time       Latitude Longitude    Depth    Ndef Nsta Gap    Mag1  N    Mag2  N    Mag3  N   Author         ID
       rms   OT_Error      Smajor Sminor Az        Err   mdist  Mdist     Err        Err        Err      Quality

2011/03/27 12:43:00.1     42.8220    -.5121      3.0 f     8    4 228  Ml 2.0  1  Md 1.7  3              js067245    257631

      0.15   +-  0.15       3.9    1.2    7.27 +-  0.0    0.08   2.30   +-         +-0.0                 m i ke

PYRENEES
Sta     Dist  EvAz     Phase      Date       Time     TRes  Azim  AzRes  Slow  SRes Def   SNR       Amp   Per   Mag1   Mag2       ID
ETSF  000.08 335.7 m E Pg      2011/03/27 12:43:02.2   0.1                          T                                        4664918
ETSF  000.08 335.7 m E Sg      2011/03/27 12:43:03.3  -0.2                          T               81.2  .24        Md 1.7  4664917
SJPF  000.60 299.3 m E Pg      2011/03/27 12:43:11.5   0.0                          T                                        4664913
SJPF  000.60 299.3 m E Sg      2011/03/27 12:43:19.5   0.2                          T                1.9  .26        Md 1.7  4664916
EPF   000.66 071.3 m E Pg      2011/03/27 12:43:12.6  -0.1                          T                                        4664914
EPF   000.66 071.3 m E Sg      2011/03/27 12:43:21.7   0.4                          T                1.9  .33        Md 1.6  4664915
LFF   002.30 022.7 m E Pn      2011/03/27 12:43:37.0  -0.1                          T                                        4664912
LFF   002.30 022.7 m E Sn      2011/03/27 12:44:04.3   0.0                          T                2.0  .26 Ml 2.0         4664911

.
EVENT     257632
    Date      Time       Latitude Longitude    Depth    Ndef Nsta Gap    Mag1  N    Mag2  N    Mag3  N   Author         ID
       rms   OT_Error      Smajor Sminor Az        Err   mdist  Mdist     Err        Err        Err      Quality

2011/03/27 13:20:45.2     42.7976    -.5605      4.0 f    10    4 229  Ml 1.5  2  Md 1.4  3              js067245    257632

      0.14   +-  0.11       3.0    1.1   14.40 +-  0.0    0.10   2.11   +-0.2      +-0.1                 m i ke

PYRENEES
Sta     Dist  EvAz     Phase      Date       Time     TRes  Azim  AzRes  Slow  SRes Def   SNR       Amp   Per   Mag1   Mag2       ID
ETSF  000.10 000.5 m E Pg      2011/03/27 13:20:47.7   0.1                          T                                        4664928
ETSF  000.10 000.5 m E Sg      2011/03/27 13:20:49.2  -0.1                          T                4.0  .22        Md 1.4  4664925
SJPF  000.58 303.1 m E Pg      2011/03/27 13:20:56.2   0.0                          T                                        4664921
SJPF  000.58 303.1 m E Sg      2011/03/27 13:21:03.9   0.0                          T                1.2  .34        Md 1.4  4664924
EPF   000.70 070.3 m E Pg      2011/03/27 13:20:58.5   0.0                          T                                        4664927
EPF   000.70 070.3 m E Sg      2011/03/27 13:21:07.4  -0.2                          T                 .4  .23        Md 1.3  4664926
MTLF  002.11 074.1 m E Pn      2011/03/27 13:21:19.2  -0.2                          T                                        4664923
MTLF  002.11 074.1 m E Sn      2011/03/27 13:21:44.6   0.0                          T                 .3  .26 Ml 1.4         4664922

.
EVENT     257633
    Date      Time       Latitude Longitude    Depth    Ndef Nsta Gap    Mag1  N    Mag2  N    Mag3  N   Author         ID
       rms   OT_Error      Smajor Sminor Az        Err   mdist  Mdist     Err        Err        Err      Quality

2011/03/27 14:40:45.7     43.0778    -.3209     15.0      10    4 167  Ml 1.7  2  Md 1.6  3              js067245    257633

      0.23   +-  0.06       3.2     .9  169.80 +-  0.0    0.25   1.87   +-0.0      +-0.0                 m i ke

PYRENEES
Sta     Dist  EvAz     Phase      Date       Time     TRes  Azim  AzRes  Slow  SRes Def   SNR       Amp   Per   Mag1   Mag2       ID
ETSF  000.25 224.4 m E Pg      2011/03/27 14:40:51.3   0.0                          T                                        4664938
ETSF  000.25 224.4 m E Sg      2011/03/27 14:40:54.4  -0.7                          T               40.9  .32        Md 1.6  4664935
EPF   000.49 095.4 m E Pg      2011/03/27 14:40:55.0  -0.3                          T                                        4664937
EPF   000.49 095.4 m E Sg      2011/03/27 14:41:01.9  -0.1                          T                3.7  .24        Md 1.6  4664936
SJPF  000.66 273.4 m E Pg      2011/03/27 14:40:58.4  -0.1                          T                                        4664933
SJPF  000.66 273.4 m E Sg      2011/03/27 14:41:07.1  -0.2                          T                2.9  .27        Md 1.6  4664934
MTLF  001.87 081.1 m E Pg      2011/03/27 14:41:20.6   0.0                          T                                        4664932
MTLF  001.87 081.1 m E Sg      2011/03/27 14:41:44.8   0.0                          T                1.1  .32 Ml 1.7         4664931

.
