EVENT     280855
    Date      Time       Latitude Longitude    Depth    Ndef Nsta Gap    Mag1  N    Mag2  N    Mag3  N   Author         ID
       rms   OT_Error      Smajor Sminor Az        Err   mdist  Mdist     Err        Err        Err      Quality

2012/07/28 10:18:52.4     42.4831    1.7602      4.0 f   128   30 028  Ml 3.2 31  Md 3.2  2              bulletin    280955
                                                                                                         _ldg
      0.92   +-  0.06       1.3    1.1  149.22 +-  0.0    0.16   7.08   +-0.3      +-0.1                 m i ke

PYRENEES
Sta     Dist  EvAz     Phase      Date       Time     TRes  Azim  AzRes  Slow  SRes Def   SNR       Amp   Per   Mag1   Mag2       ID
MTLF  000.92 021.2 m E Pg      2012/07/28 10:19:09.7   0.0                          T                                        5034338
MTLF  000.92 021.2 m E Sg      2012/07/28 10:19:21.7   0.1                          T               62.4  .18 Ml 3.3 Md 3.2  5034337
EPF   001.18 298.1 m E Pg      2012/07/28 10:19:13.6  -0.9                          T                                        5034335
EPF   001.18 298.1 m E Sg      2012/07/28 10:19:27.7  -2.1                          T               20.9  .18 Ml 3.0 Md 3.1  5034336
ETSF  001.76 284.4 m E Pg      2012/07/28 10:19:25.2   0.0                          T                                        5034334
ETSF  001.76 284.4 m E Sg      2012/07/28 10:19:48.0   0.1                          T               49.6  .26 Ml 3.4         5034333
LASF  002.21 043.2 m E Pn      2012/07/28 10:19:28.2   0.2                          T                                        5041605
LASF  002.21 043.2 m E Pg      2012/07/28 10:19:33.1  -0.4                          T                                        5034330
LASF  002.21 043.2 m E Sg      2012/07/28 10:20:01.5  -0.4                          T               27.3  .22 Ml 3.3         5034329
CAF   002.45 005.1 m E Pn      2012/07/28 10:19:33.0   1.7                          T                                        5041607
CAF   002.45 005.1 m E Pg      2012/07/28 10:19:37.4  -0.6                          T                                        5034361
CAF   002.45 005.1 m E Sg      2012/07/28 10:20:08.3  -1.1                          T               51.6  .28 Ml 3.6         5034362
SJPF  002.29 287.0 m E Pg      2012/07/28 10:19:35.3   0.5                          T                                        5034331
SJPF  002.29 287.0 m E Sg      2012/07/28 10:20:05.7   1.5                          T               20.8  .33 Ml 3.1         5034332
RJF   002.83 356.5 m E Pn      2012/07/28 10:19:38.0   1.5                          T                                        5041604
RJF   002.83 356.5 m E Pg      2012/07/28 10:19:44.7  -0.1                          T                                        5034357
RJF   002.83 356.5 m E Sg      2012/07/28 10:20:20.6  -0.6                          T               14.2  .22 Ml 2.9         5034358
LFF   002.56 343.6 m E Pg      2012/07/28 10:19:40.0   0.0                          T                                        5034360
LFF   002.56 343.6 m E Sg      2012/07/28 10:20:13.8   0.8                          T               54.8  .36 Ml 3.3         5034359
VIVF  003.18 040.7 m E Pn      2012/07/28 10:19:41.6   0.3                          T                                        5041606
VIVF  003.18 040.7 m E Pg      2012/07/28 10:19:51.1  -0.2                          T                                        5034374
VIVF  003.18 040.7 m E Sg      2012/07/28 10:20:31.9  -0.2                          T               14.3  .24 Ml 3.2         5034375
SMRF  003.16 060.6 m E Pn      2012/07/28 10:19:42.8   1.7                          T                                        5034372
SMRF  003.16 060.6 m E Pg      2012/07/28 10:19:51.7   0.7                          T                                        5034373
SMRF  003.16 060.6 m E Sg      2012/07/28 10:20:31.0  -0.6                          T                5.1  .30 Ml 2.7         5034371
LMR   003.59 074.7 m E Pn      2012/07/28 10:19:48.2   1.4                          T                                        5034367
LMR   003.59 074.7 m E Sn      2012/07/28 10:20:28.5   1.3                          T                6.6  .35 Ml 2.8         5041603
FRF   003.74 071.6 m E Pn      2012/07/28 10:19:50.0   1.1                          T                                        5034368
FRF   003.74 071.6 m E Sn      2012/07/28 10:20:32.0   1.2                          T                                        5034369
FRF   003.74 071.6 m E Sg      2012/07/28 10:20:49.3  -0.4                          T                5.9  .33 Ml 2.9         5034370
SBF   004.37 069.7 m E Pn      2012/07/28 10:19:57.3  -0.3                          T                                        5034364
SBF   004.37 069.7 m E Sn      2012/07/28 10:20:46.4   0.4                          T                8.4  .41 Ml 3.0         5034363
MFF   004.34 342.4 m E Pn      2012/07/28 10:19:57.3   0.3                          T                                        5034344
MFF   004.34 342.4 m E Pg      2012/07/28 10:20:13.7   1.1                          T                                        5034343
MFF   004.34 342.4 m E Sn      2012/07/28 10:20:46.5   1.5                          T                2.8  .25 Ml 2.9         5034342
MFF   004.34 342.4 m E Sg      2012/07/28 10:21:09.0   0.7                          T                5.8  .28 Ml 3.2         5034341
SMF   004.42 018.9 m E Pn      2012/07/28 10:19:58.9   0.8                          T                                        5034352
SMF   004.42 018.9 m E Pg      2012/07/28 10:20:14.5   0.4                          T                                        5034353
SMF   004.42 018.9 m E Sg      2012/07/28 10:21:10.8  -0.1                          T                3.7  .26 Ml 2.9         5034354
TCF   003.82 004.7 m E Pg      2012/07/28 10:20:03.1   0.0                          T                                        5034349
TCF   003.82 004.7 m E Sg      2012/07/28 10:20:51.2  -0.9                          T                8.3  .26 Ml 3.2         5034348
BGF   004.15 010.4 m E Pg      2012/07/28 10:20:09.0  -0.1                          T                                        5034355
BGF   004.15 010.4 m E Sg      2012/07/28 10:21:02.3   0.0                          T               40.0  .32 Ml 3.8         5034356
PGF   005.35 086.9 m E Pn      2012/07/28 10:20:10.9  -0.1                          T                                        5034365
PGF   005.35 086.9 m E Sn      2012/07/28 10:21:08.3  -1.1                          T                8.7  .40 Ml 3.5         5034366
AVF   004.45 014.2 m E Pg      2012/07/28 10:20:14.6  -0.1                          T                                        5034350
AVF   004.45 014.2 m E Sg      2012/07/28 10:21:11.5  -0.4                          T                6.0  .32 Ml 3.0         5034351
SSF   004.74 014.6 m E Pg      2012/07/28 10:20:19.6  -0.5                          T                                        5034346
SSF   004.74 014.6 m E Sg      2012/07/28 10:21:20.8  -0.1                          T                4.9  .28 Ml 3.2         5034347
LOR   005.01 016.6 m E Pg      2012/07/28 10:20:24.6  -0.4                          T                                        5034339
LOR   005.01 016.6 m E Sg      2012/07/28 10:21:28.7  -0.7                          T                3.1  .26 Ml 3.0         5034340
CABF  005.16 035.4 m E Pg      2012/07/28 10:20:27.9   0.0                          T                                        5041594
CABF  005.16 035.4 m E Sg      2012/07/28 10:21:34.8   0.9                          T                7.8  .59 Ml 3.0         5041595
HYF   004.83 007.1 m E Sg      2012/07/28 10:21:23.6   0.1                          T                                        5034345
SFTF  006.17 020.8 m E Sg      2012/07/28 10:22:07.6   2.1                          T                6.6  .47 Ml 3.3         5041600
HAU   006.40 028.8 m E Sg      2012/07/28 10:22:13.0   0.3                          T                3.3  .37 Ml 2.9         5041599
THEF  006.47 026.0 m E Sg      2012/07/28 10:22:14.5  -0.5                          T                5.9  .37 Ml 3.4         5041597
MEZF  006.45 019.9 m E Sg      2012/07/28 10:22:14.7   0.6                          T                9.9  .51 Ml 3.5         5041602
HINF  006.43 032.3 m E Sg      2012/07/28 10:22:15.1   1.3                          T                2.7  .42 Ml 3.0         5041598
PAGF  006.68 023.3 m E Sg      2012/07/28 10:22:22.6   1.2                          T                5.0  .39 Ml 3.3         5041601
CDF   007.08 031.3 m E Sg      2012/07/28 10:22:34.1   0.0                          T                1.4  .39 Ml 2.9         5041596

.
EVENT     280870
    Date      Time       Latitude Longitude    Depth    Ndef Nsta Gap    Mag1  N    Mag2  N    Mag3  N   Author         ID
       rms   OT_Error      Smajor Sminor Az        Err   mdist  Mdist     Err        Err        Err      Quality

2012/07/28 13:56:31.6     42.7826    -.9150      2.0       6    3 251  Ml 1.3  1                         bulletin    280970
                                                                                                         _ldg
      0.31   +-  0.74      20.1    4.1   17.22 +-  0.0    0.29   0.95   +-                               m i ke

PYRENEES
Sta     Dist  EvAz     Phase      Date       Time     TRes  Azim  AzRes  Slow  SRes Def   SNR       Amp   Per   Mag1   Mag2       ID
ETSF  000.29 066.0 m E Pg      2012/07/28 13:56:37.7   0.4                          T                                        5041684
ETSF  000.29 066.0 m E Sg      2012/07/28 13:56:41.1  -0.1                          T                9.3  .48                5041681
SJPF  000.40 325.6 m E Pg      2012/07/28 13:56:39.5   0.1                          T                                        5041683
SJPF  000.40 325.6 m E Sg      2012/07/28 13:56:44.3  -0.4                          T                3.7  .28                5041682
EPF   000.95 074.5 m E Pg      2012/07/28 13:56:49.2  -0.4                          T                                        5041686
EPF   000.95 074.5 m E Sg      2012/07/28 13:57:02.2   0.2                          T                 .7  .24 Ml 1.3         5041685

.
EVENT     280304
    Date      Time       Latitude Longitude    Depth    Ndef Nsta Gap    Mag1  N    Mag2  N    Mag3  N   Author         ID
       rms   OT_Error      Smajor Sminor Az        Err   mdist  Mdist     Err        Err        Err      Quality

2012/07/28 19:09:42.6     43.0121    -.3632      2.0      24    7 095  Ml 1.7  4  Md 1.8  3              bulletin    280404
                                                                                                         _ldg
      0.61   +-  0.12       3.2    1.8  170.76 +-  0.0    0.18   2.66   +-0.2      +-0.1                 m i ke

PYRENEES
Sta     Dist  EvAz     Phase      Date       Time     TRes  Azim  AzRes  Slow  SRes Def   SNR       Amp   Per   Mag1   Mag2       ID
ETSF  000.18 231.8 m E Pg      2012/07/28 19:09:46.3  -0.1                          T                                        5041585
ETSF  000.18 231.8 m E Sg      2012/07/28 19:09:49.2   0.3                          T               10.7  .24        Md 1.8  5041586
EPF   000.52 087.7 m E Pg      2012/07/28 19:09:53.3   0.8                          T                                        5041583
EPF   000.52 087.7 m E Sg      2012/07/28 19:09:59.1  -0.2                          T                2.7  .23        Md 1.7  5041584
SJPF  000.64 279.4 m E Pg      2012/07/28 19:09:54.7   0.0                          T                                        5041581
SJPF  000.64 279.4 m E Sg      2012/07/28 19:10:03.2   0.1                          T                 .9  .26        Md 1.9  5041582
MTLF  001.92 079.2 m E Pg      2012/07/28 19:10:17.8  -0.5                          T                                        5041612
MTLF  001.92 079.2 m E Sg      2012/07/28 19:10:43.1   0.2                          T                 .4  .20 Ml 1.5         5041580
LFF   002.09 022.1 m E Pg      2012/07/28 19:10:21.8   0.5                          T                                        5041608
LFF   002.09 022.1 m E Sg      2012/07/28 19:10:48.7   0.6                          T                1.2  .23 Ml 1.8         5041579
CAF   002.59 041.7 m E Pg      2012/07/28 19:10:31.5   0.7                          T                                        5041610
CAF   002.59 041.7 m E Sg      2012/07/28 19:11:02.8  -1.4                          T                 .7  .20 Ml 1.9         5041611
RJF   002.66 029.9 m E Sg      2012/07/28 19:11:05.2  -1.0                          T                 .9  .24 Ml 1.6         5041609

.
EVENT     280305
    Date      Time       Latitude Longitude    Depth    Ndef Nsta Gap    Mag1  N    Mag2  N    Mag3  N   Author         ID
       rms   OT_Error      Smajor Sminor Az        Err   mdist  Mdist     Err        Err        Err      Quality

2012/07/28 20:50:52.9     42.8489    -.8652      2.0       5    3 237  Ml 1.1  1  Md 1.1  2              bulletin    280405
                                                                                                         _ldg
      0.11   +-  0.27       9.4    1.3   14.73 +-  0.0    0.23   0.90   +-         +-0.0                 m i ke

PYRENEES
Sta     Dist  EvAz     Phase      Date       Time     TRes  Azim  AzRes  Slow  SRes Def   SNR       Amp   Per   Mag1   Mag2       ID
ETSF  000.23 077.4 m E Pg      2012/07/28 20:50:57.6   0.1                          T                                        5041590
ETSF  000.23 077.4 m E Sg      2012/07/28 20:51:00.5  -0.2                          T                2.6  .18        Md 1.1  5041591
SJPF  000.37 315.2 m E Pg      2012/07/28 20:51:00.0  -0.1                          T                                        5041588
SJPF  000.37 315.2 m E Sg      2012/07/28 20:51:05.2   0.1                          T                 .9  .17        Md 1.1  5041589
EPF   000.90 078.0 m E Sg      2012/07/28 20:51:21.6  -0.1                          T                 .5  .20 Ml 1.1         5041587

.
EVENT     280306
    Date      Time       Latitude Longitude    Depth    Ndef Nsta Gap    Mag1  N    Mag2  N    Mag3  N   Author         ID
       rms   OT_Error      Smajor Sminor Az        Err   mdist  Mdist     Err        Err        Err      Quality

2012/07/28 21:06:17.0     45.8954   -1.5528      5.0 f    23   13 177  Ml 1.8 14  Md 2.3  3              bulletin    280406
                                                                                                         _ldg
      0.68   +-  0.15       2.6    1.4   53.59 +-  0.0    1.21   3.51   +-0.3      +-0.2                 m i ke

FRANCE
Sta     Dist  EvAz     Phase      Date       Time     TRes  Azim  AzRes  Slow  SRes Def   SNR       Amp   Per   Mag1   Mag2       ID
MFF   001.21 053.6 m E Pg      2012/07/28 21:06:40.6   1.0                          T                                        5035826
MFF   001.21 053.6 m E Sg      2012/07/28 21:06:55.4   0.2                          T                2.7  .24 Ml 2.1 Md 2.1  5035827
LFF   001.88 119.8 m E Pn      2012/07/28 21:06:48.0   0.0                          T                                        5041617
LFF   001.88 119.8 m E Pg      2012/07/28 21:06:51.6  -0.3                          T                                        5042312
LFF   001.88 119.8 m E Sg      2012/07/28 21:07:16.2   0.1                          T                1.8  .37 Ml 1.7 Md 2.2  5035824
RJF   002.23 104.2 m E Pg      2012/07/28 21:06:58.6   0.0                          T                                        5041616
RJF   002.23 104.2 m E Sg      2012/07/28 21:07:27.5   0.2                          T                1.3  .22 Ml 1.7         5035825
ROSF  002.71 334.9 m E Pg      2012/07/28 21:07:07.2  -0.1                          T                                        5042310
ROSF  002.71 334.9 m E Sg      2012/07/28 21:07:42.6   0.5                          T                 .2  .16 Ml 1.6         5041622
LDF   002.87 019.3 m E Pg      2012/07/28 21:07:10.3   0.0                          T                                        5042311
LDF   002.87 019.3 m E Sg      2012/07/28 21:07:46.3  -0.8                          T                 .4  .28 Ml 1.6         5041619
BGF   003.12 076.2 m E Pg      2012/07/28 21:07:14.3  -0.6                          T                                        5042308
BGF   003.12 076.2 m E Sg      2012/07/28 21:07:54.8  -0.3                          T                3.8  .36 Ml 2.5         5041623
QUIF  002.30 331.9 m E Sg      2012/07/28 21:07:29.3  -0.2                          T                 .5  .21 Ml 1.6         5041618
SGMF  002.46 344.1 m E Sg      2012/07/28 21:07:34.0  -0.3                          T                 .9  .28 Ml 1.8         5041620
GRR   002.54 010.5 m E Sg      2012/07/28 21:07:37.5   0.7                          T                                        5042304
CAF   002.73 109.5 m E Sg      2012/07/28 21:07:43.1   0.4                          T                 .6  .23 Ml 1.8         5041621
FLN   002.96 013.9 m E Sg      2012/07/28 21:07:49.8  -0.1                          T                 .3  .22 Ml 1.4         5042305
EPF   003.17 154.0 m E Sg      2012/07/28 21:07:57.1   0.6                          T                 .4  .23 Ml 1.7         5042303
AVF   003.51 073.5 m E Sg      2012/07/28 21:08:06.9  -0.2                          T                 .2  .23 Ml 1.5         5042307

.
EVENT     280345
    Date      Time       Latitude Longitude    Depth    Ndef Nsta Gap    Mag1  N    Mag2  N    Mag3  N   Author         ID
       rms   OT_Error      Smajor Sminor Az        Err   mdist  Mdist     Err        Err        Err      Quality

2012/07/29 09:04:08.2     43.9593    8.9893     10.0 f    34    4 098  Ml 2.2  5  Md 2.1  4              bulletin    280445
                                                                                                         _ldg
      0.64   +-  0.08       1.8    1.2  162.15 +-  0.0    0.45   1.91   +-0.2      +-0.1                 m i ke

CORSICA, FRANCE
Sta     Dist  EvAz     Phase      Date       Time     TRes  Azim  AzRes  Slow  SRes Def   SNR       Amp   Per   Mag1   Mag2       ID
SBF   001.13 265.6 m E Pn      2012/07/29 09:04:28.4  -0.2                          T                                        5035720
SBF   001.13 265.6 m E Sn      2012/07/29 09:04:42.8  -0.3                          T                8.1  .23 Ml 2.4 Md 2.1  5035719
PGF   001.41 179.7 m E Pn      2012/07/29 09:04:33.1   0.6                          T                                        5035727
PGF   001.41 179.7 m E Sn      2012/07/29 09:04:49.3  -0.7                          T                1.5  .21 Ml 2.1 Md 2.1  5035728
FRF   001.74 257.6 m E Pn      2012/07/29 09:04:37.2   0.3                          T                                        5035724
FRF   001.74 257.6 m E Sn      2012/07/29 09:04:57.4  -0.4                          T                2.0  .19 Ml 2.2 Md 2.3  5035723
LMR   001.91 251.7 m E Pn      2012/07/29 09:04:39.2   0.2                          T                                        5035721
LMR   001.91 251.7 m E Sn      2012/07/29 09:05:01.7   0.0                          T                2.2  .21 Ml 2.2 Md 2.2  5035722

.
