EVENT     278163
    Date      Time       Latitude Longitude    Depth    Ndef Nsta Gap    Mag1  N    Mag2  N    Mag3  N   Author         ID
       rms   OT_Error      Smajor Sminor Az        Err   mdist  Mdist     Err        Err        Err      Quality

2012/06/14 16:35:09.4     44.8353   11.1258      2.0      53   17 182  Ml 2.7 15                         bulletin    278263
                                                                                                         _ldg
      0.77   +-  0.24       6.0    3.3  116.02 +-  0.0    1.03   7.02   +-0.3                            m i ke

NORTHERN ITALY
Sta     Dist  EvAz     Phase      Date       Time     TRes  Azim  AzRes  Slow  SRes Def   SNR       Amp   Per   Mag1   Mag2       ID
PGF   002.76 214.7 m E Pn      2012/06/14 16:35:53.6   0.7                          T                                        5001708
PGF   002.76 214.7 m E Sn      2012/06/14 16:36:25.3   0.5                          T               12.5  .41 Ml 3.1         5001703
SBF   002.82 251.1 m E Pn      2012/06/14 16:35:53.8   0.1                          T                                        5001709
SBF   002.82 251.1 m E Sn      2012/06/14 16:36:25.9  -0.4                          T               24.3  .48 Ml 3.1         5001702
MBDF  003.10 269.5 m E Pn      2012/06/14 16:35:58.5   0.9                          T                                        5001697
MBDF  003.10 269.5 m E Sn      2012/06/14 16:36:33.2   0.1                          T                1.4  .21 Ml 2.3         5001690
LPL   003.18 283.9 m E Pn      2012/06/14 16:36:00.2   1.4                          T                                        5001698
LPL   003.18 283.9 m E Sn      2012/06/14 16:36:35.3   0.2                          T                1.9  .30 Ml 2.3         5001691
FRF   003.46 250.0 m E Pn      2012/06/14 16:36:02.1  -0.3                          T                                        5001706
FRF   003.46 250.0 m E Sn      2012/06/14 16:36:41.0  -0.5                          T                3.4  .19 Ml 2.8         5001705
LMR   003.65 247.3 m E Pn      2012/06/14 16:36:04.3  -0.5                          T                                        5001707
LMR   003.65 247.3 m E Sn      2012/06/14 16:36:46.4   0.4                          T                4.8  .34 Ml 2.7         5001704
ORIF  003.73 273.1 m E Pn      2012/06/14 16:36:06.2   0.1                          T                                        5001700
ORIF  003.73 273.1 m E Sn      2012/06/14 16:36:48.2   0.2                          T                4.7  .39 Ml 2.7         5001699
SMRF  004.07 259.8 m E Pn      2012/06/14 16:36:10.7   0.1                          T                                        5001701
SMRF  004.07 259.8 m E Sn      2012/06/14 16:36:56.1   0.0                          T                1.1  .26 Ml 2.3         5001692
HINF  004.20 316.7 m E Pn      2012/06/14 16:36:12.4  -0.1                          T                                        5001688
HINF  004.20 316.7 m E Sn      2012/06/14 16:36:57.6  -1.6                          T                1.4  .20 Ml 2.5         5001689
CDF   004.45 324.8 m E Pn      2012/06/14 16:36:14.6  -1.4                          T                                        5001694
CDF   004.45 324.8 m E Sn      2012/06/14 16:37:05.4   0.1                          T                2.8  .29 Ml 2.9         5001687
SFTF  005.39 310.9 m E Pn      2012/06/14 16:36:26.5  -2.0                          T                                        5001693
SFTF  005.39 310.9 m E Sn      2012/06/14 16:37:27.7   0.2                          T                3.4  .21 Ml 3.2         5001684
SMF   005.41 292.1 m E Pn      2012/06/14 16:36:27.9  -1.0                          T                                        5001696
LOR   005.61 298.3 m E Pn      2012/06/14 16:36:31.6   0.0                          T                                        5001686
AVF   005.77 292.5 m E Pn      2012/06/14 16:36:33.2  -0.6                          T                                        5001695
GIVF  006.78 323.2 m E Pn      2012/06/14 16:36:47.3  -0.2                          T                                        5001682
BAIF  007.02 320.6 m E Pn      2012/06/14 16:36:50.8   0.0                          T                                        5001685
PAGF  005.26 317.0 m E Sn      2012/06/14 16:37:24.7   0.3                          T                2.7  .25 Ml 3.0         5001683

.
EVENT     278165
    Date      Time       Latitude Longitude    Depth    Ndef Nsta Gap    Mag1  N    Mag2  N    Mag3  N   Author         ID
       rms   OT_Error      Smajor Sminor Az        Err   mdist  Mdist     Err        Err        Err      Quality

2012/06/14 18:39:44.6     46.1304    7.0368      3.0 f   106   30 027  Ml 2.5 27  Md 2.7  2              bulletin    278265
                                                                                                         _ldg
      0.31   +-  0.03        .6     .5   91.60 +-  0.0    0.05   7.20   +-0.3      +-0.0                 m i ke

SWITZERLAND
Sta     Dist  EvAz     Phase      Date       Time     TRes  Azim  AzRes  Slow  SRes Def   SNR       Amp   Per   Mag1   Mag2       ID
LPL   000.65 199.2 m E Pg      2012/06/14 18:39:57.4   0.1                          T   001.0                                5001733
LPL   000.65 199.2 m E Sg      2012/06/14 18:40:05.6  -0.2                          T   001.0       15.6  .40        Md 2.7  5001734
LPG   000.66 197.6 m E Pg      2012/06/14 18:39:57.5   0.0                          T   001.0                                5001731
LPG   000.66 197.6 m E Sg      2012/06/14 18:40:06.4   0.1                          T   001.0       14.1  .26        Md 2.7  5001732
CABF  000.81 306.5 m E Pg      2012/06/14 18:40:00.1   0.0                          T   001.0                                5001740
CABF  000.81 306.5 m E Sg      2012/06/14 18:40:10.6  -0.1                          T   001.0        7.6  .22                5001741
MBDF  001.42 187.7 m E Pg      2012/06/14 18:40:11.2   0.0                          T   001.0                                5001743
MBDF  001.42 187.7 m E Sg      2012/06/14 18:40:29.7   0.1                          T   001.0       18.5  .56 Ml 2.5         5001744
ORIF  001.46 214.3 m E Pg      2012/06/14 18:40:11.9  -0.1                          T   001.0                                5001745
ORIF  001.46 214.3 m E Sn      2012/06/14 18:40:29.5   0.7                          T   001.0                                5001746
ORIF  001.46 214.3 m E Sg      2012/06/14 18:40:32.5   1.7                          T   001.0        8.4  .24 Ml 2.6         5001747
HINF  001.69 355.8 m E Pn      2012/06/14 18:40:13.5   0.1                          T                                        5001781
HINF  001.69 355.8 m E Pg      2012/06/14 18:40:16.4   0.2                          T   001.0                                5001742
HINF  001.69 355.8 m E Sn      2012/06/14 18:40:34.4   0.0                          T                                        5001782
HINF  001.69 355.8 m E Sg      2012/06/14 18:40:37.7  -0.3                          T               12.5  .22 Ml 2.9         5001783
HAU   001.93 346.2 m E Pg      2012/06/14 18:40:20.5  -0.2                          T                                        5001780
HAU   001.93 346.2 m E Sg      2012/06/14 18:40:45.3  -0.2                          T   001.0       13.5  .23 Ml 2.7         5001724
THEF  002.22 341.7 m E Pn      2012/06/14 18:40:20.6   0.0                          T                                        5001776
THEF  002.22 341.7 m E Pg      2012/06/14 18:40:25.6  -0.2                          T                                        5001779
THEF  002.22 341.7 m E Sn      2012/06/14 18:40:46.9   0.1                          T                                        5001777
THEF  002.22 341.7 m E Sg      2012/06/14 18:40:54.0  -0.4                          T               11.1  .28 Ml 2.9         5001778
CDF   002.29 004.0 m E Pn      2012/06/14 18:40:20.9  -0.7                          T   001.0                                5001720
CDF   002.29 004.0 m E Pg      2012/06/14 18:40:27.4   0.2                          T   001.0                                5001721
CDF   002.29 004.0 m E Sg      2012/06/14 18:40:56.6  -0.1                          T   001.0        2.5  .22 Ml 2.4         5001722
SBF   002.28 172.8 m E Pn      2012/06/14 18:40:21.5   0.0                          T                                        5001762
SBF   002.28 172.8 m E Pg      2012/06/14 18:40:28.0   0.8                          T                                        5001763
SBF   002.28 172.8 m E Sg      2012/06/14 18:40:56.3  -0.2                          T   001.0       18.2  .58 Ml 2.8         5001735
SMRF  002.39 206.2 m E Pn      2012/06/14 18:40:23.5   0.6                          T                                        5001758
SMRF  002.39 206.2 m E Pg      2012/06/14 18:40:28.0  -0.1                          T   001.0                                5001751
SMRF  002.39 206.2 m E Sn      2012/06/14 18:40:51.4   0.4                          T                 .7  .23 Ml 1.8         5001757
VIVF  002.09 233.4 m E Pg      2012/06/14 18:40:23.7   0.1                          T   001.0                                5001749
VIVF  002.09 233.4 m E Sg      2012/06/14 18:40:50.1  -0.5                          T   001.0       14.9  .26 Ml 3.0         5001750
LOR   002.47 298.6 m E Pn      2012/06/14 18:40:24.0   0.1                          T                                        5001752
LOR   002.47 298.6 m E Pg      2012/06/14 18:40:31.5   1.1 118.6  2.3               T   001.0                                5001729
LOR   002.47 298.6 m E Sn      2012/06/14 18:40:53.0   0.3                          T   001.0        6.1  .52 Ml 2.4         5001730
LOR   002.47 298.6 m E Sg      2012/06/14 18:41:02.1   0.0                          T                1.6  .20 Ml 2.2         5001766
SFTF  002.48 327.4 m E Pn      2012/06/14 18:40:24.3   0.1                          T                                        5001772
SFTF  002.48 327.4 m E Sg      2012/06/14 18:41:02.4  -0.3                          T                3.2  .20 Ml 2.5         5001771
PAGF  002.58 340.3 m E Pn      2012/06/14 18:40:25.4  -0.1                          T                                        5001770
PAGF  002.58 340.3 m E Sn      2012/06/14 18:40:55.2  -0.4                          T                2.8  .21 Ml 2.5         5001769
SSF   002.61 292.2 m E Pn      2012/06/14 18:40:25.7  -0.1                          T                                        5001786
SSF   002.61 292.2 m E Pg      2012/06/14 18:40:33.9   0.9                          T                                        5001787
SSF   002.61 292.2 m E Sg      2012/06/14 18:41:05.6  -0.9                          T   001.0        1.6  .21 Ml 2.3         5001738
AVF   002.63 285.9 m E Pn      2012/06/14 18:40:26.2   0.0                          T                                        5001789
AVF   002.63 285.9 m E Pg      2012/06/14 18:40:33.5   0.1                          T                                        5001788
AVF   002.63 285.9 m E Sg      2012/06/14 18:41:07.1  -0.1                          T                2.4  .24 Ml 2.3         5001790
SMF   002.27 284.3 m E Pg      2012/06/14 18:40:26.5  -0.3                          T   001.0                                5001736
SMF   002.27 284.3 m E Sg      2012/06/14 18:40:55.8  -0.2                          T   001.0        8.2  .18 Ml 2.9         5001737
MEZF  002.73 331.1 m E Pn      2012/06/14 18:40:27.5   0.1                          T                                        5001773
MEZF  002.73 331.1 m E Sn      2012/06/14 18:40:59.3   0.2                          T                                        5001775
MEZF  002.73 331.1 m E Sg      2012/06/14 18:41:10.4   0.0                          T                5.0  .32 Ml 2.6         5001774
LMR   002.82 187.8 m E Pn      2012/06/14 18:40:28.8   0.1                          T                                        5001760
LMR   002.82 187.8 m E Pg      2012/06/14 18:40:36.9   0.0                          T                                        5001761
LMR   002.82 187.8 m E Sg      2012/06/14 18:41:12.6  -0.6                          T   001.0        3.1  .52 Ml 2.2         5001728
LANF  002.90 010.1 m E Pn      2012/06/14 18:40:29.7  -0.1                          T                                        5001768
LANF  002.90 010.1 m E Sn      2012/06/14 18:41:03.1  -0.1                          T                1.2  .15 Ml 2.3         5001767
FRF   002.58 186.3 m E Pg      2012/06/14 18:40:31.0  -0.6                          T   001.0                                5001723
LASF  003.05 228.8 m E Pn      2012/06/14 18:40:33.0   1.2                          T   001.0                                5001725
LASF  003.05 228.8 m E Sn      2012/06/14 18:41:05.6  -1.1                          T   001.0                                5001726
LASF  003.05 228.8 m E Sg      2012/06/14 18:41:19.2  -1.1                          T   001.0        4.3  .36 Ml 2.5         5001727
CAF   003.70 252.8 m E Pn      2012/06/14 18:40:40.7   0.0                          T   001.0                                5001718
CAF   003.70 252.8 m E Sn      2012/06/14 18:41:22.3   0.1                          T                                        5001791
CAF   003.70 252.8 m E Sg      2012/06/14 18:41:40.7   0.1                          T   001.0         .9  .20 Ml 2.2         5001719
PGF   003.85 157.8 m E Pn      2012/06/14 18:40:42.9   0.0                          T                                        5001759
GIVF  004.24 340.4 m E Pn      2012/06/14 18:40:48.2   0.1                          T                                        5001764
GIVF  004.24 340.4 m E Sn      2012/06/14 18:41:35.0  -0.2                          T                2.3  .20 Ml 2.8         5001765
GRR   005.83 295.6 m E Pn      2012/06/14 18:41:10.0   0.3                          T                                        5001784
GRR   005.83 295.6 m E Sn      2012/06/14 18:42:13.6   0.5                          T                1.0  .19 Ml 2.7         5001785
BGF   002.93 279.9 m E Sg      2012/06/14 18:41:16.7   0.0                          T   001.0        9.8  .39 Ml 2.8         5001717
QUIF  007.20 288.0 m E Pn      2012/06/14 18:41:27.2  -1.1                          T   001.0                                5001748
TCF   003.36 274.4 m E Sg      2012/06/14 18:41:30.7   0.8                          T   001.0        2.8  .28 Ml 2.5         5001739

.
EVENT     278176
    Date      Time       Latitude Longitude    Depth    Ndef Nsta Gap    Mag1  N    Mag2  N    Mag3  N   Author         ID
       rms   OT_Error      Smajor Sminor Az        Err   mdist  Mdist     Err        Err        Err      Quality

2012/06/14 20:51:03.5     43.0652   -1.6542      2.0      10    2 269             Md 1.2  2              bulletin    278276
                                                                                                         _ldg
      0.28   +-  0.30       5.1    2.5   78.54 +-  0.0    0.19   0.82              +-0.1                 m i ke

PYRENEES
Sta     Dist  EvAz     Phase      Date       Time     TRes  Azim  AzRes  Slow  SRes Def   SNR       Amp   Per   Mag1   Mag2       ID
SJPF  000.32 081.2 m E Pg      2012/06/14 20:51:09.5  -0.2                          T                                        5002684
SJPF  000.32 081.2 m E Sg      2012/06/14 20:51:13.7  -0.3                          T                1.4  .19        Md 1.3  5002682
ETSF  000.82 101.3 m E Pg      2012/06/14 20:51:18.8  -0.2                          T                                        5002683
ETSF  000.82 101.3 m E Sg      2012/06/14 20:51:29.5  -0.2                          T                 .4  .17        Md 1.1  5002681

.
EVENT     278166
    Date      Time       Latitude Longitude    Depth    Ndef Nsta Gap    Mag1  N    Mag2  N    Mag3  N   Author         ID
       rms   OT_Error      Smajor Sminor Az        Err   mdist  Mdist     Err        Err        Err      Quality

2012/06/14 22:25:24.1     48.0682    9.3112      8.0 f    34    6 068  Ml 2.2  6  Md 2.5  2              bulletin    278266
                                                                                                         _ldg
      0.47   +-  0.09       1.7    1.2   96.37 +-  0.0    0.13   2.44   +-0.1      +-0.2                 m i ke

GERMANY
Sta     Dist  EvAz     Phase      Date       Time     TRes  Azim  AzRes  Slow  SRes Def   SNR       Amp   Per   Mag1   Mag2       ID
CDF   001.40 285.0 m E Pn      2012/06/14 22:25:48.4  -0.1                          T                                        5001799
CDF   001.40 285.0 m E Pg      2012/06/14 22:25:50.3  -0.1                          T                                        5019900
CDF   001.40 285.0 m E Sn      2012/06/14 22:26:06.2   0.2                          T                3.8  .26 Ml 2.3 Md 2.3  5001796
LANF  001.35 312.9 m E Pg      2012/06/14 22:25:49.3  -0.2                          T                                        5019901
LANF  001.35 312.9 m E Sg      2012/06/14 22:26:07.3   0.3                          T                6.5  .30 Ml 2.3 Md 2.7  5019902
HINF  001.67 262.3 m E Pn      2012/06/14 22:25:52.2   0.1                          T                                        5001797
HINF  001.67 262.3 m E Pg      2012/06/14 22:25:55.3   0.0                          T                                        5019898
HINF  001.67 262.3 m E Sg      2012/06/14 22:26:17.2   0.3                          T                3.3  .32 Ml 2.1         5001795
HAU   001.99 269.3 m E Pn      2012/06/14 22:25:56.3   0.0                          T                                        5001798
HAU   001.99 269.3 m E Pg      2012/06/14 22:26:00.9  -0.2                          T                                        5019897
HAU   001.99 269.3 m E Sg      2012/06/14 22:26:26.2  -0.6                          T                5.8  .42 Ml 2.1         5001794
THEF  002.23 275.4 m E Pn      2012/06/14 22:25:59.5  -0.1                          T                                        5001793
THEF  002.23 275.4 m E Pg      2012/06/14 22:26:05.6   0.1                          T                                        5019896
THEF  002.23 275.4 m E Sg      2012/06/14 22:26:34.5   0.3                          T                3.4  .23 Ml 2.4         5001792
PAGF  002.44 282.8 m E Sg      2012/06/14 22:26:41.3   0.4                          T                1.4  .24 Ml 2.1         5019899

.
