EVENT     286205
    Date      Time       Latitude Longitude    Depth    Ndef Nsta Gap    Mag1  N    Mag2  N    Mag3  N   Author         ID
       rms   OT_Error      Smajor Sminor Az        Err   mdist  Mdist     Err        Err        Err      Quality

2012/10/28 06:33:52.2     46.0241    6.8897      6.6      10    4 330  Ml 1.2  2  Md 1.4  2              bulletin    286305
                                                                                                         _ldg
      0.10   +-  0.18       3.5    2.8   83.89 +-  0.6    0.52   1.31   +-0.1      +-0.0                 m i ke

SWITZERLAND
Sta     Dist  EvAz     Phase      Date       Time     TRes  Azim  AzRes  Slow  SRes Def   SNR       Amp   Per   Mag1   Mag2       ID
LPL   000.52 192.3 m E Pg      2012/10/28 06:34:02.4   0.0                          T                                        5108659
LPL   000.52 192.3 m E Sg      2012/10/28 06:34:09.3   0.0                          T                 .6  .20        Md 1.4  5108657
LPG   000.54 190.5 m E Pg      2012/10/28 06:34:03.0   0.1                          T                                        5108658
LPG   000.54 190.5 m E Sg      2012/10/28 06:34:09.9   0.0                          T                1.3  .18        Md 1.5  5108656
MBDF  001.30 183.7 m E Pn      2012/10/28 06:34:15.4   0.0                          T                                        5108653
MBDF  001.30 183.7 m E Pg      2012/10/28 06:34:16.6  -0.2                          T                                        5108652
MBDF  001.30 183.7 m E Sn      2012/10/28 06:34:32.2   0.1                          T                 .3  .19 Ml 1.2         5108651
ORIF  001.31 213.1 m E Pn      2012/10/28 06:34:15.5   0.0                          T                                        5108655
ORIF  001.31 213.1 m E Sn      2012/10/28 06:34:32.2  -0.1                          T                 .4  .20 Ml 1.3         5108654

.
EVENT     286211
    Date      Time       Latitude Longitude    Depth    Ndef Nsta Gap    Mag1  N    Mag2  N    Mag3  N   Author         ID
       rms   OT_Error      Smajor Sminor Az        Err   mdist  Mdist     Err        Err        Err      Quality

2012/10/28 07:00:13.2     48.3555    9.0128     10.0      25    5 092  Ml 2.1  5  Md 2.2  2              bulletin    286311
                                                                                                         _ldg
      0.38   +-  0.06       1.2     .9  138.34 +-  0.0    0.17   2.66   +-0.1      +-0.1                 m i ke

GERMANY
Sta     Dist  EvAz     Phase      Date       Time     TRes  Azim  AzRes  Slow  SRes Def   SNR       Amp   Per   Mag1   Mag2       ID
CDF   001.16 273.5 m E Pn      2012/10/28 07:00:34.1   0.1                          T                                        5109054
CDF   001.16 273.5 m E Pg      2012/10/28 07:00:35.0   0.0                          T                                        5109053
CDF   001.16 273.5 m E Sg      2012/10/28 07:00:50.0  -0.1                          T                3.9  .20 Ml 2.3 Md 2.1  5109052
HINF  001.55 250.4 m E Pn      2012/10/28 07:00:39.1  -0.1                          T                                        5109042
HINF  001.55 250.4 m E Pg      2012/10/28 07:00:42.0  -0.1                          T                                        5109041
HINF  001.55 250.4 m E Sn      2012/10/28 07:00:58.1   0.0                          T                                        5109040
HINF  001.55 250.4 m E Sg      2012/10/28 07:01:02.1   0.0                          T                2.6  .28 Ml 2.0 Md 2.2  5109039
PAGF  002.20 276.4 m E Pn      2012/10/28 07:00:47.9  -0.1                          T                                        5109051
PAGF  002.20 276.4 m E Pg      2012/10/28 07:00:54.0  -0.1  96.8  2.8               T                                        5109050
PAGF  002.20 276.4 m E Sn      2012/10/28 07:01:13.5  -0.1                          T                                        5109049
PAGF  002.20 276.4 m E Sg      2012/10/28 07:01:22.4   0.1  97.9  3.9               T                1.1  .19 Ml 2.0         5109048
MEZF  002.64 274.7 m E Pn      2012/10/28 07:00:54.1   0.1                          T                                        5109047
MEZF  002.64 274.7 m E Sn      2012/10/28 07:01:24.1  -0.1                          T                 .7  .20 Ml 1.9         5109046
SFTF  002.66 268.2 m E Pn      2012/10/28 07:00:54.2  -0.1                          T                                        5109045
SFTF  002.66 268.2 m E Pg      2012/10/28 07:01:02.8   0.3                          T                                        5109044
SFTF  002.66 268.2 m E Sn      2012/10/28 07:01:24.7   0.0                          T                 .9  .19 Ml 2.0         5109043

.
EVENT     286212
    Date      Time       Latitude Longitude    Depth    Ndef Nsta Gap    Mag1  N    Mag2  N    Mag3  N   Author         ID
       rms   OT_Error      Smajor Sminor Az        Err   mdist  Mdist     Err        Err        Err      Quality

2012/10/28 09:19:55.8     48.4290    9.0130     10.0      19    4 084  Ml 1.7  3  Md 1.9  1              bulletin    286312
                                                                                                         _ldg
      0.42   +-  0.07       1.6    1.2  155.24 +-  0.0    0.10   2.66   +-0.1      +-                    m i ke

GERMANY
Sta     Dist  EvAz     Phase      Date       Time     TRes  Azim  AzRes  Slow  SRes Def   SNR       Amp   Per   Mag1   Mag2       ID
CDF   001.16 269.8 m E Pn      2012/10/28 09:20:16.5  -0.1                          T                                        5109065
CDF   001.16 269.8 m E Pg      2012/10/28 09:20:17.6   0.0                          T                                        5109064
CDF   001.16 269.8 m E Sn      2012/10/28 09:20:31.5   0.0                          T                                        5109063
CDF   001.16 269.8 m E Sg      2012/10/28 09:20:32.6   0.0                          T                 .9  .16 Ml 1.7 Md 1.9  5109062
HINF  001.57 247.9 m E Pn      2012/10/28 09:20:22.2   0.0                          T                                        5109061
HINF  001.57 247.9 m E Pg      2012/10/28 09:20:25.2   0.0                          T                                        5109060
HINF  001.57 247.9 m E Sn      2012/10/28 09:20:41.1  -0.2                          T                                        5109059
HINF  001.57 247.9 m E Sg      2012/10/28 09:20:45.6   0.1                          T                 .8  .25 Ml 1.6         5109058
PAGF  002.19 274.5 m E Pn      2012/10/28 09:20:30.4  -0.1                          T                                        5109057
SFTF  002.66 266.7 m E Pg      2012/10/28 09:20:45.2   0.0                          T                                        5109056
SFTF  002.66 266.7 m E Sg      2012/10/28 09:21:19.4   0.0                          T                 .6  .19 Ml 1.9         5109055

.
EVENT     285913
    Date      Time       Latitude Longitude    Depth    Ndef Nsta Gap    Mag1  N    Mag2  N    Mag3  N   Author         ID
       rms   OT_Error      Smajor Sminor Az        Err   mdist  Mdist     Err        Err        Err      Quality

2012/10/28 10:34:49.0     44.9900    8.2081     17.0 f    37    8 111  Ml 2.1  6                         bulletin    286013
                                                                                                         _ldg
      0.53   +-  0.13       2.8    2.1   71.57 +-  0.0    0.17   2.14   +-0.3                            m i ke

NORTHERN ITALY
Sta     Dist  EvAz     Phase      Date       Time     TRes  Azim  AzRes  Slow  SRes Def   SNR       Amp   Per   Mag1   Mag2       ID
MBDF  001.06 256.1 m E Pn      2012/10/28 10:35:07.4  -0.3                          T                                        5105247
MBDF  001.06 256.1 m E Sg      2012/10/28 10:35:22.8  -0.1                          T                4.7  .34 Ml 2.0         5105243
LPG   001.15 296.8 m E Pn      2012/10/28 10:35:09.2   0.0                          T                                        5105245
LPG   001.15 296.8 m E Sg      2012/10/28 10:35:25.7  -0.3                          T                2.1  .29 Ml 1.7         5105241
LPL   001.17 297.3 m E Pn      2012/10/28 10:35:09.3   0.0                          T                                        5105246
LPL   001.17 297.3 m E Sg      2012/10/28 10:35:26.4  -0.1                          T                5.0  .34 Ml 2.1         5105242
SBF   001.26 206.4 m E P       2012/10/28 10:35:12.0  -0.1                          T                                        5105244
SBF   001.26 206.4 m E Sg      2012/10/28 10:35:29.0  -0.1                          T                3.9  .21 Ml 2.2         5105240
ORIF  001.65 268.3 m E Pn      2012/10/28 10:35:16.1   0.3                          T                                        5105239
ORIF  001.65 268.3 m E Pg      2012/10/28 10:35:20.3   0.2                          T                                        5117163
ORIF  001.65 268.3 m E Sg      2012/10/28 10:35:41.4  -0.1                          T                3.7  .42 Ml 2.1         5105235
FRF   001.82 218.7 m E Pn      2012/10/28 10:35:18.5   0.6                          T                                        5105238
FRF   001.82 218.7 m E Pg      2012/10/28 10:35:23.6   0.7                          T                                        5117165
FRF   001.82 218.7 m E Sn      2012/10/28 10:35:39.3   0.3                          T                                        5105236
LMR   002.06 217.0 m E Pn      2012/10/28 10:35:21.6   0.4                          T                                        5105237
LMR   002.06 217.0 m E Pg      2012/10/28 10:35:27.4   0.0                          T                                        5117166
SMRF  002.14 242.6 m E Pn      2012/10/28 10:35:22.5   0.1                          T                                        5117164
SMRF  002.14 242.6 m E Sg      2012/10/28 10:35:56.7   0.2                          T                7.0  .31 Ml 2.6         5117167

.
EVENT     285984
    Date      Time       Latitude Longitude    Depth    Ndef Nsta Gap    Mag1  N    Mag2  N    Mag3  N   Author         ID
       rms   OT_Error      Smajor Sminor Az        Err   mdist  Mdist     Err        Err        Err      Quality

2012/10/28 11:03:54.6     48.4235    9.0082     10.0      20    5 085  Ml 1.9  5                         bulletin    286084
                                                                                                         _ldg
      0.47   +-  0.07       1.6    1.2  139.81 +-  0.0    0.11   2.68   +-0.2                            m i ke

GERMANY
Sta     Dist  EvAz     Phase      Date       Time     TRes  Azim  AzRes  Slow  SRes Def   SNR       Amp   Per   Mag1   Mag2       ID
CDF   001.15 270.1 m E Pg      2012/10/28 11:04:16.1  -0.3                          T                                        5106073
CDF   001.15 270.1 m E Sg      2012/10/28 11:04:31.4   0.0                          T                1.7  .16 Ml 2.0         5106072
HINF  001.57 248.0 m E Pg      2012/10/28 11:04:24.2   0.2                          T                                        5106071
HINF  001.57 248.0 m E Sn      2012/10/28 11:04:40.0  -0.1                          T                                        5106069
HINF  001.57 248.0 m E Sg      2012/10/28 11:04:43.9  -0.3                          T                 .9  .18 Ml 1.8         5106070
MEZF  002.63 273.2 m E Pn      2012/10/28 11:04:35.4   0.0                          T                                        5106066
MEZF  002.63 273.2 m E Sn      2012/10/28 11:05:05.1  -0.4                          T                1.7  .35 Ml 2.0         5106065
PAGF  002.19 274.7 m E Pg      2012/10/28 11:04:35.8   0.5                          T                                        5106068
PAGF  002.19 274.7 m E Sg      2012/10/28 11:05:03.7   0.2                          T                 .7  .19 Ml 1.8         5106067
CABF  002.68 228.6 m E Pn      2012/10/28 11:04:36.4   0.2                          T                                        5106064
CABF  002.68 228.6 m E Sn      2012/10/28 11:05:07.0   0.2                          T                                        5106063
CABF  002.68 228.6 m E Sg      2012/10/28 11:05:18.9  -0.2                          T                 .7  .33 Ml 1.7         5106062

.
EVENT     286213
    Date      Time       Latitude Longitude    Depth    Ndef Nsta Gap    Mag1  N    Mag2  N    Mag3  N   Author         ID
       rms   OT_Error      Smajor Sminor Az        Err   mdist  Mdist     Err        Err        Err      Quality

2012/10/28 11:04:05.9     48.4264    9.0333     10.0 f    14    4 087  Ml 1.8  4                         bulletin    286313
                                                                                                         _ldg
      0.53   +-  0.12       2.4    2.0  150.37 +-  0.0    0.10   2.68   +-0.1                            m i ke

GERMANY
Sta     Dist  EvAz     Phase      Date       Time     TRes  Azim  AzRes  Slow  SRes Def   SNR       Amp   Per   Mag1   Mag2       ID
CDF   001.17 270.0 m E Pg      2012/10/28 11:04:27.7  -0.2                          T                                        5109074
CDF   001.17 270.0 m E Sg      2012/10/28 11:04:42.3  -0.8                          T                1.1  .20 Ml 1.8         5109073
HINF  001.58 248.1 m E Pn      2012/10/28 11:04:33.5   1.1                          T                                        5109072
HINF  001.58 248.1 m E Pg      2012/10/28 11:04:35.5   0.0                          T                                        5109071
HINF  001.58 248.1 m E Sn      2012/10/28 11:04:53.0   1.3                          T                 .7  .18 Ml 1.6         5109070
MEZF  002.65 273.1 m E Pn      2012/10/28 11:04:47.7   0.9                          T                                        5109069
MEZF  002.65 273.1 m E Sn      2012/10/28 11:05:18.4   1.2                          T                 .8  .23 Ml 1.9         5109066
SFTF  002.68 266.7 m E Pn      2012/10/28 11:04:48.3   1.0                          T                                        5109068
SFTF  002.68 266.7 m E Sn      2012/10/28 11:05:18.9   1.1                          T                 .7  .19 Ml 1.9         5109067

.
EVENT     285914
    Date      Time       Latitude Longitude    Depth    Ndef Nsta Gap    Mag1  N    Mag2  N    Mag3  N   Author         ID
       rms   OT_Error      Smajor Sminor Az        Err   mdist  Mdist     Err        Err        Err      Quality

2012/10/28 11:07:12.0     44.9840    8.2485     17.0 f    33    8 120  Ml 1.8  6                         bulletin    286014
                                                                                                         _ldg
      0.89   +-  0.23       5.4    3.6   64.83 +-  0.0    0.15   2.24   +-0.2                            m i ke

NORTHERN ITALY
Sta     Dist  EvAz     Phase      Date       Time     TRes  Azim  AzRes  Slow  SRes Def   SNR       Amp   Per   Mag1   Mag2       ID
MBDF  001.08 256.8 m E Pn      2012/10/28 11:07:30.4  -0.6                          T                                        5105259
MBDF  001.08 256.8 m E Sn      2012/10/28 11:07:44.1  -0.6                          T                1.6  .22 Ml 1.7         5105256
LPG   001.18 296.4 m E Pn      2012/10/28 11:07:31.9  -0.6                          T                                        5105258
LPG   001.18 296.4 m E Sn      2012/10/28 11:07:47.1  -0.1                          T                 .9  .26 Ml 1.5         5105252
LPL   001.20 297.0 m E Pn      2012/10/28 11:07:32.2  -0.5                          T                                        5105260
LPL   001.20 297.0 m E Sn      2012/10/28 11:07:46.7  -0.9                          T                2.6  .36 Ml 1.8         5105253
SBF   001.26 207.8 m E Pn      2012/10/28 11:07:33.6   0.2                          T                                        5105257
SBF   001.26 207.8 m E Pg      2012/10/28 11:07:36.0   0.2                          T                                        5117169
SBF   001.26 207.8 m E Sg      2012/10/28 11:07:52.1  -0.2                          T                2.0  .18 Ml 2.0         5105248
ORIF  001.68 268.6 m E Pn      2012/10/28 11:07:40.3   1.1                          T                                        5105254
ORIF  001.68 268.6 m E Sg      2012/10/28 11:08:04.6  -0.8                          T                2.6  .43 Ml 1.9         5105255
FRF   001.83 219.5 m E Pn      2012/10/28 11:07:41.4   0.4                          T                                        5105251
FRF   001.83 219.5 m E Sn      2012/10/28 11:08:02.3  -0.1                          T                                        5105249
LMR   002.07 217.8 m E Pn      2012/10/28 11:07:45.2   0.9                          T                                        5105250
SMRF  002.16 243.2 m E Sn      2012/10/28 11:08:10.0  -0.4                          T                2.3  .29 Ml 2.1         5117168

.
