EVENT     255605
    Date      Time       Latitude Longitude    Depth    Ndef Nsta Gap    Mag1  N    Mag2  N    Mag3  N   Author         ID
       rms   OT_Error      Smajor Sminor Az        Err   mdist  Mdist     Err        Err        Err      Quality

2011/02/04 03:44:20.9     47.8542   -2.5743      3.0 f    84   30 110  Ml 3.0 32  Md 2.9  3              js067245    255625

      1.31   +-  0.09       1.9    1.3   46.67 +-  0.0    0.40   6.35   +-0.2      +-0.0                 m i ke

FRANCE
Sta     Dist  EvAz     Phase      Date       Time     TRes  Azim  AzRes  Slow  SRes Def   SNR       Amp   Per   Mag1   Mag2       ID
QUIF  000.40 279.1 m E Pg      2011/02/04 03:44:28.8   0.1                          T                                        4642933
QUIF  000.40 279.1 m E Sg      2011/02/04 03:44:33.6  -0.4                          T              510.4  .20        Md 2.9  4642923
SGMF  000.40 001.7 m E Pg      2011/02/04 03:44:28.9   0.3                          T                                        4642932
SGMF  000.40 001.7 m E Sg      2011/02/04 03:44:33.6  -0.3                          T              277.8  .20        Md 2.9  4642924
ROSF  000.67 316.1 m E Pg      2011/02/04 03:44:33.7   0.1                          T                                        4642931
ROSF  000.67 316.1 m E Sg      2011/02/04 03:44:41.8  -0.6                          T                                        4642944
ROSF  000.67 316.1 m E Sn      2011/02/04 03:44:44.8  -1.3                          T               93.6  .24        Md 2.9  4642922
GRR   001.27 064.4 m E Pg      2011/02/04 03:44:44.4  -0.1                          T                                        4642928
GRR   001.27 064.4 m E Sg      2011/02/04 03:45:01.0   0.0                          T               52.9  .24 Ml 3.1         4642919
FLN   001.67 056.2 m E Pg      2011/02/04 03:44:51.9   0.0 249.0  11.3              T                                        4642930
FLN   001.67 056.2 m E Sg      2011/02/04 03:45:12.8  -0.6 246.4  8.6               T               42.9  .28 Ml 3.1         4642921
LDF   001.80 064.8 m E Pg      2011/02/04 03:44:54.3  -0.1                          T                                        4642929
LDF   001.80 064.8 m E Sg      2011/02/04 03:45:17.1  -0.4                          T               17.5  .18 Ml 3.1         4642920
MFF   002.08 126.2 m E Pg      2011/02/04 03:44:59.5   0.0                          T                                        4642927
MFF   002.08 126.2 m E Sg      2011/02/04 03:45:25.1  -1.0                          T               20.9  .19 Ml 3.4         4642887
HYF   003.58 097.5 m E Pn      2011/02/04 03:45:15.5   0.2                          T                                        4642918
HYF   003.58 097.5 m E Sg      2011/02/04 03:46:12.8  -0.3                          T                                        4642884
TCF   003.63 113.8 m E Pn      2011/02/04 03:45:15.6  -0.3                          T                                        4642914
TCF   003.63 113.8 m E Pg      2011/02/04 03:45:28.2   0.1                          T                                        4642869
TCF   003.63 113.8 m E Sg      2011/02/04 03:46:14.1  -0.4                          T               11.1  .24 Ml 3.3         4642874
LFF   003.71 140.6 m E Pn      2011/02/04 03:45:18.2   1.1                          T                                        4642904
LFF   003.71 140.6 m E Pg      2011/02/04 03:45:29.7   0.1                          T                                        4642867
LFF   003.71 140.6 m E Sg      2011/02/04 03:46:17.2   0.1                          T               17.2  .40 Ml 3.0         4642889
RJF   003.80 130.6 m E Pn      2011/02/04 03:45:18.3   0.0                          T                                        4642905
RJF   003.80 130.6 m E Pg      2011/02/04 03:45:31.6   0.3                          T                                        4642866
RJF   003.80 130.6 m E Sg      2011/02/04 03:46:20.0  -0.1                          T               23.6  .32 Ml 3.1         4642888
BGF   003.92 107.3 m E Pn      2011/02/04 03:45:20.4   0.5                          T                                        4642926
BGF   003.92 107.3 m E Sg      2011/02/04 03:46:23.4  -0.2                          T               16.6  .31 Ml 3.4         4642885
SSF   004.20 098.6 m E Pn      2011/02/04 03:45:23.4  -0.4                          T                                        4642913
SSF   004.20 098.6 m E Pg      2011/02/04 03:45:38.4  -0.2                          T                                        4642870
SSF   004.20 098.6 m E Sg      2011/02/04 03:46:32.3  -0.2                          T                8.2  .46 Ml 3.0         4642875
CAF   004.34 130.7 m E Pn      2011/02/04 03:45:25.9   0.1                          T                                        4642903
CAF   004.34 130.7 m E Sn      2011/02/04 03:46:12.1  -1.8                          T                2.7  .25 Ml 2.8         4642946
CAF   004.34 130.7 m E Sg      2011/02/04 03:46:37.1   0.0                          T                7.8  .22 Ml 3.3         4642890
LOR   004.39 095.3 m E Pn      2011/02/04 03:45:27.1   0.7 276.5  -3.5              T                                        4642912
LOR   004.39 095.3 m E Pg      2011/02/04 03:45:41.9  -0.3 278.6  -1.4              T                                        4642871
LOR   004.39 095.3 m E Sn      2011/02/04 03:46:15.5   0.4                          T                                        4642868
LOR   004.39 095.3 m E Sg      2011/02/04 03:46:38.5  -0.1                          T                6.9  .38 Ml 3.0         4642876
SMF   004.53 103.1 m E Pn      2011/02/04 03:45:28.4   0.1                          T                                        4642917
SMF   004.53 103.1 m E Sg      2011/02/04 03:46:42.2  -0.7                          T                5.5  .24 Ml 3.1         4642883
SJPF  004.84 168.2 m E Pn      2011/02/04 03:45:33.0   0.6                          T                                        4642902
SJPF  004.84 168.2 m E Sg      2011/02/04 03:46:52.4   0.1                          T                4.4  .47 Ml 2.8         4642891
BAIF  004.98 061.2 m E Pn      2011/02/04 03:45:34.5   0.1                          T                                        4642910
BAIF  004.98 061.2 m E Sg      2011/02/04 03:46:56.8  -0.1                          T                1.5  .28 Ml 2.6         4642872
SFTF  005.12 083.3 m E Pn      2011/02/04 03:45:36.2  -0.1 264.9  -4.0              T                                        4642916
SFTF  005.12 083.3 m E Sg      2011/02/04 03:47:01.3   0.1                          T                2.7  .33 Ml 2.8         4642878
MEZF  005.14 079.9 m E Pn      2011/02/04 03:45:36.6   0.0                          T                                        4642915
MEZF  005.14 079.9 m E Sg      2011/02/04 03:47:01.8  -0.1                          T                7.3  .43 Ml 3.1         4642877
ETSF  005.15 163.3 m E Pn      2011/02/04 03:45:36.8   0.0                          T                                        4642901
ETSF  005.15 163.3 m E Sg      2011/02/04 03:47:02.4   0.1                          T                3.6  .63 Ml 2.7         4642892
EPF   005.24 155.9 m E Pn      2011/02/04 03:45:37.7  -0.3                          T                                        4642900
EPF   005.24 155.9 m E Sn      2011/02/04 03:46:32.6  -2.8                          T                1.0  .26 Ml 2.5         4642945
EPF   005.24 155.9 m E Sg      2011/02/04 03:47:04.9  -0.1                          T                3.1  .35 Ml 2.9         4642893
GIVF  005.37 062.5 m E Pn      2011/02/04 03:45:39.6   0.0                          T                                        4642911
GIVF  005.37 062.5 m E Sg      2011/02/04 03:47:08.6  -0.2                          T                4.0  .37 Ml 3.0         4642873
MTLF  005.63 141.6 m E Pn      2011/02/04 03:45:43.0  -0.2                          T                                        4642899
MTLF  005.63 141.6 m E Sg      2011/02/04 03:47:17.0   0.0                          T                3.0  .46 Ml 2.8         4642894
THEF  005.76 083.1 m E Pn      2011/02/04 03:45:45.1   0.1                          T                                        4642909
THEF  005.76 083.1 m E Sg      2011/02/04 03:47:21.2   0.1                          T                5.5  .46 Ml 3.1         4642879
LASF  005.86 127.8 m E Pn      2011/02/04 03:45:46.7   0.3                          T                                        4642898
LASF  005.86 127.8 m E Sg      2011/02/04 03:47:24.0  -0.3                          T                6.5  .56 Ml 3.1         4642895
VIVF  005.84 118.2 m E Pn      2011/02/04 03:45:46.8   0.6                          T                                        4642897
VIVF  005.84 118.2 m E Sg      2011/02/04 03:47:24.1   0.3                          T                6.0  .57 Ml 3.1         4642896
CABF  006.03 098.7 m E Pn      2011/02/04 03:45:48.5  -0.3                          T                                        4642906
HAU   006.00 085.3 m E Pn      2011/02/04 03:45:48.5   0.2                          T                                        4642908
HAU   006.00 085.3 m E Sg      2011/02/04 03:47:28.6   0.0                          T                4.8  .48 Ml 2.9         4642881
CABF  006.03 098.7 m E Sg      2011/02/04 03:47:29.7   0.0                          T                5.6  .70 Ml 3.0         4642880
HINF  006.35 086.9 m E Pn      2011/02/04 03:45:52.9  -0.1                          T                                        4642907
HINF  006.35 086.9 m E Sg      2011/02/04 03:47:39.5  -0.1                          T                2.6  .36 Ml 3.0         4642882

.
EVENT     255609
    Date      Time       Latitude Longitude    Depth    Ndef Nsta Gap    Mag1  N    Mag2  N    Mag3  N   Author         ID
       rms   OT_Error      Smajor Sminor Az        Err   mdist  Mdist     Err        Err        Err      Quality

2011/02/04 05:09:55.3     42.9963   -1.3519      2.0      15    3 062  Ml 1.6  1  Md 1.8  2              js067245    255629

      0.39   +-  0.08       1.5    1.5  156.56 +-  0.0    0.15   1.54   +-         +-0.1                 m i ke

PYRENEES
Sta     Dist  EvAz     Phase      Date       Time     TRes  Azim  AzRes  Slow  SRes Def   SNR       Amp   Per   Mag1   Mag2       ID
SJPF  000.15 038.5 m E Pg      2011/02/04 05:09:58.4   0.0                          T                                        4642939
SJPF  000.15 038.5 m E Sg      2011/02/04 05:10:00.3  -0.3                          T               50.5  .14        Md 1.9  4642934
ETSF  000.59 099.3 m E Pg      2011/02/04 05:10:06.1  -0.5                          T                                        4642938
ETSF  000.59 099.3 m E Sg      2011/02/04 05:10:14.3   0.0                          T                2.4  .16        Md 1.8  4642935
EPF   001.24 087.9 m E Pg      2011/02/04 05:10:18.4  -0.1                          T                                        4642937
EPF   001.24 087.9 m E Sg      2011/02/04 05:10:34.7   0.1                          T                2.0  .38 Ml 1.6         4642936

.
EVENT     255641
    Date      Time       Latitude Longitude    Depth    Ndef Nsta Gap    Mag1  N    Mag2  N    Mag3  N   Author         ID
       rms   OT_Error      Smajor Sminor Az        Err   mdist  Mdist     Err        Err        Err      Quality

2011/02/04 15:19:00.5     42.6192   -1.2370       .0 f     9    5 291  Ml 2.7  2  Md 2.1  2              js067245    255661

      0.32   +-  0.46       8.1    4.3   32.30 +-  0.0    0.49   3.32   +-0.1      +-0.0                 m i km

PYRENEES
Sta     Dist  EvAz     Phase      Date       Time     TRes  Azim  AzRes  Slow  SRes Def   SNR       Amp   Per   Mag1   Mag2       ID
SJPF  000.49 001.0 m E Pg      2011/02/04 15:19:10.5   0.3                          T                                        4643112
SJPF  000.49 001.0 m E Sg      2011/02/04 15:19:16.7  -0.2                          T               49.4  .48        Md 2.1  4643109
ETSF  000.57 060.5 m E Pg      2011/02/04 15:19:11.4  -0.3                          T                                        4643111
ETSF  000.57 060.5 m E Sg      2011/02/04 15:19:19.4   0.0                          T               32.7  .46        Md 2.1  4643108
EPF   001.23 070.0 m E Pg      2011/02/04 15:19:24.0   0.2                          T                                        4643110
EPF   001.23 070.0 m E Sg      2011/02/04 15:19:40.2   0.2                          T               13.2  .28 Ml 2.6         4643107
EPF   001.23 070.0 m E S       2011/02/04 15:19:43.1   0.6                          T                                        4643941
CAF   003.32 044.9 m E Pn      2011/02/04 15:19:51.6  -0.4                          T                                        4643943
LFF   002.73 031.0 m E Sg      2011/02/04 15:20:26.2  -0.3                          T               11.2  .34 Ml 2.7         4643942

.
EVENT     255640
    Date      Time       Latitude Longitude    Depth    Ndef Nsta Gap    Mag1  N    Mag2  N    Mag3  N   Author         ID
       rms   OT_Error      Smajor Sminor Az        Err   mdist  Mdist     Err        Err        Err      Quality

2011/02/04 15:21:32.1     48.4861    5.5179       .0 f    24   11 150  Ml 2.1  7  Md 2.2  2              js067245    255660

      1.54   +-  0.12       2.0    1.7  175.28 +-  0.0    0.15   1.97   +-0.1      +-0.1                 m i km

FRANCE
Sta     Dist  EvAz     Phase      Date       Time     TRes  Azim  AzRes  Slow  SRes Def   SNR       Amp   Per   Mag1   Mag2       ID
PAGF  000.15 063.3 m E Pg      2011/02/04 15:21:35.6   0.0 232.8  -10.7             T                                        4643136
PAGF  000.15 063.3 m E Sg      2011/02/04 15:21:37.6  -0.3 257.3  13.8              T               80.5  .76        Md 2.2  4643134
MEZF  000.31 273.1 m E Pg      2011/02/04 15:21:38.4   0.0  87.5  -5.2              T                                        4643135
MEZF  000.31 273.1 m E Sg      2011/02/04 15:21:42.9   0.1  85.6  -7.2              T               82.3  .58        Md 2.2  4643133
SFTF  000.43 228.9 m E Pg      2011/02/04 15:21:40.4  -0.1  54.2  5.7               T                                        4643130
SFTF  000.43 228.9 m E Sg      2011/02/04 15:21:46.8   0.4  34.6  -13.9             T               22.0  .57                4643123
THEF  000.41 128.9 m E Pg      2011/02/04 15:21:40.5   0.3                          T                                        4643129
THEF  000.41 128.9 m E Sg      2011/02/04 15:21:46.1   0.2                          T               24.7  .53                4643122
HAU   000.73 130.6 m E Pg      2011/02/04 15:21:46.6   0.3                          T                                        4643128
HAU   000.73 130.6 m E Sg      2011/02/04 15:21:56.3   0.2                          T                4.6  .20                4643132
HINF  001.12 126.3 m E Pg      2011/02/04 15:21:53.6   0.3                          T                                        4643127
HINF  001.12 126.3 m E Sg      2011/02/04 15:22:08.2   0.2                          T                8.1  .40 Ml 2.2         4643131
CDF   001.17 093.0 m E Pg      2011/02/04 15:21:53.9  -0.6                          T                                        4643126
CDF   001.17 093.0 m E Sg      2011/02/04 15:22:09.7  -0.1                          T                4.5  .39 Ml 2.1         4643121
LANF  001.59 071.0 m E Pg      2011/02/04 15:22:02.0  -0.1                          T                                        4643116
LANF  001.59 071.0 m E Sg      2011/02/04 15:22:22.9   0.1                          T                7.4  .43 Ml 2.3         4643115
LOR   001.65 223.1 m E Pg      2011/02/04 15:22:03.2   0.0  38.4  -3.5              T                                        4643124
LOR   001.65 223.1 m E Sg      2011/02/04 15:22:25.0   0.3  47.3  5.4               T                2.4  .31 Ml 2.0         4643119
SSF   001.97 224.3 m E Pg      2011/02/04 15:22:07.9  -1.0                          T                                        4643117
SSF   001.97 224.3 m E Sg      2011/02/04 15:22:34.7   0.2                          T                5.8  .61 Ml 2.3         4643118
CABF  001.92 168.2 m E Pg      2011/02/04 15:22:08.4   0.3                          T                                        4643125
CABF  001.92 168.2 m E Sg      2011/02/04 15:22:33.5   0.5                          T                5.7  .60 Ml 2.2         4643120

.
