BEGIN GSE2.0
MSG_TYPE DATA
MSG_ID 24-MAI-1314:14:30  FRA_NDC
E-MAIL
DATA_TYPE BULLETIN
Reviewed Bulletin (REB) # P2013-019  from French NDC for regional phases     PERIOD 08 MAI 2013 TO 14 MAI 2013 Cenalt JP S
EVENT     297700
    Date      Time       Latitude Longitude    Depth    Ndef Nsta Gap    Mag1  N    Mag2  N    Mag3  N   Author         ID
       rms   OT_Error      Smajor Sminor Az        Err   mdist  Mdist     Err        Err        Err      Quality

2013/05/08 00:52:19.5     43.5117   12.4253     10.0 f   131   27 077  Ml 3.2 31                         bulletin    297800
                                                                                                         _ldg
      1.58   +-  0.16       5.0    2.9   11.08 +-  0.0    0.08  11.27   +-0.4                            m i ke

CENTRAL ITALY
Sta     Dist  EvAz     Phase      Date       Time     TRes  Azim  AzRes  Slow  SRes Def   SNR       Amp   Per   Mag1   Mag2       ID
PGF   002.69 250.2 m E Pn      2013/05/08 00:53:00.8  -0.4                          T   001.0                                5277325
PGF   002.69 250.2 m E Sn      2013/05/08 00:53:31.0  -0.8                          T   001.0         32  .56 Ml 3.4         5277326
SBF   003.64 277.3 m E Pn      2013/05/08 00:53:14.1   0.0                          T   001.0                                5277327
SBF   003.64 277.3 m E Sn      2013/05/08 00:53:54.1  -0.4                          T   001.0       70.9  .52 Ml 3.7         5277328
FRF   004.20 272.7 m E Pn      2013/05/08 00:53:21.3  -0.3                          T   001.0                                5277314
FRF   004.20 272.7 m E Sn      2013/05/08 00:54:07.5  -0.4                          T   001.0       23.8  .60 Ml 3.3         5277315
MBDF  004.25 288.6 m E Pn      2013/05/08 00:53:21.9  -0.6                          T   001.0                                5277335
MBDF  004.25 288.6 m E Sn      2013/05/08 00:54:09.6   0.5                          T               36.0  .75 Ml 3.4         5277415
LMR   004.31 269.7 m E Pn      2013/05/08 00:53:22.8  -0.4                          T   001.0                                5277318
LMR   004.31 269.7 m E Sn      2013/05/08 00:54:11.7   1.2                          T                5.3  .32 Ml 3.0         5277418
LPG   004.52 298.0 m E Pn      2013/05/08 00:53:26.4   0.1                          T   001.0                                5277321
LPG   004.52 298.0 m E Sn      2013/05/08 00:54:15.0  -0.8                          T                                        5277416
LPG   004.52 298.0 m E Sg      2013/05/08 00:54:39.2  -2.2                          T   001.0       13.8  .56 Ml 3.2         5277322
LPL   004.54 298.2 m E Pn      2013/05/08 00:53:26.7   0.1                          T   001.0                                5277323
LPL   004.54 298.2 m E Sn      2013/05/08 00:54:16.0  -0.2                          T   001.0       14.5  .44 Ml 3.3         5277324
SMRF  004.98 277.7 m E Pn      2013/05/08 00:53:31.9  -0.5                          T   001.0                                5277340
SMRF  004.98 277.7 m E Sn      2013/05/08 00:54:26.8   0.1                          T                7.3  .45 Ml 3.1         5277417
ORIF  004.91 288.9 m E Pn      2013/05/08 00:53:32.6   1.2                          T   001.0                                5277338
ORIF  004.91 288.9 m E Sn      2013/05/08 00:54:25.3   0.4                          T   001.0       17.3  .64 Ml 3.3         5277339
CABF  005.45 306.8 m E Pn      2013/05/08 00:53:39.0   0.2                          T   001.0                                5277332
CABF  005.45 306.8 m E Sn      2013/05/08 00:54:38.1   0.2                          T   001.0       16.8  .60 Ml 3.4         5277333
VIVF  005.73 286.2 m E Pn      2013/05/08 00:53:42.6   0.1                          T                                        5277414
VIVF  005.73 286.2 m E Sn      2013/05/08 00:54:44.1  -0.5                          T                1.7  .28 Ml 2.8         5277413
HINF  005.81 319.7 m E Pn      2013/05/08 00:53:43.7   0.1                          T   001.0                                5277334
HINF  005.81 319.7 m E Sn      2013/05/08 00:54:46.2  -0.2                          T               12.7  .38 Ml 3.6         5277405
CDF   006.07 325.6 m E Pn      2013/05/08 00:53:47.5   0.2                          T   001.0                                5277313
CDF   006.07 325.6 m E Sn      2013/05/08 00:54:52.3  -0.4                          T               11.8  .30 Ml 3.8         5277398
HAU   006.19 318.7 m E Pn      2013/05/08 00:53:49.0   0.4                          T   001.0                                5277316
HAU   006.19 318.7 m E Sn      2013/05/08 00:54:55.3   0.0                          T               19.7  .38 Ml 3.6         5277404
LASF  006.23 278.1 m E Pn      2013/05/08 00:53:49.5   0.2                          T   001.0                                5277317
LASF  006.23 278.1 m E Sn      2013/05/08 00:54:56.9   0.6                          T                 .9  .25 Ml 2.7         5277412
SMF   006.84 300.2 m E Pn      2013/05/08 00:53:57.4  -0.1                          T   001.0                                5277329
SMF   006.84 300.2 m E Sn      2013/05/08 00:55:11.4   0.5                          T   001.0        5.6  .36 Ml 3.4         5277330
PAGF  006.87 319.6 m E Pn      2013/05/08 00:53:58.8   0.8                          T                                        5277400
PAGF  006.87 319.6 m E Sn      2013/05/08 00:55:11.3  -0.2                          T               10.2  .51 Ml 3.5         5277399
SFTF  006.97 314.9 m E Pn      2013/05/08 00:54:00.1   0.7 132.9  3.3               T                                        5277403
SFTF  006.97 314.9 m E Sn      2013/05/08 00:55:13.5  -0.6 121.3  -8.3              T                4.8  .31 Ml 3.4         5277402
LOR   007.10 304.9 m E Pn      2013/05/08 00:54:01.3   0.1 125.0  6.2               T   001.0                                5277319
LOR   007.10 304.9 m E Sn      2013/05/08 00:55:16.5  -0.8 125.4  6.6               T   001.0        7.7  .36 Ml 3.6         5277320
MEZF  007.16 316.8 m E Pn      2013/05/08 00:54:02.1   0.2 134.8  3.3               T   001.0                                5277336
MEZF  007.16 316.8 m E Sn      2013/05/08 00:55:18.3  -0.2                          T                6.4  .39 Ml 3.5         5277401
AVF   007.20 300.2 m E Pn      2013/05/08 00:54:02.6   0.1                          T   001.0                                5277308
AVF   007.20 300.2 m E Sn      2013/05/08 00:55:19.5  -0.1                          T                1.7  .45 Ml 2.9         5277408
SSF   007.22 302.5 m E Pn      2013/05/08 00:54:02.9   0.1                          T   001.0                                5277331
SSF   007.22 302.5 m E Sn      2013/05/08 00:55:18.8  -1.2                          T                4.0  .48 Ml 3.3         5277397
MTLF  007.43 272.2 m E Pn      2013/05/08 00:54:06.0   0.3                          T   001.0                                5277337
MTLF  007.43 272.2 m E Sn      2013/05/08 00:55:25.5   0.4                          T                1.3  .35 Ml 2.9         5277411
BGF   007.44 297.5 m E Pn      2013/05/08 00:54:06.2   0.5                          T   001.0                                5277309
BGF   007.44 297.5 m E Sn      2013/05/08 00:55:25.1  -0.1                          T   001.0        7.3  .44 Ml 3.5         5277310
CAF   007.58 284.3 m E Pn      2013/05/08 00:54:07.6   0.0                          T   001.0                                5277311
CAF   007.58 284.3 m E Sn      2013/05/08 00:55:28.8   0.2                          T   001.0        1.9  .52 Ml 2.9         5277312
TCF   007.77 294.5 m E Pn      2013/05/08 00:54:10.0  -0.2                          T                                        5277407
TCF   007.77 294.5 m E Sn      2013/05/08 00:55:33.4   0.4                          T                1.0  .32 Ml 2.9         5277406
RJF   008.01 286.7 m E Pn      2013/05/08 00:54:14.1   0.5                          T                                        5277410
RJF   008.01 286.7 m E Sn      2013/05/08 00:55:39.2   0.2                          T                 .1  .17 Ml 2.0         5277409

.
EVENT     297701
    Date      Time       Latitude Longitude    Depth    Ndef Nsta Gap    Mag1  N    Mag2  N    Mag3  N   Author         ID
       rms   OT_Error      Smajor Sminor Az        Err   mdist  Mdist     Err        Err        Err      Quality

2013/05/08 02:28:12.1     44.0117    6.6185      5.8      28   11 095  Ml 1.4  8  Md 1.6  3              bulletin    297801
                                                                                                         _ldg
      0.20   +-  0.05       1.0     .7   56.81 +-  0.5    0.45   2.27   +-0.2      +-0.0                 m i ke

FRANCE
Sta     Dist  EvAz     Phase      Date       Time     TRes  Azim  AzRes  Slow  SRes Def   SNR       Amp   Per   Mag1   Mag2       ID
FRF   000.45 177.4 m E Pg      2013/05/08 02:28:21.0   0.2                          T                                        5277467
FRF   000.45 177.4 m E Sg      2013/05/08 02:28:26.9   0.1                          T                2.7  .23        Md 1.6  5277466
SBF   000.61 103.9 m E Pg      2013/05/08 02:28:23.9   0.1                          T                                        5277461
SBF   000.61 103.9 m E Sg      2013/05/08 02:28:32.0   0.2                          T                1.3  .12        Md 1.6  5277484
LMR   000.68 186.7 m E Pg      2013/05/08 02:28:24.9  -0.1                          T                                        5277465
LMR   000.68 186.7 m E Sg      2013/05/08 02:28:33.8  -0.2                          T                1.3  .18                5277464
MBDF  000.72 008.7 m E Pg      2013/05/08 02:28:26.1   0.1                          T                                        5277474
MBDF  000.72 008.7 m E Sg      2013/05/08 02:28:35.1  -0.3                          T                2.7  .27        Md 1.6  5277473
SMRF  000.75 267.6 m E Pg      2013/05/08 02:28:26.3  -0.1                          T                                        5277463
SMRF  000.75 267.6 m E Pn      2013/05/08 02:28:27.9   0.1                          T                                        5277462
SMRF  000.75 267.6 m E Sg      2013/05/08 02:28:36.2  -0.1                          T                2.7  .28                5277481
ORIF  001.05 330.0 m E Pg      2013/05/08 02:28:32.0   0.1                          T                                        5277476
ORIF  001.05 330.0 m E Sg      2013/05/08 02:28:45.6   0.0                          T                 .9  .19 Ml 1.5         5277475
LPL   001.51 003.0 m E Pn      2013/05/08 02:28:37.5  -0.8                          T                                        5277478
LPL   001.51 003.0 m E Sn      2013/05/08 02:28:57.2   0.1                          T                 .6  .22 Ml 1.5         5277477
LPG   001.49 003.6 m E Pn      2013/05/08 02:28:38.1   0.0                          T                                        5277480
LPG   001.49 003.6 m E Sn      2013/05/08 02:28:57.0   0.3                          T                 .4  .26 Ml 1.2         5277479
VIVF  001.63 301.9 m E Pn      2013/05/08 02:28:39.8   0.1                          T                                        5277472
VIVF  001.63 301.9 m E Pg      2013/05/08 02:28:42.6   0.1                          T                                        5277471
VIVF  001.63 301.9 m E Sn      2013/05/08 02:28:59.3  -0.4                          T                 .6  .23 Ml 1.5         5277470
LASF  001.99 272.8 m E Pn      2013/05/08 02:28:44.8   0.2                          T                                        5277469
LASF  001.99 272.8 m E Sn      2013/05/08 02:29:08.4   0.0                          T                 .2  .23 Ml 1.2         5277468
PGF   002.27 129.3 m E Pn      2013/05/08 02:28:48.2  -0.4                          T                                        5277483
PGF   002.27 129.3 m E Sn      2013/05/08 02:29:15.5   0.3                          T                 .4  .21 Ml 1.8         5277482

.
EVENT     297703
    Date      Time       Latitude Longitude    Depth    Ndef Nsta Gap    Mag1  N    Mag2  N    Mag3  N   Author         ID
       rms   OT_Error      Smajor Sminor Az        Err   mdist  Mdist     Err        Err        Err      Quality

2013/05/08 02:59:52.6     43.4640   12.2665     10.0      48   16 101  Ml 2.4 15                         bulletin    297803
                                                                                                         _ldg
      0.91   +-  0.11       2.6    2.1    1.27 +-  0.0    0.02   7.04   +-0.4                            m i ke

CENTRAL ITALY
Sta     Dist  EvAz     Phase      Date       Time     TRes  Azim  AzRes  Slow  SRes Def   SNR       Amp   Per   Mag1   Mag2       ID
PGF   002.57 250.2 m E Pn      2013/05/08 03:00:32.5  -0.1                          T                                        5277530
PGF   002.57 250.2 m E Sn      2013/05/08 03:01:01.9   0.0                          T                3.5  .36 Ml 2.6         5277523
SBF   003.53 278.2 m E P       2013/05/08 03:00:48.5  -0.4                          T                                        5289633
SBF   003.53 278.2 m E Sn      2013/05/08 03:01:25.0   0.1                          T                4.2  .34 Ml 2.6         5277528
FRF   004.09 273.3 m E Pn      2013/05/08 03:00:52.7  -0.5                          T                                        5277526
FRF   004.09 273.3 m E P       2013/05/08 03:00:57.6   0.9                          T                                        5289635
FRF   004.09 273.3 m E Sn      2013/05/08 03:01:38.6   0.4                          T                1.1  .25 Ml 2.3         5277521
LMR   004.20 270.2 m E P       2013/05/08 03:00:58.1  -0.2                          T                                        5289634
LMR   004.20 270.2 m E Sn      2013/05/08 03:01:40.8   0.0                          T                 .3  .21 Ml 1.8         5277522
LPL   004.46 299.3 m E P       2013/05/08 03:01:01.4  -0.9                          T                                        5289637
LPL   004.46 299.3 m E Sn      2013/05/08 03:01:47.5   0.1                          T                1.4  .35 Ml 2.4         5277517
LPG   004.44 299.2 m E P       2013/05/08 03:01:02.2   0.1                          T                                        5289636
LPG   004.44 299.2 m E Sn      2013/05/08 03:01:47.2   0.3                          T                1.9  .40 Ml 2.4         5277520
ORIF  004.82 289.8 m E P       2013/05/08 03:01:06.7  -0.5                          T                                        5289638
ORIF  004.82 289.8 m E Sn      2013/05/08 03:01:55.8   0.1                          T                 .9  .31 Ml 2.3         5277515
MBDF  004.15 289.6 m E Pg      2013/05/08 03:01:09.6   0.0                          T                                        5289639
CABF  005.39 307.8 m E P       2013/05/08 03:01:15.1  -0.2                          T                                        5289641
HINF  005.77 320.8 m E Pn      2013/05/08 03:01:15.8  -0.4                          T                                        5277512
HINF  005.77 320.8 m E P       2013/05/08 03:01:20.7   0.0                          T                                        5289642
HINF  005.77 320.8 m E Sn      2013/05/08 03:02:18.6   0.0                          T                2.4  .37 Ml 2.9         5277511
HAU   006.15 319.7 m E Pn      2013/05/08 03:01:20.9  -0.3                          T                                        5277510
HAU   006.15 319.7 m E P       2013/05/08 03:01:25.9   0.0                          T                                        5289643
HAU   006.15 319.7 m E Sn      2013/05/08 03:02:27.7   0.3                          T                3.5  .38 Ml 2.9         5289632
CDF   006.05 326.6 m E P       2013/05/08 03:01:24.2  -0.4                          T                                        5289645
CDF   006.05 326.6 m E Sn      2013/05/08 03:02:25.4   0.2                          T                1.6  .32 Ml 2.9         5289631
SMF   006.76 301.0 m E P       2013/05/08 03:01:34.6   0.1                          T                                        5289640
SFTF  006.92 315.7 m E P       2013/05/08 03:01:36.5  -0.3                          T                                        5289644
LOR   007.04 305.6 m E P       2013/05/08 03:01:38.3  -0.1                          T                                        5289646
LOR   007.04 305.6 m E Sn      2013/05/08 03:02:48.7   0.0                          T                1.0  .30 Ml 2.8         5277506
SMRF  004.88 278.3 m E Sn      2013/05/08 03:01:57.1   0.0                          T                 .1  .16 Ml 1.5         5277519

.
