EVENT     267172
    Date      Time       Latitude Longitude    Depth    Ndef Nsta Gap    Mag1  N    Mag2  N    Mag3  N   Author         ID
       rms   OT_Error      Smajor Sminor Az        Err   mdist  Mdist     Err        Err        Err      Quality

2011/12/08 04:43:42.4     51.4803    6.5916      1.0 f    60   20 131  Ml 2.7 14  Md 2.8  2              js067245    267192

      0.85   +-  0.09       2.1    1.4  124.53 +-  0.0    0.28   5.94   +-0.4      +-0.2                 m i sr

GERMANY
Sta     Dist  EvAz     Phase      Date       Time     TRes  Azim  AzRes  Slow  SRes Def   SNR       Amp   Per   Mag1   Mag2       ID
GIVF  001.78 219.8 m E Pn      2011/12/08 04:44:12.3  -0.3                          T                                        4797186
GIVF  001.78 219.8 m E P       2011/12/08 04:44:14.5   0.0                          T                                        4797187
GIVF  001.78 219.8 m E Sn      2011/12/08 04:44:34.6   0.1                          T                                        4797163
GIVF  001.78 219.8 m E Sg      2011/12/08 04:44:38.7   0.2                          T               42.9  .36 Ml 3.2 Md 2.7  4797162
RUP   001.81 170.3 m E P       2011/12/08 04:44:15.0  -0.1                          T                                        4797189
RUP   001.81 170.3 m E Sn      2011/12/08 04:44:35.1  -0.1                          T                                        4797167
RUP   001.81 170.3 m E Sg      2011/12/08 04:44:39.4   0.0                          T                                Md 2.9  4797166
BAIF  002.08 227.7 m E P       2011/12/08 04:44:18.7  -0.2                          T                                        4797188
BAIF  002.08 227.7 m E Sn      2011/12/08 04:44:41.4  -0.2                          T                                        4797165
BAIF  002.08 227.7 m E Sg      2011/12/08 04:44:47.7  -0.1                          T               10.3  .31 Ml 2.7         4797164
CDF   003.10 171.5 m E Pn      2011/12/08 04:44:30.8   0.1                          T                                        4797190
CDF   003.10 171.5 m E Sg      2011/12/08 04:45:19.9   0.0                          T                2.2  .30 Ml 2.4         4797168
MEZF  003.14 199.0 m E Pn      2011/12/08 04:44:31.1   0.0  22.9  5.1               T                                        4797191
MEZF  003.14 199.0 m E Sg      2011/12/08 04:45:21.1   0.1  18.2  0.4               T               13.0  .50 Ml 2.9         4797170
THEF  003.28 187.0 m E Pn      2011/12/08 04:44:32.9  -0.1                          T                                        4797193
THEF  003.28 187.0 m E Sg      2011/12/08 04:45:25.2  -0.1                          T                8.2  .41 Ml 2.8         4797172
HAU   003.48 182.7 m E Pn      2011/12/08 04:44:35.1  -0.7                          T                                        4797194
HAU   003.48 182.7 m E Sg      2011/12/08 04:45:31.3  -0.4                          T                5.9  .37 Ml 2.5         4797174
HINF  003.67 177.2 m E Pn      2011/12/08 04:44:38.1  -0.3                          T                                        4797195
HINF  003.67 177.2 m E Sg      2011/12/08 04:45:37.2  -0.4                          T                2.4  .27 Ml 2.5         4797173
SFTF  003.43 197.6 m E Pg      2011/12/08 04:44:46.0   0.0  15.0  -1.5              T                                        4797192
SFTF  003.43 197.6 m E Sg      2011/12/08 04:45:30.0   0.1                          T                3.5  .25 Ml 2.7         4797171
LOR   004.58 204.0 m E Pn      2011/12/08 04:44:50.7   0.0  32.8  10.8              T                                        4797207
LOR   004.58 204.0 m E Sn      2011/12/08 04:45:41.5   0.1                          T                                        4797185
LOR   004.58 204.0 m E Sg      2011/12/08 04:46:06.0   0.2  18.6  -3.4              T                3.8  .31 Ml 2.9         4797160
SSF   004.86 205.7 m E Pn      2011/12/08 04:44:54.4  -0.1                          T                                        4797206
SSF   004.86 205.7 m E Sn      2011/12/08 04:45:48.1   0.0                          T                                        4797184
SSF   004.86 205.7 m E Sg      2011/12/08 04:46:15.0   0.3                          T                6.5  .37 Ml 3.2         4797161
AVF   005.15 205.6 m E Pn      2011/12/08 04:44:58.2  -0.2                          T                                        4797204
AVF   005.15 205.6 m E Sn      2011/12/08 04:45:55.0   0.0                          T                                        4797181
AVF   005.15 205.6 m E Sg      2011/12/08 04:46:24.0   0.2                          T                 .5  .29 Ml 2.1         4797175
SMF   005.17 201.5 m E Pn      2011/12/08 04:44:58.9   0.2                          T                                        4797203
SMF   005.17 201.5 m E Sn      2011/12/08 04:45:55.3  -0.2                          T                                        4797180
SMF   005.17 201.5 m E Sg      2011/12/08 04:46:24.0  -0.2                          T                3.8  .32 Ml 3.0         4797176
HYF   004.94 213.0 m E P       2011/12/08 04:44:59.7   0.0                          T                                        4797202
HYF   004.94 213.0 m E Sg      2011/12/08 04:46:17.2   0.0                          T                                        4797177
LDF   005.20 238.9 m E Pn      2011/12/08 04:44:59.9   0.7                          T                                        4797198
FLN   005.30 241.9 m E Pn      2011/12/08 04:45:00.4  -0.1  66.8  10.3              T                                        4797199
PAGF  002.98 191.1 m E Sn      2011/12/08 04:45:03.1  -0.2                          T                                        4797182
PAGF  002.98 191.1 m E Sg      2011/12/08 04:45:16.4   0.4  15.7  5.2               T                1.9  .32 Ml 2.2         4797169
BGF   005.51 208.0 m E Pn      2011/12/08 04:45:03.1  -0.2                          T                                        4797201
BGF   005.51 208.0 m E Sn      2011/12/08 04:46:03.4  -0.2                          T                                        4797179
BGF   005.51 208.0 m E Sg      2011/12/08 04:46:35.0   0.2                          T               10.5  .44 Ml 3.4         4797178
GRR   005.72 240.1 m E Pn      2011/12/08 04:45:06.4   0.2                          T                                        4797197
GRR   005.72 240.1 m E Sn      2011/12/08 04:46:07.0  -1.6                          T                                        4797196
TCF   005.94 210.8 m E Pn      2011/12/08 04:45:09.1  -0.2                          T                                        4797205
TCF   005.94 210.8 m E Sn      2011/12/08 04:46:13.5  -0.6                          T                                        4797183

.
EVENT     267173
    Date      Time       Latitude Longitude    Depth    Ndef Nsta Gap    Mag1  N    Mag2  N    Mag3  N   Author         ID
       rms   OT_Error      Smajor Sminor Az        Err   mdist  Mdist     Err        Err        Err      Quality

2011/12/08 05:02:23.4     43.1250    -.9191      2.0      13    3 172  Ml 1.6  1  Md 1.7  2              js067245    267193

      0.62   +-  0.20       5.7    2.3     .52 +-  0.0    0.16   1.69   +-         +-0.0                 m i ke

PYRENEES
Sta     Dist  EvAz     Phase      Date       Time     TRes  Azim  AzRes  Slow  SRes Def   SNR       Amp   Per   Mag1   Mag2       ID
SJPF  000.22 267.1 m E Pg      2011/12/08 05:02:27.8  -0.1                          T                                        4797215
SJPF  000.22 267.1 m E Sg      2011/12/08 05:02:31.2   0.2                          T               21.3  .26        Md 1.7  4797216
ETSF  000.35 130.5 m E Pg      2011/12/08 05:02:29.1  -1.1                          T                                        4797213
ETSF  000.35 130.5 m E Sg      2011/12/08 05:02:33.3  -1.6                          T                6.7  .22        Md 1.7  4797214
EPF   000.93 095.4 m E Pg      2011/12/08 05:02:41.2   0.4                          T                                        4797211
EPF   000.93 095.4 m E Sg      2011/12/08 05:02:53.9   1.0                          T                1.2  .21 Ml 1.6         4797212

.
EVENT     267174
    Date      Time       Latitude Longitude    Depth    Ndef Nsta Gap    Mag1  N    Mag2  N    Mag3  N   Author         ID
       rms   OT_Error      Smajor Sminor Az        Err   mdist  Mdist     Err        Err        Err      Quality

2011/12/08 05:28:24.8     43.5423    7.5063     17.3      25    5 217  Ml 2.2  2  Md 2.0  3              js067245    267194

      0.21   +-  0.10       1.9    1.0  137.20 +-  1.1    0.28   1.46   +-0.3      +-0.0                 m i ke

NEAR SOUTH COAST OF FRANCE
Sta     Dist  EvAz     Phase      Date       Time     TRes  Azim  AzRes  Slow  SRes Def   SNR       Amp   Per   Mag1   Mag2       ID
SBF   000.32 350.9 m E Pg      2011/12/08 05:28:31.9   0.1                          T                                        4797230
SBF   000.32 350.9 m E Sg      2011/12/08 05:28:37.0   0.4                          T               29.0  .22        Md 2.0  4797231
FRF   000.63 272.0 m E Pg      2011/12/08 05:28:37.0   0.1                          T                                        4797226
FRF   000.63 272.0 m E Sg      2011/12/08 05:28:45.6   0.3                          T               27.6  .28        Md 2.0  4797227
LMR   000.76 254.3 m E Pg      2011/12/08 05:28:38.9  -0.4                          T                                        4797228
LMR   000.76 254.3 m E Sg      2011/12/08 05:28:49.7   0.4                          T               13.5  .22        Md 2.0  4797229
MBDF  001.30 336.2 m E Pg      2011/12/08 05:28:49.3  -0.1                          T                                        4797222
MBDF  001.30 336.2 m E Sg      2011/12/08 05:29:06.0  -0.2                          T                4.1  .35 Ml 2.0         4797223
SMRF  001.46 287.9 m E Pg      2011/12/08 05:28:51.7  -0.6                          T                                        4797224
SMRF  001.46 287.9 m E Sg      2011/12/08 05:29:12.5   1.2                          T                8.9  .35 Ml 2.4         4797225

.
EVENT     267175
    Date      Time       Latitude Longitude    Depth    Ndef Nsta Gap    Mag1  N    Mag2  N    Mag3  N   Author         ID
       rms   OT_Error      Smajor Sminor Az        Err   mdist  Mdist     Err        Err        Err      Quality

2011/12/08 05:29:01.1     42.1334    9.4888      2.0      18   10 326  Ml 2.2  6  Md 2.1  1              js067245    267195

      0.28   +-  0.20       3.6    3.4   48.53 +-  0.0    0.55   4.56   +-0.4      +-                    m i ke

CORSICA, FRANCE
Sta     Dist  EvAz     Phase      Date       Time     TRes  Azim  AzRes  Slow  SRes Def   SNR       Amp   Per   Mag1   Mag2       ID
PGF   000.55 319.0 m E Pg      2011/12/08 05:29:11.6  -0.1                          T                                        4797243
PGF   000.55 319.0 m E Sg      2011/12/08 05:29:18.8  -0.2                          T               93.2  .22        Md 2.1  4797244
SBF   002.29 319.6 m E Pn      2011/12/08 05:29:38.2   0.0                          T                                        4797242
SBF   002.29 319.6 m E Sn      2011/12/08 05:30:05.4   0.1                          T               11.4  .34 Ml 2.8         4797234
LMR   002.50 299.7 m E Pn      2011/12/08 05:29:41.2   0.3                          T                                        4797241
LMR   002.50 299.7 m E Sn      2011/12/08 05:30:10.5   0.3                          T                3.0  .25 Ml 2.4         4797235
FRF   002.53 305.3 m E Pn      2011/12/08 05:29:41.9   0.5                          T                                        4797240
FRF   002.53 305.3 m E Sn      2011/12/08 05:30:11.7   0.8                          T                 .8  .17 Ml 2.0         4797236
MBDF  003.26 323.6 m E P       2011/12/08 05:29:54.3  -0.3                          T                                        4797238
MBDF  003.26 323.6 m E Sn      2011/12/08 05:30:28.8   0.2                          T                 .2  .18 Ml 1.6         4797237
SMRF  003.41 304.0 m E P       2011/12/08 05:29:56.5   0.0                          T                                        4797239
SMRF  003.41 304.0 m E Sn      2011/12/08 05:30:31.7  -0.3                          T                 .9  .26 Ml 2.1         4798958
ORIF  003.83 317.9 m E P       2011/12/08 05:30:02.3  -0.2                          T                                        4798960
LPG   003.90 330.4 m E P       2011/12/08 05:30:04.0   0.2                          T                                        4798961
LASF  004.56 297.1 m E Pn      2011/12/08 05:30:08.3  -0.7                          T                                        4798959
LPL   003.93 330.4 m E Sn      2011/12/08 05:30:44.6   0.0                          T                 .6  .21 Ml 2.1         4798957

.
EVENT     267176
    Date      Time       Latitude Longitude    Depth    Ndef Nsta Gap    Mag1  N    Mag2  N    Mag3  N   Author         ID
       rms   OT_Error      Smajor Sminor Az        Err   mdist  Mdist     Err        Err        Err      Quality

2011/12/08 06:07:58.1     42.1570    9.4661      2.0      30   11 326  Ml 2.6 10  Md 2.6  1              js067245    267196

      0.34   +-  0.18       3.4    3.1   33.63 +-  0.0    0.52   4.53   +-0.4      +-                    m i ke

CORSICA, FRANCE
Sta     Dist  EvAz     Phase      Date       Time     TRes  Azim  AzRes  Slow  SRes Def   SNR       Amp   Per   Mag1   Mag2       ID
PGF   000.52 318.7 m E Pg      2011/12/08 06:08:08.0  -0.2                          T                                        4797307
PGF   000.52 318.7 m E Sg      2011/12/08 06:08:15.1   0.1                          T              235.7  .24        Md 2.6  4797308
SBF   002.26 319.5 m E Pn      2011/12/08 06:08:34.8   0.0                          T                                        4797298
SBF   002.26 319.5 m E Sn      2011/12/08 06:09:01.7   0.1                          T               48.1  .50 Ml 3.2         4797297
LMR   002.48 299.4 m E Pn      2011/12/08 06:08:37.8   0.2                          T                                        4797299
LMR   002.48 299.4 m E Sn      2011/12/08 06:09:06.8   0.2                          T               10.8  .34 Ml 2.8         4797296
FRF   002.50 305.0 m E Pn      2011/12/08 06:08:38.2   0.2                          T                                        4797300
FRF   002.50 305.0 m E Sn      2011/12/08 06:09:07.8   0.5                          T                7.6  .34 Ml 2.7         4797295
SMRF  003.38 303.8 m E Pn      2011/12/08 06:08:49.9  -0.1                          T                                        4797301
SMRF  003.38 303.8 m E P       2011/12/08 06:08:52.9  -0.3                          T                                        4797288
SMRF  003.38 303.8 m E Sn      2011/12/08 06:09:28.0  -0.3                          T                1.8  .28 Ml 2.3         4797294
SMRF  003.38 303.8 m E S       2011/12/08 06:09:33.8  -0.6                          T                                        4797287
MBDF  003.23 323.5 m E P       2011/12/08 06:08:51.0  -0.1                          T                                        4797304
MBDF  003.23 323.5 m E Sn      2011/12/08 06:09:25.1   0.2                          T               19.4  .62 Ml 3.0         4797293
ORIF  003.80 317.8 m E Pn      2011/12/08 06:08:55.2  -0.5                          T                                        4797292
ORIF  003.80 317.8 m E P       2011/12/08 06:08:59.3   0.2                          T                                        4797291
ORIF  003.80 317.8 m E Sn      2011/12/08 06:09:38.3   0.0                          T                1.7  .29 Ml 2.4         4798962
LPG   003.87 330.5 m E Pn      2011/12/08 06:08:57.3   0.3                          T                                        4797302
LPG   003.87 330.5 m E P       2011/12/08 06:09:00.6   0.2                          T                                        4797289
LPG   003.87 330.5 m E Sn      2011/12/08 06:09:40.8   0.4                          T                 .6  .27 Ml 2.0         4797285
LPG   003.87 330.5 m E S       2011/12/08 06:09:47.5   0.3                          T                                        4797286
LPL   003.90 330.4 m E Pn      2011/12/08 06:08:57.6   0.3                          T                                        4797303
LPL   003.90 330.4 m E P       2011/12/08 06:09:00.8   0.1                          T                                        4797290
LPL   003.90 330.4 m E Sn      2011/12/08 06:09:40.8  -0.1                          T                2.3  .42 Ml 2.4         4798965
VIVF  004.41 309.4 m E Pn      2011/12/08 06:09:03.6  -0.3                          T                                        4797305
VIVF  004.41 309.4 m E Sn      2011/12/08 06:09:52.6  -0.3                          T                1.3  .32 Ml 2.4         4798964
LASF  004.53 296.9 m E Pn      2011/12/08 06:09:04.9  -0.7                          T                                        4797306
LASF  004.53 296.9 m E Sn      2011/12/08 06:09:55.8   0.0                          T                4.6  .43 Ml 2.8         4798963

.
