EVENT     279094
    Date      Time       Latitude Longitude    Depth    Ndef Nsta Gap    Mag1  N    Mag2  N    Mag3  N   Author         ID
       rms   OT_Error      Smajor Sminor Az        Err   mdist  Mdist     Err        Err        Err      Quality

2012/07/04 21:35:37.7     44.8258    6.7235      2.0      19    9 150  Ml 1.3  3  Md 1.4  1              bulletin    279194
                                                                                                         _ldg
      0.26   +-  0.07       1.8    1.1   80.77 +-  0.0    0.10   1.50   +-0.0      +-                    m i ke

FRANCE
Sta     Dist  EvAz     Phase      Date       Time     TRes  Azim  AzRes  Slow  SRes Def   SNR       Amp   Per   Mag1   Mag2       ID
MBDF  000.10 160.9 m E Pg      2012/07/04 21:35:40.0  -0.2                          T                                        5019101
MBDF  000.10 160.9 m E Sg      2012/07/04 21:35:41.8   0.1                          T                7.8  .20        Md 1.4  5019100
ORIF  000.61 279.1 m E Pg      2012/07/04 21:35:49.5   0.2                          T                                        5019098
ORIF  000.61 279.1 m E Sg      2012/07/04 21:35:56.2  -1.1                          T                2.0  .22                5019099
LPL   000.69 000.5 m E Pg      2012/07/04 21:35:50.8  -0.2                          T                                        5019097
LPL   000.69 000.5 m E Sg      2012/07/04 21:35:59.5  -0.5                          T                 .8  .28                5019086
LPG   000.67 001.7 m E Pg      2012/07/04 21:35:51.0   0.2                          T                                        5019096
LPG   000.67 001.7 m E Sg      2012/07/04 21:35:59.6   0.1                          T                 .7  .23                5019085
LPG   000.67 001.7 m E Sn      2012/07/04 21:36:03.6   0.1                          T                                        5019087
SBF   001.09 151.8 m E Pn      2012/07/04 21:35:58.4   0.0                          T                                        5019090
SMRF  001.18 224.5 m E Pg      2012/07/04 21:35:59.9   0.0                          T                                        5019093
FRF   001.27 182.5 m E Pn      2012/07/04 21:36:00.8   0.1                          T                                        5019088
FRF   001.27 182.5 m E Sg      2012/07/04 21:36:17.6  -0.1                          T                 .5  .20 Ml 1.4         5019092
VIVF  001.46 271.9 m E Pn      2012/07/04 21:36:03.4   0.0                          T                                        5019084
VIVF  001.46 271.9 m E Sn      2012/07/04 21:36:22.0   0.0                          T                 .5  .26 Ml 1.3         5019083
LMR   001.50 186.0 m E Pn      2012/07/04 21:36:03.8  -0.1                          T                                        5019091
LMR   001.50 186.0 m E Sn      2012/07/04 21:36:22.9   0.1                          T                 .3  .20 Ml 1.3         5019089

.
EVENT     279095
    Date      Time       Latitude Longitude    Depth    Ndef Nsta Gap    Mag1  N    Mag2  N    Mag3  N   Author         ID
       rms   OT_Error      Smajor Sminor Az        Err   mdist  Mdist     Err        Err        Err      Quality

2012/07/04 21:38:46.1     44.4740    6.9588      2.0      33    9 049  Ml 1.7  7  Md 1.8  4              bulletin    279195
                                                                                                         _ldg
      0.33   +-  0.06       1.3    1.0   60.47 +-  0.0    0.10   2.43   +-0.4      +-0.2                 m i ke

FRANCE
Sta     Dist  EvAz     Phase      Date       Time     TRes  Azim  AzRes  Slow  SRes Def   SNR       Amp   Per   Mag1   Mag2       ID
MBDF  000.29 332.2 m E Pg      2012/07/04 21:38:51.7  -0.1                          T                                        5019121
MBDF  000.29 332.2 m E Sg      2012/07/04 21:38:55.8   0.0                          T                6.1  .20        Md 1.6  5019120
SBF   000.70 150.5 m E Pg      2012/07/04 21:38:59.9   0.5                          T                                        5019112
SBF   000.70 150.5 m E Sg      2012/07/04 21:39:08.6   0.0                          T                3.5  .23        Md 1.8  5019111
ORIF  000.89 300.4 m E Pg      2012/07/04 21:39:03.0   0.1                          T                                        5019119
ORIF  000.89 300.4 m E Sg      2012/07/04 21:39:14.3  -0.1                          T                1.4  .25 Ml 1.5 Md 1.6  5019105
FRF   000.94 194.0 m E Pg      2012/07/04 21:39:03.5  -0.2                          T                                        5019115
FRF   000.94 194.0 m E Pn      2012/07/04 21:39:05.0   0.3                          T                                        5019114
FRF   000.94 194.0 m E Sg      2012/07/04 21:39:15.7  -0.2                          T                4.3  .18 Ml 2.2         5019109
LPG   001.03 351.9 m E Pg      2012/07/04 21:39:05.6  -0.2                          T                                        5019117
LPG   001.03 351.9 m E Sg      2012/07/04 21:39:19.2   0.0                          T                1.0  .23 Ml 1.5         5019107
LPL   001.05 351.3 m E Pg      2012/07/04 21:39:06.1   0.0                          T                                        5019118
LPL   001.05 351.3 m E Sg      2012/07/04 21:39:19.8   0.0                          T                 .6  .19 Ml 1.3         5019106
SMRF  001.11 243.9 m E Pn      2012/07/04 21:39:08.1   1.1                          T                                        5019116
SMRF  001.11 243.9 m E Sg      2012/07/04 21:39:22.0   0.6                          T                2.1  .34 Ml 1.6         5019108
LMR   001.19 196.1 m E Pn      2012/07/04 21:39:08.5   0.5                          T                                        5019113
LMR   001.19 196.1 m E Sg      2012/07/04 21:39:24.2   0.6                          T                3.6  .20 Ml 2.2         5019110
PGF   002.43 141.7 m E Pn      2012/07/04 21:39:25.5   0.4                          T                                        5019104

.
EVENT     279096
    Date      Time       Latitude Longitude    Depth    Ndef Nsta Gap    Mag1  N    Mag2  N    Mag3  N   Author         ID
       rms   OT_Error      Smajor Sminor Az        Err   mdist  Mdist     Err        Err        Err      Quality

2012/07/04 22:18:01.4     44.7253    6.6423      2.0      30    9 074  Ml 2.0  5  Md 1.9  3              bulletin    279196
                                                                                                         _ldg
      0.49   +-  0.09       1.9    1.6   63.46 +-  0.0    0.09   1.41   +-0.3      +-0.2                 m i ke

FRANCE
Sta     Dist  EvAz     Phase      Date       Time     TRes  Azim  AzRes  Slow  SRes Def   SNR       Amp   Per   Mag1   Mag2       ID
MBDF  000.09 089.0 m E Pg      2012/07/04 22:18:03.2  -0.5                          T                                        5019140
MBDF  000.09 089.0 m E Sg      2012/07/04 22:18:04.7  -0.4                          T               63.8  .18        Md 1.8  5019139
ORIF  000.58 289.8 m E Pg      2012/07/04 22:18:12.0  -0.5                          T                                        5019138
ORIF  000.58 289.8 m E Sg      2012/07/04 22:18:19.3  -0.7                          T               16.5  .22        Md 1.8  5019137
LPG   000.78 005.7 m E Pg      2012/07/04 22:18:16.6   0.2                          T                                        5019135
LPG   000.78 005.7 m E Sg      2012/07/04 22:18:26.6   0.1                          T                1.4  .20                5019129
LPL   000.79 004.6 m E Pg      2012/07/04 22:18:17.1   0.4                          T                                        5019136
LPL   000.79 004.6 m E Sg      2012/07/04 22:18:28.0   1.0                          T                9.4  .52                5019130
SBF   001.03 146.3 m E Pg      2012/07/04 22:18:20.9   0.0                          T                                        5019124
SBF   001.03 146.3 m E Sg      2012/07/04 22:18:34.3   0.0                          T                6.5  .30 Ml 2.2         5019123
SMRF  001.07 226.0 m E Pn      2012/07/04 22:18:22.2   0.4                          T                                        5019134
SMRF  001.07 226.0 m E Sn      2012/07/04 22:18:36.7   0.3                          T                1.2  .30 Ml 1.5         5019128
FRF   001.16 179.8 m E Pg      2012/07/04 22:18:23.8   0.6                          T                                        5019133
FRF   001.16 179.8 m E Sg      2012/07/04 22:18:39.6   1.3                          T                3.2  .18 Ml 2.2         5019127
VIVF  001.41 276.0 m E Pn      2012/07/04 22:18:26.8   0.4                          T                                        5019132
VIVF  001.41 276.0 m E Sn      2012/07/04 22:18:44.7   0.2                          T                2.2  .33 Ml 1.8         5019131
LMR   001.39 184.0 m E Pg      2012/07/04 22:18:27.5   0.1                          T                                        5019126
LMR   001.39 184.0 m E Sg      2012/07/04 22:18:46.0   0.6                          T                2.9  .20 Ml 2.2         5019125

.
EVENT     279097
    Date      Time       Latitude Longitude    Depth    Ndef Nsta Gap    Mag1  N    Mag2  N    Mag3  N   Author         ID
       rms   OT_Error      Smajor Sminor Az        Err   mdist  Mdist     Err        Err        Err      Quality

2012/07/05 02:46:06.5     44.7230    6.6008      2.0      18    7 080  Ml 1.4  2  Md 1.6  4              bulletin    279197
                                                                                                         _ldg
      0.27   +-  0.07       1.5    1.3   19.35 +-  0.0    0.08   1.38   +-0.2      +-0.0                 m i ke

FRANCE
Sta     Dist  EvAz     Phase      Date       Time     TRes  Azim  AzRes  Slow  SRes Def   SNR       Amp   Per   Mag1   Mag2       ID
MBDF  000.12 088.1 m E Pg      2012/07/05 02:46:09.3   0.0                          T                                        5019155
MBDF  000.12 088.1 m E Sg      2012/07/05 02:46:11.5   0.4                          T               16.7  .26        Md 1.6  5019154
ORIF  000.55 291.1 m E Pg      2012/07/05 02:46:17.2   0.1                          T                                        5019153
ORIF  000.55 291.1 m E Sg      2012/07/05 02:46:24.3   0.1                          T                1.3  .24        Md 1.6  5019150
LPG   000.78 007.8 m E Pg      2012/07/05 02:46:21.5   0.0                          T                                        5019152
LPG   000.78 007.8 m E Sg      2012/07/05 02:46:31.9   0.1                          T                 .7  .23        Md 1.7  5019147
LPL   000.80 006.7 m E Pg      2012/07/05 02:46:22.1   0.3                          T                                        5019151
LPL   000.80 006.7 m E Sg      2012/07/05 02:46:32.4   0.2                          T                 .5  .26        Md 1.7  5019146
SBF   001.05 144.8 m E Pg      2012/07/05 02:46:26.2   0.0                          T                                        5019143
SBF   001.05 144.8 m E Sg      2012/07/05 02:46:39.2  -0.6                          T                1.5  .29 Ml 1.6         5019142
SMRF  001.05 224.9 m E Pg      2012/07/05 02:46:26.3   0.1                          T                                        5019141
VIVF  001.38 276.2 m E Pn      2012/07/05 02:46:31.3   0.2                          T                                        5019145
VIVF  001.38 276.2 m E Sn      2012/07/05 02:46:48.8  -0.1                          T                 .4  .22 Ml 1.2         5019144

.
EVENT     279098
    Date      Time       Latitude Longitude    Depth    Ndef Nsta Gap    Mag1  N    Mag2  N    Mag3  N   Author         ID
       rms   OT_Error      Smajor Sminor Az        Err   mdist  Mdist     Err        Err        Err      Quality

2012/07/05 03:13:24.0     44.4620    7.2309     10.0      36    8 101  Ml 1.4  7  Md 1.7  1              bulletin    279198
                                                                                                         _ldg
      0.22   +-  0.04       1.0     .6   53.55 +-  0.0    0.04   1.29   +-0.3      +-                    m i ke

NORTHERN ITALY
Sta     Dist  EvAz     Phase      Date       Time     TRes  Azim  AzRes  Slow  SRes Def   SNR       Amp   Per   Mag1   Mag2       ID
MBDF  000.42 309.1 m E Pg      2012/07/05 03:13:32.5   0.0                          T                                        5019183
MBDF  000.42 309.1 m E Sg      2012/07/05 03:13:38.3   0.2                          T               16.8  .52        Md 1.7  5019182
SBF   000.62 166.1 m E Pg      2012/07/05 03:13:36.5   0.7                          T                                        5019180
SBF   000.62 166.1 m E Sg      2012/07/05 03:13:44.3   0.2                          T                3.6  .28                5019172
FRF   000.99 205.3 m E Pg      2012/07/05 03:13:42.8   0.1                          T                                        5019178
FRF   000.99 205.3 m E Sg      2012/07/05 03:13:55.9   0.2                          T                1.4  .22 Ml 1.6         5019174
ORIF  001.07 295.8 m E Pg      2012/07/05 03:13:44.2   0.0                          T                                        5019181
ORIF  001.07 295.8 m E Sg      2012/07/05 03:13:57.6  -0.4                          T                1.7  .40 Ml 1.5         5019176
LPL   001.11 341.6 m E Pn      2012/07/05 03:13:44.6   0.2                          T                                        5019177
LPL   001.11 341.6 m E Sg      2012/07/05 03:13:59.7   0.0                          T                 .6  .27 Ml 1.2         5019175
LPG   001.09 342.0 m E Pg      2012/07/05 03:13:44.9   0.1                          T                                        5019169
LPG   001.09 342.0 m E Sg      2012/07/05 03:13:58.6  -0.4                          T                 .3  .19 Ml 1.0         5019168
SMRF  001.29 248.4 m E Pn      2012/07/05 03:13:46.5   0.0                          T                                        5019171
SMRF  001.29 248.4 m E Sn      2012/07/05 03:14:02.8   0.1                          T                 .6  .21 Ml 1.4         5019170
LMR   001.24 205.1 m E Pg      2012/07/05 03:13:47.2  -0.1                          T                                        5019179
LMR   001.24 205.1 m E Sg      2012/07/05 03:14:03.5   0.1                          T                1.6  .22 Ml 1.8         5019173

.
EVENT     279148
    Date      Time       Latitude Longitude    Depth    Ndef Nsta Gap    Mag1  N    Mag2  N    Mag3  N   Author         ID
       rms   OT_Error      Smajor Sminor Az        Err   mdist  Mdist     Err        Err        Err      Quality

2012/07/05 10:10:57.2     43.2728    8.0623     25.0      12    5 173  Ml 2.0  4  Md 2.1  1              bulletin    279248
                                                                                                         _ldg
      1.06   +-  0.18       7.6    2.7   33.52 +-  0.0    0.75   1.94   +-0.5      +-                    m i ke

CORSICA, FRANCE
Sta     Dist  EvAz     Phase      Date       Time     TRes  Azim  AzRes  Slow  SRes Def   SNR       Amp   Per   Mag1   Mag2       ID
SBF   000.75 322.5 m E Pg      2012/07/05 10:11:12.3   0.3                          T                                        5019756
SBF   000.75 322.5 m E Sg      2012/07/05 10:11:21.7  -0.4                          T                6.3  .21        Md 2.1  5019755
PGF   001.00 136.1 m E Pn      2012/07/05 10:11:14.4   0.2                          T                                        5019754
PGF   001.00 136.1 m E Sn      2012/07/05 10:11:25.5  -0.9                          T                7.3  .17 Ml 2.7         5019753
FRF   001.07 286.1 m E Pg      2012/07/05 10:11:17.6  -0.1                          T                                        5019750
FRF   001.07 286.1 m E Sg      2012/07/05 10:11:31.6  -0.2                          T                2.7  .17 Ml 2.1         5019749
LMR   001.14 273.6 m E Pg      2012/07/05 10:11:18.7  -0.1                          T                                        5019752
LMR   001.14 273.6 m E Sg      2012/07/05 10:11:33.1  -0.7                          T                2.8  .27 Ml 1.9         5019751
SMRF  001.94 292.1 m E Pn      2012/07/05 10:11:27.1   0.3                          T                                        5019748
SMRF  001.94 292.1 m E Sn      2012/07/05 10:11:48.3  -0.5                          T                 .3  .17 Ml 1.4         5019747

.
EVENT     279163
    Date      Time       Latitude Longitude    Depth    Ndef Nsta Gap    Mag1  N    Mag2  N    Mag3  N   Author         ID
       rms   OT_Error      Smajor Sminor Az        Err   mdist  Mdist     Err        Err        Err      Quality

2012/07/05 15:38:35.3     43.5518    8.2413     25.0      21    7 173  Ml 2.0  6  Md 2.1  1              bulletin    279263
                                                                                                         _ldg
      0.64   +-  0.14       4.9    2.1   51.93 +-  0.0    0.44   2.18   +-0.2      +-                    m i ke

CORSICA, FRANCE
Sta     Dist  EvAz     Phase      Date       Time     TRes  Azim  AzRes  Slow  SRes Def   SNR       Amp   Per   Mag1   Mag2       ID
SBF   000.66 298.3 m E Pn      2012/07/05 15:38:47.8   0.2                          T                                        5020437
SBF   000.66 298.3 m E Sn      2012/07/05 15:38:55.6  -0.8                          T               23.8  .40        Md 2.1  5020436
PGF   001.15 150.8 m E Pn      2012/07/05 15:38:54.5   0.2                          T                                        5020439
PGF   001.15 150.8 m E Sn      2012/07/05 15:39:07.3  -0.7                          T                2.9  .26 Ml 2.2         5020438
FRF   001.16 271.0 m E Pn      2012/07/05 15:38:55.0   0.7                          T                                        5020433
FRF   001.16 271.0 m E Sn      2012/07/05 15:39:08.3   0.1                          T                3.4  .17 Ml 2.2         5020432
LMR   001.28 260.8 m E Pn      2012/07/05 15:38:56.3   0.3                          T                                        5020435
LMR   001.28 260.8 m E Sn      2012/07/05 15:39:10.8  -0.3                          T                2.1  .17 Ml 2.1         5020434
MBDF  001.58 318.5 m E Pn      2012/07/05 15:39:00.1  -0.1                          T                                        5020455
MBDF  001.58 318.5 m E Sg      2012/07/05 15:39:25.2  -0.7                          T                1.7  .32 Ml 1.8         5020454
SMRF  001.98 283.3 m E Pn      2012/07/05 15:39:05.6   0.0                          T                                        5020457
SMRF  001.98 283.3 m E Sn      2012/07/05 15:39:27.4  -0.4                          T                 .6  .25 Ml 1.6         5020456
ORIF  002.18 309.6 m E Pn      2012/07/05 15:39:08.1  -0.3                          T                                        5020453

.
