EVENT     300382
    Date      Time       Latitude Longitude    Depth    Ndef Nsta Gap    Mag1  N    Mag2  N    Mag3  N   Author         ID
       rms   OT_Error      Smajor Sminor Az        Err   mdist  Mdist     Err        Err        Err      Quality

2013/06/05 08:48:19.0     45.6037    3.1958       .0 f    21   10 102  Ml 2.0 11  Md 2.0  1              bulletin    300482
                                                                                                         _ldg
      0.39   +-  0.09       2.0    1.6   97.37 +-  0.0    0.59   1.73   +-0.3      +-                    m i km

FRANCE
Sta     Dist  EvAz     Phase      Date       Time     TRes  Azim  AzRes  Slow  SRes Def   SNR       Amp   Per   Mag1   Mag2       ID
TCF   000.97 315.2 m E Pg      2013/06/05 08:48:37.4  -0.1                          T                                        5304671
TCF   000.97 315.2 m E Sg      2013/06/05 08:48:50.7   0.4                          T                2.9  .25 Ml 1.9         5304682
BGF   000.98 345.8 m E Pg      2013/06/05 08:48:37.6  -0.1                          T                                        5304674
BGF   000.98 345.8 m E Sg      2013/06/05 08:48:50.0  -0.7                          T               30.7  .52 Ml 2.6         5304686
CAF   001.05 230.1 m E Pg      2013/06/05 08:48:39.4   0.4                          T                                        5304675
CAF   001.05 230.1 m E Sg      2013/06/05 08:48:52.9   0.2                          T                2.9  .23 Ml 1.9         5304688
SMF   001.13 023.1 m E Pg      2013/06/05 08:48:40.9   0.4                          T                                        5304673
SMF   001.13 023.1 m E Sg      2013/06/05 08:48:55.4   0.1                          T                3.5  .22 Ml 2.1         5304684
AVF   001.19 005.2 m E Pg      2013/06/05 08:48:41.4  -0.1                          T                                        5304672
AVF   001.19 005.2 m E Sg      2013/06/05 08:48:56.7  -0.4                          T                3.2  .45 Ml 1.8         5304683
RJF   001.22 256.4 m E Pn      2013/06/05 08:48:41.8   0.0                          T                                        5304693
RJF   001.22 256.4 m E Sg      2013/06/05 08:48:57.4  -0.6                          T                1.9  .28 Ml 1.4         5304687
VIVF  001.28 125.1 m E Pg      2013/06/05 08:48:43.0  -0.3                          T                                        5307796
VIVF  001.28 125.1 m E Sg      2013/06/05 08:49:00.0  -0.1                          T                3.2  .30 Ml 2.0         5304690
SSF   001.47 008.3 m E Pn      2013/06/05 08:48:45.6   0.3                          T                                        5304696
SSF   001.47 008.3 m E Sn      2013/06/05 08:49:03.8  -0.5                          T                5.1  .48 Ml 2.1         5304681
LOR   001.73 015.2 m E Pn      2013/06/05 08:48:49.2   0.5                          T                                        5304695
LOR   001.73 015.2 m E Sn      2013/06/05 08:49:09.8  -0.5                          T                1.8  .27 Ml 2.0         5304680
LASF  001.60 162.6 m E Sg      2013/06/05 08:49:08.9  -1.0                          T                1.3  .23 Ml 1.8         5304689

.
EVENT     300361
    Date      Time       Latitude Longitude    Depth    Ndef Nsta Gap    Mag1  N    Mag2  N    Mag3  N   Author         ID
       rms   OT_Error      Smajor Sminor Az        Err   mdist  Mdist     Err        Err        Err      Quality

2013/06/05 09:02:31.9     45.5415    2.8492     15.0      22   10 085  Ml 2.1 10  Md 1.9  4              bulletin    300461
                                                                                                         _ldg
      0.60   +-  0.08       1.8    1.2  115.62 +-  0.0    0.58   1.86   +-0.3      +-0.3                 m i ke

FRANCE
Sta     Dist  EvAz     Phase      Date       Time     TRes  Azim  AzRes  Slow  SRes Def   SNR       Amp   Per   Mag1   Mag2       ID
CAF   000.83 222.3 m E Pg      2013/06/05 09:02:47.3  -0.4                          T                                        5303966
CAF   000.83 222.3 m E Sg      2013/06/05 09:02:58.7   0.0                          T                9.0  .25        Md 2.4  5303987
TCF   000.87 329.4 m E P       2013/06/05 09:02:49.1  -0.2                          T                                        5303963
TCF   000.87 329.4 m E Sg      2013/06/05 09:02:59.7  -0.2                          T                4.3  .28 Ml 2.0 Md 1.8  5303961
RJF   000.97 256.3 m E Pg      2013/06/05 09:02:50.1  -0.1                          T                                        5307800
RJF   000.97 256.3 m E P       2013/06/05 09:02:51.2   0.2                          T                                        5303965
RJF   000.97 256.3 m E Sg      2013/06/05 09:03:03.1   0.2                          T                5.0  .22 Ml 1.8         5303990
BGF   001.02 359.9 m E Pg      2013/06/05 09:02:51.6   0.5                          T                                        5303964
BGF   001.02 359.9 m E Sg      2013/06/05 09:03:04.8   0.4                          T               12.5  .28 Ml 2.5 Md 1.8  5303991
SMF   001.30 031.7 m E Pg      2013/06/05 09:02:55.9  -0.5                          T                                        5307801
SMF   001.30 031.7 m E P       2013/06/05 09:02:56.8   0.9                          T                                        5303989
SMF   001.30 031.7 m E Sg      2013/06/05 09:03:13.0  -0.3                          T                2.7  .20 Ml 2.1         5303993
AVF   001.30 015.5 m E Pg      2013/06/05 09:02:56.4   0.2                          T                                        5303962
AVF   001.30 015.5 m E Sg      2013/06/05 09:03:12.7  -0.4                          T                3.7  .18 Ml 2.3         5303960
VIVF  001.46 117.3 m E Pg      2013/06/05 09:02:59.4   0.1                          T                                        5303985
VIVF  001.46 117.3 m E Sg      2013/06/05 09:03:18.2   0.0                          T                3.0  .22 Ml 2.2         5303986
SSF   001.59 016.4 m E Pg      2013/06/05 09:03:01.6   0.0                          T                                        5307802
SSF   001.59 016.4 m E Sg      2013/06/05 09:03:22.4   0.3                          T                5.1  .36 Ml 2.3         5303981
LOR   001.86 021.7 m E Pg      2013/06/05 09:03:06.7   0.0                          T                                        5303983
LOR   001.86 021.7 m E Sg      2013/06/05 09:03:30.5  -0.2                          T                1.6  .18 Ml 2.1         5303982
LASF  001.63 153.6 m E Sg      2013/06/05 09:03:24.0   0.5                          T                 .6  .22 Ml 1.5         5307799

.
EVENT     300378
    Date      Time       Latitude Longitude    Depth    Ndef Nsta Gap    Mag1  N    Mag2  N    Mag3  N   Author         ID
       rms   OT_Error      Smajor Sminor Az        Err   mdist  Mdist     Err        Err        Err      Quality

2013/06/05 18:45:46.8     47.9976   19.2893      2.0     132   26 030  Ml 3.8  8                         bulletin    300478
                                                                                                         _ldg
      1.50   +-  0.14       4.8    3.2   14.47 +-  0.0    0.41  14.59   +-0.2                            m i ke

HUNGARY
Sta     Dist  EvAz     Phase      Date       Time     TRes  Azim  AzRes  Slow  SRes Def   SNR       Amp   Per   Mag1   Mag2       ID
CDF   008.04 277.4 m E Pn      2013/06/05 18:47:42.7   0.5                          T                                        5304512
CDF   008.04 277.4 m E P       2013/06/05 18:47:47.0  -0.6                          T                                        5304439
CDF   008.04 277.4 m E S       2013/06/05 18:49:14.3  -5.9                          T                                        5304443
HINF  008.36 273.4 m E Pn      2013/06/05 18:47:46.7   0.2                          T                                        5304510
HINF  008.36 273.4 m E P       2013/06/05 18:47:52.0   0.0                          T                                        5304436
HAU   008.68 274.9 m E Pn      2013/06/05 18:47:51.3   0.4                          T                                        5304422
HAU   008.68 274.9 m E P       2013/06/05 18:47:56.3  -0.2                          T                                        5304559
CABF  009.08 266.1 m E Pn      2013/06/05 18:47:56.7   0.3                          T                                        5304509
CABF  009.08 266.1 m E P       2013/06/05 18:48:02.1   0.0                          T                                        5304437
CABF  009.08 266.1 m E Sn      2013/06/05 18:49:34.1   0.8                          T               11.5  .54 Ml 3.9         5304557
CABF  009.08 266.1 m E S       2013/06/05 18:49:40.2  -5.9                          T                                        5304421
LPG   008.97 258.4 m E Pn      2013/06/05 18:47:56.7   1.7                          T                                        5304499
LPG   008.97 258.4 m E P       2013/06/05 18:47:58.0  -2.7                          T                                        5304430
LPL   008.97 258.6 m E Pn      2013/06/05 18:47:57.3   2.3                          T                                        5304500
LPL   008.97 258.6 m E P       2013/06/05 18:48:01.0   0.3                          T                                        5304429
MBDF  009.25 253.9 m E Pn      2013/06/05 18:47:59.6   0.8                          T                                        5304502
MBDF  009.25 253.9 m E P       2013/06/05 18:48:04.6   0.1                          T                                        5304427
MBDF  009.25 253.9 m E Sn      2013/06/05 18:49:40.2   2.8                          T                5.7  .60 Ml 3.6         5304440
SBF   009.24 247.8 m E Pn      2013/06/05 18:47:59.8   1.3                          T                                        5304495
SBF   009.24 247.8 m E P       2013/06/05 18:48:05.8   1.6                          T                                        5304447
SBF   009.24 247.8 m E Sn      2013/06/05 18:49:39.4   2.5                          T               10.6  .68 Ml 3.8         5304442
SFTF  009.54 276.5 m E Pn      2013/06/05 18:48:03.0   0.5 103.2  17.3              T                                        5304511
SFTF  009.54 276.5 m E P       2013/06/05 18:48:09.2   0.9                          T                                        5304438
FRF   009.88 248.0 m E Pn      2013/06/05 18:48:07.6   0.4                          T                                        5304497
FRF   009.88 248.0 m E P       2013/06/05 18:48:11.9  -1.2                          T                                        5304425
ORIF  009.75 256.6 m E Pn      2013/06/05 18:48:07.9   2.4                          T                                        5304501
ORIF  009.75 256.6 m E P       2013/06/05 18:48:11.6   0.2                          T                                        5304428
ORIF  009.75 256.6 m E Sn      2013/06/05 18:49:50.6   1.3                          T               11.9  .63 Ml 4.0         5304424
LMR   010.09 247.2 m E Pn      2013/06/05 18:48:09.7  -0.2                          T                                        5304496
LMR   010.09 247.2 m E P       2013/06/05 18:48:15.7  -0.1                          T                                        5304446
BAIF  010.12 287.4 m E Pn      2013/06/05 18:48:11.3   0.9                          T                                        5304558
BAIF  010.12 287.4 m E P       2013/06/05 18:48:15.5  -0.8                          T                                        5304493
SMRF  010.36 252.2 m E Pn      2013/06/05 18:48:15.1   1.4                          T                                        5304498
SMRF  010.36 252.2 m E P       2013/06/05 18:48:21.1   1.6                          T                                        5304426
LOR   010.44 271.7 m E Pn      2013/06/05 18:48:15.6   0.7                          T                                        5304514
LOR   010.44 271.7 m E P       2013/06/05 18:48:20.1  -0.7                          T                                        5304434
LOR   010.44 271.7 m E Sn      2013/06/05 18:50:07.8   2.0                          T                3.7  .53 Ml 3.6         5304444
VIVF  010.57 258.1 m E Pn      2013/06/05 18:48:16.8   0.3                          T                                        5304503
VIVF  010.57 258.1 m E P       2013/06/05 18:48:20.5  -2.0                          T                                        5304423
VIVF  010.57 258.1 m E Sn      2013/06/05 18:50:08.9   0.1                          T                1.5  .32 Ml 3.5         5304418
SMF   010.58 268.4 m E Pn      2013/06/05 18:48:17.0   0.3                          T                                        5304505
SMF   010.58 268.4 m E P       2013/06/05 18:48:22.2  -0.4                          T                                        5304431
SSF   010.72 270.8 m E Pn      2013/06/05 18:48:19.9   1.4                          T                                        5304513
SSF   010.72 270.8 m E P       2013/06/05 18:48:25.2   0.7                          T                                        5304435
AVF   010.88 269.5 m E Pn      2013/06/05 18:48:20.7   0.0                          T                                        5304506
AVF   010.88 269.5 m E P       2013/06/05 18:48:27.3   0.7                          T                                        5304433
LASF  011.42 255.6 m E Pn      2013/06/05 18:48:29.2   1.0                          T                                        5304504
LASF  011.42 255.6 m E P       2013/06/05 18:48:32.9  -1.1                          T                                        5304413
LASF  011.42 255.6 m E Sn      2013/06/05 18:50:29.6   0.5                          T               17.5  .92 Ml 4.2         5304556
LASF  011.42 255.6 m E S       2013/06/05 18:50:43.0  -0.5                          T                                        5304412
TCF   011.76 268.0 m E Pn      2013/06/05 18:48:32.6  -0.1                          T                                        5304507
TCF   011.76 268.0 m E P       2013/06/05 18:48:37.7  -1.0                          T                                        5304432
CAF   012.27 261.9 m E Pn      2013/06/05 18:48:39.8   0.1                          T                                        5304562
CAF   012.27 261.9 m E P       2013/06/05 18:48:45.1  -0.5                          T                                        5304414
FLN   013.17 280.7 m E Pn      2013/06/05 18:48:51.7  -0.2                          T                                        5304560
FLN   013.17 280.7 m E P       2013/06/05 18:48:56.4  -1.1 105.2  19.3              T                                        5304561
MFF   013.27 271.2 m E Pn      2013/06/05 18:48:54.1   0.8                          T                                        5304508
MFF   013.27 271.2 m E P       2013/06/05 18:48:58.8  -0.1                          T                                        5304441
SGMF  014.59 279.1 m E P       2013/06/05 18:49:12.4  -3.9                          T                                        5304445
PGF   009.07 236.9 m E Sn      2013/06/05 18:49:35.3   2.2                          T               15.2 1.00 Ml 4.0         5304555

.
EVENT     300379
    Date      Time       Latitude Longitude    Depth    Ndef Nsta Gap    Mag1  N    Mag2  N    Mag3  N   Author         ID
       rms   OT_Error      Smajor Sminor Az        Err   mdist  Mdist     Err        Err        Err      Quality

2013/06/06 03:57:02.3     43.2132    -.6675      2.0      21    7 119  Ml 1.9  4  Md 2.3  3              bulletin    300479
                                                                                                         _ldg
      0.45   +-  0.10       2.1    1.6  162.34 +-  0.0    0.13   2.71   +-0.1      +-0.1                 m i ke

PYRENEES
Sta     Dist  EvAz     Phase      Date       Time     TRes  Azim  AzRes  Slow  SRes Def   SNR       Amp   Per   Mag1   Mag2       ID
ETSF  000.32 165.8 m E Pg      2013/06/06 03:57:07.8  -0.9                          T                                        5304568
ETSF  000.32 165.8 m E Sg      2013/06/06 03:57:10.8  -2.3                          T               61.0  .30        Md 2.4  5304567
SJPF  000.42 256.4 m E Pg      2013/06/06 03:57:10.3  -0.1                          T                                        5304565
SJPF  000.42 256.4 m E Sg      2013/06/06 03:57:15.7  -0.3                          T               26.8  .24        Md 2.2  5304566
EPF   000.76 103.6 m E Pg      2013/06/06 03:57:16.8   0.1                          T                                        5304564
EPF   000.76 103.6 m E Sg      2013/06/06 03:57:27.0   0.4                          T                5.5  .20        Md 2.3  5304563
LFF   002.00 030.0 m E Pn      2013/06/06 03:57:35.5   0.1                          T                                        5304570
LFF   002.00 030.0 m E Sg      2013/06/06 03:58:05.5   0.2                          T                2.9  .34 Ml 2.0         5307818
CAF   002.61 048.1 m E Pn      2013/06/06 03:57:43.2  -0.4                          T                                        5304571
CAF   002.61 048.1 m E Sg      2013/06/06 03:58:24.2  -0.1                          T                1.1  .25 Ml 2.0         5307817
RJF   002.61 036.1 m E Pn      2013/06/06 03:57:44.2   0.5                          T                                        5304569
RJF   002.61 036.1 m E Sg      2013/06/06 03:58:25.0   0.6                          T                1.5  .30 Ml 1.7         5307819
MTLF  002.11 085.5 m E Sg      2013/06/06 03:58:08.6  -0.1                          T                1.1  .24 Ml 1.9         5307816

.
