EVENT     265299
    Date      Time       Latitude Longitude    Depth    Ndef Nsta Gap    Mag1  N    Mag2  N    Mag3  N   Author         ID
       rms   OT_Error      Smajor Sminor Az        Err   mdist  Mdist     Err        Err        Err      Quality

2011/10/20 06:14:08.2     44.3902    9.3863     10.0      34   11 121  Ml 3.2 12                         js067245    265319

      0.76   +-  0.19       4.5    2.7   37.15 +-  0.0    0.12   5.52   +-0.2                            m i ke

NORTHERN ITALY
Sta     Dist  EvAz     Phase      Date       Time     TRes  Azim  AzRes  Slow  SRes Def   SNR       Amp   Per   Mag1   Mag2       ID
SBF   001.50 250.1 m E Pn      2011/10/20 06:14:33.4  -0.2                          T                                        4773672
SBF   001.50 250.1 m E P       2011/10/20 06:14:35.4  -0.2                          T                                        4773660
SBF   001.50 250.1 m E Sn      2011/10/20 06:14:52.5   0.4                          T               66.3  .26 Ml 3.4         4773670
SBF   001.50 250.1 m E Sg      2011/10/20 06:14:56.4   0.7                          T                                        4773661
PGF   001.86 188.8 m E Pn      2011/10/20 06:14:38.5  -0.1                          T                                        4773659
PGF   001.86 188.8 m E Sn      2011/10/20 06:15:01.9   1.1                          T               13.5  .31 Ml 3.0         4773671
FRF   002.14 248.2 m E Pn      2011/10/20 06:14:42.4   0.1                          T                                        4773675
FRF   002.14 248.2 m E Sn      2011/10/20 06:15:08.0   0.6                          T               13.9  .20 Ml 3.1         4773668
LMR   002.33 244.1 m E Pn      2011/10/20 06:14:44.9   0.1                          T                                        4773674
LMR   002.33 244.1 m E P       2011/10/20 06:14:47.3  -0.1                          T                                        4773658
LMR   002.33 244.1 m E Pg      2011/10/20 06:14:51.4  -0.1                          T                                        4773669
LMR   002.33 244.1 m E Sn      2011/10/20 06:15:12.8   0.9                          T               19.7  .32 Ml 3.1         4773673
HAU   004.19 330.8 m E Pn      2011/10/20 06:15:09.5  -0.7                          T                                        4773676
HAU   004.19 330.8 m E Sn      2011/10/20 06:15:57.9   1.7                          T               24.7  .38 Ml 3.3         4773677
SMF   004.50 302.0 m E Pn      2011/10/20 06:15:15.2   0.8                          T                                        4773663
SMF   004.50 302.0 m E Sn      2011/10/20 06:16:05.5   1.8                          T               15.5  .44 Ml 3.3         4773664
LOR   004.82 308.6 m E Pn      2011/10/20 06:15:19.8   1.0                          T                                        4773666
LOR   004.82 308.6 m E Sn      2011/10/20 06:16:14.3   3.0                          T               19.8  .48 Ml 3.5         4773667
HINF  003.85 333.7 m E Sn      2011/10/20 06:15:47.6  -0.7                          T               37.7  .82 Ml 3.3         4773665
SSF   004.91 305.0 m E Sn      2011/10/20 06:16:15.2   1.8                          T                6.9  .42 Ml 3.2         4773657
TCF   005.40 293.1 m E Sn      2011/10/20 06:16:24.6  -0.7                          T                                        4773656
HYF   005.52 303.8 m E Sn      2011/10/20 06:16:26.7  -1.4                          T                                        4773662

.
EVENT     265301
    Date      Time       Latitude Longitude    Depth    Ndef Nsta Gap    Mag1  N    Mag2  N    Mag3  N   Author         ID
       rms   OT_Error      Smajor Sminor Az        Err   mdist  Mdist     Err        Err        Err      Quality

2011/10/20 06:16:46.2     44.4162    9.4598     10.0 f    86   29 053  Ml 3.8 24                         js067245    265321

      0.96   +-  0.11       2.9    2.2   27.00 +-  0.0    0.11   8.16   +-0.3                            m i ke

NORTHERN ITALY
Sta     Dist  EvAz     Phase      Date       Time     TRes  Azim  AzRes  Slow  SRes Def   SNR       Amp   Per   Mag1   Mag2       ID
SBF   001.56 249.9 m E Pn      2011/10/20 06:17:11.8  -0.6                          T                                        4773682
SBF   001.56 249.9 m E Sn      2011/10/20 06:17:31.3  -0.2                          T              689.6  .50 Ml 4.2         4773683
SBF   001.56 249.9 m E Sg      2011/10/20 06:17:35.0  -0.5                          T                                        4774575
PGF   001.90 190.3 m E Pn      2011/10/20 06:17:17.1   0.0                          T                                        4773685
PGF   001.90 190.3 m E Sn      2011/10/20 06:17:38.8  -0.8                          T               83.2  .30 Ml 3.9         4773684
MBDF  001.95 280.1 m E Pn      2011/10/20 06:17:18.5   0.7                          T                                        4773710
MBDF  001.95 280.1 m E Sn      2011/10/20 06:17:39.8  -1.0                          T              429.3  .66 Ml 4.0         4774577
FRF   002.20 248.1 m E Pn      2011/10/20 06:17:20.5  -0.6                          T                                        4773711
FRF   002.20 248.1 m E Sn      2011/10/20 06:17:46.9   0.1                          T              181.9  .36 Ml 4.0         4773680
FRF   002.20 248.1 m E Sg      2011/10/20 06:17:54.6  -0.9                          T                                        4774570
LPG   002.21 300.3 m E Pn      2011/10/20 06:17:21.6   0.1                          T                                        4773713
LPG   002.21 300.3 m E Sn      2011/10/20 06:17:47.5   0.3                          T              279.3  .62 Ml 3.9         4774572
LPG   002.21 300.3 m E S       2011/10/20 06:17:51.4  -0.3                          T                                        4774573
LPG   002.21 300.3 m E Sg      2011/10/20 06:17:54.3  -1.6                          T                                        4774571
LMR   002.39 244.1 m E Pn      2011/10/20 06:17:23.0  -0.6                          T                                        4773681
LMR   002.39 244.1 m E Sn      2011/10/20 06:17:50.9  -0.3                          T              110.2  .31 Ml 3.9         4773679
LMR   002.39 244.1 m E Sg      2011/10/20 06:18:00.4  -1.0                          T                                        4774576
ORIF  002.60 282.4 m E Pn      2011/10/20 06:17:28.6   1.9                          T                                        4773689
SMRF  002.83 262.4 m E Pn      2011/10/20 06:17:30.4   0.8                          T                                        4773712
CABF  003.23 314.0 m E Pn      2011/10/20 06:17:36.1   0.9                          T                                        4773703
CABF  003.23 314.0 m E Sn      2011/10/20 06:18:13.1   1.7                          T               43.6  .42 Ml 3.5         4773698
VIVF  003.45 279.0 m E Pn      2011/10/20 06:17:38.6   0.6                          T                                        4773709
VIVF  003.45 279.0 m E P       2011/10/20 06:17:40.6  -0.7                          T                                        4773708
VIVF  003.45 279.0 m E Sn      2011/10/20 06:18:18.4   1.9                          T               79.4  .80 Ml 3.5         4773690
HINF  003.85 332.9 m E Pn      2011/10/20 06:17:43.1  -0.5                          T                                        4773704
HINF  003.85 332.9 m E Sn      2011/10/20 06:18:26.4   0.1                          T               40.7  .36 Ml 3.7         4773701
LASF  004.04 267.1 m E Pn      2011/10/20 06:17:45.7  -0.4                          T                                        4773707
LASF  004.04 267.1 m E P       2011/10/20 06:17:49.2  -0.6                          T                                        4774578
LPL   002.23 300.6 m E Sn      2011/10/20 06:17:47.2  -0.4                          T              171.3  .40 Ml 3.9         4774574
HAU   004.19 330.1 m E Pn      2011/10/20 06:17:47.9  -0.3                          T                                        4773722
HAU   004.19 330.1 m E P       2011/10/20 06:17:51.1  -0.8                          T                                        4774583
HAU   004.19 330.1 m E Sn      2011/10/20 06:18:36.1   1.8                          T              149.1  .36 Ml 4.1         4773702
CDF   004.27 340.1 m E Pn      2011/10/20 06:17:48.5  -0.9                          T                                        4773721
CDF   004.27 340.1 m E Sn      2011/10/20 06:18:35.7  -0.7                          T               32.8  .52 Ml 3.6         4774582
SMF   004.53 301.4 m E Pn      2011/10/20 06:17:53.9   1.0                          T                                        4773715
SMF   004.53 301.4 m E Sn      2011/10/20 06:18:42.8   0.3                          T               48.6  .34 Ml 3.9         4773700
SFTF  004.87 322.6 m E Pn      2011/10/20 06:17:57.4   0.0 136.5  -2.9              T                                        4773716
LOR   004.84 308.1 m E Pn      2011/10/20 06:17:57.6   0.6 129.9  5.8               T                                        4773720
LOR   004.84 308.1 m E Sn      2011/10/20 06:18:49.3  -0.6                          T               56.1  .32 Ml 4.1         4773688
PAGF  004.88 329.4 m E Pn      2011/10/20 06:17:57.8   0.2 153.6  7.0               T                                        4773717
PAGF  004.88 329.4 m E Sn      2011/10/20 06:18:49.8  -0.9                          T               16.7  .70 Ml 3.2         4774581
AVF   004.90 301.1 m E Pn      2011/10/20 06:17:58.4   0.6                          T                                        4773714
AVF   004.90 301.1 m E Sn      2011/10/20 06:18:50.8  -0.4                          T               13.0  .31 Ml 3.5         4773699
SSF   004.94 304.5 m E Pn      2011/10/20 06:17:59.0   0.7                          T                                        4773719
SSF   004.94 304.5 m E Sn      2011/10/20 06:18:51.9  -0.2                          T               20.3  .43 Ml 3.6         4773687
BGF   005.12 297.0 m E Pn      2011/10/20 06:18:02.1   1.2                          T                                        4773694
BGF   005.12 297.0 m E Sn      2011/10/20 06:18:55.6  -0.8                          T               42.3  .30 Ml 4.0         4773697
CAF   005.30 278.1 m E Pn      2011/10/20 06:18:03.7   0.4                          T                                        4773705
CAF   005.30 278.1 m E P       2011/10/20 06:18:06.5  -1.1                          T                                        4774579
MTLF  005.34 260.9 m E Pn      2011/10/20 06:18:04.0   0.2                          T                                        4773706
MTLF  005.34 260.9 m E Sn      2011/10/20 06:19:02.2   0.3                          T                8.1  .39 Ml 3.3         4773678
TCF   005.44 292.7 m E Pn      2011/10/20 06:18:06.5   1.2                          T                                        4773718
TCF   005.44 292.7 m E Sn      2011/10/20 06:19:04.0  -0.2                          T               20.1  .33 Ml 3.8         4773686
HYF   005.55 303.3 m E Pn      2011/10/20 06:18:07.9   1.2                          T                                        4773695
HYF   005.55 303.3 m E Sn      2011/10/20 06:19:06.9   0.1                          T                                        4773696
LFF   006.24 277.9 m E Pn      2011/10/20 06:18:14.2  -1.8                          T                                        4774580
MFF   007.09 291.3 m E Pn      2011/10/20 06:18:29.4   1.7                          T                                        4773692
GRR   008.16 302.8 m E Pn      2011/10/20 06:18:42.9   0.7                          T                                        4773691

.
EVENT     265302
    Date      Time       Latitude Longitude    Depth    Ndef Nsta Gap    Mag1  N    Mag2  N    Mag3  N   Author         ID
       rms   OT_Error      Smajor Sminor Az        Err   mdist  Mdist     Err        Err        Err      Quality

2011/10/20 06:18:24.8     44.3875    9.5461      2.0      48   15 275  Ml 3.6  5                         js067245    265322

      0.44   +-  0.55      12.3    5.7   98.01 +-  0.0    1.61   5.62   +-0.1                            m i ke

NORTHERN ITALY
Sta     Dist  EvAz     Phase      Date       Time     TRes  Azim  AzRes  Slow  SRes Def   SNR       Amp   Per   Mag1   Mag2       ID
SBF   001.61 251.7 m E Pn      2011/10/20 06:18:52.0  -0.6                          T                                        4773736
MBDF  002.01 280.7 m E Pn      2011/10/20 06:18:59.4   1.2                          T                                        4773731
FRF   002.25 249.5 m E Pn      2011/10/20 06:19:00.5  -0.8                          T                                        4773735
LPG   002.27 300.2 m E Pn      2011/10/20 06:19:01.8  -0.2                          T                                        4773734
LPL   002.29 300.5 m E Pn      2011/10/20 06:19:01.8  -0.3                          T                                        4773733
LMR   002.44 245.4 m E Pn      2011/10/20 06:19:04.2   0.4                          T                                        4773738
LMR   002.44 245.4 m E Sn      2011/10/20 06:19:32.0  -0.3                          T               49.3  .36 Ml 3.5         4773737
ORIF  002.67 282.7 m E Pn      2011/10/20 06:19:08.5   1.4                          T                                        4773732
VIVF  003.51 279.4 m E Pn      2011/10/20 06:19:20.4   1.9                          T                                        4773730
HAU   004.25 329.6 m E Pn      2011/10/20 06:19:28.1  -0.4                          T                                        4773740
HAU   004.25 329.6 m E Sn      2011/10/20 06:20:15.7   0.0                          T               68.5  .36 Ml 3.8         4773726
SMF   004.60 301.4 m E Pn      2011/10/20 06:19:33.4   0.1                          T                                        4773742
SMF   004.60 301.4 m E Sn      2011/10/20 06:20:23.0  -1.2                          T               19.7  .32 Ml 3.6         4773725
LOR   004.91 307.9 m E Pn      2011/10/20 06:19:37.4  -0.1                          T                                        4773728
LOR   004.91 307.9 m E Sn      2011/10/20 06:20:31.9   0.4                          T               31.6  .42 Ml 3.7         4773723
SSF   005.00 304.4 m E Pn      2011/10/20 06:19:38.3  -0.4                          T                                        4773729
AVF   004.97 301.1 m E Pn      2011/10/20 06:19:38.5   0.3                          T                                        4773741
BGF   005.19 297.1 m E Pn      2011/10/20 06:19:41.8   0.5                          T                                        4773739
BGF   005.19 297.1 m E Sn      2011/10/20 06:20:38.6   0.4                          T               23.6  .38 Ml 3.7         4773724
HYF   005.62 303.3 m E Pn      2011/10/20 06:19:47.9   0.7                          T                                        4773727

.
EVENT     265305
    Date      Time       Latitude Longitude    Depth    Ndef Nsta Gap    Mag1  N    Mag2  N    Mag3  N   Author         ID
       rms   OT_Error      Smajor Sminor Az        Err   mdist  Mdist     Err        Err        Err      Quality

2011/10/20 06:28:49.9     44.4107    9.4686      2.0      41   16 121  Ml 2.9  8                         js067245    265325

      0.91   +-  0.23       6.1    3.9   48.45 +-  0.0    0.45   5.13   +-0.3                            m i ke

NORTHERN ITALY
Sta     Dist  EvAz     Phase      Date       Time     TRes  Azim  AzRes  Slow  SRes Def   SNR       Amp   Per   Mag1   Mag2       ID
SBF   001.56 250.2 m E Pn      2011/10/20 06:29:16.1  -0.9                          T                                        4773744
SBF   001.56 250.2 m E Sn      2011/10/20 06:29:35.7  -1.0                          T               72.7  .38 Ml 3.3         4773751
MBDF  001.95 280.3 m E Pn      2011/10/20 06:29:21.6  -0.8                          T                                        4773743
PGF   001.89 190.6 m E Pn      2011/10/20 06:29:21.7   0.1                          T                                        4773763
PGF   001.89 190.6 m E Sn      2011/10/20 06:29:44.5  -0.1                          T                6.9  .25 Ml 2.9         4773762
FRF   002.21 248.3 m E Pn      2011/10/20 06:29:24.3  -1.4                          T                                        4773756
FRF   002.21 248.3 m E Sn      2011/10/20 06:29:50.9  -1.1                          T               16.2  .34 Ml 3.0         4773765
LPL   002.23 300.6 m E Pn      2011/10/20 06:29:26.5   0.1                          T                                        4773778
LPG   002.21 300.3 m E Pn      2011/10/20 06:29:26.8   0.7                          T                                        4773752
LPG   002.21 300.3 m E P       2011/10/20 06:29:28.8   0.3                          T                                        4773753
LMR   002.40 244.3 m E Pn      2011/10/20 06:29:27.3  -0.9                          T                                        4773776
LMR   002.40 244.3 m E Sn      2011/10/20 06:29:56.2  -0.2                          T               10.2  .27 Ml 2.9         4773764
ORIF  002.61 282.5 m E Pn      2011/10/20 06:29:32.7   1.3                          T                                        4773777
ORIF  002.61 282.5 m E Sn      2011/10/20 06:30:03.4   1.6                          T               15.3  .49 Ml 2.8         4773757
SMRF  002.83 262.5 m E Pn      2011/10/20 06:29:34.4   0.1                          T                                        4773775
SMRF  002.83 262.5 m E Sn      2011/10/20 06:30:06.0  -1.0                          T                                        4773750
VIVF  003.45 279.1 m E Pn      2011/10/20 06:29:43.4   0.7                          T                                        4773760
VIVF  003.45 279.1 m E Sn      2011/10/20 06:30:21.7   0.0                          T                                        4773761
HAU   004.20 330.0 m E Pn      2011/10/20 06:29:52.5  -0.4                          T                                        4773759
HAU   004.20 330.0 m E Sn      2011/10/20 06:30:40.2   0.6                          T                                        4773754
CDF   004.28 340.0 m E Pn      2011/10/20 06:29:53.0  -1.1                          T                                        4773755
SMF   004.54 301.4 m E Pn      2011/10/20 06:29:57.7   0.2                          T                                        4773774
SMF   004.54 301.4 m E Sn      2011/10/20 06:30:45.2  -2.6                          T               13.4  .70 Ml 3.1         4773771
AVF   004.91 301.2 m E Pn      2011/10/20 06:30:02.8   0.4                          T                                        4773772
BGF   005.13 297.1 m E Pn      2011/10/20 06:30:06.1   0.7                          T                                        4773773
LOR   004.85 308.1 m E Sn      2011/10/20 06:30:55.3   0.1                          T                                        4773758

.
