EVENT     274598
    Date      Time       Latitude Longitude    Depth    Ndef Nsta Gap    Mag1  N    Mag2  N    Mag3  N   Author         ID
       rms   OT_Error      Smajor Sminor Az        Err   mdist  Mdist     Err        Err        Err      Quality

2012/04/26 14:23:41.6     47.5502    6.6425       .0 f     8    5 174  Ml 2.3  2  Md 2.2  1              bulletin    274698
                                                                                                         _ldg
      0.39   +-  0.18       6.8    2.9  109.78 +-  0.0    0.30   1.01   +-0.2      +-                    m i km

FRANCE
Sta     Dist  EvAz     Phase      Date       Time     TRes  Azim  AzRes  Slow  SRes Def   SNR       Amp   Per   Mag1   Mag2       ID
HINF  000.30 028.0 m E Pg      2012/04/26 14:23:47.5  -0.3                          T                                        4924442
HINF  000.30 028.0 m E Sg      2012/04/26 14:23:52.0   0.0                          T               18.3  .32        Md 2.2  4924441
HAU   000.50 336.6 m E Pg      2012/04/26 14:23:51.0  -0.4                          T                                        4924439
CDF   000.96 026.0 m E Pg      2012/04/26 14:24:00.3   0.2                          T                                        4924434
CDF   000.96 026.0 m E Sg      2012/04/26 14:24:13.1   0.4                          T               23.0  .64 Ml 2.5         4924435
CABF  001.01 202.2 m E Pg      2012/04/26 14:24:01.2   0.3                          T                                        4924433
CABF  001.01 202.2 m E Sg      2012/04/26 14:24:13.7  -0.6                          T                8.4  .38 Ml 2.2         4924440
THEF  000.81 327.5 m E Sg      2012/04/26 14:24:08.5   0.8                          T                6.4  .27                4934795

.
EVENT     274599
    Date      Time       Latitude Longitude    Depth    Ndef Nsta Gap    Mag1  N    Mag2  N    Mag3  N   Author         ID
       rms   OT_Error      Smajor Sminor Az        Err   mdist  Mdist     Err        Err        Err      Quality

2012/04/26 16:17:46.2     42.2339    2.0105       .0 f    23    9 254  Ml 2.8 11  Md 2.5  2              bulletin    274699
                                                                                                         _ldg
      0.47   +-  0.18       3.5    1.6  158.37 +-  0.0    1.12   3.26   +-0.4      +-0.1                 m i km

PYRENEES
Sta     Dist  EvAz     Phase      Date       Time     TRes  Azim  AzRes  Slow  SRes Def   SNR       Amp   Per   Mag1   Mag2       ID
MTLF  001.12 007.8 m E Pn      2012/04/26 16:18:08.0   0.3                          T                                        4924416
MTLF  001.12 007.8 m E Sn      2012/04/26 16:18:22.9  -0.1                          T               29.2  .34 Ml 2.8 Md 2.5  4924415
EPF   001.47 303.4 m E Pn      2012/04/26 16:18:11.7  -0.8                          T                                        4924414
EPF   001.47 303.4 m E Pg      2012/04/26 16:18:13.9   0.0                          T                                        4937359
EPF   001.47 303.4 m E Sn      2012/04/26 16:18:31.3  -0.1                          T               58.6  .34 Ml 3.3 Md 2.4  4924413
ETSF  002.01 290.1 m E Pn      2012/04/26 16:18:19.8  -0.1                          T                                        4924411
ETSF  002.01 290.1 m E Sn      2012/04/26 16:18:44.7   0.2                          T               40.4  .40 Ml 3.2         4924412
LASF  002.28 035.6 m E Pn      2012/04/26 16:18:23.4  -0.1                          T                                        4924403
LASF  002.28 035.6 m E Sn      2012/04/26 16:18:51.1   0.2                          T                2.5  .21 Ml 2.3         4924402
SJPF  002.54 291.3 m E P       2012/04/26 16:18:29.4  -0.1                          T                                        4937358
SJPF  002.54 291.3 m E Pg      2012/04/26 16:18:33.6  -0.1                          T                                        4937357
SJPF  002.54 291.3 m E Sn      2012/04/26 16:18:57.2   0.1                          T               21.5  .46 Ml 3.0         4924404
SJPF  002.54 291.3 m E Sg      2012/04/26 16:19:07.1   0.5                          T               11.2  .32 Ml 2.9         4937360
CAF   002.69 000.8 m E Pn      2012/04/26 16:18:29.4   0.3                          T                                        4924409
CAF   002.69 000.8 m E Pg      2012/04/26 16:18:36.4   0.0                          T                                        4937356
CAF   002.69 000.8 m E Sg      2012/04/26 16:19:11.4   0.2                          T               19.6  .34 Ml 3.1         4924410
LFF   002.86 341.6 m E Pn      2012/04/26 16:18:31.5   0.2                          T                                        4924408
LFF   002.86 341.6 m E Sg      2012/04/26 16:19:15.6  -0.8                          T               15.2  .40 Ml 2.8         4924407
VIVF  003.26 035.5 m E Pg      2012/04/26 16:18:47.0   0.1                          T                                        4937361
VIVF  003.26 035.5 m E Sg      2012/04/26 16:19:28.9   0.0                          T                 .8  .22 Ml 2.1         4937362
RJF   003.09 353.5 m E Sg      2012/04/26 16:19:23.6  -0.1                          T                8.8  .27 Ml 2.6         4937363

.
EVENT     274608
    Date      Time       Latitude Longitude    Depth    Ndef Nsta Gap    Mag1  N    Mag2  N    Mag3  N   Author         ID
       rms   OT_Error      Smajor Sminor Az        Err   mdist  Mdist     Err        Err        Err      Quality

2012/04/26 21:31:17.1     44.7311    7.5527     25.0      19    6 234  Ml 1.3  5  Md 1.3  1              bulletin    274708
                                                                                                         _ldg
      0.18   +-  0.12       2.6    1.0   79.38 +-  0.0    0.23   1.61   +-0.2      +-                    m i ke

NORTHERN ITALY
Sta     Dist  EvAz     Phase      Date       Time     TRes  Azim  AzRes  Slow  SRes Def   SNR       Amp   Per   Mag1   Mag2       ID
MBDF  000.56 269.8 m E Pg      2012/04/26 21:31:28.5  -0.1                          T                                        4924795
MBDF  000.56 269.8 m E Sg      2012/04/26 21:31:36.7   0.3                          T                2.2  .18        Md 1.3  4924794
LPL   000.98 323.8 m E Pg      2012/04/26 21:31:36.1  -0.1                          T                                        4924822
LPL   000.98 323.8 m E Sg      2012/04/26 21:31:48.7  -0.4                          T                 .6  .22 Ml 1.2         4924823
ORIF  001.20 279.5 m E Pn      2012/04/26 21:31:36.8   0.0                          T                                        4924792
ORIF  001.20 279.5 m E Sn      2012/04/26 21:31:51.2   0.0                          T                 .8  .23 Ml 1.5         4924791
FRF   001.34 209.4 m E Pn      2012/04/26 21:31:38.7   0.2                          T                                        4924789
FRF   001.34 209.4 m E Sn      2012/04/26 21:31:54.7   0.4                          T                                        4924790
FRF   001.34 209.4 m E Sg      2012/04/26 21:31:59.6  -0.4                          T                 .2  .15 Ml 1.2         4924793
LMR   001.59 208.7 m E Pn      2012/04/26 21:31:42.0   0.1                          T                                        4924788
LMR   001.59 208.7 m E Sn      2012/04/26 21:32:00.0  -0.2                          T                                        4924787
LMR   001.59 208.7 m E Sg      2012/04/26 21:32:07.4  -0.2                          T                 .8  .25 Ml 1.6         4924821
SMRF  001.61 242.7 m E Pn      2012/04/26 21:31:42.3   0.0                          T                                        4924785
SMRF  001.61 242.7 m E Sn      2012/04/26 21:32:00.7  -0.1                          T                 .2  .23 Ml 1.1         4924786

.
EVENT     274600
    Date      Time       Latitude Longitude    Depth    Ndef Nsta Gap    Mag1  N    Mag2  N    Mag3  N   Author         ID
       rms   OT_Error      Smajor Sminor Az        Err   mdist  Mdist     Err        Err        Err      Quality

2012/04/26 23:17:05.6     42.9896    -.3060      2.0 f    23    5 112  Ml 1.8  2  Md 1.8  3              bulletin    274700
                                                                                                         _ldg
      0.56   +-  0.12       3.0    1.5   14.83 +-  0.0    0.21   2.58   +-0.1      +-0.2                 m i ke

PYRENEES
Sta     Dist  EvAz     Phase      Date       Time     TRes  Azim  AzRes  Slow  SRes Def   SNR       Amp   Per   Mag1   Mag2       ID
ETSF  000.21 244.0 m E Pg      2012/04/26 23:17:09.3  -0.5                          T                                        4924450
ETSF  000.21 244.0 m E Sg      2012/04/26 23:17:12.2  -0.5                          T               54.3  .29        Md 2.0  4924447
EPF   000.48 084.9 m E Pg      2012/04/26 23:17:14.1  -0.6                          T                                        4924449
EPF   000.48 084.9 m E Sg      2012/04/26 23:17:20.9  -0.1                          T                6.9  .22        Md 2.0  4924446
SJPF  000.68 280.7 m E Pg      2012/04/26 23:17:19.1   0.6                          T                                        4924448
SJPF  000.68 280.7 m E Sg      2012/04/26 23:17:27.8   0.4                          T                3.2  .22        Md 1.6  4924445
MTLF  001.88 078.4 m E Sg      2012/04/26 23:18:04.8   0.0                          T                 .9  .25 Ml 1.7         4937367
CAF   002.58 040.7 m E Sg      2012/04/26 23:18:26.7   0.0                          T                 .9  .24 Ml 1.9         4937366

.
EVENT     274609
    Date      Time       Latitude Longitude    Depth    Ndef Nsta Gap    Mag1  N    Mag2  N    Mag3  N   Author         ID
       rms   OT_Error      Smajor Sminor Az        Err   mdist  Mdist     Err        Err        Err      Quality

2012/04/26 23:34:07.6     44.1494    6.6961      2.0      21    7 067  Ml 1.4  2  Md 1.4  1              bulletin    274709
                                                                                                         _ldg
      0.28   +-  0.06       1.6    1.1   97.09 +-  0.0    0.26   1.37   +-0.1      +-                    m i ke

FRANCE
Sta     Dist  EvAz     Phase      Date       Time     TRes  Azim  AzRes  Slow  SRes Def   SNR       Amp   Per   Mag1   Mag2       ID
MBDF  000.58 005.3 m E Pg      2012/04/26 23:34:18.6  -0.2                          T                                        4924723
MBDF  000.58 005.3 m E Sg      2012/04/26 23:34:25.9  -0.5                          T                3.0  .34        Md 1.4  4924722
FRF   000.59 183.5 m E Pg      2012/04/26 23:34:18.8  -0.1                          T                                        4924720
FRF   000.59 183.5 m E Sg      2012/04/26 23:34:26.8   0.2                          T                4.9  .29                4924721
SBF   000.61 118.0 m E Pg      2012/04/26 23:34:19.0  -0.2                          T                                        4924724
SBF   000.61 118.0 m E Sg      2012/04/26 23:34:27.0  -0.1                          T                4.2  .32                4924725
LMR   000.83 189.5 m E Pg      2012/04/26 23:34:22.7  -0.5                          T                                        4924719
LMR   000.83 189.5 m E Sg      2012/04/26 23:34:34.3   0.3                          T                6.6  .26                4924718
SMRF  000.83 258.3 m E Pg      2012/04/26 23:34:23.6   0.3                          T                                        4924731
SMRF  000.83 258.3 m E Sg      2012/04/26 23:34:34.5   0.4                          T                1.0  .26                4924730
ORIF  000.97 323.1 m E Pg      2012/04/26 23:34:25.3  -0.6                          T                                        4924734
ORIF  000.97 323.1 m E P       2012/04/26 23:34:28.2   0.2                          T                                        4934796
ORIF  000.97 323.1 m E Sg      2012/04/26 23:34:38.7   0.3                          T                1.2  .27 Ml 1.4         4924735
LPL   001.37 001.1 m E Pg      2012/04/26 23:34:33.4   0.0                          T                                        4924732
LPL   001.37 001.1 m E Sg      2012/04/26 23:34:50.9  -0.3                          T                 .5  .24 Ml 1.3         4924733

.
EVENT     274601
    Date      Time       Latitude Longitude    Depth    Ndef Nsta Gap    Mag1  N    Mag2  N    Mag3  N   Author         ID
       rms   OT_Error      Smajor Sminor Az        Err   mdist  Mdist     Err        Err        Err      Quality

2012/04/27 00:21:58.3     42.8650    -.7173      2.0      16    4 096  Ml 1.5  1  Md 1.4  3              bulletin    274701
                                                                                                         _ldg
      0.63   +-  0.17       4.6    2.2    3.78 +-  0.0    0.12   2.20   +-         +-0.1                 m i ke

PYRENEES
Sta     Dist  EvAz     Phase      Date       Time     TRes  Azim  AzRes  Slow  SRes Def   SNR       Amp   Per   Mag1   Mag2       ID
ETSF  000.12 073.8 m E Pg      2012/04/27 00:22:00.6  -0.4                          T                                        4924457
ETSF  000.12 073.8 m E Sg      2012/04/27 00:22:02.8   0.0                          T               14.7  .20        Md 1.5  4924454
SJPF  000.45 303.8 m E Pg      2012/04/27 00:22:07.6   0.7                          T                                        4924455
SJPF  000.45 303.8 m E Sg      2012/04/27 00:22:12.9   0.1                          T                3.7  .32        Md 1.4  4924452
EPF   000.79 077.6 m E Pg      2012/04/27 00:22:13.0  -0.3                          T                                        4924456
EPF   000.79 077.6 m E Sg      2012/04/27 00:22:22.6  -1.1                          T                2.1  .22        Md 1.3  4924453
MTLF  002.20 076.5 m E Sg      2012/04/27 00:23:07.9   0.4                          T                 .4  .20 Ml 1.5         4937403

.
EVENT     274602
    Date      Time       Latitude Longitude    Depth    Ndef Nsta Gap    Mag1  N    Mag2  N    Mag3  N   Author         ID
       rms   OT_Error      Smajor Sminor Az        Err   mdist  Mdist     Err        Err        Err      Quality

2012/04/27 00:59:45.8     43.9597   11.2638      2.0      56   23 068  Ml 2.8  9  Md 2.6  1              bulletin    274702
                                                                                                         _ldg
      0.86   +-  0.14       3.3    2.7   12.03 +-  0.0    0.12   6.59   +-0.2      +-                    m i ke

CENTRAL ITALY
Sta     Dist  EvAz     Phase      Date       Time     TRes  Azim  AzRes  Slow  SRes Def   SNR       Amp   Per   Mag1   Mag2       ID
PGF   002.17 230.3 m E Pn      2012/04/27 01:00:21.5   0.2                          T                                        4924496
PGF   002.17 230.3 m E Sn      2012/04/27 01:00:46.5  -0.8                          T                6.6  .31 Ml 2.8 Md 2.6  4924483
SBF   002.77 269.3 m E Pn      2012/04/27 01:00:29.3  -0.1                          T                                        4924495
SBF   002.77 269.3 m E Sn      2012/04/27 01:01:00.9  -0.6                          T               33.1  .66 Ml 3.1         4924482
FRF   003.37 264.8 m E Pn      2012/04/27 01:00:37.3  -0.1                          T                                        4924493
FRF   003.37 264.8 m E Sn      2012/04/27 01:01:15.1  -0.6                          T                3.7  .24 Ml 2.7         4924480
MBDF  003.31 284.9 m E Pn      2012/04/27 01:00:38.0   1.1                          T                                        4924488
MBDF  003.31 284.9 m E Sn      2012/04/27 01:01:14.6   0.0                          T                1.7  .22 Ml 2.4         4925116
LMR   003.51 261.4 m E Pn      2012/04/27 01:00:38.4  -0.9                          T                                        4924494
LMR   003.51 261.4 m E Sn      2012/04/27 01:01:17.9  -1.0                          T                3.8  .27 Ml 2.7         4924481
LPL   003.58 297.3 m E Pn      2012/04/27 01:00:41.0   0.3                          T                                        4924490
LPG   003.56 297.1 m E Pn      2012/04/27 01:00:41.7   1.2                          T                                        4924491
ORIF  003.97 285.8 m E Pn      2012/04/27 01:00:45.8   0.0                          T                                        4924489
SMRF  004.11 272.2 m E Pn      2012/04/27 01:00:48.7   1.1                          T                                        4924492
SMRF  004.11 272.2 m E Sn      2012/04/27 01:01:34.5   1.1                          T               14.5  .56 Ml 3.1         4924479
CABF  004.51 307.8 m E Pn      2012/04/27 01:00:54.5   1.3                          T                                        4925133
CABF  004.51 307.8 m E Sn      2012/04/27 01:01:42.4  -0.7                          T                                        4925132
VIVF  004.81 283.0 m E Pn      2012/04/27 01:00:57.4   0.3                          T                                        4924487
HINF  004.94 322.9 m E Pn      2012/04/27 01:00:59.2   0.3                          T                                        4924486
HINF  004.94 322.9 m E Sn      2012/04/27 01:01:54.4   1.2                          T                3.0  .24 Ml 3.0         4924478
CDF   005.24 329.5 m E Pn      2012/04/27 01:01:03.2   0.1                          T                                        4924484
LASF  005.34 273.8 m E Pn      2012/04/27 01:01:04.6   0.2                          T                                        4925112
HAU   005.30 321.5 m E Pn      2012/04/27 01:01:04.8   0.9                          T                                        4924485
HAU   005.30 321.5 m E Sn      2012/04/27 01:02:02.4   0.5                          T                2.4  .21 Ml 2.8         4924477
SMF   005.88 299.7 m E Pn      2012/04/27 01:01:11.8   0.1                          T                                        4925114
SFTF  006.06 316.6 m E Pn      2012/04/27 01:01:14.7   0.5 125.7  -6.4              T                                        4934809
LOR   006.16 305.1 m E Pn      2012/04/27 01:01:16.9   1.4 119.9  0.1               T                                        4934813
LOR   006.16 305.1 m E Sn      2012/04/27 01:02:23.3   0.9                          T                                        4934811
MEZF  006.26 318.7 m E Pn      2012/04/27 01:01:17.1   0.3                          T                                        4934810
SSF   006.27 302.3 m E Pn      2012/04/27 01:01:18.2   1.1                          T                                        4934812
AVF   006.25 299.7 m E Pn      2012/04/27 01:01:18.4   1.8                          T                                        4934808
BGF   006.48 296.5 m E Pn      2012/04/27 01:01:20.4   0.4                          T                                        4925115
MTLF  006.59 267.7 m E Pn      2012/04/27 01:01:21.5   0.1                          T                                        4925113

.
