EVENT     260239
    Date      Time       Latitude Longitude    Depth    Ndef Nsta Gap    Mag1  N    Mag2  N    Mag3  N   Author         ID
       rms   OT_Error      Smajor Sminor Az        Err   mdist  Mdist     Err        Err        Err      Quality

2011/06/12 09:07:04.8     44.5721   10.3382      2.0      55   20 075  Ml 2.8 16                         js067245    260239

      0.44   +-  0.08       1.9    1.4   55.60 +-  0.0    0.16   8.62   +-0.3                            m i ke

NORTHERN ITALY
Sta     Dist  EvAz     Phase      Date       Time     TRes  Azim  AzRes  Slow  SRes Def   SNR       Amp   Per   Mag1   Mag2       ID
SBF   002.20 252.3 m E Pn      2011/06/12 09:07:40.7  -0.1                          T   001.0                                4705785
SBF   002.20 252.3 m E Sn      2011/06/12 09:08:07.5   0.5                          T   001.0       41.4  .56 Ml 3.1         4705786
PGF   002.24 206.2 m E Pn      2011/06/12 09:07:40.9  -0.4                          T   001.0                                4705784
PGF   002.24 206.2 m E Sn      2011/06/12 09:08:08.0   0.0                          T                8.1  .25 Ml 3.0         4706970
MBDF  002.55 274.7 m E Pn      2011/06/12 09:07:45.9   0.3                          T                                        4706973
MBDF  002.55 274.7 m E Sn      2011/06/12 09:08:15.5   0.1                          T                                        4706963
MBDF  002.55 274.7 m E Sg      2011/06/12 09:08:25.5   0.3                          T   001.0       11.8  .56 Ml 2.7         4705792
LPG   002.71 291.3 m E Pn      2011/06/12 09:07:46.7  -1.1                          T   001.0                                4705781
LPG   002.71 291.3 m E Sn      2011/06/12 09:08:19.6   0.4                          T                                        4706967
LPG   002.71 291.3 m E Sg      2011/06/12 09:08:29.7  -0.5                          T   001.0        5.3  .36 Ml 2.5         4705782
LPL   002.72 291.5 m E Pn      2011/06/12 09:07:47.8  -0.2                          T                                        4706971
LPL   002.72 291.5 m E P       2011/06/12 09:07:50.4  -0.3                          T   001.0                                4705783
LPL   002.72 291.5 m E Sn      2011/06/12 09:08:19.7   0.0                          T                                        4706965
LPL   002.72 291.5 m E Sg      2011/06/12 09:08:30.6  -0.1                          T                5.2  .35 Ml 2.5         4706966
FRF   002.85 250.5 m E Pn      2011/06/12 09:07:48.9  -0.5                          T   001.0                                4705775
FRF   002.85 250.5 m E Sn      2011/06/12 09:08:22.7   0.5                          T   001.0       16.3  .24 Ml 3.3         4705776
LMR   003.03 247.2 m E Pn      2011/06/12 09:07:51.6  -0.3                          T   001.0                                4705779
LMR   003.03 247.2 m E Sn      2011/06/12 09:08:26.6   0.0                          T               21.6  .34 Ml 3.3         4706969
ORIF  003.20 277.8 m E Pn      2011/06/12 09:07:54.4   0.1                          T                                        4706972
ORIF  003.20 277.8 m E P       2011/06/12 09:07:57.3   0.1                          T   001.0                                4705793
ORIF  003.20 277.8 m E Sn      2011/06/12 09:08:31.3   0.6                          T                7.1  .44 Ml 2.7         4706964
SMRF  003.47 261.8 m E Pn      2011/06/12 09:07:59.4   1.5                          T   001.0                                4705796
SMRF  003.47 261.8 m E Sn      2011/06/12 09:08:37.5   0.3                          T                3.5  .52 Ml 2.4         4706968
CABF  003.61 305.8 m E Pn      2011/06/12 09:08:00.4   0.4                          T   001.0                                4705787
CABF  003.61 305.8 m E Sn      2011/06/12 09:08:40.1  -0.6                          T   001.0                                4705788
CABF  003.61 305.8 m E Sg      2011/06/12 09:08:59.1   0.8                          T   001.0        3.9  .56 Ml 2.4         4705789
HINF  004.05 324.5 m E Pn      2011/06/12 09:08:04.9  -0.9                          T   001.0                                4705790
HINF  004.05 324.5 m E Sn      2011/06/12 09:08:50.4  -0.6                          T   001.0        8.3  .28 Ml 3.1         4705791
VIVF  004.05 276.0 m E Pn      2011/06/12 09:08:06.3   0.5                          T   001.0                                4705794
VIVF  004.05 276.0 m E Sn      2011/06/12 09:08:51.2   0.2                          T   001.0          1  .20 Ml 2.4         4705795
CDF   004.38 332.3 m E Pn      2011/06/12 09:08:09.8  -0.6                          T   001.0                                4705774
CDF   004.38 332.3 m E Sn      2011/06/12 09:08:58.3  -0.8                          T                5.4  .29 Ml 3.1         4706961
HAU   004.41 322.6 m E Pn      2011/06/12 09:08:10.4  -0.3                          T                                        4706976
HAU   004.41 322.6 m E Sn      2011/06/12 09:08:59.4  -0.2                          T   001.0       13.4  .28 Ml 3.2         4705778
SMF   005.01 296.7 m E Pn      2011/06/12 09:08:18.8   0.0                          T                                        4706975
SMF   005.01 296.7 m E Sn      2011/06/12 09:09:14.5   0.6                          T                1.9  .29 Ml 2.7         4706962
SFTF  005.16 316.6 m E Pn      2011/06/12 09:08:21.0   0.1                          T                                        4706977
LOR   005.26 303.1 m E Pn      2011/06/12 09:08:22.2  -0.2                          T                                        4706978
LOR   005.26 303.1 m E Sn      2011/06/12 09:09:19.7  -0.3                          T   001.0        4.6  .40 Ml 3.0         4705780
BGF   005.62 293.3 m E Pn      2011/06/12 09:08:27.3   0.1                          T   001.0                                4705773
MTLF  005.99 261.0 m E Pn      2011/06/12 09:08:33.5   1.3                          T                                        4706974
GRR   008.62 300.2 m E Pn      2011/06/12 09:09:07.8  -0.1                          T   001.0                                4705777

.
EVENT     260261
    Date      Time       Latitude Longitude    Depth    Ndef Nsta Gap    Mag1  N    Mag2  N    Mag3  N   Author         ID
       rms   OT_Error      Smajor Sminor Az        Err   mdist  Mdist     Err        Err        Err      Quality

2011/06/12 12:20:10.5     39.4567   15.0832    295.0 f    22   16 140  Ml 3.4  1                         js067245    260261

      1.02   +-  0.34      13.3    7.7   22.46 +-  0.0    0.66  12.80   +-                               m i ke

SOUTHERN ITALY
Sta     Dist  EvAz     Phase      Date       Time     TRes  Azim  AzRes  Slow  SRes Def   SNR       Amp   Per   Mag1   Mag2       ID
PGF   005.54 305.8 m E P       2011/06/12 12:21:35.4   0.4                          T                                        4706995
MBDF  008.12 313.1 m E P       2011/06/12 12:22:08.3   1.8                          T                                        4707007
LPG   008.62 317.2 m E P       2011/06/12 12:22:14.2   1.3                          T                                        4707005
LPL   008.64 317.2 m E P       2011/06/12 12:22:14.6   1.6                          T                                        4707006
VIVF  009.42 308.3 m E P       2011/06/12 12:22:23.6   1.1                          T                                        4706996
CABF  009.72 320.3 m E P       2011/06/12 12:22:25.0  -1.2                          T                                        4707010
LASF  009.57 302.4 m E P       2011/06/12 12:22:26.0   1.7                          T                                        4706994
LASF  009.57 302.4 m E Sn      2011/06/12 12:24:09.4  -2.9                          T                1.0  .21 Ml 3.4         4706993
HINF  010.26 327.2 m E P       2011/06/12 12:22:31.1  -1.8                          T                                        4706998
CDF   010.57 330.4 m E P       2011/06/12 12:22:35.9  -0.8                          T                                        4707001
SMF   010.91 314.8 m E P       2011/06/12 12:22:38.6  -2.3                          T                                        4707009
LOR   011.29 317.4 m E P       2011/06/12 12:22:44.8  -0.7                          T                                        4707000
SSF   011.35 315.8 m E P       2011/06/12 12:22:44.9  -1.3                          T                                        4706999
BGF   011.42 312.4 m E P       2011/06/12 12:22:45.4  -1.7                          T                                        4706997
EPF   011.66 292.6 m E P       2011/06/12 12:22:50.8   0.7                          T                                        4707003
ETSF  012.28 291.3 m E P       2011/06/12 12:22:59.2   1.5                          T                                        4707004
SJPF  012.80 291.8 m E P       2011/06/12 12:23:03.9  -0.1                          T                                        4707008

.
EVENT     260273
    Date      Time       Latitude Longitude    Depth    Ndef Nsta Gap    Mag1  N    Mag2  N    Mag3  N   Author         ID
       rms   OT_Error      Smajor Sminor Az        Err   mdist  Mdist     Err        Err        Err      Quality

2011/06/12 15:15:53.7     50.3215    7.4021     10.0      21   10 077  Ml 2.1  9  Md 2.1  1              js067245    260273

      0.29   +-  0.06       1.2    1.0  170.88 +-  0.0    0.30   2.62   +-0.3      +-                    m i ke

GERMANY
Sta     Dist  EvAz     Phase      Date       Time     TRes  Azim  AzRes  Slow  SRes Def   SNR       Amp   Per   Mag1   Mag2       ID
RUP   000.66 199.7 m E Pg      2011/06/12 15:16:06.0  -0.3                          T                                        4707091
RUP   000.66 199.7 m E Sg      2011/06/12 15:16:15.1   0.1                          T                                        4707092
RUP   000.66 199.7 m E Sn      2011/06/12 15:16:17.8   0.4                          T                                Md 2.1  4707093
LANF  001.37 168.8 m E Pg      2011/06/12 15:16:19.1  -0.2                          T                                        4707083
LANF  001.37 168.8 m E Sg      2011/06/12 15:16:37.0   0.0                          T                5.6  .31 Ml 2.2         4707084
GIVF  001.67 263.4 m E Pn      2011/06/12 15:16:21.0  -0.4                          T                                        4707089
GIVF  001.67 263.4 m E Pg      2011/06/12 15:16:24.7  -0.2                          T                                        4707088
GIVF  001.67 263.4 m E Sg      2011/06/12 15:16:45.9  -0.5                          T                5.1  .26 Ml 2.4         4707090
CDF   001.91 182.5 m E Pn      2011/06/12 15:16:25.0   0.2                          T                                        4707081
CDF   001.91 182.5 m E Pg      2011/06/12 15:16:29.7   0.3                          T                                        4707080
CDF   001.91 182.5 m E Sg      2011/06/12 15:16:53.9  -0.2                          T                3.4  .30 Ml 2.4         4707082
BAIF  002.07 263.9 m E Pn      2011/06/12 15:16:26.7  -0.1                          T                                        4707086
BAIF  002.07 263.9 m E Pg      2011/06/12 15:16:32.4   0.3                          T                                        4707085
BAIF  002.07 263.9 m E Sg      2011/06/12 15:16:59.1   0.2                          T                3.0  .25 Ml 2.3         4707087
PAGF  002.08 212.4 m E Sg      2011/06/12 15:16:59.1  -0.1                          T                 .4  .34 Ml 1.3         4707079
MEZF  002.38 221.0 m E Sg      2011/06/12 15:17:08.8   0.2                          T                1.2  .27 Ml 1.9         4707075
HAU   002.42 197.0 m E Sg      2011/06/12 15:17:09.7  -0.1                          T                1.2  .22 Ml 1.8         4707077
HINF  002.53 188.4 m E Sg      2011/06/12 15:17:13.4   0.0                          T                1.8  .26 Ml 2.2         4707078
SFTF  002.62 217.1 m E Sg      2011/06/12 15:17:16.2   0.1                          T                 .8  .18 Ml 2.0         4707076

.
EVENT     260285
    Date      Time       Latitude Longitude    Depth    Ndef Nsta Gap    Mag1  N    Mag2  N    Mag3  N   Author         ID
       rms   OT_Error      Smajor Sminor Az        Err   mdist  Mdist     Err        Err        Err      Quality

2011/06/12 16:02:55.3     48.0711    9.1631     10.0      10    5 217  Ml 1.4  4  Md 1.6  1              js067245    260285

      0.25   +-  0.14       2.4    1.8  125.97 +-  0.0    0.03   2.77   +-0.5      +-                    m i ke

GERMANY
Sta     Dist  EvAz     Phase      Date       Time     TRes  Azim  AzRes  Slow  SRes Def   SNR       Amp   Per   Mag1   Mag2       ID
CDF   001.31 285.8 m E Pn      2011/06/12 16:03:17.2  -0.9                          T                                        4707603
CDF   001.31 285.8 m E Sg      2011/06/12 16:03:36.5  -0.3                          T                 .5  .27 Ml 1.3 Md 1.6  4707604
LANF  001.28 315.7 m E Pg      2011/06/12 16:03:19.3   0.0                          T                                        4707605
LANF  001.28 315.7 m E Sg      2011/06/12 16:03:35.6  -0.4                          T                2.8  .18 Ml 2.1         4707606
HINF  001.57 261.5 m E Pn      2011/06/12 16:03:21.2  -0.5                          T                                        4707598
HINF  001.57 261.5 m E Pg      2011/06/12 16:03:24.8   0.0                          T                                        4707597
HINF  001.57 261.5 m E Sg      2011/06/12 16:03:45.2   0.0                          T                 .2  .17 Ml 1.2         4707599
SFTF  002.77 274.3 m E Pn      2011/06/12 16:03:37.9   0.0                          T                                        4707601
SFTF  002.77 274.3 m E Pg      2011/06/12 16:03:46.8   0.2                          T                                        4707600
PAGF  002.35 283.2 m E Sg      2011/06/12 16:04:09.3   0.2                          T                 .1  .17 Ml  .9         4707602

.
EVENT     260242
    Date      Time       Latitude Longitude    Depth    Ndef Nsta Gap    Mag1  N    Mag2  N    Mag3  N   Author         ID
       rms   OT_Error      Smajor Sminor Az        Err   mdist  Mdist     Err        Err        Err      Quality

2011/06/12 16:30:59.0     44.5408    6.4106     25.0      16    8 088  Ml 1.5  5  Md 1.4  1              js067245    260242

      0.28   +-  0.07       2.0    1.2   92.01 +-  0.0    0.32   1.21   +-0.3      +-                    m i ke

FRANCE
Sta     Dist  EvAz     Phase      Date       Time     TRes  Azim  AzRes  Slow  SRes Def   SNR       Amp   Per   Mag1   Mag2       ID
MBDF  000.32 054.0 m E Pg      2011/06/12 16:31:06.6   0.0                          T                                        4707621
MBDF  000.32 054.0 m E Sg      2011/06/12 16:31:12.4   0.7                          T               11.9  .24        Md 1.4  4707622
ORIF  000.53 315.1 m E Pg      2011/06/12 16:31:09.8  -0.3                          T                                        4707615
ORIF  000.53 315.1 m E Sg      2011/06/12 16:31:17.8   0.2                          T                 .3  .15                4707616
SMRF  000.82 227.0 m E Pg      2011/06/12 16:31:15.1   0.1                          T                                        4707609
SMRF  000.82 227.0 m E Sg      2011/06/12 16:31:26.2   0.1                          T                 .5  .31                4707610
FRF   000.99 170.1 m E Pg      2011/06/12 16:31:17.8  -0.2                          T                                        4707619
FRF   000.99 170.1 m E Sg      2011/06/12 16:31:30.6  -0.6                          T                1.2  .20 Ml 1.6         4707620
LPG   000.99 014.1 m E Pg      2011/06/12 16:31:18.2   0.0                          T                                        4707611
LPG   000.99 014.1 m E Sg      2011/06/12 16:31:31.4   0.0                          T                1.1  .26 Ml 1.4         4707612
SBF   001.00 132.2 m E Pg      2011/06/12 16:31:18.2   0.0                          T                                        4707607
SBF   001.00 132.2 m E Sg      2011/06/12 16:31:31.2  -0.4                          T                1.8  .25 Ml 1.7         4707608
LPL   001.00 013.1 m E Pg      2011/06/12 16:31:18.5   0.1                          T                                        4707613
LPL   001.00 013.1 m E Sg      2011/06/12 16:31:31.4  -0.4                          T                 .4  .23 Ml 1.0         4707614
LMR   001.21 176.6 m E Pg      2011/06/12 16:31:22.3   0.4                          T                                        4707617
LMR   001.21 176.6 m E Sg      2011/06/12 16:31:37.5  -0.3                          T                1.9  .24 Ml 1.8         4707618

.
