EVENT     253240
    Date      Time       Latitude Longitude    Depth    Ndef Nsta Gap    Mag1  N    Mag2  N    Mag3  N   Author         ID
       rms   OT_Error      Smajor Sminor Az        Err   mdist  Mdist     Err        Err        Err      Quality

2011/01/03 04:09:31.8     46.2619    5.4995      2.0      40   18 081  Ml 2.0 19  Md 1.8  3              js067245    253260

      0.39   +-  0.03        .7     .6   60.94 +-  0.0    0.54   2.47   +-0.4      +-0.0                 m i ke

FRANCE
Sta     Dist  EvAz     Phase      Date       Time     TRes  Azim  AzRes  Slow  SRes Def   SNR       Amp   Per   Mag1   Mag2       ID
CABF  000.54 049.1 m E Pg      2011/01/03 04:09:42.3   0.2                          T                                        4576543
CABF  000.54 049.1 m E Sg      2011/01/03 04:09:49.0  -0.2                          T                4.2  .34        Md 1.9  4576544
LPL   001.14 130.4 m E Pg      2011/01/03 04:09:53.4   0.0                          T                                        4576498
LPL   001.14 130.4 m E Sg      2011/01/03 04:10:08.2   0.0                          T                1.5  .26 Ml 1.7 Md 1.9  4576495
LPG   001.16 130.7 m E Pg      2011/01/03 04:09:53.8  -0.1                          T                                        4576499
LPG   001.16 130.7 m E Sg      2011/01/03 04:10:08.9   0.0                          T                1.5  .23 Ml 1.7 Md 1.8  4576494
SMF   001.21 289.1 m E Pg      2011/01/03 04:09:54.7   0.3                          T                                        4576502
SMF   001.21 289.1 m E Sg      2011/01/03 04:10:10.3   0.2                          T               18.8  .20 Ml 2.9         4576492
ORIF  001.37 168.6 m E Pg      2011/01/03 04:09:57.3  -0.2                          T                                        4576497
ORIF  001.37 168.6 m E Sg      2011/01/03 04:10:15.4   0.2                          T                3.3  .25 Ml 2.1         4576496
LOR   001.51 312.3 m E Pg      2011/01/03 04:09:59.5  -0.5                          T                                        4578074
LOR   001.51 312.3 m E Sg      2011/01/03 04:10:19.7   0.1 139.1  7.9               T                3.5  .26 Ml 2.2         4576534
VIVF  001.52 202.7 m E Pg      2011/01/03 04:10:00.3   0.1                          T                                        4576521
VIVF  001.52 202.7 m E Sg      2011/01/03 04:10:20.1   0.3                          T                3.0  .24 Ml 2.2         4576493
AVF   001.57 290.4 m E Pg      2011/01/03 04:10:00.6  -0.5                          T                                        4576501
AVF   001.57 290.4 m E Sg      2011/01/03 04:10:21.6   0.2                          T                4.6  .30 Ml 2.3         4576491
SSF   001.59 300.9 m E Pg      2011/01/03 04:10:01.5   0.2                          T                                        4576536
SSF   001.59 300.9 m E Sg      2011/01/03 04:10:22.2   0.3                          T                3.0  .32 Ml 2.1         4576535
MBDF  001.78 149.3 m E Pg      2011/01/03 04:10:05.0   0.0                          T                                        4576520
MBDF  001.78 149.3 m E Sg      2011/01/03 04:10:28.1   0.1                          T                 .3  .22 Ml 1.3         4576519
HAU   001.84 018.1 m E Pg      2011/01/03 04:10:06.0   0.0                          T                                        4576542
HAU   001.84 018.1 m E Sg      2011/01/03 04:10:29.6  -0.1                          T                3.4  .26 Ml 2.1         4576528
BGF   001.86 280.1 m E Pg      2011/01/03 04:10:06.4   0.0                          T                                        4576523
BGF   001.86 280.1 m E Sg      2011/01/03 04:10:30.5   0.1                          T                3.6  .40 Ml 2.1         4576526
SFTF  001.97 351.0 m E Pg      2011/01/03 04:10:08.4   0.0                          T                                        4576540
SFTF  001.97 351.0 m E Sg      2011/01/03 04:10:33.7  -0.1                          T                1.0  .22 Ml 1.9         4576530
THEF  002.00 009.5 m E Pg      2011/01/03 04:10:09.0   0.1                          T                                        4576541
THEF  002.00 009.5 m E Sg      2011/01/03 04:10:34.5  -0.1                          T                2.4  .22 Ml 2.3         4576529
HYF   002.21 298.2 m E Pg      2011/01/03 04:10:12.9   0.1                          T                                        4576522
HYF   002.21 298.2 m E Sg      2011/01/03 04:10:41.4   0.2                          T                                        4576527
MEZF  002.26 352.4 m E Pg      2011/01/03 04:10:13.8   0.0                          T                                        4576539
MEZF  002.26 352.4 m E Sg      2011/01/03 04:10:42.9   0.0                          T                1.3  .26 Ml 2.0         4576531
PAGF  002.30 003.7 m E Pg      2011/01/03 04:10:14.6   0.2 185.7  1.8               T                                        4576538
PAGF  002.30 003.7 m E Sg      2011/01/03 04:10:44.0  -0.1 181.2  -2.7              T                 .4  .29 Ml 1.4         4576532
CDF   002.47 028.7 m E Pg      2011/01/03 04:10:17.7   0.0                          T                                        4576537
CDF   002.47 028.7 m E Sg      2011/01/03 04:10:49.2  -0.2                          T                 .8  .25 Ml 1.9         4576533

.
EVENT     253241
    Date      Time       Latitude Longitude    Depth    Ndef Nsta Gap    Mag1  N    Mag2  N    Mag3  N   Author         ID
       rms   OT_Error      Smajor Sminor Az        Err   mdist  Mdist     Err        Err        Err      Quality

2011/01/03 04:36:00.4     45.5609    3.7216     10.0      80   28 063  Ml 2.6 30  Md 2.6  4              js067245    253261

      0.30   +-  0.02        .5     .4  170.08 +-  0.0    0.05   4.22   +-0.3      +-0.2                 m i ke

FRANCE
Sta     Dist  EvAz     Phase      Date       Time     TRes  Azim  AzRes  Slow  SRes Def   SNR       Amp   Per   Mag1   Mag2       ID
VIVF  000.97 136.0 m E Pg      2011/01/03 04:36:18.8   0.0                          T                                        4576596
VIVF  000.97 136.0 m E Sg      2011/01/03 04:36:31.3  -0.2                          T               18.3  .20 Ml 2.8 Md 2.7  4576571
SMF   001.09 004.3 m E Pg      2011/01/03 04:36:20.9   0.0                          T                                        4576600
SMF   001.09 004.3 m E Sg      2011/01/03 04:36:35.0   0.0                          T               50.9  .20 Ml 3.3 Md 2.7  4576563
BGF   001.17 328.9 m E Pn      2011/01/03 04:36:21.5   0.2                          T                                        4576594
BGF   001.17 328.9 m E Pg      2011/01/03 04:36:22.6   0.2                          T                                        4576601
BGF   001.17 328.9 m E Sg      2011/01/03 04:36:37.5   0.0                          T               23.2  .28 Ml 2.8         4576561
AVF   001.26 348.4 m E Pn      2011/01/03 04:36:22.4   0.0                          T                                        4578084
AVF   001.26 348.4 m E Pg      2011/01/03 04:36:23.8  -0.2                          T                                        4576599
AVF   001.26 348.4 m E Sg      2011/01/03 04:36:40.0  -0.2                          T               15.7  .31 Ml 2.6         4576564
TCF   001.28 305.1 m E Pn      2011/01/03 04:36:23.0   0.2                          T                                        4576595
TCF   001.28 305.1 m E Pg      2011/01/03 04:36:24.5   0.0                          T                                        4576605
TCF   001.28 305.1 m E Sn      2011/01/03 04:36:38.6  -0.4                          T                                        4578087
TCF   001.28 305.1 m E Sg      2011/01/03 04:36:41.1   0.0                          T               11.7  .26 Ml 2.6         4576576
CAF   001.33 242.1 m E Pn      2011/01/03 04:36:23.3  -0.3                          T                                        4576628
CAF   001.33 242.1 m E Pg      2011/01/03 04:36:25.2  -0.2                          T                                        4576597
CAF   001.33 242.1 m E Sn      2011/01/03 04:36:40.1  -0.1                          T                                        4578077
CAF   001.33 242.1 m E Sg      2011/01/03 04:36:42.6  -0.1                          T               16.0  .18 Ml 2.9 Md 2.3  4576569
SSF   001.51 354.4 m E Pg      2011/01/03 04:36:28.2  -0.4                          T                                        4576604
SSF   001.51 354.4 m E Sg      2011/01/03 04:36:47.6  -0.5                          T               21.6  .30 Ml 3.0         4576577
RJF   001.57 261.4 m E Pg      2011/01/03 04:36:29.6  -0.2                          T                                        4576593
RJF   001.57 261.4 m E Sn      2011/01/03 04:36:45.9  -0.1                          T                                        4578079
RJF   001.57 261.4 m E Sg      2011/01/03 04:36:50.3   0.1                          T               15.3  .24 Ml 2.5         4576570
ORIF  001.65 112.1 m E Pg      2011/01/03 04:36:31.3  -0.1                          T                                        4576591
ORIF  001.65 112.1 m E Sg      2011/01/03 04:36:52.8   0.1                          T                7.5  .45 Ml 2.3         4576556
LOR   001.71 003.1 m E Pg      2011/01/03 04:36:32.1  -0.3 185.3  2.0               T                                        4576603
LOR   001.71 003.1 m E Sg      2011/01/03 04:36:54.2  -0.2 184.8  1.5               T               12.7  .20 Ml 2.9         4576578
CABF  001.95 056.6 m E Pn      2011/01/03 04:36:32.5   0.5                          T                                        4578083
CABF  001.95 056.6 m E Pg      2011/01/03 04:36:37.9   1.0                          T                                        4576598
CABF  001.95 056.6 m E Sg      2011/01/03 04:37:01.9  -0.2                          T                4.9  .37 Ml 2.3         4576565
HYF   001.87 336.7 m E Pg      2011/01/03 04:36:34.6  -0.5                          T                                        4576583
HYF   001.87 336.7 m E Sn      2011/01/03 04:36:53.0   0.1                          T                                        4578085
HYF   001.87 336.7 m E Sg      2011/01/03 04:36:59.2   0.0                          T                                        4576562
LFF   002.20 254.6 m E Pn      2011/01/03 04:36:35.4   0.2                          T                                        4578078
LFF   002.20 254.6 m E Pg      2011/01/03 04:36:41.3   0.1                          T                                        4576592
LFF   002.20 254.6 m E Sg      2011/01/03 04:37:09.7   0.2                          T               16.1  .46 Ml 2.6         4576568
SMRF  002.06 139.5 m E Pg      2011/01/03 04:36:38.8   0.0                          T                                        4576588
SMRF  002.06 139.5 m E Sg      2011/01/03 04:37:05.5   0.0                          T                6.1  .43 Ml 2.4         4576553
MTLF  002.47 206.4 m E Pn      2011/01/03 04:36:39.6   0.6                          T                                        4578075
MTLF  002.47 206.4 m E Pg      2011/01/03 04:36:46.5   0.3                          T                                        4576586
MTLF  002.47 206.4 m E Sg      2011/01/03 04:37:17.6  -0.4                          T                4.1  .20 Ml 2.6         4576558
LPL   002.12 090.1 m E Pg      2011/01/03 04:36:40.2   0.1                          T                                        4576590
LPL   002.12 090.1 m E Sg      2011/01/03 04:37:06.8  -0.5                          T                6.8  .36 Ml 2.5         4576555
LPG   002.13 090.6 m E Pg      2011/01/03 04:36:40.2  -0.2                          T                                        4576589
LPG   002.13 090.6 m E Sg      2011/01/03 04:37:07.7  -0.2                          T                3.6  .18 Ml 2.5         4576554
SFTF  002.80 018.4 m E Pn      2011/01/03 04:36:43.2  -0.2                          T                                        4578086
SFTF  002.80 018.4 m E Pg      2011/01/03 04:36:52.5   0.2                          T                                        4576581
SFTF  002.80 018.4 m E Sg      2011/01/03 04:37:28.2  -0.1                          T               10.6  .40 Ml 2.8         4576573
MBDF  002.31 110.0 m E Pg      2011/01/03 04:36:43.6   0.0                          T                                        4576587
MBDF  002.31 110.0 m E Sg      2011/01/03 04:37:13.3  -0.1                          T                1.8  .30 Ml 2.1         4576552
MFF   002.89 292.5 m E Pn      2011/01/03 04:36:44.8   0.2                          T                                        4578080
MFF   002.89 292.5 m E Pg      2011/01/03 04:36:53.9  -0.1                          T                                        4576584
MFF   002.89 292.5 m E Sg      2011/01/03 04:37:31.1   0.0                          T                6.1  .34 Ml 2.8         4576559
EPF   003.51 225.0 m E Pn      2011/01/03 04:36:53.1   0.0                          T                                        4578076
EPF   003.51 225.0 m E Pg      2011/01/03 04:37:05.7   0.3                          T                                        4576585
EPF   003.51 225.0 m E Sg      2011/01/03 04:37:50.7   0.2                          T                1.2  .22 Ml 2.3         4576557
HAU   003.04 035.5 m E Pg      2011/01/03 04:36:56.8   0.0                          T                                        4576566
HAU   003.04 035.5 m E Sg      2011/01/03 04:37:35.8  -0.1                          T                3.3  .28 Ml 2.3         4576567
MEZF  003.08 016.7 m E Pg      2011/01/03 04:36:57.7   0.2 198.1  0.4               T                                        4576580
MEZF  003.08 016.7 m E Sg      2011/01/03 04:37:37.2   0.1 197.9  0.3               T               11.3  .38 Ml 2.9         4576574
THEF  003.09 029.5 m E Pg      2011/01/03 04:36:57.9   0.1                          T                                        4576582
THEF  003.09 029.5 m E Sg      2011/01/03 04:37:37.4  -0.1                          T                4.5  .24 Ml 2.7         4576572
LDF   004.01 320.5 m E Pn      2011/01/03 04:36:59.9  -0.1                          T                                        4578081
PAGF  003.29 023.8 m E Pg      2011/01/03 04:37:01.5   0.1                          T                                        4576579
PAGF  003.29 023.8 m E Sg      2011/01/03 04:37:43.8   0.0 204.5  -0.8              T                2.9  .54 Ml 2.2         4576575
GRR   004.22 313.7 m E Pn      2011/01/03 04:37:02.5  -0.3                          T                                        4578082
CDF   003.75 039.2 m E Pg      2011/01/03 04:37:09.9   0.0                          T                                        4576551
CDF   003.75 039.2 m E Sg      2011/01/03 04:37:58.1   0.0                          T                1.4  .34 Ml 2.3         4576550

.
EVENT     253248
    Date      Time       Latitude Longitude    Depth    Ndef Nsta Gap    Mag1  N    Mag2  N    Mag3  N   Author         ID
       rms   OT_Error      Smajor Sminor Az        Err   mdist  Mdist     Err        Err        Err      Quality

2011/01/03 07:59:26.9     43.1537   18.7813      2.0      70    8 035  Ml 3.9  9                         js067245    253268

      0.85   +-  0.10       2.5    2.0  159.20 +-  0.0    0.11  10.31   +-0.3                            m i ke

NORTHWESTERN BALKAN PEN.
Sta     Dist  EvAz     Phase      Date       Time     TRes  Azim  AzRes  Slow  SRes Def   SNR       Amp   Per   Mag1   Mag2       ID
PGF   007.22 268.5 m E Pn      2011/01/03 08:01:11.4   0.3                          T                                        4576653
PGF   007.22 268.5 m E Sn      2011/01/03 08:02:28.9   0.1                          T               73.6 1.22 Ml 4.3         4576643
SBF   008.28 278.8 m E Pn      2011/01/03 08:01:25.8   0.3                          T                                        4576652
SBF   008.28 278.8 m E Sn      2011/01/03 08:02:54.3   0.1                          T               68.0 1.17 Ml 4.2         4576644
MBDF  008.81 284.4 m E Pn      2011/01/03 08:01:32.5  -0.4                          T                                        4576654
MBDF  008.81 284.4 m E Sn      2011/01/03 08:03:07.1   0.2                          T               13.0  .68 Ml 3.8         4576648
FRF   008.85 276.8 m E Pn      2011/01/03 08:01:33.4   0.1                          T                                        4576651
LPL   008.95 289.4 m E Pn      2011/01/03 08:01:35.0   0.1                          T                                        4576656
LPL   008.95 289.4 m E Sn      2011/01/03 08:03:10.8   0.3                          T               34.6  .84 Ml 4.2         4576646
LPG   008.94 289.3 m E Pn      2011/01/03 08:01:35.3   0.5                          T                                        4576657
LPG   008.94 289.3 m E Sn      2011/01/03 08:03:10.4   0.2                          T               27.1  .90 Ml 4.0         4576645
ORIF  009.46 285.2 m E Pn      2011/01/03 08:01:42.0   0.4                          T                                        4576655
ORIF  009.46 285.2 m E Sn      2011/01/03 08:03:22.9   0.4                          T               28.3  .93 Ml 4.1         4576647
VIVF  010.31 284.3 m E Pn      2011/01/03 08:01:53.0  -0.1                          T                                        4576650
VIVF  010.31 284.3 m E Sn      2011/01/03 08:03:43.0   0.3                          T                2.5  .44 Ml 3.5         4576649

.
EVENT     253252
    Date      Time       Latitude Longitude    Depth    Ndef Nsta Gap    Mag1  N    Mag2  N    Mag3  N   Author         ID
       rms   OT_Error      Smajor Sminor Az        Err   mdist  Mdist     Err        Err        Err      Quality

2011/01/03 09:44:15.6     36.7099  -13.5371     25.0      70    5 190  Ml 4.1  5                         js067245    253272

      1.09   +-  0.30       7.3    4.8  123.04 +-  0.0    3.96  15.17   +-0.0                            m i ke

NORTH ATLANTIC OCEAN
Sta     Dist  EvAz     Phase      Date       Time     TRes  Azim  AzRes  Slow  SRes Def   SNR       Amp   Per   Mag1   Mag2       ID
EVOP  004.67 065.5 m E Pn      2011/01/03 09:45:21.6  -0.7                          T                                        4576671
EVOP  004.67 065.5 m E Sn      2011/01/03 09:46:13.0   0.8                          T               96.4  .50 Ml 4.1         4576670
SJPF  011.41 052.1 m E Pn      2011/01/03 09:46:55.1   0.9                          T                                        4576664
SJPF  011.41 052.1 m E Sn      2011/01/03 09:48:53.4  -0.1                          T                4.9  .35 Ml 4.1         4576666
ETSF  011.73 054.2 m E Pn      2011/01/03 09:46:59.4   0.7                          T                                        4576663
ETSF  011.73 054.2 m E Sn      2011/01/03 09:49:01.4   0.1                          T                7.3  .58 Ml 4.1         4576667
EPF   012.38 055.1 m E Pn      2011/01/03 09:47:07.9   0.5                          T                                        4576662
EPF   012.38 055.1 m E Sn      2011/01/03 09:49:16.5  -0.2                          T                4.8  .41 Ml 4.1         4576668
TCF   015.17 046.0 m E Pn      2011/01/03 09:47:44.9  -0.5                          T                                        4576669
TCF   015.17 046.0 m E Sn      2011/01/03 09:50:23.0  -0.3                          T                5.2  .61 Ml 4.0         4576665

.
