EVENT     268007
    Date      Time       Latitude Longitude    Depth    Ndef Nsta Gap    Mag1  N    Mag2  N    Mag3  N   Author         ID
       rms   OT_Error      Smajor Sminor Az        Err   mdist  Mdist     Err        Err        Err      Quality

2012/01/01 06:47:43.4     42.3823    1.8678     10.0 f    11    3 063  Ml 1.4  3                         js067245    268027

      0.26   +-  0.06       1.3    1.1  117.95 +-  0.0    0.12   2.55   +-0.2                            m i ke

PYRENEES
Sta     Dist  EvAz     Phase      Date       Time     TRes  Azim  AzRes  Slow  SRes Def   SNR       Amp   Per   Mag1   Mag2       ID
MTLF  000.99 014.9 m E Pg      2012/01/01 06:48:01.8  -0.3                          T                                        4811242
MTLF  000.99 014.9 m E Sg      2012/01/01 06:48:15.3   0.3                          T                 .7  .20 Ml 1.4         4810165
EPF   001.30 300.4 m E Pg      2012/01/01 06:48:07.8   0.0                          T                                        4811241
EPF   001.30 300.4 m E Sg      2012/01/01 06:48:24.9   0.2                          T                 .4  .20 Ml 1.3         4810166
CAF   002.55 003.1 m E Pg      2012/01/01 06:48:30.8   0.1                          T                                        4811239
CAF   002.55 003.1 m E Sg      2012/01/01 06:49:03.6   0.1                          T                 .5  .21 Ml 1.7         4811240

.
EVENT     268010
    Date      Time       Latitude Longitude    Depth    Ndef Nsta Gap    Mag1  N    Mag2  N    Mag3  N   Author         ID
       rms   OT_Error      Smajor Sminor Az        Err   mdist  Mdist     Err        Err        Err      Quality

2012/01/01 08:58:40.9     44.4463    7.2657     10.0      31    8 129  Ml 1.7  4  Md 1.7  3              js067245    268030

      0.50   +-  0.06       1.5     .9   60.76 +-  0.0    0.06   1.30   +-0.1      +-0.3                 m i ke

NORTHERN ITALY
Sta     Dist  EvAz     Phase      Date       Time     TRes  Azim  AzRes  Slow  SRes Def   SNR       Amp   Per   Mag1   Mag2       ID
MBDF  000.45 308.6 m E Pg      2012/01/01 08:58:49.8  -0.1                          T                                        4810173
MBDF  000.45 308.6 m E Sg      2012/01/01 08:58:55.8  -0.1                          T                7.7  .22        Md 1.8  4810172
SBF   000.60 168.1 m E Pg      2012/01/01 08:58:52.4   0.0                          T                                        4810168
SBF   000.60 168.1 m E Pn      2012/01/01 08:58:54.0   0.0                          T                                        4810180
SBF   000.60 168.1 m E Sg      2012/01/01 08:59:00.3   0.0                          T                2.1  .17        Md 1.9  4810186
SBF   000.60 168.1 m E Sn      2012/01/01 08:59:03.0  -0.2                          T                                Md 1.4  4810179
FRF   000.99 207.0 m E Pg      2012/01/01 08:58:59.6   0.1                          T                                        4810170
FRF   000.99 207.0 m E Sg      2012/01/01 08:59:12.7   0.2                          T                2.3  .29 Ml 1.7         4810176
LPG   001.11 341.0 m E Pg      2012/01/01 08:59:02.0  -0.2                          T                                        4810182
LPG   001.11 341.0 m E Sn      2012/01/01 08:59:15.8   0.0                          T                                        4810178
LPG   001.11 341.0 m E Sg      2012/01/01 08:59:16.9   0.3                          T                                        4810183
ORIF  001.10 296.0 m E Pg      2012/01/01 08:59:02.0   0.4                          T                                        4810167
ORIF  001.10 296.0 m E Sg      2012/01/01 08:59:14.9  -0.9                          T                1.5  .28 Ml 1.6         4810171
LPL   001.14 340.7 m E Pg      2012/01/01 08:59:02.3  -0.2                          T                                        4810187
LMR   001.24 206.5 m E Pg      2012/01/01 08:59:04.1   0.0                          T                                        4810169
LMR   001.24 206.5 m E Sn      2012/01/01 08:59:18.5   0.1                          T                                        4810181
LMR   001.24 206.5 m E Sg      2012/01/01 08:59:20.3   0.1                          T                2.3  .30 Ml 1.8         4810177
SMRF  001.30 249.4 m E Pg      2012/01/01 08:59:05.2  -0.1                          T                                        4810185
SMRF  001.30 249.4 m E Sn      2012/01/01 08:59:18.9  -1.1                          T                                        4810184

.
EVENT     267994
    Date      Time       Latitude Longitude    Depth    Ndef Nsta Gap    Mag1  N    Mag2  N    Mag3  N   Author         ID
       rms   OT_Error      Smajor Sminor Az        Err   mdist  Mdist     Err        Err        Err      Quality

2012/01/01 09:35:13.6     46.1946    6.4211      2.0     130   38 028  Ml 3.0 33  Md 2.9  5              js067245    268014

      0.66   +-  0.04        .8     .7   50.68 +-  0.0    0.14   6.77   +-0.3      +-0.1                 m i ke

SWITZERLAND
Sta     Dist  EvAz     Phase      Date       Time     TRes  Azim  AzRes  Slow  SRes Def   SNR       Amp   Per   Mag1   Mag2       ID
CABF  000.48 331.1 m E Pg      2012/01/01 09:35:22.7  -0.1                          T   001.0                                4806668
CABF  000.48 331.1 m E Pn      2012/01/01 09:35:23.7  -0.1                          T                                        4810212
CABF  000.48 331.1 m E Sg      2012/01/01 09:35:29.1   0.0                          T   001.0      320.5  .48        Md 3.0  4806669
CABF  000.48 331.1 m E Sn      2012/01/01 09:35:30.7  -0.1                          T                                        4811305
LPL   000.71 162.1 m E Pg      2012/01/01 09:35:27.3   0.1                          T   001.0                                4806652
LPL   000.71 162.1 m E Sg      2012/01/01 09:35:36.6   0.0                          T   001.0       48.8  .27        Md 2.9  4806653
LPG   000.73 161.6 m E Pg      2012/01/01 09:35:27.8   0.0                          T   001.0                                4806650
LPG   000.73 161.6 m E Sg      2012/01/01 09:35:37.7   0.3                          T   001.0       56.3  .22        Md 2.9  4806651
ORIF  001.33 196.8 m E P       2012/01/01 09:35:39.4   0.0                          T   001.0                                4806678
ORIF  001.33 196.8 m E Sn      2012/01/01 09:35:54.7  -0.1                          T   001.0                        Md 3.0  4806679
ORIF  001.33 196.8 m E Sg      2012/01/01 09:35:55.9   0.2                          T               96.8  .30 Ml 3.5         4810227
MBDF  001.49 170.3 m E Pg      2012/01/01 09:35:41.6   0.1                          T   001.0                                4806673
MBDF  001.49 170.3 m E Sg      2012/01/01 09:36:00.8   0.1                          T   001.0       39.6  .58 Ml 2.9 Md 2.9  4806674
HINF  001.65 010.2 m E Pn      2012/01/01 09:35:42.3   0.4                          T   001.0                                4806670
HINF  001.65 010.2 m E Sg      2012/01/01 09:36:05.1  -0.5                          T   001.0       42.9  .22 Ml 3.4         4806672
VIVF  001.82 223.2 m E Pn      2012/01/01 09:35:44.4   0.2                          T   001.0                                4806682
VIVF  001.82 223.2 m E Pg      2012/01/01 09:35:46.9  -0.5                          T   001.0                                4806683
VIVF  001.82 223.2 m E Sn      2012/01/01 09:36:06.4   0.0                          T   001.0                                4806684
VIVF  001.82 223.2 m E Sg      2012/01/01 09:36:10.1  -0.8                          T               50.6  .18 Ml 3.6         4810228
SMF   001.84 285.1 m E Pn      2012/01/01 09:35:44.7   0.3                          T   001.0                                4806658
SMF   001.84 285.1 m E Pg      2012/01/01 09:35:47.2  -0.6                          T                                        4810194
SMF   001.84 285.1 m E Sn      2012/01/01 09:36:06.2  -0.8                          T   001.0                                4806659
SMF   001.84 285.1 m E Sg      2012/01/01 09:36:11.3  -0.3                          T               40.4  .18 Ml 3.5         4810213
HAU   001.81 358.5 m E Pn      2012/01/01 09:35:44.9   0.8                          T                                        4810211
HAU   001.81 358.5 m E Pg      2012/01/01 09:35:47.2  -0.1                          T                                        4810195
HAU   001.81 358.5 m E Sn      2012/01/01 09:36:06.9   0.6                          T   001.0                                4806647
HAU   001.81 358.5 m E Sg      2012/01/01 09:36:09.8  -0.8                          T               25.0  .28 Ml 2.9         4810210
LOR   002.06 302.3 m E Pn      2012/01/01 09:35:47.5   0.0 125.5  5.1               T   001.0                                4806649
LOR   002.06 302.3 m E Pg      2012/01/01 09:35:51.8  -0.1 121.9  1.5               T                                        4810206
LOR   002.06 302.3 m E Sg      2012/01/01 09:36:17.1  -1.5 136.4  16.0              T               17.3  .18 Ml 3.2         4810197
SSF   002.19 294.4 m E Pn      2012/01/01 09:35:49.3   0.2                          T   001.0                                4806660
SSF   002.19 294.4 m E Pg      2012/01/01 09:35:53.7  -0.5                          T                                        4810198
SSF   002.19 294.4 m E Sn      2012/01/01 09:36:14.4  -0.8                          T   001.0                                4806661
SSF   002.19 294.4 m E Sg      2012/01/01 09:36:22.1  -0.3                          T   001.0       17.6  .26 Ml 3.2         4806662
AVF   002.20 286.8 m E Pn      2012/01/01 09:35:49.5   0.2                          T   001.0                                4806632
AVF   002.20 286.8 m E Pg      2012/01/01 09:35:54.5   0.1                          T   001.0                                4806633
AVF   002.20 286.8 m E Sg      2012/01/01 09:36:22.2  -0.6                          T   001.0       13.0  .20 Ml 3.1         4806635
CDF   002.29 014.4 m E Pn      2012/01/01 09:35:49.8  -0.9                          T   001.0                                4806640
CDF   002.29 014.4 m E Sg      2012/01/01 09:36:24.7  -1.1                          T   001.0       13.6  .38 Ml 2.9         4806641
SMRF  002.30 195.4 m E Pn      2012/01/01 09:35:51.4   0.7                          T   001.0                                4806685
SMRF  002.30 195.4 m E Pg      2012/01/01 09:35:56.4   0.1                          T                                        4810229
SMRF  002.30 195.4 m E Sn      2012/01/01 09:36:17.1  -0.8                          T   001.0                                4806686
SMRF  002.30 195.4 m E Sg      2012/01/01 09:36:25.8  -0.1                          T                9.6  .42 Ml 2.6         4810231
MEZF  002.49 338.5 m E Pn      2012/01/01 09:35:53.2   0.0                          T                                        4810236
MEZF  002.49 338.5 m E Sn      2012/01/01 09:36:22.4   0.0                          T                                        4810207
MEZF  002.49 338.5 m E Sg      2012/01/01 09:36:31.8   0.1                          T   001.0       24.8  .47 Ml 3.0         4806676
BGF   002.50 279.6 m E Pn      2012/01/01 09:35:53.6   0.2                          T   001.0                                4806636
BGF   002.50 279.6 m E Pg      2012/01/01 09:36:00.2   0.2                          T                                        4810192
BGF   002.50 279.6 m E Sn      2012/01/01 09:36:22.0  -0.7                          T                                        4810215
BGF   002.50 279.6 m E Sg      2012/01/01 09:36:32.4   0.3                          T               32.9  .33 Ml 3.3         4810216
SFTF  002.22 335.4 m E Pg      2012/01/01 09:35:54.6  -0.2 147.4  -7.0              T                                        4810232
SFTF  002.22 335.4 m E Sn      2012/01/01 09:36:15.7  -0.3 150.0  -4.4              T                                        4810233
SFTF  002.22 335.4 m E Sg      2012/01/01 09:36:23.1  -0.3 154.4  0.0               T               15.7  .30 Ml 3.0         4810208
SBF   002.44 162.5 m E P       2012/01/01 09:35:55.1  -0.1                          T                                        4810230
SBF   002.44 162.5 m E Pg      2012/01/01 09:35:58.8  -0.2                          T                                        4810221
SBF   002.44 162.5 m E Sg      2012/01/01 09:36:29.9  -0.4                          T               11.9  .36 Ml 2.8         4810220
FRF   002.64 176.4 m E Pn      2012/01/01 09:35:56.1   0.8                          T                                        4810201
FRF   002.64 176.4 m E Pg      2012/01/01 09:36:02.2  -0.3                          T   001.0                                4806644
FRF   002.64 176.4 m E Sn      2012/01/01 09:36:25.8  -0.2                          T   001.0                                4806645
FRF   002.64 176.4 m E Sg      2012/01/01 09:36:36.5   0.0                          T   001.0        8.5  .26 Ml 2.9         4806646
LASF  002.79 221.5 m E Pn      2012/01/01 09:35:58.0   0.6                          T   001.0                                4806648
LASF  002.79 221.5 m E Pg      2012/01/01 09:36:05.0  -0.3                          T                                        4810225
LASF  002.79 221.5 m E Sn      2012/01/01 09:36:29.5  -0.1                          T                                        4811308
LASF  002.79 221.5 m E Sg      2012/01/01 09:36:41.1  -0.1                          T               16.7  .34 Ml 3.1         4810226
HYF   002.81 293.8 m E Pn      2012/01/01 09:35:58.3   0.6                          T                                        4810193
HYF   002.81 293.8 m E Pg      2012/01/01 09:36:06.1   0.4                          T                                        4810205
HYF   002.81 293.8 m E Sg      2012/01/01 09:36:42.1   0.2                          T                                        4810214
LMR   002.86 178.7 m E Pn      2012/01/01 09:35:58.5   0.3                          T                                        4810200
LMR   002.86 178.7 m E Pg      2012/01/01 09:36:06.9   0.3                          T                                        4810199
LMR   002.86 178.7 m E Sn      2012/01/01 09:36:31.4   0.2                          T                                        4810222
LMR   002.86 178.7 m E Sg      2012/01/01 09:36:42.8  -0.5                          T                6.6  .25 Ml 2.8         4810223
TCF   002.92 273.3 m E Pn      2012/01/01 09:35:59.5   0.3                          T   001.0                                4806663
TCF   002.92 273.3 m E Pg      2012/01/01 09:36:07.7  -0.1                          T                                        4810196
TCF   002.92 273.3 m E Sn      2012/01/01 09:36:32.1  -0.7                          T   001.0                                4806664
TCF   002.92 273.3 m E Sg      2012/01/01 09:36:44.6  -0.7                          T   001.0       11.8  .34 Ml 3.0         4806665
CAF   003.31 249.0 m E Pn      2012/01/01 09:36:04.7   0.2                          T   001.0                                4806637
CAF   003.31 249.0 m E Pg      2012/01/01 09:36:15.1   0.2                          T                                        4810202
CAF   003.31 249.0 m E Sn      2012/01/01 09:36:41.9  -0.2                          T   001.0                                4806638
CAF   003.31 249.0 m E Sg      2012/01/01 09:36:57.0  -0.5                          T   001.0         10  .27 Ml 3.1         4806639
RJF   003.55 257.2 m E Pn      2012/01/01 09:36:08.7   1.1                          T                                        4810235
RJF   003.55 257.2 m E Pg      2012/01/01 09:36:18.2  -1.1                          T                                        4810203
RJF   003.55 257.2 m E Sg      2012/01/01 09:37:04.3  -0.4                          T   001.0       11.4  .43 Ml 2.6         4806631
MTLF  004.13 227.9 m E Pn      2012/01/01 09:36:15.5  -0.2                          T                                        4811307
MTLF  004.13 227.9 m E Pg      2012/01/01 09:36:30.6   0.5                          T                                        4810224
MTLF  004.13 227.9 m E Sg      2012/01/01 09:37:21.8  -1.3                          T   001.0        4.7  .29 Ml 2.9         4806677
PGF   004.09 152.2 m E Pn      2012/01/01 09:36:15.5   0.4                          T   001.0                                4806656
BAIF  004.14 339.8 m E Pn      2012/01/01 09:36:16.4   0.7                          T   001.0                                4806666
BAIF  004.14 339.8 m E Sn      2012/01/01 09:37:00.2  -1.7                          T   001.0         .7  .22 Ml 2.2         4806667
THEF  002.06 352.0 m E Sg      2012/01/01 09:36:17.8  -0.5                          T               14.2  .22 Ml 3.0         4810209
MFF   004.56 277.5 m E Pn      2012/01/01 09:36:22.5   1.1                          T   001.0                                4806654
MFF   004.56 277.5 m E Sn      2012/01/01 09:37:11.3  -0.7                          T   001.0        2.1  .25 Ml 2.9         4806655
LDF   005.05 300.7 m E Pn      2012/01/01 09:36:28.9   0.8                          T                                        4810204
GRR   005.42 296.5 m E Pn      2012/01/01 09:36:33.6   0.5                          T                                        4810234
SGMF  006.45 291.9 m E Pn      2012/01/01 09:36:47.5   0.3                          T   001.0                                4806681
QUIF  006.77 288.2 m E Pn      2012/01/01 09:36:51.8   0.3                          T   001.0                                4806680
GIVF  004.05 345.3 m E Sg      2012/01/01 09:37:20.7   0.1                          T                4.2  .38 Ml 2.7         4811306
LFF   004.18 254.6 m E Sg      2012/01/01 09:37:25.2   0.6                          T                9.6  .42 Ml 2.9         4810219
FLN   005.34 301.3 m E Sn      2012/01/01 09:37:30.6   0.1                          T   001.0        3.9  .34 Ml 2.9         4806643
EPF   005.37 236.1 m E Sn      2012/01/01 09:37:32.0   0.7                          T   001.0         .7  .22 Ml 2.4         4806642
EPF   005.37 236.1 m E Sg      2012/01/01 09:38:02.9   1.2                          T                3.4  .36 Ml 2.9         4810218

.
