EVENT     264366
    Date      Time       Latitude Longitude    Depth    Ndef Nsta Gap    Mag1  N    Mag2  N    Mag3  N   Author         ID
       rms   OT_Error      Smajor Sminor Az        Err   mdist  Mdist     Err        Err        Err      Quality

2011/09/24 00:41:58.7     47.9700    7.4374     10.0      36    8 033  Ml 1.7  5  Md 2.2  2              js067245    264386

      0.60   +-  0.06       1.3    1.0   19.18 +-  0.0    0.24   2.52   +-0.4      +-0.0                 m i ke

SWITZERLAND
Sta     Dist  EvAz     Phase      Date       Time     TRes  Azim  AzRes  Slow  SRes Def   SNR       Amp   Per   Mag1   Mag2       ID
HINF  000.42 248.9 m E Pg      2011/09/24 00:42:06.9  -0.2                          T                                        4760431
HINF  000.42 248.9 m E Pn      2011/09/24 00:42:08.4  -0.2                          T                                        4760407
HINF  000.42 248.9 m E Sg      2011/09/24 00:42:12.7   0.0                          T                2.2  .24                4760424
HINF  000.42 248.9 m E Sn      2011/09/24 00:42:16.2   0.8                          T                1.2  .19        Md 2.2  4760416
CDF   000.46 346.4 m E Pg      2011/09/24 00:42:07.6  -0.1                          T                                        4760432
CDF   000.46 346.4 m E P       2011/09/24 00:42:08.8  -0.1                          T                                        4760418
CDF   000.46 346.4 m E Pn      2011/09/24 00:42:09.7  -0.3                          T                                        4760419
CDF   000.46 346.4 m E Sg      2011/09/24 00:42:14.1   0.3                          T                1.2  .20        Md 2.2  4760425
CDF   000.46 346.4 m E Sn      2011/09/24 00:42:17.2  -0.5                          T                 .6  .16                4760420
HAU   000.73 273.2 m E Pg      2011/09/24 00:42:13.0   0.3                          T                                        4760430
HAU   000.73 273.2 m E Pn      2011/09/24 00:42:13.7   0.1                          T                                        4760421
HAU   000.73 273.2 m E Sg      2011/09/24 00:42:22.5   0.2                          T                2.9  .19                4760429
HAU   000.73 273.2 m E Sn      2011/09/24 00:42:24.2   0.0                          T                2.4  .21                4760423
HAU   000.73 273.2 m E S       2011/09/24 00:42:26.8   0.0                          T                                        4760406
THEF  001.00 285.5 m E Pn      2011/09/24 00:42:16.8  -0.5                          T                                        4760408
THEF  001.00 285.5 m E Pg      2011/09/24 00:42:17.7   0.1                          T                                        4760427
THEF  001.00 285.5 m E Sg      2011/09/24 00:42:30.7   0.1                          T                4.2  .21 Ml 2.1         4760428
PAGF  001.29 297.7 m E Pn      2011/09/24 00:42:19.7  -1.4                          T                                        4760417
PAGF  001.29 297.7 m E Pg      2011/09/24 00:42:23.1   0.4 121.3  4.9               T                                        4760426
PAGF  001.29 297.7 m E Sn      2011/09/24 00:42:37.0  -0.4                          T                                        4760413
PAGF  001.29 297.7 m E Sg      2011/09/24 00:42:40.0   0.5 110.2  -6.3              T                 .3  .21 Ml 1.2         4760409
LOR   002.52 255.2 m E Pg      2011/09/24 00:42:44.9  -0.7  77.4  4.9               T                                        4760410
LOR   002.52 255.2 m E Sn      2011/09/24 00:43:06.2  -0.7                          T                                        4760412
LOR   002.52 255.2 m E Sg      2011/09/24 00:43:17.6  -0.4  71.8  -0.8              T                 .7  .22 Ml 1.8         4760411
SFTF  001.63 279.2 m E Sn      2011/09/24 00:42:45.9   0.4                          T                                        4760422
SFTF  001.63 279.2 m E Sg      2011/09/24 00:42:51.2   1.1                          T                1.4  .20 Ml 1.9         4760414
CABF  001.64 214.6 m E Sg      2011/09/24 00:42:51.3   0.7                          T                 .6  .26 Ml 1.4         4760415

.
EVENT     264367
    Date      Time       Latitude Longitude    Depth    Ndef Nsta Gap    Mag1  N    Mag2  N    Mag3  N   Author         ID
       rms   OT_Error      Smajor Sminor Az        Err   mdist  Mdist     Err        Err        Err      Quality

2011/09/24 02:54:27.5     44.3765    7.2963      4.0 f    17    6 215  Ml 1.6  4  Md 1.7  2              js067245    264387

      0.32   +-  0.19       3.9    1.6   67.14 +-  0.0    0.51   1.30   +-0.2      +-0.0                 m i ke

NORTHERN ITALY
Sta     Dist  EvAz     Phase      Date       Time     TRes  Azim  AzRes  Slow  SRes Def   SNR       Amp   Per   Mag1   Mag2       ID
MBDF  000.51 313.2 m E Pg      2011/09/24 02:54:37.6   0.0                          T                                        4760447
MBDF  000.51 313.2 m E Sg      2011/09/24 02:54:44.7   0.4                          T                                        4760440
MBDF  000.51 313.2 m E Sn      2011/09/24 02:54:48.4   0.5                          T                                Md 1.7  4760437
SBF   000.52 168.9 m E Pg      2011/09/24 02:54:38.0   0.4                          T                                        4760445
SBF   000.52 168.9 m E Sg      2011/09/24 02:54:43.6  -0.9                          T                3.6  .21        Md 1.7  4760444
FRF   000.94 210.1 m E Pg      2011/09/24 02:54:45.3   0.1                          T                                        4760449
FRF   000.94 210.1 m E Pn      2011/09/24 02:54:46.0   0.1                          T                                        4760434
FRF   000.94 210.1 m E Sg      2011/09/24 02:54:57.5   0.0                          T                1.4  .21 Ml 1.7         4760442
FRF   000.94 210.1 m E Sn      2011/09/24 02:54:59.3   0.3                          T                2.6  .26 Ml 1.8         4760435
ORIF  001.15 298.7 m E Pg      2011/09/24 02:54:48.8  -0.3                          T                                        4760433
ORIF  001.15 298.7 m E Sg      2011/09/24 02:55:03.7  -0.3                          T                 .7  .25 Ml 1.3         4760439
LMR   001.19 208.9 m E Pg      2011/09/24 02:54:49.7   0.0                          T                                        4760448
LMR   001.19 208.9 m E P       2011/09/24 02:54:50.6  -0.4                          T                                        4760438
LMR   001.19 208.9 m E Sg      2011/09/24 02:55:05.1   0.0                          T                1.8  .27 Ml 1.7         4760443
SMRF  001.30 252.7 m E Pg      2011/09/24 02:54:52.9   1.0                          T                                        4760446
SMRF  001.30 252.7 m E Sg      2011/09/24 02:55:08.7   0.0                          T                                        4760441
SMRF  001.30 252.7 m E S       2011/09/24 02:55:11.1   0.4                          T                                        4760436

.
EVENT     264368
    Date      Time       Latitude Longitude    Depth    Ndef Nsta Gap    Mag1  N    Mag2  N    Mag3  N   Author         ID
       rms   OT_Error      Smajor Sminor Az        Err   mdist  Mdist     Err        Err        Err      Quality

2011/09/24 04:21:24.4     42.9255   -1.4784      2.0      26    3 149  Ml 0.7  1  Md 1.1  2              js067245    264388

      0.39   +-  0.15       2.6    1.6  124.68 +-  0.0    0.07   1.34   +-         +-0.1                 m i ke

PYRENEES
Sta     Dist  EvAz     Phase      Date       Time     TRes  Azim  AzRes  Slow  SRes Def   SNR       Amp   Per   Mag1   Mag2       ID
SJPF  000.26 044.6 m E Pg      2011/09/24 04:21:29.8   0.2                          T                                        4760463
SJPF  000.26 044.6 m E Sg      2011/09/24 04:21:33.2   0.0                          T                 .8  .16        Md 1.1  4760462
ETSF  000.68 092.0 m E Pg      2011/09/24 04:21:36.8  -0.5                          T                                        4760460
ETSF  000.68 092.0 m E Sg      2011/09/24 04:21:46.1   0.0                          T                                        4760461
ETSF  000.68 092.0 m E Sn      2011/09/24 04:21:48.2  -1.8                          T                 .2  .17        Md 1.0  4760458
EPF   001.34 084.9 m E Pg      2011/09/24 04:21:49.5   0.0                          T                                        4768162
EPF   001.34 084.9 m E Sg      2011/09/24 04:22:06.7   0.0                          T                 .1  .17 Ml  .7         4768163

.
EVENT     264369
    Date      Time       Latitude Longitude    Depth    Ndef Nsta Gap    Mag1  N    Mag2  N    Mag3  N   Author         ID
       rms   OT_Error      Smajor Sminor Az        Err   mdist  Mdist     Err        Err        Err      Quality

2011/09/24 04:22:18.8     44.5559    6.7539      3.0 f    16    7 140  Ml 1.4  4  Md 1.3  1              js067245    264389

      0.21   +-  0.06       1.7     .9   85.50 +-  0.0    0.17   1.23   +-0.3      +-                    m i ke

FRANCE
Sta     Dist  EvAz     Phase      Date       Time     TRes  Azim  AzRes  Slow  SRes Def   SNR       Amp   Per   Mag1   Mag2       ID
MBDF  000.17 004.2 m E Pg      2011/09/24 04:22:22.3  -0.2                          T                                        4760511
MBDF  000.17 004.2 m E Sg      2011/09/24 04:22:25.2   0.2                          T               16.0  .28        Md 1.3  4760510
ORIF  000.72 300.5 m E Pg      2011/09/24 04:22:32.5   0.0                          T                                        4760508
ORIF  000.72 300.5 m E Sg      2011/09/24 04:22:42.3   0.4                          T                 .8  .22                4760509
SBF   000.85 144.5 m E Pg      2011/09/24 04:22:34.8   0.0                          T                                        4768165
SBF   000.85 144.5 m E Sg      2011/09/24 04:22:45.8   0.0                          T                  1  .31                4768164
LPL   000.96 359.1 m E Pg      2011/09/24 04:22:37.0  -0.1                          T                                        4760502
LPL   000.96 359.1 m E Sg      2011/09/24 04:22:50.0   0.4                          T                 .5  .27 Ml 1.1         4760503
FRF   001.00 184.5 m E Pg      2011/09/24 04:22:37.4  -0.1                          T                                        4760504
FRF   001.00 184.5 m E Sg      2011/09/24 04:22:50.6   0.2                          T                 .8  .17 Ml 1.5         4760507
FRF   001.00 184.5 m E S       2011/09/24 04:22:54.1  -0.3                          T                                        4760499
SMRF  001.03 236.0 m E Pg      2011/09/24 04:22:37.7  -0.3                          T                                        4760501
SMRF  001.03 236.0 m E P       2011/09/24 04:22:40.2   0.1                          T                                        4760500
SMRF  001.03 236.0 m E Sg      2011/09/24 04:22:51.2  -0.1                          T                 .5  .23 Ml 1.1         4768166
LMR   001.23 188.3 m E Pg      2011/09/24 04:22:42.2   0.3                          T                                        4760505
LMR   001.23 188.3 m E Sg      2011/09/24 04:22:57.9   0.1                          T                  1  .20 Ml 1.6         4760506

.
EVENT     264930
    Date      Time       Latitude Longitude    Depth    Ndef Nsta Gap    Mag1  N    Mag2  N    Mag3  N   Author         ID
       rms   OT_Error      Smajor Sminor Az        Err   mdist  Mdist     Err        Err        Err      Quality

2011/09/24 04:22:39.1     48.3127    6.6711      5.0 f    16    7 144  Ml 1.7  2  Md 1.6  3              js067245    264950

      0.20   +-  0.06       1.4     .9   14.72 +-  0.0    0.38   1.10   +-0.1      +-0.3                 m i ke

FRANCE
Sta     Dist  EvAz     Phase      Date       Time     TRes  Azim  AzRes  Slow  SRes Def   SNR       Amp   Per   Mag1   Mag2       ID
HAU   000.38 215.2 m E Pg      2011/09/24 04:22:46.5   0.1                          T                                        4768167
HAU   000.38 215.2 m E Sg      2011/09/24 04:22:51.3  -0.2                          T                3.0  .26        Md 1.3  4768168
CDF   000.42 075.9 m E Pg      2011/09/24 04:22:47.1  -0.2                          T                                        4768181
CDF   000.42 075.9 m E Sg      2011/09/24 04:22:52.8   0.0                          T                1.6  .27        Md 1.6  4768182
THEF  000.46 259.7 m E Pg      2011/09/24 04:22:47.7  -0.2                          T                                        4768169
THEF  000.46 259.7 m E Sg      2011/09/24 04:22:53.7  -0.3                          T                3.4  .21                4768170
HINF  000.51 166.1 m E Pg      2011/09/24 04:22:49.2   0.2                          T                                        4768174
HINF  000.51 166.1 m E Sg      2011/09/24 04:22:56.1   0.4                          T                                        4768175
HINF  000.51 166.1 m E Sn      2011/09/24 04:22:59.0  -0.2                          T                3.4  .32        Md 1.8  4768176
PAGF  000.68 291.4 m E Pg      2011/09/24 04:22:52.0   0.2                          T                                        4768178
PAGF  000.68 291.4 m E Sg      2011/09/24 04:23:01.0   0.3                          T                                        4768180
PAGF  000.68 291.4 m E Sn      2011/09/24 04:23:04.0  -0.1                          T                 .3  .18                4768179
MEZF  001.10 280.6 m E Pg      2011/09/24 04:22:59.6   0.1                          T                                        4768172
MEZF  001.10 280.6 m E Sg      2011/09/24 04:23:13.9   0.1                          T                1.8  .23 Ml 1.8         4768173
SFTF  001.10 265.0 m E Pg      2011/09/24 04:22:59.7   0.0                          T                                        4768171
SFTF  001.10 265.0 m E Sg      2011/09/24 04:23:13.5  -0.3                          T                1.5  .24 Ml 1.6         4768177

.
EVENT     264370
    Date      Time       Latitude Longitude    Depth    Ndef Nsta Gap    Mag1  N    Mag2  N    Mag3  N   Author         ID
       rms   OT_Error      Smajor Sminor Az        Err   mdist  Mdist     Err        Err        Err      Quality

2011/09/24 04:48:04.5     44.4545    7.2521      6.0 f    27    9 164  Ml 2.2  6  Md 2.2  4              js067245    264390

      0.40   +-  0.10       2.7    1.4   63.16 +-  0.0    0.44   2.29   +-0.2      +-0.0                 m i ke

NORTHERN ITALY
Sta     Dist  EvAz     Phase      Date       Time     TRes  Azim  AzRes  Slow  SRes Def   SNR       Amp   Per   Mag1   Mag2       ID
MBDF  000.44 308.6 m E Pg      2011/09/24 04:48:13.3   0.2                          T                                        4760542
MBDF  000.44 308.6 m E Sg      2011/09/24 04:48:18.1  -0.9                          T               47.4  .24        Md 2.2  4760541
SBF   000.61 167.4 m E Pg      2011/09/24 04:48:15.8  -0.3                          T                                        4760533
SBF   000.61 167.4 m E Sg      2011/09/24 04:48:23.8  -0.3                          T               13.9  .18        Md 2.2  4760527
FRF   000.99 206.3 m E Pn      2011/09/24 04:48:23.2  -0.1                          T                                        4760534
FRF   000.99 206.3 m E Sg      2011/09/24 04:48:35.9  -0.2                          T                                        4760538
ORIF  001.08 295.8 m E Pn      2011/09/24 04:48:25.1   0.4                          T                                        4760540
ORIF  001.08 295.8 m E P       2011/09/24 04:48:26.7   0.4                          T                                        4760524
ORIF  001.08 295.8 m E Sn      2011/09/24 04:48:38.2  -0.9                          T               10.0  .32 Ml 2.3         4760537
ORIF  001.08 295.8 m E S       2011/09/24 04:48:42.1   0.2                          T                                        4760519
LPG   001.10 341.4 m E Pn      2011/09/24 04:48:25.1  -0.1                          T                                        4760532
LPG   001.10 341.4 m E Sn      2011/09/24 04:48:39.4  -0.5                          T                5.7  .24 Ml 2.2         4760529
LPL   001.12 341.0 m E Pn      2011/09/24 04:48:25.8   0.3                          T                                        4760539
LPL   001.12 341.0 m E P       2011/09/24 04:48:26.8  -0.3                          T                                        4760523
LPL   001.12 341.0 m E Sn      2011/09/24 04:48:40.7   0.4                          T                4.9  .26 Ml 2.1 Md 2.2  4760528
LMR   001.24 205.9 m E Pg      2011/09/24 04:48:27.8   0.1                          T                                        4760522
LMR   001.24 205.9 m E Sn      2011/09/24 04:48:43.4   0.6                          T                7.8  .20 Ml 2.5 Md 2.2  4760530
SMRF  001.30 248.9 m E Pn      2011/09/24 04:48:28.1   0.6                          T                                        4760536
SMRF  001.30 248.9 m E Sg      2011/09/24 04:48:45.8   0.2                          T                3.8  .23 Ml 2.2         4760535
VIVF  001.88 283.2 m E Pn      2011/09/24 04:48:34.9  -0.7                          T                                        4760526
VIVF  001.88 283.2 m E P       2011/09/24 04:48:37.5  -0.2                          T                                        4760525
VIVF  001.88 283.2 m E Sg      2011/09/24 04:49:04.1   0.2                          T                1.8  .29 Ml 2.0         4760520

.
