EVENT     263727
    Date      Time       Latitude Longitude    Depth    Ndef Nsta Gap    Mag1  N    Mag2  N    Mag3  N   Author         ID
       rms   OT_Error      Smajor Sminor Az        Err   mdist  Mdist     Err        Err        Err      Quality

2011/09/09 01:46:59.4     48.3570   -3.0082      2.0      14    7 172  Ml 2.5  3  Md 1.9  3              js067245    263727

      1.55   +-  0.16       3.0    2.3  173.54 +-  0.0    0.18   2.62   +-0.1      +-0.0                 m i ke

FRANCE
Sta     Dist  EvAz     Phase      Date       Time     TRes  Azim  AzRes  Slow  SRes Def   SNR       Amp   Per   Mag1   Mag2       ID
ROSF  000.18 263.4 m E Pg      2011/09/09 01:47:03.1   0.1                          T                                        4752663
ROSF  000.18 263.4 m E Sg      2011/09/09 01:47:05.3  -0.2                          T               74.4  .23        Md 2.0  4752662
SGMF  000.32 108.7 m E Pg      2011/09/09 01:47:05.7   0.2                          T                                        4752661
SGMF  000.32 108.7 m E Sg      2011/09/09 01:47:09.8   0.0                          T                8.9  .24        Md 1.9  4752659
QUIF  000.45 193.5 m E Pg      2011/09/09 01:47:07.9  -0.1                          T                                        4752660
QUIF  000.45 193.5 m E Sg      2011/09/09 01:47:13.5  -0.5                          T                6.5  .22        Md 1.9  4752658
GRR   001.43 087.9 m E Pg      2011/09/09 01:47:26.5   0.5                          T                                        4752656
GRR   001.43 087.9 m E Sg      2011/09/09 01:47:44.9   0.3                          T               10.4  .21 Ml 2.6         4752657
LDF   001.93 081.9 m E Pg      2011/09/09 01:47:35.3  -0.1                          T                                        4752653
LDF   001.93 081.9 m E Sg      2011/09/09 01:48:00.0  -0.3                          T                4.3  .30 Ml 2.3         4752654
MFF   002.62 131.1 m E Pg      2011/09/09 01:47:47.2  -0.7                          T                                        4752652
FLN   001.73 075.5 m E Sg      2011/09/09 01:47:53.8   0.1 248.1  -9.2              T                7.7  .21 Ml 2.6         4752655

.
EVENT     263721
    Date      Time       Latitude Longitude    Depth    Ndef Nsta Gap    Mag1  N    Mag2  N    Mag3  N   Author         ID
       rms   OT_Error      Smajor Sminor Az        Err   mdist  Mdist     Err        Err        Err      Quality

2011/09/09 01:49:03.0     44.7819   10.3923     20.0 f    31    9 091  Ml 3.1  2  Md 2.9  2              js067245    263721

      1.05   +-  0.18       5.2    4.1    4.60 +-  0.0    0.06   4.27   +-0.0      +-0.0                 m i ke

NORTHERN ITALY
Sta     Dist  EvAz     Phase      Date       Time     TRes  Azim  AzRes  Slow  SRes Def   SNR       Amp   Per   Mag1   Mag2       ID
SBF   002.31 247.6 m E Pn      2011/09/09 01:49:39.0   0.6                          T                                        4752800
PGF   002.45 204.8 m E Pn      2011/09/09 01:49:40.5   0.1                          T                                        4752799
PGF   002.45 204.8 m E Sn      2011/09/09 01:50:08.4   0.5                          T                                        4752798
MBDF  002.58 270.0 m E P       2011/09/09 01:49:45.7   0.8                          T                                        4752795
FRF   002.96 246.9 m E Pn      2011/09/09 01:49:47.5   0.4                          T                                        4752803
FRF   002.96 246.9 m E Sn      2011/09/09 01:50:21.9   2.1                          T               12.9  .30 Ml 3.1 Md 2.9  4752802
LMR   003.15 244.0 m E Pn      2011/09/09 01:49:49.5  -0.2                          T                                        4752804
LMR   003.15 244.0 m E Sn      2011/09/09 01:50:25.7   1.3                          T               11.4  .31 Ml 3.0 Md 2.9  4752801
ORIF  003.21 274.0 m E P       2011/09/09 01:49:55.1   1.2                          T                                        4752796
SMRF  003.55 258.6 m E P       2011/09/09 01:49:58.1  -0.4                          T                                        4752797
SMRF  003.55 258.6 m E S       2011/09/09 01:50:39.7  -0.9                          T                                        4752790
CDF   004.22 330.5 m E P       2011/09/09 01:50:07.3  -0.9                          T                                        4752791
CDF   004.22 330.5 m E S       2011/09/09 01:50:55.4  -2.3                          T                                        4752792
HAU   004.27 320.5 m E P       2011/09/09 01:50:08.0  -0.8                          T                                        4752794
HAU   004.27 320.5 m E S       2011/09/09 01:50:58.0  -0.9                          T                                        4752793

.
EVENT     264462
    Date      Time       Latitude Longitude    Depth    Ndef Nsta Gap    Mag1  N    Mag2  N    Mag3  N   Author         ID
       rms   OT_Error      Smajor Sminor Az        Err   mdist  Mdist     Err        Err        Err      Quality

2011/09/09 02:17:18.6     46.3939    2.6836      2.0      19   10 093  Ml 1.9  5  Md 1.9  3              js067245    264482

      0.21   +-  0.05       1.4     .7  133.48 +-  0.0    0.20   1.97   +-0.2      +-0.1                 m i ke

FRANCE
Sta     Dist  EvAz     Phase      Date       Time     TRes  Azim  AzRes  Slow  SRes Def   SNR       Amp   Per   Mag1   Mag2       ID
BGF   000.20 034.4 m E Pg      2011/09/09 02:17:22.7   0.0                          T                                        4760298
BGF   000.20 034.4 m E Sg      2011/09/09 02:17:25.5   0.1                          T               12.4  .22        Md 2.0  4760288
TCF   000.34 252.3 m E Pg      2011/09/09 02:17:25.5   0.1                          T                                        4760299
TCF   000.34 252.3 m E Sg      2011/09/09 02:17:30.1   0.2                          T                3.7  .18        Md 1.8  4760283
AVF   000.61 049.1 m E Pg      2011/09/09 02:17:30.0  -0.2                          T                                        4760296
AVF   000.61 049.1 m E Sg      2011/09/09 02:17:38.1   0.0                          T                2.6  .27                4760285
SMF   000.84 072.1 m E Pg      2011/09/09 02:17:34.8   0.4                          T                                        4760282
SMF   000.84 072.1 m E Sn      2011/09/09 02:17:48.2   0.2                          T                5.4  .20                4760286
SSF   000.88 040.0 m E Pg      2011/09/09 02:17:35.0  -0.1                          T                                        4760295
SSF   000.88 040.0 m E Sg      2011/09/09 02:17:46.5   0.1                          T                2.3  .19 Ml 1.9         4760284
LOR   001.19 042.3 m E Pg      2011/09/09 02:17:40.8  -0.2                          T                                        4760294
LOR   001.19 042.3 m E Sg      2011/09/09 02:17:56.0  -0.3                          T                4.2  .28 Ml 2.1         4760293
RJF   001.36 217.2 m E Pg      2011/09/09 02:17:44.3   0.2                          T                                        4760280
RJF   001.36 217.2 m E Sg      2011/09/09 02:18:01.5  -0.2                          T                1.9  .28 Ml 1.5         4760292
CAF   001.53 196.7 m E Pg      2011/09/09 02:17:47.3   0.1                          T                                        4760279
CAF   001.53 196.7 m E Sg      2011/09/09 02:18:06.9  -0.1                          T                1.4  .18 Ml 2.0         4760291
HYF   000.88 358.0 m E Sn      2011/09/09 02:17:49.5   0.5                          T                                        4760287
MFF   001.97 277.1 m E Pg      2011/09/09 02:17:55.1  -0.1                          T                                        4760281
MFF   001.97 277.1 m E Sg      2011/09/09 02:18:20.1  -0.4                          T                1.2  .25 Ml 2.0         4760290

.
EVENT     263722
    Date      Time       Latitude Longitude    Depth    Ndef Nsta Gap    Mag1  N    Mag2  N    Mag3  N   Author         ID
       rms   OT_Error      Smajor Sminor Az        Err   mdist  Mdist     Err        Err        Err      Quality

2011/09/09 02:39:16.8     44.6541   10.2669     20.0 f    27   10 092  Ml 2.6  9                         js067245    263722

      0.52   +-  0.11       2.8    2.1   58.28 +-  0.0    0.11   4.31   +-0.2                            m i ke

NORTHERN ITALY
Sta     Dist  EvAz     Phase      Date       Time     TRes  Azim  AzRes  Slow  SRes Def   SNR       Amp   Per   Mag1   Mag2       ID
PGF   002.30 204.1 m E Pn      2011/09/09 02:39:52.0   0.0                          T                                        4760256
SBF   002.18 249.7 m E P       2011/09/09 02:39:53.0   0.1                          T                                        4760255
SBF   002.18 249.7 m E Sn      2011/09/09 02:40:16.0   0.9                          T               13.2  .36 Ml 2.8         4760240
FRF   002.83 248.5 m E Pn      2011/09/09 02:40:01.1   2.0                          T                                        4760257
FRF   002.83 248.5 m E Sn      2011/09/09 02:40:31.1   0.6                          T                4.6  .38 Ml 2.5         4760242
LMR   003.02 245.4 m E Pn      2011/09/09 02:40:03.1   1.5                          T                                        4760254
LMR   003.02 245.4 m E Sn      2011/09/09 02:40:33.7  -1.3                          T                5.1  .30 Ml 2.7         4760241
MBDF  002.49 272.9 m E Pg      2011/09/09 02:40:03.4   0.0                          T                                        4760251
MBDF  002.49 272.9 m E Sn      2011/09/09 02:40:23.5   0.8                          T                2.5  .28 Ml 2.3         4760245
LPG   002.63 289.9 m E Pg      2011/09/09 02:40:05.7  -0.4                          T                                        4760253
LPG   002.63 289.9 m E Sn      2011/09/09 02:40:26.7   0.6                          T                9.4  .48 Ml 2.6         4760243
ORIF  003.13 276.4 m E P       2011/09/09 02:40:06.5   0.0                          T                                        4760252
ORIF  003.13 276.4 m E Sn      2011/09/09 02:40:39.0   1.0                          T                4.8  .47 Ml 2.5         4760244
HINF  003.95 324.4 m E Pn      2011/09/09 02:40:13.8  -0.6                          T                                        4760249
HINF  003.95 324.4 m E Sn      2011/09/09 02:40:57.5   0.1                          T                2.7  .38 Ml 2.5         4760246
CDF   004.29 332.3 m E Pn      2011/09/09 02:40:18.8  -0.3                          T                                        4760258
CDF   004.29 332.3 m E Sn      2011/09/09 02:41:05.4  -0.1                          T                2.2  .24 Ml 2.8         4760248
HAU   004.31 322.4 m E Pn      2011/09/09 02:40:18.9  -0.5                          T                                        4760250
HAU   004.31 322.4 m E Sn      2011/09/09 02:41:06.1   0.1                          T                3.1  .28 Ml 2.6         4760247

.
EVENT     263815
    Date      Time       Latitude Longitude    Depth    Ndef Nsta Gap    Mag1  N    Mag2  N    Mag3  N   Author         ID
       rms   OT_Error      Smajor Sminor Az        Err   mdist  Mdist     Err        Err        Err      Quality

2011/09/09 02:46:11.7     47.5119    7.5846     14.8      14    3 087  Ml 1.6  2  Md 1.6  1              js067245    263815

      0.39   +-  0.09       1.8    1.3  171.90 +-  1.0    0.19   1.17   +-0.1      +-                    m i ke

SWITZERLAND
Sta     Dist  EvAz     Phase      Date       Time     TRes  Azim  AzRes  Slow  SRes Def   SNR       Amp   Per   Mag1   Mag2       ID
HINF  000.58 301.9 m E Pg      2011/09/09 02:46:22.9  -0.1                          T                                        4760308
HINF  000.58 301.9 m E Pn      2011/09/09 02:46:24.2   0.1                          T                                        4760309
HINF  000.58 301.9 m E Sg      2011/09/09 02:46:30.6  -0.3                          T                                        4752718
HINF  000.58 301.9 m E Sn      2011/09/09 02:46:33.0   0.2                          T                3.8  .27        Md 1.6  4752719
CDF   000.92 347.2 m E Pg      2011/09/09 02:46:28.9  -0.4                          T                                        4752805
CDF   000.92 347.2 m E Sg      2011/09/09 02:46:41.8   0.3                          T                1.9  .27 Ml 1.7         4752806
HAU   000.97 301.1 m E Pg      2011/09/09 02:46:30.2   0.1                          T                                        4752721
HAU   000.97 301.1 m E Sg      2011/09/09 02:46:43.6   0.8                          T                1.9  .22 Ml 1.5         4752720

.
EVENT     263724
    Date      Time       Latitude Longitude    Depth    Ndef Nsta Gap    Mag1  N    Mag2  N    Mag3  N   Author         ID
       rms   OT_Error      Smajor Sminor Az        Err   mdist  Mdist     Err        Err        Err      Quality

2011/09/09 05:12:13.7     44.5715   10.3369     20.0 f    30   10 109  Ml 2.7  6                         js067245    263724

      1.15   +-  0.29       6.5    5.2   91.63 +-  0.0    0.19   4.41   +-0.1                            m i ke

NORTHERN ITALY
Sta     Dist  EvAz     Phase      Date       Time     TRes  Azim  AzRes  Slow  SRes Def   SNR       Amp   Per   Mag1   Mag2       ID
SBF   002.20 252.3 m E Pn      2011/09/09 05:12:48.4   0.9                          T                                        4752723
SBF   002.20 252.3 m E P       2011/09/09 05:12:50.4   0.4                          T                                        4752820
PGF   002.24 206.1 m E P       2011/09/09 05:12:50.9   0.2                          T                                        4752823
PGF   002.24 206.1 m E S       2011/09/09 05:13:19.8   1.5                          T                                        4752819
LPL   002.72 291.6 m E Pn      2011/09/09 05:12:55.8   0.9                          T                                        4752827
LPL   002.72 291.6 m E P       2011/09/09 05:12:58.0   0.3                          T                                        4752808
LPL   002.72 291.6 m E S       2011/09/09 05:13:31.4   0.7                          T                4.5  .36                4752826
LPL   002.72 291.6 m E Sg      2011/09/09 05:13:34.4  -5.2                          T                7.4  .35 Ml 2.7         4752807
FRF   002.85 250.5 m E Pn      2011/09/09 05:12:56.0  -0.1                          T                                        4752824
FRF   002.85 250.5 m E P       2011/09/09 05:12:57.3  -1.8                          T                                        4752822
FRF   002.85 250.5 m E Sn      2011/09/09 05:13:28.6   0.8                          T                2.9  .24 Ml 2.5         4752818
FRF   002.85 250.5 m E S       2011/09/09 05:13:32.6  -0.8                          T                                        4752817
FRF   002.85 250.5 m E Sg      2011/09/09 05:13:39.8  -3.4                          T                                        4752816
LMR   003.03 247.2 m E Pn      2011/09/09 05:12:59.5   0.9                          T                                        4752821
LMR   003.03 247.2 m E Sn      2011/09/09 05:13:34.0   1.9                          T                3.0  .26 Ml 2.5         4752722
LMR   003.03 247.2 m E S       2011/09/09 05:13:36.2  -1.8                          T                                        4752815
ORIF  003.19 277.8 m E P       2011/09/09 05:13:04.8   0.5                          T                                        4752828
SMRF  003.47 261.8 m E Pn      2011/09/09 05:13:07.6   2.8                          T                                        4752825
HINF  004.05 324.5 m E Pn      2011/09/09 05:13:13.3   0.7                          T                                        4752812
HINF  004.05 324.5 m E Sn      2011/09/09 05:13:58.3   1.7                          T                2.9  .23 Ml 2.8         4752811
CDF   004.38 332.3 m E Pn      2011/09/09 05:13:17.0  -0.3                          T                                        4752814
CDF   004.38 332.3 m E Sn      2011/09/09 05:14:05.7   1.0                          T                2.5  .25 Ml 2.8         4752809
HAU   004.41 322.6 m E Pn      2011/09/09 05:13:18.1   0.6                          T                                        4752813
HAU   004.41 322.6 m E Sn      2011/09/09 05:14:06.9   1.7                          T                3.9  .28 Ml 2.7         4752810

.
