BEGIN GSE2.0
MSG_TYPE DATA
MSG_ID 09-MAR-1110:02:32  FRA_NDC
E-MAIL
DATA_TYPE BULLETIN
Reviewed Bulletin (REB) # P2011-009  from French NDC for regional phases     PERIOD 02 MAR 2011 TO 08 MAR 2011 C M., J-P S
EVENT     256562
    Date      Time       Latitude Longitude    Depth    Ndef Nsta Gap    Mag1  N    Mag2  N    Mag3  N   Author         ID
       rms   OT_Error      Smajor Sminor Az        Err   mdist  Mdist     Err        Err        Err      Quality

2011/03/02 04:19:27.4     44.1554    7.2259      2.0      20    9 166  Ml 2.1  7  Md 2.1  3              js067245    256582

      0.20   +-  0.06       1.4     .7   80.52 +-  0.0    0.33   1.96   +-0.4      +-0.1                 m i ke

NORTHERN ITALY
Sta     Dist  EvAz     Phase      Date       Time     TRes  Azim  AzRes  Slow  SRes Def   SNR       Amp   Per   Mag1   Mag2       ID
SBF   000.33 152.6 m E Pg      2011/03/02 04:19:34.0   0.1                          T                                        4655913
SBF   000.33 152.6 m E Sg      2011/03/02 04:19:37.8  -0.5                          T               43.5  .22        Md 2.1  4655910
MBDF  000.66 330.5 m E Pg      2011/03/02 04:19:39.9  -0.1                          T                                        4655915
MBDF  000.66 330.5 m E Sg      2011/03/02 04:19:48.8   0.2                          T               25.9  .42        Md 2.0  4655911
FRF   000.73 215.4 m E Pg      2011/03/02 04:19:41.1   0.0                          T                                        4655914
FRF   000.73 215.4 m E Sg      2011/03/02 04:19:50.1  -0.5                          T               10.1  .29        Md 2.1  4655909
LMR   000.97 212.6 m E Pg      2011/03/02 04:19:45.6   0.0                          T                                        4655912
LMR   000.97 212.6 m E Sg      2011/03/02 04:19:57.6  -0.6                          T               20.0  .18 Ml 2.9         4655908
SMRF  001.20 262.0 m E Pg      2011/03/02 04:19:49.9   0.0                          T                                        4655900
SMRF  001.20 262.0 m E Sg      2011/03/02 04:20:05.5   0.0                          T                9.6  .31 Ml 2.4         4655904
ORIF  001.23 308.9 m E Pg      2011/03/02 04:19:50.4   0.0                          T                                        4655902
ORIF  001.23 308.9 m E Sg      2011/03/02 04:20:06.3  -0.1                          T                1.5  .31 Ml 1.6         4655907
LPL   001.41 345.7 m E Pg      2011/03/02 04:19:53.6  -0.3                          T                                        4655903
LPL   001.41 345.7 m E Sg      2011/03/02 04:20:12.0   0.0                          T                1.8  .24 Ml 1.9         4655906
LPG   001.38 346.0 m E Pg      2011/03/02 04:19:53.7   0.1                          T                                        4655901
LPG   001.38 346.0 m E Sg      2011/03/02 04:20:11.6   0.1                          T                3.2  .31 Ml 2.0         4655905
VIVF  001.96 291.9 m E Pn      2011/03/02 04:19:59.9   0.0                          T                                        4655899
VIVF  001.96 291.9 m E Sn      2011/03/02 04:20:23.4  -0.2                          T                1.2  .21 Ml 1.9         4655898

.
EVENT     256551
    Date      Time       Latitude Longitude    Depth    Ndef Nsta Gap    Mag1  N    Mag2  N    Mag3  N   Author         ID
       rms   OT_Error      Smajor Sminor Az        Err   mdist  Mdist     Err        Err        Err      Quality

2011/03/02 06:27:35.1     47.6429   -3.1761      9.8      22    7 239  Ml 2.1  4  Md 2.1  3              js067245    256571

      0.59   +-  0.18       3.3    1.7   42.87 +-  1.1    0.27   2.32   +-0.2      +-0.0                 m i ke

FRANCE
Sta     Dist  EvAz     Phase      Date       Time     TRes  Azim  AzRes  Slow  SRes Def   SNR       Amp   Per   Mag1   Mag2       ID
QUIF  000.27 001.5 m E Pg      2011/03/02 06:27:40.3  -0.4                          T                                        4655880
QUIF  000.27 001.5 m E Sg      2011/03/02 06:27:44.7   0.1                          T               16.8  .20        Md 2.1  4655875
ROSF  000.70 354.6 m E Pg      2011/03/02 06:27:47.9  -0.4                          T                                        4655879
ROSF  000.70 354.6 m E P       2011/03/02 06:27:49.7   0.0                          T                                        4656381
ROSF  000.70 354.6 m E Sg      2011/03/02 06:27:57.6   0.1                          T                                        4656382
ROSF  000.70 354.6 m E Sn      2011/03/02 06:27:59.5  -0.2                          T               18.8  .20        Md 2.1  4655877
SGMF  000.74 034.0 m E Pg      2011/03/02 06:27:49.5   0.3                          T                                        4655878
SGMF  000.74 034.0 m E P       2011/03/02 06:27:50.6   0.1                          T                                        4656383
SGMF  000.74 034.0 m E Sg      2011/03/02 06:27:59.1   0.2                          T                                        4656384
SGMF  000.74 034.0 m E Sn      2011/03/02 06:28:00.7  -0.1                          T               11.3  .35        Md 2.1  4655876
GRR   001.73 063.5 m E Pn      2011/03/02 06:28:03.6   0.0                          T                                        4656389
GRR   001.73 063.5 m E P       2011/03/02 06:28:05.6  -0.1                          T                                        4656388
GRR   001.73 063.5 m E Pg      2011/03/02 06:28:07.3   0.0                          T                                        4656387
GRR   001.73 063.5 m E Sg      2011/03/02 06:28:29.6   0.0                          T                3.0  .20 Ml 2.2         4656393
FLN   002.12 057.1 m E Pg      2011/03/02 06:28:14.7   0.2                          T                                        4656385
FLN   002.12 057.1 m E Sg      2011/03/02 06:28:41.9   0.0                          T                1.2  .16 Ml 2.0         4656392
LDF   002.26 063.9 m E Pg      2011/03/02 06:28:17.0  -0.1                          T                                        4656386
LDF   002.26 063.9 m E Sg      2011/03/02 06:28:46.1   0.0                          T                 .9  .19 Ml 1.9         4656391
MFF   002.32 115.6 m E Pg      2011/03/02 06:28:18.1   0.0                          T                                        4656390
MFF   002.32 115.6 m E Sg      2011/03/02 06:28:47.8  -0.1                          T                1.3  .19 Ml 2.3         4656394

.
EVENT     256565
    Date      Time       Latitude Longitude    Depth    Ndef Nsta Gap    Mag1  N    Mag2  N    Mag3  N   Author         ID
       rms   OT_Error      Smajor Sminor Az        Err   mdist  Mdist     Err        Err        Err      Quality

2011/03/02 10:29:13.8     41.9450   20.1690      2.0     153   17 023  Ml 3.9  6                         js067245    256585

      1.05   +-  0.08       2.5    1.7   35.44 +-  0.0    0.64  19.69   +-0.2                            m i ke

ALBANIA
Sta     Dist  EvAz     Phase      Date       Time     TRes  Azim  AzRes  Slow  SRes Def   SNR       Amp   Per   Mag1   Mag2       ID
PGF   008.31 277.9 m E Pn      2011/03/02 10:31:12.8  -0.1                          T                                        4656150
SBF   009.54 285.9 m E Pn      2011/03/02 10:31:29.6   0.0                          T                                        4656151
FRF   010.08 283.8 m E Pn      2011/03/02 10:31:36.8   0.0                          T                                        4656153
LMR   010.16 282.4 m E Pn      2011/03/02 10:31:38.0   0.0                          T                                        4656152
MBDF  010.15 290.4 m E Pn      2011/03/02 10:31:38.4   0.5                          T                                        4656139
MBDF  010.15 290.4 m E Sn      2011/03/02 10:33:26.0   0.1                          T                7.9  .63 Ml 3.8         4656140
LPL   010.36 294.7 m E Pn      2011/03/02 10:31:40.6  -0.3                          T                                        4656156
LPL   010.36 294.7 m E Sn      2011/03/02 10:33:30.9   0.0                          T                7.8  .39 Ml 4.1         4656164
LPG   010.34 294.6 m E Pn      2011/03/02 10:31:40.7  -0.1                          T                                        4656155
LPG   010.34 294.6 m E Sn      2011/03/02 10:33:30.7   0.1                          T                6.4  .53 Ml 3.9         4656163
ORIF  010.81 290.8 m E Pn      2011/03/02 10:31:47.0   0.1                          T                                        4656157
SMRF  010.89 285.6 m E Pn      2011/03/02 10:31:47.8  -0.1                          T                                        4656154
HINF  011.12 306.4 m E Pn      2011/03/02 10:31:50.9  -0.1                          T                                        4656146
CABF  011.12 299.6 m E Pn      2011/03/02 10:31:51.1   0.0                          T                                        4656147
LANF  011.17 313.2 m E Pn      2011/03/02 10:31:51.6  -0.1                          T                                        4656142
CDF   011.16 309.8 m E Pn      2011/03/02 10:31:51.6   0.0                          T                                        4656141
HAU   011.51 306.5 m E Pn      2011/03/02 10:31:56.2  -0.1                          T                                        4656145
SMF   012.60 297.4 m E Pn      2011/03/02 10:32:11.1  -0.1                          T                                        4656149
LOR   012.78 300.1 m E Pn      2011/03/02 10:32:13.4  -0.1 118.0  9.4               T                                        4656144
LOR   012.78 300.1 m E Sn      2011/03/02 10:34:28.3  -0.2                          T                4.4  .45 Ml 4.0         4656143
AVF   012.97 297.6 m E Pn      2011/03/02 10:32:16.1   0.0                          T                                        4656148

.
EVENT     256588
    Date      Time       Latitude Longitude    Depth    Ndef Nsta Gap    Mag1  N    Mag2  N    Mag3  N   Author         ID
       rms   OT_Error      Smajor Sminor Az        Err   mdist  Mdist     Err        Err        Err      Quality

2011/03/02 13:08:56.0     43.0146   -1.4504      2.0      12    2 137  Ml 1.7  1  Md 1.4  2              js067245    256608

      0.81   +-  0.23       5.3    3.7   81.91 +-  0.0    0.16   1.31   +-         +-0.0                 m i ke

PYRENEES
Sta     Dist  EvAz     Phase      Date       Time     TRes  Azim  AzRes  Slow  SRes Def   SNR       Amp   Per   Mag1   Mag2       ID
SJPF  000.19 059.1 m E Pg      2011/03/02 13:09:00.2   0.3                          T                                        4656244
SJPF  000.19 059.1 m E Sg      2011/03/02 13:09:03.5   0.9                          T                4.8  .21        Md 1.3  4656243
EPF   001.31 088.7 m E Pg      2011/03/02 13:09:20.5  -0.1                          T                                        4656242
EPF   001.31 088.7 m E Sg      2011/03/02 13:09:38.4   0.9                          T                1.7  .34 Ml 1.7 Md 1.4  4656240

.
EVENT     256585
    Date      Time       Latitude Longitude    Depth    Ndef Nsta Gap    Mag1  N    Mag2  N    Mag3  N   Author         ID
       rms   OT_Error      Smajor Sminor Az        Err   mdist  Mdist     Err        Err        Err      Quality

2011/03/02 14:03:28.7     48.0476    6.4272       .0 f     9    5 114  Ml 2.0  1  Md 1.8  3              js067245    256605

      0.61   +-  0.07       1.9    1.2    4.50 +-  0.0    0.07   0.94   +-         +-0.0                 m i km

FRANCE
Sta     Dist  EvAz     Phase      Date       Time     TRes  Azim  AzRes  Slow  SRes Def   SNR       Amp   Per   Mag1   Mag2       ID
HAU   000.07 231.7 m E Pg      2011/03/02 14:03:30.4  -0.1                          T                                        4656250
HAU   000.07 231.7 m E Sg      2011/03/02 14:03:31.5  -0.2                          T               56.5  .76        Md 1.8  4656251
THEF  000.34 302.1 m E Pg      2011/03/02 14:03:35.6  -0.1                          T                                        4656395
HINF  000.37 128.7 m E Pg      2011/03/02 14:03:36.1   0.0                          T                                        4656248
HINF  000.37 128.7 m E Sg      2011/03/02 14:03:41.4   0.1                          T                9.9  .24        Md 1.8  4656249
CDF   000.67 056.9 m E Pg      2011/03/02 14:03:42.0   0.1                          T                                        4656247
CDF   000.67 056.9 m E Sg      2011/03/02 14:03:50.6  -0.3                          T                3.6  .26        Md 1.8  4656252
SFTF  000.94 280.1 m E Pg      2011/03/02 14:03:46.8   0.1  97.4  -1.7              T                                        4656246
SFTF  000.94 280.1 m E Sg      2011/03/02 14:03:59.2   0.1 105.8  6.7               T                5.0  .31 Ml 2.0         4656245

.
EVENT     256586
    Date      Time       Latitude Longitude    Depth    Ndef Nsta Gap    Mag1  N    Mag2  N    Mag3  N   Author         ID
       rms   OT_Error      Smajor Sminor Az        Err   mdist  Mdist     Err        Err        Err      Quality

2011/03/02 15:32:20.6     48.0387    6.4203       .0 f     9    5 112  Ml 1.9  1  Md 1.6  3              js067245    256606

      0.85   +-  0.12       3.8    2.3    6.20 +-  0.0    0.06   0.94   +-         +-0.0                 m i km

FRANCE
Sta     Dist  EvAz     Phase      Date       Time     TRes  Azim  AzRes  Slow  SRes Def   SNR       Amp   Per   Mag1   Mag2       ID
HAU   000.06 235.6 m E Pg      2011/03/02 15:32:22.0  -0.1                          T                                        4656258
HAU   000.06 235.6 m E Sg      2011/03/02 15:32:23.5   0.3                          T               83.1  .38        Md 1.6  4656254
THEF  000.34 303.7 m E Pg      2011/03/02 15:32:27.4  -0.1                          T                                        4656396
HINF  000.37 127.2 m E Pg      2011/03/02 15:32:28.1   0.1                          T                                        4656257
HINF  000.37 127.2 m E Sg      2011/03/02 15:32:33.2   0.1                          T                2.2  .15        Md 1.6  4656253
CDF   000.68 056.5 m E Pg      2011/03/02 15:32:34.0   0.1                          T                                        4656260
CDF   000.68 056.5 m E Sg      2011/03/02 15:32:42.5  -0.5                          T                1.3  .22        Md 1.6  4656256
SFTF  000.94 280.7 m E Pg      2011/03/02 15:32:38.6   0.1 106.7  7.0               T                                        4656259
SFTF  000.94 280.7 m E Sg      2011/03/02 15:32:50.9  -0.1                          T                3.4  .27 Ml 1.9         4656255

.
EVENT     256587
    Date      Time       Latitude Longitude    Depth    Ndef Nsta Gap    Mag1  N    Mag2  N    Mag3  N   Author         ID
       rms   OT_Error      Smajor Sminor Az        Err   mdist  Mdist     Err        Err        Err      Quality

2011/03/02 20:08:12.7     47.9722    6.5292     15.0      16    8 091  Ml 1.6  3  Md 1.6  3              js067245    256607

      0.85   +-  0.09       2.1    1.5   32.89 +-  0.0    0.13   1.39   +-0.3      +-0.0                 m i ke

FRANCE
Sta     Dist  EvAz     Phase      Date       Time     TRes  Azim  AzRes  Slow  SRes Def   SNR       Amp   Per   Mag1   Mag2       ID
HAU   000.13 285.4 m E Pg      2011/03/02 20:08:16.7   0.2                          T                                        4656268
HAU   000.13 285.4 m E Sg      2011/03/02 20:08:19.0   0.0                          T               13.6  .24        Md 1.7  4656262
HINF  000.27 125.4 m E Pg      2011/03/02 20:08:18.7   0.1                          T                                        4656267
HINF  000.27 125.4 m E Sg      2011/03/02 20:08:22.7   0.1                          T               10.8  .18        Md 1.6  4656261
THEF  000.44 305.7 m E Pg      2011/03/02 20:08:21.4  -0.2                          T                                        4656266
THEF  000.44 305.7 m E Sg      2011/03/02 20:08:27.8   0.1                          T               10.5  .24        Md 1.7  4656265
CDF   000.67 048.3 m E Pg      2011/03/02 20:08:25.6   0.0                          T                                        4656275
CDF   000.67 048.3 m E Sg      2011/03/02 20:08:34.4  -0.1                          T                2.2  .26                4656264
PAGF  000.79 317.6 m E Pg      2011/03/02 20:08:27.8   0.0 132.6  -4.5              T                                        4656274
PAGF  000.79 317.6 m E Sg      2011/03/02 20:08:38.3   0.0                          T                 .5  .22                4656276
SFTF  001.03 283.7 m E Pg      2011/03/02 20:08:32.1   0.0 110.8  8.2               T                                        4656272
SFTF  001.03 283.7 m E Sg      2011/03/02 20:08:45.3  -0.2                          T                2.5  .20 Ml 1.9         4656263
MEZF  001.12 298.8 m E Pg      2011/03/02 20:08:33.9   0.0                          T                                        4656273
MEZF  001.12 298.8 m E Sg      2011/03/02 20:08:48.5   0.0 118.1  0.5               T                2.4  .37 Ml 1.7         4656270
CABF  001.39 192.6 m E Pg      2011/03/02 20:08:39.0   0.0                          T                                        4656271
CABF  001.39 192.6 m E Sg      2011/03/02 20:08:57.0  -0.1                          T                 .5  .26 Ml 1.3         4656269

.
EVENT     256589
    Date      Time       Latitude Longitude    Depth    Ndef Nsta Gap    Mag1  N    Mag2  N    Mag3  N   Author         ID
       rms   OT_Error      Smajor Sminor Az        Err   mdist  Mdist     Err        Err        Err      Quality

2011/03/02 22:10:13.0     43.0765    -.7375      2.0      20    3 078  Ml 1.5  1  Md 1.4  2              js067245    256609

      0.42   +-  0.08       1.7    1.3  166.06 +-  0.0    0.03   2.15   +-         +-0.1                 m i ke

PYRENEES
Sta     Dist  EvAz     Phase      Date       Time     TRes  Azim  AzRes  Slow  SRes Def   SNR       Amp   Per   Mag1   Mag2       ID
SJPF  000.36 276.0 m E Pg      2011/03/02 22:10:19.5  -0.5                          T                                        4656280
SJPF  000.36 276.0 m E Sg      2011/03/02 22:10:24.6  -0.1                          T               10.8  .35        Md 1.5  4656277
EPF   000.79 093.0 m E Pg      2011/03/02 22:10:28.3   0.3                          T                                        4656279
EPF   000.79 093.0 m E Sg      2011/03/02 22:10:38.4   0.1                          T                1.8  .24        Md 1.3  4656278
LFF   002.15 029.3 m E Pg      2011/03/02 22:10:52.8   0.0                          T                                        4656281
LFF   002.15 029.3 m E Sg      2011/03/02 22:11:20.5   0.0                          T                1.1  .35 Ml 1.5         4656282

.
