EVENT     258742
    Date      Time       Latitude Longitude    Depth    Ndef Nsta Gap    Mag1  N    Mag2  N    Mag3  N   Author         ID
       rms   OT_Error      Smajor Sminor Az        Err   mdist  Mdist     Err        Err        Err      Quality

2011/04/28 21:03:03.5     44.6258   10.1001     10.0 f    64   27 079  Ml 2.8 19                         js067245    258742

      1.07   +-  0.12       2.8    2.3   59.69 +-  0.0    0.20   6.13   +-0.2                            m i ke

NORTHERN ITALY
Sta     Dist  EvAz     Phase      Date       Time     TRes  Azim  AzRes  Slow  SRes Def   SNR       Amp   Per   Mag1   Mag2       ID
SBF   002.06 249.2 m E Pn      2011/04/28 21:03:36.4  -0.2                          T   001.0                                4681610
SBF   002.06 249.2 m E Sn      2011/04/28 21:04:01.8   1.0                          T               31.8  .28 Ml 3.3         4681725
PGF   002.23 201.4 m E Pn      2011/04/28 21:03:38.2  -0.7                          T   001.0                                4681609
PGF   002.23 201.4 m E Sn      2011/04/28 21:04:04.2  -0.6                          T                8.8  .32 Ml 2.9         4681726
MBDF  002.38 273.6 m E Pn      2011/04/28 21:03:41.2   0.2                          T   001.0                                4681617
MBDF  002.38 273.6 m E Sn      2011/04/28 21:04:09.2   0.7                          T   001.0       35.1  .56 Ml 3.1         4681618
LPL   002.55 291.6 m E Pn      2011/04/28 21:03:42.9  -0.5                          T   001.0                                4681607
LPL   002.55 291.6 m E Sn      2011/04/28 21:04:13.0   0.4                          T   001.0       18.9  .40 Ml 3.0         4681608
LPG   002.53 291.3 m E Pn      2011/04/28 21:03:43.3   0.1                          T                                        4681728
LPG   002.53 291.3 m E P       2011/04/28 21:03:46.1   0.2                          T                                        4681729
LPG   002.53 291.3 m E Sn      2011/04/28 21:04:12.6   0.4                          T                6.1  .33 Ml 2.6         4681722
FRF   002.71 248.0 m E Pn      2011/04/28 21:03:45.4   0.1                          T   001.0                                4681599
FRF   002.71 248.0 m E Sn      2011/04/28 21:04:16.6   0.5                          T   001.0        6.4  .24 Ml 2.8         4681600
LMR   002.90 244.8 m E Pn      2011/04/28 21:03:47.1  -0.8                          T                                        4681727
LMR   002.90 244.8 m E Sn      2011/04/28 21:04:21.1   0.4                          T               13.9  .37 Ml 3.0         4681724
ORIF  003.02 277.0 m E Pn      2011/04/28 21:03:50.0   0.3                          T                                        4681730
ORIF  003.02 277.0 m E P       2011/04/28 21:03:52.9   0.2                          T   001.0                                4681620
ORIF  003.02 277.0 m E Sn      2011/04/28 21:04:24.2   0.5                          T   001.0       14.4  .48 Ml 2.9         4681621
SMRF  003.31 260.3 m E Pn      2011/04/28 21:03:54.9   1.3                          T   001.0                                4681624
SMRF  003.31 260.3 m E Sn      2011/04/28 21:04:31.4   0.7                          T               10.3  .55 Ml 2.8         4681723
CABF  003.45 306.6 m E Pn      2011/04/28 21:03:55.8   0.3                          T   001.0                                4681613
CABF  003.45 306.6 m E Sn      2011/04/28 21:04:34.1   0.2                          T   001.0        5.7  .52 Ml 2.6         4681614
HINF  003.91 325.9 m E Pn      2011/04/28 21:04:00.9  -0.8                          T   001.0                                4681615
HINF  003.91 325.9 m E Sn      2011/04/28 21:04:44.6  -0.3                          T   001.0        6.2  .44 Ml 2.8         4681616
VIVF  003.87 275.3 m E Pn      2011/04/28 21:04:01.6   0.4                          T   001.0                                4681622
VIVF  003.87 275.3 m E Sn      2011/04/28 21:04:44.2   0.1                          T   001.0        3.3  .36 Ml 2.6         4681623
CDF   004.26 333.8 m E Pn      2011/04/28 21:04:05.3  -1.3                          T   001.0                                4681597
CDF   004.26 333.8 m E Sn      2011/04/28 21:04:53.2  -0.2                          T   001.0        3.6  .28 Ml 2.9         4681598
HAU   004.26 323.8 m E Pn      2011/04/28 21:04:06.0  -0.5                          T   001.0                                4681601
HAU   004.26 323.8 m E Sn      2011/04/28 21:04:52.6  -0.8                          T   001.0        5.8  .32 Ml 2.7         4681602
LASF  004.51 265.2 m E Pn      2011/04/28 21:04:10.3   0.4                          T   001.0                                4681603
LASF  004.51 265.2 m E Sn      2011/04/28 21:04:59.6   0.3                          T   001.0        3.6  .64 Ml 2.5         4681604
LANF  004.63 340.9 m E Pn      2011/04/28 21:04:11.4  -0.1                          T                                        4681735
SMF   004.83 296.9 m E Pn      2011/04/28 21:04:14.3   0.0                          T                                        4681732
SMF   004.83 296.9 m E Sn      2011/04/28 21:05:08.7   1.8                          T   001.0        4.5  .56 Ml 2.7         4681611
PAGF  004.95 324.1 m E Pn      2011/04/28 21:04:16.0   0.1 268.8  *****             T                                        4681734
SFTF  005.01 317.4 m E Pn      2011/04/28 21:04:16.6   0.0 134.2  0.5               T                                        4681733
LOR   005.09 303.5 m E Pn      2011/04/28 21:04:17.7  -0.1 121.5  2.5               T   001.0                                4681605
LOR   005.09 303.5 m E Sn      2011/04/28 21:05:13.8   0.7                          T   001.0        4.8  .36 Ml 3.0         4681606
SSF   005.21 300.2 m E Pn      2011/04/28 21:04:19.5   0.1                          T                                        4681736
AVF   005.20 297.0 m E Pn      2011/04/28 21:04:19.5   0.3                          T   001.0                                4681594
BGF   005.45 293.3 m E Pn      2011/04/28 21:04:23.0   0.4                          T   001.0                                4681595
BGF   005.45 293.3 m E Sn      2011/04/28 21:05:22.2   0.6                          T                5.1  .36 Ml 3.1         4681720
TCF   005.79 289.4 m E Pn      2011/04/28 21:04:27.1  -0.3                          T   001.0                                4681612
CAF   005.73 275.8 m E Pn      2011/04/28 21:04:27.1   0.6                          T   001.0                                4681596
MTLF  005.83 260.0 m E Pn      2011/04/28 21:04:28.6   0.8                          T   001.0                                4681619
MTLF  005.83 260.0 m E Sn      2011/04/28 21:05:31.6   0.8                          T                1.2  .39 Ml 2.6         4681721
RJF   006.13 279.4 m E Pn      2011/04/28 21:04:32.4   0.5                          T                                        4681731

.
EVENT     258743
    Date      Time       Latitude Longitude    Depth    Ndef Nsta Gap    Mag1  N    Mag2  N    Mag3  N   Author         ID
       rms   OT_Error      Smajor Sminor Az        Err   mdist  Mdist     Err        Err        Err      Quality

2011/04/28 23:30:43.0     44.7722   17.3388     10.0 f   186   30 031  Ml 4.4 15                         js067245    258743

      1.21   +-  0.09       2.9    2.1   30.59 +-  0.0    1.42  20.69   +-0.2                            m i ke

NORTHWESTERN BALKAN PEN.
Sta     Dist  EvAz     Phase      Date       Time     TRes  Azim  AzRes  Slow  SRes Def   SNR       Amp   Per   Mag1   Mag2       ID
PGF   006.44 252.7 m E P       2011/04/28 23:32:20.1  -0.5                          T                                        4681756
PGF   006.44 252.7 m E Sn      2011/04/28 23:33:25.2   0.2                          T               71.0  .86 Ml 4.3         4681755
SBF   007.16 266.2 m E Pn      2011/04/28 23:32:27.9   2.4                          T                                        4681757
SBF   007.16 266.2 m E Sn      2011/04/28 23:33:42.6   0.5                          T               98.1  .59 Ml 4.5         4681754
MBDF  007.52 273.4 m E Pn      2011/04/28 23:32:32.0   1.5                          T                                        4681764
MBDF  007.52 273.4 m E Sn      2011/04/28 23:33:50.2  -0.7                          T              100.7  .66 Ml 4.5         4681747
LPL   007.54 279.4 m E P       2011/04/28 23:32:36.0  -0.1                          T                                        4681762
LPL   007.54 279.4 m E Sn      2011/04/28 23:33:51.2  -0.1                          T              108.5  .68 Ml 4.5         4681749
LPG   007.52 279.3 m E P       2011/04/28 23:32:36.1   0.1                          T                                        4681761
LPG   007.52 279.3 m E Sn      2011/04/28 23:33:51.2   0.1                          T              126.2  .72 Ml 4.6         4681750
FRF   007.78 264.8 m E Pn      2011/04/28 23:32:36.6   2.7                          T                                        4681759
FRF   007.78 264.8 m E Sn      2011/04/28 23:33:56.4  -0.5                          T               68.2  .52 Ml 4.5         4681752
CDF   007.83 301.3 m E Pn      2011/04/28 23:32:37.6   3.0                          T                                        4681781
HINF  007.87 296.5 m E Pn      2011/04/28 23:32:38.0   2.8                          T                                        4681776
HINF  007.87 296.5 m E Sn      2011/04/28 23:33:58.4  -0.8                          T               85.0  .82 Ml 4.4         4681741
LMR   007.93 263.4 m E Pn      2011/04/28 23:32:38.4   2.5                          T                                        4681758
LMR   007.93 263.4 m E Sn      2011/04/28 23:33:59.5  -1.0                          T               24.7  .44 Ml 4.2         4681753
CABF  008.09 287.1 m E Pn      2011/04/28 23:32:41.3   3.1                          T                                        4681775
ORIF  008.15 275.1 m E P       2011/04/28 23:32:42.2  -2.2                          T                                        4681763
ORIF  008.15 275.1 m E Sn      2011/04/28 23:34:05.7   0.0                          T               79.7  .58 Ml 4.6         4681748
HAU   008.26 296.9 m E Pn      2011/04/28 23:32:43.1   2.7                          T                                        4681777
SMRF  008.47 268.7 m E P       2011/04/28 23:32:47.0  -1.8                          T                                        4681760
SMRF  008.47 268.7 m E Sn      2011/04/28 23:34:13.0  -0.3                          T               16.6  .63 Ml 3.9         4681751
VIVF  009.01 275.0 m E Pn      2011/04/28 23:32:52.8   2.2                          T                                        4681765
VIVF  009.01 275.0 m E Sn      2011/04/28 23:34:25.6  -0.5                          T               51.9  .88 Ml 4.3         4681746
PAGF  008.84 299.5 m E P       2011/04/28 23:32:53.6  -0.3 123.7  12.7              T                                        4681780
SFTF  009.15 296.4 m E P       2011/04/28 23:32:56.8  -1.5 121.1  13.6              T                                        4681778
MEZF  009.24 298.2 m E P       2011/04/28 23:32:58.7  -0.7 119.0  9.8               T                                        4681779
LASF  009.67 270.6 m E Pn      2011/04/28 23:33:01.1   1.5                          T                                        4681766
SMF   009.63 286.0 m E Pn      2011/04/28 23:33:01.9   2.9                          T                                        4681773
SMF   009.63 286.0 m E Sn      2011/04/28 23:34:40.9  -0.1                          T               23.9  .47 Ml 4.4         4681742
LOR   009.71 289.7 m E Pn      2011/04/28 23:33:03.3   3.2 114.8  14.8              T                                        4681785
LOR   009.71 289.7 m E Sn      2011/04/28 23:34:42.8  -0.1                          T               15.7  .51 Ml 4.2         4681740
SSF   009.91 288.2 m E Pn      2011/04/28 23:33:05.8   2.9                          T                                        4681784
AVF   009.98 286.6 m E Pn      2011/04/28 23:33:06.4   2.7                          T                                        4681774
GIVF  010.01 306.6 m E P       2011/04/28 23:33:08.9  -1.2                          T                                        4681782
BGF   010.30 285.1 m E Pn      2011/04/28 23:33:09.5   1.3                          T                                        4681772
BGF   010.30 285.1 m E Sn      2011/04/28 23:34:56.7  -0.4                          T               26.9  .56 Ml 4.5         4681743
TCF   010.73 283.5 m E Pn      2011/04/28 23:33:16.7   2.8                          T                                        4681783
CAF   010.85 276.2 m E Pn      2011/04/28 23:33:18.0   2.3                          T                                        4681768
CAF   010.85 276.2 m E Sn      2011/04/28 23:35:09.9  -0.3                          T               15.0  .73 Ml 4.2         4681745
MTLF  010.98 267.8 m E Pn      2011/04/28 23:33:19.2   1.8                          T                                        4681767
MFF   012.37 284.7 m E P       2011/04/28 23:33:40.9  -1.2                          T                                        4681744
FLN   012.85 294.4 m E P       2011/04/28 23:33:47.0  -1.6 108.3  6.9               T                                        4681769
GRR   013.03 292.6 m E P       2011/04/28 23:33:50.8  -0.2                          T                                        4681770

.
EVENT     258745
    Date      Time       Latitude Longitude    Depth    Ndef Nsta Gap    Mag1  N    Mag2  N    Mag3  N   Author         ID
       rms   OT_Error      Smajor Sminor Az        Err   mdist  Mdist     Err        Err        Err      Quality

2011/04/29 01:10:51.6     46.2601    6.3290      2.0      36   18 077  Ml 2.0 15  Md 2.0  2              js067245    258745

      0.73   +-  0.05       1.2     .8   77.77 +-  0.0    0.28   2.80   +-0.3      +-0.0                 m i ke

SWITZERLAND
Sta     Dist  EvAz     Phase      Date       Time     TRes  Azim  AzRes  Slow  SRes Def   SNR       Amp   Per   Mag1   Mag2       ID
CABF  000.39 334.6 m E Pg      2011/04/29 01:10:59.2   0.0                          T                                        4681802
CABF  000.39 334.6 m E Sg      2011/04/29 01:11:04.8   0.4                          T               19.9  .28        Md 2.0  4681803
LPL   000.80 159.1 m E Pg      2011/04/29 01:11:06.5  -0.3                          T                                        4681789
LPL   000.80 159.1 m E Sg      2011/04/29 01:11:17.3   0.1                          T                1.3  .23        Md 1.9  4681790
LPG   000.82 158.7 m E Pg      2011/04/29 01:11:07.8   0.5                          T                                        4681786
LPG   000.82 158.7 m E Sg      2011/04/29 01:11:17.9  -0.1                          T                2.3  .24                4681788
ORIF  001.38 193.4 m E Pg      2011/04/29 01:11:17.4   0.0                          T                                        4681791
ORIF  001.38 193.4 m E Sg      2011/04/29 01:11:35.4   0.2                          T                3.3  .25 Ml 2.1         4681792
MBDF  001.56 168.4 m E Pg      2011/04/29 01:11:20.8  -0.1                          T                                        4681816
MBDF  001.56 168.4 m E Sg      2011/04/29 01:11:41.3   0.2                          T                 .5  .19 Ml 1.5         4681817
HINF  001.60 012.8 m E Pg      2011/04/29 01:11:21.2  -0.2                          T                                        4681811
HINF  001.60 012.8 m E Sg      2011/04/29 01:11:41.6  -0.4                          T                2.4  .22 Ml 2.1         4681801
HAU   001.75 000.4 m E Pn      2011/04/29 01:11:21.3   0.1                          T                                        4681810
HAU   001.75 000.4 m E Pg      2011/04/29 01:11:24.2   0.1                          T                                        4681809
HAU   001.75 000.4 m E Sg      2011/04/29 01:11:46.5  -0.1                          T                1.2  .22 Ml 1.7         4681820
SMF   001.76 283.5 m E Pg      2011/04/29 01:11:24.5   0.1                          T                                        4681799
SMF   001.76 283.5 m E Sg      2011/04/29 01:11:46.8  -0.3                          T                3.9  .16 Ml 2.5         4681800
AVF   002.12 285.6 m E Pn      2011/04/29 01:11:26.4   0.1                          T                                        4681794
AVF   002.12 285.6 m E Pg      2011/04/29 01:11:31.0   0.0                          T                                        4681812
AVF   002.12 285.6 m E Sg      2011/04/29 01:11:57.6  -0.7                          T                 .9  .19 Ml 1.9         4681795
LOR   001.97 301.6 m E Pg      2011/04/29 01:11:28.3   0.0 121.1  1.3               T                                        4681807
LOR   001.97 301.6 m E Sg      2011/04/29 01:11:53.2  -0.5 130.8  11.0              T                2.6  .26 Ml 2.2         4681797
PAGF  002.33 350.1 m E Pn      2011/04/29 01:11:29.2   0.0                          T                                        4681808
PAGF  002.33 350.1 m E Sg      2011/04/29 01:12:05.2   0.3                          T                 .3  .28 Ml 1.3         4681822
BGF   002.43 278.3 m E Pg      2011/04/29 01:11:36.5  -0.1                          T                                        4681813
BGF   002.43 278.3 m E Sg      2011/04/29 01:12:07.9   0.1                          T                1.1  .20 Ml 2.0         4681819
LASF  002.80 219.6 m E Pg      2011/04/29 01:11:43.9   0.4                          T                                        4681815
VIVF  001.82 220.2 m E Sg      2011/04/29 01:11:49.0   0.0                          T                2.5  .27 Ml 2.1         4681793
THEF  001.98 353.5 m E Sg      2011/04/29 01:11:54.3   0.3                          T                1.5  .21 Ml 2.1         4681821
SSF   002.10 293.4 m E Sg      2011/04/29 01:11:57.4  -0.3                          T                1.6  .26 Ml 2.1         4681796
CDF   002.25 016.3 m E Sg      2011/04/29 01:12:02.4   0.0                          T                 .7  .29 Ml 1.7         4681823
HYF   002.73 293.0 m E Sn      2011/04/29 01:12:06.6   0.5                          T                                        4681798

.
EVENT     258780
    Date      Time       Latitude Longitude    Depth    Ndef Nsta Gap    Mag1  N    Mag2  N    Mag3  N   Author         ID
       rms   OT_Error      Smajor Sminor Az        Err   mdist  Mdist     Err        Err        Err      Quality

2011/04/29 02:21:39.6     43.0896    -.9075     15.0      15    3 177  Ml 0.9  1  Md 1.2  2              js067245    258780

      0.74   +-  0.38       7.2    4.7    2.65 +-  0.0    0.23   0.92   +-         +-0.0                 m i ke

PYRENEES
Sta     Dist  EvAz     Phase      Date       Time     TRes  Azim  AzRes  Slow  SRes Def   SNR       Amp   Per   Mag1   Mag2       ID
SJPF  000.23 275.9 m E Pg      2011/04/29 02:21:44.8  -0.1                          T                                        4683810
SJPF  000.23 275.9 m E Sg      2011/04/29 02:21:48.8   0.2                          T                1.8  .26        Md 1.2  4683811
ETSF  000.32 126.6 m E Pg      2011/04/29 02:21:46.1  -0.3                          T                                        4683812
ETSF  000.32 126.6 m E Sg      2011/04/29 02:21:49.4  -1.6                          T                2.9  .26        Md 1.2  4683813
EPF   000.92 093.3 m E Sg      2011/04/29 02:22:09.3   0.2                          T                 .3  .18 Ml  .9         4683814

.
