BEGIN GSE2.0
MSG_TYPE DATA
MSG_ID 15-DEC-1116:31:45  FRA_NDC
E-MAIL
DATA_TYPE BULLETIN
Reviewed Bulletin (REB) # P2011-049  from French NDC for regional phases     PERIOD 07 DEC 2011 TO 13 DEC 2011 S M., J-P S.
EVENT     267164
    Date      Time       Latitude Longitude    Depth    Ndef Nsta Gap    Mag1  N    Mag2  N    Mag3  N   Author         ID
       rms   OT_Error      Smajor Sminor Az        Err   mdist  Mdist     Err        Err        Err      Quality

2011/12/07 02:17:58.0     42.8424   -1.2417      6.0 f    14    3 162  Ml 1.1  1  Md 1.1  2              js067245    267184

      0.19   +-  0.05       1.5     .9  170.37 +-  0.0    0.00   1.18   +-         +-0.4                 m i ke

PYRENEES
Sta     Dist  EvAz     Phase      Date       Time     TRes  Azim  AzRes  Slow  SRes Def   SNR       Amp   Per   Mag1   Mag2       ID
SJPF  000.27 002.6 m E Pg      2011/12/07 02:18:03.4   0.0                          T                                        4796187
SJPF  000.27 002.6 m E Sg      2011/12/07 02:18:07.2   0.0                          T                3.3  .28        Md 1.3  4796188
ETSF  000.50 083.4 m E Pg      2011/12/07 02:18:07.8   0.0                          T                                        4796185
ETSF  000.50 083.4 m E Sg      2011/12/07 02:18:14.5   0.0                          T                 .3  .16        Md  .8  4796186
EPF   001.18 080.3 m E Pg      2011/12/07 02:18:20.1   0.0                          T                                        4796183
EPF   001.18 080.3 m E Sg      2011/12/07 02:18:35.0  -0.3                          T                 .2  .17 Ml 1.1         4796184

.
EVENT     267182
    Date      Time       Latitude Longitude    Depth    Ndef Nsta Gap    Mag1  N    Mag2  N    Mag3  N   Author         ID
       rms   OT_Error      Smajor Sminor Az        Err   mdist  Mdist     Err        Err        Err      Quality

2011/12/07 03:57:02.5     42.9517   -1.5404      2.0      16    3 175  Ml 1.0  1  Md 0.9  2              js067245    267202

      0.29   +-  0.12       2.0    1.5   97.68 +-  0.0    0.18   1.38   +-         +-0.2                 m i ke

PYRENEES
Sta     Dist  EvAz     Phase      Date       Time     TRes  Azim  AzRes  Slow  SRes Def   SNR       Amp   Per   Mag1   Mag2       ID
SJPF  000.28 055.0 m E Pg      2011/12/07 03:57:08.0   0.0                          T                                        4796193
SJPF  000.28 055.0 m E Sg      2011/12/07 03:57:11.8  -0.1                          T                1.8  .25        Md 1.1  4796194
ETSF  000.72 093.9 m E Pg      2011/12/07 03:57:16.2   0.0                          T                                        4796191
ETSF  000.72 093.9 m E Sg      2011/12/07 03:57:25.7   0.1                          T                 .2  .18        Md  .8  4796192
EPF   001.38 086.1 m E Pg      2011/12/07 03:57:28.3   0.0                          T                                        4796189
EPF   001.38 086.1 m E Sg      2011/12/07 03:57:46.2   0.0                          T                 .2  .18 Ml 1           4796190

.
EVENT     267154
    Date      Time       Latitude Longitude    Depth    Ndef Nsta Gap    Mag1  N    Mag2  N    Mag3  N   Author         ID
       rms   OT_Error      Smajor Sminor Az        Err   mdist  Mdist     Err        Err        Err      Quality

2011/12/07 07:17:34.0     46.0989    8.1462      4.0 f    34    9 119  Ml 2.0  8  Md 2.1  2              js067245    267174

      0.18   +-  0.06       1.2     .8   93.46 +-  0.0    0.13   3.70   +-0.2      +-0.0                 m i ke

SWITZERLAND
Sta     Dist  EvAz     Phase      Date       Time     TRes  Azim  AzRes  Slow  SRes Def   SNR       Amp   Per   Mag1   Mag2       ID
LPL   001.15 240.0 m E Pg      2011/12/07 07:17:55.6  -0.2                          T                                        4796217
LPL   001.15 240.0 m E Sg      2011/12/07 07:18:10.6  -0.1                          T                3.8  .31 Ml 2.0 Md 2.0  4796214
LPG   001.15 238.9 m E Pg      2011/12/07 07:17:55.8  -0.1                          T                                        4796216
LPG   001.15 238.9 m E Sg      2011/12/07 07:18:10.6  -0.1                          T                3.4  .26 Ml 2.0 Md 2.1  4796215
CABF  001.52 290.5 m E Pn      2011/12/07 07:18:00.3   0.0                          T                                        4796225
CABF  001.52 290.5 m E Pg      2011/12/07 07:18:02.5   0.1                          T                                        4796224
CABF  001.52 290.5 m E Sg      2011/12/07 07:18:22.3   0.3                          T                1.7  .24 Ml 1.9         4796211
MBDF  001.68 215.7 m E Pn      2011/12/07 07:18:02.7   0.0                          T                                        4796219
MBDF  001.68 215.7 m E Pg      2011/12/07 07:18:05.5   0.0                          T                                        4796218
MBDF  001.68 215.7 m E Sg      2011/12/07 07:18:27.1  -0.1                          T                1.0  .23 Ml 1.8         4796212
HINF  001.93 333.2 m E Pn      2011/12/07 07:18:05.9  -0.1                          T                                        4796223
HINF  001.93 333.2 m E Pg      2011/12/07 07:18:10.0  -0.1                          T                                        4796222
HINF  001.93 333.2 m E Sg      2011/12/07 07:18:34.8  -0.2                          T                4.4  .30 Ml 2.4         4796210
HAU   002.27 327.8 m E Pn      2011/12/07 07:18:10.5  -0.1                          T                                        4796221
HAU   002.27 327.8 m E Sg      2011/12/07 07:18:45.4   0.0                          T                5.5  .30 Ml 2.3         4796209
CDF   002.39 346.0 m E Pn      2011/12/07 07:18:12.4   0.1                          T                                        4796220
CDF   002.39 346.0 m E Sg      2011/12/07 07:18:49.4   0.2                          T                 .7  .22 Ml 1.9         4796208
BGF   003.70 279.0 m E P       2011/12/07 07:18:33.1  -0.3                          T                                        4796226
ORIF  001.98 234.3 m E Sg      2011/12/07 07:18:36.7   0.1                          T                1.2  .23 Ml 1.9         4796213

.
EVENT     267148
    Date      Time       Latitude Longitude    Depth    Ndef Nsta Gap    Mag1  N    Mag2  N    Mag3  N   Author         ID
       rms   OT_Error      Smajor Sminor Az        Err   mdist  Mdist     Err        Err        Err      Quality

2011/12/07 07:52:55.9     42.6680    2.1206     10.0      41    7 066  Ml 2.2  6  Md 2.0  1              js067245    267168

      1.15   +-  0.10       2.0    1.7  128.13 +-  0.0    0.22   2.86   +-0.2      +-                    m i ke

PYRENEES
Sta     Dist  EvAz     Phase      Date       Time     TRes  Azim  AzRes  Slow  SRes Def   SNR       Amp   Per   Mag1   Mag2       ID
MTLF  000.68 006.0 m E Pg      2011/12/07 07:53:08.5  -0.3                          T                                        4796232
MTLF  000.68 006.0 m E Pn      2011/12/07 07:53:09.8  -0.3                          T                                        4795773
MTLF  000.68 006.0 m E Sg      2011/12/07 07:53:17.4  -0.3                          T                                        4796233
MTLF  000.68 006.0 m E Sn      2011/12/07 07:53:19.3  -0.7                          T                8.6  .22        Md 2.0  4795772
EPF   001.36 286.1 m E Pg      2011/12/07 07:53:21.8   0.5                          T                                        4795769
EPF   001.36 286.1 m E Sg      2011/12/07 07:53:39.0   0.0                          T                2.3  .17 Ml 2.1         4795771
LASF  001.89 041.4 m E Pg      2011/12/07 07:53:31.7   0.5                          T                                        4796231
LASF  001.89 041.4 m E Sg      2011/12/07 07:53:55.7   0.1                          T                1.9  .25 Ml 2.1         4795770
ETSF  001.99 277.6 m E Pg      2011/12/07 07:53:33.2   0.3                          T                                        4795767
ETSF  001.99 277.6 m E Sg      2011/12/07 07:53:58.8   0.3                          T                2.7  .29 Ml 2.2         4795766
CAF   002.26 359.0 m E Sg      2011/12/07 07:54:06.5  -0.4                          T                1.7  .20 Ml 2.2         4795765
LFF   002.48 336.7 m E Sg      2011/12/07 07:54:14.1   0.3                          T                6.8  .30 Ml 2.5         4795764
VIVF  002.86 039.3 m E Sg      2011/12/07 07:54:26.9   1.0                          T                1.4  .25 Ml 2.1         4795768

.
EVENT     267155
    Date      Time       Latitude Longitude    Depth    Ndef Nsta Gap    Mag1  N    Mag2  N    Mag3  N   Author         ID
       rms   OT_Error      Smajor Sminor Az        Err   mdist  Mdist     Err        Err        Err      Quality

2011/12/07 13:20:01.2     43.1084   -1.0179     15.0      13    3 166  Ml 1.5  1  Md 1.4  2              js067245    267175

      0.22   +-  0.07       2.2    1.1  178.54 +-  0.0    0.15   1.00   +-         +-0.1                 m i ke

PYRENEES
Sta     Dist  EvAz     Phase      Date       Time     TRes  Azim  AzRes  Slow  SRes Def   SNR       Amp   Per   Mag1   Mag2       ID
SJPF  000.15 271.9 m E Pg      2011/12/07 13:20:05.3   0.1                          T                                        4797001
SJPF  000.15 271.9 m E Sg      2011/12/07 13:20:08.1   0.0                          T                6.1  .19        Md 1.5  4797002
ETSF  000.40 121.8 m E Pg      2011/12/07 13:20:09.0  -0.3                          T                                        4796999
ETSF  000.40 121.8 m E Sg      2011/12/07 13:20:14.5  -0.4                          T                2.9  .12        Md 1.4  4797000
EPF   001.00 094.0 m E Pg      2011/12/07 13:20:20.1  -0.1                          T                                        4797003
EPF   001.00 094.0 m E Sg      2011/12/07 13:20:33.3   0.0                          T                  1  .23 Ml 1.5         4797004

.
EVENT     267169
    Date      Time       Latitude Longitude    Depth    Ndef Nsta Gap    Mag1  N    Mag2  N    Mag3  N   Author         ID
       rms   OT_Error      Smajor Sminor Az        Err   mdist  Mdist     Err        Err        Err      Quality

2011/12/07 17:25:36.2     42.6823    2.0799     10.0      49    9 065  Ml 2.2  7  Md 1.9  1              js067245    267189

      0.84   +-  0.05       1.1     .9  112.16 +-  0.0    0.22   2.87   +-0.2      +-                    m i ke

PYRENEES
Sta     Dist  EvAz     Phase      Date       Time     TRes  Azim  AzRes  Slow  SRes Def   SNR       Amp   Per   Mag1   Mag2       ID
MTLF  000.67 008.7 m E Pg      2011/12/07 17:25:49.2   0.3                          T                                        4797005
MTLF  000.67 008.7 m E Pn      2011/12/07 17:25:50.4   0.3                          T                                        4797006
MTLF  000.67 008.7 m E Sg      2011/12/07 17:25:57.8   0.1                          T                                        4797007
MTLF  000.67 008.7 m E Sn      2011/12/07 17:26:00.0   0.0                          T                9.8  .26        Md 1.9  4797008
EPF   001.33 285.8 m E Pg      2011/12/07 17:26:00.8  -0.3                          T                                        4797046
EPF   001.33 285.8 m E Sg      2011/12/07 17:26:18.3   0.0                          T                2.8  .24 Ml 2.0         4797039
LASF  001.90 042.3 m E Pn      2011/12/07 17:26:07.1   0.1                          T                                        4797045
LASF  001.90 042.3 m E Pg      2011/12/07 17:26:11.5  -0.1                          T                                        4797044
LASF  001.90 042.3 m E Sg      2011/12/07 17:26:36.3   0.1                          T                2.6  .27 Ml 2.2         4797040
CAF   002.24 359.7 m E Pn      2011/12/07 17:26:11.7   0.0                          T                                        4797050
CAF   002.24 359.7 m E Pg      2011/12/07 17:26:17.9   0.0                          T                                        4797049
CAF   002.24 359.7 m E Sg      2011/12/07 17:26:47.1   0.3                          T                3.0  .21 Ml 2.4         4797037
ETSF  001.95 277.2 m E Pg      2011/12/07 17:26:12.5  -0.2                          T                                        4797047
ETSF  001.95 277.2 m E Sg      2011/12/07 17:26:38.1   0.2                          T                5.9  .32 Ml 2.5         4797038
LFF   002.46 337.2 m E Pn      2011/12/07 17:26:14.4  -0.2                          T                                        4797052
LFF   002.46 337.2 m E Pg      2011/12/07 17:26:21.8   0.0                          T                                        4797051
LFF   002.46 337.2 m E Sg      2011/12/07 17:26:53.5   0.1                          T                3.5  .24 Ml 2.3         4797036
RJF   002.65 351.4 m E Pn      2011/12/07 17:26:17.1  -0.2                          T                                        4797054
RJF   002.65 351.4 m E Pg      2011/12/07 17:26:25.4   0.0                          T                                        4797053
RJF   002.65 351.4 m E Sg      2011/12/07 17:26:59.7   0.2                          T                1.8  .22 Ml 1.9         4797035
VIVF  002.87 040.0 m E Pn      2011/12/07 17:26:20.3   0.0                          T                                        4797043
VIVF  002.87 040.0 m E Pg      2011/12/07 17:26:29.5   0.0                          T                                        4797042
VIVF  002.87 040.0 m E Sg      2011/12/07 17:27:06.5   0.1                          T                1.3  .26 Ml 2.1         4797041
SJPF  002.47 281.2 m E Pg      2011/12/07 17:26:22.0   0.0                          T                                        4797048

.
EVENT     267165
    Date      Time       Latitude Longitude    Depth    Ndef Nsta Gap    Mag1  N    Mag2  N    Mag3  N   Author         ID
       rms   OT_Error      Smajor Sminor Az        Err   mdist  Mdist     Err        Err        Err      Quality

2011/12/07 17:36:59.9     42.1408    9.4801      2.0      19    9 326  Ml 2.4  8  Md 2.5  1              js067245    267185

      0.37   +-  0.20       3.4    3.2   62.08 +-  0.0    0.54   4.55   +-0.4      +-                    m i ke

CORSICA, FRANCE
Sta     Dist  EvAz     Phase      Date       Time     TRes  Azim  AzRes  Slow  SRes Def   SNR       Amp   Per   Mag1   Mag2       ID
PGF   000.54 319.0 m E Pg      2011/12/07 17:37:10.2  -0.1                          T                                        4797065
PGF   000.54 319.0 m E Sg      2011/12/07 17:37:17.4  -0.1                          T              112.3  .18        Md 2.5  4797066
SBF   002.28 319.6 m E Pn      2011/12/07 17:37:37.0   0.1                          T                                        4797064
SBF   002.28 319.6 m E Sn      2011/12/07 17:38:04.0   0.1                          T               13.2  .35 Ml 2.8         4797057
LMR   002.49 299.6 m E Pn      2011/12/07 17:37:40.0   0.4                          T                                        4797063
LMR   002.49 299.6 m E Sn      2011/12/07 17:38:09.0   0.1                          T                4.1  .25 Ml 2.6         4797058
FRF   002.52 305.2 m E Pn      2011/12/07 17:37:40.6   0.5                          T                                        4797062
FRF   002.52 305.2 m E Sn      2011/12/07 17:38:10.2   0.7                          T                2.8  .27 Ml 2.4         4797059
MBDF  003.25 323.6 m E P       2011/12/07 17:37:53.2   0.0                          T                                        4797060
MBDF  003.25 323.6 m E Sn      2011/12/07 17:38:27.2   0.0                          T                8.9  .55 Ml 2.7         4797069
SMRF  003.40 304.0 m E P       2011/12/07 17:37:55.0  -0.2                          T                                        4797061
SMRF  003.40 304.0 m E Sn      2011/12/07 17:38:30.7   0.1                          T                 .3  .18 Ml 1.7         4798953
VIVF  004.43 309.4 m E Pn      2011/12/07 17:38:05.8  -0.2                          T                                        4797068
VIVF  004.43 309.4 m E Sn      2011/12/07 17:38:55.0  -0.1                          T                1.4  .36 Ml 2.4         4798956
LASF  004.55 297.1 m E Pn      2011/12/07 17:38:07.1  -0.6                          T                                        4797067
LASF  004.55 297.1 m E Sn      2011/12/07 17:38:57.9  -0.1                          T                1.9  .36 Ml 2.5         4798955
LPL   003.92 330.4 m E Sn      2011/12/07 17:38:43.2   0.0                          T                 .8  .36 Ml 2.0         4798954

.
EVENT     267170
    Date      Time       Latitude Longitude    Depth    Ndef Nsta Gap    Mag1  N    Mag2  N    Mag3  N   Author         ID
       rms   OT_Error      Smajor Sminor Az        Err   mdist  Mdist     Err        Err        Err      Quality

2011/12/07 21:36:48.1     42.9809     .3230     15.0 f    16    3 122  Ml 1.2  1  Md 1.2  2              js067245    267190

      0.66   +-  0.25       6.2    3.7  166.08 +-  0.0    0.05   1.43   +-         +-0.2                 m i ke

PYRENEES
Sta     Dist  EvAz     Phase      Date       Time     TRes  Azim  AzRes  Slow  SRes Def   SNR       Amp   Per   Mag1   Mag2       ID
EPF   000.05 014.1 m E Pg      2011/12/07 21:36:51.2   0.0                          T                                        4797115
EPF   000.05 014.1 m E Sg      2011/12/07 21:36:53.5   0.3                          T               12.9  .18        Md 1.4  4797116
ETSF  000.65 263.1 m E Pg      2011/12/07 21:37:00.0  -0.8                          T                                        4797113
ETSF  000.65 263.1 m E Sg      2011/12/07 21:37:08.2  -1.3                          T                2.6  .23        Md 1.1  4797114
MTLF  001.43 074.8 m E Sg      2011/12/07 21:37:34.5   0.9                          T                 .3  .21 Ml 1.2         4797112

.
