EVENT     260940
    Date      Time       Latitude Longitude    Depth    Ndef Nsta Gap    Mag1  N    Mag2  N    Mag3  N   Author         ID
       rms   OT_Error      Smajor Sminor Az        Err   mdist  Mdist     Err        Err        Err      Quality

2011/06/30 17:30:47.4     47.4268   -4.0841     10.0 f    24    7 285  Ml 2.7  7  Md 2.7  3              js067245    260940

      1.68   +-  0.55       9.6    6.1   78.81 +-  0.0    0.79   2.90   +-0.2      +-0.2                 m i ke

FRANCE
Sta     Dist  EvAz     Phase      Date       Time     TRes  Azim  AzRes  Slow  SRes Def   SNR       Amp   Per   Mag1   Mag2       ID
QUIF  000.79 051.4 m E Pg      2011/06/30 17:31:02.5   0.2                          T                                        4716253
QUIF  000.79 051.4 m E Sg      2011/06/30 17:31:13.5   0.8                          T               38.0  .22        Md 2.9  4716246
ROSF  001.06 030.6 m E Pn      2011/06/30 17:31:06.0  -0.7                          T                                        4716255
ROSF  001.06 030.6 m E Pg      2011/06/30 17:31:07.6   0.3                          T                                        4716391
ROSF  001.06 030.6 m E Sg      2011/06/30 17:31:21.5   0.4                          T               15.6  .18 Ml 2.8 Md 2.6  4716248
SGMF  001.32 050.6 m E Pn      2011/06/30 17:31:10.6   0.3                          T                                        4716254
SGMF  001.32 050.6 m E Pg      2011/06/30 17:31:12.2   0.1                          T                                        4716393
SGMF  001.32 050.6 m E Sg      2011/06/30 17:31:30.3   1.1                          T               17.2  .18 Ml 2.9 Md 2.6  4716247
GRR   002.37 064.9 m E Pn      2011/06/30 17:31:23.7  -0.9                          T                                        4716250
GRR   002.37 064.9 m E Pg      2011/06/30 17:31:30.6  -0.9                          T                                        4716384
GRR   002.37 064.9 m E Sg      2011/06/30 17:32:01.8  -0.3                          T                4.1  .21 Ml 2.4         4716243
MFF   002.82 105.6 m E Pn      2011/06/30 17:31:32.1   1.4                          T                                        4716249
MFF   002.82 105.6 m E Pg      2011/06/30 17:31:39.1  -0.5                          T                                        4716392
MFF   002.82 105.6 m E Sg      2011/06/30 17:32:14.7  -1.2                          T                4.3  .26 Ml 2.8         4716242
LDF   002.90 064.8 m E Pn      2011/06/30 17:31:32.8   0.9                          T                                        4716251
LDF   002.90 064.8 m E Pg      2011/06/30 17:31:40.7  -0.6                          T                                        4716385
LDF   002.90 064.8 m E Sg      2011/06/30 17:32:19.6   1.0                          T                4.2  .27 Ml 2.6         4716244
FLN   002.76 059.7 m E Pg      2011/06/30 17:31:37.8  -0.8                          T                                        4716252
FLN   002.76 059.7 m E Sg      2011/06/30 17:32:14.4   0.3                          T                4.4  .20 Ml 2.6         4716245

.
EVENT     260941
    Date      Time       Latitude Longitude    Depth    Ndef Nsta Gap    Mag1  N    Mag2  N    Mag3  N   Author         ID
       rms   OT_Error      Smajor Sminor Az        Err   mdist  Mdist     Err        Err        Err      Quality

2011/06/30 18:08:33.2     43.1617   -1.7394     10.0      16    3 157  Ml 2.1  2  Md 1.9  3              js067245    260941

      0.66   +-  0.34       6.7    5.3   12.69 +-  0.0    0.18   1.72   +-0.2      +-0.1                 m i ke

PYRENEES
Sta     Dist  EvAz     Phase      Date       Time     TRes  Azim  AzRes  Slow  SRes Def   SNR       Amp   Per   Mag1   Mag2       ID
SJPF  000.38 097.1 m E Pg      2011/06/30 18:08:40.0  -0.8                          T                                        4716263
SJPF  000.38 097.1 m E Sg      2011/06/30 18:08:46.5   0.6                          T                3.6  .14        Md 1.8  4716258
ETSF  000.90 106.5 m E Pg      2011/06/30 18:08:49.4  -1.0                          T                                        4716262
ETSF  000.90 106.5 m E Pn      2011/06/30 18:08:50.9   0.3                          T                                        4716259
ETSF  000.90 106.5 m E Sg      2011/06/30 18:09:03.3   1.1                          T                3.0  .20 Ml 1.9 Md 1.9  4716257
EPF   001.53 094.2 m E Pg      2011/06/30 18:09:01.4  -0.4                          T                                        4716261
EPF   001.53 094.2 m E Sg      2011/06/30 18:09:20.8  -0.8                          T                2.8  .21 Ml 2.2 Md 2.0  4716256

.
EVENT     260942
    Date      Time       Latitude Longitude    Depth    Ndef Nsta Gap    Mag1  N    Mag2  N    Mag3  N   Author         ID
       rms   OT_Error      Smajor Sminor Az        Err   mdist  Mdist     Err        Err        Err      Quality

2011/06/30 18:10:14.0     43.1948   -1.7555     10.0 f    14    3 309  Ml 2.0  2  Md 2.0  3              js067245    260942

      0.44   +-  0.43       6.8    5.9  104.12 +-  0.0    0.18   1.54   +-0.2      +-0.1                 m i ke

PYRENEES
Sta     Dist  EvAz     Phase      Date       Time     TRes  Azim  AzRes  Slow  SRes Def   SNR       Amp   Per   Mag1   Mag2       ID
SJPF  000.40 101.7 m E Pg      2011/06/30 18:10:20.7  -1.2                          T                                        4716270
SJPF  000.40 101.7 m E Sg      2011/06/30 18:10:27.3   0.0                          T                4.0  .20        Md 1.9  4716266
ETSF  000.93 108.2 m E Pg      2011/06/30 18:10:30.4  -1.1                          T                                        4716398
ETSF  000.93 108.2 m E Pn      2011/06/30 18:10:31.6   0.0                          T                                        4716269
ETSF  000.93 108.2 m E Sg      2011/06/30 18:10:44.1   0.5                          T                2.1  .19 Ml 1.8 Md 2.0  4716265
EPF   001.54 095.4 m E Pg      2011/06/30 18:10:42.4  -0.5                          T                                        4716268
EPF   001.54 095.4 m E Sg      2011/06/30 18:11:01.7  -1.2                          T                2.7  .21 Ml 2.2 Md 2.0  4716264

.
EVENT     260938
    Date      Time       Latitude Longitude    Depth    Ndef Nsta Gap    Mag1  N    Mag2  N    Mag3  N   Author         ID
       rms   OT_Error      Smajor Sminor Az        Err   mdist  Mdist     Err        Err        Err      Quality

2011/06/30 18:12:51.6     47.4917    6.0953     16.4      50   19 053  Ml 2.5 16  Md 2.5  3              js067245    260938

      0.74   +-  0.06       1.3    1.1  132.62 +-  0.9    0.52   2.82   +-0.3      +-0.1                 m i ke

FRANCE
Sta     Dist  EvAz     Phase      Date       Time     TRes  Azim  AzRes  Slow  SRes Def   SNR       Amp   Per   Mag1   Mag2       ID
HAU   000.54 018.3 m E Pg      2011/06/30 18:13:02.8   0.6                          T                                        4717521
HAU   000.54 018.3 m E Sg      2011/06/30 18:13:10.0   0.4                          T   001.0      142.6  .22        Md 2.6  4714127
HINF  000.61 057.3 m E Pg      2011/06/30 18:13:03.5   0.1                          T   001.0                                4714138
HINF  000.61 057.3 m E Sg      2011/06/30 18:13:11.6   0.1                          T               67.4  .20        Md 2.5  4717522
THEF  000.74 354.7 m E Pg      2011/06/30 18:13:05.7  -0.1                          T                                        4717519
THEF  000.74 354.7 m E Pn      2011/06/30 18:13:06.3   0.4                          T                                        4717541
THEF  000.74 354.7 m E Sg      2011/06/30 18:13:16.2   0.5                          T               53.1  .19        Md 2.6  4717520
CABF  000.88 180.3 m E Pn      2011/06/30 18:13:08.2   0.4                          T   001.0                                4714135
CABF  000.88 180.3 m E Pg      2011/06/30 18:13:08.9   0.4                          T   001.0                                4714134
CABF  000.88 180.3 m E Sn      2011/06/30 18:13:18.7  -0.8                          T   001.0       31.9  .64 Ml 2.5         4714136
SFTF  001.01 315.5 m E Pn      2011/06/30 18:13:09.8   0.3                          T                                        4717543
SFTF  001.01 315.5 m E Pg      2011/06/30 18:13:10.9   0.3 129.4  -5.3              T                                        4717542
SFTF  001.01 315.5 m E Sg      2011/06/30 18:13:24.0   0.1 128.7  -6.0              T               32.7  .21 Ml 3.0         4717569
CDF   001.22 040.3 m E Pn      2011/06/30 18:13:11.4  -1.0                          T   001.0                                4714122
CDF   001.22 040.3 m E Pg      2011/06/30 18:13:14.4  -0.1                          T                                        4717515
CDF   001.22 040.3 m E Sg      2011/06/30 18:13:30.0  -0.4                          T               14.4  .24 Ml 2.8         4717516
PAGF  001.09 347.0 m E P       2011/06/30 18:13:12.6   0.3 162.8  -3.9              T                                        4717545
PAGF  001.09 347.0 m E Sg      2011/06/30 18:13:26.5   0.0                          T                3.1  .28 Ml 1.9         4717568
MEZF  001.23 325.7 m E Pn      2011/06/30 18:13:12.9   0.4                          T   001.0                                4714140
MEZF  001.23 325.7 m E Pg      2011/06/30 18:13:14.7   0.0 150.0  5.1               T                                        4717544
MEZF  001.23 325.7 m E Sg      2011/06/30 18:13:30.8   0.1 140.8  -4.1              T               17.4  .36 Ml 2.6         4717518
LOR   001.54 262.5 m E Pn      2011/06/30 18:13:16.7   0.0                          T                                        4717549
LOR   001.54 262.5 m E Pg      2011/06/30 18:13:20.0  -0.3  84.0  3.1               T                                        4717548
LOR   001.54 262.5 m E Sg      2011/06/30 18:13:40.1  -0.2  93.1  12.3              T               13.9  .22 Ml 2.9         4717564
SMF   001.76 242.0 m E Pn      2011/06/30 18:13:19.4  -0.3                          T                                        4717538
SMF   001.76 242.0 m E Pg      2011/06/30 18:13:24.3  -0.1                          T                                        4717537
SMF   001.76 242.0 m E Sg      2011/06/30 18:13:47.5   0.4                          T                5.7  .18 Ml 2.7         4717571
SSF   001.81 257.2 m E Pn      2011/06/30 18:13:20.3  -0.2                          T                                        4717547
SSF   001.81 257.2 m E Pg      2011/06/30 18:13:25.6   0.1                          T                                        4717546
SSF   001.81 257.2 m E Sg      2011/06/30 18:13:48.1  -0.8                          T                3.9  .20 Ml 2.5         4717565
AVF   002.00 250.5 m E Pn      2011/06/30 18:13:22.5  -0.5                          T                                        4717540
AVF   002.00 250.5 m E Pg      2011/06/30 18:13:28.6  -0.2                          T                                        4717539
AVF   002.00 250.5 m E Sg      2011/06/30 18:13:54.1  -0.6                          T                1.5  .16 Ml 2.2         4717570
LPG   002.05 167.0 m E Pn      2011/06/30 18:13:24.5   0.6                          T                                        4717530
LPG   002.05 167.0 m E Sg      2011/06/30 18:13:56.3  -0.2                          T                1.1  .18 Ml 2.0         4717577
BGF   002.41 248.4 m E Pn      2011/06/30 18:13:28.9   0.3                          T   001.0                                4714120
BGF   002.41 248.4 m E Pg      2011/06/30 18:13:36.6   0.2                          T                                        4717536
BGF   002.41 248.4 m E Sg      2011/06/30 18:14:07.0  -0.4                          T                9.2  .33 Ml 2.7         4717572
LPL   002.02 167.2 m E Pg      2011/06/30 18:13:29.3  -0.2                          T                                        4717531
LPL   002.02 167.2 m E Sg      2011/06/30 18:13:55.7   0.1                          T                2.2  .30 Ml 2.1         4717576
ORIF  002.58 183.4 m E Pn      2011/06/30 18:13:31.4   0.4                          T                                        4717532
ORIF  002.58 183.4 m E Sg      2011/06/30 18:14:12.7  -0.1                          T                4.1  .27 Ml 2.5         4717575
VIVF  002.82 201.1 m E Pn      2011/06/30 18:13:33.5  -0.6                          T                                        4717533
VIVF  002.82 201.1 m E Sg      2011/06/30 18:14:19.2  -0.9                          T                2.6  .26 Ml 2.4         4717574
LANF  001.88 036.9 m E Sg      2011/06/30 18:13:50.8   0.0                          T                3.3  .17 Ml 2.5         4717567
RUP   002.30 015.8 m E Sg      2011/06/30 18:14:03.7  -0.4                          T                                        4717566

.
EVENT     260943
    Date      Time       Latitude Longitude    Depth    Ndef Nsta Gap    Mag1  N    Mag2  N    Mag3  N   Author         ID
       rms   OT_Error      Smajor Sminor Az        Err   mdist  Mdist     Err        Err        Err      Quality

2011/06/30 23:28:20.4     43.0077     .1953      2.0      36    6 074  Ml 1.7  4  Md 2.1  2              js067245    260943

      0.53   +-  0.09       2.0    1.3   15.54 +-  0.0    0.11   2.34   +-0.1      +-0.1                 m i ke

FRANCE
Sta     Dist  EvAz     Phase      Date       Time     TRes  Azim  AzRes  Slow  SRes Def   SNR       Amp   Per   Mag1   Mag2       ID
EPF   000.11 077.9 m E Pg      2011/06/30 23:28:23.3   0.5                          T                                        4716277
EPF   000.11 077.9 m E Sg      2011/06/30 23:28:25.7   1.3                          T               37.8  .20        Md 2.2  4716272
ETSF  000.56 259.1 m E Pg      2011/06/30 23:28:31.1  -0.1                          T                                        4716278
ETSF  000.56 259.1 m E Sg      2011/06/30 23:28:38.9   0.3                          T                8.8  .19        Md 2.0  4716273
SJPF  001.05 276.3 m E Pg      2011/06/30 23:28:40.0   0.0                          T                                        4716276
SJPF  001.05 276.3 m E Sg      2011/06/30 23:28:53.7   0.1                          T                1.2  .23 Ml 1.6         4716274
MTLF  001.52 076.6 m E Pg      2011/06/30 23:28:48.0  -0.6                          T                                        4716275
MTLF  001.52 076.6 m E Sg      2011/06/30 23:29:07.8  -0.5                          T                  1  .17 Ml 1.8         4716271
LFF   001.97 011.3 m E Sg      2011/06/30 23:29:22.2  -0.2                          T                1.5  .35 Ml 1.7         4716442
CAF   002.34 034.5 m E Sg      2011/06/30 23:29:34.1  -0.1                          T                 .7  .25 Ml 1.7         4716443

.
EVENT     260945
    Date      Time       Latitude Longitude    Depth    Ndef Nsta Gap    Mag1  N    Mag2  N    Mag3  N   Author         ID
       rms   OT_Error      Smajor Sminor Az        Err   mdist  Mdist     Err        Err        Err      Quality

2011/07/01 02:44:36.4     44.3119    6.1316      2.0      14    8 094  Ml 1.8  3  Md 2.0  2              js067245    260945

      0.69   +-  0.18       4.6    3.2   68.15 +-  0.0    0.52   1.28   +-0.3      +-0.0                 m i ke

FRANCE
Sta     Dist  EvAz     Phase      Date       Time     TRes  Azim  AzRes  Slow  SRes Def   SNR       Amp   Per   Mag1   Mag2       ID
SMRF  000.52 230.2 m E Pg      2011/07/01 02:44:46.0  -0.4                          T                                        4716448
SMRF  000.52 230.2 m E Sg      2011/07/01 02:44:51.7  -1.5                          T               72.4 1.50        Md 2.0  4716449
ORIF  000.63 343.6 m E Pg      2011/07/01 02:44:49.1   0.6                          T                                        4716446
ORIF  000.63 343.6 m E Sg      2011/07/01 02:44:55.7  -1.1                          T                                        4716447
FRF   000.84 153.5 m E Pg      2011/07/01 02:44:52.4   0.3                          T                                        4716286
FRF   000.84 153.5 m E Sg      2011/07/01 02:45:02.1  -0.9                          T                3.1  .23        Md 2.0  4716282
LMR   001.02 164.2 m E Pg      2011/07/01 02:44:55.3  -0.1                          T                                        4716285
LMR   001.02 164.2 m E Sg      2011/07/01 02:45:09.0   0.4                          T                2.9  .29 Ml 1.8         4716281
SBF   001.04 115.1 m E Pg      2011/07/01 02:44:56.2   0.2                          T                                        4716284
SBF   001.04 115.1 m E Sg      2011/07/01 02:45:10.7   1.2                          T                3.7  .27 Ml 2.0         4716280
VIVF  001.18 298.1 m E Pg      2011/07/01 02:44:58.9   0.5                          T                                        4716283
VIVF  001.18 298.1 m E Sg      2011/07/01 02:45:14.9   1.3                          T                1.1  .29 Ml 1.5         4716279
LPG   001.26 020.2 m E Pg      2011/07/01 02:44:59.7  -0.7                          T                                        4716444
LPL   001.28 019.3 m E Pg      2011/07/01 02:45:00.2  -0.4                          T                                        4716445

.
EVENT     260960
    Date      Time       Latitude Longitude    Depth    Ndef Nsta Gap    Mag1  N    Mag2  N    Mag3  N   Author         ID
       rms   OT_Error      Smajor Sminor Az        Err   mdist  Mdist     Err        Err        Err      Quality

2011/07/01 10:10:56.8     48.6063    -.7861       .0 f    12    5 150  Ml 2.4  1  Md 2.4  2              js067245    260960

      0.26   +-  0.10       3.4    1.7  156.23 +-  0.0    0.22   1.73   +-         +-0.2                 m i km

FRANCE
Sta     Dist  EvAz     Phase      Date       Time     TRes  Azim  AzRes  Slow  SRes Def   SNR       Amp   Per   Mag1   Mag2       ID
GRR   000.22 192.4 m E Pg      2011/07/01 10:11:01.4  -0.1                          T                                        4718855
GRR   000.22 192.4 m E Sg      2011/07/01 10:11:04.4  -0.3                          T              258.8  .58        Md 2.5  4718856
FLN   000.26 052.1 m E Pg      2011/07/01 10:11:01.9  -0.2                          T                                        4718859
FLN   000.26 052.1 m E Sg      2011/07/01 10:11:05.2  -0.5                          T               78.0  .54        Md 2.2  4718860
LDF   000.44 091.4 m E Pg      2011/07/01 10:11:05.7   0.3                          T                                        4718857
LDF   000.44 091.4 m E Sg      2011/07/01 10:11:14.5   3.0                          T              106.6  .86                4718858
ROSF  001.68 261.7 m E Pn      2011/07/01 10:11:26.3   0.5                          T                                        4718850
ROSF  001.68 261.7 m E Pg      2011/07/01 10:11:28.0  -0.2                          T                                        4718849
ROSF  001.68 261.7 m E Sg      2011/07/01 10:11:50.1   0.0                          T                                        4718851
QUIF  001.73 247.4 m E Pn      2011/07/01 10:11:26.5  -0.1                          T                                        4718853
QUIF  001.73 247.4 m E Pg      2011/07/01 10:11:29.2   0.0                          T                                        4718852
QUIF  001.73 247.4 m E Sg      2011/07/01 10:11:51.6  -0.2                          T                3.7  .19 Ml 2.4         4718854

.
