BEGIN GSE2.0
MSG_TYPE DATA
MSG_ID 06-MAR-1313:46:44  FRA_NDC
E-MAIL
DATA_TYPE BULLETIN
Reviewed Bulletin (REB) # P2013-009  from French NDC for regional phases     PERIOD 27 FEV 2013 TO 05 MAR 2013 Cenalt JP S
EVENT     292815
    Date      Time       Latitude Longitude    Depth    Ndef Nsta Gap    Mag1  N    Mag2  N    Mag3  N   Author         ID
       rms   OT_Error      Smajor Sminor Az        Err   mdist  Mdist     Err        Err        Err      Quality

2013/02/27 00:00:14.8     42.7363   -1.7905      2.0      21    3 106  Ml 1.4  2  Md 1.7  1              bulletin    292915
                                                                                                         _ldg
      0.81   +-  0.25       4.5    3.8  128.45 +-  0.0    0.16   2.38   +-0.2      +-                    m i ke

PYRENEES
Sta     Dist  EvAz     Phase      Date       Time     TRes  Azim  AzRes  Slow  SRes Def   SNR       Amp   Per   Mag1   Mag2       ID
SJPF  000.56 047.6 m E Pg      2013/02/28 00:00:25.4  -0.1                          T                                        5212282
SJPF  000.56 047.6 m E Sg      2013/02/28 00:00:32.2  -0.7                          T                1.5  .16        Md 1.7  5212280
ETSF  000.92 079.4 m E Pg      2013/02/28 00:00:32.2   0.0                          T                                        5212281
ETSF  000.92 079.4 m E Sg      2013/02/28 00:00:44.6   0.4                          T                1.8  .29 Ml 1.6         5212279
EPF   001.59 078.7 m E Pn      2013/02/28 00:00:42.8   0.4                          T                                        5212278
EPF   001.59 078.7 m E Sn      2013/02/28 00:01:02.5   0.2                          T                 .2  .14 Ml 1.3         5212277

.
EVENT     292758
    Date      Time       Latitude Longitude    Depth    Ndef Nsta Gap    Mag1  N    Mag2  N    Mag3  N   Author         ID
       rms   OT_Error      Smajor Sminor Az        Err   mdist  Mdist     Err        Err        Err      Quality

2013/02/27 01:13:42.1     42.6743   -1.8218      2.0      17    2 162  Ml 1.1  1  Md 1.1  2              bulletin    292858
                                                                                                         _ldg
      0.83   +-  0.31       5.9    4.2   10.89 +-  0.0    0.20   1.48   +-         +-0.0                 m i ke

PYRENEES
Sta     Dist  EvAz     Phase      Date       Time     TRes  Azim  AzRes  Slow  SRes Def   SNR       Amp   Per   Mag1   Mag2       ID
SJPF  000.62 044.8 m E Pg      2013/02/27 01:13:53.7  -0.2                          T                                        5210613
SJPF  000.62 044.8 m E Sg      2013/02/27 01:14:01.7  -0.3                          T                 .5  .17        Md 1.1  5210611
ETSF  000.96 076.0 m E Pg      2013/02/27 01:14:00.0  -0.2                          T                                        5210612
ETSF  000.96 076.0 m E Sg      2013/02/27 01:14:12.5  -0.1                          T                 .4  .18 Ml 1.1 Md 1.1  5210610

.
EVENT     292759
    Date      Time       Latitude Longitude    Depth    Ndef Nsta Gap    Mag1  N    Mag2  N    Mag3  N   Author         ID
       rms   OT_Error      Smajor Sminor Az        Err   mdist  Mdist     Err        Err        Err      Quality

2013/02/27 03:34:44.6     42.7150   -1.7539      2.0      16    3 157  Ml 1.2  2  Md 1.2  2              bulletin    292859
                                                                                                         _ldg
      0.47   +-  0.19       4.0    2.2   11.14 +-  0.0    0.14   1.57   +-0.1      +-0.0                 m i ke

PYRENEES
Sta     Dist  EvAz     Phase      Date       Time     TRes  Azim  AzRes  Slow  SRes Def   SNR       Amp   Per   Mag1   Mag2       ID
SJPF  000.56 044.1 m E Pg      2013/02/27 03:34:55.3   0.2                          T                                        5210602
SJPF  000.56 044.1 m E Sg      2013/02/27 03:35:02.2  -0.3                          T                 .7  .22        Md 1.2  5210601
ETSF  000.90 077.8 m E Pg      2013/02/27 03:35:01.7   0.2                          T                                        5210600
ETSF  000.90 077.8 m E Sg      2013/02/27 03:35:13.2   0.0                          T                 .6  .25 Ml 1.1 Md 1.1  5210599
EPF   001.57 077.7 m E Pg      2013/02/27 03:35:14.1   0.2                          T                                        5210598
EPF   001.57 077.7 m E Sg      2013/02/27 03:35:34.4   0.3                          T                 .3  .18 Ml 1.2         5210597

.
EVENT     292755
    Date      Time       Latitude Longitude    Depth    Ndef Nsta Gap    Mag1  N    Mag2  N    Mag3  N   Author         ID
       rms   OT_Error      Smajor Sminor Az        Err   mdist  Mdist     Err        Err        Err      Quality

2013/02/27 05:11:34.2     49.1562    8.1667      5.0 f    17    6 092  Ml 1.8  4  Md 1.7  2              bulletin    292855
                                                                                                         _ldg
      0.29   +-  0.07       1.6    1.1  104.49 +-  0.0    0.01   2.28   +-0.1      +-0.0                 m i ke

GERMANY
Sta     Dist  EvAz     Phase      Date       Time     TRes  Azim  AzRes  Slow  SRes Def   SNR       Amp   Per   Mag1   Mag2       ID
LANF  000.30 233.6 m E Pg      2013/02/27 05:11:39.8  -0.2                          T                                        5210420
LANF  000.30 233.6 m E Sg      2013/02/27 05:11:44.1   0.1                          T                                        5210421
CDF   000.95 218.7 m E Pg      2013/02/27 05:11:52.3   0.1                          T                                        5210504
CDF   000.95 218.7 m E Sg      2013/02/27 05:12:04.7   0.2                          T                1.1  .16 Ml 1.7 Md 1.7  5210503
HINF  001.60 213.6 m E Pn      2013/02/27 05:12:01.8   0.3                          T                                        5210495
HINF  001.60 213.6 m E Pg      2013/02/27 05:12:04.2   0.2                          T                                        5210498
HINF  001.60 213.6 m E Sn      2013/02/27 05:12:21.5   0.2                          T                                        5210496
HINF  001.60 213.6 m E Sg      2013/02/27 05:12:24.8   0.1                          T                 .8  .17 Ml 1.8         5210497
HAU   001.67 227.0 m E Pn      2013/02/27 05:12:02.1  -0.3                          T                                        5210493
HAU   001.67 227.0 m E Pg      2013/02/27 05:12:05.4   0.1                          T                                        5210502
HAU   001.67 227.0 m E Sn      2013/02/27 05:12:23.0   0.1                          T                                        5210494
HAU   001.67 227.0 m E Sg      2013/02/27 05:12:26.9   0.1                          T                1.3  .19 Ml 1.7 Md 1.7  5210501
RUP   000.91 307.5 m E Sg      2013/02/27 05:12:03.6   0.6                          T                                        5210434
SFTF  002.28 246.5 m E Pg      2013/02/27 05:12:16.7   0.1                          T                                        5210499
SFTF  002.28 246.5 m E Sg      2013/02/27 05:12:45.7  -0.2                          T                 .8  .20 Ml 1.8         5210500

.
EVENT     292780
    Date      Time       Latitude Longitude    Depth    Ndef Nsta Gap    Mag1  N    Mag2  N    Mag3  N   Author         ID
       rms   OT_Error      Smajor Sminor Az        Err   mdist  Mdist     Err        Err        Err      Quality

2013/02/27 09:09:28.1     42.7429   -1.7509      2.0      34    5 088  Ml 2.4  3  Md 2.4  3              bulletin    292880
                                                                                                         _ldg
      0.75   +-  0.18       3.1    2.7  123.12 +-  0.0    0.13   3.52   +-0.3      +-0.1                 m i ke

PYRENEES
Sta     Dist  EvAz     Phase      Date       Time     TRes  Azim  AzRes  Slow  SRes Def   SNR       Amp   Per   Mag1   Mag2       ID
SJPF  000.54 046.0 m E Pg      2013/02/27 09:09:37.6  -0.7                          T                                        5211002
SJPF  000.54 046.0 m E Sg      2013/02/27 09:09:45.2  -0.2                          T               37.5  .32        Md 2.5  5211024
ETSF  000.89 079.5 m E Pg      2013/02/27 09:09:44.6  -0.4                          T                                        5211001
ETSF  000.89 079.5 m E Sg      2013/02/27 09:09:56.4  -0.2                          T               12.6  .26 Ml 2.5 Md 2.4  5211023
EPF   001.56 078.7 m E Pn      2013/02/27 09:09:55.4   0.1                          T                                        5211000
EPF   001.56 078.7 m E Pg      2013/02/27 09:09:58.2   0.9                          T                                        5213203
EPF   001.56 078.7 m E Sn      2013/02/27 09:10:14.8  -0.1                          T               13.9  .31 Ml 2.7 Md 2.4  5211022
MTLF  002.97 077.0 m E Pn      2013/02/27 09:10:14.6   0.2                          T                                        5213207
MTLF  002.97 077.0 m E Sn      2013/02/27 09:10:48.2  -0.3                          T                 .8  .20 Ml 2.0         5213206
CAF   003.52 050.4 m E Pn      2013/02/27 09:10:21.6  -0.3                          T                                        5213205
CAF   003.52 050.4 m E Sn      2013/02/27 09:11:01.2  -0.4                          T                                        5213204

.
EVENT     292785
    Date      Time       Latitude Longitude    Depth    Ndef Nsta Gap    Mag1  N    Mag2  N    Mag3  N   Author         ID
       rms   OT_Error      Smajor Sminor Az        Err   mdist  Mdist     Err        Err        Err      Quality

2013/02/27 10:15:01.5     48.8900    5.9497       .0 f     9    5 256  Ml 2.2  2  Md 2.3  1              bulletin    292885
                                                                                                         _ldg
      0.84   +-  0.47       7.8    4.0  175.43 +-  0.0    0.37   1.23   +-0.2      +-                    m i km

FRANCE
Sta     Dist  EvAz     Phase      Date       Time     TRes  Azim  AzRes  Slow  SRes Def   SNR       Amp   Per   Mag1   Mag2       ID
PAGF  000.37 204.0 m E Pg      2013/02/27 10:15:08.4  -0.4  28.4  4.6               T                                        5211095
PAGF  000.37 204.0 m E Sg      2013/02/27 10:15:15.5   1.6  23.0  -0.8              T              787.5  .94        Md 2.3  5211093
HAU   000.92 163.2 m E Pg      2013/02/27 10:15:19.1   0.0                          T                                        5211094
HAU   000.92 163.2 m E Sg      2013/02/27 10:15:31.4   0.0                          T                7.5  .28 Ml 2.0         5211092
CDF   001.00 118.0 m E Pg      2013/02/27 10:15:20.6   0.0                          T                                        5213209
CDF   001.00 118.0 m E Sn      2013/02/27 10:15:36.4   0.8                          T               23.4  .90 Ml 2.3         5213208
HINF  001.23 150.4 m E Pg      2013/02/27 10:15:24.8   0.0                          T                                        5213211
HINF  001.23 150.4 m E Sg      2013/02/27 10:15:41.1   0.2                          T                                        5213212
SFTF  000.91 221.8 m E Sg      2013/02/27 10:15:30.2  -0.8  44.2  3.1               T                                        5213395

.
EVENT     292795
    Date      Time       Latitude Longitude    Depth    Ndef Nsta Gap    Mag1  N    Mag2  N    Mag3  N   Author         ID
       rms   OT_Error      Smajor Sminor Az        Err   mdist  Mdist     Err        Err        Err      Quality

2013/02/27 12:47:11.5     42.7647   -1.7890      2.0       6    3 328  Ml 1.9  2  Md 2.0  1              bulletin    292895
                                                                                                         _ldg
      0.08   +-  0.17       3.4    3.0  113.26 +-  0.0    0.54   1.59   +-0.2      +-                    m i ke

PYRENEES
Sta     Dist  EvAz     Phase      Date       Time     TRes  Azim  AzRes  Slow  SRes Def   SNR       Amp   Per   Mag1   Mag2       ID
SJPF  000.54 049.7 m E Pg      2013/02/27 12:47:21.9   0.1                          T                                        5211304
SJPF  000.54 049.7 m E Sg      2013/02/27 12:47:28.9  -0.1                          T                4.0  .21        Md 2.0  5211302
ETSF  000.91 081.2 m E Pg      2013/02/27 12:47:28.9   0.1                          T                                        5211303
ETSF  000.91 081.2 m E Sg      2013/02/27 12:47:40.7   0.0                          T                2.4  .24 Ml 1.8         5211301
EPF   001.59 079.7 m E Pn      2013/02/27 12:47:38.9  -0.1                          T                                        5211300
EPF   001.59 079.7 m E Sn      2013/02/27 12:47:58.9   0.0                          T                2.1  .24 Ml 2.0         5211299

.
EVENT     292845
    Date      Time       Latitude Longitude    Depth    Ndef Nsta Gap    Mag1  N    Mag2  N    Mag3  N   Author         ID
       rms   OT_Error      Smajor Sminor Az        Err   mdist  Mdist     Err        Err        Err      Quality

2013/02/27 13:09:07.7     43.0671     .3194      3.0 f    18    3 182  Ml 1.6  2  Md 1.6  2              bulletin    292945
                                                                                                         _ldg
      0.22   +-  0.08       1.5    1.0  158.69 +-  0.0    0.04   1.41   +-0.1      +-0.1                 m i ke

FRANCE
Sta     Dist  EvAz     Phase      Date       Time     TRes  Azim  AzRes  Slow  SRes Def   SNR       Amp   Per   Mag1   Mag2       ID
EPF   000.04 157.7 m E Pg      2013/02/27 13:09:09.0  -0.1                          T                                        5212870
EPF   000.04 157.7 m E Sg      2013/02/27 13:09:09.8  -0.2                          T              240.8  .24        Md 1.7  5212869
ETSF  000.67 255.7 m E Pg      2013/02/27 13:09:20.4   0.0                          T                                        5212868
ETSF  000.67 255.7 m E Sg      2013/02/27 13:09:29.0  -0.1                          T                2.0  .23        Md 1.6  5212867
MTLF  001.41 078.2 m E Pg      2013/02/27 13:09:34.1   0.0                          T                                        5212866
MTLF  001.41 078.2 m E Sg      2013/02/27 13:09:52.4   0.1                          T                 .6  .18 Ml 1.5         5212865

.
EVENT     292802
    Date      Time       Latitude Longitude    Depth    Ndef Nsta Gap    Mag1  N    Mag2  N    Mag3  N   Author         ID
       rms   OT_Error      Smajor Sminor Az        Err   mdist  Mdist     Err        Err        Err      Quality

2013/02/27 13:35:32.6     42.7077   -1.7362      2.0      47    6 084  Ml 2.8  5  Md 2.6  1              bulletin    292902
                                                                                                         _ldg
      0.65   +-  0.09       2.4    1.5  164.63 +-  0.0    0.13   4.24   +-0.2      +-                    m i ke

PYRENEES
Sta     Dist  EvAz     Phase      Date       Time     TRes  Azim  AzRes  Slow  SRes Def   SNR       Amp   Per   Mag1   Mag2       ID
SJPF  000.55 042.6 m E Pg      2013/02/27 13:35:43.1  -0.1                          T                                Md 2.6  5211634
SJPF  000.55 042.6 m E Sg      2013/02/27 13:35:50.1  -0.3                          T               75.6  .31                5211633
ETSF  000.89 077.2 m E Pg      2013/02/27 13:35:49.4   0.0                          T                                        5211632
ETSF  000.89 077.2 m E Sg      2013/02/27 13:36:04.5   3.6                          T               33.3  .37 Ml 2.7         5211631
EPF   001.56 077.4 m E Pg      2013/02/27 13:36:01.8   0.0                          T                                        5211630
EPF   001.56 077.4 m E Sg      2013/02/27 13:36:22.2   0.3                          T               70.0  .57 Ml 3.2         5211629
MTLF  002.97 076.3 m E Pn      2013/02/27 13:36:21.4   2.6                          T                                        5211624
MTLF  002.97 076.3 m E Sn      2013/02/27 13:36:53.0   0.0                          T                8.0  .57 Ml 2.6         5211623
RJF   003.50 041.0 m E Pn      2013/02/27 13:36:26.2   0.1                          T                                        5211628
RJF   003.50 041.0 m E Sn      2013/02/27 13:37:06.6   1.0                          T               15.1  .48 Ml 2.7         5211627
CAF   003.53 049.8 m E Pn      2013/02/27 13:36:27.3   0.7                          T                                        5211626
CAF   003.53 049.8 m E Sn      2013/02/27 13:37:08.5   2.0                          T                5.5  .36 Ml 2.7         5211625

.
EVENT     292803
    Date      Time       Latitude Longitude    Depth    Ndef Nsta Gap    Mag1  N    Mag2  N    Mag3  N   Author         ID
       rms   OT_Error      Smajor Sminor Az        Err   mdist  Mdist     Err        Err        Err      Quality

2013/02/27 13:57:21.9     42.7477   -1.7141      2.0      25    5 125  Ml 2.3  4  Md 2.3  2              bulletin    292903
                                                                                                         _ldg
      0.72   +-  0.20       4.2    3.0   15.25 +-  0.0    0.10   3.49   +-0.2      +-0.0                 m i ke

PYRENEES
Sta     Dist  EvAz     Phase      Date       Time     TRes  Azim  AzRes  Slow  SRes Def   SNR       Amp   Per   Mag1   Mag2       ID
SJPF  000.51 044.3 m E Pg      2013/02/27 13:57:31.3  -0.4                          T                                        5211696
SJPF  000.51 044.3 m E Sg      2013/02/27 13:57:37.9  -0.6                          T               37.2  .37        Md 2.3  5211695
ETSF  000.86 079.5 m E Pg      2013/02/27 13:57:38.2   0.0                          T                                        5211702
ETSF  000.86 079.5 m E Sg      2013/02/27 13:57:46.8  -2.7                          T               33.2  .76 Ml 2.4 Md 2.3  5211701
EPF   001.54 078.7 m E Pn      2013/02/27 13:57:49.1   0.4                          T                                        5211704
EPF   001.54 078.7 m E Sn      2013/02/27 13:58:09.2   1.1                          T                5.0  .29 Ml 2.3         5211703
CAF   003.49 050.2 m E Pn      2013/02/27 13:58:14.8  -0.5                          T                                        5211700
CAF   003.49 050.2 m E Sn      2013/02/27 13:58:57.1   2.3                          T                2.6  .31 Ml 2.5         5211699
RJF   003.46 041.2 m E Pn      2013/02/27 13:58:15.0   0.2                          T                                        5211698
RJF   003.46 041.2 m E Sn      2013/02/27 13:58:53.5  -0.4                          T                2.9  .41 Ml 2.1         5211697

.
