EVENT     279578
    Date      Time       Latitude Longitude    Depth    Ndef Nsta Gap    Mag1  N    Mag2  N    Mag3  N   Author         ID
       rms   OT_Error      Smajor Sminor Az        Err   mdist  Mdist     Err        Err        Err      Quality

2012/07/15 08:16:24.2     44.4318    7.2409     12.0 f    38    8 111  Ml 1.8  6  Md 1.8  2              bulletin    279678
                                                                                                         _ldg
      0.30   +-  0.05       1.3     .7   62.74 +-  0.0    0.12   1.28   +-0.3      +-0.0                 m i ke

NORTHERN ITALY
Sta     Dist  EvAz     Phase      Date       Time     TRes  Azim  AzRes  Slow  SRes Def   SNR       Amp   Per   Mag1   Mag2       ID
MBDF  000.45 311.5 m E Pg      2012/07/15 08:16:33.3   0.1                          T                                        5026660
MBDF  000.45 311.5 m E Sg      2012/07/15 08:16:39.1  -0.1                          T               11.7  .20        Md 1.8  5026659
SBF   000.59 166.1 m E Pg      2012/07/15 08:16:35.9   0.3                          T                                        5026654
SBF   000.59 166.1 m E Sg      2012/07/15 08:16:43.6   0.2                          T                4.8  .20        Md 1.8  5026653
FRF   000.97 206.4 m E Pg      2012/07/15 08:16:42.9   0.4                          T                                        5026656
FRF   000.97 206.4 m E Sg      2012/07/15 08:16:54.9  -0.3                          T                2.8  .21 Ml 2.0         5026645
ORIF  001.09 297.1 m E Pg      2012/07/15 08:16:45.0   0.2                          T                                        5026658
ORIF  001.09 297.1 m E Sg      2012/07/15 08:16:58.4  -0.5                          T                2.3  .28 Ml 1.8         5026651
LPG   001.12 342.1 m E Pg      2012/07/15 08:16:46.0   0.3                          T                                        5026649
LPG   001.12 342.1 m E Sg      2012/07/15 08:17:00.3   0.0                          T                1.2  .23 Ml 1.6         5026648
LPL   001.14 341.8 m E Pg      2012/07/15 08:16:46.2   0.2                          T                                        5026657
LPL   001.14 341.8 m E Sg      2012/07/15 08:17:00.9   0.0                          T                 .7  .26 Ml 1.3         5026650
LMR   001.22 206.0 m E Pg      2012/07/15 08:16:47.3   0.2                          T                                        5026655
LMR   001.22 206.0 m E Sg      2012/07/15 08:17:02.4  -0.5                          T                4.0  .21 Ml 2.2         5026652
SMRF  001.28 249.8 m E Pg      2012/07/15 08:16:48.2  -0.1                          T                                        5029509
SMRF  001.28 249.8 m E Sg      2012/07/15 08:17:05.3   0.4                          T                1.2  .20 Ml 1.7         5026646

.
EVENT     279580
    Date      Time       Latitude Longitude    Depth    Ndef Nsta Gap    Mag1  N    Mag2  N    Mag3  N   Author         ID
       rms   OT_Error      Smajor Sminor Az        Err   mdist  Mdist     Err        Err        Err      Quality

2012/07/15 09:11:03.9     35.3647   -9.2081     10.0 f    58    5 270  Ml 3.4  3                         bulletin    279680
                                                                                                         _ldg
      0.73   +-  0.32       5.9    4.0   34.52 +-  0.0    1.79  12.85   +-0.2                            m i ke

WEST OF GIBRALTAR
Sta     Dist  EvAz     Phase      Date       Time     TRes  Azim  AzRes  Slow  SRes Def   SNR       Amp   Per   Mag1   Mag2       ID
SJPF  009.91 036.2 m E Pn      2012/07/15 09:13:24.9   1.1                          T                                        5026760
SJPF  009.91 036.2 m E Sn      2012/07/15 09:15:08.8   0.3                          T                1.9  .33 Ml 3.5         5027356
ETSF  010.08 039.1 m E Pn      2012/07/15 09:13:27.1   0.9                          T                                        5026759
ETSF  010.08 039.1 m E Sn      2012/07/15 09:15:13.2   0.3                          T                 .7  .29 Ml 3.1         5027357
EPF   010.65 041.2 m E Pn      2012/07/15 09:13:34.8   0.9                          T                                        5026758
EPF   010.65 041.2 m E Sn      2012/07/15 09:15:26.7   0.3                          T                1.9  .42 Ml 3.5         5026757
MTLF  011.89 044.5 m E Pn      2012/07/15 09:13:50.7  -0.1                          T                                        5029510
CAF   012.85 038.6 m E Pn      2012/07/15 09:14:03.8  -0.2                          T                                        5029511

.
EVENT     279579
    Date      Time       Latitude Longitude    Depth    Ndef Nsta Gap    Mag1  N    Mag2  N    Mag3  N   Author         ID
       rms   OT_Error      Smajor Sminor Az        Err   mdist  Mdist     Err        Err        Err      Quality

2012/07/15 09:45:39.1     43.7961    8.1867      6.0 f    77   16 095  Ml 2.7 15  Md 2.7  3              bulletin    279679
                                                                                                         _ldg
      0.98   +-  0.12       2.2    2.1  178.46 +-  0.0    0.24   4.53   +-0.4      +-0.1                 m i ke

CORSICA, FRANCE
Sta     Dist  EvAz     Phase      Date       Time     TRes  Azim  AzRes  Slow  SRes Def   SNR       Amp   Per   Mag1   Mag2       ID
SBF   000.55 277.3 m E Pg      2012/07/15 09:45:49.6  -0.1                          T                                        5026793
SBF   000.55 277.3 m E Pn      2012/07/15 09:45:52.2   0.2                          T                                        5027686
SBF   000.55 277.3 m E Sg      2012/07/15 09:45:57.4   0.4                          T              603.3  .22        Md 2.8  5026792
FRF   001.14 258.6 m E Pn      2012/07/15 09:45:59.2  -0.8                          T                                        5026789
FRF   001.14 258.6 m E Sn      2012/07/15 09:46:13.7  -1.4                          T               50.8  .20 Ml 3.3 Md 2.6  5026788
LMR   001.30 249.8 m E Pn      2012/07/15 09:46:01.2  -1.0                          T                                        5026791
LMR   001.30 249.8 m E Sn      2012/07/15 09:46:17.0  -1.9                          T               47.1  .20 Ml 3.3         5026790
PGF   001.38 154.2 m E Pn      2012/07/15 09:46:02.5  -0.9                          T                                        5026780
PGF   001.38 154.2 m E Sn      2012/07/15 09:46:19.6  -1.3                          T                5.1  .16 Ml 2.7         5026779
MBDF  001.38 313.0 m E Pn      2012/07/15 09:46:03.7   0.2                          T                                        5026785
MBDF  001.38 313.0 m E Sn      2012/07/15 09:46:20.7  -0.2                          T               25.3  .28 Ml 2.9 Md 2.7  5026784
SMRF  001.90 276.3 m E Pn      2012/07/15 09:46:10.8   0.5                          T                                        5026786
SMRF  001.90 276.3 m E Pg      2012/07/15 09:46:15.5   1.0                          T                                        5029513
SMRF  001.90 276.3 m E Sn      2012/07/15 09:46:32.9  -0.3                          T                                        5026778
SMRF  001.90 276.3 m E Sg      2012/07/15 09:46:38.9   0.0                          T               61.5  .30 Ml 3.5         5026787
LPG   001.99 329.4 m E Pn      2012/07/15 09:46:13.1   1.2                          T                                        5026767
LPG   001.99 329.4 m E Sg      2012/07/15 09:46:42.0   0.0                          T               11.4  .44 Ml 2.6         5026766
LPL   002.01 329.4 m E P       2012/07/15 09:46:14.6   0.2                          T                                        5026782
LPL   002.01 329.4 m E Sn      2012/07/15 09:46:35.6  -0.5                          T                                        5026775
LPL   002.01 329.4 m E Sg      2012/07/15 09:46:42.6  -0.1                          T               10.3  .37 Ml 2.7         5026761
ORIF  002.00 304.9 m E Pg      2012/07/15 09:46:15.6  -0.8                          T                                        5026783
ORIF  002.00 304.9 m E Sg      2012/07/15 09:46:42.6   0.4                          T               18.9  .38 Ml 2.9         5026774
VIVF  002.74 294.0 m E Pn      2012/07/15 09:46:22.8   1.0                          T                                        5026781
VIVF  002.74 294.0 m E Pg      2012/07/15 09:46:30.1   0.1                          T                                        5026762
VIVF  002.74 294.0 m E Sn      2012/07/15 09:46:53.0  -0.2                          T                                        5026777
VIVF  002.74 294.0 m E Sg      2012/07/15 09:47:05.0   0.0                          T                6.6  .34 Ml 2.7         5026776
LASF  003.14 276.6 m E Pn      2012/07/15 09:46:27.3   0.1                          T                                        5026772
LASF  003.14 276.6 m E Sn      2012/07/15 09:47:02.2  -0.7                          T                1.3  .22 Ml 2.2         5026771
HINF  004.13 347.4 m E Pn      2012/07/15 09:46:41.0   0.2                          T                                        5029512
SMF   004.19 314.4 m E Pn      2012/07/15 09:46:42.1   0.6                          T                                        5026769
SMF   004.19 314.4 m E Pg      2012/07/15 09:46:56.9   0.3                          T                                        5026768
SMF   004.19 314.4 m E Sn      2012/07/15 09:47:29.3   1.4                          T                 .7  .25 Ml 2.2         5026798
MTLF  004.36 266.1 m E Pn      2012/07/15 09:46:44.1   0.2                          T                                        5026797
HAU   004.40 343.7 m E Pn      2012/07/15 09:46:45.8   1.3                          T                                        5027688
HAU   004.40 343.7 m E Sn      2012/07/15 09:47:34.0   1.0                          T                3.0  .32 Ml 2.5         5027687
CAF   004.53 286.5 m E Pn      2012/07/15 09:46:46.3   0.0                          T                                        5027690
CAF   004.53 286.5 m E Sn      2012/07/15 09:47:37.0   0.8                          T                 .7  .26 Ml 2.2         5027689

.
EVENT     279581
    Date      Time       Latitude Longitude    Depth    Ndef Nsta Gap    Mag1  N    Mag2  N    Mag3  N   Author         ID
       rms   OT_Error      Smajor Sminor Az        Err   mdist  Mdist     Err        Err        Err      Quality

2012/07/15 11:05:56.1     40.1434   -3.6217      3.0 f    84    6 028  Ml 2.6  6                         bulletin    279681
                                                                                                         _ldg
      0.74   +-  0.08       1.9    1.4  127.07 +-  0.0    0.54   6.36   +-0.1                            m i ke

SPAIN
Sta     Dist  EvAz     Phase      Date       Time     TRes  Azim  AzRes  Slow  SRes Def   SNR       Amp   Per   Mag1   Mag2       ID
SJPF  003.47 030.4 m E Pn      2012/07/15 11:06:48.9  -0.1                          T                                        5026884
SJPF  003.47 030.4 m E Sn      2012/07/15 11:07:28.0  -0.1                          T                                        5026883
SJPF  003.47 030.4 m E Sg      2012/07/15 11:07:44.8  -0.1                          T                2.9  .22 Ml 2.6         5026882
ETSF  003.59 038.9 m E Pn      2012/07/15 11:06:50.4  -0.3                          T                                        5026887
ETSF  003.59 038.9 m E Sn      2012/07/15 11:07:31.1   0.1                          T                                        5026886
ETSF  003.59 038.9 m E Sg      2012/07/15 11:07:48.1  -0.5                          T                3.2  .39 Ml 2.5         5026885
EPF   004.14 044.6 m E Pn      2012/07/15 11:06:58.1  -0.1                          T                                        5026890
EPF   004.14 044.6 m E Sn      2012/07/15 11:07:44.7   0.5                          T                                        5026889
EPF   004.14 044.6 m E Sg      2012/07/15 11:08:05.7  -0.2                          T                3.8  .37 Ml 2.7         5026888
MTLF  005.41 051.9 m E Pn      2012/07/15 11:07:15.7   0.2                          T                                        5026879
MTLF  005.41 051.9 m E Sn      2012/07/15 11:08:15.1   0.6                          T                 .7  .27 Ml 2.4         5026878
LFF   005.77 032.5 m E Pn      2012/07/15 11:07:20.6   0.2                          T                                        5026877
LFF   005.77 032.5 m E Sn      2012/07/15 11:08:22.6  -0.6                          T                1.5  .25 Ml 2.7         5026876
CAF   006.36 039.4 m E Pn      2012/07/15 11:07:28.4   0.0                          T                                        5026881
CAF   006.36 039.4 m E Sn      2012/07/15 11:08:37.4   0.2                          T                 .5  .19 Ml 2.6         5026880

.
EVENT     279582
    Date      Time       Latitude Longitude    Depth    Ndef Nsta Gap    Mag1  N    Mag2  N    Mag3  N   Author         ID
       rms   OT_Error      Smajor Sminor Az        Err   mdist  Mdist     Err        Err        Err      Quality

2012/07/15 14:39:29.4     45.1074    5.8796      2.0       8    3 226  Ml 1.7  1  Md 1.5  2              bulletin    279682
                                                                                                         _ldg
      3.04   +-  0.65      12.6    4.6    4.33 +-  0.0    0.19   0.89   +-         +-0.0                 m i ke

FRANCE
Sta     Dist  EvAz     Phase      Date       Time     TRes  Azim  AzRes  Slow  SRes Def   SNR       Amp   Per   Mag1   Mag2       ID
ORIF  000.19 179.9 m E Pg      2012/07/15 14:39:33.0  -0.3                          T                                        5026896
ORIF  000.19 179.9 m E Sg      2012/07/15 14:39:36.1   0.1                          T               12.9  .20        Md 1.5  5026895
MBDF  000.74 120.7 m E Pg      2012/07/15 14:39:43.9   0.4                          T                                        5026891
MBDF  000.74 120.7 m E Sg      2012/07/15 14:39:53.4   0.3                          T                4.3  .24                5026892
VIVF  000.89 254.1 m E Pg      2012/07/15 14:39:46.1  -0.1                          T                                        5026893
VIVF  000.89 254.1 m E Sg      2012/07/15 14:39:57.4  -0.5                          T                2.0  .24 Ml 1.7         5026894

.
EVENT     279597
    Date      Time       Latitude Longitude    Depth    Ndef Nsta Gap    Mag1  N    Mag2  N    Mag3  N   Author         ID
       rms   OT_Error      Smajor Sminor Az        Err   mdist  Mdist     Err        Err        Err      Quality

2012/07/15 14:51:54.2     41.6956    9.4215       .6       8    3 328  Ml 2.5  4  Md 1.9  1              bulletin    279697
                                                                                                         _ldg
      0.63   +-  0.46      16.4    5.9  120.26 +-  2.6    0.91   2.77   +-0.5      +-                    m i ke

CORSICA, FRANCE
Sta     Dist  EvAz     Phase      Date       Time     TRes  Azim  AzRes  Slow  SRes Def   SNR       Amp   Per   Mag1   Mag2       ID
PGF   000.91 339.9 m E Pg      2012/07/15 14:52:11.2  -0.3                          T                                        5027361
PGF   000.91 339.9 m E Sg      2012/07/15 14:52:23.2  -0.2                          T               21.2  .24 Ml 3.0 Md 1.9  5027360
LMR   002.70 308.2 m E Pn      2012/07/15 14:52:36.9  -0.2                          T                                        5027366
LMR   002.70 308.2 m E Sn      2012/07/15 14:53:08.9   0.3                          T                2.0  .24 Ml 2.3         5027365
FRF   002.77 313.2 m E Pn      2012/07/15 14:52:38.0   0.0                          T                                        5027364
FRF   002.77 313.2 m E Sn      2012/07/15 14:53:10.0  -0.2                          T                 .5  .15 Ml 1.9         5027363

.
EVENT     279583
    Date      Time       Latitude Longitude    Depth    Ndef Nsta Gap    Mag1  N    Mag2  N    Mag3  N   Author         ID
       rms   OT_Error      Smajor Sminor Az        Err   mdist  Mdist     Err        Err        Err      Quality

2012/07/15 21:22:51.6     44.4807    6.7136     10.0      33    8 067  Ml 1.9  5  Md 2.0  4              bulletin    279683
                                                                                                         _ldg
      1.02   +-  0.09       2.2    1.6   63.51 +-  0.0    0.07   1.16   +-0.6      +-0.2                 m i ke

FRANCE
Sta     Dist  EvAz     Phase      Date       Time     TRes  Azim  AzRes  Slow  SRes Def   SNR       Amp   Per   Mag1   Mag2       ID
MBDF  000.25 009.5 m E Pg      2012/07/15 21:22:57.8   0.8                          T                                        5026904
MBDF  000.25 009.5 m E Sg      2012/07/15 21:23:00.6   0.1                          T                9.8  .34        Md 1.9  5026903
ORIF  000.74 306.6 m E Pg      2012/07/15 21:23:05.2  -0.6                          T                                        5026902
ORIF  000.74 306.6 m E Sg      2012/07/15 21:23:15.4  -0.1                          T                8.3  .68        Md 1.8  5026901
SBF   000.81 139.7 m E Pg      2012/07/15 21:23:07.0   0.1                          T                                        5027376
SBF   000.81 139.7 m E Sg      2012/07/15 21:23:18.1   0.6                          T                1.4  .16                5027375
FRF   000.92 183.0 m E Pg      2012/07/15 21:23:09.1   0.2                          T                                        5026900
FRF   000.92 183.0 m E Sg      2012/07/15 21:23:21.7   0.7                          T               80.4 1.44 Ml 2.6 Md 2.1  5026899
SMRF  000.96 238.7 m E Pn      2012/07/15 21:23:09.7   0.1                          T                                        5027378
SMRF  000.96 238.7 m E Sn      2012/07/15 21:23:22.5   0.0                          T                1.0  .24 Ml 1.4         5027377
LPG   001.02 001.5 m E Pn      2012/07/15 21:23:10.8   0.1                          T                                        5027379
LPG   001.02 001.5 m E Sg      2012/07/15 21:23:24.5   0.2                          T                1.3  .16 Ml 1.7         5027380
LPL   001.04 000.7 m E Pn      2012/07/15 21:23:11.0   0.1                          T                                        5027382
LPL   001.04 000.7 m E Sn      2012/07/15 21:23:24.6   0.0                          T                1.0  .32 Ml 1.3         5027381
LMR   001.16 187.4 m E Pg      2012/07/15 21:23:13.8   0.6                          T                                        5026898
LMR   001.16 187.4 m E Sg      2012/07/15 21:23:29.4   1.1                          T              100.2 1.90 Ml 2.6 Md 2.1  5026897

.
