BEGIN GSE2.0
MSG_TYPE DATA
MSG_ID 04-FEV-1310:36:12  FRA_NDC
E-MAIL
DATA_TYPE BULLETIN
Reviewed Bulletin (REB) # P2013-002  from French NDC for regional phases     PERIOD 09 JAN 2013 TO 15 JAN 2013 Cenalt JP S
EVENT     289945
    Date      Time       Latitude Longitude    Depth    Ndef Nsta Gap    Mag1  N    Mag2  N    Mag3  N   Author         ID
       rms   OT_Error      Smajor Sminor Az        Err   mdist  Mdist     Err        Err        Err      Quality

2013/01/09 00:47:56.8     46.3585    8.4339      7.0 f    55   20 116  Ml 2.2 12  Md 2.5  2              bulletin    290045
                                                                                                         _ldg
      0.37   +-  0.07       1.3     .9  104.45 +-  0.0    0.31   4.31   +-0.2      +-0.1                 m i ke

SWITZERLAND
Sta     Dist  EvAz     Phase      Date       Time     TRes  Azim  AzRes  Slow  SRes Def   SNR       Amp   Per   Mag1   Mag2       ID
LPL   001.46 235.3 m E Pn      2013/01/09 00:48:22.3   0.1                          T                                        5161972
LPL   001.46 235.3 m E P       2013/01/09 00:48:24.1   0.1                          T                                        5182141
LPL   001.46 235.3 m E Sg      2013/01/09 00:48:43.4   0.3                          T                7.5  .45 Ml 2.2 Md 2.4  5161978
LPG   001.46 234.4 m E P       2013/01/09 00:48:23.9  -0.2                          T                                        5161971
LPG   001.46 234.4 m E Sg      2013/01/09 00:48:43.4   0.2                          T                3.5  .22 Ml 2.2         5161979
HINF  001.82 324.1 m E Pn      2013/01/09 00:48:26.8  -0.1                          T                                        5161968
HINF  001.82 324.1 m E Pg      2013/01/09 00:48:30.7   0.0                          T                                        5182146
HINF  001.82 324.1 m E Sn      2013/01/09 00:48:48.4  -0.3                          T                                        5161963
HINF  001.82 324.1 m E Sg      2013/01/09 00:48:54.0  -0.1                          T                4.1  .28 Ml 2.3         5182132
CABF  001.64 279.7 m E Pg      2013/01/09 00:48:27.6   0.1                          T                                        5182145
CABF  001.64 279.7 m E Sg      2013/01/09 00:48:49.1   0.3                          T                4.7  .30 Ml 2.3 Md 2.5  5161964
HAU   002.18 320.0 m E Pn      2013/01/09 00:48:31.8   0.1                          T                                        5161967
HAU   002.18 320.0 m E Pg      2013/01/09 00:48:37.5   0.1                          T                                        5182147
HAU   002.18 320.0 m E Sn      2013/01/09 00:48:57.0  -0.4                          T                                        5161962
HAU   002.18 320.0 m E Sg      2013/01/09 00:49:05.4   0.0                          T                3.9  .37 Ml 2.0         5182131
MBDF  002.01 216.2 m E P       2013/01/09 00:48:32.4   0.6                          T                                        5161970
MBDF  002.01 216.2 m E Pg      2013/01/09 00:48:34.8   0.5                          T                                        5182142
MBDF  002.01 216.2 m E Sg      2013/01/09 00:49:00.7   0.5                          T                2.0  .27 Ml 2.1         5182135
CDF   002.20 339.5 m E Pn      2013/01/09 00:48:32.4   0.3                          T                                        5161965
CDF   002.20 339.5 m E Pg      2013/01/09 00:48:37.8   0.0                          T                                        5182150
CDF   002.20 339.5 m E Sn      2013/01/09 00:48:57.8  -0.2                          T                                        5182130
CDF   002.20 339.5 m E Sg      2013/01/09 00:49:05.9  -0.3                          T                2.8  .30 Ml 2.3         5182129
ORIF  002.30 232.1 m E Pg      2013/01/09 00:48:39.5  -0.1                          T                                        5161969
ORIF  002.30 232.1 m E Sg      2013/01/09 00:49:09.3   0.1                          T                1.8  .36 Ml 2.0         5182136
SBF   002.59 196.2 m E P       2013/01/09 00:48:40.5   0.3                          T                                        5182138
SBF   002.59 196.2 m E Sn      2013/01/09 00:49:07.8   0.4                          T                 .8  .18 Ml 2.0         5182137
PAGF  002.86 321.1 m E P       2013/01/09 00:48:44.2   0.3 142.8  3.7               T                                        5161974
PAGF  002.86 321.1 m E Pg      2013/01/09 00:48:49.7  -0.2                          T                                        5182149
MEZF  003.14 314.3 m E Pn      2013/01/09 00:48:44.9   0.1                          T                                        5182148
SMF   003.19 276.8 m E Pn      2013/01/09 00:48:45.4  -0.1                          T                                        5182143
SMF   003.19 276.8 m E Sg      2013/01/09 00:49:37.3   0.6                          T                2.1  .31 Ml 2.3         5182133
LOR   003.27 287.8 m E P       2013/01/09 00:48:49.9   0.1 103.4  -1.1              T                                        5182153
LOR   003.27 287.8 m E Pg      2013/01/09 00:48:57.7   0.3 107.7  3.2               T                                        5182152
LOR   003.27 287.8 m E Sg      2013/01/09 00:49:39.8   0.3                          T                1.3  .26 Ml 2.2         5182128
AVF   003.53 278.9 m E Pn      2013/01/09 00:48:50.1  -0.1                          T                                        5161976
AVF   003.53 278.9 m E P       2013/01/09 00:48:53.0  -0.4                          T                                        5182144
SSF   003.46 283.5 m E P       2013/01/09 00:48:52.6   0.2                          T                                        5161973
SSF   003.46 283.5 m E Pg      2013/01/09 00:49:01.1   0.1                          T                                        5182151
FRF   003.07 205.0 m E Pg      2013/01/09 00:48:53.9   0.2                          T                                        5182139
SMRF  003.12 221.3 m E Pg      2013/01/09 00:48:55.3   0.5                          T                                        5182140
BGF   003.87 275.0 m E P       2013/01/09 00:48:57.5  -0.7                          T                                        5161977
TCF   004.31 271.3 m E P       2013/01/09 00:49:04.2  -0.3                          T                                        5161975
VIVF  003.04 241.7 m E Sg      2013/01/09 00:49:32.8   0.6                          T                 .8  .29 Ml 1.9         5182134

.
EVENT     290043
    Date      Time       Latitude Longitude    Depth    Ndef Nsta Gap    Mag1  N    Mag2  N    Mag3  N   Author         ID
       rms   OT_Error      Smajor Sminor Az        Err   mdist  Mdist     Err        Err        Err      Quality

2013/01/09 01:02:10.8     41.7687    2.7584      9.0 f    51    6 189  Ml 1.7 11                         bulletin    290143
                                                                                                         _ldg
      0.38   +-  0.11       1.9    1.0  140.10 +-  0.0    0.16   3.65   +-0.2                            m i ke

SPAIN
Sta     Dist  EvAz     Phase      Date       Time     TRes  Azim  AzRes  Slow  SRes Def   SNR       Amp   Per   Mag1   Mag2       ID
MTLF  001.62 345.9 m E Pn      2013/01/09 01:02:38.0   0.1                          T                                        5164088
MTLF  001.62 345.9 m E Pg      2013/01/09 01:02:41.0   0.0                          T                                        5164087
MTLF  001.62 345.9 m E Sn      2013/01/09 01:02:57.6   0.0                          T                                        5164089
MTLF  001.62 345.9 m E Sg      2013/01/09 01:03:01.4  -0.6                          T                1.2  .23 Ml 1.8         5164090
EPF   002.19 305.9 m E Pn      2013/01/09 01:02:45.9   0.2                          T                                        5164092
EPF   002.19 305.9 m E Pg      2013/01/09 01:02:51.2  -0.4                          T                                        5164091
EPF   002.19 305.9 m E Sn      2013/01/09 01:03:11.3  -0.1                          T                                        5164097
EPF   002.19 305.9 m E Sg      2013/01/09 01:03:19.6  -0.2                          T                1.2  .20 Ml 2.0         5164098
LASF  002.44 018.9 m E Pn      2013/01/09 01:02:49.2   0.0                          T                                        5179074
LASF  002.44 018.9 m E Pg      2013/01/09 01:02:56.4   0.1                          T                                        5179073
LASF  002.44 018.9 m E Sn      2013/01/09 01:03:17.5   0.1                          T                 .1  .21 Ml 1.1         5179072
LASF  002.44 018.9 m E Sg      2013/01/09 01:03:27.6  -0.1                          T                 .3  .19 Ml 1.5         5179071
ETSF  002.71 295.8 m E Pn      2013/01/09 01:02:53.3   0.5                          T                                        5164096
ETSF  002.71 295.8 m E Pg      2013/01/09 01:03:00.5  -0.6                          T                                        5164095
ETSF  002.71 295.8 m E Sn      2013/01/09 01:03:24.7   1.0                          T                 .2  .17 Ml 1.5         5164093
ETSF  002.71 295.8 m E Sg      2013/01/09 01:03:35.6  -0.3                          T                 .6  .29 Ml 1.7         5164094
CAF   003.20 351.1 m E Pn      2013/01/09 01:03:00.0   0.6                          T                                        5179070
CAF   003.20 351.1 m E Pg      2013/01/09 01:03:10.3   0.2                          T                                        5179069
CAF   003.20 351.1 m E Sn      2013/01/09 01:03:35.5   0.1                          T                 .2  .13 Ml 1.7         5179068
CAF   003.20 351.1 m E Sg      2013/01/09 01:03:51.4   0.2                          T                 .3  .16 Ml 1.7         5179067
RJF   003.65 346.1 m E Pn      2013/01/09 01:03:05.4  -0.2                          T                                        5164104
RJF   003.65 346.1 m E Sn      2013/01/09 01:03:45.4  -0.7                          T                1.0  .33 Ml 1.7         5164103
RJF   003.65 346.1 m E Sg      2013/01/09 01:04:05.0  -0.2                          T                 .5  .16 Ml 1.8         5179063

.
