EVENT     263487
    Date      Time       Latitude Longitude    Depth    Ndef Nsta Gap    Mag1  N    Mag2  N    Mag3  N   Author         ID
       rms   OT_Error      Smajor Sminor Az        Err   mdist  Mdist     Err        Err        Err      Quality

2011/09/04 11:47:45.1     50.2276   12.4773     10.0      78   17 035  Ml 3.8 15                         js067245    263487

      0.81   +-  0.07       1.8    1.4  154.54 +-  0.0    0.02   7.67   +-0.2                            m i ke

GERMANY
Sta     Dist  EvAz     Phase      Date       Time     TRes  Azim  AzRes  Slow  SRes Def   SNR       Amp   Per   Mag1   Mag2       ID
CDF   003.86 243.9 m E Pn      2011/09/04 11:48:44.2   1.6                          T                                        4756874
CDF   003.86 243.9 m E Pg      2011/09/04 11:48:57.6   1.0                          T                                        4756873
CDF   003.86 243.9 m E Sg      2011/09/04 11:49:46.3   0.1                          T              127.9  .71 Ml 4.0         4756851
HINF  004.42 239.0 m E Pn      2011/09/04 11:48:50.3   0.1                          T                                        4756867
HINF  004.42 239.0 m E Pg      2011/09/04 11:49:06.5  -0.4                          T                                        4756866
HINF  004.42 239.0 m E Sg      2011/09/04 11:50:02.1  -1.5                          T               83.4  .58 Ml 3.9         4756854
RUP   003.54 263.5 m E Pg      2011/09/04 11:48:51.2   0.6                          T                                        4756875
RUP   003.54 263.5 m E Sg      2011/09/04 11:49:35.2  -0.9                          T                                        4756850
HAU   004.60 243.4 m E Pn      2011/09/04 11:48:53.3   0.7                          T                                        4756869
HAU   004.60 243.4 m E Pg      2011/09/04 11:49:09.9  -0.3                          T                                        4756868
HAU   004.60 243.4 m E Sg      2011/09/04 11:50:08.2  -1.0                          T               68.9  .46 Ml 3.7         4756853
SFTF  005.28 250.3 m E Pn      2011/09/04 11:49:03.2   1.3                          T                                        4756871
SFTF  005.28 250.3 m E Pg      2011/09/04 11:49:23.4   0.7  58.9  -5.7              T                                        4756870
PAGF  004.72 251.8 m E Pg      2011/09/04 11:49:12.7   0.3  57.7  -9.0              T                                        4756872
PAGF  004.72 251.8 m E Sg      2011/09/04 11:50:12.1  -0.8                          T               42.1 1.09 Ml 3.4         4756852
GIVF  004.92 271.5 m E Pg      2011/09/04 11:49:16.4   0.3                          T                                        4756876
GIVF  004.92 271.5 m E Sg      2011/09/04 11:50:18.3  -1.0                          T              106.9  .82 Ml 4.0         4756848
LOR   006.42 245.8 m E Pn      2011/09/04 11:49:18.5   1.1                          T                                        4756879
LOR   006.42 245.8 m E Pg      2011/09/04 11:49:43.9   0.2  48.4  -11.0             T                                        4756878
LOR   006.42 245.8 m E Sg      2011/09/04 11:51:06.1   0.0                          T               35.7  .65 Ml 3.9         4756846
CABF  005.58 232.0 m E Pg      2011/09/04 11:49:28.2  -0.2                          T                                        4756865
CABF  005.58 232.0 m E Sg      2011/09/04 11:50:40.4   0.4                          T               54.5  .69 Ml 3.9         4756855
LPL   006.09 221.5 m E Pg      2011/09/04 11:49:38.4   0.4                          T                                        4756863
LPG   006.10 221.3 m E Pg      2011/09/04 11:49:38.6   0.4                          T                                        4756862
LPG   006.10 221.3 m E Sg      2011/09/04 11:50:56.9   0.5                          T               20.5  .70 Ml 3.6         4756861
SSF   006.74 245.4 m E Pg      2011/09/04 11:49:49.7   0.1                          T                                        4756877
SSF   006.74 245.4 m E Sg      2011/09/04 11:51:15.5  -0.4                          T               26.4  .62 Ml 3.9         4756847
SMF   006.77 241.3 m E Pg      2011/09/04 11:49:50.4   0.2                          T                                        4756864
SMF   006.77 241.3 m E Sg      2011/09/04 11:51:16.8  -0.1                          T               20.1  .46 Ml 3.9         4756857
BAIF  005.32 271.4 m E Sg      2011/09/04 11:50:30.6  -1.0                          T               47.7  .88 Ml 3.7         4756849
AVF   006.97 243.9 m E Sg      2011/09/04 11:51:22.6  -0.5                          T               30.4  .84 Ml 3.8         4756856
ORIF  006.94 222.5 m E Sg      2011/09/04 11:51:24.1   1.9                          T               17.0  .75 Ml 3.6         4756860
VIVF  007.53 227.5 m E Sg      2011/09/04 11:51:41.4   0.7                          T                8.2  .54 Ml 3.5         4756859

.
EVENT     263483
    Date      Time       Latitude Longitude    Depth    Ndef Nsta Gap    Mag1  N    Mag2  N    Mag3  N   Author         ID
       rms   OT_Error      Smajor Sminor Az        Err   mdist  Mdist     Err        Err        Err      Quality

2011/09/04 12:31:56.6     44.3956    7.2387      2.0      18    7 175  Ml 1.6  5  Md 1.6  2              js067245    263483

      0.21   +-  0.08       1.8     .9   68.22 +-  0.0    0.16   1.27   +-0.4      +-0.1                 m i ke

NORTHERN ITALY
Sta     Dist  EvAz     Phase      Date       Time     TRes  Azim  AzRes  Slow  SRes Def   SNR       Amp   Per   Mag1   Mag2       ID
MBDF  000.47 314.9 m E Pg      2011/09/04 12:32:05.5  -0.3                          T                                        4756883
MBDF  000.47 314.9 m E Sg      2011/09/04 12:32:12.5   0.5                          T                2.1  .16        Md 1.7  4756884
SBF   000.55 165.0 m E Pg      2011/09/04 12:32:07.0  -0.1                          T                                        4756900
SBF   000.55 165.0 m E Sg      2011/09/04 12:32:14.4   0.0                          T                3.0  .18                4756880
FRF   000.94 207.3 m E Pg      2011/09/04 12:32:14.1  -0.1                          T                                        4756885
FRF   000.94 207.3 m E Sg      2011/09/04 12:32:26.3  -0.1                          T                2.4  .21 Ml 1.9 Md 1.6  4756886
ORIF  001.10 298.8 m E Pg      2011/09/04 12:32:17.4   0.1                          T                                        4756894
ORIF  001.10 298.8 m E Sg      2011/09/04 12:32:31.6  -0.1                          T                 .9  .25 Ml 1.4         4756897
LMR   001.19 206.7 m E Pg      2011/09/04 12:32:18.5  -0.2                          T                                        4756881
LMR   001.19 206.7 m E Sg      2011/09/04 12:32:34.0  -0.1                          T                4.7  .24 Ml 2.2         4756882
LPL   001.18 342.4 m E Pg      2011/09/04 12:32:18.9   0.0                          T                                        4756895
LPL   001.18 342.4 m E Sg      2011/09/04 12:32:34.0  -0.1                          T                 .3  .19 Ml 1.1         4756896
SMRF  001.27 251.3 m E Pg      2011/09/04 12:32:20.3  -0.1                          T                                        4756898
SMRF  001.27 251.3 m E Sg      2011/09/04 12:32:36.6  -0.1                          T                1.3  .29 Ml 1.6         4756899

.
EVENT     263484
    Date      Time       Latitude Longitude    Depth    Ndef Nsta Gap    Mag1  N    Mag2  N    Mag3  N   Author         ID
       rms   OT_Error      Smajor Sminor Az        Err   mdist  Mdist     Err        Err        Err      Quality

2011/09/04 12:39:44.9     46.5677   11.0558     10.0 f    72   35 085  Ml 3.0 13                         js067245    263484

      1.26   +-  0.23       5.8    4.7     .41 +-  0.0    0.20   9.39   +-0.2                            m i ke

NORTHERN ITALY
Sta     Dist  EvAz     Phase      Date       Time     TRes  Azim  AzRes  Slow  SRes Def   SNR       Amp   Per   Mag1   Mag2       ID
LPG   003.18 251.9 m E Pn      2011/09/04 12:40:33.4  -0.1                          T                                        4756964
LPG   003.18 251.9 m E P       2011/09/04 12:40:36.4  -0.2                          T   001.0                                4756928
LPG   003.18 251.9 m E Sn      2011/09/04 12:41:09.5   0.2                          T               13.8  .46 Ml 2.9         4756963
CDF   003.16 307.1 m E Pn      2011/09/04 12:40:33.9   0.9                          T   001.0                                4756916
HINF  003.13 295.1 m E Pn      2011/09/04 12:40:33.9   1.4                          T   001.0                                4756938
HINF  003.13 295.1 m E Sn      2011/09/04 12:41:06.8  -0.8                          T                                        4756958
HINF  003.13 295.1 m E Sg      2011/09/04 12:41:21.9  -1.3                          T               44.9  .68 Ml 3.3         4756959
CDF   003.16 307.1 m E Sg      2011/09/04 12:41:23.9  -0.3                          T               17.8  .40 Ml 3.2         4756954
LPL   003.19 252.3 m E P       2011/09/04 12:40:36.4  -0.2                          T   001.0                                4756929
LPL   003.19 252.3 m E Sn      2011/09/04 12:41:09.4   0.0                          T               13.1  .53 Ml 2.9         4756962
CABF  003.43 272.5 m E Pn      2011/09/04 12:40:37.4   0.8                          T   001.0                                4756936
MBDF  003.52 240.0 m E Pn      2011/09/04 12:40:37.6  -0.4                          T                                        4756965
MBDF  003.52 240.0 m E Sn      2011/09/04 12:41:18.0   0.7                          T               21.7  .74 Ml 3.0         4756961
HAU   003.51 295.9 m E Pn      2011/09/04 12:40:38.2   0.4                          T   001.0                                4756920
HAU   003.51 295.9 m E Sn      2011/09/04 12:41:16.3  -0.5                          T                                        4756957
HAU   003.51 295.9 m E Sg      2011/09/04 12:41:34.1  -1.0                          T   001.0       26.3  .32 Ml 3.2         4756921
PAGF  004.12 300.8 m E Pn      2011/09/04 12:40:46.6   0.7                          T                                        4756967
PAGF  004.12 300.8 m E Sg      2011/09/04 12:41:53.8  -0.3                          T                4.2  .58 Ml 2.5         4756955
ORIF  003.98 247.4 m E P       2011/09/04 12:40:46.0  -0.7                          T   001.0                                4756941
RUP   004.12 321.0 m E Pn      2011/09/04 12:40:47.6   1.5                          T                                        4756969
RUP   004.12 321.0 m E Sg      2011/09/04 12:41:53.7  -0.5                          T                                        4756953
PGF   004.28 200.8 m E Pn      2011/09/04 12:40:49.0   0.8                          T   001.0                                4756931
FRF   004.34 227.7 m E Pn      2011/09/04 12:40:49.5   0.6                          T   001.0                                4756918
SFTF  004.40 294.0 m E Pn      2011/09/04 12:40:50.0   0.2 115.0  5.4               T                                        4756968
LMR   004.57 226.6 m E Pn      2011/09/04 12:40:52.0   0.0                          T   001.0                                4756925
LMR   004.57 226.6 m E Sn      2011/09/04 12:41:44.7   2.7                          T   001.0        4.3  .56 Ml 2.7         4756926
MEZF  004.50 297.6 m E Pn      2011/09/04 12:40:53.5   2.3 123.0  9.8               T   001.0                                4756939
MEZF  004.50 297.6 m E Sg      2011/09/04 12:42:05.6  -0.4                          T                6.0  .34 Ml 3.0         4756956
SMRF  004.66 238.2 m E Pn      2011/09/04 12:40:53.8   0.5                          T   001.0                                4756944
VIVF  004.79 251.4 m E Pn      2011/09/04 12:40:56.5   1.4                          T   001.0                                4756943
LOR   004.98 280.7 m E Pn      2011/09/04 12:40:58.4   0.7 100.6  5.2               T   001.0                                4756927
LOR   004.98 280.7 m E Sn      2011/09/04 12:41:52.0   0.1                          T                6.4  .45 Ml 3.0         4756951
SMF   004.97 273.5 m E Pn      2011/09/04 12:40:58.6   1.0                          T   001.0                                4756932
SMF   004.97 273.5 m E Sn      2011/09/04 12:41:51.6  -0.1                          T                7.1  .42 Ml 3.1         4756960
SSF   005.21 278.2 m E Pn      2011/09/04 12:41:01.0   0.2                          T   001.0                                4756933
AVF   005.31 275.2 m E Pn      2011/09/04 12:41:02.5   0.4                          T   001.0                                4756913
GIVF  005.46 312.7 m E Pn      2011/09/04 12:41:05.5   1.4                          T   001.0                                4756937
BGF   005.66 272.9 m E Pn      2011/09/04 12:41:07.0   0.0                          T   001.0                                4756914
BGF   005.66 272.9 m E Sn      2011/09/04 12:42:07.8  -0.4                          T   001.0          5  .28 Ml 3.3         4756915
LASF  005.65 246.5 m E Pn      2011/09/04 12:41:07.2   0.4                          T   001.0                                4756922
BAIF  005.75 309.9 m E Pn      2011/09/04 12:41:10.5   2.4                          T   001.0                                4756935
BAIF  005.75 309.9 m E Sn      2011/09/04 12:42:09.3  -0.9                          T                3.3  .56 Ml 2.8         4756952
TCF   006.12 270.6 m E Pn      2011/09/04 12:41:13.1  -0.2                          T   001.0                                4756934
CAF   006.50 258.6 m E Pn      2011/09/04 12:41:19.7   1.2                          T                                        4756966
RJF   006.77 262.7 m E Pn      2011/09/04 12:41:22.4   0.4                          T   001.0                                4756912
MTLF  007.05 246.0 m E Pn      2011/09/04 12:41:25.1  -0.8                          T   001.0                                4756940
LFF   007.40 261.0 m E Pn      2011/09/04 12:41:29.6  -1.0                          T   001.0                                4756924
MFF   007.72 274.3 m E Pn      2011/09/04 12:41:36.6   1.6                          T   001.0                                4756930
LDF   007.83 289.1 m E Pn      2011/09/04 12:41:37.6   1.2                          T   001.0                                4756923
FLN   008.09 289.9 m E Pn      2011/09/04 12:41:41.6   1.6 109.2  7.8               T   001.0                                4756917
GRR   008.28 287.0 m E Pn      2011/09/04 12:41:44.0   1.5                          T   001.0                                4756919
SGMF  009.39 285.3 m E Pn      2011/09/04 12:41:58.7   1.1                          T   001.0                                4756942

.
EVENT     263482
    Date      Time       Latitude Longitude    Depth    Ndef Nsta Gap    Mag1  N    Mag2  N    Mag3  N   Author         ID
       rms   OT_Error      Smajor Sminor Az        Err   mdist  Mdist     Err        Err        Err      Quality

2011/09/04 16:47:41.0     43.7225    7.5971      2.0      10    5 283  Ml 2.2  3  Md 1.9  1              js067245    263482

      0.20   +-  0.31       5.2    2.4  100.96 +-  0.0    0.18   1.72   +-0.2      +-                    m i ke

NEAR SOUTH COAST OF FRANCE
Sta     Dist  EvAz     Phase      Date       Time     TRes  Azim  AzRes  Slow  SRes Def   SNR       Amp   Per   Mag1   Mag2       ID
SBF   000.18 320.2 m E Pg      2011/09/04 16:47:44.9   0.1                          T                                        4756978
SBF   000.18 320.2 m E Sg      2011/09/04 16:47:47.2  -0.2                          T              108.2  .22        Md 1.9  4756979
FRF   000.71 257.1 m E Pg      2011/09/04 16:47:54.1  -0.2                          T                                        4756974
FRF   000.71 257.1 m E Sg      2011/09/04 16:48:03.6   0.0                          T                4.3  .24                4756975
LMR   000.88 244.2 m E Pg      2011/09/04 16:47:57.7   0.2                          T                                        4756976
LMR   000.88 244.2 m E Sg      2011/09/04 16:48:09.2   0.2                          T               10.9  .26 Ml 2.4         4756977
SMRF  001.48 280.5 m E Pg      2011/09/04 16:48:08.5  -0.2                          T                                        4756972
SMRF  001.48 280.5 m E Sg      2011/09/04 16:48:27.9   0.0                          T                5.6  .34 Ml 2.2         4756973
ORIF  001.72 314.7 m E Pg      2011/09/04 16:48:13.9   0.8                          T                                        4756970
ORIF  001.72 314.7 m E Sg      2011/09/04 16:48:35.6   0.4                          T                2.7  .33 Ml 2.1         4756971

.
EVENT     263624
    Date      Time       Latitude Longitude    Depth    Ndef Nsta Gap    Mag1  N    Mag2  N    Mag3  N   Author         ID
       rms   OT_Error      Smajor Sminor Az        Err   mdist  Mdist     Err        Err        Err      Quality

2011/09/04 23:14:42.6     47.5600    7.6282      8.0 f    13    3 069  Ml 1.8  2  Md 1.8  2              js067245    263624

      0.47   +-  0.10       1.8    1.5    4.10 +-  0.0    0.17   1.68   +-0.3      +-0.1                 m i ke

SWITZERLAND
Sta     Dist  EvAz     Phase      Date       Time     TRes  Azim  AzRes  Slow  SRes Def   SNR       Amp   Per   Mag1   Mag2       ID
HINF  000.58 296.4 m E Pg      2011/09/04 23:14:54.3   0.5                          T                                        4756989
HINF  000.58 296.4 m E Sg      2011/09/04 23:15:01.4  -0.2                          T                                        4756990
HINF  000.58 296.4 m E Sn      2011/09/04 23:15:04.0  -0.9                          T                1.5  .22        Md 1.7  4756991
CDF   000.88 344.6 m E Pg      2011/09/04 23:14:59.5   0.1                          T                                        4756994
CDF   000.88 344.6 m E Sg      2011/09/04 23:15:10.8  -0.1                          T                3.4  .25 Ml 2.0 Md 1.9  4756995
HAU   000.97 297.8 m E Pg      2011/09/04 23:15:01.1   0.1                          T                                        4756992
HAU   000.97 297.8 m E Sg      2011/09/04 23:15:14.3   0.7                          T                2.8  .30 Ml 1.6         4756993

.
