EVENT     284947
    Date      Time       Latitude Longitude    Depth    Ndef Nsta Gap    Mag1  N    Mag2  N    Mag3  N   Author         ID
       rms   OT_Error      Smajor Sminor Az        Err   mdist  Mdist     Err        Err        Err      Quality

2012/10/12 04:51:43.9     44.9264    8.1507     14.0 f   101   27 070  Ml 3.0 28  Md 3.1  2              bulletin    285047
                                                                                                         _ldg
      0.87   +-  0.10       2.5    1.9   77.67 +-  0.0    0.16   7.10   +-0.3      +-0.0                 m i ke

NORTHERN ITALY
Sta     Dist  EvAz     Phase      Date       Time     TRes  Azim  AzRes  Slow  SRes Def   SNR       Amp   Per   Mag1   Mag2       ID
MBDF  001.00 259.0 m E Pg      2012/10/12 04:52:01.3  -1.7                          T   001.0                                5095870
MBDF  001.00 259.0 m E Sg      2012/10/12 04:52:15.1  -1.0                          T   001.0      151.3  .48 Ml 3.3 Md 3.1  5095871
LPG   001.14 300.5 m E Pg      2012/10/12 04:52:03.4  -2.4                          T   001.0                                5095854
LPG   001.14 300.5 m E Sg      2012/10/12 04:52:19.1  -1.6                          T               24.1  .30 Ml 2.8         5095880
LPL   001.16 301.0 m E Pg      2012/10/12 04:52:03.6  -2.5                          T                                        5095879
LPL   001.16 301.0 m E Sg      2012/10/12 04:52:19.6  -1.6                          T               37.6  .30 Ml 3.0         5095878
SBF   001.18 206.0 m E Pn      2012/10/12 04:52:04.6   0.1                          T   001.0                                5095858
SBF   001.18 206.0 m E Sn      2012/10/12 04:52:20.5   1.1                          T   001.0      119.2  .36 Ml 3.4 Md 3.1  5095859
ORIF  001.61 270.5 m E Pg      2012/10/12 04:52:12.1  -2.1                          T   001.0                                5095874
ORIF  001.61 270.5 m E Sg      2012/10/12 04:52:33.9  -1.1                          T   001.0       63.6  .48 Ml 3.2         5095875
FRF   001.74 218.9 m E Pn      2012/10/12 04:52:12.3   0.2                          T   001.0                                5095845
FRF   001.74 218.9 m E Sn      2012/10/12 04:52:34.1   1.4                          T   001.0       59.8  .56 Ml 3.2         5095846
LMR   001.98 217.2 m E Pn      2012/10/12 04:52:15.4   0.1                          T   001.0                                5095850
LMR   001.98 217.2 m E Sn      2012/10/12 04:52:39.5   1.0                          T   001.0       23.3  .32 Ml 3.1         5095851
SMRF  002.07 243.6 m E Pn      2012/10/12 04:52:16.9   0.3                          T   001.0                                5095877
SMRF  002.07 243.6 m E Sn      2012/10/12 04:52:42.5   1.8                          T               10.9  .26 Ml 2.8         5095881
CABF  002.22 320.1 m E Pn      2012/10/12 04:52:19.0   0.3                          T   001.0                                5095866
CABF  002.22 320.1 m E Sn      2012/10/12 04:52:43.0  -0.3                          T   001.0        9.5  .32 Ml 2.7         5095867
PGF   002.46 165.2 m E Pn      2012/10/12 04:52:21.5  -0.4                          T   001.0                                5095856
PGF   002.46 165.2 m E Pg      2012/10/12 04:52:28.0  -1.7                          T   001.0                                5095857
PGF   002.46 165.2 m E Sn      2012/10/12 04:52:50.6   0.7                          T               16.8  .30 Ml 3.3         5095882
VIVF  002.47 269.6 m E Pn      2012/10/12 04:52:22.4   0.3                          T   001.0                                5095876
VIVF  002.47 269.6 m E Sn      2012/10/12 04:52:51.7   1.4                          T                1.4  .17 Ml 2.2         5095885
HINF  003.03 343.2 m E Pn      2012/10/12 04:52:28.7  -1.0                          T   001.0                                5095868
HINF  003.03 343.2 m E Sn      2012/10/12 04:53:02.6  -0.9                          T   001.0       10.5  .40 Ml 2.9         5095869
LASF  003.19 256.0 m E Pn      2012/10/12 04:52:32.3   0.5                          T   001.0                                5095847
LASF  003.19 256.0 m E Sn      2012/10/12 04:53:08.8   1.5                          T   001.0        7.7  .44 Ml 2.7         5095848
CDF   003.54 350.5 m E Pn      2012/10/12 04:52:35.5  -1.2                          T   001.0                                5095843
CDF   003.54 350.5 m E Sn      2012/10/12 04:53:14.6  -1.2                          T   001.0        7.5  .48 Ml 2.9         5095844
SMF   003.47 301.2 m E Pn      2012/10/12 04:52:35.9   0.2                          T   001.0                                5095860
SMF   003.47 301.2 m E Sn      2012/10/12 04:53:14.7   0.6                          T   001.0        9.9  .36 Ml 3.0         5095861
LOR   003.79 309.6 m E Pn      2012/10/12 04:52:40.0  -0.1                          T   001.0                                5095852
LOR   003.79 309.6 m E Sn      2012/10/12 04:53:22.2   0.4                          T   001.0       14.1  .28 Ml 3.3         5095853
SSF   003.88 305.1 m E Pn      2012/10/12 04:52:40.9  -0.3                          T   001.0                                5095862
SSF   003.88 305.1 m E Sn      2012/10/12 04:53:23.4  -0.4                          T   001.0        4.5  .36 Ml 2.8         5095863
SFTF  003.92 327.9 m E Pn      2012/10/12 04:52:40.9  -0.8                          T                                        5095889
SFTF  003.92 327.9 m E Sn      2012/10/12 04:53:25.3   0.5                          T                7.9  .26 Ml 3.1         5095888
AVF   003.84 300.8 m E Pn      2012/10/12 04:52:40.9   0.4                          T   001.0                                5095840
AVF   003.84 300.8 m E Sn      2012/10/12 04:53:22.7   0.0                          T                3.5  .28 Ml 2.7         5095892
PAGF  003.99 336.2 m E Pn      2012/10/12 04:52:42.6  -0.1                          T                                        5095887
PAGF  003.99 336.2 m E Sn      2012/10/12 04:53:26.0  -0.5                          T                4.2  .36 Ml 2.7         5095886
BGF   004.06 295.6 m E Pn      2012/10/12 04:52:43.8   0.2                          T   001.0                                5095841
BGF   004.06 295.6 m E Sn      2012/10/12 04:53:28.9   0.8                          T               14.4  .34 Ml 3.3         5095883
CAF   004.32 272.1 m E Pn      2012/10/12 04:52:47.6   0.3                          T   001.0                                5095842
CAF   004.32 272.1 m E Sn      2012/10/12 04:53:35.0   0.6                          T                  1  .26 Ml 2.3         5095884
TCF   004.39 290.2 m E Pn      2012/10/12 04:52:48.5   0.4                          T   001.0                                5095864
TCF   004.39 290.2 m E Sn      2012/10/12 04:53:36.4   0.4                          T   001.0        4.2  .19 Ml 3.1         5095865
MTLF  004.56 251.7 m E Pn      2012/10/12 04:52:50.4   0.0                          T   001.0                                5095872
MTLF  004.56 251.7 m E Sn      2012/10/12 04:53:41.4   1.5                          T   001.0        2.4  .40 Ml 2.6         5095873
MFF   006.04 289.0 m E Pn      2012/10/12 04:53:10.6   0.0                          T                                        5095891
MFF   006.04 289.0 m E Sn      2012/10/12 04:54:16.6   1.1                          T   001.0          7  .72 Ml 3.3         5095855
LDF   006.76 305.8 m E Pn      2012/10/12 04:53:20.6   0.1                          T   001.0                                5095849
GRR   007.10 302.4 m E Pn      2012/10/12 04:53:24.9  -0.1                          T                                        5095890

.
EVENT     284950
    Date      Time       Latitude Longitude    Depth    Ndef Nsta Gap    Mag1  N    Mag2  N    Mag3  N   Author         ID
       rms   OT_Error      Smajor Sminor Az        Err   mdist  Mdist     Err        Err        Err      Quality

2012/10/12 06:44:25.1     44.6396    7.2805     15.0 f    37    9 106  Ml 1.8  8  Md 1.8  2              bulletin    285050
                                                                                                         _ldg
      1.00   +-  0.21       5.1    3.0   73.79 +-  0.0    0.14   2.06   +-0.2      +-0.2                 m i ke

NORTHERN ITALY
Sta     Dist  EvAz     Phase      Date       Time     TRes  Azim  AzRes  Slow  SRes Def   SNR       Amp   Per   Mag1   Mag2       ID
MBDF  000.37 283.7 m E Pg      2012/10/12 06:44:33.0   0.1                          T                                        5095922
MBDF  000.37 283.7 m E Sg      2012/10/12 06:44:37.6  -0.6                          T               11.5  .22        Md 1.7  5095921
SBF   000.78 171.8 m E Pg      2012/10/12 06:44:40.2   0.0                          T                                        5095934
SBF   000.78 171.8 m E Sg      2012/10/12 06:44:50.5  -0.1                          T                4.2  .20        Md 2.0  5095933
LPG   000.94 336.6 m E Pg      2012/10/12 06:44:43.7   0.5                          T                                        5095920
LPG   000.94 336.6 m E Sg      2012/10/12 06:44:55.5   0.0                          T                3.3  .27 Ml 1.9         5095919
LPL   000.96 336.3 m E Pg      2012/10/12 06:44:44.1   0.5                          T                                        5095918
LPL   000.96 336.3 m E Sg      2012/10/12 06:44:55.9  -0.3                          T                3.4  .26 Ml 1.9         5095917
ORIF  001.04 286.1 m E Pg      2012/10/12 06:44:44.8   0.0                          T                                        5095926
ORIF  001.04 286.1 m E Sg      2012/10/12 06:44:58.0  -0.3                          T                1.4  .20 Ml 1.7         5095925
FRF   001.17 203.2 m E Pg      2012/10/12 06:44:47.1  -0.1                          T                                        5095924
FRF   001.17 203.2 m E Sg      2012/10/12 06:45:02.3  -0.1                          T                4.4  .26 Ml 2.2         5095923
LMR   001.42 203.4 m E Pn      2012/10/12 06:44:50.7   1.9                          T                                        5095936
LMR   001.42 203.4 m E Sn      2012/10/12 06:45:08.7   2.7                          T                1.4  .23 Ml 1.8         5095935
SMRF  001.39 242.1 m E Pg      2012/10/12 06:44:51.3   0.0                          T                                        5095932
SMRF  001.39 242.1 m E Sg      2012/10/12 06:45:09.0  -0.4                          T                 .6  .15 Ml 1.6         5095931
VIVF  001.87 277.6 m E Pn      2012/10/12 06:44:56.6   1.6                          T                                        5095930
VIVF  001.87 277.6 m E Sn      2012/10/12 06:45:19.3   2.4                          T                 .7  .25 Ml 1.6         5095929

.
EVENT     284960
    Date      Time       Latitude Longitude    Depth    Ndef Nsta Gap    Mag1  N    Mag2  N    Mag3  N   Author         ID
       rms   OT_Error      Smajor Sminor Az        Err   mdist  Mdist     Err        Err        Err      Quality

2012/10/12 08:25:45.0     42.8743    -.4646      2.0       6    3 214             Md 1.0  2              bulletin    285060
                                                                                                         _ldg
      0.36   +-  0.66      36.3    3.7    2.87 +-  0.0    0.07   0.61              +-0.2                 m i ke

PYRENEES
Sta     Dist  EvAz     Phase      Date       Time     TRes  Azim  AzRes  Slow  SRes Def   SNR       Amp   Per   Mag1   Mag2       ID
ETSF  000.07 289.3 m E Pg      2012/10/12 08:25:46.4  -0.4                          T                                        5096267
ETSF  000.07 289.3 m E Sg      2012/10/12 08:25:48.4   0.3                          T                5.3  .21        Md 1.1  5096266
EPF   000.61 074.9 m E Pg      2012/10/12 08:25:56.6   0.0                          T                                        5096462
EPF   000.61 074.9 m E Sg      2012/10/12 08:26:04.4  -0.3                          T                 .8  .21                5096263
SJPF  000.61 293.4 m E Pg      2012/10/12 08:25:56.9   0.3                          T                                        5096265
SJPF  000.61 293.4 m E Sg      2012/10/12 08:26:03.8  -0.6                          T                 .5  .18        Md  .9  5096264

.
EVENT     284994
    Date      Time       Latitude Longitude    Depth    Ndef Nsta Gap    Mag1  N    Mag2  N    Mag3  N   Author         ID
       rms   OT_Error      Smajor Sminor Az        Err   mdist  Mdist     Err        Err        Err      Quality

2012/10/12 11:40:16.0     46.0232    4.5881       .0 f    42   13 081  Ml 2.2 12  Md 2.4  2              bulletin    285094
                                                                                                         _ldg
      0.31   +-  0.05       1.2     .8   68.51 +-  0.0    0.81   3.17   +-0.3      +-0.2                 m i km

FRANCE
Sta     Dist  EvAz     Phase      Date       Time     TRes  Azim  AzRes  Slow  SRes Def   SNR       Amp   Per   Mag1   Mag2       ID
SMF   000.81 320.5 m E Pg      2012/10/12 11:40:31.6   0.0                          T                                        5096361
SMF   000.81 320.5 m E Pn      2012/10/12 11:40:33.1  -0.2                          T                                        5096372
SMF   000.81 320.5 m E Sg      2012/10/12 11:40:42.1  -0.2                          T                1.7  .15        Md 2.6  5096371
SMF   000.81 320.5 m E Sn      2012/10/12 11:40:45.2  -0.3                          T               16.5  .22        Md 2.3  5096382
VIVF  001.17 177.0 m E Pg      2012/10/12 11:40:37.8  -0.4                          T                                        5096364
VIVF  001.17 177.0 m E Sg      2012/10/12 11:40:53.2  -0.3                          T                8.6  .25 Ml 2.4         5096366
AVF   001.15 312.4 m E Pn      2012/10/12 11:40:37.9   0.0                          T                                        5096360
AVF   001.15 312.4 m E Sg      2012/10/12 11:40:52.8  -0.1                          T               10.2  .22 Ml 2.6         5096375
CABF  001.19 060.0 m E Pn      2012/10/12 11:40:38.5  -0.1                          T                                        5096381
CABF  001.19 060.0 m E Sn      2012/10/12 11:40:54.6  -0.1                          T                                        5096380
SSF   001.28 324.7 m E Pg      2012/10/12 11:40:40.3   0.1                          T                                        5096378
SSF   001.28 324.7 m E Sg      2012/10/12 11:40:56.9   0.0                          T                6.0  .18 Ml 2.6         5096377
BGF   001.32 294.5 m E Pn      2012/10/12 11:40:40.6   0.4                          T                                        5096390
BGF   001.32 294.5 m E Sn      2012/10/12 11:40:57.0  -0.7                          T                                        5096389
LOR   001.34 338.3 m E Pg      2012/10/12 11:40:41.3  -0.1 160.3  2.5               T                                        5096379
LOR   001.34 338.3 m E Sg      2012/10/12 11:40:58.9  -0.1 155.7  -2.0              T                6.3  .21 Ml 2.4         5096376
ORIF  001.43 140.1 m E Pn      2012/10/12 11:40:42.3   0.5                          T                                        5096386
ORIF  001.43 140.1 m E Sg      2012/10/12 11:41:02.0   0.2                          T                5.4  .34 Ml 2.2         5096385
TCF   001.67 280.0 m E Pn      2012/10/12 11:40:45.2   0.1                          T                                        5096359
TCF   001.67 280.0 m E Pg      2012/10/12 11:40:47.7   0.2                          T                                        5096370
TCF   001.67 280.0 m E Sn      2012/10/12 11:41:05.7  -0.4                          T                 .5  .15 Ml 1.7         5096374
TCF   001.67 280.0 m E Sg      2012/10/12 11:41:09.5   0.2                          T                2.5  .19 Ml 2.3         5096373
LPG   001.60 108.4 m E Pg      2012/10/12 11:40:46.9   0.3                          T                                        5096384
LPG   001.60 108.4 m E Sn      2012/10/12 11:41:03.9  -0.9                          T                2.1  .20 Ml 2.1         5096383
LASF  002.01 195.2 m E Pn      2012/10/12 11:40:49.4  -0.3                          T                                        5096363
LASF  002.01 195.2 m E Pg      2012/10/12 11:40:53.6  -0.2                          T                                        5096362
LASF  002.01 195.2 m E Sn      2012/10/12 11:41:13.9  -0.3                          T                                        5096400
LASF  002.01 195.2 m E Sg      2012/10/12 11:41:19.7  -0.2                          T                2.3  .25 Ml 2.2         5096365
CAF   002.09 239.2 m E Pn      2012/10/12 11:40:50.1  -0.6                          T                                        5096388
CAF   002.09 239.2 m E Sn      2012/10/12 11:41:15.9  -0.2                          T                1.8  .18 Ml 2.2         5096387
MTLF  003.17 213.1 m E Pn      2012/10/12 11:41:05.1  -0.3                          T                                        5096369
MTLF  003.17 213.1 m E Pg      2012/10/12 11:41:15.1   0.1                          T                                        5096368
MTLF  003.17 213.1 m E Sn      2012/10/12 11:41:42.2   0.3                          T                 .7  .27 Ml 1.9         5096367
MTLF  003.17 213.1 m E Sg      2012/10/12 11:41:56.2   0.3                          T                1.2  .30 Ml 2.0         5096391

.
