EVENT     290003
    Date      Time       Latitude Longitude    Depth    Ndef Nsta Gap    Mag1  N    Mag2  N    Mag3  N   Author         ID
       rms   OT_Error      Smajor Sminor Az        Err   mdist  Mdist     Err        Err        Err      Quality

2013/01/09 23:27:29.3     37.5422   -3.7373      2.0     170   27 060  Ml 3.9 13                         bulletin    290103
                                                                                                         _ldg
      1.28   +-  0.12       2.5    2.0  171.74 +-  0.0    0.41  11.63   +-0.4                            m i ke

SPAIN
Sta     Dist  EvAz     Phase      Date       Time     TRes  Azim  AzRes  Slow  SRes Def   SNR       Amp   Per   Mag1   Mag2       ID
SJPF  005.89 018.2 m E Pn      2013/01/09 23:28:55.9   0.7                          T                                        5163009
SJPF  005.89 018.2 m E Sn      2013/01/09 23:30:00.3   1.0                          T               22.0  .26 Ml 4.0         5163026
ETSF  005.88 023.4 m E Pn      2013/01/09 23:28:56.8   1.6                          T                                        5163010
ETSF  005.88 023.4 m E Sn      2013/01/09 23:29:59.0  -0.2                          T               26.4  .34 Ml 4.0         5163027
EPF   006.31 028.3 m E Pn      2013/01/09 23:29:01.6   0.5                          T                                        5163008
EPF   006.31 028.3 m E Sn      2013/01/09 23:30:08.4  -1.0                          T               19.6  .30 Ml 4.0         5163028
MTLF  007.36 036.2 m E Pn      2013/01/09 23:29:15.6   0.3                          T                                        5163017
MTLF  007.36 036.2 m E Sn      2013/01/09 23:30:35.9   1.4                          T                4.8  .38 Ml 3.4         5163029
LFF   008.12 023.1 m E Pn      2013/01/09 23:29:26.9   1.3                          T                                        5163007
LFF   008.12 023.1 m E Sn      2013/01/09 23:30:54.0   1.3                          T               23.1  .60 Ml 3.9         5163024
CAF   008.57 028.8 m E Pn      2013/01/09 23:29:32.2   0.3                          T                                        5163006
CAF   008.57 028.8 m E Sn      2013/01/09 23:31:02.5  -1.1                          T                9.9  .58 Ml 3.7         5163025
LASF  008.70 039.0 m E Pn      2013/01/09 23:29:33.5  -0.1                          T                                        5163011
RJF   008.70 025.3 m E Pn      2013/01/09 23:29:33.8   0.3                          T                                        5163005
RJF   008.70 025.3 m E Sn      2013/01/09 23:31:06.4  -0.2                          T                9.0  .48 Ml 3.5         5163023
MFF   009.44 015.3 m E Pn      2013/01/09 23:29:43.7   0.1                          T                                        5163002
MFF   009.44 015.3 m E Sn      2013/01/09 23:31:22.2  -2.0                          T                                        5163019
LMR   009.72 050.3 m E Pn      2013/01/09 23:29:47.6   0.2                          T                                        5163031
LMR   009.72 050.3 m E Sn      2013/01/09 23:31:30.3  -0.5                          T               11.2  .56 Ml 4.0         5163030
TCF   009.80 025.0 m E Pn      2013/01/09 23:29:48.3  -0.2                          T                                        5163013
TCF   009.80 025.0 m E Sn      2013/01/09 23:31:33.9   1.1                          T               19.1 1.18 Ml 3.9         5163020
BGF   010.25 026.4 m E Pn      2013/01/09 23:29:54.8   0.2                          T                                        5163004
BGF   010.25 026.4 m E Sn      2013/01/09 23:31:42.9  -0.6                          T               11.5  .44 Ml 4.2         5163022
ORIF  010.33 041.5 m E Pn      2013/01/09 23:29:55.7  -0.1                          T                                        5163034
QUIF  010.38 002.1 m E Pn      2013/01/09 23:29:56.6   0.2                          T                                        5163001
QUIF  010.38 002.1 m E Sn      2013/01/09 23:31:46.0  -0.6                          T                                        5182296
AVF   010.63 027.4 m E Pn      2013/01/09 23:29:59.4  -0.4                          T                                        5163036
SMF   010.69 029.3 m E Pn      2013/01/09 23:30:01.0   0.3                          T                                        5163012
SGMF  010.74 004.2 m E Pn      2013/01/09 23:30:01.7   0.3                          T                                        5163000
SGMF  010.74 004.2 m E Sn      2013/01/09 23:31:53.4  -1.9                          T                                        5182295
HYF   010.80 023.8 m E Pn      2013/01/09 23:30:02.2   0.0                          T                                        5163003
HYF   010.80 023.8 m E Sn      2013/01/09 23:32:00.5   3.8                          T               30.2  .38 Ml 4.8         5163021
MBDF  010.69 044.5 m E Pn      2013/01/09 23:30:02.5   1.7                          T                                        5163035
SSF   010.91 027.1 m E Pn      2013/01/09 23:30:03.2  -0.5                          T                                        5163018
SSF   010.91 027.1 m E Sn      2013/01/09 23:31:59.6   0.1                          T                1.5  .34 Ml 3.6         5182294
LPG   011.17 041.4 m E Pn      2013/01/09 23:30:07.2  -0.3                          T                                        5163032
LPL   011.17 041.2 m E Pn      2013/01/09 23:30:07.8   0.3                          T                                        5163033
LDF   011.36 012.3 m E Pn      2013/01/09 23:30:10.2   0.5                          T                                        5163014
LDF   011.36 012.3 m E Sn      2013/01/09 23:32:05.6  -4.4                          T                                        5182298
FLN   011.46 010.9 m E Pn      2013/01/09 23:30:11.0  -0.2                          T                                        5163016
CABF  011.63 035.7 m E Pn      2013/01/09 23:30:13.6   0.1                          T                                        5163015
GRR   011.04 010.1 m E Sn      2013/01/09 23:32:00.1  -2.4                          T                                        5182297
LOR   011.22 027.6 m E Sn      2013/01/09 23:32:06.6  -0.1                          T                 .6  .25 Ml 3.3         5182303

.
EVENT     290004
    Date      Time       Latitude Longitude    Depth    Ndef Nsta Gap    Mag1  N    Mag2  N    Mag3  N   Author         ID
       rms   OT_Error      Smajor Sminor Az        Err   mdist  Mdist     Err        Err        Err      Quality

2013/01/10 00:21:15.6     45.7703   10.9569      2.0      23   11 246  Ml 2.4  7                         bulletin    290104
                                                                                                         _ldg
      0.88   +-  0.48       9.9    6.3   80.03 +-  0.0    2.96   5.37   +-0.2                            m i ke

NORTHERN ITALY
Sta     Dist  EvAz     Phase      Date       Time     TRes  Azim  AzRes  Slow  SRes Def   SNR       Amp   Per   Mag1   Mag2       ID
LPL   002.97 266.6 m E Pn      2013/01/10 00:22:02.3   0.2                          T                                        5163038
LPL   002.97 266.6 m E Sn      2013/01/10 00:22:37.2   0.9                          T                                        5163056
LPG   002.96 266.2 m E Pn      2013/01/10 00:22:02.8   0.7                          T                                        5163039
LPG   002.96 266.2 m E Sn      2013/01/10 00:22:36.2   0.1                          T                2.7  .48 Ml 2.2         5163037
MBDF  003.14 252.1 m E Pn      2013/01/10 00:22:04.2   0.0                          T                                        5163060
MBDF  003.14 252.1 m E Sn      2013/01/10 00:22:42.2   2.2                          T                4.8  .71 Ml 2.3         5163054
HINF  003.48 307.5 m E Pn      2013/01/10 00:22:08.7  -0.2                          T                                        5163040
HINF  003.48 307.5 m E Sn      2013/01/10 00:22:48.6   0.4                          T                2.2  .32 Ml 2.4         5163048
CABF  003.49 285.7 m E Pn      2013/01/10 00:22:10.6   1.7                          T                                        5163050
CABF  003.49 285.7 m E Sn      2013/01/10 00:22:47.5  -0.8                          T                                        5163049
CDF   003.65 317.8 m E Pn      2013/01/10 00:22:11.5   0.3                          T                                        5163042
CDF   003.65 317.8 m E Sn      2013/01/10 00:22:53.6   1.4                          T                1.4  .33 Ml 2.3         5163046
ORIF  003.68 258.4 m E Pn      2013/01/10 00:22:11.9   0.3                          T                                        5163059
ORIF  003.68 258.4 m E Sn      2013/01/10 00:22:51.1  -1.9                          T                2.8  .52 Ml 2.3         5163055
HAU   003.87 306.9 m E Pn      2013/01/10 00:22:14.1   0.0                          T                                        5163041
HAU   003.87 306.9 m E Sn      2013/01/10 00:22:58.2   0.8                          T                3.5  .33 Ml 2.4         5163047
SMF   005.02 282.6 m E Pn      2013/01/10 00:22:28.5  -1.2                          T                                        5163052
SMF   005.02 282.6 m E Sn      2013/01/10 00:23:23.7  -1.1                          T                7.3  .66 Ml 2.9         5163053
LOR   005.12 289.5 m E Pn      2013/01/10 00:22:30.5  -0.6 110.2  5.8               T                                        5163045
LOR   005.12 289.5 m E Sn      2013/01/10 00:23:27.3  -0.1                          T                                        5163044
AVF   005.37 283.7 m E Pn      2013/01/10 00:22:33.5  -1.0                          T                                        5163051

.
EVENT     290011
    Date      Time       Latitude Longitude    Depth    Ndef Nsta Gap    Mag1  N    Mag2  N    Mag3  N   Author         ID
       rms   OT_Error      Smajor Sminor Az        Err   mdist  Mdist     Err        Err        Err      Quality

2013/01/10 03:07:58.8     42.5932     .8210      9.0 f    32    5 050  Ml 1.7  4  Md 2.1  1              bulletin    290111
                                                                                                         _ldg
      0.55   +-  0.08       1.8    1.3   26.51 +-  0.0    0.11   2.50   +-0.1      +-                    m i ke

PYRENEES
Sta     Dist  EvAz     Phase      Date       Time     TRes  Azim  AzRes  Slow  SRes Def   SNR       Amp   Per   Mag1   Mag2       ID
EPF   000.56 321.1 m E Pg      2013/01/10 03:08:09.2  -0.5                          T                                        5164003
EPF   000.56 321.1 m E Sg      2013/01/10 03:08:16.6  -0.5                          T                2.2  .22        Md 2.1  5164002
ETSF  001.06 287.2 m E Pg      2013/01/10 03:08:18.7  -0.1                          T                                        5164001
ETSF  001.06 287.2 m E Sg      2013/01/10 03:08:32.2  -0.4                          T                2.0  .19 Ml 1.9         5164000
MTLF  001.27 053.4 m E Pg      2013/01/10 03:08:22.8   0.2                          T                                        5163997
MTLF  001.27 053.4 m E Sg      2013/01/10 03:08:39.4   0.4                          T                1.6  .22 Ml 1.8         5163996
SJPF  001.59 289.8 m E Pn      2013/01/10 03:08:26.4   0.9                          T                                        5164008
SJPF  001.59 289.8 m E Pg      2013/01/10 03:08:28.5   0.0                          T                                        5163999
SJPF  001.59 289.8 m E Sn      2013/01/10 03:08:46.2   1.2                          T                                        5164009
SJPF  001.59 289.8 m E Sg      2013/01/10 03:08:48.9  -0.2                          T                 .6  .18 Ml 1.6         5163998
CAF   002.50 020.7 m E Pn      2013/01/10 03:08:38.7   0.8                          T                                        5164007
CAF   002.50 020.7 m E Pg      2013/01/10 03:08:45.9   0.6                          T                                        5164006
CAF   002.50 020.7 m E Sn      2013/01/10 03:09:08.6   1.9                          T                                        5164005
CAF   002.50 020.7 m E Sg      2013/01/10 03:09:17.5   0.1                          T                 .3  .18 Ml 1.6         5164004

.
EVENT     290005
    Date      Time       Latitude Longitude    Depth    Ndef Nsta Gap    Mag1  N    Mag2  N    Mag3  N   Author         ID
       rms   OT_Error      Smajor Sminor Az        Err   mdist  Mdist     Err        Err        Err      Quality

2013/01/10 05:16:02.8     43.0520    -.2249      2.0      12    7 145  Ml 1.5  4  Md 1.6  2              bulletin    290105
                                                                                                         _ldg
      0.16   +-  0.05       1.5     .8  154.79 +-  0.0    0.29   2.58   +-0.3      +-0.1                 m i ke

PYRENEES
Sta     Dist  EvAz     Phase      Date       Time     TRes  Azim  AzRes  Slow  SRes Def   SNR       Amp   Per   Mag1   Mag2       ID
ETSF  000.29 238.1 m E Pg      2013/01/10 05:16:08.8   0.2                          T                                        5163067
ETSF  000.29 238.1 m E Sg      2013/01/10 05:16:12.5   0.0                          T               21.3  .24        Md 1.6  5163066
EPF   000.41 092.8 m E Pg      2013/01/10 05:16:10.7  -0.1                          T                                        5163068
EPF   000.41 092.8 m E Sg      2013/01/10 05:16:16.4   0.0                          T                3.1  .19        Md 1.5  5163065
SJPF  000.74 275.1 m E Pg      2013/01/10 05:16:16.7   0.0                          T                                        5163063
SJPF  000.74 275.1 m E Sg      2013/01/10 05:16:25.9  -0.4                          T                1.3  .27                5163064
LFF   002.01 019.9 m E Pg      2013/01/10 05:16:40.1   0.0                          T                                        5182683
LFF   002.01 019.9 m E Sg      2013/01/10 05:17:06.3   0.2                          T                 .6  .23 Ml 1.4         5182684
CAF   002.50 040.6 m E Pg      2013/01/10 05:16:49.2   0.0                          T                                        5182685
CAF   002.50 040.6 m E Sg      2013/01/10 05:17:21.6   0.3                          T                1.2  .31 Ml 1.9         5163061
MTLF  001.81 080.0 m E Sg      2013/01/10 05:16:59.9   0.1                          T                 .3  .20 Ml 1.3         5182681
RJF   002.58 028.5 m E Sg      2013/01/10 05:17:23.8   0.1                          T                 .6  .23 Ml 1.4         5182682

.
EVENT     290039
    Date      Time       Latitude Longitude    Depth    Ndef Nsta Gap    Mag1  N    Mag2  N    Mag3  N   Author         ID
       rms   OT_Error      Smajor Sminor Az        Err   mdist  Mdist     Err        Err        Err      Quality

2013/01/10 05:24:45.4     44.4891   10.1341     13.5      38    7 169  Ml 1.6  8                         bulletin    290139
                                                                                                         _ldg
      0.36   +-  0.11       2.6    1.3   38.95 +-  0.6    0.05   3.32   +-0.3                            m i ke

NORTHERN ITALY
Sta     Dist  EvAz     Phase      Date       Time     TRes  Azim  AzRes  Slow  SRes Def   SNR       Amp   Per   Mag1   Mag2       ID
SBF   002.04 253.1 m E Pn      2013/01/10 05:25:18.0   0.2                          T                                        5163972
SBF   002.04 253.1 m E Sn      2013/01/10 05:25:41.7   0.1                          T                2.0  .34 Ml 2.0         5163969
MBDF  002.41 276.8 m E Pn      2013/01/10 05:25:23.0   0.1                          T                                        5163964
MBDF  002.41 276.8 m E Pg      2013/01/10 05:25:30.0  -0.5                          T                                        5163963
MBDF  002.41 276.8 m E Sn      2013/01/10 05:25:50.1  -0.5                          T                 .4  .19 Ml 1.6         5163962
LPG   002.60 294.0 m E Pn      2013/01/10 05:25:25.6  -0.1                          T                                        5163966
LPG   002.60 294.0 m E Sn      2013/01/10 05:25:55.3   0.1                          T                 .2  .20 Ml 1.3         5163965
FRF   002.68 251.0 m E Pn      2013/01/10 05:25:26.6   0.2                          T                                        5163973
FRF   002.68 251.0 m E Sn      2013/01/10 05:25:57.3   0.6                          T                 .9  .25 Ml 2.0         5163970
LMR   002.86 247.5 m E Pn      2013/01/10 05:25:29.2   0.3                          T                                        5163974
LMR   002.86 247.5 m E Sn      2013/01/10 05:26:01.9   0.8                          T                 .7  .19 Ml 2.0         5163971
ORIF  003.06 279.5 m E Pn      2013/01/10 05:25:31.6  -0.1                          T                                        5163961
ORIF  003.06 279.5 m E Pg      2013/01/10 05:25:42.1  -0.3                          T                                        5163960
ORIF  003.06 279.5 m E Sn      2013/01/10 05:26:05.8  -0.2                          T                 .3  .30 Ml 1.5         5163959
SMRF  003.32 262.7 m E Pn      2013/01/10 05:25:35.3   0.2                          T                                        5163968
SMRF  003.32 262.7 m E Sn      2013/01/10 05:26:11.9  -0.1                          T                 .1  .18 Ml 1.1         5163967

.
