EVENT     261466
    Date      Time       Latitude Longitude    Depth    Ndef Nsta Gap    Mag1  N    Mag2  N    Mag3  N   Author         ID
       rms   OT_Error      Smajor Sminor Az        Err   mdist  Mdist     Err        Err        Err      Quality

2011/07/17 00:11:01.9     43.9807    7.3158      2.0      11    6 171  Ml 1.6  3  Md 1.6  3              js067245    261466

      0.32   +-  0.13       2.7    1.9   60.62 +-  0.0    0.15   1.39   +-0.3      +-0.1                 m i ke

NEAR SOUTH COAST OF FRANCE
Sta     Dist  EvAz     Phase      Date       Time     TRes  Azim  AzRes  Slow  SRes Def   SNR       Amp   Per   Mag1   Mag2       ID
SBF   000.15 143.7 m E Pg      2011/07/17 00:11:05.1   0.1                          T                                        4722871
SBF   000.15 143.7 m E Sg      2011/07/17 00:11:07.4   0.3                          T               20.4  .22        Md 1.6  4722866
FRF   000.64 229.3 m E Pg      2011/07/17 00:11:13.7  -0.3                          T                                        4722869
FRF   000.64 229.3 m E Sg      2011/07/17 00:11:22.4   0.0                          T                5.5  .20        Md 1.6  4722864
MBDF  000.84 332.6 m E Pg      2011/07/17 00:11:17.9   0.0                          T                                        4722867
MBDF  000.84 332.6 m E Sg      2011/07/17 00:11:28.2  -0.6                          T                                Md 1.4  4722862
LMR   000.87 222.4 m E Pg      2011/07/17 00:11:18.1  -0.1                          T                                        4722870
LMR   000.87 222.4 m E Sg      2011/07/17 00:11:29.6   0.0                          T                1.6  .15 Ml 1.8         4722865
SMRF  001.26 270.4 m E Pg      2011/07/17 00:11:25.5   0.1                          T                                        4722868
SMRF  001.26 270.4 m E Sg      2011/07/17 00:11:42.4   0.7                          T                1.5  .22 Ml 1.8         4722863
ORIF  001.39 312.9 m E Sg      2011/07/17 00:11:46.5   0.5                          T                 .4  .24 Ml 1.2         4725476

.
EVENT     261544
    Date      Time       Latitude Longitude    Depth    Ndef Nsta Gap    Mag1  N    Mag2  N    Mag3  N   Author         ID
       rms   OT_Error      Smajor Sminor Az        Err   mdist  Mdist     Err        Err        Err      Quality

2011/07/17 01:40:53.1     43.7571   12.1638      2.0      26   16 277  Ml 2.8  8                         js067245    261544

      0.49   +-  0.37       7.4    4.8   99.78 +-  0.0    2.61   7.76   +-0.4                            m i ke

CENTRAL ITALY
Sta     Dist  EvAz     Phase      Date       Time     TRes  Azim  AzRes  Slow  SRes Def   SNR       Amp   Per   Mag1   Mag2       ID
PGF   002.61 243.5 m E Pn      2011/07/17 01:41:35.0   0.4                          T                                        4723811
PGF   002.61 243.5 m E Sn      2011/07/17 01:42:04.8  -0.1                          T                6.2  .42 Ml 2.7         4723795
SBF   003.42 273.4 m E Pn      2011/07/17 01:41:45.0  -0.6                          T                                        4723810
FRF   004.01 269.1 m E Pn      2011/07/17 01:41:52.8  -0.7                          T                                        4723808
FRF   004.01 269.1 m E Sn      2011/07/17 01:42:36.6  -1.6                          T                 .7  .23 Ml 2.2         4723793
LMR   004.13 266.1 m E Pn      2011/07/17 01:41:54.5  -0.6                          T                                        4723809
LMR   004.13 266.1 m E Sn      2011/07/17 01:42:41.3   0.1                          T                1.0  .26 Ml 2.3         4723794
LPL   004.26 296.3 m E Pn      2011/07/17 01:41:58.4   1.3                          T                                        4723806
LPL   004.26 296.3 m E Sn      2011/07/17 01:42:43.1  -1.3                          T                                        4723792
LPL   004.26 296.3 m E Sg      2011/07/17 01:43:07.8   1.1                          T                2.0  .33 Ml 2.5         4723791
ORIF  004.65 286.6 m E Pn      2011/07/17 01:42:03.5   1.2                          T                                        4723805
ORIF  004.65 286.6 m E S       2011/07/17 01:43:01.2  -0.5                          T                                        4723790
SMRF  004.77 274.9 m E Pn      2011/07/17 01:42:03.9   0.0                          T                                        4723807
CABF  005.16 305.7 m E Pn      2011/07/17 01:42:09.9   0.8                          T                                        4723802
HINF  005.50 319.4 m E Pn      2011/07/17 01:42:13.8   0.0                          T                                        4723801
HINF  005.50 319.4 m E Sn      2011/07/17 01:43:14.0   0.1                          T                4.7  .40 Ml 3.1         4723796
VIVF  005.49 284.1 m E Pn      2011/07/17 01:42:14.0   0.4                          T                                        4723804
CDF   005.76 325.6 m E Pn      2011/07/17 01:42:17.1  -0.3                          T                                        4723786
CDF   005.76 325.6 m E Sn      2011/07/17 01:43:20.3   0.0                          T                4.1  .42 Ml 3.1         4723787
HAU   005.88 318.3 m E Pn      2011/07/17 01:42:18.6  -0.3                          T                                        4723800
HAU   005.88 318.3 m E Sn      2011/07/17 01:43:22.1  -0.8                          T               13.8  .54 Ml 3.3         4723797
LOR   006.81 303.9 m E Pn      2011/07/17 01:42:32.1   0.5                          T                                        4723799
LOR   006.81 303.9 m E Sn      2011/07/17 01:43:45.9   0.8                          T                7.8  .62 Ml 3.3         4723798
AVF   006.92 299.1 m E Pn      2011/07/17 01:42:33.0   0.0                          T                                        4723788
MTLF  007.24 270.1 m E Pn      2011/07/17 01:42:37.5   0.0                          T                                        4723803
RJF   007.76 285.2 m E Pg      2011/07/17 01:43:16.3  -0.1                          T                                        4723789

.
EVENT     261475
    Date      Time       Latitude Longitude    Depth    Ndef Nsta Gap    Mag1  N    Mag2  N    Mag3  N   Author         ID
       rms   OT_Error      Smajor Sminor Az        Err   mdist  Mdist     Err        Err        Err      Quality

2011/07/17 02:24:46.5     49.2514   -1.3323      5.0 f    29   14 200  Ml 2.4 12  Md 2.5  3              js067245    261475

      0.68   +-  0.15       2.8    1.2  178.55 +-  0.0    0.74   4.54   +-0.3      +-0.1                 m i ke

FRANCE
Sta     Dist  EvAz     Phase      Date       Time     TRes  Azim  AzRes  Slow  SRes Def   SNR       Amp   Per   Mag1   Mag2       ID
FLN   000.74 130.8 m E Pg      2011/07/17 02:25:00.5   0.0 315.0  3.5               T                                        4722888
FLN   000.74 130.8 m E Sg      2011/07/17 02:25:10.4   0.2 304.6  -6.9              T               11.2  .18        Md 2.6  4722879
GRR   000.92 159.9 m E Pg      2011/07/17 02:25:04.1   0.4                          T                                        4722883
GRR   000.92 159.9 m E Sg      2011/07/17 02:25:16.3   0.6                          T               24.7  .16 Ml 2.8 Md 2.5  4722877
LDF   001.03 129.1 m E Pg      2011/07/17 02:25:05.9   0.0                          T                                        4722887
LDF   001.03 129.1 m E Sg      2011/07/17 02:25:20.0   0.7                          T               12.6  .20 Ml 2.6 Md 2.3  4722878
SGMF  001.29 219.5 m E Pg      2011/07/17 02:25:10.6   0.1                          T                                        4722886
SGMF  001.29 219.5 m E Sg      2011/07/17 02:25:27.8   0.7                          T                4.5  .17 Ml 2.4         4722881
ROSF  001.58 235.2 m E Pg      2011/07/17 02:25:15.9   0.1                          T                                        4722884
ROSF  001.58 235.2 m E Sg      2011/07/17 02:25:36.3   0.1                          T                7.6  .22 Ml 2.6         4722882
QUIF  001.81 223.0 m E Pn      2011/07/17 02:25:16.7   0.2                          T                                        4722885
QUIF  001.81 223.0 m E Pg      2011/07/17 02:25:19.8  -0.2                          T                                        4725477
QUIF  001.81 223.0 m E Sg      2011/07/17 02:25:42.8  -0.6                          T                4.9  .17 Ml 2.6         4722880
MFF   002.77 162.8 m E Pg      2011/07/17 02:25:37.5  -0.4                          T                                        4722872
MFF   002.77 162.8 m E Sg      2011/07/17 02:26:12.5  -0.9                          T                2.6  .16 Ml 2.8         4722876
LFF   004.54 161.1 m E Pn      2011/07/17 02:25:53.7   0.0                          T                                        4725488
AVF   003.99 126.3 m E Pg      2011/07/17 02:26:00.3   0.0                          T                                        4725484
AVF   003.99 126.3 m E Sg      2011/07/17 02:26:51.5  -0.1                          T                 .7  .25 Ml 2.1         4725481
BAIF  003.69 075.2 m E Sn      2011/07/17 02:26:23.5   0.0                          T                                        4725485
BAIF  003.69 075.2 m E Sg      2011/07/17 02:26:42.3   0.2                          T                1.1  .27 Ml 2.2         4725480
TCF   003.81 139.8 m E Sn      2011/07/17 02:26:26.0  -0.3                          T                                        4725487
TCF   003.81 139.8 m E Sg      2011/07/17 02:26:45.6  -0.2                          T                1.1  .23 Ml 2.3         4722873
LOR   004.00 117.8 m E Sn      2011/07/17 02:26:30.3  -0.5                          T                                        4725486
LOR   004.00 117.8 m E Sg      2011/07/17 02:26:51.5  -0.2                          T                                        4722875
RJF   004.40 152.8 m E Sn      2011/07/17 02:26:40.5   0.1                          T                                        4725483
RJF   004.40 152.8 m E Sg      2011/07/17 02:27:04.0  -0.3                          T                 .4  .12 Ml 1.9         4725482
SSF   003.91 122.3 m E Sg      2011/07/17 02:26:49.1   0.1                          T                1.1  .26 Ml 2.3         4722874

.
EVENT     261468
    Date      Time       Latitude Longitude    Depth    Ndef Nsta Gap    Mag1  N    Mag2  N    Mag3  N   Author         ID
       rms   OT_Error      Smajor Sminor Az        Err   mdist  Mdist     Err        Err        Err      Quality

2011/07/17 02:54:17.8     45.9286    3.0188      4.0 f    20    9 093  Ml 1.8  7  Md 1.8  4              js067245    261468

      0.75   +-  0.09       1.8    1.4  111.53 +-  0.0    0.25   1.58   +-0.1      +-0.1                 m i ke

FRANCE
Sta     Dist  EvAz     Phase      Date       Time     TRes  Azim  AzRes  Slow  SRes Def   SNR       Amp   Per   Mag1   Mag2       ID
TCF   000.67 302.9 m E Pg      2011/07/17 02:54:30.2  -0.3                          T                                        4722893
TCF   000.67 302.9 m E Sg      2011/07/17 02:54:39.5   0.2                          T                                        4725489
TCF   000.67 302.9 m E Sn      2011/07/17 02:54:42.8  -0.1                          T                1.9  .16        Md 1.8  4722890
BGF   000.64 349.3 m E Pg      2011/07/17 02:54:30.5   0.5                          T                                        4725491
BGF   000.64 349.3 m E Pn      2011/07/17 02:54:32.0  -0.1                          T                                        4722906
BGF   000.64 349.3 m E Sg      2011/07/17 02:54:37.7  -0.7                          T                                        4725490
BGF   000.64 349.3 m E Sn      2011/07/17 02:54:42.4   0.2                          T                5.8  .31        Md 2.0  4722899
AVF   000.89 014.9 m E Pg      2011/07/17 02:54:34.5  -0.1                          T                                        4722904
AVF   000.89 014.9 m E Sg      2011/07/17 02:54:46.1  -0.1                          T                1.6  .17 Ml 1.7 Md 1.6  4722901
SMF   000.92 038.2 m E Pg      2011/07/17 02:54:35.1   0.0                          T                                        4722905
SMF   000.92 038.2 m E Sg      2011/07/17 02:54:47.2   0.2                          T                1.7  .16 Ml 1.8         4722900
CAF   001.21 214.2 m E Pg      2011/07/17 02:54:40.7   0.2                          T                                        4722902
CAF   001.21 214.2 m E Sg      2011/07/17 02:54:56.3   0.2                          T                1.6  .22 Ml 1.8         4722896
RJF   001.23 239.9 m E Pg      2011/07/17 02:54:40.7  -0.1                          T                                        4722903
RJF   001.23 239.9 m E Sg      2011/07/17 02:54:56.8   0.1                          T                3.4  .23 Ml 1.7         4722897
LOR   001.46 023.1 m E Pg      2011/07/17 02:54:45.0  -0.1 211.7  8.0               T                                        4722892
LOR   001.46 023.1 m E Sg      2011/07/17 02:55:04.4   0.4 209.4  5.7               T                1.7  .17 Ml 2.0         4722891
VIVF  001.58 132.0 m E Pg      2011/07/17 02:54:47.2  -0.2                          T                                        4722894
VIVF  001.58 132.0 m E Sg      2011/07/17 02:55:07.7  -0.2                          T                1.1  .21 Ml 1.8         4722895
SSF   001.18 016.4 m E Sg      2011/07/17 02:54:55.2   0.0                          T                 .8  .16 Ml 1.7         4722889

.
EVENT     261476
    Date      Time       Latitude Longitude    Depth    Ndef Nsta Gap    Mag1  N    Mag2  N    Mag3  N   Author         ID
       rms   OT_Error      Smajor Sminor Az        Err   mdist  Mdist     Err        Err        Err      Quality

2011/07/17 05:20:38.8     37.0944   -3.7487      2.0      88    9 077  Ml 2.8  4  Md 3.0  3              js067245    261476

      0.84   +-  0.14       3.3    2.0  167.85 +-  0.0    0.14  11.90   +-0.2      +-0.1                 m i ke

SPAIN
Sta     Dist  EvAz     Phase      Date       Time     TRes  Azim  AzRes  Slow  SRes Def   SNR       Amp   Per   Mag1   Mag2       ID
ETSF  006.29 021.9 m E Pn      2011/07/17 05:22:11.4   1.1                          T                                        4722919
ETSF  006.29 021.9 m E Sn      2011/07/17 05:23:17.2  -1.4                          T                1.2  .27 Ml 2.8 Md 3.0  4722912
SJPF  006.31 017.0 m E Pn      2011/07/17 05:22:11.8   1.2                          T                                        4722920
SJPF  006.31 017.0 m E Sn      2011/07/17 05:23:19.2   0.1                          T                1.6  .25 Ml 3.0 Md 3.1  4722913
EPF   006.71 026.6 m E Pn      2011/07/17 05:22:17.0   1.0                          T                                        4722918
EPF   006.71 026.6 m E Sn      2011/07/17 05:23:26.5  -2.0                          T                 .6  .17 Ml 2.7 Md 3.0  4722911
LFF   008.54 022.0 m E Pn      2011/07/17 05:22:40.2  -0.6                          T                                        4722914
RJF   009.11 024.1 m E Pn      2011/07/17 05:22:49.1   0.4                          T                                        4722909
RJF   009.11 024.1 m E Sn      2011/07/17 05:24:25.6  -0.2                          T                 .5  .26 Ml 2.5         4722910
MFF   009.87 014.6 m E Pn      2011/07/17 05:22:59.0   0.0                          T                                        4722915
QUIF  010.82 002.1 m E Pn      2011/07/17 05:23:11.8  -0.1                          T                                        4722916
SGMF  011.19 004.1 m E Pn      2011/07/17 05:23:15.9  -1.0                          T                                        4722917
FLN   011.90 010.5 m E Pn      2011/07/17 05:23:26.2  -0.5                          T                                        4722908

.
EVENT     261477
    Date      Time       Latitude Longitude    Depth    Ndef Nsta Gap    Mag1  N    Mag2  N    Mag3  N   Author         ID
       rms   OT_Error      Smajor Sminor Az        Err   mdist  Mdist     Err        Err        Err      Quality

2011/07/17 06:42:18.3     41.7566    2.9069     10.0 f    19    3 235  Ml 1.5  4  Md 2.0  1              js067245    261477

      0.33   +-  0.18       2.9    1.4  136.37 +-  0.0    0.13   2.42   +-0.2      +-                    m i ke

SPAIN
Sta     Dist  EvAz     Phase      Date       Time     TRes  Azim  AzRes  Slow  SRes Def   SNR       Amp   Per   Mag1   Mag2       ID
MTLF  001.66 342.4 m E Pn      2011/07/17 06:42:45.7  -0.2                          T                                        4723814
MTLF  001.66 342.4 m E Sn      2011/07/17 06:43:06.0   0.1                          T                 .6  .33 Ml 1.4 Md 2.0  4723815
MTLF  001.66 342.4 m E Sg      2011/07/17 06:43:10.9   0.1                          T                 .4  .27 Ml 1.3         4725494
LASF  002.42 016.4 m E Pn      2011/07/17 06:42:55.5  -0.7                          T                                        4723813
LASF  002.42 016.4 m E Sg      2011/07/17 06:43:35.2   0.8                          T                 .6  .23 Ml 1.7         4723812
EPF   002.29 304.7 m E Pg      2011/07/17 06:43:00.6  -0.3                          T                                        4725492
EPF   002.29 304.7 m E Sg      2011/07/17 06:43:30.3   0.0                          T                 .5  .27 Ml 1.5         4725493

.
EVENT     261478
    Date      Time       Latitude Longitude    Depth    Ndef Nsta Gap    Mag1  N    Mag2  N    Mag3  N   Author         ID
       rms   OT_Error      Smajor Sminor Az        Err   mdist  Mdist     Err        Err        Err      Quality

2011/07/17 06:55:30.6     43.1333    -.5778      2.0      45    4 165  Ml 1.7  1  Md 1.7  2              js067245    261478

      0.56   +-  0.13       2.6    1.3    1.29 +-  0.0    0.10   2.64   +-         +-0.1                 m i ke

PYRENEES
Sta     Dist  EvAz     Phase      Date       Time     TRes  Azim  AzRes  Slow  SRes Def   SNR       Amp   Per   Mag1   Mag2       ID
ETSF  000.24 176.7 m E Pg      2011/07/17 06:55:34.9  -0.5                          T                                        4722928
ETSF  000.24 176.7 m E Sg      2011/07/17 06:55:38.3  -0.4                          T               50.6  .20        Md 1.6  4722924
SJPF  000.47 267.8 m E Pg      2011/07/17 06:55:39.5  -0.3                          T                                        4722927
SJPF  000.47 267.8 m E Sg      2011/07/17 06:55:46.1   0.2                          T                9.8  .26        Md 1.7  4722925
EPF   000.68 098.4 m E Pg      2011/07/17 06:55:44.9   1.3                          T                                        4722926
EPF   000.68 098.4 m E Sg      2011/07/17 06:55:53.1   0.7                          T                2.3  .22                4722923
MTLF  002.05 083.2 m E Pn      2011/07/17 06:56:05.4   1.0                          T                                        4722921
MTLF  002.05 083.2 m E Sn      2011/07/17 06:56:29.7   0.6                          T                 .8  .29 Ml 1.7         4722922

.
