EVENT     297117
    Date      Time       Latitude Longitude    Depth    Ndef Nsta Gap    Mag1  N    Mag2  N    Mag3  N   Author         ID
       rms   OT_Error      Smajor Sminor Az        Err   mdist  Mdist     Err        Err        Err      Quality

2013/04/28 06:44:53.4     43.1115   -1.2779     15.0      14    3 144  Ml 1.3  1  Md 1.3  2              bulletin    297217
                                                                                                         _ldg
      0.35   +-  0.11       2.7    2.0  177.98 +-  0.0    0.04   2.36   +-         +-0.3                 m i ke

PYRENEES
Sta     Dist  EvAz     Phase      Date       Time     TRes  Azim  AzRes  Slow  SRes Def   SNR       Amp   Per   Mag1   Mag2       ID
SJPF  000.04 087.4 m E Pg      2013/04/28 06:44:56.5   0.1                          T                                        5270604
SJPF  000.04 087.4 m E Sg      2013/04/28 06:44:58.5   0.2                          T                6.8  .18        Md 1.5  5270603
ETSF  000.57 111.7 m E Pg      2013/04/28 06:45:04.0  -0.6                          T                                        5270602
ETSF  000.57 111.7 m E Sg      2013/04/28 06:45:11.9  -0.3                          T                2.0  .18        Md 1.2  5270601
EPF   001.19 093.4 m E Pg      2013/04/28 06:45:15.9   0.1                          T                                        5270599
EPF   001.19 093.4 m E Sg      2013/04/28 06:45:31.2  -0.1                          T                 .7  .25 Ml 1.3         5270600

.
EVENT     297118
    Date      Time       Latitude Longitude    Depth    Ndef Nsta Gap    Mag1  N    Mag2  N    Mag3  N   Author         ID
       rms   OT_Error      Smajor Sminor Az        Err   mdist  Mdist     Err        Err        Err      Quality

2013/04/28 07:21:07.6     43.1011   -1.2853     15.0      30    7 090  Ml 2.2  3  Md 2.4  3              bulletin    297218
                                                                                                         _ldg
      0.39   +-  0.08       1.7    1.5  166.04 +-  0.0    0.05   4.05   +-0.2      +-0.1                 m i ke

PYRENEES
Sta     Dist  EvAz     Phase      Date       Time     TRes  Azim  AzRes  Slow  SRes Def   SNR       Amp   Per   Mag1   Mag2       ID
SJPF  000.05 074.5 m E Pg      2013/04/28 07:21:10.5   0.0                          T                                        5270632
SJPF  000.05 074.5 m E Sg      2013/04/28 07:21:12.6   0.1                          T               84.0  .18        Md 2.4  5270629
ETSF  000.57 110.6 m E Pg      2013/04/28 07:21:18.4  -0.3                          T                                        5270631
ETSF  000.57 110.6 m E Sg      2013/04/28 07:21:26.1  -0.3                          T               27.2  .26        Md 2.4  5270630
EPF   001.19 092.8 m E Pg      2013/04/28 07:21:29.8  -0.3                          T                                        5282799
EPF   001.19 092.8 m E Sg      2013/04/28 07:21:45.5  -0.1                          T                6.4  .24 Ml 2.3 Md 2.6  5270633
LFF   002.35 037.8 m E Pg      2013/04/28 07:21:50.9  -0.3                          T                                        5282798
RJF   002.99 041.5 m E Pn      2013/04/28 07:21:52.9   0.3                          T                                        5270637
RJF   002.99 041.5 m E Sn      2013/04/28 07:22:26.5   0.5                          T                1.6  .20 Ml 2.0         5270636
CAF   003.03 051.8 m E Pn      2013/04/28 07:21:53.6   0.4                          T                                        5270639
CAF   003.03 051.8 m E Sn      2013/04/28 07:22:26.8  -0.1                          T                2.0  .20 Ml 2.4         5270638
TCF   004.05 036.8 m E Pn      2013/04/28 07:22:07.4   0.4                          T                                        5270635

.
EVENT     297119
    Date      Time       Latitude Longitude    Depth    Ndef Nsta Gap    Mag1  N    Mag2  N    Mag3  N   Author         ID
       rms   OT_Error      Smajor Sminor Az        Err   mdist  Mdist     Err        Err        Err      Quality

2013/04/28 08:38:51.5     43.0053    -.7587      2.0       6    3 161             Md 1.3  2              bulletin    297219
                                                                                                         _ldg
      0.21   +-  0.10       6.1    1.8   17.23 +-  0.0    0.18   0.81              +-0.0                 m i ke

PYRENEES
Sta     Dist  EvAz     Phase      Date       Time     TRes  Azim  AzRes  Slow  SRes Def   SNR       Amp   Per   Mag1   Mag2       ID
ETSF  000.18 126.0 m E Pg      2013/04/28 08:38:55.0  -0.3                          T                                        5270663
ETSF  000.18 126.0 m E Sg      2013/04/28 08:38:58.0   0.2                          T                6.5  .25        Md 1.3  5270662
SJPF  000.36 287.7 m E Pg      2013/04/28 08:38:58.3  -0.1                          T                                        5270665
SJPF  000.36 287.7 m E Sg      2013/04/28 08:39:03.4   0.1                          T                4.3  .27        Md 1.3  5270664
EPF   000.81 087.9 m E Pg      2013/04/28 08:39:06.9   0.1                          T                                        5270661
EPF   000.81 087.9 m E Sg      2013/04/28 08:39:17.0  -0.3                          T                1.4  .28                5270666

.
EVENT     297172
    Date      Time       Latitude Longitude    Depth    Ndef Nsta Gap    Mag1  N    Mag2  N    Mag3  N   Author         ID
       rms   OT_Error      Smajor Sminor Az        Err   mdist  Mdist     Err        Err        Err      Quality

2013/04/28 09:15:21.8     49.2111    8.0931      3.0 f    21    7 058  Ml 1.8  5  Md 1.8  2              bulletin    297272
                                                                                                         _ldg
      0.32   +-  0.08       1.5    1.1   93.46 +-  0.0    0.08   2.26   +-0.1      +-0.0                 m i ke

GERMANY
Sta     Dist  EvAz     Phase      Date       Time     TRes  Azim  AzRes  Slow  SRes Def   SNR       Amp   Per   Mag1   Mag2       ID
LANF  000.30 219.5 m E Sg      2013/04/28 09:15:31.3  -0.4                          T                                        5271464
RUP   000.83 306.5 m E Pg      2013/04/28 09:15:38.5   0.9                          T                                        5271476
CDF   000.96 214.3 m E Pg      2013/04/28 09:15:39.6  -0.4                          T                                        5271533
CDF   000.96 214.3 m E Sg      2013/04/28 09:15:52.6   0.0                          T                1.3  .20 Ml 1.7 Md 1.8  5271534
HINF  001.62 211.0 m E Pn      2013/04/28 09:15:49.5  -0.2                          T                                        5271531
HINF  001.62 211.0 m E Pg      2013/04/28 09:15:52.0  -0.1                          T                                        5271532
HINF  001.62 211.0 m E Sg      2013/04/28 09:16:12.9  -0.1                          T                 .9  .17 Ml 1.8 Md 1.8  5271535
HAU   001.67 224.5 m E Pn      2013/04/28 09:15:50.6   0.3                          T                                        5271527
HAU   001.67 224.5 m E Pg      2013/04/28 09:15:52.9  -0.1                          T                                        5271528
HAU   001.67 224.5 m E Sn      2013/04/28 09:16:11.1   0.1                          T                                        5271529
HAU   001.67 224.5 m E Sg      2013/04/28 09:16:14.5  -0.1                          T                1.0  .16 Ml 1.7         5271530
PAGF  001.70 248.1 m E Pn      2013/04/28 09:15:50.7   0.1                          T                                        5271523
PAGF  001.70 248.1 m E Pg      2013/04/28 09:15:53.4   0.0                          T                                        5271524
PAGF  001.70 248.1 m E Sn      2013/04/28 09:16:11.5  -0.1                          T                                        5271525
PAGF  001.70 248.1 m E Sg      2013/04/28 09:16:15.5   0.2                          T                1.0  .21 Ml 1.8         5271526
SFTF  002.26 244.7 m E Pg      2013/04/28 09:16:03.7  -0.1                          T                                        5271521
SFTF  002.26 244.7 m E Sg      2013/04/28 09:16:33.0   0.1                          T                 .7  .21 Ml 1.8         5271522

.
EVENT     297123
    Date      Time       Latitude Longitude    Depth    Ndef Nsta Gap    Mag1  N    Mag2  N    Mag3  N   Author         ID
       rms   OT_Error      Smajor Sminor Az        Err   mdist  Mdist     Err        Err        Err      Quality

2013/04/28 11:28:05.2     48.0682    8.2752     10.0      24    7 064  Ml 1.6  5  Md 1.7  2              bulletin    297223
                                                                                                         _ldg
      0.15   +-  0.03        .5     .5     .81 +-  0.0    0.21   3.09   +-0.3      +-0.1                 m i ke

GERMANY
Sta     Dist  EvAz     Phase      Date       Time     TRes  Azim  AzRes  Slow  SRes Def   SNR       Amp   Per   Mag1   Mag2       ID
CDF   000.75 297.6 m E Pg      2013/04/28 11:28:19.6   0.0                          T                                        5271540
CDF   000.75 297.6 m E Sg      2013/04/28 11:28:29.4   0.0                          T                1.0  .17        Md 1.7  5271539
HINF  000.99 255.8 m E Pg      2013/04/28 11:28:23.8  -0.1                          T                                        5270766
HINF  000.99 255.8 m E Sg      2013/04/28 11:28:36.7   0.0                          T                 .5  .22 Ml 1.2 Md 1.6  5270765
HAU   001.29 267.9 m E Pg      2013/04/28 11:28:29.3  -0.1                          T                                        5270764
HAU   001.29 267.9 m E Sg      2013/04/28 11:28:46.4   0.1                          T                 .8  .20 Ml 1.3         5270763
PAGF  001.77 286.9 m E Pn      2013/04/28 11:28:34.2  -0.1                          T                                        5270758
PAGF  001.77 286.9 m E Pg      2013/04/28 11:28:38.3   0.1                          T                                        5271538
PAGF  001.77 286.9 m E Sn      2013/04/28 11:28:55.5   0.1                          T                                        5270757
PAGF  001.77 286.9 m E Sg      2013/04/28 11:29:01.0  -0.1                          T                2.4  .46 Ml 1.9         5271537
SFTF  002.17 274.8 m E Pn      2013/04/28 11:28:39.6  -0.1                          T                                        5270762
SFTF  002.17 274.8 m E Pg      2013/04/28 11:28:45.5   0.0                          T                                        5270761
SFTF  002.17 274.8 m E Sg      2013/04/28 11:29:13.5  -0.1                          T                1.2  .28 Ml 1.9         5270759
MEZF  002.20 282.6 m E Pg      2013/04/28 11:28:46.1   0.1                          T                                        5270756
MEZF  002.20 282.6 m E Sg      2013/04/28 11:29:14.2   0.0                          T                 .6  .28 Ml 1.6         5270755
LOR   003.09 256.6 m E Pg      2013/04/28 11:29:02.8   0.2                          T                                        5271536

.
EVENT     297121
    Date      Time       Latitude Longitude    Depth    Ndef Nsta Gap    Mag1  N    Mag2  N    Mag3  N   Author         ID
       rms   OT_Error      Smajor Sminor Az        Err   mdist  Mdist     Err        Err        Err      Quality

2013/04/28 12:30:47.3     42.9232     .1787      2.0      10    4 193  Ml 1.2  2  Md 1.3  2              bulletin    297221
                                                                                                         _ldg
      0.80   +-  0.21      10.0    2.3  169.90 +-  0.0    0.16   1.55   +-0.1      +-0.0                 m i ke

PYRENEES
Sta     Dist  EvAz     Phase      Date       Time     TRes  Azim  AzRes  Slow  SRes Def   SNR       Amp   Per   Mag1   Mag2       ID
EPF   000.16 047.8 m E Pg      2013/04/28 12:30:50.7   0.1                          T                                        5270724
EPF   000.16 047.8 m E Sg      2013/04/28 12:30:52.4  -0.5                          T               33.2  .20        Md 1.3  5270721
ETSF  000.54 267.7 m E Pg      2013/04/28 12:30:57.9   0.3                          T                                        5270723
ETSF  000.54 267.7 m E Sg      2013/04/28 12:31:04.9   0.1                          T                1.4  .20        Md 1.3  5270722
SJPF  001.05 280.9 m E Pg      2013/04/28 12:31:06.6  -0.3                          T                                        5270725
SJPF  001.05 280.9 m E Sg      2013/04/28 12:31:20.0  -0.5                          T                 .6  .22 Ml 1.3         5270720
MTLF  001.55 073.7 m E Pn      2013/04/28 12:31:13.9  -0.3                          T                                        5270727
MTLF  001.55 073.7 m E Sn      2013/04/28 12:31:33.8   0.2                          T                 .3  .21 Ml 1.2         5270726

.
EVENT     297122
    Date      Time       Latitude Longitude    Depth    Ndef Nsta Gap    Mag1  N    Mag2  N    Mag3  N   Author         ID
       rms   OT_Error      Smajor Sminor Az        Err   mdist  Mdist     Err        Err        Err      Quality

2013/04/28 15:07:19.1     39.9907     .4880     11.0 f    28    3 209  Ml 1.9  6                         bulletin    297222
                                                                                                         _ldg
      0.75   +-  0.25       5.1    2.6  131.07 +-  0.0    0.82   3.59   +-0.2                            m i ke

SPAIN
Sta     Dist  EvAz     Phase      Date       Time     TRes  Azim  AzRes  Slow  SRes Def   SNR       Amp   Per   Mag1   Mag2       ID
EPF   003.04 358.0 m E Pn      2013/04/28 15:08:04.6  -0.7                          T                                        5270741
EPF   003.04 358.0 m E Pg      2013/04/28 15:08:15.1  -0.3                          T                                        5270740
EPF   003.04 358.0 m E Sn      2013/04/28 15:08:40.7   1.2                          T                 .6  .24 Ml 1.8         5270738
EPF   003.04 358.0 m E Sg      2013/04/28 15:08:54.4  -0.1                          T                1.7  .29 Ml 2.2         5270739
ETSF  003.01 345.2 m E Pn      2013/04/28 15:08:05.7   0.8                          T                                        5270737
ETSF  003.01 345.2 m E Pg      2013/04/28 15:08:15.0   0.1                          T                                        5270736
ETSF  003.01 345.2 m E Sn      2013/04/28 15:08:40.5   1.7                          T                 .3  .18 Ml 1.7         5270735
ETSF  003.01 345.2 m E Sg      2013/04/28 15:08:53.6  -0.1                          T                 .7  .21 Ml 2.0         5270734
MTLF  003.59 020.6 m E Pn      2013/04/28 15:08:13.0   0.2                          T                                        5270733
MTLF  003.59 020.6 m E Pg      2013/04/28 15:08:24.7  -0.8                          T                                        5270732
MTLF  003.59 020.6 m E Sn      2013/04/28 15:08:53.8   1.2                          T                 .4  .20 Ml 1.9         5270731
MTLF  003.59 020.6 m E Sg      2013/04/28 15:09:10.6  -1.1                          T                 .7  .28 Ml 1.9         5270730

.
EVENT     297163
    Date      Time       Latitude Longitude    Depth    Ndef Nsta Gap    Mag1  N    Mag2  N    Mag3  N   Author         ID
       rms   OT_Error      Smajor Sminor Az        Err   mdist  Mdist     Err        Err        Err      Quality

2013/04/29 08:34:38.6     43.0839    -.2876     10.0      23    5 129  Ml 1.8  3  Md 1.7  3              bulletin    297263
                                                                                                         _ldg
      0.33   +-  0.07       1.8    1.0  174.86 +-  0.0    0.17   2.50   +-0.2      +-0.1                 m i ke

PYRENEES
Sta     Dist  EvAz     Phase      Date       Time     TRes  Azim  AzRes  Slow  SRes Def   SNR       Amp   Per   Mag1   Mag2       ID
ETSF  000.27 227.2 m E Pg      2013/04/29 08:34:44.0  -0.2                          T                                        5271165
ETSF  000.27 227.2 m E Sg      2013/04/29 08:34:47.4  -0.6                          T               14.4  .20        Md 1.8  5271161
EPF   000.46 096.4 m E Pg      2013/04/29 08:34:47.4  -0.2                          T                                        5271164
EPF   000.46 096.4 m E Sg      2013/04/29 08:34:54.1   0.3                          T                8.6  .36        Md 1.7  5271162
SJPF  000.69 272.8 m E Pg      2013/04/29 08:34:52.0   0.3                          T                                        5271163
SJPF  000.69 272.8 m E Sg      2013/04/29 08:35:00.7   0.0                          T                3.6  .30        Md 1.7  5271160
MTLF  001.85 081.2 m E Pg      2013/04/29 08:35:13.1   0.1                          T                                        5271155
MTLF  001.85 081.2 m E Sg      2013/04/29 08:35:36.9   0.0                          T                 .6  .22 Ml 1.6         5271156
CAF   002.50 041.9 m E Pg      2013/04/29 08:35:25.0  -0.1                          T                                        5271157
CAF   002.50 041.9 m E Sn      2013/04/29 08:35:46.4   0.0                          T                                        5271158
CAF   002.50 041.9 m E Sg      2013/04/29 08:35:57.2  -0.1                          T                1.0  .23 Ml 2.0         5271159

.
