EVENT     289314
    Date      Time       Latitude Longitude    Depth    Ndef Nsta Gap    Mag1  N    Mag2  N    Mag3  N   Author         ID
       rms   OT_Error      Smajor Sminor Az        Err   mdist  Mdist     Err        Err        Err      Quality

2013/01/01 06:36:57.4     43.0545    -.2096      2.0     107   20 050  Ml 3.0 17  Md 3.1  2              bulletin    289414
                                                                                                         _ldg
      0.57   +-  0.05       1.0     .9   45.29 +-  0.0    0.13   5.45   +-0.3      +-0.1                 m i ke

PYRENEES
Sta     Dist  EvAz     Phase      Date       Time     TRes  Azim  AzRes  Slow  SRes Def   SNR       Amp   Per   Mag1   Mag2       ID
ETSF  000.30 238.9 m E Pg      2013/01/01 06:37:02.9  -0.4                          T                                        5152347
ETSF  000.30 238.9 m E Sg      2013/01/01 06:37:07.0  -0.4                          T                                Md 3.0  5152346
EPF   000.40 093.2 m E Pg      2013/01/01 06:37:05.0  -0.2                          T                                        5152345
EPF   000.40 093.2 m E Sg      2013/01/01 06:37:10.8   0.2                          T              116.2  .20        Md 3.1  5152344
SJPF  000.75 274.9 m E Pg      2013/01/01 06:37:11.6   0.2                          T                                        5152343
SJPF  000.75 274.9 m E Sg      2013/01/01 06:37:21.3   0.1                          T               54.8  .22                5152342
LFF   002.01 019.7 m E Pn      2013/01/01 06:37:30.5   0.0                          T                                        5152406
LFF   002.01 019.7 m E Pg      2013/01/01 06:37:34.8   0.2                          T                                        5152407
LFF   002.01 019.7 m E Sn      2013/01/01 06:37:54.7   0.1                          T                                        5152405
LFF   002.01 019.7 m E Sg      2013/01/01 06:38:00.9   0.4                          T               75.2  .36 Ml 3.4         5152404
MTLF  001.80 080.0 m E Pg      2013/01/01 06:37:31.1   0.3                          T                                        5152341
MTLF  001.80 080.0 m E Sg      2013/01/01 06:37:54.3   0.3                          T               24.0  .26 Ml 3.1         5152340
CAF   002.49 040.5 m E Pn      2013/01/01 06:37:36.8  -0.3                          T                                        5152338
CAF   002.49 040.5 m E Pg      2013/01/01 06:37:43.5   0.0                          T                                        5152339
CAF   002.49 040.5 m E Sn      2013/01/01 06:38:06.2   0.0                          T                                        5152409
CAF   002.49 040.5 m E Sg      2013/01/01 06:38:15.8   0.2                          T               16.5  .18 Ml 3.3         5152408
RJF   002.57 028.3 m E Pn      2013/01/01 06:37:38.2   0.0                          T                                        5152401
RJF   002.57 028.3 m E Pg      2013/01/01 06:37:44.6  -0.4                          T                                        5152402
RJF   002.57 028.3 m E Sn      2013/01/01 06:38:08.2   0.1                          T                                        5152403
RJF   002.57 028.3 m E Sg      2013/01/01 06:38:18.3   0.2                          T               22.6  .22 Ml 3.0         5152400
LASF  003.13 069.6 m E Pn      2013/01/01 06:37:45.7  -0.1                          T                                        5152363
LASF  003.13 069.6 m E Pg      2013/01/01 06:37:55.4   0.0                          T                                        5152362
LASF  003.13 069.6 m E Sn      2013/01/01 06:38:21.4  -0.1                          T                                        5152361
LASF  003.13 069.6 m E Sg      2013/01/01 06:38:35.4  -0.1                          T                5.8  .22 Ml 2.9         5152360
MFF   003.55 000.7 m E Pn      2013/01/01 06:37:51.6   0.2                          T                                        5152380
MFF   003.55 000.7 m E Pg      2013/01/01 06:38:03.6   0.6                          T                                        5152379
MFF   003.55 000.7 m E Sn      2013/01/01 06:38:30.7  -0.8                          T                                        5152378
MFF   003.55 000.7 m E Sg      2013/01/01 06:38:49.2   0.6                          T                9.0  .27 Ml 3.2         5152377
TCF   003.66 027.3 m E Pn      2013/01/01 06:37:53.2   0.1                          T                                        5152384
TCF   003.66 027.3 m E Pg      2013/01/01 06:38:05.3   0.0                          T                                        5152383
TCF   003.66 027.3 m E Sn      2013/01/01 06:38:34.6   0.2                          T                                        5152382
TCF   003.66 027.3 m E Sg      2013/01/01 06:38:52.9   0.6                          T                6.5  .23 Ml 3.1         5152381
VIVF  003.96 061.3 m E Pn      2013/01/01 06:37:56.9  -0.2                          T                                        5152359
VIVF  003.96 061.3 m E Pg      2013/01/01 06:38:10.5  -0.2                          T                                        5152358
VIVF  003.96 061.3 m E Sn      2013/01/01 06:38:41.7   0.3                          T                                        5152357
VIVF  003.96 061.3 m E Sg      2013/01/01 06:39:01.0  -0.5                          T                3.0  .24 Ml 2.7         5152356
BGF   004.12 030.8 m E Pn      2013/01/01 06:37:59.9   0.5                          T                                        5152399
BGF   004.12 030.8 m E Pg      2013/01/01 06:38:13.6   0.0                          T                                        5152398
BGF   004.12 030.8 m E Sg      2013/01/01 06:39:06.7   0.1                          T               23.9  .32 Ml 3.5         5152397
AVF   004.51 032.9 m E Pn      2013/01/01 06:38:04.6   0.0                          T                                        5152388
AVF   004.51 032.9 m E Pg      2013/01/01 06:38:20.4  -0.4                          T                                        5152387
AVF   004.51 032.9 m E Sn      2013/01/01 06:38:54.6   0.0                          T                                        5152386
AVF   004.51 032.9 m E Sg      2013/01/01 06:39:18.5  -0.1                          T                3.4  .27 Ml 2.9         5152385
SMF   004.60 037.3 m E Pn      2013/01/01 06:38:06.5   0.6                          T                                        5152392
SMF   004.60 037.3 m E Pg      2013/01/01 06:38:22.5   0.0                          T                                        5152391
SMF   004.60 037.3 m E Sn      2013/01/01 06:38:56.9   0.2                          T                                        5152390
SMF   004.60 037.3 m E Sg      2013/01/01 06:39:21.9   0.3                          T                2.6  .22 Ml 2.9         5152389
HYF   004.67 024.6 m E Pn      2013/01/01 06:38:06.6  -0.2                          T                                        5152396
HYF   004.67 024.6 m E Pg      2013/01/01 06:38:23.8   0.0                          T                                        5152395
HYF   004.67 024.6 m E Sn      2013/01/01 06:38:58.4   0.1                          T                                        5152394
HYF   004.67 024.6 m E Sg      2013/01/01 06:39:23.7   0.1                          T                                        5152393
SSF   004.79 032.0 m E Pn      2013/01/01 06:38:09.1   0.7                          T                                        5152371
SSF   004.79 032.0 m E Pg      2013/01/01 06:38:25.0   0.0                          T                                        5152370
SSF   004.79 032.0 m E Sn      2013/01/01 06:39:00.5  -0.8                          T                                        5152369
SSF   004.79 032.0 m E Sg      2013/01/01 06:39:27.0  -0.5                          T                4.9  .36 Ml 3.1         5152368
LOR   005.10 032.9 m E Pn      2013/01/01 06:38:13.2   0.5                          T                                        5152367
LOR   005.10 032.9 m E Pg      2013/01/01 06:38:31.3  -0.4                          T                                        5152366
LOR   005.10 032.9 m E Sn      2013/01/01 06:39:08.1  -0.6                          T                                        5152365
LOR   005.10 032.9 m E Sg      2013/01/01 06:39:36.9  -0.3                          T                2.2  .22 Ml 2.9         5152364
QUIF  005.29 337.9 m E Pn      2013/01/01 06:38:14.6  -0.5                          T                                        5152376
QUIF  005.29 337.9 m E Sg      2013/01/01 06:39:43.1   0.2                          T                1.5  .21 Ml 2.8         5152375
SGMF  005.45 343.3 m E Pn      2013/01/01 06:38:17.8   0.4                          T                                        5152372
SGMF  005.45 343.3 m E Sn      2013/01/01 06:39:16.6  -0.4                          T                                        5152373
SGMF  005.45 343.3 m E Sg      2013/01/01 06:39:47.9  -0.1                          T                2.7  .31 Ml 2.9         5152374
LMR   004.92 084.5 m E Sg      2013/01/01 06:39:31.6   0.1                          T                 .8  .28 Ml 2.3         5174324

.
EVENT     289315
    Date      Time       Latitude Longitude    Depth    Ndef Nsta Gap    Mag1  N    Mag2  N    Mag3  N   Author         ID
       rms   OT_Error      Smajor Sminor Az        Err   mdist  Mdist     Err        Err        Err      Quality

2013/01/01 06:46:47.6     42.9421    -.1862      2.0      23    7 184  Ml 1.8  5  Md 1.9  2              bulletin    289415
                                                                                                         _ldg
      0.33   +-  0.09       2.3    1.2  166.89 +-  0.0    0.28   2.66   +-0.2      +-0.1                 m i ke

PYRENEES
Sta     Dist  EvAz     Phase      Date       Time     TRes  Azim  AzRes  Slow  SRes Def   SNR       Amp   Per   Mag1   Mag2       ID
ETSF  000.28 261.1 m E Pg      2013/01/01 06:46:53.0  -0.1                          T                                        5152432
ETSF  000.28 261.1 m E Sg      2013/01/01 06:46:56.7  -0.2                          T               11.3  .21        Md 1.9  5152431
EPF   000.40 077.0 m E Pg      2013/01/01 06:46:55.1  -0.2                          T                                        5152430
EPF   000.40 077.0 m E Sg      2013/01/01 06:47:00.8   0.2                          T                6.2  .22        Md 1.8  5152429
SJPF  000.78 283.0 m E Pg      2013/01/01 06:47:02.4   0.1                          T                                        5152428
SJPF  000.78 283.0 m E Sg      2013/01/01 06:47:12.4  -0.1                          T                1.6  .19                5152427
MTLF  001.80 076.4 m E Pn      2013/01/01 06:47:17.5  -0.4                          T                                        5152426
MTLF  001.80 076.4 m E Sn      2013/01/01 06:47:40.1   0.0                          T                                        5152425
MTLF  001.80 076.4 m E Sg      2013/01/01 06:47:44.4   0.0                          T                 .5  .17 Ml 1.7         5152424
LFF   002.11 018.2 m E Pn      2013/01/01 06:47:22.5   0.5                          T                                        5152418
LFF   002.11 018.2 m E Pg      2013/01/01 06:47:26.9   0.2                          T                                        5152419
LFF   002.11 018.2 m E Sn      2013/01/01 06:47:47.5   0.2                          T                                        5152417
LFF   002.11 018.2 m E Sg      2013/01/01 06:47:53.8   0.0                          T                1.6  .26 Ml 1.8         5152416
CAF   002.56 038.6 m E Pn      2013/01/01 06:47:28.2  -0.1                          T                                        5152423
CAF   002.56 038.6 m E Pg      2013/01/01 06:47:35.2   0.0                          T                                        5152422
CAF   002.56 038.6 m E Sn      2013/01/01 06:47:58.6   0.3                          T                                        5152421
CAF   002.56 038.6 m E Sg      2013/01/01 06:48:07.8  -0.3                          T                1.2  .20 Ml 2.1         5152420
RJF   002.66 026.9 m E Pg      2013/01/01 06:47:36.6  -0.3                          T                                        5152415
RJF   002.66 026.9 m E Sn      2013/01/01 06:48:00.2  -0.3                          T                                        5152414
RJF   002.66 026.9 m E Sg      2013/01/01 06:48:11.0  -0.2                          T                 .5  .16 Ml 1.6         5152413

.
EVENT     289316
    Date      Time       Latitude Longitude    Depth    Ndef Nsta Gap    Mag1  N    Mag2  N    Mag3  N   Author         ID
       rms   OT_Error      Smajor Sminor Az        Err   mdist  Mdist     Err        Err        Err      Quality

2013/01/01 06:57:13.5     43.0504    -.2226      2.0      46    9 099  Ml 2.4  7  Md 2.4  2              bulletin    289416
                                                                                                         _ldg
      0.50   +-  0.07       1.3    1.1  173.32 +-  0.0    0.13   4.13   +-0.2      +-0.0                 m i ke

PYRENEES
Sta     Dist  EvAz     Phase      Date       Time     TRes  Azim  AzRes  Slow  SRes Def   SNR       Amp   Per   Mag1   Mag2       ID
ETSF  000.29 238.6 m E Pg      2013/01/01 06:57:18.8  -0.5                          T                                        5152463
ETSF  000.29 238.6 m E Sg      2013/01/01 06:57:22.4  -0.7                          T               88.7  .24        Md 2.4  5152462
EPF   000.41 092.6 m E Pg      2013/01/01 06:57:20.8  -0.6                          T                                        5152461
EPF   000.41 092.6 m E Sg      2013/01/01 06:57:26.2  -0.8                          T               32.0  .32        Md 2.4  5152460
SJPF  000.74 275.2 m E Pg      2013/01/01 06:57:26.7  -0.7                          T                                        5152459
LFF   002.01 019.9 m E Pn      2013/01/01 06:57:46.1  -0.5                          T                                        5152455
LFF   002.01 019.9 m E Pg      2013/01/01 06:57:51.1   0.3                          T                                        5152456
LFF   002.01 019.9 m E Sn      2013/01/01 06:58:11.5   0.6                          T                                        5152454
LFF   002.01 019.9 m E Sg      2013/01/01 06:58:17.3   0.5                          T                6.5  .24 Ml 2.5         5152453
MTLF  001.81 079.9 m E Pg      2013/01/01 06:57:47.2   0.1                          T                                        5152458
MTLF  001.81 079.9 m E Sg      2013/01/01 06:58:10.6   0.1                          T                5.4  .31 Ml 2.4         5152457
CAF   002.50 040.6 m E Pn      2013/01/01 06:57:53.4   0.0                          T                                        5152448
CAF   002.50 040.6 m E Pg      2013/01/01 06:57:59.9   0.0                          T                                        5152447
CAF   002.50 040.6 m E Sn      2013/01/01 06:58:23.2   0.6                          T                                        5152446
CAF   002.50 040.6 m E Sg      2013/01/01 06:58:32.2   0.2                          T                2.4  .19 Ml 2.4         5152445
RJF   002.58 028.4 m E Pn      2013/01/01 06:57:54.6   0.2                          T                                        5152451
RJF   002.58 028.4 m E Pg      2013/01/01 06:58:01.2  -0.1                          T                                        5152452
RJF   002.58 028.4 m E Sn      2013/01/01 06:58:23.9  -0.6                          T                                        5152450
RJF   002.58 028.4 m E Sg      2013/01/01 06:58:34.9   0.5                          T                3.8  .21 Ml 2.3         5152449
LASF  003.14 069.5 m E Pn      2013/01/01 06:58:02.2   0.2                          T                                        5152444
LASF  003.14 069.5 m E Pg      2013/01/01 06:58:11.7   0.1                          T                                        5152443
LASF  003.14 069.5 m E Sn      2013/01/01 06:58:38.0   0.2                          T                                        5152442
LASF  003.14 069.5 m E Sg      2013/01/01 06:58:51.8  -0.1                          T                 .7  .18 Ml 2.0         5152441
BGF   004.13 030.9 m E Pn      2013/01/01 06:58:15.8   0.3                          T                                        5152440
BGF   004.13 030.9 m E Pg      2013/01/01 06:58:30.9   1.0                          T                                        5152439
BGF   004.13 030.9 m E Sn      2013/01/01 06:59:01.2  -0.3                          T                                        5152438
BGF   004.13 030.9 m E Sg      2013/01/01 06:59:23.1   0.2                          T                3.8  .32 Ml 2.8         5152437

.
EVENT     289317
    Date      Time       Latitude Longitude    Depth    Ndef Nsta Gap    Mag1  N    Mag2  N    Mag3  N   Author         ID
       rms   OT_Error      Smajor Sminor Az        Err   mdist  Mdist     Err        Err        Err      Quality

2013/01/01 06:58:53.4     43.0578    -.2256      2.0      17    7 143  Ml 1.8  4  Md 1.8  2              bulletin    289417
                                                                                                         _ldg
      0.70   +-  0.12       3.4    1.8  164.50 +-  0.0    0.29   2.57   +-0.4      +-0.1                 m i ke

PYRENEES
Sta     Dist  EvAz     Phase      Date       Time     TRes  Azim  AzRes  Slow  SRes Def   SNR       Amp   Per   Mag1   Mag2       ID
ETSF  000.29 237.1 m E Pg      2013/01/01 06:58:58.9  -0.3                          T                                        5152479
ETSF  000.29 237.1 m E Sg      2013/01/01 06:59:03.0  -0.1                          T                6.9  .22        Md 1.9  5152478
EPF   000.42 093.6 m E Pg      2013/01/01 06:59:01.3  -0.1                          T                                        5152477
EPF   000.42 093.6 m E Sg      2013/01/01 06:59:07.2   0.3                          T                2.2  .19        Md 1.7  5152476
SJPF  000.73 274.7 m E Pg      2013/01/01 06:59:07.4   0.1                          T                                        5152474
SJPF  000.73 274.7 m E Sg      2013/01/01 06:59:17.2   0.4                          T                1.5  .21                5152475
MTLF  001.81 080.2 m E Pg      2013/01/01 06:59:26.5  -0.5                          T                                        5152472
MTLF  001.81 080.2 m E Sn      2013/01/01 06:59:45.2  -0.7                          T                                        5169424
MTLF  001.81 080.2 m E Sg      2013/01/01 06:59:50.1  -0.2                          T                 .3  .18 Ml 1.3         5152471
LFF   002.01 020.0 m E Pg      2013/01/01 06:59:30.5  -0.1                          T                                        5152469
LFF   002.01 020.0 m E Sg      2013/01/01 06:59:56.8   0.4                          T                2.4  .26 Ml 2.0         5152468
CAF   002.49 040.7 m E Pg      2013/01/01 06:59:39.6  -0.1                          T                                        5169425
RJF   002.57 028.6 m E Sg      2013/01/01 07:00:13.4  -0.8                          T                 .7  .23 Ml 1.5         5174325

.
