EVENT     261869
    Date      Time       Latitude Longitude    Depth    Ndef Nsta Gap    Mag1  N    Mag2  N    Mag3  N   Author         ID
       rms   OT_Error      Smajor Sminor Az        Err   mdist  Mdist     Err        Err        Err      Quality

2011/07/27 12:11:52.3     42.7747   -1.0075      4.0 f   115   23 023  Ml 3.1 26  Md 3.0  3              js067245    261869

      0.76   +-  0.07       1.4    1.2   27.12 +-  0.0    0.18   7.38   +-0.2      +-0.0                 m i ke

PYRENEES
Sta     Dist  EvAz     Phase      Date       Time     TRes  Azim  AzRes  Slow  SRes Def   SNR       Amp   Per   Mag1   Mag2       ID
ETSF  000.35 069.3 m E Pg      2011/07/27 12:11:58.8  -0.5                          T   001.0                                4728417
ETSF  000.35 069.3 m E Sg      2011/07/27 12:12:03.8  -0.3                          T              382.8  .27        Md 3.0  4728650
SJPF  000.37 334.8 m E Pg      2011/07/27 12:11:59.4  -0.2                          T   001.0                                4728426
SJPF  000.37 334.8 m E Sg      2011/07/27 12:12:04.9   0.3                          T              791.0  .28        Md 3.1  4728655
EPF   001.02 075.1 m E Pg      2011/07/27 12:12:10.8  -0.7                          T   001.0                                4728401
EPF   001.02 075.1 m E Pn      2011/07/27 12:12:12.0   0.1                          T                                        4729321
EPF   001.02 075.1 m E Sg      2011/07/27 12:12:24.4  -0.5                          T                                        4729318
EPF   001.02 075.1 m E Sn      2011/07/27 12:12:25.8   0.0                          T   001.0                        Md 3.0  4728403
LFF   002.51 029.7 m E Pn      2011/07/27 12:12:32.4   0.4                          T   001.0                                4728408
LFF   002.51 029.7 m E Sn      2011/07/27 12:13:01.5   0.2                          T   001.0       15.3  .24 Ml 3.0         4728409
LFF   002.51 029.7 m E Sg      2011/07/27 12:13:11.2   0.2                          T               36.9  .36 Ml 3.2         4729317
MTLF  002.43 075.4 m E P       2011/07/27 12:12:33.5   0.0                          T   001.0                                4728418
MTLF  002.43 075.4 m E Pg      2011/07/27 12:12:37.3  -0.2                          T                                        4728654
MTLF  002.43 075.4 m E Sn      2011/07/27 12:12:59.0  -0.4                          T                                        4728653
MTLF  002.43 075.4 m E Sg      2011/07/27 12:13:08.2  -0.5                          T   001.0       11.3  .22 Ml 3.0         4728419
RJF   003.12 034.9 m E Pn      2011/07/27 12:12:39.8  -0.6                          T                                        4729322
RJF   003.12 034.9 m E P       2011/07/27 12:12:43.3   0.0                          T   001.0                                4728393
RJF   003.12 034.9 m E Sn      2011/07/27 12:13:15.5  -0.3                          T   001.0       10.7  .26 Ml 2.7         4728394
RJF   003.12 034.9 m E Sg      2011/07/27 12:13:30.2   0.0                          T                5.2  .16 Ml 2.6         4729316
CAF   003.09 044.9 m E Pn      2011/07/27 12:12:40.4   0.4                          T   001.0                                4728398
CAF   003.09 044.9 m E Sn      2011/07/27 12:13:15.4   0.1                          T   001.0       17.1  .22 Ml 3.3         4728399
LASF  003.77 068.2 m E Pn      2011/07/27 12:12:49.7   0.4                          T   001.0                                4728404
LASF  003.77 068.2 m E Sn      2011/07/27 12:13:32.1   0.5                          T   001.0        6.8  .27 Ml 3.0         4728405
LASF  003.77 068.2 m E Sg      2011/07/27 12:13:50.2  -0.5                          T               13.0  .41 Ml 3.1         4729319
MFF   003.88 008.8 m E Pn      2011/07/27 12:12:50.5  -0.1                          T                                        4729323
MFF   003.88 008.8 m E P       2011/07/27 12:12:53.3  -0.8                          T   001.0                                4728411
MFF   003.88 008.8 m E Pg      2011/07/27 12:13:04.0   0.0                          T                                        4728656
MFF   003.88 008.8 m E Sn      2011/07/27 12:13:36.1   2.1                          T   001.0                                4728412
MFF   003.88 008.8 m E Sg      2011/07/27 12:13:53.7  -0.1                          T   001.0        7.4  .30 Ml 3.2         4728413
TCF   004.20 032.1 m E Pn      2011/07/27 12:12:54.7  -0.4                          T   001.0                                4728416
TCF   004.20 032.1 m E Sn      2011/07/27 12:13:41.0  -0.7                          T                6.2  .26 Ml 3.1         4728657
BGF   004.68 034.7 m E Pn      2011/07/27 12:13:01.5  -0.1                          T   001.0                                4728397
BGF   004.68 034.7 m E Sn      2011/07/27 12:13:53.1   0.0                          T               43.6  .52 Ml 3.7         4729313
VIVF  004.61 061.2 m E P       2011/07/27 12:13:04.4  -0.1                          T                                        4729320
AVF   005.07 036.2 m E Pn      2011/07/27 12:13:07.3   0.3                          T                                        4729327
AVF   005.07 036.2 m E P       2011/07/27 12:13:11.4   0.3                          T                                        4729328
AVF   005.07 036.2 m E Sn      2011/07/27 12:14:02.8   0.2                          T                3.1  .29 Ml 2.9         4729312
AVF   005.07 036.2 m E Sg      2011/07/27 12:14:31.3   0.1                          T   001.0        3.3  .36 Ml 2.9         4728396
SMF   005.19 040.1 m E Pn      2011/07/27 12:13:08.5  -0.1                          T                                        4729326
SSF   005.35 035.2 m E Pn      2011/07/27 12:13:10.7  -0.1                          T   001.0                                4728414
SSF   005.35 035.2 m E Sn      2011/07/27 12:14:09.2   0.0                          T   001.0        5.2  .36 Ml 3.2         4728415
QUIF  005.36 344.3 m E Pn      2011/07/27 12:13:11.2   0.3                          T   001.0                                4728420
QUIF  005.36 344.3 m E Sn      2011/07/27 12:14:09.7   0.3                          T                5.4  .24 Ml 3.3         4729315
LOR   005.66 035.8 m E Pn      2011/07/27 12:13:13.3  -1.8                          T                                        4729329
LOR   005.66 035.8 m E Sn      2011/07/27 12:14:16.7  -0.1                          T                                        4729311
SGMF  005.59 349.3 m E Pn      2011/07/27 12:13:14.5   0.5                          T   001.0                                4728423
SGMF  005.59 349.3 m E Sn      2011/07/27 12:14:15.2   0.4                          T   001.0                                4728424
SGMF  005.59 349.3 m E Sg      2011/07/27 12:14:47.3   0.1                          T   001.0        1.5  .24 Ml 2.8         4728425
GRR   005.62 001.0 m E Pn      2011/07/27 12:13:14.8   0.4                          T                                        4728651
GRR   005.62 001.0 m E Sn      2011/07/27 12:14:15.7   0.2                          T                7.2  .31 Ml 3.2         4728652
ROSF  005.79 344.8 m E Pn      2011/07/27 12:13:17.3   0.6                          T   001.0                                4728421
ROSF  005.79 344.8 m E Sn      2011/07/27 12:14:20.5   0.9                          T   001.0        6.8  .31 Ml 3.4         4728422
LDF   005.85 005.8 m E Pn      2011/07/27 12:13:18.1   0.5                          T   001.0                                4728406
LDF   005.85 005.8 m E Sn      2011/07/27 12:14:20.8  -0.4                          T   001.0        3.8  .33 Ml 3.1         4728407
FLN   006.00 003.3 m E Pn      2011/07/27 12:13:19.6   0.0 182.2  -1.5              T                                        4729324
LPG   006.21 061.4 m E Sg      2011/07/27 12:15:05.4  -1.7                          T   001.0        1.4  .32 Ml 2.8         4728410

.
EVENT     261878
    Date      Time       Latitude Longitude    Depth    Ndef Nsta Gap    Mag1  N    Mag2  N    Mag3  N   Author         ID
       rms   OT_Error      Smajor Sminor Az        Err   mdist  Mdist     Err        Err        Err      Quality

2011/07/27 16:19:32.4     46.4097    4.6982       .0 f    15    5 184  Ml 2.0  7  Md 2.1  3              js067245    261878

      0.59   +-  0.21       3.4    2.8   77.75 +-  0.0    0.64   1.71   +-0.2      +-0.1                 m i km

FRANCE
Sta     Dist  EvAz     Phase      Date       Time     TRes  Azim  AzRes  Slow  SRes Def   SNR       Amp   Per   Mag1   Mag2       ID
SMF   000.64 292.0 m E Pg      2011/07/27 16:19:44.5  -0.3                          T                                        4728681
SMF   000.64 292.0 m E Pn      2011/07/27 16:19:47.4   0.1                          T                                        4728682
SMF   000.64 292.0 m E Sg      2011/07/27 16:19:53.2  -0.1                          T                                        4728677
SMF   000.64 292.0 m E Sn      2011/07/27 16:19:57.1  -0.6                          T               10.1  .25        Md 2.1  4728676
AVF   001.00 292.8 m E Pg      2011/07/27 16:19:51.5   0.0                          T                                        4728683
AVF   001.00 292.8 m E Sg      2011/07/27 16:20:05.5   0.8                          T                2.8  .28 Ml 1.8 Md 2.1  4728680
LOR   001.03 326.5 m E Pg      2011/07/27 16:19:51.9  -0.2 148.6  2.7               T                                        4728685
LOR   001.03 326.5 m E Sg      2011/07/27 16:20:06.3   0.5 139.6  -6.2              T                6.0  .31 Ml 2.1 Md 2.0  4728679
SSF   001.05 308.9 m E Pg      2011/07/27 16:19:52.3   0.0                          T                                        4728684
SSF   001.05 308.9 m E Sg      2011/07/27 16:20:06.6   0.5                          T                3.9  .27 Ml 2.1         4728678
BGF   001.29 277.3 m E Pg      2011/07/27 16:19:56.6  -0.2                          T                                        4728672
BGF   001.29 277.3 m E Sg      2011/07/27 16:20:14.1   0.5                          T                6.7  .33 Ml 2.2         4728675

.
EVENT     262074
    Date      Time       Latitude Longitude    Depth    Ndef Nsta Gap    Mag1  N    Mag2  N    Mag3  N   Author         ID
       rms   OT_Error      Smajor Sminor Az        Err   mdist  Mdist     Err        Err        Err      Quality

2011/07/27 19:11:16.9     42.3223    1.8178     10.0      22    2 072  Ml 1.5  2  Md 1.8  1              js067245    262074

      0.32   +-  0.05       1.3     .8   15.94 +-  0.0    0.19   1.30   +-0.0      +-                    m i ke

PYRENEES
Sta     Dist  EvAz     Phase      Date       Time     TRes  Azim  AzRes  Slow  SRes Def   SNR       Amp   Per   Mag1   Mag2       ID
MTLF  001.06 016.0 m E Pn      2011/07/27 19:11:36.3   0.1                          T                                        4730931
MTLF  001.06 016.0 m E Sn      2011/07/27 19:11:49.6  -0.5                          T                 .7  .18 Ml 1.4 Md 1.8  4730932
MTLF  001.06 016.0 m E S       2011/07/27 19:11:52.9  -0.1                          T                                        4730933
EPF   001.30 303.5 m E Pn      2011/07/27 19:11:39.6   0.0                          T                                        4730929
EPF   001.30 303.5 m E Pg      2011/07/27 19:11:41.2  -0.1                          T                                        4730928
EPF   001.30 303.5 m E Sg      2011/07/27 19:11:58.0  -0.1                          T                 .9  .26 Ml 1.5         4730930

.
EVENT     261879
    Date      Time       Latitude Longitude    Depth    Ndef Nsta Gap    Mag1  N    Mag2  N    Mag3  N   Author         ID
       rms   OT_Error      Smajor Sminor Az        Err   mdist  Mdist     Err        Err        Err      Quality

2011/07/27 23:42:28.7     43.0756   -1.1017      2.0       5    3 178  Ml 0.6  1  Md 1.1  2              js067245    261879

      0.28   +-  0.19      22.2    3.1   19.91 +-  0.0    0.10   1.06   +-         +-0.5                 m i ke

PYRENEES
Sta     Dist  EvAz     Phase      Date       Time     TRes  Azim  AzRes  Slow  SRes Def   SNR       Amp   Per   Mag1   Mag2       ID
SJPF  000.10 292.7 m E Pg      2011/07/27 23:42:30.7  -0.2                          T                                        4728713
SJPF  000.10 292.7 m E Sg      2011/07/27 23:42:32.9   0.5                          T                2.6  .24        Md 1.4  4728714
ETSF  000.44 113.8 m E Pg      2011/07/27 23:42:37.3   0.2                          T                                        4728711
ETSF  000.44 113.8 m E Sg      2011/07/27 23:42:42.6  -0.3                          T                1.6  .29        Md  .7  4728712
EPF   001.06 092.0 m E Sg      2011/07/27 23:43:02.3   0.0                          T                 .1  .20 Ml  .6         4728710

.
EVENT     261880
    Date      Time       Latitude Longitude    Depth    Ndef Nsta Gap    Mag1  N    Mag2  N    Mag3  N   Author         ID
       rms   OT_Error      Smajor Sminor Az        Err   mdist  Mdist     Err        Err        Err      Quality

2011/07/28 03:05:41.5     44.0227    6.7090      2.0      12    6 134  Ml 1.3  2  Md 1.6  2              js067245    261880

      0.33   +-  0.10       3.1    1.7   86.33 +-  0.0    0.46   1.49   +-0.2      +-0.2                 m i ke

FRANCE
Sta     Dist  EvAz     Phase      Date       Time     TRes  Azim  AzRes  Slow  SRes Def   SNR       Amp   Per   Mag1   Mag2       ID
FRF   000.46 185.6 m E Pg      2011/07/28 03:05:50.2  -0.2                          T                                        4728727
FRF   000.46 185.6 m E Sg      2011/07/28 03:05:56.8   0.3                          T                4.5  .22        Md 1.7  4728724
SBF   000.55 106.7 m E Pg      2011/07/28 03:05:52.3   0.3                          T                                        4728725
SBF   000.55 106.7 m E Sg      2011/07/28 03:05:58.4  -0.8                          T                7.6  .24        Md 1.5  4728722
LMR   000.70 192.0 m E Pg      2011/07/28 03:05:54.8   0.0                          T                                        4728726
LMR   000.70 192.0 m E Sg      2011/07/28 03:06:03.8  -0.2                          T                 .9  .18                4728723
MBDF  000.71 003.6 m E Pn      2011/07/28 03:05:57.2   0.1                          T                                        4728718
MBDF  000.71 003.6 m E Sg      2011/07/28 03:06:03.9  -0.4                          T                1.3  .28                4728719
ORIF  001.07 326.8 m E Pn      2011/07/28 03:06:02.3   0.2                          T                                        4728720
ORIF  001.07 326.8 m E Sn      2011/07/28 03:06:16.0  -0.7                          T                 .6  .27 Ml 1.2         4728721
LPL   001.49 000.6 m E Pn      2011/07/28 03:06:08.6   0.6                          T                                        4728717
LPL   001.49 000.6 m E Sg      2011/07/28 03:06:29.0   0.1                          T                1.0  .40 Ml 1.4         4728716

.
EVENT     261881
    Date      Time       Latitude Longitude    Depth    Ndef Nsta Gap    Mag1  N    Mag2  N    Mag3  N   Author         ID
       rms   OT_Error      Smajor Sminor Az        Err   mdist  Mdist     Err        Err        Err      Quality

2011/07/28 05:00:58.3     44.0502   -6.2156      2.0      24   11 280  Ml 2.7 13  Md 2.9  3              js067245    261881

      0.88   +-  0.57      11.3    5.7   58.95 +-  0.0    3.75   6.70   +-0.2      +-0.1                 m i ke

NORTH ATLANTIC OCEAN
Sta     Dist  EvAz     Phase      Date       Time     TRes  Azim  AzRes  Slow  SRes Def   SNR       Amp   Per   Mag1   Mag2       ID
SJPF  003.75 102.8 m E Pn      2011/07/28 05:01:54.3  -0.8                          T                                        4728761
SJPF  003.75 102.8 m E Sn      2011/07/28 05:02:38.2   1.0                          T                4.3  .30 Ml 2.7 Md 2.9  4728752
ETSF  004.27 103.7 m E Pn      2011/07/28 05:02:02.6   0.2                          T                                        4728749
ETSF  004.27 103.7 m E Sn      2011/07/28 05:02:51.6   1.7                          T                5.8  .30 Ml 3.0 Md 2.8  4728759
QUIF  004.41 027.7 m E Pn      2011/07/28 05:02:04.4   0.3                          T                                        4728764
QUIF  004.41 027.7 m E Sn      2011/07/28 05:02:52.5  -0.5                          T                1.4  .19 Ml 2.6 Md 3.1  4728756
ROSF  004.75 024.4 m E Pn      2011/07/28 05:02:09.0   0.3                          T                                        4728763
ROSF  004.75 024.4 m E Sn      2011/07/28 05:02:59.1  -2.0                          T                  1  .20 Ml 2.5         4728755
SGMF  004.91 029.9 m E Pn      2011/07/28 05:02:11.0   0.1                          T                                        4728762
SGMF  004.91 029.9 m E Sn      2011/07/28 05:03:03.4  -1.6                          T                 .7  .27 Ml 2.3         4728754
MFF   004.98 057.1 m E Pn      2011/07/28 05:02:12.0   0.1                          T                                        4728748
MTLF  006.16 093.7 m E Pn      2011/07/28 05:02:27.2  -0.7                          T                                        4728760
MTLF  006.16 093.7 m E Sn      2011/07/28 05:03:33.3  -1.4                          T                1.3  .32 Ml 2.7         4728750
TCF   006.36 066.5 m E Pn      2011/07/28 05:02:31.5   0.7                          T                                        4728746
TCF   006.36 066.5 m E Sn      2011/07/28 05:03:38.3  -1.5                          T                1.4  .23 Ml 3.0         4728747
EPF   004.87 099.8 m E Sn      2011/07/28 05:03:05.2   1.0                          T                1.6  .25 Ml 2.7         4728751
RJF   005.65 074.5 m E Sn      2011/07/28 05:03:24.6   1.9                          T                2.8  .23 Ml 2.8         4728757
CAF   005.99 078.7 m E Sn      2011/07/28 05:03:30.7  -0.1                          T                1.2  .18 Ml 2.9         4728758

.
EVENT     261885
    Date      Time       Latitude Longitude    Depth    Ndef Nsta Gap    Mag1  N    Mag2  N    Mag3  N   Author         ID
       rms   OT_Error      Smajor Sminor Az        Err   mdist  Mdist     Err        Err        Err      Quality

2011/07/28 06:49:37.3     42.7705    -.8189      3.0 f     7    4 244  Ml 1.7  2  Md 1.8  2              js067245    261885

      0.07   +-  0.13       3.4     .7   12.24 +-  0.0    0.23   2.30   +-0.1      +-0.1                 m i ke

PYRENEES
Sta     Dist  EvAz     Phase      Date       Time     TRes  Azim  AzRes  Slow  SRes Def   SNR       Amp   Per   Mag1   Mag2       ID
ETSF  000.23 056.1 m E Pg      2011/07/28 06:49:42.1   0.1                          T                                        4728850
ETSF  000.23 056.1 m E Sg      2011/07/28 06:49:45.0  -0.2                          T                8.3  .21        Md 1.8  4728848
SJPF  000.45 319.1 m E Pg      2011/07/28 06:49:46.0   0.0                          T                                        4728849
SJPF  000.45 319.1 m E Sg      2011/07/28 06:49:52.1   0.0                          T                2.3  .22        Md 1.8  4728847
EPF   000.89 072.7 m E Pg      2011/07/28 06:49:54.0  -0.1                          T                                        4728845
EPF   000.89 072.7 m E Sg      2011/07/28 06:50:05.7   0.0                          T                1.1  .19 Ml 1.6         4728846
MTLF  002.30 074.6 m E Sn      2011/07/28 06:50:41.4   0.0                          T                 .8  .26 Ml 1.7         4728844

.
