EVENT     258528
    Date      Time       Latitude Longitude    Depth    Ndef Nsta Gap    Mag1  N    Mag2  N    Mag3  N   Author         ID
       rms   OT_Error      Smajor Sminor Az        Err   mdist  Mdist     Err        Err        Err      Quality

2011/04/22 23:07:08.5     42.9204     .2301      2.0       8    4 194  Ml 1.2  2  Md 1.0  2              js067245    258528

      0.17   +-  0.10       4.1    1.0  166.40 +-  0.0    0.14   1.51   +-0.1      +-0.2                 m i ke

PYRENEES
Sta     Dist  EvAz     Phase      Date       Time     TRes  Azim  AzRes  Slow  SRes Def   SNR       Amp   Per   Mag1   Mag2       ID
EPF   000.14 036.3 m E Pg      2011/04/22 23:07:11.3  -0.1                          T                                        4678942
EPF   000.14 036.3 m E Sg      2011/04/22 23:07:13.5   0.1                          T               11.0  .25        Md 1.2  4678941
ETSF  000.58 268.1 m E Pg      2011/04/22 23:07:19.6   0.0                          T                                        4678939
ETSF  000.58 268.1 m E Sg      2011/04/22 23:07:26.8  -0.5                          T                 .9  .25        Md  .8  4678940
SJPF  001.08 280.7 m E Pg      2011/04/22 23:07:28.9   0.0                          T                                        4678938
SJPF  001.08 280.7 m E Sg      2011/04/22 23:07:43.2   0.3                          T                 .5  .25 Ml 1.2         4678937
MTLF  001.51 073.2 m E Pg      2011/04/22 23:07:36.8   0.0                          T                                        4678936
MTLF  001.51 073.2 m E Sg      2011/04/22 23:07:56.3   0.0                          T                 .4  .22 Ml 1.3         4678935

.
EVENT     258534
    Date      Time       Latitude Longitude    Depth    Ndef Nsta Gap    Mag1  N    Mag2  N    Mag3  N   Author         ID
       rms   OT_Error      Smajor Sminor Az        Err   mdist  Mdist     Err        Err        Err      Quality

2011/04/23 01:08:10.5     41.7613    2.7496      2.0      32    9 187  Ml 2.2 10  Md 2.1  1              js067245    258534

      0.39   +-  0.14       2.8    1.6  153.81 +-  0.0    0.23   3.65   +-0.3      +-                    m i ke

SPAIN
Sta     Dist  EvAz     Phase      Date       Time     TRes  Azim  AzRes  Slow  SRes Def   SNR       Amp   Per   Mag1   Mag2       ID
MTLF  001.63 346.2 m E Pn      2011/04/23 01:08:38.0  -0.4                          T                                        4678996
MTLF  001.63 346.2 m E Sg      2011/04/23 01:08:58.8  -3.0                          T                3.2  .26 Ml 2.2 Md 2.1  4678992
EPF   002.19 306.2 m E Pn      2011/04/23 01:08:46.0  -0.2                          T                                        4678995
EPF   002.19 306.2 m E Sn      2011/04/23 01:09:12.3   0.1                          T                5.9  .30 Ml 2.5         4678985
ETSF  002.70 296.0 m E Pn      2011/04/23 01:08:53.1  -0.1                          T                                        4678994
ETSF  002.70 296.0 m E Sg      2011/04/23 01:09:35.4  -0.1                          T                3.1  .23 Ml 2.5         4678991
SMRF  003.04 042.2 m E Pn      2011/04/23 01:08:58.1   0.4                          T                                        4678987
SMRF  003.04 042.2 m E Sn      2011/04/23 01:09:32.7   0.2                          T                 .6  .21 Ml 1.9         4678980
CAF   003.20 351.3 m E Pn      2011/04/23 01:08:59.7  -0.3                          T                                        4678993
CAF   003.20 351.3 m E Sg      2011/04/23 01:09:51.2   0.1                          T                1.4  .24 Ml 2.2         4678983
LMR   003.19 059.2 m E Pn      2011/04/23 01:09:00.0   0.3                          T                                        4678986
LMR   003.19 059.2 m E Sn      2011/04/23 01:09:36.6   0.4                          T                 .5  .29 Ml 1.7         4678979
SJPF  003.24 296.0 m E Pn      2011/04/23 01:09:00.5   0.1                          T                                        4678990
SJPF  003.24 296.0 m E Sg      2011/04/23 01:09:52.0  -0.1                          T                1.8  .31 Ml 2.2         4678984
LFF   003.50 335.9 m E Pn      2011/04/23 01:09:03.9   0.0                          T                                        4678989
LFF   003.50 335.9 m E Sg      2011/04/23 01:10:00.3   0.1                          T                1.9  .27 Ml 2.2         4678982
RJF   003.65 346.2 m E Pn      2011/04/23 01:09:06.5   0.4                          T                                        4678988
RJF   003.65 346.2 m E Sg      2011/04/23 01:10:05.2   0.2                          T                1.1  .24 Ml 1.9         4678981

.
EVENT     258553
    Date      Time       Latitude Longitude    Depth    Ndef Nsta Gap    Mag1  N    Mag2  N    Mag3  N   Author         ID
       rms   OT_Error      Smajor Sminor Az        Err   mdist  Mdist     Err        Err        Err      Quality

2011/04/23 03:11:49.3     42.8406   -1.4804      2.0      24    3 107  Ml 1.1  1  Md 1.0  3              js067245    258553

      0.19   +-  0.06       1.0     .9    5.16 +-  0.0    0.09   1.35   +-         +-0.1                 m i ke

PYRENEES
Sta     Dist  EvAz     Phase      Date       Time     TRes  Azim  AzRes  Slow  SRes Def   SNR       Amp   Per   Mag1   Mag2       ID
SJPF  000.33 034.4 m E Pg      2011/04/23 03:11:55.6  -0.2                          T                                        4679277
SJPF  000.33 034.4 m E Sg      2011/04/23 03:12:00.3   0.1                          T                2.0  .40        Md 1.1  4679276
ETSF  000.68 084.8 m E Pg      2011/04/23 03:12:02.3   0.0                          T                                        4679278
ETSF  000.68 084.8 m E Sg      2011/04/23 03:12:11.2   0.1                          T                 .9  .25        Md 1.0  4679281
EPF   001.35 081.3 m E Pg      2011/04/23 03:12:14.6   0.1                          T                                        4679279
EPF   001.35 081.3 m E Sg      2011/04/23 03:12:32.1   0.1                          T                 .2  .17 Ml 1.1 Md 1.0  4679280

.
EVENT     258535
    Date      Time       Latitude Longitude    Depth    Ndef Nsta Gap    Mag1  N    Mag2  N    Mag3  N   Author         ID
       rms   OT_Error      Smajor Sminor Az        Err   mdist  Mdist     Err        Err        Err      Quality

2011/04/23 04:34:18.8     42.8241   -1.4652      2.0      17    3 093  Ml 1.5  1  Md 1.4  2              js067245    258535

      0.28   +-  0.08       1.9    1.1  170.97 +-  0.0    0.08   1.50   +-         +-0.2                 m i ke

PYRENEES
Sta     Dist  EvAz     Phase      Date       Time     TRes  Azim  AzRes  Slow  SRes Def   SNR       Amp   Per   Mag1   Mag2       ID
SJPF  000.34 031.3 m E Pg      2011/04/23 04:34:25.3   0.0                          T                                        4679287
SJPF  000.34 031.3 m E Sg      2011/04/23 04:34:29.8  -0.1                          T                7.3  .36        Md 1.6  4679286
ETSF  000.67 083.3 m E Pg      2011/04/23 04:34:31.1  -0.4                          T                                        4679284
ETSF  000.67 083.3 m E Sg      2011/04/23 04:34:40.3   0.0                          T                1.2  .21        Md 1.3  4679285
EPF   001.34 080.6 m E Pg      2011/04/23 04:34:44.0   0.1                          T                                        4679283
EPF   001.34 080.6 m E Sg      2011/04/23 04:35:01.2   0.0                          T                 .7  .21 Ml 1.5         4679282

.
EVENT     258536
    Date      Time       Latitude Longitude    Depth    Ndef Nsta Gap    Mag1  N    Mag2  N    Mag3  N   Author         ID
       rms   OT_Error      Smajor Sminor Az        Err   mdist  Mdist     Err        Err        Err      Quality

2011/04/23 08:02:52.3     42.8386   -1.4934      2.0      31    6 115  Ml 1.9  5  Md 2.1  3              js067245    258536

      0.18   +-  0.04        .8     .7   92.62 +-  0.0    0.04   3.31   +-0.3      +-0.0                 m i ke

PYRENEES
Sta     Dist  EvAz     Phase      Date       Time     TRes  Azim  AzRes  Slow  SRes Def   SNR       Amp   Per   Mag1   Mag2       ID
SJPF  000.34 035.6 m E Pg      2011/04/23 08:02:58.7  -0.2                          T                                        4679301
SJPF  000.34 035.6 m E Sg      2011/04/23 08:03:03.0  -0.5                          T                4.8  .24        Md 2.1  4679298
ETSF  000.69 084.7 m E Pg      2011/04/23 08:03:05.6   0.1                          T                                        4679300
ETSF  000.69 084.7 m E Sg      2011/04/23 08:03:14.5   0.0                          T                1.9  .32        Md 2.1  4679297
EPF   001.36 081.3 m E Pg      2011/04/23 08:03:17.8   0.0                          T                                        4679299
EPF   001.36 081.3 m E Sg      2011/04/23 08:03:35.4   0.1                          T                1.2  .23 Ml 1.7 Md 2.1  4679296
LFF   002.65 036.8 m E Pn      2011/04/23 08:03:34.3   0.1                          T                                        4679295
LFF   002.65 036.8 m E Sn      2011/04/23 08:04:04.7  -0.3                          T                4.0  .41 Ml 2.2         4679292
MTLF  002.76 078.3 m E Pn      2011/04/23 08:03:35.0  -0.8                          T                                        4679293
MTLF  002.76 078.3 m E Sn      2011/04/23 08:04:07.9   0.1                          T                 .3  .21 Ml 1.6         4679290
CAF   003.31 049.7 m E Pn      2011/04/23 08:03:43.6   0.3                          T                                        4679294
CAF   003.31 049.7 m E Sn      2011/04/23 08:04:20.6  -0.3                          T                 .6  .27 Ml 1.8         4679291

.
EVENT     258537
    Date      Time       Latitude Longitude    Depth    Ndef Nsta Gap    Mag1  N    Mag2  N    Mag3  N   Author         ID
       rms   OT_Error      Smajor Sminor Az        Err   mdist  Mdist     Err        Err        Err      Quality

2011/04/23 09:50:25.8     42.7975   -1.5690     30.0      16    3 166                                    js067245    258537

                                               +-         0.03   1.42                                    m i ke

PYRENEES
Sta     Dist  EvAz     Phase      Date       Time     TRes  Azim  AzRes  Slow  SRes Def   SNR       Amp   Per   Mag1   Mag2       ID
SJPF  000.40 038.5 m E Pg      2011/04/23 09:50:35.7   0.8                          T                                        4679309
SJPF  000.40 038.5 m E Sg      2011/04/23 09:50:40.1  -1.1                          T                5.8  .33                4679308
ETSF  000.75 081.9 m E Pg      2011/04/23 09:50:40.9   1.4                          T                                        4679304
ETSF  000.75 081.9 m E Sg      2011/04/23 09:50:49.9   0.4                          T                 .9  .22                4679307
EPF   001.42 079.9 m E Pg      2011/04/23 09:50:49.2   0.6                          T                                        4679305
EPF   001.42 079.9 m E Sg      2011/04/23 09:51:03.5  -1.8                          T                 .3  .16                4679306

.
EVENT     258554
    Date      Time       Latitude Longitude    Depth    Ndef Nsta Gap    Mag1  N    Mag2  N    Mag3  N   Author         ID
       rms   OT_Error      Smajor Sminor Az        Err   mdist  Mdist     Err        Err        Err      Quality

2011/04/23 13:19:46.7     47.6977    7.7396     16.0 f    14    7 061  Ml 1.5  4  Md 1.4  2              js067245    258554

      0.18   +-  0.03        .7     .6  153.29 +-  0.0    0.25   1.97   +-0.4      +-0.1                 m i ke

SWITZERLAND
Sta     Dist  EvAz     Phase      Date       Time     TRes  Azim  AzRes  Slow  SRes Def   SNR       Amp   Per   Mag1   Mag2       ID
HINF  000.61 281.6 m E Pg      2011/04/23 13:19:58.4  -0.3                          T                                        4679323
HINF  000.61 281.6 m E Sg      2011/04/23 13:20:06.8  -0.1                          T                3.3  .24        Md 1.4  4679313
CDF   000.78 336.7 m E Pg      2011/04/23 13:20:01.6  -0.1                          T                                        4679321
CDF   000.78 336.7 m E Sg      2011/04/23 13:20:11.6  -0.4                          T                 .6  .20        Md 1.3  4679316
HAU   000.99 288.7 m E Pg      2011/04/23 13:20:05.3  -0.1                          T                                        4679322
HAU   000.99 288.7 m E Sg      2011/04/23 13:20:18.4   0.1                          T                4.2  .28 Ml 1.8         4679314
LANF  001.28 001.9 m E Pg      2011/04/23 13:20:10.3  -0.6                          T                                        4679320
LANF  001.28 001.9 m E Sg      2011/04/23 13:20:27.4  -0.2                          T                1.7  .25 Ml 1.8         4679317
CABF  001.57 226.7 m E Pg      2011/04/23 13:20:16.1   0.0                          T                                        4679319
CABF  001.57 226.7 m E Sg      2011/04/23 13:20:36.4   0.0                          T                 .2  .21 Ml 1.1         4679312
PAGF  001.60 303.2 m E Pg      2011/04/23 13:20:16.6   0.0                          T                                        4679318
PAGF  001.60 303.2 m E Sg      2011/04/23 13:20:37.1  -0.2                          T                 .6  .42 Ml 1.2         4679315
MEZF  001.97 295.1 m E Pn      2011/04/23 13:20:17.8   0.0                          T                                        4680518

.
EVENT     258540
    Date      Time       Latitude Longitude    Depth    Ndef Nsta Gap    Mag1  N    Mag2  N    Mag3  N   Author         ID
       rms   OT_Error      Smajor Sminor Az        Err   mdist  Mdist     Err        Err        Err      Quality

2011/04/23 13:28:51.8     35.8543   -1.5464     70.3      63    6 204                                    js067245    258540

                                               +-         1.21   9.95                                    m i ke

NORTHERN ALGERIA
Sta     Dist  EvAz     Phase      Date       Time     TRes  Azim  AzRes  Slow  SRes Def   SNR       Amp   Per   Mag1   Mag2       ID
ETSF  007.08 005.9 m E Pn      2011/04/23 13:30:30.8  -1.2                          T                                        4679328
ETSF  007.08 005.9 m E Sg      2011/04/23 13:31:45.8  -1.3                          T                 .8  .33                4679329
SJPF  007.25 001.9 m E Pn      2011/04/23 13:30:33.2  -1.1                          T                                        4679327
EPF   007.31 010.9 m E Pn      2011/04/23 13:30:34.1  -1.0                          T                                        4679326
LASF  009.20 025.1 m E P       2011/04/23 13:31:04.6   0.5                          T                                        4679332
LMR   009.71 037.3 m E P       2011/04/23 13:31:11.4   0.4                          T                                        4679331
FRF   009.95 036.8 m E P       2011/04/23 13:31:14.7   0.5                          T                                        4679330

.
EVENT     258541
    Date      Time       Latitude Longitude    Depth    Ndef Nsta Gap    Mag1  N    Mag2  N    Mag3  N   Author         ID
       rms   OT_Error      Smajor Sminor Az        Err   mdist  Mdist     Err        Err        Err      Quality

2011/04/23 13:35:06.0     43.1661   -1.2188     15.0      35    4 113  Ml 2.0  1  Md 1.9  3              js067245    258541

      0.25   +-  0.11       1.7    1.1  169.14 +-  0.0    0.05   2.27   +-         +-0.0                 m i ke

PYRENEES
Sta     Dist  EvAz     Phase      Date       Time     TRes  Azim  AzRes  Slow  SRes Def   SNR       Amp   Per   Mag1   Mag2       ID
SJPF  000.05 185.0 m E Pg      2011/04/23 13:35:09.2   0.2                          T                                        4679340
SJPF  000.05 185.0 m E Sg      2011/04/23 13:35:11.0  -0.1                          T               48.5  .20        Md 1.9  4679335
ETSF  000.55 118.7 m E Pg      2011/04/23 13:35:16.7  -0.1                          T                                        4679339
ETSF  000.55 118.7 m E Sg      2011/04/23 13:35:24.4   0.1                          T                3.8  .24        Md 1.9  4679336
EPF   001.15 096.2 m E Pg      2011/04/23 13:35:28.1   0.4                          T                                        4679338
EPF   001.15 096.2 m E Sg      2011/04/23 13:35:43.1   0.4                          T                2.3  .19 Ml 2.0 Md 1.9  4679337
LFF   002.27 037.9 m E Pn      2011/04/23 13:35:45.5   4.3                          T                                        4679334

.
EVENT     258539
    Date      Time       Latitude Longitude    Depth    Ndef Nsta Gap    Mag1  N    Mag2  N    Mag3  N   Author         ID
       rms   OT_Error      Smajor Sminor Az        Err   mdist  Mdist     Err        Err        Err      Quality

2011/04/23 19:55:07.2     37.6716  -13.5273      2.0      71    3 295  Ml 3.3  3                         js067245    258539

      3.36   +-  1.29      24.2   19.3   63.19 +-  0.0    3.58  12.95   +-0.2                            m i ke

NORTH ATLANTIC OCEAN
Sta     Dist  EvAz     Phase      Date       Time     TRes  Azim  AzRes  Slow  SRes Def   SNR       Amp   Per   Mag1   Mag2       ID
SJPF  010.84 056.1 m E Pn      2011/04/23 19:57:46.0   5.4                          T                                        4679346
SJPF  010.84 056.1 m E Sn      2011/04/23 19:59:43.2   7.5                          T                 .7  .31 Ml 3.2         4679343
ETSF  011.19 058.2 m E Pn      2011/04/23 19:57:50.5   5.0                          T                                        4679345
ETSF  011.19 058.2 m E Sn      2011/04/23 19:59:50.9   6.8                          T                1.2  .47 Ml 3.3         4679342
EPF   011.85 058.8 m E Pn      2011/04/23 19:57:59.6   5.1                          T                                        4679344
EPF   011.85 058.8 m E Sn      2011/04/23 20:00:04.7   4.8                          T                1.6  .46 Ml 3.5         4679341

.
EVENT     258542
    Date      Time       Latitude Longitude    Depth    Ndef Nsta Gap    Mag1  N    Mag2  N    Mag3  N   Author         ID
       rms   OT_Error      Smajor Sminor Az        Err   mdist  Mdist     Err        Err        Err      Quality

2011/04/23 20:17:50.5     42.9320    -.1773      2.0       7    4 187  Ml 1.6  1  Md 1.4  2              js067245    258542

      0.21   +-  0.13       9.7    1.4  173.98 +-  0.0    0.28   1.80   +-         +-0.2                 m i ke

PYRENEES
Sta     Dist  EvAz     Phase      Date       Time     TRes  Azim  AzRes  Slow  SRes Def   SNR       Amp   Per   Mag1   Mag2       ID
ETSF  000.28 263.3 m E Pg      2011/04/23 20:17:56.2   0.1                          T                                        4679350
ETSF  000.28 263.3 m E Sg      2011/04/23 20:17:59.4  -0.6                          T                6.3  .30        Md 1.6  4679347
EPF   000.39 075.3 m E Pg      2011/04/23 20:17:58.0  -0.1                          T                                        4679349
EPF   000.39 075.3 m E Sg      2011/04/23 20:18:03.3   0.0                          T                3.5  .22        Md 1.3  4679348
SJPF  000.79 283.6 m E Pg      2011/04/23 20:18:05.5   0.1                          T                                        4680553
SJPF  000.79 283.6 m E Sg      2011/04/23 20:18:15.5  -0.2                          T                 .4  .20                4680554
MTLF  001.80 076.1 m E Sg      2011/04/23 20:18:47.1   0.0                          T                 .7  .22 Ml 1.6         4680552

.
