EVENT     286953
    Date      Time       Latitude Longitude    Depth    Ndef Nsta Gap    Mag1  N    Mag2  N    Mag3  N   Author         ID
       rms   OT_Error      Smajor Sminor Az        Err   mdist  Mdist     Err        Err        Err      Quality

2012/11/15 01:37:54.7     46.5313     .4157      2.0      36   12 108  Ml 1.9 11  Md 1.9  3              bulletin    287053
                                                                                                         _ldg
      0.28   +-  0.05       1.2     .9   54.25 +-  0.0    0.39   2.47   +-0.2      +-0.2                 m i ke

FRANCE
Sta     Dist  EvAz     Phase      Date       Time     TRes  Azim  AzRes  Slow  SRes Def   SNR       Amp   Per   Mag1   Mag2       ID
MFF   000.39 280.6 m E Pg      2012/11/15 01:38:01.4  -0.9                          T                                        5117320
MFF   000.39 280.6 m E Sg      2012/11/15 01:38:07.1  -0.5                          T                6.0  .16        Md 1.9  5117319
TCF   001.27 100.4 m E Pn      2012/11/15 01:38:17.2  -0.6                          T                                        5117318
TCF   001.27 100.4 m E Pg      2012/11/15 01:38:18.1  -0.3                          T                                        5132620
TCF   001.27 100.4 m E Sg      2012/11/15 01:38:33.7  -1.0                          T                1.6  .17 Ml 1.9 Md 2.1  5117317
RJF   001.45 147.6 m E Pn      2012/11/15 01:38:19.9  -0.4                          T                                        5117316
RJF   001.45 147.6 m E Pg      2012/11/15 01:38:21.7  -0.1                          T                                        5132610
RJF   001.45 147.6 m E Sg      2012/11/15 01:38:40.7   0.2                          T                2.2  .20 Ml 1.7         5117315
LFF   001.61 171.8 m E Pn      2012/11/15 01:38:22.7   0.3                          T                                        5117312
LFF   001.61 171.8 m E Pg      2012/11/15 01:38:24.7   0.0                          T                                        5132608
LFF   001.61 171.8 m E Sn      2012/11/15 01:38:42.6   0.1                          T                                        5117311
LFF   001.61 171.8 m E Sg      2012/11/15 01:38:46.0   0.6                          T                3.9  .32 Ml 2.0         5132609
BGF   001.68 088.2 m E Pn      2012/11/15 01:38:23.1  -0.3                          T                                        5117314
BGF   001.68 088.2 m E Pg      2012/11/15 01:38:26.0   0.0                          T                                        5132606
BGF   001.68 088.2 m E Sn      2012/11/15 01:38:44.1  -0.1                          T                3.0  .26 Ml 2.2         5117313
AVF   002.04 081.6 m E Pn      2012/11/15 01:38:28.5   0.2                          T                                        5122815
AVF   002.04 081.6 m E Pg      2012/11/15 01:38:32.7   0.1                          T                                        5132618
AVF   002.04 081.6 m E Sn      2012/11/15 01:38:53.2   0.3                          T                 .4  .16 Ml 1.7         5122822
GRR   002.05 335.5 m E Pn      2012/11/15 01:38:28.7   0.3                          T                                        5122812
GRR   002.05 335.5 m E Pg      2012/11/15 01:38:32.8   0.0                          T                                        5132615
GRR   002.05 335.5 m E Sn      2012/11/15 01:38:53.3   0.3                          T                1.7  .26 Ml 1.9         5122825
LDF   002.10 350.2 m E Pn      2012/11/15 01:38:29.2   0.2                          T                                        5122813
LDF   002.10 350.2 m E Pg      2012/11/15 01:38:33.5  -0.2                          T                                        5132614
LDF   002.10 350.2 m E Sn      2012/11/15 01:38:54.6   0.5                          T                1.8  .39 Ml 1.8         5122824
SSF   002.19 074.9 m E Pn      2012/11/15 01:38:30.3  -0.1                          T                                        5122816
SSF   002.19 074.9 m E Sn      2012/11/15 01:38:56.3  -0.1                          T                                        5122817
CAF   001.98 143.7 m E Pg      2012/11/15 01:38:31.7   0.2                          T                                        5132612
CAF   001.98 143.7 m E Sg      2012/11/15 01:38:57.0  -0.1                          T                1.2  .27 Ml 1.9         5132613
SMF   002.36 086.0 m E Pn      2012/11/15 01:38:32.7  -0.1                          T                                        5122814
SMF   002.36 086.0 m E Pg      2012/11/15 01:38:38.8   0.1                          T                                        5132617
SMF   002.36 086.0 m E Sn      2012/11/15 01:39:00.2  -0.4                          T                 .8  .21 Ml 1.9         5122823
LOR   002.47 071.4 m E Pn      2012/11/15 01:38:34.3   0.0                          T                                        5122820
LOR   002.47 071.4 m E Pg      2012/11/15 01:38:40.0  -0.7                          T                                        5132619
LOR   002.47 071.4 m E Sn      2012/11/15 01:39:03.0  -0.3                          T                1.3  .31 Ml 1.9         5122821

.
EVENT     287005
    Date      Time       Latitude Longitude    Depth    Ndef Nsta Gap    Mag1  N    Mag2  N    Mag3  N   Author         ID
       rms   OT_Error      Smajor Sminor Az        Err   mdist  Mdist     Err        Err        Err      Quality

2012/11/15 14:55:48.7     44.6182    7.2357     10.0 f    34    8 125  Ml 1.9  7  Md 1.9  1              bulletin    287105
                                                                                                         _ldg
      0.22   +-  0.05       1.1     .6   68.44 +-  0.0    0.11   1.39   +-0.1      +-                    m i ke

NORTHERN ITALY
Sta     Dist  EvAz     Phase      Date       Time     TRes  Azim  AzRes  Slow  SRes Def   SNR       Amp   Per   Mag1   Mag2       ID
MBDF  000.35 288.3 m E Pg      2012/11/15 14:55:55.9   0.1                          T                                        5117915
MBDF  000.35 288.3 m E Sg      2012/11/15 14:56:00.4  -0.1                          T               16.9  .22        Md 1.9  5117914
SBF   000.77 169.2 m E Pg      2012/11/15 14:56:03.4   0.1                          T                                        5123290
SBF   000.77 169.2 m E Sg      2012/11/15 14:56:13.5   0.1                          T                3.8  .22                5123291
LPG   000.94 338.9 m E Pg      2012/11/15 14:56:07.0   0.2                          T                                        5117917
LPG   000.94 338.9 m E Sg      2012/11/15 14:56:19.3   0.1                          T                1.8  .22 Ml 1.7         5123292
LPL   000.97 338.5 m E Pg      2012/11/15 14:56:07.3   0.1                          T                                        5117918
LPL   000.97 338.5 m E Sg      2012/11/15 14:56:19.7  -0.1                          T                4.1  .34 Ml 1.9         5117916
ORIF  001.01 287.7 m E Pg      2012/11/15 14:56:07.9   0.1                          T                                        5117924
ORIF  001.01 287.7 m E Sg      2012/11/15 14:56:20.5  -0.5                          T                3.0  .30 Ml 1.8         5117923
FRF   001.14 202.1 m E Pg      2012/11/15 14:56:10.2   0.2                          T                                        5117925
FRF   001.14 202.1 m E Sg      2012/11/15 14:56:24.9   0.1                          T                3.5  .21 Ml 2.1         5117926
SMRF  001.35 242.3 m E Pn      2012/11/15 14:56:12.0  -0.1                          T                                        5117920
SMRF  001.35 242.3 m E Sn      2012/11/15 14:56:28.7  -0.3                          T                2.5  .27 Ml 1.9         5117919
LMR   001.39 202.5 m E Pg      2012/11/15 14:56:14.6   0.0                          T                                        5123289
LMR   001.39 202.5 m E Sg      2012/11/15 14:56:32.7   0.2                          T                2.5  .24 Ml 2.0         5117922

.
EVENT     287006
    Date      Time       Latitude Longitude    Depth    Ndef Nsta Gap    Mag1  N    Mag2  N    Mag3  N   Author         ID
       rms   OT_Error      Smajor Sminor Az        Err   mdist  Mdist     Err        Err        Err      Quality

2012/11/15 16:40:24.4     50.3122    7.4043     10.0      80   15 045  Ml 2.9 17  Md 2.8  1              bulletin    287106
                                                                                                         _ldg
      0.40   +-  0.04        .8     .7    3.23 +-  0.0    0.11   6.83   +-0.3      +-                    m i ke

GERMANY
Sta     Dist  EvAz     Phase      Date       Time     TRes  Azim  AzRes  Slow  SRes Def   SNR       Amp   Per   Mag1   Mag2       ID
GIVF  001.67 263.8 m E Pn      2012/11/15 16:40:51.8  -0.2                          T                                        5118009
GIVF  001.67 263.8 m E P       2012/11/15 16:40:54.0  -0.1                          T                                        5133122
GIVF  001.67 263.8 m E Pg      2012/11/15 16:40:55.6   0.0                          T                                        5133121
GIVF  001.67 263.8 m E Sn      2012/11/15 16:41:12.6   0.4                          T                                        5117998
GIVF  001.67 263.8 m E Sg      2012/11/15 16:41:17.2   0.0                          T               77.9  .28 Ml 3.6 Md 2.8  5123316
CDF   001.90 182.6 m E Pn      2012/11/15 16:40:55.6   0.2                          T                                        5118008
CDF   001.90 182.6 m E Pg      2012/11/15 16:40:58.6  -1.3                          T                                        5118011
CDF   001.90 182.6 m E Sn      2012/11/15 16:41:17.8  -0.2                          T                                        5117996
CDF   001.90 182.6 m E Sg      2012/11/15 16:41:24.2  -0.3                          T               29.8  .41 Ml 3.2         5123314
BAIF  002.07 264.2 m E Pn      2012/11/15 16:40:57.4  -0.1                          T                                        5118007
BAIF  002.07 264.2 m E P       2012/11/15 16:40:59.7  -0.1                          T                                        5123315
BAIF  002.07 264.2 m E Pg      2012/11/15 16:41:02.5  -0.3                          T                                        5133120
BAIF  002.07 264.2 m E Sn      2012/11/15 16:41:21.8   0.1                          T               19.3  .27 Ml 3.1         5117997
BAIF  002.07 264.2 m E Sg      2012/11/15 16:41:29.3  -0.2                          T               22.3  .25 Ml 3.2         5123324
PAGF  002.07 212.6 m E Pn      2012/11/15 16:40:57.7   0.2                          T                                        5118003
PAGF  002.07 212.6 m E Pg      2012/11/15 16:41:02.5  -0.5  33.5  2.1               T                                        5118010
PAGF  002.07 212.6 m E Sn      2012/11/15 16:41:22.1   0.2                          T                                        5117992
PAGF  002.07 212.6 m E Sg      2012/11/15 16:41:29.2  -0.4                          T                6.2  .21 Ml 2.7         5123313
MEZF  002.38 221.2 m E Pn      2012/11/15 16:41:01.7   0.1                          T                                        5118002
MEZF  002.38 221.2 m E Pg      2012/11/15 16:41:08.1  -0.4                          T                                        5123312
MEZF  002.38 221.2 m E Sn      2012/11/15 16:41:29.4   0.3                          T                                        5117991
MEZF  002.38 221.2 m E Sg      2012/11/15 16:41:38.9  -0.2                          T                5.2  .23 Ml 2.6         5123311
HAU   002.41 197.1 m E Pn      2012/11/15 16:41:02.5   0.3                          T                                        5118006
HAU   002.41 197.1 m E Pg      2012/11/15 16:41:08.1  -1.1                          T                                        5118012
HAU   002.41 197.1 m E Sn      2012/11/15 16:41:29.8  -0.1                          T                                        5117995
HAU   002.41 197.1 m E Sg      2012/11/15 16:41:40.0  -0.3                          T               11.4  .24 Ml 2.8         5123321
HINF  002.52 188.5 m E Pn      2012/11/15 16:41:03.7  -0.1                          T                                        5118000
HINF  002.52 188.5 m E Pg      2012/11/15 16:41:10.7  -0.7                          T                                        5123308
HINF  002.52 188.5 m E Sn      2012/11/15 16:41:32.0  -0.7                          T                                        5123328
HINF  002.52 188.5 m E Sg      2012/11/15 16:41:43.3  -0.5                          T               10.5  .30 Ml 2.9         5123307
SFTF  002.62 217.2 m E Pn      2012/11/15 16:41:04.9  -0.1                          T                                        5118001
SFTF  002.62 217.2 m E Pg      2012/11/15 16:41:13.0   0.0                          T                                        5123310
SFTF  002.62 217.2 m E Sn      2012/11/15 16:41:35.1   0.2                          T                                        5123327
SFTF  002.62 217.2 m E Sg      2012/11/15 16:41:46.9   0.2                          T                8.9  .25 Ml 2.9         5123309
CABF  003.81 193.8 m E Pn      2012/11/15 16:41:21.2   0.0                          T                                        5117999
CABF  003.81 193.8 m E Sn      2012/11/15 16:42:03.3  -0.1                          T                                        5123326
CABF  003.81 193.8 m E Sg      2012/11/15 16:42:23.8  -0.1                          T                1.1  .25 Ml 2.3         5123306
LOR   003.84 218.9 m E Pn      2012/11/15 16:41:21.7   0.1  40.0  3.7               T                                        5118004
LOR   003.84 218.9 m E Sn      2012/11/15 16:42:04.3   0.1                          T                                        5117993
LOR   003.84 218.9 m E Sg      2012/11/15 16:42:24.8  -0.1                          T                4.6  .31 Ml 2.8         5123323
SSF   004.15 219.9 m E Pn      2012/11/15 16:41:25.8  -0.1                          T                                        5118005
SSF   004.15 219.9 m E Sn      2012/11/15 16:42:10.7  -0.9                          T                                        5117994
SSF   004.15 219.9 m E Sg      2012/11/15 16:42:34.7   0.1                          T                4.3  .37 Ml 2.8         5123322
SMF   004.37 214.2 m E Pn      2012/11/15 16:41:29.0   0.2                          T                                        5123302
SMF   004.37 214.2 m E Pg      2012/11/15 16:41:45.4   0.2                          T                                        5123325
SMF   004.37 214.2 m E Sn      2012/11/15 16:42:16.9   0.1                          T                                        5123301
SMF   004.37 214.2 m E Sg      2012/11/15 16:42:41.2  -0.1                          T                3.8  .30 Ml 2.8         5123300
AVF   004.43 218.9 m E Pn      2012/11/15 16:41:30.1   0.5                          T                                        5123305
AVF   004.43 218.9 m E Sn      2012/11/15 16:42:18.2  -0.1                          T                                        5123304
AVF   004.43 218.9 m E Sg      2012/11/15 16:42:42.5  -0.8                          T                1.7  .34 Ml 2.4         5123303
BGF   004.83 220.7 m E Pn      2012/11/15 16:41:35.4   0.4                          T                                        5123299
BGF   004.83 220.7 m E Pg      2012/11/15 16:41:53.8   0.1                          T                                        5123298
BGF   004.83 220.7 m E Sn      2012/11/15 16:42:28.1   0.4                          T                                        5123297
BGF   004.83 220.7 m E Sg      2012/11/15 16:42:55.6  -0.1                          T               11.9  .46 Ml 3.2         5123296
SGMF  006.83 256.3 m E Pn      2012/11/15 16:42:02.4   0.0                          T                                        5123295

.
