EVENT     258109
    Date      Time       Latitude Longitude    Depth    Ndef Nsta Gap    Mag1  N    Mag2  N    Mag3  N   Author         ID
       rms   OT_Error      Smajor Sminor Az        Err   mdist  Mdist     Err        Err        Err      Quality

2011/04/09 15:17:33.8     46.0276    6.8809      2.0      37   13 071  Ml 2.0 12  Md 2.2  3              js067245    258109

      0.35   +-  0.04        .9     .7   91.07 +-  0.0    0.13   2.56   +-0.3      +-0.0                 m i ke

SWITZERLAND
Sta     Dist  EvAz     Phase      Date       Time     TRes  Azim  AzRes  Slow  SRes Def   SNR       Amp   Per   Mag1   Mag2       ID
LPL   000.52 191.5 m E Pg      2011/04/09 15:17:43.9  -0.2                          T                                        4671748
LPL   000.52 191.5 m E Sg      2011/04/09 15:17:50.8  -0.1                          T                4.6  .26        Md 2.2  4671740
LPG   000.54 189.8 m E Pg      2011/04/09 15:17:44.2  -0.2                          T                                        4671747
LPG   000.54 189.8 m E Sg      2011/04/09 15:17:51.2  -0.2                          T                7.8  .24        Md 2.2  4671741
CABF  000.80 317.0 m E Pg      2011/04/09 15:17:48.8  -0.3                          T                                        4671745
CABF  000.80 317.0 m E Sg      2011/04/09 15:17:59.4  -0.1                          T                4.4  .33        Md 2.1  4671728
MBDF  001.30 183.4 m E Pg      2011/04/09 15:17:58.2  -0.1                          T                                        4671738
MBDF  001.30 183.4 m E Sg      2011/04/09 15:18:14.7  -0.4                          T                 .6  .20 Ml 1.4         4671739
ORIF  001.31 212.8 m E Pg      2011/04/09 15:17:58.5   0.0                          T                                        4671746
ORIF  001.31 212.8 m E Sg      2011/04/09 15:18:15.6   0.1                          T                3.1  .34 Ml 1.9         4671742
HINF  001.79 359.4 m E Pg      2011/04/09 15:18:07.5   0.3                          T                                        4671735
HINF  001.79 359.4 m E Sg      2011/04/09 15:18:30.2  -0.1                          T                3.6  .32 Ml 2.2         4671727
SBF   002.20 169.5 m E Pn      2011/04/09 15:18:09.7   0.1                          T                                        4671729
SBF   002.20 169.5 m E Pg      2011/04/09 15:18:15.2   0.4                          T                                        4672752
SBF   002.20 169.5 m E Sg      2011/04/09 15:18:42.6  -0.4                          T                2.2  .27 Ml 2.2         4671730
VIVF  001.95 233.8 m E Pg      2011/04/09 15:18:10.3   0.2                          T                                        4671744
VIVF  001.95 233.8 m E Sg      2011/04/09 15:18:35.1  -0.1                          T                5.7  .34 Ml 2.4         4671743
SMF   002.19 287.4 m E Pg      2011/04/09 15:18:14.8   0.2                          T                                        4671737
SMF   002.19 287.4 m E Sn      2011/04/09 15:18:35.4  -0.3                          T                1.7  .18 Ml 2.2         4671726
SMRF  002.25 204.8 m E Pg      2011/04/09 15:18:15.5  -0.2                          T                                        4671732
SMRF  002.25 204.8 m E Sg      2011/04/09 15:18:44.4  -0.3                          T                1.4  .41 Ml 1.8         4671731
LOR   002.42 301.9 m E Pg      2011/04/09 15:18:19.1   0.2 121.7  2.0               T                                        4671734
LOR   002.42 301.9 m E Sg      2011/04/09 15:18:49.9  -0.1 123.5  3.8               T                1.3  .36 Ml 1.9         4671724
SSF   002.55 295.2 m E Pg      2011/04/09 15:18:21.0   0.0                          T                                        4671733
SSF   002.55 295.2 m E Sg      2011/04/09 15:18:53.8  -0.1                          T                2.1  .48 Ml 2.1         4671723
AVF   002.56 288.6 m E Pg      2011/04/09 15:18:21.2   0.0                          T                                        4671736
AVF   002.56 288.6 m E Sg      2011/04/09 15:18:53.6  -0.5                          T                1.0  .30 Ml 1.9         4671725

.
EVENT     258215
    Date      Time       Latitude Longitude    Depth    Ndef Nsta Gap    Mag1  N    Mag2  N    Mag3  N   Author         ID
       rms   OT_Error      Smajor Sminor Az        Err   mdist  Mdist     Err        Err        Err      Quality

2011/04/09 15:19:54.2     46.0242    6.8944      2.0      21    8 115  Ml 1.8  5  Md 1.4  2              js067245    258215

      0.18   +-  0.04       1.3     .6  106.49 +-  0.0    0.13   2.20   +-0.2      +-0.1                 m i ke

SWITZERLAND
Sta     Dist  EvAz     Phase      Date       Time     TRes  Azim  AzRes  Slow  SRes Def   SNR       Amp   Per   Mag1   Mag2       ID
LPL   000.52 192.6 m E Pg      2011/04/09 15:20:04.3  -0.1                          T                                        4672792
LPL   000.52 192.6 m E Sg      2011/04/09 15:20:11.2  -0.1                          T                1.7  .24        Md 1.4  4672789
LPG   000.54 190.8 m E Pg      2011/04/09 15:20:04.8   0.0                          T                                        4672791
LPG   000.54 190.8 m E Sg      2011/04/09 15:20:11.8   0.0                          T                2.7  .22        Md 1.5  4672790
CABF  000.81 316.7 m E Pg      2011/04/09 15:20:09.3  -0.3                          T                                        4672797
CABF  000.81 316.7 m E Sg      2011/04/09 15:20:19.9  -0.2                          T                1.6  .30                4672784
MBDF  001.30 183.9 m E Pg      2011/04/09 15:20:18.7   0.1                          T                                        4672794
MBDF  001.30 183.9 m E Sg      2011/04/09 15:20:35.1  -0.4                          T                 .8  .19 Ml 1.6         4672787
ORIF  001.32 213.2 m E Pg      2011/04/09 15:20:19.0   0.1                          T                                        4672793
ORIF  001.32 213.2 m E Sg      2011/04/09 15:20:36.1   0.2                          T                1.1  .27 Ml 1.6         4672788
HINF  001.79 359.1 m E Pg      2011/04/09 15:20:28.0   0.3                          T                                        4672798
HINF  001.79 359.1 m E Sg      2011/04/09 15:20:50.7  -0.1                          T                 .7  .18 Ml 1.8         4672783
VIVF  001.95 234.0 m E Pg      2011/04/09 15:20:30.8   0.3                          T                                        4672795
VIVF  001.95 234.0 m E Sg      2011/04/09 15:20:55.6  -0.1                          T                2.6  .31 Ml 2.1         4672786
SMF   002.20 287.5 m E Pg      2011/04/09 15:20:35.3   0.1                          T                                        4672796
SMF   002.20 287.5 m E Sg      2011/04/09 15:21:03.5  -0.1                          T                 .8  .22 Ml 1.8         4672785

.
EVENT     258237
    Date      Time       Latitude Longitude    Depth    Ndef Nsta Gap    Mag1  N    Mag2  N    Mag3  N   Author         ID
       rms   OT_Error      Smajor Sminor Az        Err   mdist  Mdist     Err        Err        Err      Quality

2011/04/09 15:21:16.5     47.6649    7.1187      3.0 f    16    8 206  Ml 1.6  5  Md 1.8  2              js067245    258237

      0.20   +-  0.09       1.7    1.2   96.42 +-  0.0    0.23   1.62   +-0.4      +-0.1                 m i ke

SWITZERLAND
Sta     Dist  EvAz     Phase      Date       Time     TRes  Azim  AzRes  Slow  SRes Def   SNR       Amp   Per   Mag1   Mag2       ID
HINF  000.23 310.4 m E Pg      2011/04/09 15:21:21.2  -0.1                          T                                        4672840
HINF  000.23 310.4 m E Sg      2011/04/09 15:21:24.6   0.1                          T                5.0  .22        Md 1.8  4672841
HAU   000.62 303.6 m E Pg      2011/04/09 15:21:28.3   0.0                          T                                        4672832
HAU   000.62 303.6 m E Sg      2011/04/09 15:21:36.5   0.0                          T                1.7  .19                4672833
CDF   000.76 008.0 m E Pg      2011/04/09 15:21:30.9   0.0                          T                                        4672836
CDF   000.76 008.0 m E Pn      2011/04/09 15:21:32.7   0.1                          T                                        4672838
CDF   000.76 008.0 m E Sg      2011/04/09 15:21:40.1  -0.6                          T                                        4672837
CDF   000.76 008.0 m E Sn      2011/04/09 15:21:44.1   0.2                          T                5.4  .50        Md 1.7  4672839
THEF  000.94 307.1 m E Pg      2011/04/09 15:21:34.3   0.1                          T                                        4672834
THEF  000.94 307.1 m E Sg      2011/04/09 15:21:46.5   0.0                          T                2.5  .18 Ml 1.9         4672835
CABF  001.27 214.1 m E Pn      2011/04/09 15:21:39.2  -0.4                          T                                        4672830
CABF  001.27 214.1 m E Pg      2011/04/09 15:21:40.5   0.2                          T                                        4672829
CABF  001.27 214.1 m E Sg      2011/04/09 15:21:56.7   0.0                          T                 .4  .20 Ml 1.2         4672831
PAGF  001.29 314.2 m E Sg      2011/04/09 15:21:57.2  -0.1                          T                 .3  .22 Ml 1.1         4672914
SFTF  001.50 291.9 m E Sg      2011/04/09 15:22:03.8  -0.1                          T                2.8  .30 Ml 2.0         4672916
MEZF  001.62 301.9 m E Sg      2011/04/09 15:22:07.5  -0.1                          T                 .6  .20 Ml 1.6         4672915

.
EVENT     258106
    Date      Time       Latitude Longitude    Depth    Ndef Nsta Gap    Mag1  N    Mag2  N    Mag3  N   Author         ID
       rms   OT_Error      Smajor Sminor Az        Err   mdist  Mdist     Err        Err        Err      Quality

2011/04/09 16:28:56.0     50.3121    7.4172     10.0      42   14 038  Ml 2.4 14  Md 2.6  3              js067245    258106

      0.37   +-  0.05        .9     .8   89.85 +-  0.0    0.12   5.32   +-0.3      +-0.2                 m i ke

GERMANY
Sta     Dist  EvAz     Phase      Date       Time     TRes  Azim  AzRes  Slow  SRes Def   SNR       Amp   Per   Mag1   Mag2       ID
RUP   000.65 200.8 m E Pg      2011/04/09 16:29:08.1  -0.5                          T                                        4671789
RUP   000.65 200.8 m E Sg      2011/04/09 16:29:17.1  -0.1                          T                                Md 2.5  4671782
LANF  001.36 169.1 m E Pg      2011/04/09 16:29:21.5   0.1                          T                                        4671781
LANF  001.36 169.1 m E Sg      2011/04/09 16:29:39.0   0.0                          T               10.1  .28 Ml 2.5 Md 2.8  4671768
GIVF  001.68 263.8 m E Pg      2011/04/09 16:29:27.4   0.0                          T                                        4671777
GIVF  001.68 263.8 m E Sg      2011/04/09 16:29:49.1   0.0                          T               12.4  .30 Ml 2.7 Md 2.4  4671783
CDF   001.90 182.8 m E Pg      2011/04/09 16:29:31.0  -0.6                          T                                        4671788
CDF   001.90 182.8 m E Sg      2011/04/09 16:29:56.3   0.1                          T                7.7  .40 Ml 2.6         4671767
PAGF  002.08 212.8 m E Pg      2011/04/09 16:29:34.6  -0.1  33.6  2.1               T                                        4671787
PAGF  002.08 212.8 m E Sg      2011/04/09 16:30:01.6   0.1                          T                1.1  .40 Ml 1.7         4671766
BAIF  002.08 264.2 m E Pg      2011/04/09 16:29:34.9   0.2                          T                                        4671784
BAIF  002.08 264.2 m E Sn      2011/04/09 16:29:53.8   0.1                          T                3.0  .20 Ml 2.4         4671769
THEF  002.28 204.6 m E Pg      2011/04/09 16:29:38.0  -0.5                          T                                        4671786
THEF  002.28 204.6 m E Sg      2011/04/09 16:30:07.4  -0.5                          T                5.0  .21 Ml 2.6         4671763
MEZF  002.38 221.4 m E Pg      2011/04/09 16:29:39.8  -0.5                          T                                        4671778
MEZF  002.38 221.4 m E Sg      2011/04/09 16:30:11.0   0.1                          T                5.9  .46 Ml 2.4         4671765
HAU   002.41 197.3 m E Pg      2011/04/09 16:29:40.7  -0.2                          T                                        4671780
HAU   002.41 197.3 m E Sg      2011/04/09 16:30:12.0   0.1                          T                2.7  .18 Ml 2.3         4671762
HINF  002.53 188.7 m E Pg      2011/04/09 16:29:42.8  -0.2                          T                                        4671785
HINF  002.53 188.7 m E Sg      2011/04/09 16:30:15.5   0.1                          T                2.6  .20 Ml 2.4         4671761
SFTF  002.62 217.4 m E Pg      2011/04/09 16:29:44.5  -0.2                          T                                        4671779
SFTF  002.62 217.4 m E Sg      2011/04/09 16:30:18.5   0.0                          T                4.1  .42 Ml 2.3         4671764
LOR   003.85 219.0 m E Pn      2011/04/09 16:29:53.4   0.1                          T                                        4671776
LOR   003.85 219.0 m E Sn      2011/04/09 16:30:35.7  -0.3  40.4  4.1               T                                        4671773
LOR   003.85 219.0 m E Sg      2011/04/09 16:30:56.7   0.0  32.5  -3.9              T                 .7  .20 Ml 2.1         4671771
SSF   004.16 220.0 m E Pn      2011/04/09 16:29:57.7   0.2                          T                                        4671775
SSF   004.16 220.0 m E Sn      2011/04/09 16:30:43.3   0.0                          T                                        4671772
SSF   004.16 220.0 m E Sg      2011/04/09 16:31:06.4   0.1                          T                1.9  .50 Ml 2.4         4671770
TCF   005.32 222.8 m E Pn      2011/04/09 16:30:12.9  -0.5                          T                                        4671774
TCF   005.32 222.8 m E Sn      2011/04/09 16:31:11.1   0.0                          T                 .8  .24 Ml 2.5         4671760

.
EVENT     258110
    Date      Time       Latitude Longitude    Depth    Ndef Nsta Gap    Mag1  N    Mag2  N    Mag3  N   Author         ID
       rms   OT_Error      Smajor Sminor Az        Err   mdist  Mdist     Err        Err        Err      Quality

2011/04/10 05:22:24.3     36.7852  -12.2505     30.0      80    5 284  Ml 3.6  5                         js067245    258110

      3.21   +-  1.10      21.0   16.9   46.39 +-  0.0    2.76  13.53   +-0.1                            m i ke

NORTH ATLANTIC OCEAN
Sta     Dist  EvAz     Phase      Date       Time     TRes  Azim  AzRes  Slow  SRes Def   SNR       Amp   Per   Mag1   Mag2       ID
SJPF  010.56 049.8 m E Pn      2011/04/10 05:24:54.6   3.4                          T                                        4671796
SJPF  010.56 049.8 m E Sn      2011/04/10 05:26:47.3   5.6                          T                1.9  .24 Ml 3.7         4671794
EPF   011.50 053.3 m E Pn      2011/04/10 05:25:07.7   3.6                          T                                        4671795
EPF   011.50 053.3 m E Sn      2011/04/10 05:27:09.7   5.5                          T                1.8  .36 Ml 3.6         4671793
LFF   012.76 046.3 m E Pn      2011/04/10 05:25:23.4   2.3                          T                                        4671801
LFF   012.76 046.3 m E Sn      2011/04/10 05:27:36.8   2.6                          T                2.1  .34 Ml 3.7         4671799
RJF   013.42 046.4 m E Pn      2011/04/10 05:25:31.5   1.4                          T                                        4671802
RJF   013.42 046.4 m E Sn      2011/04/10 05:27:54.2   4.2                          T                1.4  .21 Ml 3.5         4671800
CAF   013.53 048.6 m E Pn      2011/04/10 05:25:32.4   0.7                          T                                        4671798
CAF   013.53 048.6 m E Sn      2011/04/10 05:27:54.3   1.5                          T                 .8  .41 Ml 3.3         4671797

.
