EVENT     256689
    Date      Time       Latitude Longitude    Depth    Ndef Nsta Gap    Mag1  N    Mag2  N    Mag3  N   Author         ID
       rms   OT_Error      Smajor Sminor Az        Err   mdist  Mdist     Err        Err        Err      Quality

2011/03/05 18:45:51.6     51.5971   16.1172      1.0 f    81   22 145  Ml 3.9 23                         js067245    256689

      0.60   +-  0.14       3.9    2.0    3.95 +-  0.0    0.76  10.35   +-0.2                            m i sr

POLAND
Sta     Dist  EvAz     Phase      Date       Time     TRes  Azim  AzRes  Slow  SRes Def   SNR       Amp   Per   Mag1   Mag2       ID
LANF  005.94 247.1 m E Pn      2011/03/05 18:47:18.5   0.2                          T                                        4657294
LANF  005.94 247.1 m E Sg      2011/03/05 18:48:57.1  -0.3                          T              114.2  .79 Ml 4.2         4657291
RUP   006.07 255.3 m E Pn      2011/03/05 18:47:20.5   0.4                          T                                        4657295
RUP   006.07 255.3 m E Sg      2011/03/05 18:49:01.7   0.2                          T                                        4657290
CDF   006.53 244.2 m E Pn      2011/03/05 18:47:26.9   0.4                          T                                        4657293
CDF   006.53 244.2 m E Sg      2011/03/05 18:49:16.0   0.0                          T               81.1  .96 Ml 4.2         4657254
HINF  007.10 241.4 m E Pn      2011/03/05 18:47:34.5   0.2                          T                                        4657281
HINF  007.10 241.4 m E Sg      2011/03/05 18:49:33.7   0.0                          T               34.7  .80 Ml 3.9         4657260
HAU   007.27 244.2 m E Pn      2011/03/05 18:47:36.9   0.3                          T                                        4657282
HAU   007.27 244.2 m E Sg      2011/03/05 18:49:39.1   0.0                          T               31.4  .68 Ml 3.7         4657259
GIVF  007.31 262.6 m E Pn      2011/03/05 18:47:37.4   0.5                          T                                        4657288
PAGF  007.35 249.6 m E Pn      2011/03/05 18:47:37.4  -0.1                          T                                        4657286
GIVF  007.31 262.6 m E Sg      2011/03/05 18:49:40.3   0.2                          T               17.4  .64 Ml 3.7         4657252
PAGF  007.35 249.6 m E Sg      2011/03/05 18:49:41.7   0.3                          T               13.4 1.09 Ml 3.4         4657255
THEF  007.35 246.7 m E Pn      2011/03/05 18:47:37.6  -0.1                          T                                        4657283
THEF  007.35 246.7 m E Sg      2011/03/05 18:49:41.6   0.0                          T               33.2  .81 Ml 3.9         4657258
BAIF  007.70 263.1 m E Pn      2011/03/05 18:47:41.9  -0.4                          T                                        4657287
BAIF  007.70 263.1 m E Sg      2011/03/05 18:49:52.4   0.0                          T               22.2  .88 Ml 3.8         4657253
MEZF  007.77 250.8 m E Pn      2011/03/05 18:47:43.0  -0.3                          T                                        4657285
MEZF  007.77 250.8 m E Sg      2011/03/05 18:49:54.2  -0.3                          T               14.8  .74 Ml 3.7         4657256
SFTF  007.92 248.9 m E Pn      2011/03/05 18:47:45.5   0.2                          T                                        4657284
SFTF  007.92 248.9 m E Sg      2011/03/05 18:49:59.1  -0.1                          T               41.9 1.10 Ml 4.0         4657257
CABF  008.26 236.7 m E Pn      2011/03/05 18:47:50.0   0.0                          T                                        4657280
CABF  008.26 236.7 m E Sg      2011/03/05 18:50:09.9   0.0                          T               27.7  .74 Ml 4.0         4657261
LPL   008.70 229.3 m E Pn      2011/03/05 18:47:55.8  -0.4                          T                                        4657273
LPL   008.70 229.3 m E Sg      2011/03/05 18:50:24.0   0.1                          T               73.9 1.72 Ml 4.2         4657269
LPG   008.70 229.1 m E Pn      2011/03/05 18:47:56.2  -0.2                          T                                        4657274
LPG   008.70 229.1 m E Sg      2011/03/05 18:50:24.1   0.0                          T               50.7 1.30 Ml 4.1         4657270
LOR   009.08 246.3 m E Pn      2011/03/05 18:48:01.9   0.6                          T                                        4657292
LOR   009.08 246.3 m E Sg      2011/03/05 18:50:35.8   0.1                          T               15.7  .88 Ml 3.8         4657250
MBDF  009.28 225.9 m E Pn      2011/03/05 18:48:03.8  -0.3                          T                                        4657271
MBDF  009.28 225.9 m E Sg      2011/03/05 18:50:41.6  -0.4                          T               12.0  .92 Ml 3.7         4657267
SSF   009.40 246.1 m E Pn      2011/03/05 18:48:05.4  -0.1                          T                                        4657289
SSF   009.40 246.1 m E Sg      2011/03/05 18:50:45.4  -0.1                          T               16.4 1.02 Ml 3.9         4657251
SMF   009.45 243.2 m E Pn      2011/03/05 18:48:06.1  -0.1                          T                                        4657278
SMF   009.45 243.2 m E Sg      2011/03/05 18:50:46.9  -0.1                          T               33.1 1.00 Ml 4.2         4657263
ORIF  009.55 229.6 m E Pn      2011/03/05 18:48:07.6   0.0                          T                                        4657272
ORIF  009.55 229.6 m E Sg      2011/03/05 18:50:50.1  -0.2                          T                9.6  .81 Ml 3.7         4657268
AVF   009.64 245.1 m E Pn      2011/03/05 18:48:08.8   0.1                          T                                        4657279
AVF   009.64 245.1 m E Sg      2011/03/05 18:50:53.0   0.0                          T               18.1  .94 Ml 4.0         4657262
HYF   009.79 249.0 m E Pn      2011/03/05 18:48:10.8   0.0                          T                                        4657277
HYF   009.79 249.0 m E Sg      2011/03/05 18:50:57.4  -0.3                          T                                        4657264
BGF   010.06 245.1 m E Pn      2011/03/05 18:48:14.2  -0.2                          T                                        4657276
BGF   010.06 245.1 m E Sg      2011/03/05 18:51:06.1   0.0                          T               15.3  .80 Ml 4.0         4657265

.
EVENT     256690
    Date      Time       Latitude Longitude    Depth    Ndef Nsta Gap    Mag1  N    Mag2  N    Mag3  N   Author         ID
       rms   OT_Error      Smajor Sminor Az        Err   mdist  Mdist     Err        Err        Err      Quality

2011/03/05 21:48:59.6     46.7772   10.1512     10.0      56   21 140  Ml 2.3 18                         js067245    256690

      0.13   +-  0.04        .7     .5   52.80 +-  0.0    0.18   4.67   +-0.2                            m i ke

NORTHERN ITALY
Sta     Dist  EvAz     Phase      Date       Time     TRes  Azim  AzRes  Slow  SRes Def   SNR       Amp   Per   Mag1   Mag2       ID
HINF  002.47 296.1 m E Pn      2011/03/05 21:49:38.2   0.0                          T                                        4657330
HINF  002.47 296.1 m E Sg      2011/03/05 21:50:17.5   0.1                          T                3.8  .26 Ml 2.5         4657306
LPL   002.69 243.3 m E Pn      2011/03/05 21:49:41.4   0.0                          T                                        4657335
LPL   002.69 243.3 m E Pg      2011/03/05 21:49:49.7  -0.1                          T                                        4657315
LPL   002.69 243.3 m E Sg      2011/03/05 21:50:24.4   0.0                          T                2.7  .37 Ml 2.2         4657311
LANF  002.71 325.2 m E Pn      2011/03/05 21:49:41.4   0.0                          T                                        4657325
LANF  002.71 325.2 m E Sg      2011/03/05 21:50:24.8   0.0                          T                3.6  .29 Ml 2.5         4657863
LPG   002.69 242.8 m E Pn      2011/03/05 21:49:41.7   0.2                          T                                        4657334
LPG   002.69 242.8 m E Pg      2011/03/05 21:49:49.5  -0.3                          T                                        4657314
LPG   002.69 242.8 m E Sg      2011/03/05 21:50:24.5   0.1                          T                1.0  .20 Ml 2.1         4657310
CDF   002.54 311.1 m E P       2011/03/05 21:49:41.8  -0.1                          T                                        4657326
CDF   002.54 311.1 m E Sg      2011/03/05 21:50:19.5  -0.1                          T                3.0  .39 Ml 2.3         4657303
CABF  002.80 268.1 m E Pn      2011/03/05 21:49:42.7  -0.1                          T                                        4657328
CABF  002.80 268.1 m E Pg      2011/03/05 21:49:51.9   0.2                          T                                        4657319
CABF  002.80 268.1 m E Sg      2011/03/05 21:50:27.8   0.0                          T                5.7  .44 Ml 2.5         4657307
HAU   002.86 296.8 m E Pn      2011/03/05 21:49:43.5   0.0                          T                                        4657329
HAU   002.86 296.8 m E P       2011/03/05 21:49:46.4   0.0                          T                                        4657322
HAU   002.86 296.8 m E Sg      2011/03/05 21:50:29.4  -0.1                          T                5.0  .22 Ml 2.5         4657305
THEF  003.17 298.8 m E Pn      2011/03/05 21:49:47.6  -0.1                          T                                        4657327
THEF  003.17 298.8 m E Sg      2011/03/05 21:50:39.0  -0.1                          T                5.8  .41 Ml 2.6         4657304
MBDF  003.13 230.3 m E Pn      2011/03/05 21:49:47.6   0.3                          T                                        4657332
MBDF  003.13 230.3 m E Pg      2011/03/05 21:49:57.6  -0.2                          T                                        4657313
MBDF  003.13 230.3 m E Sg      2011/03/05 21:50:38.1   0.1                          T                3.9  .59 Ml 2.3         4657857
SBF   003.49 214.3 m E Pn      2011/03/05 21:49:52.1   0.0                          T                                        4657336
PAGF  003.48 302.4 m E Pn      2011/03/05 21:49:52.2   0.3                          T                                        4657860
PAGF  003.48 302.4 m E Sg      2011/03/05 21:50:48.6  -0.2                          T                1.2  .57 Ml 1.9         4657859
ORIF  003.52 239.6 m E Pn      2011/03/05 21:49:52.6   0.1                          T                                        4657333
ORIF  003.52 239.6 m E Pg      2011/03/05 21:50:05.1   0.2                          T                                        4657312
ORIF  003.52 239.6 m E Sg      2011/03/05 21:50:50.0  -0.1                          T                1.0  .28 Ml 2.1         4657309
SFTF  003.75 294.3 m E Pn      2011/03/05 21:49:55.5  -0.1                          T                                        4657861
SFTF  003.75 294.3 m E Sg      2011/03/05 21:50:57.1   0.0                          T                2.3  .34 Ml 2.4         4657862
FRF   004.06 218.9 m E Pn      2011/03/05 21:49:59.5  -0.2                          T                                        4657318
SMRF  004.27 230.7 m E Pn      2011/03/05 21:50:02.7   0.0                          T                                        4657317
VIVF  004.28 245.3 m E Pn      2011/03/05 21:50:02.9   0.0                          T                                        4657331
LMR   004.30 218.2 m E Pn      2011/03/05 21:50:03.0  -0.1                          T                                        4657316
LOR   004.33 278.8 m E Pn      2011/03/05 21:50:03.4  -0.1                          T                                        4657324
LOR   004.33 278.8 m E Sg      2011/03/05 21:51:15.5   0.1                          T                2.0  .36 Ml 2.5         4657302
SSF   004.56 276.0 m E Pn      2011/03/05 21:50:06.7   0.1                          T                                        4657323
SSF   004.56 276.0 m E Sg      2011/03/05 21:51:22.6   0.0                          T                1.5  .35 Ml 2.5         4657301
SMF   004.34 270.6 m E P       2011/03/05 21:50:07.4   0.0                          T                                        4657320
SMF   004.34 270.6 m E Sg      2011/03/05 21:51:15.7   0.0                          T                  1  .24 Ml 2.3         4657308
AVF   004.67 272.6 m E P       2011/03/05 21:50:12.0   0.0                          T                                        4657321
AVF   004.67 272.6 m E Sg      2011/03/05 21:51:25.9   0.0                          T                 .2  .21 Ml 1.8         4657858

.
EVENT     256699
    Date      Time       Latitude Longitude    Depth    Ndef Nsta Gap    Mag1  N    Mag2  N    Mag3  N   Author         ID
       rms   OT_Error      Smajor Sminor Az        Err   mdist  Mdist     Err        Err        Err      Quality

2011/03/06 01:06:24.9     41.5393   -8.5712      2.0      65    4 155  Ml 2.5  4                         js067245    256699

      0.66   +-  0.12       2.7    1.4  100.93 +-  0.0    0.40   6.77   +-0.2                            m i ke

PORTUGAL
Sta     Dist  EvAz     Phase      Date       Time     TRes  Azim  AzRes  Slow  SRes Def   SNR       Amp   Per   Mag1   Mag2       ID
EVOP  003.03 173.3 m E Pn      2011/03/06 01:07:11.3  -0.5                          T                                        4657541
EVOP  003.03 173.3 m E Sn      2011/03/06 01:07:46.4  -0.1                          T                5.3  .28 Ml 2.7         4657540
SJPF  005.67 071.4 m E Pn      2011/03/06 01:07:47.8   0.0                          T                                        4657539
SJPF  005.67 071.4 m E Sn      2011/03/06 01:08:49.5  -0.2                          T                 .4  .23 Ml 2.2         4657536
ETSF  006.10 074.5 m E Pn      2011/03/06 01:07:53.6  -0.2                          T                                        4657538
ETSF  006.10 074.5 m E Sn      2011/03/06 01:09:00.2   0.0                          T                 .5  .23 Ml 2.4         4657535
EPF   006.77 074.3 m E Pn      2011/03/06 01:08:03.1   0.1                          T                                        4657537
EPF   006.77 074.3 m E Sn      2011/03/06 01:09:16.2   0.0                          T                1.6  .46 Ml 2.7         4657534

.
EVENT     256691
    Date      Time       Latitude Longitude    Depth    Ndef Nsta Gap    Mag1  N    Mag2  N    Mag3  N   Author         ID
       rms   OT_Error      Smajor Sminor Az        Err   mdist  Mdist     Err        Err        Err      Quality

2011/03/06 06:14:28.0     44.0208    7.3400      2.0      18    8 172  Ml 1.7  6  Md 1.8  3              js067245    256691

      0.08   +-  0.03        .6     .3   82.79 +-  0.0    0.17   1.56   +-0.4      +-0.1                 m i ke

NORTHERN ITALY
Sta     Dist  EvAz     Phase      Date       Time     TRes  Azim  AzRes  Slow  SRes Def   SNR       Amp   Per   Mag1   Mag2       ID
SBF   000.17 156.4 m E Pg      2011/03/06 06:14:31.6   0.0                          T                                        4657559
SBF   000.17 156.4 m E Sg      2011/03/06 06:14:34.1   0.1                          T               22.2  .22        Md 1.9  4657554
FRF   000.68 227.7 m E Pg      2011/03/06 06:14:40.8   0.0                          T                                        4657557
FRF   000.68 227.7 m E Sg      2011/03/06 06:14:49.7   0.0                          T                1.9  .25        Md 1.9  4657551
MBDF  000.82 330.2 m E Pg      2011/03/06 06:14:43.5  -0.1                          T                                        4657556
MBDF  000.82 330.2 m E Sg      2011/03/06 06:14:54.3   0.1                          T                2.4  .37        Md 1.7  4657547
LMR   000.91 221.6 m E Pg      2011/03/06 06:14:45.1  -0.1                          T                                        4657558
LMR   000.91 221.6 m E Sg      2011/03/06 06:14:56.9  -0.1                          T                5.5  .24 Ml 2.2         4657553
SMRF  001.27 268.6 m E Pg      2011/03/06 06:14:51.8   0.0                          T                                        4657555
SMRF  001.27 268.6 m E Sg      2011/03/06 06:15:08.5   0.2                          T                3.8  .28 Ml 2.1         4657552
ORIF  001.38 311.2 m E Pg      2011/03/06 06:14:53.8   0.0                          T                                        4657546
ORIF  001.38 311.2 m E Sg      2011/03/06 06:15:11.8   0.1                          T                1.2  .38 Ml 1.5         4657548
LPG   001.54 344.4 m E Pg      2011/03/06 06:14:56.9  -0.1                          T                                        4657544
LPG   001.54 344.4 m E Sg      2011/03/06 06:15:16.8   0.0                          T                 .6  .34 Ml 1.3         4657550
LPL   001.56 344.1 m E Pg      2011/03/06 06:14:57.3   0.0                          T                                        4657545
LPL   001.56 344.1 m E Sg      2011/03/06 06:15:17.4   0.0                          T                 .7  .41 Ml 1.3         4657549

.
EVENT     256700
    Date      Time       Latitude Longitude    Depth    Ndef Nsta Gap    Mag1  N    Mag2  N    Mag3  N   Author         ID
       rms   OT_Error      Smajor Sminor Az        Err   mdist  Mdist     Err        Err        Err      Quality

2011/03/06 07:17:33.4     36.8299   -7.3275     20.0 f   102    6 164  Ml 3.5  6                         js067245    256700

      1.98   +-  0.44       9.5    5.1   28.33 +-  0.0    0.63  10.77   +-0.3                            m i ke

STRAIT OF GIBRALTAR
Sta     Dist  EvAz     Phase      Date       Time     TRes  Azim  AzRes  Slow  SRes Def   SNR       Amp   Per   Mag1   Mag2       ID
SJPF  007.83 034.9 m E Pn      2011/03/06 07:19:23.6  -0.2                          T                                        4657569
SJPF  007.83 034.9 m E P       2011/03/06 07:19:29.3   0.1                          T                                        4657574
SJPF  007.83 034.9 m E Sn      2011/03/06 07:20:47.1   0.5                          T               11.6  .56 Ml 3.7         4657565
ETSF  007.99 038.6 m E Pn      2011/03/06 07:19:26.1   0.1                          T                                        4657570
ETSF  007.99 038.6 m E P       2011/03/06 07:19:31.4   0.0                          T                                        4657573
ETSF  007.99 038.6 m E Sn      2011/03/06 07:20:50.9   0.5                          T                4.6  .32 Ml 3.6         4657564
EPF   008.54 041.2 m E Pn      2011/03/06 07:19:33.5  -0.1                          T                                        4657571
EPF   008.54 041.2 m E P       2011/03/06 07:19:39.3   0.2                          T                                        4657572
EPF   008.54 041.2 m E Sn      2011/03/06 07:21:03.8   0.1                          T                5.0  .37 Ml 3.6         4657563
LFF   010.14 034.5 m E Pn      2011/03/06 07:19:55.7   0.5                          T                                        4657567
LFF   010.14 034.5 m E Sn      2011/03/06 07:21:41.9   0.2                          T                  1  .38 Ml 3.0         4657561
CAF   010.76 038.4 m E Pn      2011/03/06 07:20:06.7   3.0                          T                                        4657568
CAF   010.76 038.4 m E Sn      2011/03/06 07:21:56.9   0.2                          T                1.3  .31 Ml 3.5         4657560
RJF   010.77 035.5 m E Pn      2011/03/06 07:20:07.1   3.2                          T                                        4657566
RJF   010.77 035.5 m E Sn      2011/03/06 07:21:57.1   0.1                          T                4.5  .56 Ml 3.4         4657562

.
