EVENT     274529
    Date      Time       Latitude Longitude    Depth    Ndef Nsta Gap    Mag1  N    Mag2  N    Mag3  N   Author         ID
       rms   OT_Error      Smajor Sminor Az        Err   mdist  Mdist     Err        Err        Err      Quality

2012/04/19 11:06:44.4     50.3916    4.3591       .0 f    11    8 297  Ml 2.5  5  Md 2.7  1              bulletin    274629
                                                                                                         _ldg
      1.26   +-  0.44       6.3    5.4  176.71 +-  0.0    0.35   3.05   +-0.3      +-                    m i km

BELGIUM
Sta     Dist  EvAz     Phase      Date       Time     TRes  Azim  AzRes  Slow  SRes Def   SNR       Amp   Per   Mag1   Mag2       ID
BAIF  000.35 196.3 m E Pg      2012/04/19 11:06:51.3  -0.1                          T                                        4923705
BAIF  000.35 196.3 m E Sg      2012/04/19 11:06:56.3   0.1                          T               84.6 1.16        Md 2.7  4923706
GIVF  000.42 134.0 m E P       2012/04/19 11:06:53.2  -0.1                          T                                        4923703
GIVF  000.42 134.0 m E Sg      2012/04/19 11:06:58.5   0.1                          T              126.2  .58                4923704
PAGF  002.04 153.6 m E Pg      2012/04/19 11:07:23.1   0.4 342.8  8.2               T                                        4923696
PAGF  002.04 153.6 m E Sg      2012/04/19 11:07:49.1   0.0 327.1  -7.6              T                3.3  .47 Ml 2.1         4923702
THEF  002.42 153.1 m E Pg      2012/04/19 11:07:29.3  -0.3                          T                                        4923697
MEZF  001.94 166.3 m E Sg      2012/04/19 11:07:45.9  -0.2 339.8  -7.0              T               15.1  .36 Ml 2.8         4923701
SFTF  002.23 168.3 m E Sg      2012/04/19 11:07:54.9  -0.2                          T               10.7  .43 Ml 2.6         4923700
HAU   002.72 150.6 m E Sg      2012/04/19 11:08:10.4   0.0                          T               12.3  .48 Ml 2.6         4923699
HINF  003.05 146.6 m E Sg      2012/04/19 11:08:20.9   0.1                          T                3.9  .35 Ml 2.5         4923698

.
EVENT     273993
    Date      Time       Latitude Longitude    Depth    Ndef Nsta Gap    Mag1  N    Mag2  N    Mag3  N   Author         ID
       rms   OT_Error      Smajor Sminor Az        Err   mdist  Mdist     Err        Err        Err      Quality

2012/04/19 12:25:37.5     49.8579    5.2183       .0 f     9    6 182  Ml 2.2  3  Md 2.2  2              bulletin    274013
                                                                                                         _ldg
      0.85   +-  0.21       7.4    2.7   51.02 +-  0.0    0.35   1.98   +-0.4      +-0.1                 m i km

FRANCE
Sta     Dist  EvAz     Phase      Date       Time     TRes  Azim  AzRes  Slow  SRes Def   SNR       Amp   Per   Mag1   Mag2       ID
GIVF  000.35 314.0 m E Pg      2012/04/19 12:25:44.2  -0.4                          T                                        4916809
GIVF  000.35 314.0 m E Sg      2012/04/19 12:25:50.2   0.7                          T              179.9 1.04        Md 2.3  4916808
BAIF  000.68 287.5 m E Pg      2012/04/19 12:25:51.1   0.4                          T                                        4920153
BAIF  000.68 287.5 m E Sg      2012/04/19 12:25:59.0  -0.8                          T               29.6  .68        Md 2.1  4920152
PAGF  001.35 165.5 m E Pn      2012/04/19 12:26:02.1   0.0                          T                                        4923710
PAGF  001.35 165.5 m E Sn      2012/04/19 12:26:19.0  -0.8 342.5  -3.4              T                3.1  .62 Ml 1.7         4923711
CDF   001.98 136.2 m E Pn      2012/04/19 12:26:10.9   0.1                          T                                        4923707
MEZF  001.36 184.7 m E Sg      2012/04/19 12:26:21.3   0.3 356.8  -7.7              T                8.2  .24 Ml 2.5         4923709
SFTF  001.66 184.2 m E Sn      2012/04/19 12:26:27.4   0.2                          T                5.0  .30 Ml 2.3         4923708

.
EVENT     273989
    Date      Time       Latitude Longitude    Depth    Ndef Nsta Gap    Mag1  N    Mag2  N    Mag3  N   Author         ID
       rms   OT_Error      Smajor Sminor Az        Err   mdist  Mdist     Err        Err        Err      Quality

2012/04/19 12:29:03.3     47.1054    1.5727      3.0 f    21   10 189  Ml 2.2  9                         bulletin    274009
                                                                                                         _ldg
      1.07   +-  0.12       2.6    1.3  165.24 +-  0.0    0.75   2.21   +-0.2                            m i ke

FRANCE
Sta     Dist  EvAz     Phase      Date       Time     TRes  Azim  AzRes  Slow  SRes Def   SNR       Amp   Per   Mag1   Mag2       ID
HYF   000.75 077.0 m E P       2012/04/19 12:29:19.0   0.0                          T                                        4923717
HYF   000.75 077.0 m E Sn      2012/04/19 12:29:30.2  -0.1                          T                                        4923718
TCF   000.93 151.6 m E Pg      2012/04/19 12:29:20.8   0.0                          T                                        4916793
TCF   000.93 151.6 m E Sg      2012/04/19 12:29:33.2   0.4                          T                2.5  .22 Ml 1.9         4916794
BGF   001.03 121.6 m E Pg      2012/04/19 12:29:22.7   0.1                          T                                        4916792
BGF   001.03 121.6 m E Sg      2012/04/19 12:29:36.4   0.4                          T               15.7  .32 Ml 2.5         4916787
AVF   001.26 103.8 m E Pg      2012/04/19 12:29:27.1   0.3                          T                                        4916791
AVF   001.26 103.8 m E Sg      2012/04/19 12:29:42.8  -0.4                          T               20.0 1.06 Ml 2.2         4916788
MFF   001.28 247.5 m E Pg      2012/04/19 12:29:27.1  -0.1                          T                                        4923715
MFF   001.28 247.5 m E Sg      2012/04/19 12:29:43.9   0.1                          T                3.4  .25 Ml 2.2         4923716
LOR   001.57 083.2 m E Pg      2012/04/19 12:29:32.7   0.2 262.2  -2.7              T                                        4916795
LOR   001.57 083.2 m E Sg      2012/04/19 12:29:52.5  -0.2 258.8  -6.1              T                2.7  .25 Ml 2.1         4916785
RJF   001.80 181.3 m E Pg      2012/04/19 12:29:36.9   0.0                          T                                        4923713
RJF   001.80 181.3 m E Sg      2012/04/19 12:29:59.7  -0.3                          T                5.6  .27 Ml 2.1         4923714
SSF   001.32 091.2 m E Sg      2012/04/19 12:29:44.1  -1.0                          T                7.0  .36 Ml 2.3         4916786
SMF   001.62 105.7 m E Sg      2012/04/19 12:29:54.0  -0.5                          T                2.0  .25 Ml 2.0         4916789
CAF   002.21 170.9 m E Sg      2012/04/19 12:30:12.8   0.1                          T                3.5  .39 Ml 2.2         4923712

.
EVENT     273990
    Date      Time       Latitude Longitude    Depth    Ndef Nsta Gap    Mag1  N    Mag2  N    Mag3  N   Author         ID
       rms   OT_Error      Smajor Sminor Az        Err   mdist  Mdist     Err        Err        Err      Quality

2012/04/19 12:49:53.5     44.0268    7.5426       .0 f    18    4 087  Ml 2.0  2  Md 1.8  1              bulletin    274010
                                                                                                         _ldg
      0.31   +-  0.06       1.4    1.0   72.23 +-  0.0    0.04   1.02   +-0.3      +-                    m i uk

NORTHERN ITALY
Sta     Dist  EvAz     Phase      Date       Time     TRes  Azim  AzRes  Slow  SRes Def   SNR       Amp   Per   Mag1   Mag2       ID
SBF   000.18 205.4 m E Pg      2012/04/19 12:49:57.0  -0.5                          T                                        4916801
SBF   000.18 205.4 m E Sg      2012/04/19 12:49:59.4  -0.8                          T               28.0  .27        Md 1.8  4916798
FRF   000.80 234.6 m E Pg      2012/04/19 12:50:09.2   0.5                          T                                        4916800
FRF   000.80 234.6 m E Sg      2012/04/19 12:50:19.9   0.6                          T                7.5  .28                4916796
MBDF  000.89 322.0 m E Pg      2012/04/19 12:50:10.7   0.0                          T                                        4916803
MBDF  000.89 322.0 m E Sg      2012/04/19 12:50:22.9   0.4                          T                2.6  .27 Ml 1.7         4916802
LMR   001.02 227.6 m E Pg      2012/04/19 12:50:12.9   0.0                          T                                        4916799
LMR   001.02 227.6 m E Sg      2012/04/19 12:50:25.7  -0.6                          T                7.8  .33 Ml 2.2         4916797

.
EVENT     273991
    Date      Time       Latitude Longitude    Depth    Ndef Nsta Gap    Mag1  N    Mag2  N    Mag3  N   Author         ID
       rms   OT_Error      Smajor Sminor Az        Err   mdist  Mdist     Err        Err        Err      Quality

2012/04/19 13:47:33.3     47.7778    3.9819       .0 f     8    4 340  Ml 2.0  2  Md 2.1  1              bulletin    274011
                                                                                                         _ldg
      1.32   +-  1.01      15.1   11.8    3.31 +-  0.0    0.52   1.14   +-0.3      +-                    m i km

FRANCE
Sta     Dist  EvAz     Phase      Date       Time     TRes  Azim  AzRes  Slow  SRes Def   SNR       Amp   Per   Mag1   Mag2       ID
LOR   000.52 189.3 m E Pg      2012/04/19 13:47:43.2  -0.2   8.7  -0.6              T                                        4916815
LOR   000.52 189.3 m E Sg      2012/04/19 13:47:49.8  -0.6 355.9  -13.3             T               40.7  .74        Md 2.1  4916813
SSF   000.79 204.4 m E Pg      2012/04/19 13:47:49.3   1.0                          T                                        4916814
SSF   000.79 204.4 m E Sg      2012/04/19 13:47:59.6   0.8                          T                9.8  .29                4916810
AVF   001.08 203.7 m E Pg      2012/04/19 13:47:53.2  -0.5                          T                                        4916812
AVF   001.08 203.7 m E Sg      2012/04/19 13:48:07.8  -0.1                          T                2.3  .28 Ml 1.8         4916811
SMF   001.14 184.9 m E Pg      2012/04/19 13:47:54.5  -0.3                          T                                        4920158
SMF   001.14 184.9 m E Sg      2012/04/19 13:48:09.9   0.1                          T                4.7  .23 Ml 2.2         4920159

.
EVENT     273995
    Date      Time       Latitude Longitude    Depth    Ndef Nsta Gap    Mag1  N    Mag2  N    Mag3  N   Author         ID
       rms   OT_Error      Smajor Sminor Az        Err   mdist  Mdist     Err        Err        Err      Quality

2012/04/19 14:28:06.4     47.1628    7.3474       .0 f     8    4 240  Ml 2.2  3  Md 1.8  1              bulletin    274015
                                                                                                         _ldg
      0.50   +-  0.60      13.7    4.7  110.22 +-  0.0    0.74   1.25   +-0.1      +-                    m i km

SWITZERLAND
Sta     Dist  EvAz     Phase      Date       Time     TRes  Azim  AzRes  Slow  SRes Def   SNR       Amp   Per   Mag1   Mag2       ID
HINF  000.74 333.0 m E Pg      2012/04/19 14:28:21.1   0.5                          T                                        4920953
HINF  000.74 333.0 m E Sg      2012/04/19 14:28:31.4   1.1                          T               11.0  .32        Md 1.8  4920948
CABF  001.03 237.9 m E Pg      2012/04/19 14:28:26.1   0.1                          T                                        4920951
CABF  001.03 237.9 m E Sg      2012/04/19 14:28:39.6   0.2                          T                6.7  .34 Ml 2.1         4920950
HAU   001.08 321.6 m E Pg      2012/04/19 14:28:26.3  -0.6                          T                                        4920952
HAU   001.08 321.6 m E Sg      2012/04/19 14:28:40.5  -0.7                          T                8.7  .32 Ml 2.1         4920949
CDF   001.25 357.8 m E Pg      2012/04/19 14:28:30.0  -0.2                          T                                        4920946
CDF   001.25 357.8 m E Sg      2012/04/19 14:28:46.7   0.2                          T                6.8  .38 Ml 2.3         4920947

.
EVENT     273996
    Date      Time       Latitude Longitude    Depth    Ndef Nsta Gap    Mag1  N    Mag2  N    Mag3  N   Author         ID
       rms   OT_Error      Smajor Sminor Az        Err   mdist  Mdist     Err        Err        Err      Quality

2012/04/19 15:09:27.8     47.6725    5.9854       .0 f    14    7 100  Ml 1.9  4  Md 2.0  2              bulletin    274016
                                                                                                         _ldg
      0.74   +-  0.09       2.0    1.6  147.32 +-  0.0    0.41   1.50   +-0.4      +-0.0                 m i km

FRANCE
Sta     Dist  EvAz     Phase      Date       Time     TRes  Azim  AzRes  Slow  SRes Def   SNR       Amp   Per   Mag1   Mag2       ID
HAU   000.41 036.1 m E Pg      2012/04/19 15:09:35.5  -0.5                          T                                        4924349
HAU   000.41 036.1 m E Sg      2012/04/19 15:09:41.4  -0.2                          T               10.4  .28        Md 2.0  4924350
HINF  000.60 075.8 m E Pg      2012/04/19 15:09:39.7   0.2                          T                                        4924347
HINF  000.60 075.8 m E Sg      2012/04/19 15:09:47.5  -0.1                          T               42.7 1.18        Md 2.0  4924348
SFTF  000.83 310.3 m E Pg      2012/04/19 15:09:43.5  -0.2 134.5  4.9               T                                        4924343
SFTF  000.83 310.3 m E Sg      2012/04/19 15:09:54.7   0.0                          T                4.4  .26                4924344
PAGF  000.90 348.9 m E Pg      2012/04/19 15:09:45.1   0.1                          T                                        4924358
PAGF  000.90 348.9 m E Sg      2012/04/19 15:09:57.2   0.4 169.3  0.5               T                 .8  .20 Ml 1.4         4924345
CABF  001.06 176.2 m E Pg      2012/04/19 15:09:48.2   0.1                          T                                        4924356
CABF  001.06 176.2 m E Sn      2012/04/19 15:10:03.4   0.0                          T                4.0  .28 Ml 2.0         4924357
CDF   001.14 049.0 m E Pg      2012/04/19 15:09:49.6   0.1                          T                                        4924359
CDF   001.14 049.0 m E Sg      2012/04/19 15:10:04.6   0.2                          T                3.7  .26 Ml 2.1         4924346
LOR   001.50 255.1 m E Pg      2012/04/19 15:09:56.0   0.1  79.0  5.5               T                                        4924360
LOR   001.50 255.1 m E Sg      2012/04/19 15:10:15.6   0.0  74.9  1.4               T                2.6  .25 Ml 2.1         4924361

.
