EVENT     262742
    Date      Time       Latitude Longitude    Depth    Ndef Nsta Gap    Mag1  N    Mag2  N    Mag3  N   Author         ID
       rms   OT_Error      Smajor Sminor Az        Err   mdist  Mdist     Err        Err        Err      Quality

2011/08/19 14:48:39.1     42.9475   -3.9250      2.0      50   11 073  Ml 2.7  9                         js067245    262742

      0.65   +-  0.07       1.7    1.3  171.59 +-  0.0    0.46   5.85   +-0.3                            m i ke

SPAIN
Sta     Dist  EvAz     Phase      Date       Time     TRes  Azim  AzRes  Slow  SRes Def   SNR       Amp   Per   Mag1   Mag2       ID
SJPF  001.99 084.3 m E Pn      2011/08/19 14:49:11.9   0.0                          T                                        4739421
SJPF  001.99 084.3 m E Pg      2011/08/19 14:49:16.1   0.1                          T                                        4748383
SJPF  001.99 084.3 m E Sn      2011/08/19 14:49:36.3   0.4                          T                4.1  .24 Ml 2.4         4739419
ETSF  002.47 090.0 m E Pn      2011/08/19 14:49:18.7   0.1                          T                                        4748382
ETSF  002.47 090.0 m E Pg      2011/08/19 14:49:25.1   0.0                          T                                        4748381
ETSF  002.47 090.0 m E Sn      2011/08/19 14:49:47.1  -0.5                          T                3.1  .31 Ml 2.3         4739420
EPF   003.13 087.0 m E Pn      2011/08/19 14:49:27.3  -0.2                          T                                        4748379
EPF   003.13 087.0 m E Sg      2011/08/19 14:50:17.2  -0.2                          T                1.7  .28 Ml 2.3         4748380
MFF   004.54 035.1 m E Pn      2011/08/19 14:49:46.6   0.0                          T                                        4748385
MFF   004.54 035.1 m E Sn      2011/08/19 14:50:37.8   1.0                          T                1.6  .29 Ml 2.7         4739429
RJF   004.57 057.1 m E Pn      2011/08/19 14:49:47.8   0.7                          T                                        4739422
RJF   004.57 057.1 m E Sn      2011/08/19 14:50:38.8   1.1                          T                3.7  .24 Ml 2.6         4739430
QUIF  005.00 005.9 m E Pn      2011/08/19 14:49:53.0   0.1                          T                                        4739423
QUIF  005.00 005.9 m E Sn      2011/08/19 14:50:46.3  -1.6                          T                2.3  .25 Ml 2.8         4739427
ROSF  005.41 004.6 m E Pn      2011/08/19 14:49:58.4  -0.1                          T                                        4739425
ROSF  005.41 004.6 m E Sn      2011/08/19 14:50:56.3  -1.4                          T                2.7  .20 Ml 3.1         4739428
SGMF  005.39 009.8 m E Pn      2011/08/19 14:49:58.5   0.2                          T                                        4739424
TCF   005.51 050.6 m E Pn      2011/08/19 14:49:59.7  -0.2                          T                                        4748387
TCF   005.51 050.6 m E Sn      2011/08/19 14:51:00.1   0.0                          T                1.3  .24 Ml 2.8         4748386
MTLF  004.51 082.9 m E Pg      2011/08/19 14:50:02.7   0.2                          T                                        4739418
GRR   005.85 020.5 m E Pn      2011/08/19 14:50:04.5   0.0                          T                                        4748384

.
EVENT     262731
    Date      Time       Latitude Longitude    Depth    Ndef Nsta Gap    Mag1  N    Mag2  N    Mag3  N   Author         ID
       rms   OT_Error      Smajor Sminor Az        Err   mdist  Mdist     Err        Err        Err      Quality

2011/08/19 15:52:59.9     46.5484    5.9340       .0 f    22   10 093  Ml 2.0 10  Md 2.1  1              js067245    262731

      0.29   +-  0.06       1.2    1.1   41.57 +-  0.0    0.12   1.79   +-0.2      +-                    m i km

FRANCE
Sta     Dist  EvAz     Phase      Date       Time     TRes  Azim  AzRes  Slow  SRes Def   SNR       Amp   Per   Mag1   Mag2       ID
CABF  000.12 059.3 m E Pg      2011/08/19 15:53:02.9   0.1                          T                                        4739440
CABF  000.12 059.3 m E Sg      2011/08/19 15:53:04.5  -0.2                          T               55.3  .37        Md 2.1  4739439
LPL   001.17 151.4 m E Pg      2011/08/19 15:53:22.6   0.3                          T                                        4739505
LPL   001.17 151.4 m E Sg      2011/08/19 15:53:37.1  -0.6                          T                1.1  .33 Ml 1.4         4739504
HINF  001.42 026.0 m E Pn      2011/08/19 15:53:25.3   0.0                          T                                        4739432
HINF  001.42 026.0 m E Sg      2011/08/19 15:53:44.8  -0.2                          T                2.1  .24 Ml 2.0         4739438
SMF   001.45 274.6 m E Pg      2011/08/19 15:53:27.2   0.1                          T                                        4739434
SMF   001.45 274.6 m E Sg      2011/08/19 15:53:46.1   0.1                          T                4.1  .21 Ml 2.3         4739435
HAU   001.48 010.8 m E Pg      2011/08/19 15:53:28.0   0.1                          T                                        4739431
LOR   001.59 297.6 m E Pg      2011/08/19 15:53:29.9   0.1                          T                                        4739485
LOR   001.59 297.6 m E Sn      2011/08/19 15:53:48.9   0.8                          T                3.0  .35 Ml 2.0         4739483
ORIF  001.63 181.3 m E Pg      2011/08/19 15:53:30.3  -0.3                          T                                        4739506
ORIF  001.63 181.3 m E Sg      2011/08/19 15:53:52.6   0.8                          T                2.5  .38 Ml 1.9         4739507
SSF   001.75 288.0 m E Pg      2011/08/19 15:53:32.6   0.0                          T                                        4739486
SSF   001.75 288.0 m E Sg      2011/08/19 15:53:55.0  -0.2                          T                4.2  .53 Ml 2.1         4739487
AVF   001.79 278.7 m E Pg      2011/08/19 15:53:33.3  -0.1                          T                                        4739484
AVF   001.79 278.7 m E Sg      2011/08/19 15:53:56.3  -0.5                          T                1.9  .34 Ml 1.9         4739489
THEF  001.68 001.4 m E Sg      2011/08/19 15:53:53.2  -0.1                          T                2.0  .19 Ml 2.1         4739488

.
EVENT     262743
    Date      Time       Latitude Longitude    Depth    Ndef Nsta Gap    Mag1  N    Mag2  N    Mag3  N   Author         ID
       rms   OT_Error      Smajor Sminor Az        Err   mdist  Mdist     Err        Err        Err      Quality

2011/08/19 16:15:07.3     44.4734    7.0174      2.0      14    7 163  Ml 1.9  5  Md 1.8  2              js067245    262743

      0.26   +-  0.09       2.7    1.2   84.32 +-  0.0    0.31   1.20   +-0.5      +-0.1                 m i ke

NORTHERN ITALY
Sta     Dist  EvAz     Phase      Date       Time     TRes  Azim  AzRes  Slow  SRes Def   SNR       Amp   Per   Mag1   Mag2       ID
MBDF  000.31 325.4 m E Pg      2011/08/19 16:15:13.2  -0.3                          T                                        4739529
MBDF  000.31 325.4 m E Sg      2011/08/19 16:15:18.1   0.4                          T                5.6  .21        Md 1.7  4739525
SBF   000.68 153.6 m E Pg      2011/08/19 16:15:20.5   0.3                          T                                        4739518
SBF   000.68 153.6 m E Sg      2011/08/19 16:15:28.7  -0.4                          T                1.8  .19        Md 1.9  4739519
FRF   000.95 196.5 m E Pg      2011/08/19 16:15:24.8  -0.3                          T                                        4739528
FRF   000.95 196.5 m E Sg      2011/08/19 16:15:37.1  -0.4                          T                5.6  .22 Ml 2.2         4739524
LPG   001.04 349.7 m E Pg      2011/08/19 16:15:27.2   0.1                          T                                        4739516
LPG   001.04 349.7 m E Sg      2011/08/19 16:15:40.7   0.1                          T                4.7  .22 Ml 2.2         4739517
LPL   001.06 349.1 m E Pg      2011/08/19 16:15:27.5   0.1                          T                                        4739526
LPL   001.06 349.1 m E Sg      2011/08/19 16:15:40.8  -0.4                          T                1.2  .26 Ml 1.5         4739522
SMRF  001.15 244.9 m E Pg      2011/08/19 16:15:29.1   0.2                          T                                        4739520
SMRF  001.15 244.9 m E Sg      2011/08/19 16:15:43.6  -0.1                          T                 .7  .24 Ml 1.3         4739521
LMR   001.20 198.0 m E Pg      2011/08/19 16:15:30.3   0.7                          T                                        4739527
LMR   001.20 198.0 m E Sg      2011/08/19 16:15:45.5   0.4                          T                5.7  .25 Ml 2.3         4739523

.
EVENT     262744
    Date      Time       Latitude Longitude    Depth    Ndef Nsta Gap    Mag1  N    Mag2  N    Mag3  N   Author         ID
       rms   OT_Error      Smajor Sminor Az        Err   mdist  Mdist     Err        Err        Err      Quality

2011/08/19 17:27:45.6     46.0242    6.8872      3.0 f    29    8 072  Ml 2.1  7  Md 2.0  3              js067245    262744

      0.23   +-  0.04        .9     .6  113.25 +-  0.0    0.04   2.43   +-0.2      +-0.0                 m i ke

SWITZERLAND
Sta     Dist  EvAz     Phase      Date       Time     TRes  Azim  AzRes  Slow  SRes Def   SNR       Amp   Per   Mag1   Mag2       ID
LPL   000.52 192.1 m E Pg      2011/08/19 17:27:55.7  -0.1                          T                                        4739548
LPL   000.52 192.1 m E Sg      2011/08/19 17:28:02.9   0.2                          T                5.6  .28        Md 2.0  4739545
LPG   000.54 190.3 m E Pg      2011/08/19 17:27:56.1  -0.1                          T                                        4739549
LPG   000.54 190.3 m E Sg      2011/08/19 17:28:02.8  -0.4                          T                4.7  .18        Md 1.9  4739544
CABF  000.81 316.9 m E Pg      2011/08/19 17:28:01.0   0.0                          T                                        4739546
CABF  000.81 316.9 m E Sg      2011/08/19 17:28:11.6   0.2                          T                5.0  .25        Md 2.0  4739540
ORIF  001.31 213.0 m E Pg      2011/08/19 17:28:09.6  -0.6                          T                                        4739547
ORIF  001.31 213.0 m E Sg      2011/08/19 17:28:27.4   0.2                          T                3.1  .25 Ml 2.0         4739543
HINF  001.79 359.3 m E Pg      2011/08/19 17:28:18.9  -0.1                          T                                        4739535
HINF  001.79 359.3 m E Sg      2011/08/19 17:28:42.3   0.1                          T                2.3  .25 Ml 2.1         4739539
VIVF  001.95 233.9 m E Pg      2011/08/19 17:28:21.5  -0.3                          T                                        4739538
VIVF  001.95 233.9 m E Sg      2011/08/19 17:28:46.9   0.0                          T                4.3  .19 Ml 2.6         4739542
SMF   002.20 287.5 m E Pg      2011/08/19 17:28:26.8   0.3                          T                                        4739534
SMF   002.20 287.5 m E Sg      2011/08/19 17:28:55.0   0.2                          T                1.4  .17 Ml 2.2         4739541
LOR   002.43 301.9 m E Pg      2011/08/19 17:28:30.6  -0.1                          T                                        4739536
LOR   002.43 301.9 m E Sg      2011/08/19 17:29:02.2   0.2                          T                 .8  .20 Ml 1.9         4739537

.
EVENT     262745
    Date      Time       Latitude Longitude    Depth    Ndef Nsta Gap    Mag1  N    Mag2  N    Mag3  N   Author         ID
       rms   OT_Error      Smajor Sminor Az        Err   mdist  Mdist     Err        Err        Err      Quality

2011/08/20 02:46:43.5     42.8605    -.8231      2.0       6    3 231  Ml 0.9  1  Md 1.3  2              js067245    262745

      0.16   +-  0.37      14.1    1.7   14.10 +-  0.0    0.20   0.87   +-         +-0.4                 m i ke

PYRENEES
Sta     Dist  EvAz     Phase      Date       Time     TRes  Azim  AzRes  Slow  SRes Def   SNR       Amp   Per   Mag1   Mag2       ID
ETSF  000.20 078.8 m E Pg      2011/08/20 02:46:47.7   0.1                          T                                        4739972
ETSF  000.20 078.8 m E Sg      2011/08/20 02:46:50.6   0.3                          T                7.1  .17        Md 1.5  4739971
SJPF  000.39 310.7 m E Pg      2011/08/20 02:46:51.1   0.1                          T                                        4739973
SJPF  000.39 310.7 m E Sg      2011/08/20 02:46:56.0  -0.2                          T                 .7  .22        Md 1.0  4739970
EPF   000.87 078.4 m E Pg      2011/08/20 02:46:59.8  -0.2                          T                                        4739969
EPF   000.87 078.4 m E Sg      2011/08/20 02:47:11.1  -0.1                          T                 .2  .18 Ml  .9         4739968

.
EVENT     262746
    Date      Time       Latitude Longitude    Depth    Ndef Nsta Gap    Mag1  N    Mag2  N    Mag3  N   Author         ID
       rms   OT_Error      Smajor Sminor Az        Err   mdist  Mdist     Err        Err        Err      Quality

2011/08/20 03:27:23.9     35.5539  -10.0243     30.0 f    49    7 234  Ml 3.4  3                         js067245    262746

      0.28   +-  0.17       4.0    2.4   77.12 +-  0.0    1.85  13.30   +-0.2                            m i ke

NORTH ATLANTIC OCEAN
Sta     Dist  EvAz     Phase      Date       Time     TRes  Azim  AzRes  Slow  SRes Def   SNR       Amp   Per   Mag1   Mag2       ID
SJPF  010.16 039.4 m E Pn      2011/08/20 03:29:45.9   0.3                          T                                        4739560
SJPF  010.16 039.4 m E Sn      2011/08/20 03:31:32.8   0.9                          T                1.2  .27 Ml 3.4         4739551
ETSF  010.37 042.2 m E Pn      2011/08/20 03:29:49.0   0.6                          T                                        4739559
ETSF  010.37 042.2 m E Sn      2011/08/20 03:31:38.1   1.1                          T                 .5  .18 Ml 3.2         4739552
EPF   010.96 043.9 m E Pn      2011/08/20 03:29:56.1  -0.3                          T                                        4739555
EPF   010.96 043.9 m E Sn      2011/08/20 03:31:51.0   0.1                          T                1.0  .20 Ml 3.6         4739553
LFF   012.46 037.9 m E Pn      2011/08/20 03:30:16.5  -0.2                          T                                        4739554
RJF   013.11 038.5 m E Pn      2011/08/20 03:30:25.2  -0.4                          T                                        4739558
CAF   013.14 040.9 m E Pn      2011/08/20 03:30:26.0   0.0                          T                                        4739556
MFF   013.30 030.9 m E Pn      2011/08/20 03:30:28.1  -0.1                          T                                        4739557

.
EVENT     263759
    Date      Time       Latitude Longitude    Depth    Ndef Nsta Gap    Mag1  N    Mag2  N    Mag3  N   Author         ID
       rms   OT_Error      Smajor Sminor Az        Err   mdist  Mdist     Err        Err        Err      Quality

2011/08/20 03:28:59.8     42.3193    2.3569      4.0 f    24    2 077  Ml 1.4  2                         js067245    263759

      0.38   +-  0.06       1.5    1.0    7.13 +-  0.0    0.14   1.65   +-0.1                            m i ke

PYRENEES
Sta     Dist  EvAz     Phase      Date       Time     TRes  Azim  AzRes  Slow  SRes Def   SNR       Amp   Per   Mag1   Mag2       ID
MTLF  001.03 354.3 m E Pn      2011/08/20 03:29:19.5   0.2                          T                                        4748390
MTLF  001.03 354.3 m E Sg      2011/08/20 03:29:32.0  -0.3                          T                1.0  .23 Ml 1.5         4748391
EPF   001.65 296.2 m E Pg      2011/08/20 03:29:30.4  -0.1                          T                                        4748388
EPF   001.65 296.2 m E Sg      2011/08/20 03:29:51.9   0.1                          T                 .5  .26 Ml 1.4         4748389

.
EVENT     262878
    Date      Time       Latitude Longitude    Depth    Ndef Nsta Gap    Mag1  N    Mag2  N    Mag3  N   Author         ID
       rms   OT_Error      Smajor Sminor Az        Err   mdist  Mdist     Err        Err        Err      Quality

2011/08/20 03:49:40.7     44.5040    7.2352      2.0      18    8 186  Ml 1.9  7  Md 2.1  2              js067245    262878

      0.16   +-  0.07       1.5     .7   76.54 +-  0.0    0.40   1.30   +-0.3      +-0.3                 m i ke

NORTHERN ITALY
Sta     Dist  EvAz     Phase      Date       Time     TRes  Azim  AzRes  Slow  SRes Def   SNR       Amp   Per   Mag1   Mag2       ID
MBDF  000.40 304.1 m E Pg      2011/08/20 03:49:48.4  -0.2                          T                                        4739579
MBDF  000.40 304.1 m E Sg      2011/08/20 03:49:53.9   0.0                          T               21.7  .25        Md 1.9  4739571
SBF   000.66 167.3 m E Pg      2011/08/20 03:49:53.2   0.0                          T                                        4739572
SBF   000.66 167.3 m E Sg      2011/08/20 03:50:01.7  -0.1                          T                4.4  .22        Md 2.3  4739568
FRF   001.03 204.4 m E Pg      2011/08/20 03:50:00.2   0.1                          T                                        4739574
FRF   001.03 204.4 m E Sg      2011/08/20 03:50:13.4  -0.1                          T                6.5  .29 Ml 2.2         4739570
ORIF  001.05 293.7 m E Pg      2011/08/20 03:50:00.7   0.2                          T                                        4739578
ORIF  001.05 293.7 m E Sg      2011/08/20 03:50:14.2   0.1                          T                3.2  .31 Ml 1.8         4739567
LPG   001.05 341.1 m E Pg      2011/08/20 03:50:00.9   0.1                          T                                        4739576
LPG   001.05 341.1 m E Sg      2011/08/20 03:50:14.3  -0.2                          T                1.4  .26 Ml 1.6         4739565
LPL   001.07 340.8 m E Pg      2011/08/20 03:50:01.0  -0.1                          T                                        4739577
LPL   001.07 340.8 m E Sg      2011/08/20 03:50:15.0   0.0                          T                2.0  .26 Ml 1.7         4739566
LMR   001.28 204.4 m E Pg      2011/08/20 03:50:04.7   0.1                          T                                        4739573
LMR   001.28 204.4 m E Sg      2011/08/20 03:50:20.8  -0.4                          T                3.8  .20 Ml 2.3         4739569
SMRF  001.30 246.7 m E Pg      2011/08/20 03:50:06.0   0.9                          T                                        4739575
SMRF  001.30 246.7 m E Sg      2011/08/20 03:50:22.1   0.1                          T                1.9  .33 Ml 1.7         4739564

.
