EVENT     280415
    Date      Time       Latitude Longitude    Depth    Ndef Nsta Gap    Mag1  N    Mag2  N    Mag3  N   Author         ID
       rms   OT_Error      Smajor Sminor Az        Err   mdist  Mdist     Err        Err        Err      Quality

2012/08/02 03:01:46.8     45.6333    6.9331     15.0       7    4 316  Ml 1.2  2  Md 1.4  2              bulletin    280515
                                                                                                         _ldg
      0.10   +-  0.15       2.7    2.2   36.77 +-  0.0    0.18   1.03   +-0.1      +-0.1                 m i ke

FRANCE
Sta     Dist  EvAz     Phase      Date       Time     TRes  Azim  AzRes  Slow  SRes Def   SNR       Amp   Per   Mag1   Mag2       ID
LPL   000.18 230.4 m E Pg      2012/08/02 03:01:51.6   0.0                          T                                        5036975
LPL   000.18 230.4 m E Sg      2012/08/02 03:01:54.9   0.2                          T                3.9  .26        Md 1.4  5036976
LPG   000.19 223.3 m E Pg      2012/08/02 03:01:51.6  -0.1                          T                                        5036978
LPG   000.19 223.3 m E Sg      2012/08/02 03:01:54.6  -0.2                          T                3.2  .16        Md 1.3  5036977
MBDF  000.91 187.2 m E Pg      2012/08/02 03:02:04.4   0.0                          T                                        5036980
MBDF  000.91 187.2 m E Sg      2012/08/02 03:02:16.3   0.0                          T                 .8  .25 Ml 1.3         5036979
ORIF  001.03 226.5 m E Sg      2012/08/02 03:02:19.9  -0.1                          T                 .6  .31 Ml 1.1         5045521

.
EVENT     280502
    Date      Time       Latitude Longitude    Depth    Ndef Nsta Gap    Mag1  N    Mag2  N    Mag3  N   Author         ID
       rms   OT_Error      Smajor Sminor Az        Err   mdist  Mdist     Err        Err        Err      Quality

2012/08/02 03:18:57.2     44.6419    6.7597      2.0      12    6 178  Ml 1.2  4  Md 1.4  1              bulletin    280602
                                                                                                         _ldg
      0.31   +-  0.12       3.8    1.6   91.45 +-  0.0    0.09   1.32   +-0.3      +-                    m i ke

FRANCE
Sta     Dist  EvAz     Phase      Date       Time     TRes  Azim  AzRes  Slow  SRes Def   SNR       Amp   Per   Mag1   Mag2       ID
MBDF  000.09 005.6 m E Pg      2012/08/02 03:18:58.6  -0.8                          T                                        5038306
MBDF  000.09 005.6 m E Sg      2012/08/02 03:19:00.5  -0.2                          T                6.0  .22        Md 1.4  5041846
ORIF  000.68 294.1 m E Pg      2012/08/02 03:19:10.3   0.1                          T                                        5038305
ORIF  000.68 294.1 m E Sg      2012/08/02 03:19:19.1  -0.2                          T                1.2  .24                5038304
LPG   000.86 359.6 m E Pg      2012/08/02 03:19:13.6  -0.1                          T                                        5041843
LPG   000.86 359.6 m E Sg      2012/08/02 03:19:25.6   0.8                          T                 .6  .25 Ml 1.1         5041842
LPL   000.87 358.7 m E Pg      2012/08/02 03:19:13.7  -0.2                          T                                        5038302
LPL   000.87 358.7 m E Sg      2012/08/02 03:19:25.9   0.6                          T                 .4  .31 Ml  .8         5041841
FRF   001.08 184.3 m E Pg      2012/08/02 03:19:17.5   0.0                          T                                        5041844
FRF   001.08 184.3 m E Sg      2012/08/02 03:19:32.0   0.4                          T                1.2  .25 Ml 1.6         5038301
LMR   001.32 188.0 m E Pg      2012/08/02 03:19:22.7   0.9                          T                                        5038303
LMR   001.32 188.0 m E Sg      2012/08/02 03:19:38.9  -0.1                          T                 .7  .23 Ml 1.5         5041845

.
EVENT     280427
    Date      Time       Latitude Longitude    Depth    Ndef Nsta Gap    Mag1  N    Mag2  N    Mag3  N   Author         ID
       rms   OT_Error      Smajor Sminor Az        Err   mdist  Mdist     Err        Err        Err      Quality

2012/08/02 06:50:21.1     51.6039   16.2562      1.0 f    52    7 071  Ml 4.1  6                         bulletin    280527
                                                                                                         _ldg
      0.48   +-  0.13       3.5    2.0   13.07 +-  0.0    0.76   9.60   +-0.2                            m i sr

POLAND
Sta     Dist  EvAz     Phase      Date       Time     TRes  Azim  AzRes  Slow  SRes Def   SNR       Amp   Per   Mag1   Mag2       ID
LANF  006.02 247.4 m E Pn      2012/08/02 06:51:50.4   1.4                          T                                        5037162
LANF  006.02 247.4 m E Pg      2012/08/02 06:52:12.3  -0.1                          T                                        5046618
CDF   006.61 244.6 m E Pn      2012/08/02 06:51:59.0   1.9                          T                                        5037163
CDF   006.61 244.6 m E Pg      2012/08/02 06:52:23.0  -0.3                          T                                        5046617
CDF   006.61 244.6 m E Sg      2012/08/02 06:53:48.2   0.1                          T               94.0  .94 Ml 4.3         5046609
HINF  007.18 241.8 m E Pn      2012/08/02 06:52:05.4   0.6                          T                                        5046616
HINF  007.18 241.8 m E Sg      2012/08/02 06:54:04.4  -1.3                          T               43.8  .72 Ml 4.1         5046611
MBDF  009.35 226.3 m E P       2012/08/02 06:52:40.2  -0.1                          T                                        5046615
MBDF  009.35 226.3 m E Sg      2012/08/02 06:55:13.8   0.2                          T               13.4  .94 Ml 3.8         5046613
HAU   007.35 244.5 m E Sg      2012/08/02 06:54:11.2   0.0                          T               73.7 1.06 Ml 3.9         5046610
CABF  008.33 237.1 m E Sg      2012/08/02 06:54:42.3   0.5                          T               66.7 1.00 Ml 4.3         5046612
LPG   008.77 229.6 m E Sg      2012/08/02 06:54:56.7   0.8                          T               62.2 1.32 Ml 4.2         5046614

.
EVENT     280457
    Date      Time       Latitude Longitude    Depth    Ndef Nsta Gap    Mag1  N    Mag2  N    Mag3  N   Author         ID
       rms   OT_Error      Smajor Sminor Az        Err   mdist  Mdist     Err        Err        Err      Quality

2012/08/02 08:12:54.2     48.3714    9.0010     10.0      30    8 057  Ml 2.5  8  Md 2.4  4              bulletin    280557
                                                                                                         _ldg
      0.26   +-  0.05        .8     .7  147.35 +-  0.0    0.16   3.64   +-0.2      +-0.1                 m i ke

GERMANY
Sta     Dist  EvAz     Phase      Date       Time     TRes  Azim  AzRes  Slow  SRes Def   SNR       Amp   Per   Mag1   Mag2       ID
LANF  001.00 308.0 m E Pg      2012/08/02 08:13:12.9  -0.1                          T                                        5038113
LANF  001.00 308.0 m E Sg      2012/08/02 08:13:25.7  -0.3                          T                9.8  .23 Ml 2.4 Md 2.5  5038112
CDF   001.15 272.7 m E Pg      2012/08/02 08:13:15.8  -0.1                          T                                        5038115
CDF   001.15 272.7 m E Sg      2012/08/02 08:13:30.7  -0.2                          T               12.1  .22 Ml 2.7 Md 2.3  5038114
HINF  001.54 249.7 m E Pn      2012/08/02 08:13:20.3   0.1                          T                                        5038111
HINF  001.54 249.7 m E Pg      2012/08/02 08:13:23.2   0.1                          T                                        5038110
HINF  001.54 249.7 m E Sn      2012/08/02 08:13:39.1   0.1                          T                                        5038105
HINF  001.54 249.7 m E Sg      2012/08/02 08:13:42.7  -0.3                          T                5.5  .36 Ml 2.2 Md 2.3  5038104
HAU   001.81 259.3 m E Pn      2012/08/02 08:13:24.0   0.2                          T                                        5038109
HAU   001.81 259.3 m E Pg      2012/08/02 08:13:28.0   0.0                          T                                        5038108
HAU   001.81 259.3 m E Sn      2012/08/02 08:13:45.6   0.1                          T                                        5038107
HAU   001.81 259.3 m E Sg      2012/08/02 08:13:51.3  -0.1                          T                6.3  .28 Ml 2.3 Md 2.3  5038106
THEF  002.01 267.0 m E Pn      2012/08/02 08:13:26.7   0.2                          T                                        5038103
THEF  002.01 267.0 m E Pg      2012/08/02 08:13:31.6  -0.1                          T                                        5038100
THEF  002.01 267.0 m E Sn      2012/08/02 08:13:50.3   0.1                          T                                        5038101
THEF  002.01 267.0 m E Sg      2012/08/02 08:13:57.4  -0.2                          T                3.7  .19 Ml 2.5         5038102
MEZF  002.63 274.3 m E Sg      2012/08/02 08:14:16.3  -0.6                          T                9.0  .23 Ml 2.9         5038099
SFTF  002.65 267.9 m E Sg      2012/08/02 08:14:17.4  -0.1                          T                3.9  .29 Ml 2.5         5045639
LOR   003.64 254.2 m E Sg      2012/08/02 08:14:48.5   0.2                          T                1.5  .23 Ml 2.4         5045640

.
EVENT     280436
    Date      Time       Latitude Longitude    Depth    Ndef Nsta Gap    Mag1  N    Mag2  N    Mag3  N   Author         ID
       rms   OT_Error      Smajor Sminor Az        Err   mdist  Mdist     Err        Err        Err      Quality

2012/08/02 08:57:17.6     48.8254    -.1271       .0 f    12    7 281  Ml 2.4  3  Md 1.9  2              bulletin    280536
                                                                                                         _ldg
      0.62   +-  0.31       4.8    2.3   56.03 +-  0.0    0.23   2.22   +-0.0      +-0.0                 m i km

FRANCE
Sta     Dist  EvAz     Phase      Date       Time     TRes  Azim  AzRes  Slow  SRes Def   SNR       Amp   Per   Mag1   Mag2       ID
LDF   000.23 179.2 m E Pg      2012/08/02 08:57:22.5   0.0                          T                                        5037286
LDF   000.23 179.2 m E Sg      2012/08/02 08:57:25.3  -0.6                          T               17.1  .26        Md 1.8  5037283
FLN   000.24 255.1 m E Pg      2012/08/02 08:57:22.7   0.0  73.5  -1.3              T                                        5037285
FLN   000.24 255.1 m E Sg      2012/08/02 08:57:26.2   0.0  69.1  -5.8              T               30.0  .24        Md 1.9  5037284
GRR   000.65 228.2 m E Pg      2012/08/02 08:57:30.1  -0.1                          T                                        5037288
GRR   000.65 228.2 m E Sg      2012/08/02 08:57:38.9  -0.1                          T                 10  .22                5037287
SGMF  001.71 251.4 m E Pg      2012/08/02 08:57:49.0   0.2                          T                                        5045643
SGMF  001.71 251.4 m E Sg      2012/08/02 08:58:11.6  -0.5                          T                                        5038308
ROSF  002.15 258.0 m E Pg      2012/08/02 08:57:57.9   0.2                          T                                        5045642
ROSF  002.15 258.0 m E Sg      2012/08/02 08:58:24.5  -1.1                          T                4.1  .28 Ml 2.4         5038307
MFF   002.22 180.3 m E Sg      2012/08/02 08:58:28.0  -0.1                          T                2.3  .23 Ml 2.4         5045641
QUIF  002.22 247.0 m E Sg      2012/08/02 08:58:28.9   1.0                          T                2.9  .24 Ml 2.3         5045644

.
EVENT     280442
    Date      Time       Latitude Longitude    Depth    Ndef Nsta Gap    Mag1  N    Mag2  N    Mag3  N   Author         ID
       rms   OT_Error      Smajor Sminor Az        Err   mdist  Mdist     Err        Err        Err      Quality

2012/08/02 11:01:50.8     42.2514    2.1254      5.0 f    86   14 032  Ml 2.7 15  Md 2.5  3              bulletin    280542
                                                                                                         _ldg
      0.44   +-  0.05       1.0     .8  151.30 +-  0.0    0.05   4.56   +-0.3      +-0.0                 m i ke

PYRENEES
Sta     Dist  EvAz     Phase      Date       Time     TRes  Azim  AzRes  Slow  SRes Def   SNR       Amp   Per   Mag1   Mag2       ID
MTLF  001.09 003.5 m E Pg      2012/08/02 11:02:11.1  -0.2                          T                                        5038058
MTLF  001.09 003.5 m E Sg      2012/08/02 11:02:25.3  -0.1                          T               20.2  .22 Ml 2.8 Md 2.5  5038055
EPF   001.53 301.2 m E Pn      2012/08/02 11:02:17.6   0.4                          T                                        5038017
EPF   001.53 301.2 m E Pg      2012/08/02 11:02:19.5   0.1                          T                                        5038057
EPF   001.53 301.2 m E Sg      2012/08/02 11:02:40.3   1.0                          T               20.6  .22 Ml 3.0 Md 2.5  5038056
LASF  002.22 034.2 m E Pn      2012/08/02 11:02:27.1   0.6                          T                                        5038054
LASF  002.22 034.2 m E Sn      2012/08/02 11:02:53.4   0.6                          T                3.3  .18 Ml 2.5         5038053
ETSF  002.09 289.0 m E Pg      2012/08/02 11:02:29.4  -0.3                          T                                        5038051
ETSF  002.09 289.0 m E Sg      2012/08/02 11:02:56.7   0.1                          T               17.6  .24 Ml 3.1 Md 2.5  5038052
SJPF  002.62 290.3 m E Pn      2012/08/02 11:02:32.6   0.6                          T                                        5038049
SJPF  002.62 290.3 m E Pg      2012/08/02 11:02:39.4   0.0                          T                                        5038050
SJPF  002.62 290.3 m E Sn      2012/08/02 11:03:02.9   0.7                          T                                        5038048
SJPF  002.62 290.3 m E Sg      2012/08/02 11:03:13.4   0.3                          T                5.4  .30 Ml 2.6         5038047
CAF   002.67 359.1 m E Pn      2012/08/02 11:02:33.5   0.7                          T                                        5038046
CAF   002.67 359.1 m E Pg      2012/08/02 11:02:40.6   0.1                          T                                        5038045
CAF   002.67 359.1 m E Sn      2012/08/02 11:03:04.2   0.6                          T                                        5038044
CAF   002.67 359.1 m E Sg      2012/08/02 11:03:14.6  -0.2                          T                7.6  .18 Ml 3.0         5038043
LFF   002.87 339.9 m E Pn      2012/08/02 11:02:36.0   0.6                          T                                        5038042
LFF   002.87 339.9 m E Pg      2012/08/02 11:02:44.3   0.2                          T                                        5038041
LFF   002.87 339.9 m E Sn      2012/08/02 11:03:09.1   0.9                          T                                        5038040
LFF   002.87 339.9 m E Sg      2012/08/02 11:03:20.8  -0.1                          T                8.4  .24 Ml 2.8         5038039
SMRF  003.06 054.5 m E Pn      2012/08/02 11:02:38.4   0.4                          T                                        5038019
SMRF  003.06 054.5 m E Sn      2012/08/02 11:03:13.1   0.3                          T                1.9  .40 Ml 2.1         5038018
RJF   003.08 352.0 m E Pn      2012/08/02 11:02:38.7   0.4                          T                                        5038038
RJF   003.08 352.0 m E Pg      2012/08/02 11:02:47.6  -0.4                          T                                        5038037
RJF   003.08 352.0 m E Sn      2012/08/02 11:03:14.0   0.6                          T                                        5038036
RJF   003.08 352.0 m E Sg      2012/08/02 11:03:27.3  -0.4                          T               15.1  .52 Ml 2.6         5038035
VIVF  003.19 034.6 m E Pn      2012/08/02 11:02:40.2   0.4                          T                                        5038027
VIVF  003.19 034.6 m E Pg      2012/08/02 11:02:49.9  -0.2                          T                                        5038026
VIVF  003.19 034.6 m E Sn      2012/08/02 11:03:16.6   0.6                          T                                        5038025
VIVF  003.19 034.6 m E Sg      2012/08/02 11:03:30.8  -0.3                          T                2.0  .22 Ml 2.4         5038024
LMR   003.40 070.0 m E Pn      2012/08/02 11:02:42.9   0.3                          T                                        5038021
LMR   003.40 070.0 m E Sn      2012/08/02 11:03:21.3   0.3                          T                1.3  .22 Ml 2.3         5038020
FRF   003.57 067.0 m E Pn      2012/08/02 11:02:45.3   0.4                          T                                        5038023
FRF   003.57 067.0 m E Sn      2012/08/02 11:03:26.0   1.1                          T                2.1  .26 Ml 2.5         5038022
BGF   004.34 006.6 m E Pn      2012/08/02 11:02:55.7   0.4                          T                                        5038034
BGF   004.34 006.6 m E Pg      2012/08/02 11:03:11.2   0.2                          T                                        5038033
BGF   004.34 006.6 m E Sn      2012/08/02 11:03:43.8   0.5                          T                                        5038032
BGF   004.34 006.6 m E Sg      2012/08/02 11:04:07.0   0.3                          T               11.6  .36 Ml 3.2         5038031
SMF   004.56 015.0 m E Pn      2012/08/02 11:02:58.7   0.3                          T                                        5038030
SMF   004.56 015.0 m E Sn      2012/08/02 11:03:49.3   0.6                          T                                        5038029
SMF   004.56 015.0 m E Sg      2012/08/02 11:04:13.6  -0.2                          T                2.6  .41 Ml 2.6         5038028

.
EVENT     280455
    Date      Time       Latitude Longitude    Depth    Ndef Nsta Gap    Mag1  N    Mag2  N    Mag3  N   Author         ID
       rms   OT_Error      Smajor Sminor Az        Err   mdist  Mdist     Err        Err        Err      Quality

2012/08/02 13:36:54.7     39.7313   -6.4388      2.0      28    5 142  Ml 2.9  3                         bulletin    280555
                                                                                                         _ldg
      0.64   +-  0.14       4.6    2.5  137.16 +-  0.0    0.80   7.44   +-0.3                            m i ke

SPAIN
Sta     Dist  EvAz     Phase      Date       Time     TRes  Azim  AzRes  Slow  SRes Def   SNR       Amp   Per   Mag1   Mag2       ID
SJPF  005.17 047.5 m E Pn      2012/08/02 13:38:10.8  -0.2                          T                                        5037870
SJPF  005.17 047.5 m E Sn      2012/08/02 13:39:08.0   0.3                          T                2.6  .44 Ml 2.7         5037866
ETSF  005.44 052.5 m E Pn      2012/08/02 13:38:15.2   0.5                          T                                        5037869
ETSF  005.44 052.5 m E Sn      2012/08/02 13:39:14.5   0.4                          T                2.5  .48 Ml 2.7         5037867
EPF   006.07 054.9 m E Pn      2012/08/02 13:38:23.2   0.0                          T                                        5037868
EPF   006.07 054.9 m E Sn      2012/08/02 13:39:29.6   0.4                          T                3.8  .31 Ml 3.2         5037865
LFF   007.44 043.3 m E Pn      2012/08/02 13:38:41.2  -0.5                          T                                        5037864

.
