EVENT     270230
    Date      Time       Latitude Longitude    Depth    Ndef Nsta Gap    Mag1  N    Mag2  N    Mag3  N   Author         ID
       rms   OT_Error      Smajor Sminor Az        Err   mdist  Mdist     Err        Err        Err      Quality

2012/02/17 08:39:02.9     45.5796    3.1899       .0 f    55   29 046  Ml 2.8 29  Md 3.0  3              js067245    270250

      0.56   +-  0.04        .8     .6   65.30 +-  0.0    0.21   4.53   +-0.2      +-0.2                 m i km

FRANCE
Sta     Dist  EvAz     Phase      Date       Time     TRes  Azim  AzRes  Slow  SRes Def   SNR       Amp   Per   Mag1   Mag2       ID
TCF   000.98 316.4 m E Pg      2012/02/17 08:39:21.4  -0.2                          T   001.0                                4839033
TCF   000.98 316.4 m E Pn      2012/02/17 08:39:22.4  -0.1                          T   001.0                                4839034
TCF   000.98 316.4 m E Sg      2012/02/17 08:39:34.8   0.2                          T                                        4843618
TCF   000.98 316.4 m E Sn      2012/02/17 08:39:36.8   0.2                          T   001.0       40.4  .40 Ml 2.9         4839035
BGF   001.01 346.4 m E Pn      2012/02/17 08:39:22.5  -0.3                          T   001.0                                4839050
BGF   001.01 346.4 m E Sg      2012/02/17 08:39:35.1  -0.1                          T                                        4843626
BGF   001.01 346.4 m E Sn      2012/02/17 08:39:37.0  -0.1                          T   001.0      272.1  .40 Ml 3.7         4839051
CAF   001.03 231.0 m E Pn      2012/02/17 08:39:23.1  -0.1                          T   001.0                                4839052
CAF   001.03 231.0 m E Sg      2012/02/17 08:39:35.9  -0.1                          T                                        4843629
CAF   001.03 231.0 m E Sn      2012/02/17 08:39:37.6   0.0                          T   001.0       26.0  .32 Ml 2.7 Md 2.8  4839053
AVF   001.22 005.3 m E Pn      2012/02/17 08:39:23.9  -1.7                          T   001.0                                4839046
AVF   001.22 005.3 m E Pg      2012/02/17 08:39:25.7  -0.1                          T   001.0                                4839047
AVF   001.22 005.3 m E Sg      2012/02/17 08:39:41.5  -0.3                          T   001.0       35.7  .44 Ml 2.8         4839048
SMF   001.16 022.8 m E Pg      2012/02/17 08:39:24.8   0.0                          T   001.0                                4839029
SMF   001.16 022.8 m E Sg      2012/02/17 08:39:40.1   0.1                          T   001.0       41.1  .36 Ml 2.9         4839030
RJF   001.21 257.4 m E Pg      2012/02/17 08:39:26.1   0.3                          T   001.0                                4839044
RJF   001.21 257.4 m E Sg      2012/02/17 08:39:41.5  -0.1                          T   001.0       43.7  .36 Ml 2.7 Md 3.0  4839045
VIVF  001.27 124.1 m E Pn      2012/02/17 08:39:26.5   0.0                          T   001.0                                4839041
VIVF  001.27 124.1 m E Pg      2012/02/17 08:39:27.1   0.1                          T   001.0                                4839040
VIVF  001.27 124.1 m E Sg      2012/02/17 08:39:43.8   0.1                          T   001.0       53.5  .36 Ml 3.1         4839043
LASF  001.58 162.2 m E Pn      2012/02/17 08:39:30.6   0.0                          T   001.0                                4839055
LASF  001.58 162.2 m E Pg      2012/02/17 08:39:32.6   0.1                          T                                        4843637
LASF  001.58 162.2 m E Sn      2012/02/17 08:39:50.5  -0.1                          T   001.0       32.2  .44 Ml 2.9         4839056
LASF  001.58 162.2 m E Sg      2012/02/17 08:39:53.2   0.1                          T                                        4843631
SSF   001.50 008.3 m E Pg      2012/02/17 08:39:31.0  -0.1                          T   001.0                                4839031
SSF   001.50 008.3 m E Sg      2012/02/17 08:39:50.5  -0.1                          T   001.0       33.5  .44 Ml 3.0         4839032
HYF   001.73 347.5 m E Pg      2012/02/17 08:39:35.6   0.2                          T                                        4840472
HYF   001.73 347.5 m E Sg      2012/02/17 08:39:58.0   0.1                          T                                        4840471
LOR   001.75 015.1 m E Pg      2012/02/17 08:39:35.7   0.0 189.3  -6.3              T   001.0                                4839058
LOR   001.75 015.1 m E Sg      2012/02/17 08:39:58.2  -0.3 192.3  -3.2              T               24.9  .40 Ml 3.0         4840474
LFF   001.84 250.6 m E Pg      2012/02/17 08:39:37.5   0.0                          T                                        4843638
LFF   001.84 250.6 m E Sg      2012/02/17 08:40:02.1   0.7                          T   001.0       27.1  .36 Ml 2.9         4839057
ORIF  002.01 108.2 m E Pg      2012/02/17 08:39:40.2  -0.5                          T                                        4843635
ORIF  002.01 108.2 m E Sg      2012/02/17 08:40:07.1   0.3                          T               18.0  .52 Ml 2.7         4843632
CABF  002.26 061.9 m E Pg      2012/02/17 08:39:45.5   0.2                          T   001.0                                4839038
CABF  002.26 061.9 m E Sg      2012/02/17 08:40:15.2   0.5                          T               23.8  .50 Ml 2.9         4843625
MBDF  002.67 107.3 m E Pg      2012/02/17 08:39:53.0   0.1                          T                                        4843636
MBDF  002.67 107.3 m E Sg      2012/02/17 08:40:27.6   0.1                          T   001.0        8.9  .56 Ml 2.6         4839039
BAIF  004.53 008.3 m E Pn      2012/02/17 08:40:08.1  -2.7                          T   001.0                                4839037
SMRF  002.34 132.5 m E Sg      2012/02/17 08:40:17.1   0.3                          T               18.1  .54 Ml 2.8         4843634
LPL   002.49 090.2 m E Sg      2012/02/17 08:40:21.7  -0.1                          T                8.3  .32 Ml 2.7         4843633
MFF   002.54 295.0 m E Sg      2012/02/17 08:40:22.8  -0.2                          T   001.0       12.9  .52 Ml 2.9         4839060
LPG   002.50 090.6 m E Sg      2012/02/17 08:40:23.2   0.8                          T   001.0       10.1  .40 Ml 2.7         4839059
EPF   003.27 219.8 m E Sn      2012/02/17 08:40:28.2  -2.9                          T   001.0        4.8  .28 Ml 2.7         4839054
EPF   003.27 219.8 m E Sg      2012/02/17 08:40:45.9   0.0                          T                5.6  .32 Ml 2.7         4843630
SFTF  002.92 025.1 m E Sg      2012/02/17 08:40:34.6  -0.3 214.7  8.3               T               16.0  .51 Ml 2.9         4843622
MEZF  003.19 022.9 m E Sg      2012/02/17 08:40:43.3  -0.1 204.0  -0.3              T               17.2  .40 Ml 3.1         4843621
HAU   003.26 040.7 m E Sg      2012/02/17 08:40:46.1   0.6                          T                8.0  .40 Ml 2.6         4843623
HINF  003.37 047.1 m E Sg      2012/02/17 08:40:49.8   0.7                          T                5.2  .43 Ml 2.6         4843624
PAGF  003.44 029.3 m E Sg      2012/02/17 08:40:51.6   0.2                          T                4.2  .53 Ml 2.4         4843620
LDF   003.77 324.3 m E Sg      2012/02/17 08:41:01.2  -0.3                          T                5.9  .39 Ml 2.7         4843627
GRR   003.95 316.9 m E Sg      2012/02/17 08:41:06.9  -0.1                          T                4.6  .40 Ml 2.6         4843628
CDF   003.98 043.2 m E Sg      2012/02/17 08:41:08.5   0.3                          T                4.5  .42 Ml 2.8         4843619

.
EVENT     270237
    Date      Time       Latitude Longitude    Depth    Ndef Nsta Gap    Mag1  N    Mag2  N    Mag3  N   Author         ID
       rms   OT_Error      Smajor Sminor Az        Err   mdist  Mdist     Err        Err        Err      Quality

2012/02/17 10:36:03.0     44.2519    7.5146     10.0      17    4 129  Ml 1.5  2  Md 1.4  2              js067245    270257

      0.34   +-  0.09       1.9    1.3   44.87 +-  0.0    0.07   1.17   +-0.1      +-0.3                 m i ke

NORTHERN ITALY
Sta     Dist  EvAz     Phase      Date       Time     TRes  Azim  AzRes  Slow  SRes Def   SNR       Amp   Per   Mag1   Mag2       ID
SBF   000.39 188.4 m E Pg      2012/02/17 10:36:10.7  -0.1                          T                                        4840481
SBF   000.39 188.4 m E Sg      2012/02/17 10:36:16.4   0.3                          T                9.1  .22        Md 1.5  4840480
MBDF  000.71 312.0 m E Pg      2012/02/17 10:36:16.7   0.0                          T                                        4840482
MBDF  000.71 312.0 m E Sg      2012/02/17 10:36:26.2   0.1                          T                 .9  .21        Md 1.2  4840479
FRF   000.93 222.5 m E Sg      2012/02/17 10:36:32.7   0.0                          T                 .6  .15 Ml 1.4         4840476
LMR   001.17 218.8 m E Sn      2012/02/17 10:36:38.7  -0.2                          T                                        4840477
LMR   001.17 218.8 m E Sg      2012/02/17 10:36:40.1   0.0                          T                 .8  .20 Ml 1.5         4840478

.
EVENT     270357
    Date      Time       Latitude Longitude    Depth    Ndef Nsta Gap    Mag1  N    Mag2  N    Mag3  N   Author         ID
       rms   OT_Error      Smajor Sminor Az        Err   mdist  Mdist     Err        Err        Err      Quality

2012/02/17 17:59:46.2     45.7098    6.9893      2.0      69   22 045  Ml 2.4 20  Md 2.1  4              js067245    270377

      0.85   +-  0.06       1.4    1.0   96.60 +-  0.0    0.09   3.56   +-0.2      +-0.1                 m i ke

FRANCE
Sta     Dist  EvAz     Phase      Date       Time     TRes  Azim  AzRes  Slow  SRes Def   SNR       Amp   Per   Mag1   Mag2       ID
LPL   000.26 223.1 m E Pg      2012/02/17 17:59:51.6  -0.1                          T                                        4840994
LPL   000.26 223.1 m E Sg      2012/02/17 17:59:55.4   0.0                          T               57.6  .26        Md 2.3  4840991
LPG   000.27 218.3 m E Pg      2012/02/17 17:59:51.8  -0.1                          T                                        4840993
LPG   000.27 218.3 m E Sg      2012/02/17 17:59:55.8   0.3                          T               99.8  .20        Md 2.2  4840992
MBDF  000.99 189.0 m E Pg      2012/02/17 18:00:05.1   0.1                          T                                        4840986
MBDF  000.99 189.0 m E Pn      2012/02/17 18:00:06.0   0.2                          T                                        4840985
MBDF  000.99 189.0 m E P       2012/02/17 18:00:07.2  -0.1                          T                                        4840984
MBDF  000.99 189.0 m E Sg      2012/02/17 18:00:18.4   0.4                          T               18.2  .40 Ml 2.5 Md 2.0  4840988
ORIF  001.11 225.1 m E Pg      2012/02/17 18:00:07.3   0.1                          T                                        4840987
ORIF  001.11 225.1 m E Sg      2012/02/17 18:00:21.8   0.2                          T               12.5  .30 Ml 2.5         4840990
CABF  001.10 325.5 m E Pg      2012/02/17 18:00:07.3   0.4                          T                                        4841000
CABF  001.10 325.5 m E P       2012/02/17 18:00:08.8   0.1                          T                                        4841001
CABF  001.10 325.5 m E Sn      2012/02/17 18:00:22.9   0.9                          T               12.8  .34 Ml 2.4 Md 2.1  4840953
VIVF  001.84 243.3 m E P       2012/02/17 18:00:18.7  -0.6                          T                                        4840964
VIVF  001.84 243.3 m E Pg      2012/02/17 18:00:20.7   0.1                          T                                        4840983
VIVF  001.84 243.3 m E Sg      2012/02/17 18:00:44.7   0.4                          T                6.1  .24 Ml 2.6         4840989
SMRF  002.00 210.6 m E Pg      2012/02/17 18:00:23.5   0.0                          T                                        4843676
SMRF  002.00 210.6 m E Sg      2012/02/17 18:00:49.2  -0.1                          T                1.6  .36 Ml 1.9         4843677
HINF  002.11 357.5 m E Pg      2012/02/17 18:00:26.2   0.7                          T                                        4840960
HINF  002.11 357.5 m E Sg      2012/02/17 18:00:52.2  -0.5                          T                4.7  .22 Ml 2.6         4840999
FRF   002.16 186.6 m E Pg      2012/02/17 18:00:26.6   0.2                          T                                        4840973
FRF   002.16 186.6 m E Sg      2012/02/17 18:00:54.7   0.4                          T                2.6  .32 Ml 2.2         4840972
CDF   002.71 004.0 m E Pn      2012/02/17 18:00:29.1   0.1                          T                                        4840949
CDF   002.71 004.0 m E Pg      2012/02/17 18:00:36.6   0.0                          T                                        4840950
CDF   002.71 004.0 m E Sg      2012/02/17 18:01:11.9   0.5                          T                1.6  .29 Ml 2.2         4840951
HAU   002.34 349.4 m E Pg      2012/02/17 18:00:29.6   0.0                          T                                        4840976
HAU   002.34 349.4 m E Sg      2012/02/17 18:00:59.4  -0.3                          T                2.8  .24 Ml 2.1         4840961
LMR   002.40 188.4 m E Pg      2012/02/17 18:00:31.2   0.5                          T                                        4840970
LMR   002.40 188.4 m E Sg      2012/02/17 18:01:01.5  -0.1                          T                1.3  .22 Ml 2.1         4840971
SMF   002.38 294.3 m E Pg      2012/02/17 18:00:31.4   1.0                          T                                        4840959
SMF   002.38 294.3 m E Sg      2012/02/17 18:01:00.9  -0.1                          T                5.2  .20 Ml 2.7         4840998
AVF   002.75 294.5 m E P       2012/02/17 18:00:32.1   0.0                          T                                        4840955
AVF   002.75 294.5 m E Pg      2012/02/17 18:00:37.3   0.2                          T                                        4840954
AVF   002.75 294.5 m E Sg      2012/02/17 18:01:11.3  -1.1                          T                3.5  .32 Ml 2.4         4840997
THEF  002.61 345.2 m E Pg      2012/02/17 18:00:34.9   0.3                          T                                        4840952
LOR   002.67 306.9 m E Pg      2012/02/17 18:00:35.4  -0.3 118.2  -6.4              T                                        4840977
LOR   002.67 306.9 m E Sg      2012/02/17 18:01:08.6  -1.3 142.2  17.5              T                5.7  .32 Ml 2.6         4840982
BGF   003.00 287.9 m E P       2012/02/17 18:00:35.8  -0.1                          T                                        4840958
BGF   003.00 287.9 m E Pg      2012/02/17 18:00:40.9  -0.9                          T                                        4840957
BGF   003.00 287.9 m E Sg      2012/02/17 18:01:21.0   0.5                          T                6.7  .30 Ml 2.8         4840995
LASF  002.76 234.8 m E Pg      2012/02/17 18:00:36.9  -0.6                          T                                        4840974
SSF   002.76 300.5 m E Pg      2012/02/17 18:00:37.6   0.1                          T                                        4840978
SSF   002.76 300.5 m E Sg      2012/02/17 18:01:12.1  -0.9                          T                2.6  .26 Ml 2.5         4840981
CAF   003.56 259.0 m E P       2012/02/17 18:00:42.6  -1.2                          T                                        4840962
CAF   003.56 259.0 m E Sg      2012/02/17 18:01:38.0   0.0                          T                                        4840963
SBF   001.87 170.1 m E Sg      2012/02/17 18:00:45.7   0.4                          T                7.2  .37 Ml 2.5         4840965
TCF   003.38 281.6 m E Pg      2012/02/17 18:00:49.3   0.4                          T                                        4840979
TCF   003.38 281.6 m E Sg      2012/02/17 18:01:32.4   0.1                          T                5.2  .42 Ml 2.6         4840980

.
EVENT     270388
    Date      Time       Latitude Longitude    Depth    Ndef Nsta Gap    Mag1  N    Mag2  N    Mag3  N   Author         ID
       rms   OT_Error      Smajor Sminor Az        Err   mdist  Mdist     Err        Err        Err      Quality

2012/02/17 18:10:29.8     43.1348    -.5240      2.0      49   10 081  Ml 2.6  8  Md 2.7  2              js067245    270408

      0.68   +-  0.08       1.6    1.4  169.95 +-  0.0    0.12   4.18   +-0.2      +-0.1                 m i ke

PYRENEES
Sta     Dist  EvAz     Phase      Date       Time     TRes  Azim  AzRes  Slow  SRes Def   SNR       Amp   Per   Mag1   Mag2       ID
SJPF  000.51 267.8 m E Pg      2012/02/17 18:10:39.2  -0.5                          T                                        4841598
SJPF  000.51 267.8 m E Pn      2012/02/17 18:10:41.7  -0.1                          T                                        4841589
SJPF  000.51 267.8 m E Sg      2012/02/17 18:10:46.0  -0.5                          T               22.4  .20        Md 2.7  4841590
EPF   000.64 099.1 m E Pg      2012/02/17 18:10:41.7  -0.4                          T                                        4841597
EPF   000.64 099.1 m E Sg      2012/02/17 18:10:50.5   0.1                          T               22.4  .22        Md 2.6  4841588
LFF   002.02 026.4 m E Pg      2012/02/17 18:11:07.7   0.3                          T                                        4841595
LFF   002.02 026.4 m E Sg      2012/02/17 18:11:33.5   0.0                          T               10.7  .28 Ml 2.6         4841591
CAF   002.59 045.3 m E P       2012/02/17 18:11:13.0  -0.6                          T                                        4841577
CAF   002.59 045.3 m E Pg      2012/02/17 18:11:17.6  -0.3                          T                                        4841596
CAF   002.59 045.3 m E Sg      2012/02/17 18:11:51.2   0.0                          T                3.2  .20 Ml 2.5         4841592
RJF   002.62 033.4 m E Pg      2012/02/17 18:11:19.0   0.6                          T                                        4841584
RJF   002.62 033.4 m E Sg      2012/02/17 18:11:51.7  -0.4                          T                4.6  .22 Ml 2.3         4841594
LASF  003.32 072.0 m E Pn      2012/02/17 18:11:21.0   0.1                          T                                        4841579
LASF  003.32 072.0 m E Pg      2012/02/17 18:11:31.6   0.2                          T                                        4841580
LASF  003.32 072.0 m E Sg      2012/02/17 18:12:14.8   0.8                          T                2.9  .26 Ml 2.5         4841585
MFF   003.48 004.3 m E Pg      2012/02/17 18:11:35.0   0.7                          T                                        4841583
MFF   003.48 004.3 m E Sg      2012/02/17 18:12:18.8  -0.1                          T                2.3  .26 Ml 2.7         4841593
TCF   003.71 030.8 m E Pg      2012/02/17 18:11:39.4   0.9                          T                                        4841582
TCF   003.71 030.8 m E Sg      2012/02/17 18:12:25.9  -0.2                          T                1.4  .20 Ml 2.5         4841581
VIVF  004.13 063.6 m E Sg      2012/02/17 18:12:38.9  -0.3                          T                                        4841578
BGF   004.18 033.8 m E Sg      2012/02/17 18:12:40.7   0.0                          T                8.3  .38 Ml 3.0         4841586

.
