EVENT     297719
    Date      Time       Latitude Longitude    Depth    Ndef Nsta Gap    Mag1  N    Mag2  N    Mag3  N   Author         ID
       rms   OT_Error      Smajor Sminor Az        Err   mdist  Mdist     Err        Err        Err      Quality

2013/05/08 11:50:16.6     43.4320   12.3621      2.0      51   14 105  Ml 2.6 16                         bulletin    297819
                                                                                                         _ldg
      1.35   +-  0.19       5.1    3.4   12.92 +-  0.0    0.10   7.23   +-0.3                            m i ke

CENTRAL ITALY
Sta     Dist  EvAz     Phase      Date       Time     TRes  Azim  AzRes  Slow  SRes Def   SNR       Amp   Per   Mag1   Mag2       ID
PGF   002.62 251.5 m E Pn      2013/05/08 11:50:57.8  -0.4                          T                                        5277730
PGF   002.62 251.5 m E Sn      2013/05/08 11:51:29.9   1.1                          T                 .9  .20 Ml 2.2         5277748
SBF   003.60 278.6 m E Pn      2013/05/08 11:51:12.1   0.5                          T                                        5277746
SBF   003.60 278.6 m E Sn      2013/05/08 11:51:52.9   0.8                          T                4.0  .27 Ml 2.7         5277759
LMR   004.27 270.7 m E Pn      2013/05/08 11:51:20.0  -0.4                          T                                        5277729
LMR   004.27 270.7 m E Sn      2013/05/08 11:52:07.5  -0.4                          T                1.5  .41 Ml 2.3         5278136
FRF   004.16 273.7 m E Pn      2013/05/08 11:51:20.1   1.1                          T                                        5277728
FRF   004.16 273.7 m E Sn      2013/05/08 11:52:05.9   0.5                          T                3.9  .44 Ml 2.7         5277747
MBDF  004.23 289.7 m E Pn      2013/05/08 11:51:21.2   1.0                          T                                        5277745
MBDF  004.23 289.7 m E Sn      2013/05/08 11:52:09.2   1.9                          T                1.4  .22 Ml 2.5         5277744
LPG   004.52 299.1 m E Pn      2013/05/08 11:51:25.5   1.3                          T                                        5277754
SMRF  004.95 278.6 m E Pn      2013/05/08 11:51:30.1   0.3                          T                                        5277756
SMRF  004.95 278.6 m E Sn      2013/05/08 11:52:25.0   0.7                          T                 .7  .25 Ml 2.3         5277755
CABF  005.47 307.7 m E Pn      2013/05/08 11:51:37.9   0.9                          T                                        5277727
CABF  005.47 307.7 m E Sn      2013/05/08 11:52:35.9  -0.8                          T                 .4  .25 Ml 2.2         5277752
HINF  005.84 320.5 m E Pn      2013/05/08 11:51:43.2   1.1                          T                                        5277726
HINF  005.84 320.5 m E Sn      2013/05/08 11:52:48.0   2.4                          T                3.4  .39 Ml 3.0         5277743
CDF   006.11 326.3 m E Pn      2013/05/08 11:51:46.4   0.6                          T                                        5277725
CDF   006.11 326.3 m E Sn      2013/05/08 11:52:52.8   0.6                          T                2.2  .47 Ml 2.9         5277751
HAU   006.22 319.5 m E Pn      2013/05/08 11:51:48.2   1.1                          T                                        5277724
HAU   006.22 319.5 m E Sn      2013/05/08 11:52:55.5   1.0                          T                6.8  .41 Ml 3.1         5277742
PAGF  006.90 320.3 m E Pn      2013/05/08 11:51:56.9   0.6                          T                                        5278138
PAGF  006.90 320.3 m E Sn      2013/05/08 11:53:10.7  -0.2                          T                 .5  .22 Ml 2.6         5278137
LOR   007.11 305.6 m E Pn      2013/05/08 11:52:00.0   0.7 131.7  12.1              T                                        5277750
LOR   007.11 305.6 m E Sn      2013/05/08 11:53:16.8   0.8                          T                 .6  .23 Ml 2.7         5277749
SSF   007.23 303.2 m E Pn      2013/05/08 11:52:01.4   0.6                          T                                        5278140
SSF   007.23 303.2 m E Sn      2013/05/08 11:53:18.6   0.0                          T                1.0  .39 Ml 2.8         5278139

.
EVENT     297725
    Date      Time       Latitude Longitude    Depth    Ndef Nsta Gap    Mag1  N    Mag2  N    Mag3  N   Author         ID
       rms   OT_Error      Smajor Sminor Az        Err   mdist  Mdist     Err        Err        Err      Quality

2013/05/08 15:12:45.9     38.5258   12.9736      2.0      20    4 092  Ml 2.6  5                         bulletin    297825
                                                                                                         _ldg
      0.80   +-  0.12       4.3    2.5   49.23 +-  0.0    0.24   6.94   +-0.3                            m i ke

SICILY, ITALY
Sta     Dist  EvAz     Phase      Date       Time     TRes  Azim  AzRes  Slow  SRes Def   SNR       Amp   Per   Mag1   Mag2       ID
PGF   005.03 324.3 m E Pn      2013/05/08 15:14:00.6   0.3                          T                                        5277836
PGF   005.03 324.3 m E Sn      2013/05/08 15:14:56.5   0.9                          T                1.0  .24 Ml 2.8         5277833
SBF   006.77 323.7 m E Pn      2013/05/08 15:14:23.6  -0.4                          T                                        5277832
SBF   006.77 323.7 m E Sn      2013/05/08 15:15:37.2   0.1                          T                2.0  .27 Ml 3.1         5277831
LMR   006.86 316.5 m E Pn      2013/05/08 15:14:25.0   0.0                          T                                        5277835
LMR   006.86 316.5 m E Sn      2013/05/08 15:15:39.7   0.6                          T                 .8  .24 Ml 2.7         5277830
FRF   006.94 318.5 m E Pn      2013/05/08 15:14:26.2   0.1                          T                                        5277834
FRF   006.94 318.5 m E Sn      2013/05/08 15:15:40.9  -0.1                          T                 .3  .19 Ml 2.4         5277829

.
EVENT     297726
    Date      Time       Latitude Longitude    Depth    Ndef Nsta Gap    Mag1  N    Mag2  N    Mag3  N   Author         ID
       rms   OT_Error      Smajor Sminor Az        Err   mdist  Mdist     Err        Err        Err      Quality

2013/05/08 15:48:32.0     42.0406    9.3775     15.0      10    4 331  Ml 2.0  3  Md 2.3  1              bulletin    297826
                                                                                                         _ldg
      0.97   +-  0.85      15.5   13.0  136.14 +-  0.0    0.58   2.52   +-0.2      +-                    m i ke

CORSICA, FRANCE
Sta     Dist  EvAz     Phase      Date       Time     TRes  Azim  AzRes  Slow  SRes Def   SNR       Amp   Per   Mag1   Mag2       ID
PGF   000.58 331.2 m E Pg      2013/05/08 15:48:43.5   0.0                          T                                        5277841
PGF   000.58 331.2 m E Sg      2013/05/08 15:48:51.8   0.6                          T                                Md 2.3  5277840
SBF   002.31 322.6 m E Pn      2013/05/08 15:49:08.3   0.3                          T                                        5277844
SBF   002.31 322.6 m E Sn      2013/05/08 15:49:35.7   1.3                          T                1.2  .20 Ml 2.1         5277843
LMR   002.48 302.4 m E Pn      2013/05/08 15:49:10.2   0.1                          T                                        5277839
LMR   002.48 302.4 m E Sn      2013/05/08 15:49:37.6  -0.6                          T                1.6  .22 Ml 2.2         5277838
FRF   002.52 308.0 m E Pn      2013/05/08 15:49:11.1   0.5                          T                                        5277837
FRF   002.52 308.0 m E Sn      2013/05/08 15:49:39.1  -0.1                          T                 .6  .20 Ml 1.8         5277842

.
EVENT     297735
    Date      Time       Latitude Longitude    Depth    Ndef Nsta Gap    Mag1  N    Mag2  N    Mag3  N   Author         ID
       rms   OT_Error      Smajor Sminor Az        Err   mdist  Mdist     Err        Err        Err      Quality

2013/05/08 19:13:45.3     43.4571   12.2968      2.0      39   14 102  Ml 2.2 11                         bulletin    297835
                                                                                                         _ldg
      0.40   +-  0.08       1.9    1.6   11.68 +-  0.0    0.05   7.17   +-0.2                            m i ke

CENTRAL ITALY
Sta     Dist  EvAz     Phase      Date       Time     TRes  Azim  AzRes  Slow  SRes Def   SNR       Amp   Per   Mag1   Mag2       ID
PGF   002.58 250.5 m E Pn      2013/05/08 19:14:26.6   0.1                          T                                        5278078
PGF   002.58 250.5 m E Sn      2013/05/08 19:14:56.2  -0.3                          T                 .8  .20 Ml 2.2         5278077
SBF   003.55 278.2 m E Pn      2013/05/08 19:14:39.8   0.2                          T                                        5278076
SBF   003.55 278.2 m E Sn      2013/05/08 19:15:19.4  -0.3                          T                1.3  .26 Ml 2.3         5278075
FRF   004.11 273.4 m E Pn      2013/05/08 19:14:46.5  -0.6                          T                                        5278072
FRF   004.11 273.4 m E Sn      2013/05/08 19:15:32.6  -0.3                          T                1.2  .30 Ml 2.3         5278071
LMR   004.22 270.3 m E Pn      2013/05/08 19:14:48.6   0.0                          T                                        5278074
LMR   004.22 270.3 m E Sn      2013/05/08 19:15:35.5   0.0                          T                 .5  .27 Ml 1.9         5278073
LPG   004.46 299.1 m E Pn      2013/05/08 19:14:51.9  -0.4                          T                                        5278068
LPG   004.46 299.1 m E Sn      2013/05/08 19:15:41.2  -0.5                          T                 .6  .26 Ml 2.1         5278067
LPL   004.48 299.3 m E Pn      2013/05/08 19:14:52.1  -0.3                          T                                        5278066
LPL   004.48 299.3 m E Sn      2013/05/08 19:15:41.6  -0.5                          T                 .6  .21 Ml 2.2         5278065
SMRF  004.90 278.4 m E Pn      2013/05/08 19:14:57.6  -0.3                          T                                        5278070
SMRF  004.90 278.4 m E Sn      2013/05/08 19:15:52.4   0.6                          T                 .7  .31 Ml 2.2         5278069
CABF  005.41 307.8 m E Pn      2013/05/08 19:15:05.4   0.4                          T                                        5278064
CABF  005.41 307.8 m E Sn      2013/05/08 19:16:05.1   0.9                          T                 .3  .28 Ml 1.9         5278063
HINF  005.79 320.7 m E Pn      2013/05/08 19:15:10.3   0.2                          T                                        5278062
CDF   006.07 326.5 m E Pn      2013/05/08 19:15:14.2   0.3                          T                                        5278059
CDF   006.07 326.5 m E Sn      2013/05/08 19:16:20.2   0.4                          T                 .6  .33 Ml 2.5         5278058
HAU   006.17 319.6 m E Pn      2013/05/08 19:15:15.0  -0.1                          T                                        5278061
SFTF  006.94 315.6 m E Pn      2013/05/08 19:15:25.2  -0.5                          T                                        5278060
LOR   007.06 305.6 m E Pn      2013/05/08 19:15:27.2  -0.1                          T                                        5278055
LOR   007.06 305.6 m E Sn      2013/05/08 19:16:43.2  -0.2                          T                 .2  .22 Ml 2.3         5278054
SSF   007.17 303.2 m E Pn      2013/05/08 19:15:29.4   0.6                          T                                        5278057
SSF   007.17 303.2 m E Sn      2013/05/08 19:16:45.6  -0.5                          T                 .8  .32 Ml 2.8         5278056

.
EVENT     297734
    Date      Time       Latitude Longitude    Depth    Ndef Nsta Gap    Mag1  N    Mag2  N    Mag3  N   Author         ID
       rms   OT_Error      Smajor Sminor Az        Err   mdist  Mdist     Err        Err        Err      Quality

2013/05/08 19:51:55.6     43.0488    -.2106      2.0      20    4 150  Ml 1.7  2  Md 1.7  3              bulletin    297834
                                                                                                         _ldg
      0.61   +-  0.11       3.0    1.6    5.79 +-  0.0    0.13   1.80   +-0.1      +-0.2                 m i ke

PYRENEES
Sta     Dist  EvAz     Phase      Date       Time     TRes  Azim  AzRes  Slow  SRes Def   SNR       Amp   Per   Mag1   Mag2       ID
ETSF  000.30 239.7 m E Pg      2013/05/08 19:52:01.7   0.2                          T                                        5278032
ETSF  000.30 239.7 m E Sg      2013/05/08 19:52:05.5   0.0                          T                                Md 1.6  5278033
EPF   000.40 092.4 m E Pg      2013/05/08 19:52:03.6   0.1                          T                                        5278031
EPF   000.40 092.4 m E Sg      2013/05/08 19:52:09.0   0.2                          T                                Md 1.6  5278030
SJPF  000.75 275.3 m E Pg      2013/05/08 19:52:09.2  -0.5                          T                                        5278034
SJPF  000.75 275.3 m E Sg      2013/05/08 19:52:19.5   0.0                          T                1.9  .23        Md 2.0  5278029
MTLF  001.80 079.8 m E Pn      2013/05/08 19:52:25.7  -0.3                          T                                        5278036
MTLF  001.80 079.8 m E Sg      2013/05/08 19:52:51.5  -0.8                          T                  1  .28 Ml 1.7         5278035

.
EVENT     297737
    Date      Time       Latitude Longitude    Depth    Ndef Nsta Gap    Mag1  N    Mag2  N    Mag3  N   Author         ID
       rms   OT_Error      Smajor Sminor Az        Err   mdist  Mdist     Err        Err        Err      Quality

2013/05/08 23:17:01.9     43.1157   -1.4274      2.0      31    7 076  Ml 1.8  6  Md 2.1  2              bulletin    297837
                                                                                                         _ldg
      0.87   +-  0.14       2.6    2.5   28.27 +-  0.0    0.12   3.60   +-0.2      +-0.1                 m i ke

PYRENEES
Sta     Dist  EvAz     Phase      Date       Time     TRes  Azim  AzRes  Slow  SRes Def   SNR       Amp   Per   Mag1   Mag2       ID
SJPF  000.15 090.9 m E Pg      2013/05/08 23:17:05.2   0.1                          T                                        5278205
SJPF  000.15 090.9 m E Sg      2013/05/08 23:17:07.3   0.1                          T              105.1  .22        Md 2.0  5278204
ETSF  000.67 108.5 m E Pg      2013/05/08 23:17:14.3  -0.5                          T                                        5278203
ETSF  000.67 108.5 m E Sg      2013/05/08 23:17:23.0  -0.5                          T               10.6  .32        Md 2.1  5278202
EPF   001.30 093.2 m E Pg      2013/05/08 23:17:26.0  -0.2                          T                                        5278201
EPF   001.30 093.2 m E Sg      2013/05/08 23:17:42.5  -0.6                          T                2.5  .22 Ml 2.0         5278200
LFF   002.40 039.9 m E Pn      2013/05/08 23:17:40.6   0.2                          T                                        5278213
LFF   002.40 039.9 m E Sn      2013/05/08 23:18:09.8   1.1                          T                2.4  .36 Ml 2.0         5278212
MTLF  002.67 083.9 m E Pn      2013/05/08 23:17:43.9  -0.2                          T                                        5278218
MTLF  002.67 083.9 m E Sn      2013/05/08 23:18:15.4   0.2                          T                                        5278217
MTLF  002.67 083.9 m E Sg      2013/05/08 23:18:26.0   0.1                          T                 .5  .22 Ml 1.7         5278216
RJF   003.04 043.0 m E Pn      2013/05/08 23:17:49.2   0.0                          T                                        5278211
RJF   003.04 043.0 m E Sn      2013/05/08 23:18:24.6   0.5                          T                 .6  .20 Ml 1.6         5278210
CAF   003.10 053.1 m E Pn      2013/05/08 23:17:50.4   0.4                          T                                        5278215
CAF   003.10 053.1 m E Sn      2013/05/08 23:18:25.6   0.1                          T                 .5  .20 Ml 1.9         5278214

.
EVENT     297738
    Date      Time       Latitude Longitude    Depth    Ndef Nsta Gap    Mag1  N    Mag2  N    Mag3  N   Author         ID
       rms   OT_Error      Smajor Sminor Az        Err   mdist  Mdist     Err        Err        Err      Quality

2013/05/08 23:31:58.6     41.7788    4.2494     36.0 f    26    8 132  Ml 1.8  9                         bulletin    297838
                                                                                                         _ldg
      0.84   +-  0.16       4.5    2.5  169.13 +-  0.0    1.21   3.61   +-0.4                            m i ke

WESTERN MEDITERRANEAN SEA
Sta     Dist  EvAz     Phase      Date       Time     TRes  Azim  AzRes  Slow  SRes Def   SNR       Amp   Per   Mag1   Mag2       ID
MTLF  002.17 316.8 m E Pn      2013/05/08 23:32:31.5  -0.1                          T                                        5289691
MTLF  002.17 316.8 m E P       2013/05/08 23:32:32.9  -0.2                          T                                        5278241
MTLF  002.17 316.8 m E Sn      2013/05/08 23:32:55.6  -0.5                          T                 .3  .17 Ml 1.5         5278240
LASF  002.31 353.0 m E Pn      2013/05/08 23:32:33.4  -0.3                          T                                        5278249
LASF  002.31 353.0 m E Sn      2013/05/08 23:32:58.5  -1.1                          T                 .5  .24 Ml 1.5         5278248
LMR   002.28 046.3 m E Pn      2013/05/08 23:32:33.5   0.4                          T                                        5278239
LMR   002.28 046.3 m E Sn      2013/05/08 23:32:58.2  -0.6                          T                1.4  .21 Ml 2.1         5278238
SMRF  002.40 023.5 m E Pn      2013/05/08 23:32:34.6  -0.3                          T                                        5278247
SMRF  002.40 023.5 m E Sn      2013/05/08 23:33:00.8  -0.9                          T                 .2  .19 Ml 1.3         5278246
FRF   002.51 044.0 m E Pn      2013/05/08 23:32:36.6   0.4                          T                                        5278236
FRF   002.51 044.0 m E Sn      2013/05/08 23:33:04.6   0.4                          T                1.3  .31 Ml 2.0         5278237
SBF   003.14 047.3 m E Pn      2013/05/08 23:32:45.5   0.8                          T                                        5278245
SBF   003.14 047.3 m E Sn      2013/05/08 23:33:20.0   0.8                          T                  1  .25 Ml 2.0         5278244
MBDF  003.48 031.2 m E Pn      2013/05/08 23:32:49.9   0.5                          T                                        5289692
PGF   003.61 076.1 m E Pn      2013/05/08 23:32:50.7  -0.6                          T                                        5278243
PGF   003.61 076.1 m E Sn      2013/05/08 23:33:31.3   0.8                          T                 .6  .23 Ml 2.2         5278242

.
