BEGIN GSE2.0
MSG_TYPE DATA
MSG_ID 22-FEV-1309:02:31  FRA_NDC
E-MAIL
DATA_TYPE BULLETIN
Reviewed Bulletin (REB) # P2013-007  from French NDC for regional phases     PERIOD 13 FEV 2013 TO 19 FEV 2013 Cenalt JP S
EVENT     291995
    Date      Time       Latitude Longitude    Depth    Ndef Nsta Gap    Mag1  N    Mag2  N    Mag3  N   Author         ID
       rms   OT_Error      Smajor Sminor Az        Err   mdist  Mdist     Err        Err        Err      Quality

2013/02/13 02:37:09.1     44.4789    6.6953      6.0 f    37    8 068  Ml 1.6  5  Md 1.6  2              bulletin    292095
                                                                                                         _ldg
      0.23   +-  0.04        .8     .6   65.34 +-  0.0    0.08   1.15   +-0.4      +-0.0                 m i ke

FRANCE
Sta     Dist  EvAz     Phase      Date       Time     TRes  Azim  AzRes  Slow  SRes Def   SNR       Amp   Per   Mag1   Mag2       ID
MBDF  000.25 012.3 m E Pg      2013/02/13 02:37:14.4   0.0                          T                                        5195653
MBDF  000.25 012.3 m E Sg      2013/02/13 02:37:17.9  -0.1                          T                5.3  .20        Md 1.7  5195651
ORIF  000.73 307.4 m E Pg      2013/02/13 02:37:22.8  -0.2                          T                                        5195652
ORIF  000.73 307.4 m E Sg      2013/02/13 02:37:32.5   0.0                          T                2.2  .20        Md 1.6  5195650
SBF   000.81 138.9 m E Pg      2013/02/13 02:37:24.6   0.1                          T                                        5195691
SBF   000.81 138.9 m E Sg      2013/02/13 02:37:35.3   0.1                          T                1.4  .20                5195690
FRF   000.92 182.2 m E Pg      2013/02/13 02:37:26.8   0.4                          T                                        5195645
FRF   000.92 182.2 m E Sg      2013/02/13 02:37:40.1   1.7                          T                4.0  .22 Ml 2.1         5195646
SMRF  000.95 238.4 m E Pg      2013/02/13 02:37:27.1   0.2                          T                                        5201301
SMRF  000.95 238.4 m E Sg      2013/02/13 02:37:39.6   0.2                          T                2.1  .24 Ml 1.7         5201300
LPL   001.04 001.4 m E Pg      2013/02/13 02:37:28.9   0.0                          T                                        5195649
LPL   001.04 001.4 m E Sg      2013/02/13 02:37:42.3  -0.1                          T                 .5  .23 Ml 1.2         5201302
LPG   001.02 002.2 m E Pg      2013/02/13 02:37:29.9   1.3                          T                                        5195648
LPG   001.02 002.2 m E Sg      2013/02/13 02:37:41.7  -0.2                          T                 .5  .21 Ml 1.2         5195647
LMR   001.15 186.8 m E Pg      2013/02/13 02:37:30.9   0.2                          T                                        5195693
LMR   001.15 186.8 m E Sg      2013/02/13 02:37:45.9   0.3                          T                1.2  .21 Ml 1.7         5195692

.
EVENT     292076
    Date      Time       Latitude Longitude    Depth    Ndef Nsta Gap    Mag1  N    Mag2  N    Mag3  N   Author         ID
       rms   OT_Error      Smajor Sminor Az        Err   mdist  Mdist     Err        Err        Err      Quality

2013/02/13 03:31:39.3     44.7669    7.1869     10.0 f    23    6 124  Ml 1.4  4  Md 1.4  3              bulletin    292176
                                                                                                         _ldg
      0.17   +-  0.03        .7     .5   80.33 +-  0.0    0.09   1.51   +-0.3      +-0.0                 m i ke

NORTHERN ITALY
Sta     Dist  EvAz     Phase      Date       Time     TRes  Azim  AzRes  Slow  SRes Def   SNR       Amp   Per   Mag1   Mag2       ID
MBDF  000.30 262.5 m E Pg      2013/02/13 03:31:45.6   0.1                          T                                        5196590
MBDF  000.30 262.5 m E Sg      2013/02/13 03:31:49.8   0.1                          T                4.5  .22        Md 1.4  5196596
LPG   000.79 337.3 m E Pg      2013/02/13 03:31:54.6  -0.1                          T                                        5196587
LPG   000.79 337.3 m E Sg      2013/02/13 03:32:05.0  -0.1                          T                 .7  .22        Md 1.4  5196594
LPL   000.82 336.9 m E Pg      2013/02/13 03:31:54.8  -0.2                          T                                        5196588
LPL   000.82 336.9 m E Sg      2013/02/13 03:32:05.6  -0.1                          T                 .5  .24        Md 1.4  5196595
ORIF  000.94 279.7 m E Pg      2013/02/13 03:31:57.2   0.0                          T                                        5196598
ORIF  000.94 279.7 m E Sg      2013/02/13 03:32:09.4   0.0                          T                 .5  .22 Ml 1.2         5196597
FRF   001.27 198.1 m E Pg      2013/02/13 03:32:03.0   0.1                          T                                        5196589
FRF   001.27 198.1 m E Sg      2013/02/13 03:32:19.6   0.2                          T                 .5  .16 Ml 1.5         5196593
LMR   001.51 199.1 m E Sg      2013/02/13 03:32:27.3   0.2                          T                 .9  .19 Ml 1.7         5201303

.
EVENT     292070
    Date      Time       Latitude Longitude    Depth    Ndef Nsta Gap    Mag1  N    Mag2  N    Mag3  N   Author         ID
       rms   OT_Error      Smajor Sminor Az        Err   mdist  Mdist     Err        Err        Err      Quality

2013/02/13 15:18:00.9     42.4388    1.4132      4.0 f    39    4 057  Ml 2.0  4  Md 1.9  2              bulletin    292170
                                                                                                         _ldg
      0.62   +-  0.08       1.7    1.3    8.63 +-  0.0    0.10   2.29   +-0.2      +-0.0                 m i ke

PYRENEES
Sta     Dist  EvAz     Phase      Date       Time     TRes  Azim  AzRes  Slow  SRes Def   SNR       Amp   Per   Mag1   Mag2       ID
EPF   000.99 307.1 m E Pg      2013/02/13 15:18:19.0  -0.4                          T                                        5196441
EPF   000.99 307.1 m E Sg      2013/02/13 15:18:31.3  -1.0                          T                3.9  .19 Ml 2.1 Md 2.0  5196438
MTLF  001.08 033.0 m E Pg      2013/02/13 15:18:21.0   0.0                          T                                        5196442
MTLF  001.08 033.0 m E Sg      2013/02/13 15:18:34.9  -0.2                          T                1.6  .20 Ml 1.7 Md 1.9  5196437
ETSF  001.53 288.2 m E Pn      2013/02/13 15:18:27.3   0.0                          T                                        5196439
ETSF  001.53 288.2 m E Sn      2013/02/13 15:18:46.3  -0.1                          T                                        5196440
ETSF  001.53 288.2 m E Sg      2013/02/13 15:18:49.1   0.0                          T                4.4  .26 Ml 2.3         5196443
SJPF  002.06 290.0 m E Pn      2013/02/13 15:18:34.7   0.2                          T                                        5196451
SJPF  002.06 290.0 m E Pg      2013/02/13 15:18:39.2   0.1                          T                                        5196450
SJPF  002.06 290.0 m E Sn      2013/02/13 15:18:58.7  -0.3                          T                                        5196449
SJPF  002.06 290.0 m E Sg      2013/02/13 15:19:05.6   0.0                          T                1.0  .23 Ml 1.9         5196448

.
EVENT     292075
    Date      Time       Latitude Longitude    Depth    Ndef Nsta Gap    Mag1  N    Mag2  N    Mag3  N   Author         ID
       rms   OT_Error      Smajor Sminor Az        Err   mdist  Mdist     Err        Err        Err      Quality

2013/02/13 17:22:13.8     41.2125   -8.4537     10.0 f    91    3 151  Ml 3.1  3                         bulletin    292175
                                                                                                         _ldg
      0.61   +-  0.09       2.1    1.2   92.02 +-  0.0    0.52   6.79   +-0.2                            m i ke

PORTUGAL
Sta     Dist  EvAz     Phase      Date       Time     TRes  Azim  AzRes  Slow  SRes Def   SNR       Amp   Per   Mag1   Mag2       ID
SJPF  005.70 068.1 m E Pn      2013/02/13 17:23:36.6   0.3                          T                                        5196564
SJPF  005.70 068.1 m E Sn      2013/02/13 17:24:38.0   0.1                          T                1.6  .21 Ml 2.9         5196561
ETSF  006.11 071.4 m E Pn      2013/02/13 17:23:42.3   0.2                          T                                        5196563
ETSF  006.11 071.4 m E P       2013/02/13 17:23:46.2  -0.6                          T                                        5201304
ETSF  006.11 071.4 m E Sn      2013/02/13 17:24:48.0   0.1                          T                2.3  .24 Ml 3.1         5196560
EPF   006.79 071.6 m E Pn      2013/02/13 17:23:51.4   0.2                          T                                        5196562
EPF   006.79 071.6 m E P       2013/02/13 17:23:55.9  -0.3                          T                                        5201305
EPF   006.79 071.6 m E Sn      2013/02/13 17:25:04.3   0.3                          T                4.2  .35 Ml 3.3         5196559

.
EVENT     292077
    Date      Time       Latitude Longitude    Depth    Ndef Nsta Gap    Mag1  N    Mag2  N    Mag3  N   Author         ID
       rms   OT_Error      Smajor Sminor Az        Err   mdist  Mdist     Err        Err        Err      Quality

2013/02/13 19:20:54.1     42.4807     .8089      7.0 f    44    4 090  Ml 2.2  4  Md 2.2  2              bulletin    292177
                                                                                                         _ldg
      0.42   +-  0.05       1.2     .8   30.30 +-  0.0    0.16   1.86   +-0.1      +-0.0                 m i ke

PYRENEES
Sta     Dist  EvAz     Phase      Date       Time     TRes  Azim  AzRes  Slow  SRes Def   SNR       Amp   Per   Mag1   Mag2       ID
EPF   000.65 328.0 m E Pg      2013/02/13 19:21:06.3  -0.3                          T                                        5196629
EPF   000.65 328.0 m E Sg      2013/02/13 19:21:15.0  -0.1                          T               14.8  .22        Md 2.2  5196635
ETSF  001.09 293.0 m E Pg      2013/02/13 19:21:14.4  -0.3                          T                                        5196628
ETSF  001.09 293.0 m E Sg      2013/02/13 19:21:28.2  -0.7                          T                5.2  .24 Ml 2.2 Md 2.2  5196630
MTLF  001.35 049.8 m E Pn      2013/02/13 19:21:17.7   0.0                          T                                        5196627
MTLF  001.35 049.8 m E Pg      2013/02/13 19:21:19.6   0.3                          T                                        5201306
MTLF  001.35 049.8 m E Sn      2013/02/13 19:21:34.8   0.1                          T                                        5196636
MTLF  001.35 049.8 m E Sg      2013/02/13 19:21:36.7   0.1                          T                2.3  .20 Ml 2.0         5196637
SJPF  001.63 293.6 m E Pn      2013/02/13 19:21:21.6   0.1                          T                                        5196631
SJPF  001.63 293.6 m E Pg      2013/02/13 19:21:24.4   0.0                          T                                        5196632
SJPF  001.63 293.6 m E Sn      2013/02/13 19:21:41.5   0.0                          T                                        5196633
SJPF  001.63 293.6 m E Sg      2013/02/13 19:21:45.5   0.1                          T                3.0  .17 Ml 2.3         5196634

.
EVENT     292084
    Date      Time       Latitude Longitude    Depth    Ndef Nsta Gap    Mag1  N    Mag2  N    Mag3  N   Author         ID
       rms   OT_Error      Smajor Sminor Az        Err   mdist  Mdist     Err        Err        Err      Quality

2013/02/13 19:22:05.8     42.4796     .7942     10.0 f    13    3 143  Ml 1.4  2  Md 1.4  2              bulletin    292184
                                                                                                         _ldg
      0.20   +-  0.05       2.2     .7   36.52 +-  0.0    0.27   1.62   +-0.2      +-0.0                 m i ke

PYRENEES
Sta     Dist  EvAz     Phase      Date       Time     TRes  Azim  AzRes  Slow  SRes Def   SNR       Amp   Per   Mag1   Mag2       ID
EPF   000.64 328.9 m E Pg      2013/02/13 19:22:18.3   0.1                          T                                        5198184
EPF   000.64 328.9 m E Sg      2013/02/13 19:22:26.8   0.1                          T                1.1  .15        Md 1.4  5198183
ETSF  001.08 293.2 m E Pg      2013/02/13 19:22:26.4   0.1                          T                                        5198181
ETSF  001.08 293.2 m E Sg      2013/02/13 19:22:40.4   0.1                          T                 .4  .16 Ml 1.3 Md 1.4  5198182
SJPF  001.62 293.8 m E Pg      2013/02/13 19:22:35.7  -0.3                          T                                        5198180
SJPF  001.62 293.8 m E Sg      2013/02/13 19:22:56.9   0.0                          T                 .7  .22 Ml 1.6         5198179

.
EVENT     292078
    Date      Time       Latitude Longitude    Depth    Ndef Nsta Gap    Mag1  N    Mag2  N    Mag3  N   Author         ID
       rms   OT_Error      Smajor Sminor Az        Err   mdist  Mdist     Err        Err        Err      Quality

2013/02/13 22:31:32.6     46.0067    2.9635      2.0      18    9 089  Ml 1.5  6  Md 1.5  2              bulletin    292178
                                                                                                         _ldg
      0.25   +-  0.06       1.2     .9  117.75 +-  0.0    0.17   1.67   +-0.2      +-0.1                 m i ke

FRANCE
Sta     Dist  EvAz     Phase      Date       Time     TRes  Azim  AzRes  Slow  SRes Def   SNR       Amp   Per   Mag1   Mag2       ID
BGF   000.56 351.7 m E Pg      2013/02/13 22:31:43.1  -0.1                          T                                        5196644
BGF   000.56 351.7 m E Sg      2013/02/13 22:31:50.3  -0.2                          T                5.1  .36                5196643
TCF   000.59 298.5 m E Pg      2013/02/13 22:31:43.6  -0.2                          T                                        5196649
TCF   000.59 298.5 m E Sg      2013/02/13 22:31:51.4  -0.3                          T                 .5  .14        Md 1.4  5196650
AVF   000.83 018.8 m E Pg      2013/02/13 22:31:48.6   0.5                          T                                        5196646
AVF   000.83 018.8 m E Sg      2013/02/13 22:31:58.5  -0.5                          T                 .5  .16                5196641
SMF   000.88 043.3 m E Pg      2013/02/13 22:31:49.0  -0.1                          T                                        5196645
SMF   000.88 043.3 m E Sg      2013/02/13 22:32:00.8   0.2                          T                1.2  .21 Ml 1.5         5196642
SSF   001.12 019.3 m E Pg      2013/02/13 22:31:53.5   0.0                          T                                        5201074
SSF   001.12 019.3 m E Sg      2013/02/13 22:32:07.4  -0.6                          T                1.4  .29 Ml 1.7         5201077
RJF   001.23 235.8 m E Pg      2013/02/13 22:31:55.7   0.1                          T                                        5196648
RJF   001.23 235.8 m E Sg      2013/02/13 22:32:11.2  -0.4                          T                  1  .25 Ml 1.2         5196647
CAF   001.25 210.7 m E Pg      2013/02/13 22:31:55.9  -0.1                          T                                        5201078
CAF   001.25 210.7 m E Sg      2013/02/13 22:32:12.1  -0.1                          T                 .8  .20 Ml 1.5         5201079
LOR   001.40 025.7 m E Pg      2013/02/13 22:31:58.8   0.0                          T                                        5201075
LOR   001.40 025.7 m E Sg      2013/02/13 22:32:17.1   0.1                          T                 .6  .21 Ml 1.5         5201076
VIVF  001.67 133.1 m E Pg      2013/02/13 22:32:03.4  -0.2                          T                                        5201308
VIVF  001.67 133.1 m E Sg      2013/02/13 22:32:25.3   0.2                          T                 .8  .27 Ml 1.6         5201307

.
EVENT     292086
    Date      Time       Latitude Longitude    Depth    Ndef Nsta Gap    Mag1  N    Mag2  N    Mag3  N   Author         ID
       rms   OT_Error      Smajor Sminor Az        Err   mdist  Mdist     Err        Err        Err      Quality

2013/02/14 00:29:16.9     42.6634   -1.7532      2.0      18    3 205  Ml 1.5  2  Md 1.4  2              bulletin    292186
                                                                                                         _ldg
      0.31   +-  0.15       3.6    1.7    1.53 +-  0.0    0.17   1.58   +-0.3      +-0.1                 m i ke

PYRENEES
Sta     Dist  EvAz     Phase      Date       Time     TRes  Azim  AzRes  Slow  SRes Def   SNR       Amp   Per   Mag1   Mag2       ID
SJPF  000.59 040.6 m E Pg      2013/02/14 00:29:28.2   0.0                          T                                        5197258
SJPF  000.59 040.6 m E Sg      2013/02/14 00:29:35.7  -0.2                          T                3.1  .27        Md 1.5  5197256
ETSF  000.91 074.6 m E Pg      2013/02/14 00:29:34.2   0.1                          T                                        5197257
ETSF  000.91 074.6 m E Sg      2013/02/14 00:29:45.9   0.0                          T                 .9  .28 Ml 1.3 Md 1.4  5197255
EPF   001.58 075.9 m E Pg      2013/02/14 00:29:46.4   0.0                          T                                        5197254
EPF   001.58 075.9 m E Sg      2013/02/14 00:30:06.7  -0.1                          T                1.1  .29 Ml 1.6         5197253

.
