EVENT     259214
    Date      Time       Latitude Longitude    Depth    Ndef Nsta Gap    Mag1  N    Mag2  N    Mag3  N   Author         ID
       rms   OT_Error      Smajor Sminor Az        Err   mdist  Mdist     Err        Err        Err      Quality

2011/05/11 23:23:34.1     33.5752  -12.1309      5.0 f   153   39 082  Ml 4.5 14                         bulletin    259214
                                                                                                         _ldg
      0.89   +-  0.22       8.3    5.1  113.24 +-  0.0    3.56  82.06   +-0.3                            m i ke

MADEIRA ISLANDS,PORTUGAL REG
Sta     Dist  EvAz     Phase      Date       Time     TRes  Azim  AzRes  Slow  SRes Def   SNR       Amp   Per   Mag1   Mag2       ID
SJPF  012.79 038.7 m E Pn      2011/05/11 23:26:36.2   2.5                          T                                        4689842
SJPF  012.79 038.7 m E Sn      2011/05/11 23:28:48.3  -0.3                          T               37.4  .76 Ml 4.7         4689876
ETSF  013.00 040.9 m E Pn      2011/05/11 23:26:39.2   2.6                          T                                        4689841
ETSF  013.00 040.9 m E Sn      2011/05/11 23:28:53.7   0.0                          T               10.2  .50 Ml 4.4         4689875
EPF   013.59 042.4 m E Pn      2011/05/11 23:26:46.7   2.1                          T                                        4689840
EPF   013.59 042.4 m E Sn      2011/05/11 23:29:07.6  -0.1                          T               17.4  .43 Ml 4.7         4689874
MTLF  014.86 044.8 m E Pn      2011/05/11 23:27:04.8   2.9                          T                                        4689839
MTLF  014.86 044.8 m E Sn      2011/05/11 23:29:37.9   0.0                          T                3.9  .62 Ml 3.8         4689873
LFF   015.08 037.4 m E Pn      2011/05/11 23:27:05.8   0.9                          T                                        4689835
LFF   015.08 037.4 m E Sn      2011/05/11 23:29:42.8  -0.4                          T                9.5  .70 Ml 4.0         4689878
RJF   015.73 037.9 m E Pn      2011/05/11 23:27:14.4   0.7                          T                                        4689834
RJF   015.73 037.9 m E Sn      2011/05/11 23:29:58.4  -0.4                          T               25.8  .88 Ml 4.2         4689880
CAF   015.76 039.9 m E Pn      2011/05/11 23:27:14.5   0.3                          T                                        4689836
CAF   015.76 039.9 m E Sn      2011/05/11 23:29:59.5  -0.1                          T                 10  .64 Ml 4.2         4689877
QUIF  015.84 022.6 m E Pn      2011/05/11 23:27:15.1   0.0                          T                                        4689831
MFF   015.89 031.5 m E Pn      2011/05/11 23:27:17.6   1.7                          T                                        4689833
MFF   015.89 031.5 m E Sn      2011/05/11 23:30:02.0  -0.7                          T               10.5  .82 Ml 4.3         4689879
ROSF  016.17 021.6 m E Pn      2011/05/11 23:27:19.5  -0.2                          T                                        4689828
ROSF  016.17 021.6 m E Sn      2011/05/11 23:30:07.1  -2.3                          T              113.4 1.52 Ml 4.9         4689882
SGMF  016.33 023.3 m E Pn      2011/05/11 23:27:21.6  -0.2                          T                                        4689829
LASF  016.26 045.2 m E Pn      2011/05/11 23:27:23.4   2.5                          T                                        4689838
GRR   017.04 026.4 m E Pn      2011/05/11 23:27:32.0   0.5                          T                                        4689881
SMRF  017.24 047.8 m E Pn      2011/05/11 23:27:33.8  -0.5                          T                                        4689868
LMR   017.52 050.8 m E Pn      2011/05/11 23:27:34.4  -3.6                          T                                        4689866
BGF   017.27 036.9 m E Pn      2011/05/11 23:27:34.7   0.0                          T                                        4689826
BGF   017.27 036.9 m E Sn      2011/05/11 23:30:30.2  -5.3                          T               28.5  .88 Ml 4.6         4689884
VIVF  017.18 044.1 m E Pn      2011/05/11 23:27:35.4   1.9                          T                                        4689837
FLN   017.49 026.4 m E Pn      2011/05/11 23:27:37.8   0.1                          T                                        4689830
LDF   017.49 027.4 m E Pn      2011/05/11 23:27:38.9   1.3                          T                                        4689832
FRF   017.71 050.3 m E Pn      2011/05/11 23:27:39.9  -0.8                          T                                        4689867
AVF   017.68 037.2 m E Pn      2011/05/11 23:27:40.5   0.2                          T                                        4689824
SMF   017.83 038.2 m E Pn      2011/05/11 23:27:43.3   1.0                          T                                        4689825
ORIF  017.93 045.5 m E Pn      2011/05/11 23:27:44.4   0.7                          T                                        4689871
SSF   017.94 036.7 m E Pn      2011/05/11 23:27:46.5   2.6                          T                                        4689814
LOR   018.26 036.8 m E Pn      2011/05/11 23:27:48.9  -1.1                          T                                        4689813
SBF   018.36 050.3 m E Pn      2011/05/11 23:27:49.8  -1.4                          T                                        4689865
MBDF  018.36 047.1 m E Pn      2011/05/11 23:27:51.2  -0.2                          T                                        4689872
LPG   018.76 045.1 m E Pn      2011/05/11 23:27:56.5   0.2                          T                                        4689869
PGF   018.86 055.5 m E Pn      2011/05/11 23:27:56.5  -0.8                          T                                        4689864
LPL   018.76 045.0 m E Pn      2011/05/11 23:27:56.7   0.5                          T                                        4689870
CABF  019.01 041.4 m E Pn      2011/05/11 23:27:58.5  -0.6                          T                                        4689823
SFTF  019.48 036.3 m E Pn      2011/05/11 23:28:03.2  -1.1                          T                                        4689820
MEZF  019.69 035.7 m E Pn      2011/05/11 23:28:08.8   2.1                          T                                        4689819
HAU   020.01 038.5 m E Pn      2011/05/11 23:28:10.4   0.0                          T                                        4689821
PAGF  020.06 036.4 m E Pn      2011/05/11 23:28:10.7  -0.1                          T                                        4689818
HINF  020.16 039.5 m E Pn      2011/05/11 23:28:11.1  -0.9                          T                                        4689822
BAIF  020.41 031.3 m E Pn      2011/05/11 23:28:13.6  -1.0                          T                                        4689816
CDF   020.75 038.7 m E Pn      2011/05/11 23:28:16.6  -1.8                          T                                        4689817
GIVF  020.71 032.1 m E Pn      2011/05/11 23:28:16.6  -1.2                          T                                        4689815

.
EVENT     259207
    Date      Time       Latitude Longitude    Depth    Ndef Nsta Gap    Mag1  N    Mag2  N    Mag3  N   Author         ID
       rms   OT_Error      Smajor Sminor Az        Err   mdist  Mdist     Err        Err        Err      Quality

2011/05/12 04:45:46.1     42.8213   -1.2156      2.0      33    4 078  Ml 1.7  2  Md 1.8  2              js067245    259207

      0.25   +-  0.04       1.0     .8   38.22 +-  0.0    0.03   2.57   +-0.3      +-0.1                 m i ke

PYRENEES
Sta     Dist  EvAz     Phase      Date       Time     TRes  Azim  AzRes  Slow  SRes Def   SNR       Amp   Per   Mag1   Mag2       ID
SJPF  000.29 358.7 m E Pg      2011/05/12 04:45:51.9   0.0                          T                                        4689892
SJPF  000.29 358.7 m E Sg      2011/05/12 04:45:55.8   0.1                          T               28.7  .42        Md 1.9  4689889
ETSF  000.49 080.7 m E Pg      2011/05/12 04:45:55.7   0.1                          T                                        4689891
ETSF  000.49 080.7 m E Sg      2011/05/12 04:46:02.3   0.3                          T                5.7  .32        Md 1.7  4689890
EPF   001.16 079.1 m E Pg      2011/05/12 04:46:07.7  -0.2                          T                                        4689887
EPF   001.16 079.1 m E Sg      2011/05/12 04:46:22.8  -0.1                          T                4.0  .37 Ml 1.9         4689888
MTLF  002.57 077.2 m E Pn      2011/05/12 04:46:26.8   0.0                          T                                        4689886
MTLF  002.57 077.2 m E Sg      2011/05/12 04:47:06.6  -0.2                          T                 .4  .28 Ml 1.5         4689885

.
EVENT     259238
    Date      Time       Latitude Longitude    Depth    Ndef Nsta Gap    Mag1  N    Mag2  N    Mag3  N   Author         ID
       rms   OT_Error      Smajor Sminor Az        Err   mdist  Mdist     Err        Err        Err      Quality

2011/05/12 06:14:26.8     43.3754   -1.1878      2.0      16    3 254  Ml 1.5  1  Md 1.6  2              js067245    259238

      0.23   +-  0.21       3.5    1.6  154.10 +-  0.0    0.26   1.17   +-         +-0.0                 m i ke

PYRENEES
Sta     Dist  EvAz     Phase      Date       Time     TRes  Azim  AzRes  Slow  SRes Def   SNR       Amp   Per   Mag1   Mag2       ID
SJPF  000.26 185.9 m E Pg      2011/05/12 06:14:32.2   0.1                          T                                        4690367
SJPF  000.26 185.9 m E Sg      2011/05/12 06:14:35.5  -0.2                          T                9.6  .29        Md 1.6  4690366
ETSF  000.66 135.8 m E Pg      2011/05/12 06:14:39.2  -0.2                          T                                        4690364
ETSF  000.66 135.8 m E Sg      2011/05/12 06:14:47.9  -0.2                          T                2.2  .29        Md 1.6  4690365
EPF   001.17 106.6 m E Pg      2011/05/12 06:14:48.8   0.0                          T                                        4690363
EPF   001.17 106.6 m E Sg      2011/05/12 06:15:03.9   0.0                          T                 .9  .23 Ml 1.5         4690360

.
EVENT     259579
    Date      Time       Latitude Longitude    Depth    Ndef Nsta Gap    Mag1  N    Mag2  N    Mag3  N   Author         ID
       rms   OT_Error      Smajor Sminor Az        Err   mdist  Mdist     Err        Err        Err      Quality

2011/05/12 08:15:18.9     41.1803    1.7072     17.1      21    5 236  Ml 1.9  4                         js067245    259579

      0.31   +-  0.16       2.8    1.5  178.09 +-  1.0    0.19   3.75   +-0.2                            m i ke

SPAIN
Sta     Dist  EvAz     Phase      Date       Time     TRes  Azim  AzRes  Slow  SRes Def   SNR       Amp   Per   Mag1   Mag2       ID
EPF   002.11 331.6 m E Pn      2011/05/12 08:15:52.0   0.1                          T                                        4701083
EPF   002.11 331.6 m E Pg      2011/05/12 08:15:58.1  -0.2                          T                                        4701082
EPF   002.11 331.6 m E Sg      2011/05/12 08:16:25.7   0.2                          T                1.7  .23 Ml 2.1         4701078
MTLF  002.19 009.8 m E Pn      2011/05/12 08:15:52.9   0.0                          T                                        4701081
MTLF  002.19 009.8 m E Pg      2011/05/12 08:15:59.5  -0.2                          T                                        4701080
MTLF  002.19 009.8 m E Sg      2011/05/12 08:16:28.0   0.0                          T                 .7  .20 Ml 1.8         4701077
CAF   003.75 003.9 m E P       2011/05/12 08:16:17.9   0.2                          T                                        4701079
ETSF  002.41 316.2 m E Sg      2011/05/12 08:16:35.1   0.3                          T                 .7  .23 Ml 1.8         4701076
LASF  003.30 028.0 m E Sg      2011/05/12 08:17:02.8   0.2                          T                 .5  .24 Ml 1.8         4701075

.
