BEGIN GSE2.0
MSG_TYPE DATA
MSG_ID 05-FEV-1314:41:55  FRA_NDC
E-MAIL
DATA_TYPE BULLETIN
Reviewed Bulletin (REB) # P2013-003  from French NDC for regional phases     PERIOD 16 JAN 2013 TO 22 JAN 2013 Cenalt JP S
EVENT     290362
    Date      Time       Latitude Longitude    Depth    Ndef Nsta Gap    Mag1  N    Mag2  N    Mag3  N   Author         ID
       rms   OT_Error      Smajor Sminor Az        Err   mdist  Mdist     Err        Err        Err      Quality

2013/01/16 00:14:35.6     46.1891    7.6765      2.0      77   19 046  Ml 2.4 21  Md 2.3  2              bulletin    290462
                                                                                                         _ldg
      0.53   +-  0.04       1.0     .7   99.29 +-  0.0    0.06   3.36   +-0.2      +-0.0                 m i ke

SWITZERLAND
Sta     Dist  EvAz     Phase      Date       Time     TRes  Azim  AzRes  Slow  SRes Def   SNR       Amp   Per   Mag1   Mag2       ID
LPG   000.95 223.4 m E Pg      2013/01/16 00:14:53.2  -0.5                          T   001.0                                5168761
LPG   000.95 223.4 m E Sg      2013/01/16 00:15:05.9  -0.2                          T   001.0       10.7  .23 Ml 2.5 Md 2.3  5168762
LPL   000.94 224.8 m E Pg      2013/01/16 00:14:53.4  -0.2                          T                                        5168804
LPL   000.94 224.8 m E Sg      2013/01/16 00:15:06.1   0.3                          T   001.0       21.2  .40 Ml 2.5 Md 2.4  5168763
CABF  001.18 291.6 m E Pn      2013/01/16 00:14:58.2   0.7                          T   001.0                                5168771
CABF  001.18 291.6 m E Sg      2013/01/16 00:15:13.2   0.2                          T   001.0        8.4  .28 Ml 2.4         5168772
MBDF  001.60 203.9 m E Pg      2013/01/16 00:15:05.5   0.0                          T   001.0                                5168775
MBDF  001.60 203.9 m E Sn      2013/01/16 00:15:23.7   0.4                          T                                        5168797
MBDF  001.60 203.9 m E Sg      2013/01/16 00:15:27.0   0.9                          T                3.5  .26 Ml 2.2         5168796
HINF  001.72 341.2 m E Pn      2013/01/16 00:15:05.7   0.8                          T   001.0                                5168773
HINF  001.72 341.2 m E Sn      2013/01/16 00:15:26.3   0.1                          T   001.0        9.8  .24 Ml 2.7         5168774
HINF  001.72 341.2 m E Sg      2013/01/16 00:15:30.4   0.4                          T               10.8  .26 Ml 2.8         5168805
HAU   002.03 333.9 m E Pn      2013/01/16 00:15:09.1   0.0                          T   001.0                                5168756
HAU   002.03 333.9 m E Pg      2013/01/16 00:15:13.5   0.1                          T                                        5168806
HAU   002.03 333.9 m E Sn      2013/01/16 00:15:33.2  -0.3                          T                                        5168793
HAU   002.03 333.9 m E Sg      2013/01/16 00:15:39.0  -0.5                          T   001.0        6.7  .20 Ml 2.5         5168757
ORIF  001.79 225.4 m E Pg      2013/01/16 00:15:09.1   0.1                          T                                        5168802
ORIF  001.79 225.4 m E Sg      2013/01/16 00:15:32.7   0.5                          T   001.0        5.6  .27 Ml 2.5         5168778
CDF   002.24 353.2 m E Pn      2013/01/16 00:15:12.0   0.0                          T   001.0                                5168752
CDF   002.24 353.2 m E Pg      2013/01/16 00:15:17.2  -0.1                          T                                        5168809
CDF   002.24 353.2 m E Sn      2013/01/16 00:15:38.2  -0.4                          T   001.0          3  .24 Ml 2.5         5168753
CDF   002.24 353.2 m E Sg      2013/01/16 00:15:45.6  -0.6                          T                3.1  .24 Ml 2.5         5168788
SBF   002.33 184.3 m E Pn      2013/01/16 00:15:13.7   0.4                          T   001.0                                5168764
VIVF  002.50 238.8 m E Pn      2013/01/16 00:15:16.6   1.2                          T   001.0                                5168779
VIVF  002.50 238.8 m E Pg      2013/01/16 00:15:21.7  -0.2                          T                                        5168799
VIVF  002.50 238.8 m E Sn      2013/01/16 00:15:44.7   0.0                          T                                        5168800
VIVF  002.50 238.8 m E Sg      2013/01/16 00:15:54.3   0.2                          T                3.4  .30 Ml 2.4         5168801
SMF   002.69 281.1 m E Pn      2013/01/16 00:15:17.9  -0.1                          T   001.0                                5168765
SMF   002.69 281.1 m E Sn      2013/01/16 00:15:49.3   0.0                          T                                        5168794
SMF   002.69 281.1 m E Sg      2013/01/16 00:16:00.0  -0.1                          T                1.5  .18 Ml 2.3         5168795
SFTF  002.70 319.2 m E Pn      2013/01/16 00:15:18.3   0.1                          T                                        5168792
SFTF  002.70 319.2 m E Pg      2013/01/16 00:15:25.5  -0.3 139.7  2.4               T                                        5168808
SFTF  002.70 319.2 m E Sn      2013/01/16 00:15:48.8  -0.7                          T                                        5168807
SFTF  002.70 319.2 m E Sg      2013/01/16 00:16:00.1  -0.4                          T                5.0  .35 Ml 2.5         5168791
MEZF  002.92 323.3 m E Pn      2013/01/16 00:15:21.1  -0.1 143.5  2.1               T   001.0                                5168776
MEZF  002.92 323.3 m E Sn      2013/01/16 00:15:54.0  -0.8                          T                                        5168790
MEZF  002.92 323.3 m E Sg      2013/01/16 00:16:07.0  -0.3                          T                3.2  .28 Ml 2.5         5168789
THEF  002.34 331.3 m E Pg      2013/01/16 00:15:21.3   2.2                          T                                        5169941
LOR   002.84 293.7 m E Pn      2013/01/16 00:15:21.7   1.6                          T   001.0                                5168759
LOR   002.84 293.7 m E Sg      2013/01/16 00:16:04.5  -0.2 119.4  8.4               T   001.0        1.8  .22 Ml 2.3         5168760
SSF   003.00 288.4 m E Pn      2013/01/16 00:15:22.0  -0.3                          T   001.0                                5168766
SSF   003.00 288.4 m E Pg      2013/01/16 00:15:31.3   0.0                          T                                        5168787
SSF   003.00 288.4 m E Sn      2013/01/16 00:15:56.6  -0.2                          T   001.0                                5168767
SSF   003.00 288.4 m E Sg      2013/01/16 00:16:09.5  -0.3                          T   001.0        1.6  .27 Ml 2.3         5168768
AVF   003.05 282.9 m E Pn      2013/01/16 00:15:22.9   0.1                          T   001.0                                5168748
AVF   003.05 282.9 m E Sn      2013/01/16 00:15:57.6  -0.2                          T   001.0         .4  .18 Ml 1.8         5168749
FRF   002.73 195.9 m E Pg      2013/01/16 00:15:26.3   0.1                          T                                        5168803
FRF   002.73 195.9 m E Sn      2013/01/16 00:15:50.9   0.7                          T   001.0        7.8  .76 Ml 2.4         5168755
FRF   002.73 195.9 m E Sg      2013/01/16 00:16:01.9   0.7                          T                 .9  .19 Ml 2.1         5168798
BGF   003.36 278.0 m E Pn      2013/01/16 00:15:29.3   2.1                          T   001.0                                5168751

.
EVENT     290363
    Date      Time       Latitude Longitude    Depth    Ndef Nsta Gap    Mag1  N    Mag2  N    Mag3  N   Author         ID
       rms   OT_Error      Smajor Sminor Az        Err   mdist  Mdist     Err        Err        Err      Quality

2013/01/16 00:39:14.2     43.0441    -.2284      2.0 f    50    8 078  Ml 2.4  7  Md 2.4  2              bulletin    290463
                                                                                                         _ldg
      0.54   +-  0.06       1.4    1.0   17.32 +-  0.0    0.12   4.14   +-0.3      +-0.0                 m i ke

PYRENEES
Sta     Dist  EvAz     Phase      Date       Time     TRes  Azim  AzRes  Slow  SRes Def   SNR       Amp   Per   Mag1   Mag2       ID
EPF   000.42 091.7 m E Pg      2013/01/16 00:39:22.0  -0.2                          T                                        5168858
EPF   000.42 091.7 m E Sg      2013/01/16 00:39:27.7   0.0                          T               17.8  .20        Md 2.4  5168857
SJPF  000.73 275.8 m E Pg      2013/01/16 00:39:27.6  -0.5                          T                                        5168855
SJPF  000.73 275.8 m E Sg      2013/01/16 00:39:37.2  -0.4                          T                4.9  .19        Md 2.5  5168856
MTLF  001.81 079.7 m E Pn      2013/01/16 00:39:44.2  -0.4                          T                                        5168834
MTLF  001.81 079.7 m E Pg      2013/01/16 00:39:47.6  -0.3                          T                                        5168854
MTLF  001.81 079.7 m E Sn      2013/01/16 00:40:06.4  -0.5                          T                                        5168835
MTLF  001.81 079.7 m E Sg      2013/01/16 00:40:11.0  -0.2                          T                3.2  .22 Ml 2.3         5168853
LFF   002.02 019.9 m E Pn      2013/01/16 00:39:47.5   0.0                          T                                        5168836
LFF   002.02 019.9 m E Pg      2013/01/16 00:39:52.1   0.5                          T                                        5168852
LFF   002.02 019.9 m E Sn      2013/01/16 00:40:12.2   0.4                          T                                        5168837
LFF   002.02 019.9 m E Sg      2013/01/16 00:40:18.6   0.9                          T               16.7  .34 Ml 2.7         5168851
CAF   002.51 040.6 m E Pg      2013/01/16 00:40:00.5  -0.2                          T                                        5168847
CAF   002.51 040.6 m E Sn      2013/01/16 00:40:23.9   0.4                          T                                        5168849
CAF   002.51 040.6 m E Sg      2013/01/16 00:40:33.6   0.7                          T                2.9  .21 Ml 2.5         5168848
BGF   004.14 030.9 m E Pn      2013/01/16 00:40:16.3   0.0                          T                                        5168844
BGF   004.14 030.9 m E Pg      2013/01/16 00:40:31.0   0.2                          T                                        5168845
BGF   004.14 030.9 m E Sg      2013/01/16 00:41:24.0   0.2                          T                4.3  .34 Ml 2.8         5168846
MFF   003.56 000.9 m E Pg      2013/01/16 00:40:20.3   0.3                          T                                        5168842
MFF   003.56 000.9 m E Sg      2013/01/16 00:41:06.3   0.6                          T                 .9  .20 Ml 2.4         5168843
RJF   002.59 028.5 m E Sg      2013/01/16 00:40:36.2   0.8                          T                4.7  .23 Ml 2.3         5168850

.
EVENT     290370
    Date      Time       Latitude Longitude    Depth    Ndef Nsta Gap    Mag1  N    Mag2  N    Mag3  N   Author         ID
       rms   OT_Error      Smajor Sminor Az        Err   mdist  Mdist     Err        Err        Err      Quality

2013/01/16 06:42:33.9     44.7351    6.5694      2.0      21    9 083  Ml 1.3  5  Md 1.3  1              bulletin    290470
                                                                                                         _ldg
      0.20   +-  0.05       1.1     .9   73.07 +-  0.0    0.14   1.40   +-0.3      +-                    m i ke

FRANCE
Sta     Dist  EvAz     Phase      Date       Time     TRes  Azim  AzRes  Slow  SRes Def   SNR       Amp   Per   Mag1   Mag2       ID
MBDF  000.14 093.2 m E Pg      2013/01/16 06:42:37.3   0.2                          T                                        5169274
MBDF  000.14 093.2 m E Sg      2013/01/16 06:42:39.1  -0.2                          T               10.3  .22        Md 1.3  5169273
ORIF  000.52 290.7 m E Pg      2013/01/16 06:42:44.0   0.0                          T                                        5169272
ORIF  000.52 290.7 m E Sg      2013/01/16 06:42:51.1   0.2                          T                 .6  .17                5169271
LPG   000.77 009.5 m E Pg      2013/01/16 06:42:49.0   0.1                          T                                        5169283
LPG   000.77 009.5 m E Pn      2013/01/16 06:42:50.6   0.0                          T                                        5169282
LPG   000.77 009.5 m E Sg      2013/01/16 06:42:59.0   0.0                          T                 .2  .16                5169281
LPL   000.79 008.3 m E Pg      2013/01/16 06:42:49.3   0.2                          T                                        5169285
LPL   000.79 008.3 m E Sg      2013/01/16 06:42:59.2  -0.2                          T                 .4  .21                5169284
SBF   001.07 144.2 m E Pg      2013/01/16 06:42:53.6  -0.5                          T                                        5169289
SBF   001.07 144.2 m E Sg      2013/01/16 06:43:07.8  -0.1                          T                 .5  .19 Ml 1.3         5169288
SMRF  001.04 223.6 m E Pg      2013/01/16 06:42:53.6   0.1                          T                                        5169280
SMRF  001.04 223.6 m E Sg      2013/01/16 06:43:07.0   0.0                          T                 .4  .20 Ml 1.2         5169279
FRF   001.18 177.3 m E Pg      2013/01/16 06:42:56.1   0.1                          T                                        5169278
FRF   001.18 177.3 m E Sg      2013/01/16 06:43:11.5   0.4                          T                1.1  .23 Ml 1.6         5169277
VIVF  001.36 275.8 m E Pn      2013/01/16 06:42:58.1  -0.1                          T                                        5169287
VIVF  001.36 275.8 m E Sn      2013/01/16 06:43:15.6  -0.2                          T                 .2  .19 Ml 1.1         5169286
LMR   001.40 181.8 m E Pn      2013/01/16 06:42:58.9   0.1                          T                                        5169276
LMR   001.40 181.8 m E Sn      2013/01/16 06:43:17.0   0.2                          T                 .9  .22 Ml 1.6         5169275

.
EVENT     290372
    Date      Time       Latitude Longitude    Depth    Ndef Nsta Gap    Mag1  N    Mag2  N    Mag3  N   Author         ID
       rms   OT_Error      Smajor Sminor Az        Err   mdist  Mdist     Err        Err        Err      Quality

2013/01/16 08:08:02.2     49.0880    5.3815       .0 f    22    9 137  Ml 2.0  5  Md 1.9  2              bulletin    290472
                                                                                                         _ldg
      0.16   +-  0.05        .9     .8   66.37 +-  0.0    0.58   2.39   +-0.1      +-0.2                 m i km

FRANCE
Sta     Dist  EvAz     Phase      Date       Time     TRes  Azim  AzRes  Slow  SRes Def   SNR       Amp   Per   Mag1   Mag2       ID
PAGF  000.58 156.8 m E Pg      2013/01/16 08:08:13.5   0.1                          T                                        5169345
PAGF  000.58 156.8 m E Sg      2013/01/16 08:08:21.1  -0.2                          T               47.1  .56        Md 2.1  5169344
MEZF  000.63 200.5 m E Pg      2013/01/16 08:08:14.3   0.0                          T                                        5169343
MEZF  000.63 200.5 m E Sg      2013/01/16 08:08:22.8   0.2                          T                8.2  .34        Md 1.8  5169342
SFTF  000.91 194.6 m E Pg      2013/01/16 08:08:19.7   0.1                          T                                        5169317
SFTF  000.91 194.6 m E Sg      2013/01/16 08:08:31.7   0.1                          T                7.3  .28 Ml 2.2         5169316
GIVF  001.08 340.5 m E Pg      2013/01/16 08:08:22.6   0.0                          T                                        5169352
GIVF  001.08 340.5 m E Sg      2013/01/16 08:08:36.8  -0.1                          T                2.5  .20 Ml 2.0         5169351
HAU   001.26 149.0 m E Pg      2013/01/16 08:08:26.2   0.2                          T                                        5169314
HAU   001.26 149.0 m E Sg      2013/01/16 08:08:42.3  -0.2                          T                                        5169315
CDF   001.42 117.6 m E Pn      2013/01/16 08:08:27.8  -0.1                          T                                        5169354
CDF   001.42 117.6 m E Pg      2013/01/16 08:08:29.3   0.2                          T                                        5169311
CDF   001.42 117.6 m E Sn      2013/01/16 08:08:46.2  -0.2                          T                                        5169353
CDF   001.42 117.6 m E Sg      2013/01/16 08:08:47.6  -0.1                          T                2.8  .25 Ml 2.2         5169312
HINF  001.61 141.9 m E Pn      2013/01/16 08:08:30.2  -0.2                          T                                        5169341
HINF  001.61 141.9 m E Sn      2013/01/16 08:08:50.5  -0.2                          T                                        5169340
HINF  001.61 141.9 m E Sg      2013/01/16 08:08:53.3   0.0                          T                                        5169313
LOR   002.09 209.8 m E Pn      2013/01/16 08:08:36.8   0.0                          T                                        5169350
LOR   002.09 209.8 m E Sn      2013/01/16 08:09:01.7  -0.5                          T                1.1  .23 Ml 1.9         5169349
SSF   002.39 212.5 m E Pn      2013/01/16 08:08:41.1   0.1                          T                                        5169348
SSF   002.39 212.5 m E Sn      2013/01/16 08:09:09.2  -0.1                          T                                        5169347
SSF   002.39 212.5 m E Sg      2013/01/16 08:09:17.4  -0.3                          T                 .6  .17 Ml 1.9         5169346

.
