EVENT     259758
    Date      Time       Latitude Longitude    Depth    Ndef Nsta Gap    Mag1  N    Mag2  N    Mag3  N   Author         ID
       rms   OT_Error      Smajor Sminor Az        Err   mdist  Mdist     Err        Err        Err      Quality

2011/05/26 11:19:26.6     44.9044    6.7577      2.0      20    8 099  Ml 1.8  4  Md 1.8  1              js067245    259758

      0.19   +-  0.05       1.1     .8  108.48 +-  0.0    0.02   1.58   +-0.1      +-                    m i ke

FRANCE
Sta     Dist  EvAz     Phase      Date       Time     TRes  Azim  AzRes  Slow  SRes Def   SNR       Amp   Per   Mag1   Mag2       ID
MBDF  000.18 176.9 m E Pg      2011/05/26 11:19:30.4   0.0                          T                                        4702396
MBDF  000.18 176.9 m E Sg      2011/05/26 11:19:32.9  -0.1                          T               47.9  .24        Md 1.8  4702397
LPG   000.59 359.6 m E Pg      2011/05/26 11:19:38.2   0.0                          T                                        4702391
LPG   000.59 359.6 m E Sg      2011/05/26 11:19:45.6  -0.5                          T                4.6  .26                4702392
ORIF  000.62 271.6 m E Pg      2011/05/26 11:19:38.6   0.1                          T                                        4702394
ORIF  000.62 271.6 m E Sg      2011/05/26 11:19:46.7   0.0                          T               16.1  .20                4702395
LPL   000.61 358.3 m E Pg      2011/05/26 11:19:38.7   0.2                          T                                        4702393
SBF   001.15 154.8 m E Pg      2011/05/26 11:19:48.3   0.1                          T                                        4702386
SBF   001.15 154.8 m E Sg      2011/05/26 11:20:03.3   0.2                          T                3.2  .26 Ml 2.0         4702387
SMRF  001.26 222.8 m E Pg      2011/05/26 11:19:50.4   0.2                          T                                        4702388
SMRF  001.26 222.8 m E Sg      2011/05/26 11:20:06.6   0.1                          T                1.9  .27 Ml 1.8         4702389
LMR   001.58 186.6 m E Pg      2011/05/26 11:19:55.9  -0.2                          T                                        4702384
LMR   001.58 186.6 m E Sg      2011/05/26 11:20:16.6   0.1                          T                1.3  .22 Ml 1.9         4702385
VIVF  001.48 268.9 m E Sg      2011/05/26 11:20:13.7   0.2                          T                1.1  .27 Ml 1.6         4702390

.
EVENT     259760
    Date      Time       Latitude Longitude    Depth    Ndef Nsta Gap    Mag1  N    Mag2  N    Mag3  N   Author         ID
       rms   OT_Error      Smajor Sminor Az        Err   mdist  Mdist     Err        Err        Err      Quality

2011/05/26 14:35:50.7     44.7305    3.0055      3.0 f    49   19 065  Ml 2.6 21  Md 2.6  1              js067245    259760

      0.55   +-  0.05       1.1    1.0  110.42 +-  0.0    0.53   3.16   +-0.3      +-                    m i ke

FRANCE
Sta     Dist  EvAz     Phase      Date       Time     TRes  Azim  AzRes  Slow  SRes Def   SNR       Amp   Per   Mag1   Mag2       ID
CAF   000.70 286.6 m E Pg      2011/05/26 14:36:03.8  -0.1                          T                                        4702402
CAF   000.70 286.6 m E Sg      2011/05/26 14:36:12.9  -0.1                          T   001.0       27.6  .18        Md 2.6  4698004
LASF  000.89 136.7 m E Pg      2011/05/26 14:36:07.2  -0.4                          T                                        4702398
LASF  000.89 136.7 m E Pn      2011/05/26 14:36:08.5  -0.1                          T   001.0                                4698008
LASF  000.89 136.7 m E Sg      2011/05/26 14:36:19.3   0.2                          T   001.0       14.4  .24 Ml 2.5         4698009
VIVF  001.19 083.4 m E Pn      2011/05/26 14:36:12.7   0.1                          T   001.0                                4698024
VIVF  001.19 083.4 m E Sg      2011/05/26 14:36:27.8  -0.7                          T               50.8  .26 Ml 3.2         4702400
RJF   001.20 299.0 m E Pn      2011/05/26 14:36:12.8   0.1                          T   001.0                                4698026
RJF   001.20 299.0 m E Pg      2011/05/26 14:36:13.2   0.0                          T                                        4702413
RJF   001.20 299.0 m E Sg      2011/05/26 14:36:28.5  -0.3                          T   001.0       33.7  .20 Ml 2.8         4698001
MTLF  001.50 202.5 m E Pn      2011/05/26 14:36:16.7  -0.1                          T   001.0                                4698023
MTLF  001.50 202.5 m E Pg      2011/05/26 14:36:18.7   0.1                          T                                        4702410
MTLF  001.50 202.5 m E Sg      2011/05/26 14:36:38.1   0.0                          T                 10  .20 Ml 2.7         4702401
LFF   001.63 278.2 m E Pg      2011/05/26 14:36:21.1   0.2                          T   001.0                                4698010
LFF   001.63 278.2 m E Sn      2011/05/26 14:36:38.7   0.0                          T   001.0                                4698011
LFF   001.63 278.2 m E Sg      2011/05/26 14:36:42.0   0.1                          T   001.0       19.5  .32 Ml 2.7         4698012
TCF   001.66 340.5 m E Pg      2011/05/26 14:36:21.4  -0.1                          T   001.0                                4698019
TCF   001.66 340.5 m E Sg      2011/05/26 14:36:42.7  -0.2                          T   001.0       15.2  .24 Ml 2.9         4698021
SMF   002.00 016.7 m E Pn      2011/05/26 14:36:23.4  -0.2                          T   001.0                                4698016
SMF   002.00 016.7 m E Pg      2011/05/26 14:36:27.7  -0.2                          T                                        4702419
SMF   002.00 016.7 m E Sg      2011/05/26 14:36:53.3  -0.4                          T   001.0          8  .20 Ml 2.8         4698017
BGF   001.83 356.6 m E Pg      2011/05/26 14:36:24.5  -0.2                          T                                        4702417
BGF   001.83 356.6 m E Sg      2011/05/26 14:36:47.5  -0.8                          T   001.0       32.7  .32 Ml 3.2         4698003
SMRF  001.99 111.4 m E Pg      2011/05/26 14:36:27.7   0.0                          T                                        4702407
SMRF  001.99 111.4 m E Sg      2011/05/26 14:36:53.6   0.2                          T   001.0        3.9  .28 Ml 2.3         4698025
AVF   002.07 006.6 m E Pg      2011/05/26 14:36:28.8  -0.4                          T                                        4702418
AVF   002.07 006.6 m E Sg      2011/05/26 14:36:55.5  -0.4                          T   001.0        4.5  .16 Ml 2.7         4698002
ORIF  002.05 083.7 m E Pg      2011/05/26 14:36:28.9  -0.1                          T                                        4702408
ORIF  002.05 083.7 m E Sg      2011/05/26 14:36:55.4   0.0                          T                2.6  .26 Ml 2.2         4702409
SSF   002.36 008.3 m E Pg      2011/05/26 14:36:34.2  -0.3                          T                                        4702420
SSF   002.36 008.3 m E Sg      2011/05/26 14:37:04.9   0.2                          T   001.0        2.9  .20 Ml 2.5         4698018
LOR   002.61 012.9 m E Pg      2011/05/26 14:36:38.7  -0.4                          T   001.0                                4698013
LOR   002.61 012.9 m E Sg      2011/05/26 14:37:12.5   0.0                          T   001.0        4.7  .20 Ml 2.7         4698014
EPF   002.57 229.5 m E Pg      2011/05/26 14:36:39.0   0.6                          T   001.0                                4698005
EPF   002.57 229.5 m E Sg      2011/05/26 14:37:11.4   0.0                          T   001.0        2.5  .24 Ml 2.3         4698006
MFF   002.90 311.4 m E Pg      2011/05/26 14:36:44.2  -0.1                          T                                        4702414
MFF   002.90 311.4 m E Sg      2011/05/26 14:37:20.2  -1.4                          T   001.0        3.4  .28 Ml 2.7         4698015
ETSF  003.16 235.9 m E Pg      2011/05/26 14:36:49.2  -0.2                          T                                        4702411
ETSF  003.16 235.9 m E Sg      2011/05/26 14:37:30.1   0.1                          T                1.8  .32 Ml 2.2         4702412
FRF   002.87 112.8 m E Sn      2011/05/26 14:37:09.1   0.7                          T   001.0        4.1  .32 Ml 2.5         4698007
CABF  002.86 047.9 m E Sg      2011/05/26 14:37:20.7   0.0                          T   001.0          5  .60 Ml 2.3         4698022

.
EVENT     259761
    Date      Time       Latitude Longitude    Depth    Ndef Nsta Gap    Mag1  N    Mag2  N    Mag3  N   Author         ID
       rms   OT_Error      Smajor Sminor Az        Err   mdist  Mdist     Err        Err        Err      Quality

2011/05/26 16:32:22.9     44.6237    7.2533      2.0      16    8 192  Ml 1.7  6  Md 1.9  1              js067245    259761

      0.19   +-  0.09       1.9     .9   78.82 +-  0.0    0.36   1.40   +-0.2      +-                    m i ke

NORTHERN ITALY
Sta     Dist  EvAz     Phase      Date       Time     TRes  Azim  AzRes  Slow  SRes Def   SNR       Amp   Per   Mag1   Mag2       ID
MBDF  000.36 286.9 m E Pg      2011/05/26 16:32:30.3   0.2                          T                                        4702435
MBDF  000.36 286.9 m E Sg      2011/05/26 16:32:34.5  -0.3                          T                7.2  .25        Md 1.9  4702436
SBF   000.77 170.2 m E Pg      2011/05/26 16:32:37.6   0.0                          T                                        4702421
SBF   000.77 170.2 m E Sg      2011/05/26 16:32:47.8   0.1                          T                1.3  .20                4702422
LPG   000.94 338.0 m E Pg      2011/05/26 16:32:40.9  -0.1                          T                                        4702427
LPG   000.94 338.0 m E Sg      2011/05/26 16:32:53.0  -0.3                          T                2.0  .25 Ml 1.7         4702432
LPL   000.97 337.7 m E Pg      2011/05/26 16:32:41.3   0.0                          T                                        4702428
LPL   000.97 337.7 m E Sg      2011/05/26 16:32:53.8  -0.1                          T                1.5  .19 Ml 1.7         4702429
ORIF  001.02 287.2 m E Pg      2011/05/26 16:32:42.5   0.3                          T                                        4702430
ORIF  001.02 287.2 m E Sg      2011/05/26 16:32:55.1  -0.4                          T                1.1  .16 Ml 1.7         4702431
FRF   001.15 202.6 m E Pg      2011/05/26 16:32:44.5   0.1                          T                                        4702433
FRF   001.15 202.6 m E Sg      2011/05/26 16:32:59.1  -0.2                          T                1.7  .20 Ml 1.8         4702434
SMRF  001.37 242.3 m E Pg      2011/05/26 16:32:48.5   0.0                          T                                        4702425
SMRF  001.37 242.3 m E Sg      2011/05/26 16:33:06.2   0.0                          T                 .6  .21 Ml 1.4         4702426
LMR   001.40 202.9 m E Pg      2011/05/26 16:32:48.7  -0.2                          T                                        4702423
LMR   001.40 202.9 m E Sg      2011/05/26 16:33:06.7  -0.3                          T                 .9  .14 Ml 1.8         4702424

.
EVENT     259762
    Date      Time       Latitude Longitude    Depth    Ndef Nsta Gap    Mag1  N    Mag2  N    Mag3  N   Author         ID
       rms   OT_Error      Smajor Sminor Az        Err   mdist  Mdist     Err        Err        Err      Quality

2011/05/26 16:57:56.6     43.1142    -.6631     10.0      21    5 118  Ml 1.9  2  Md 1.7  2              js067245    259762

      0.22   +-  0.06       1.5     .8  164.28 +-  0.0    0.04   2.12   +-0.0      +-0.1                 m i ke

PYRENEES
Sta     Dist  EvAz     Phase      Date       Time     TRes  Azim  AzRes  Slow  SRes Def   SNR       Amp   Per   Mag1   Mag2       ID
ETSF  000.23 160.5 m E Pg      2011/05/26 16:58:01.4  -0.2                          T                                        4702439
ETSF  000.23 160.5 m E Sg      2011/05/26 16:58:04.7  -0.1                          T               28.9  .26        Md 1.8  4702440
SJPF  000.41 270.1 m E Pg      2011/05/26 16:58:04.0  -0.6                          T                                        4702441
SJPF  000.41 270.1 m E Sg      2011/05/26 16:58:09.9  -0.3                          T                4.2  .32        Md 1.7  4702442
EPF   000.74 096.2 m E Pg      2011/05/26 16:58:11.4   0.7                          T                                        4702437
EPF   000.74 096.2 m E Sg      2011/05/26 16:58:20.7   0.3                          T                1.5  .25                4702438
MTLF  002.12 082.9 m E Pn      2011/05/26 16:58:30.2  -0.2                          T                                        4702444
MTLF  002.12 082.9 m E Sn      2011/05/26 16:58:54.9  -0.3                          T                1.2  .26 Ml 1.9         4702445
LFF   002.09 028.5 m E Sg      2011/05/26 16:59:02.5   0.2                          T                1.7  .23 Ml 1.9         4702443

.
EVENT     259763
    Date      Time       Latitude Longitude    Depth    Ndef Nsta Gap    Mag1  N    Mag2  N    Mag3  N   Author         ID
       rms   OT_Error      Smajor Sminor Az        Err   mdist  Mdist     Err        Err        Err      Quality

2011/05/26 17:41:43.8     44.6162    7.1984      2.0      17    9 186  Ml 1.6  7  Md 1.9  1              js067245    259763

      0.22   +-  0.08       1.8     .9   77.44 +-  0.0    0.32   1.82   +-0.2      +-                    m i ke

NORTHERN ITALY
Sta     Dist  EvAz     Phase      Date       Time     TRes  Azim  AzRes  Slow  SRes Def   SNR       Amp   Per   Mag1   Mag2       ID
MBDF  000.32 290.1 m E Pg      2011/05/26 17:41:50.6   0.2                          T                                        4702461
MBDF  000.32 290.1 m E Sg      2011/05/26 17:41:55.5   0.8                          T                6.5  .28        Md 1.9  4702462
SBF   000.77 167.2 m E Pg      2011/05/26 17:41:58.6   0.1                          T                                        4702446
SBF   000.77 167.2 m E Sg      2011/05/26 17:42:08.6   0.0                          T                1.5  .23                4702447
LPG   000.94 340.4 m E Pg      2011/05/26 17:42:01.8   0.0                          T                                        4702452
LPG   000.94 340.4 m E Sg      2011/05/26 17:42:13.4  -0.6                          T                 .5  .17 Ml 1.3         4702453
LPL   000.96 340.0 m E Pg      2011/05/26 17:42:02.1   0.0                          T                                        4702454
LPL   000.96 340.0 m E Sg      2011/05/26 17:42:14.6   0.0                          T                2.6  .29 Ml 1.7         4702455
ORIF  000.99 288.3 m E Pg      2011/05/26 17:42:02.4  -0.1                          T                                        4702459
ORIF  000.99 288.3 m E Sg      2011/05/26 17:42:15.0  -0.2                          T                1.7  .31 Ml 1.6         4702460
FRF   001.13 200.8 m E Pg      2011/05/26 17:42:05.0   0.0                          T                                        4702457
FRF   001.13 200.8 m E Sg      2011/05/26 17:42:19.6   0.0                          T                1.5  .20 Ml 1.8         4702458
SMRF  001.33 241.8 m E Pg      2011/05/26 17:42:08.5  -0.2                          T                                        4702450
SMRF  001.33 241.8 m E Sg      2011/05/26 17:42:25.8  -0.1                          T                 .5  .20 Ml 1.4         4702451
LMR   001.38 201.5 m E Pg      2011/05/26 17:42:09.4  -0.1                          T                                        4702448
LMR   001.38 201.5 m E Sg      2011/05/26 17:42:27.3   0.1                          T                 .7  .17 Ml 1.6         4702449
VIVF  001.82 278.5 m E Sg      2011/05/26 17:42:41.0  -0.1                          T                 .7  .22 Ml 1.7         4702456

.
EVENT     259764
    Date      Time       Latitude Longitude    Depth    Ndef Nsta Gap    Mag1  N    Mag2  N    Mag3  N   Author         ID
       rms   OT_Error      Smajor Sminor Az        Err   mdist  Mdist     Err        Err        Err      Quality

2011/05/26 18:26:39.8     44.6162    7.2023      2.0      17    9 187  Ml 1.9  7                         js067245    259764

      0.22   +-  0.08       1.8     .9   77.45 +-  0.0    0.33   1.82   +-0.3                            m i ke

NORTHERN ITALY
Sta     Dist  EvAz     Phase      Date       Time     TRes  Azim  AzRes  Slow  SRes Def   SNR       Amp   Per   Mag1   Mag2       ID
MBDF  000.33 290.0 m E Pg      2011/05/26 18:26:46.6   0.2                          T                                        4702478
MBDF  000.33 290.0 m E Sg      2011/05/26 18:26:51.5   0.8                          T                6.3  .22                4702479
SBF   000.77 167.4 m E Pg      2011/05/26 18:26:54.5   0.1                          T                                        4702471
SBF   000.77 167.4 m E Sg      2011/05/26 18:27:04.6   0.1                          T                2.8  .20                4702463
LPG   000.94 340.2 m E Pg      2011/05/26 18:26:57.7   0.0                          T                                        4702475
LPG   000.94 340.2 m E Sg      2011/05/26 18:27:09.4  -0.5                          T                2.3  .22 Ml 1.8         4702467
LPL   000.96 339.9 m E Pg      2011/05/26 18:26:58.1   0.0                          T                                        4702476
LPL   000.96 339.9 m E Sg      2011/05/26 18:27:10.6   0.0                          T                3.4  .26 Ml 1.9         4702468
ORIF  000.99 288.2 m E Pg      2011/05/26 18:26:58.4  -0.1                          T                                        4702477
ORIF  000.99 288.2 m E Sg      2011/05/26 18:27:11.2  -0.2                          T                2.4  .22 Ml 1.8         4702469
FRF   001.13 201.0 m E Pg      2011/05/26 18:27:01.0   0.1                          T                                        4702473
FRF   001.13 201.0 m E Sg      2011/05/26 18:27:15.6   0.0                          T                4.3  .23 Ml 2.2         4702465
SMRF  001.33 241.9 m E Pg      2011/05/26 18:27:04.5  -0.2                          T                                        4702474
SMRF  001.33 241.9 m E Sg      2011/05/26 18:27:21.8  -0.1                          T                2.2  .33 Ml 1.8         4702466
LMR   001.38 201.6 m E Pg      2011/05/26 18:27:05.3  -0.1                          T                                        4702472
LMR   001.38 201.6 m E Sg      2011/05/26 18:27:23.3   0.1                          T                3.9  .22 Ml 2.3         4702464
VIVF  001.82 278.5 m E Sg      2011/05/26 18:27:37.0  -0.1                          T                 .5  .24 Ml 1.5         4702470

.
