EVENT     269962
    Date      Time       Latitude Longitude    Depth    Ndef Nsta Gap    Mag1  N    Mag2  N    Mag3  N   Author         ID
       rms   OT_Error      Smajor Sminor Az        Err   mdist  Mdist     Err        Err        Err      Quality

2012/02/11 01:20:51.4     42.3714    1.7842      3.0 f   103   23 028  Ml 2.9 18  Md 2.8  1              js067245    269982

      0.59   +-  0.05       1.1     .9  156.46 +-  0.0    0.18   6.95   +-0.2      +-                    m i ke

PYRENEES
Sta     Dist  EvAz     Phase      Date       Time     TRes  Azim  AzRes  Slow  SRes Def   SNR       Amp   Per   Mag1   Mag2       ID
MTLF  001.02 018.1 m E Pg      2012/02/11 01:21:10.5   0.0                          T   001.0                                4834953
MTLF  001.02 018.1 m E Sg      2012/02/11 01:21:23.8   0.1                          T   001.0       31.4  .20 Ml 3.0 Md 2.8  4834954
EPF   001.25 302.2 m E Pg      2012/02/11 01:21:13.7  -1.1                          T   001.0                                4834931
EPF   001.25 302.2 m E Sg      2012/02/11 01:21:31.0   0.0                          T   001.0       65.0  .28 Ml 3.3         4834932
LASF  002.28 040.9 m E Pn      2012/02/11 01:21:28.2   0.1                          T   001.0                                4834935
LASF  002.28 040.9 m E Pg      2012/02/11 01:21:34.2   0.5                          T                                        4837217
LASF  002.28 040.9 m E Sn      2012/02/11 01:21:54.0  -1.1                          T   001.0                                4834936
LASF  002.28 040.9 m E Sg      2012/02/11 01:22:03.0  -0.1                          T   001.0       10.8  .20 Ml 3.0         4834937
CAF   002.56 004.5 m E Pn      2012/02/11 01:21:32.4   0.4                          T   001.0                                4834928
CAF   002.56 004.5 m E Pg      2012/02/11 01:21:38.4  -0.6                          T                                        4837220
CAF   002.56 004.5 m E Sn      2012/02/11 01:22:01.0   0.2                          T   001.0                                4834929
CAF   002.56 004.5 m E Sg      2012/02/11 01:22:11.4  -0.5                          T   001.0       16.5  .24 Ml 3.2         4834930
LFF   002.68 343.9 m E Pn      2012/02/11 01:21:33.4  -0.1                          T   001.0                                4834938
LFF   002.68 343.9 m E Pg      2012/02/11 01:21:40.9  -0.1                          T   001.0                                4834939
LFF   002.68 343.9 m E Sn      2012/02/11 01:22:02.6  -1.9                          T   001.0                                4834940
LFF   002.68 343.9 m E Sg      2012/02/11 01:22:15.6   0.3                          T   001.0       20.0  .42 Ml 2.9         4834941
SJPF  002.34 289.5 m E Pg      2012/02/11 01:21:34.7   0.0                          T   001.0                                4834957
SJPF  002.34 289.5 m E Sg      2012/02/11 01:22:05.0   0.2                          T   001.0        9.0  .23 Ml 2.9         4834958
RJF   002.94 356.3 m E Pn      2012/02/11 01:21:37.0  -0.1                          T   001.0                                4834923
RJF   002.94 356.3 m E Pg      2012/02/11 01:21:45.4  -0.4                          T                                        4837221
RJF   002.94 356.3 m E Sn      2012/02/11 01:22:10.0  -0.8                          T   001.0                                4834924
RJF   002.94 356.3 m E Sg      2012/02/11 01:22:24.0   0.4                          T   001.0        7.8  .18 Ml 2.7         4834925
VIVF  003.25 039.2 m E Pn      2012/02/11 01:21:40.8  -0.5                          T                                        4837219
VIVF  003.25 039.2 m E Pg      2012/02/11 01:21:51.2  -0.4                          T                                        4837218
VIVF  003.25 039.2 m E Sg      2012/02/11 01:22:33.4   0.0                          T   001.0        7.6  .29 Ml 2.9         4834959
SMRF  003.20 058.7 m E Pn      2012/02/11 01:21:43.9   3.2                          T   001.0                                4834960
LMR   003.60 072.9 m E Pn      2012/02/11 01:21:47.9   1.8                          T   001.0                                4834942
FRF   003.76 069.9 m E Pn      2012/02/11 01:21:50.4   2.1                          T   001.0                                4834933
FRF   003.76 069.9 m E Sn      2012/02/11 01:22:33.1   2.7                          T   001.0        8.3  .68 Ml 2.7         4834934
TCF   003.93 004.3 m E Pn      2012/02/11 01:21:51.5   0.9                          T                                        4836345
TCF   003.93 004.3 m E Pg      2012/02/11 01:22:03.8  -0.3                          T                                        4836346
TCF   003.93 004.3 m E Sn      2012/02/11 01:22:35.6   1.2                          T   001.0                                4834951
TCF   003.93 004.3 m E Sg      2012/02/11 01:22:54.0  -0.6                          T   001.0       11.2  .48 Ml 3.0         4834952
BGF   004.25 009.9 m E Pn      2012/02/11 01:21:56.3   1.3                          T                                        4836351
BGF   004.25 009.9 m E Pg      2012/02/11 01:22:10.5   0.4                          T                                        4836352
BGF   004.25 009.9 m E Sg      2012/02/11 01:23:04.6   0.0                          T   001.0       12.6  .40 Ml 3.2         4834927
SMF   004.52 018.3 m E Pn      2012/02/11 01:21:58.6   0.0                          T                                        4836350
SMF   004.52 018.3 m E Sg      2012/02/11 01:23:12.6  -0.3                          T   001.0        2.4  .24 Ml 2.8         4834949
SBF   004.40 068.3 m E Pn      2012/02/11 01:21:58.0   2.0                          T   001.0                                4834948
MFF   004.45 342.6 m E Pn      2012/02/11 01:21:58.0   1.4                          T   001.0                                4834944
MFF   004.45 342.6 m E Sn      2012/02/11 01:22:45.6  -1.3                          T   001.0                                4834945
MFF   004.45 342.6 m E Sg      2012/02/11 01:23:11.2   0.5                          T   001.0        3.1  .32 Ml 2.9         4834946
AVF   004.56 013.7 m E Pn      2012/02/11 01:21:59.6   0.5                          T                                        4836348
AVF   004.56 013.7 m E Pg      2012/02/11 01:22:16.6   1.0                          T                                        4836349
AVF   004.56 013.7 m E Sg      2012/02/11 01:23:13.1  -1.1                          T   001.0        3.4  .44 Ml 2.7         4834926
PGF   005.34 085.7 m E Pn      2012/02/11 01:22:09.0  -0.9                          T   001.0                                4834947
QUIF  006.56 329.4 m E Pn      2012/02/11 01:22:25.9  -0.3                          T                                        4836344
SGMF  006.63 334.0 m E Pn      2012/02/11 01:22:27.7   0.4                          T   001.0                                4834956
ROSF  006.95 330.9 m E Pn      2012/02/11 01:22:31.1  -0.5                          T   001.0                                4834955
SSF   004.85 014.1 m E Sg      2012/02/11 01:23:24.4   1.2                          T   001.0          6  .56 Ml 3.0         4834950
LOR   005.11 016.1 m E Sg      2012/02/11 01:23:31.7   0.2                          T   001.0        1.5  .24 Ml 2.7         4834943

.
EVENT     269963
    Date      Time       Latitude Longitude    Depth    Ndef Nsta Gap    Mag1  N    Mag2  N    Mag3  N   Author         ID
       rms   OT_Error      Smajor Sminor Az        Err   mdist  Mdist     Err        Err        Err      Quality

2012/02/11 01:24:45.9     42.9265   -1.4496      2.0      14    2 139  Ml 1.1  1  Md 1.3  2              js067245    269983

      0.22   +-  0.07       1.4    1.1  105.09 +-  0.0    0.11   1.32   +-         +-0.1                 m i ke

PYRENEES
Sta     Dist  EvAz     Phase      Date       Time     TRes  Azim  AzRes  Slow  SRes Def   SNR       Amp   Per   Mag1   Mag2       ID
SJPF  000.25 041.3 m E Pg      2012/02/11 01:24:51.0   0.2                          T                                        4837224
SJPF  000.25 041.3 m E Sg      2012/02/11 01:24:54.1  -0.2                          T                2.9  .24        Md 1.3  4837225
EPF   001.32 084.9 m E Pg      2012/02/11 01:25:10.5   0.0                          T                                        4837222
EPF   001.32 084.9 m E Sg      2012/02/11 01:25:27.5  -0.1                          T                 .3  .27 Ml 1.1 Md 1.2  4837223

.
EVENT     269964
    Date      Time       Latitude Longitude    Depth    Ndef Nsta Gap    Mag1  N    Mag2  N    Mag3  N   Author         ID
       rms   OT_Error      Smajor Sminor Az        Err   mdist  Mdist     Err        Err        Err      Quality

2012/02/11 05:59:00.6     42.3747    1.7796      4.0 f    34    5 049  Ml 1.7  4                         js067245    269984

      0.37   +-  0.05       1.1     .7    9.06 +-  0.0    0.18   2.67   +-0.1                            m i ke

PYRENEES
Sta     Dist  EvAz     Phase      Date       Time     TRes  Azim  AzRes  Slow  SRes Def   SNR       Amp   Per   Mag1   Mag2       ID
MTLF  001.02 018.3 m E Pg      2012/02/11 05:59:19.6  -0.1                          T                                        4837233
MTLF  001.02 018.3 m E Sg      2012/02/11 05:59:32.5  -0.4                          T                                        4837227
MTLF  001.02 018.3 m E Sn      2012/02/11 05:59:34.1   0.2                          T                1.3  .22 Ml 1.6         4837228
EPF   001.25 302.2 m E Pn      2012/02/11 05:59:23.2   0.0                          T                                        4837232
EPF   001.25 302.2 m E Sg      2012/02/11 05:59:40.0  -0.1                          T                2.1  .22 Ml 1.9         4837229
LFF   002.67 344.0 m E Pg      2012/02/11 05:59:50.2   0.0                          T                                        4837231
LASF  002.28 041.1 m E Sg      2012/02/11 06:00:12.4   0.1                          T                 .7  .25 Ml 1.7         4837226
CAF   002.56 004.5 m E Sg      2012/02/11 06:00:21.0   0.0                          T                 .6  .24 Ml 1.8         4837230

.
EVENT     269974
    Date      Time       Latitude Longitude    Depth    Ndef Nsta Gap    Mag1  N    Mag2  N    Mag3  N   Author         ID
       rms   OT_Error      Smajor Sminor Az        Err   mdist  Mdist     Err        Err        Err      Quality

2012/02/11 09:39:34.3     51.6126    6.5128      1.0 f    31   14 250  Ml 2.8  9                         js067245    269994

      0.65   +-  0.25       4.0    2.8    2.52 +-  0.0    0.40   5.74   +-0.2                            m i sr

GERMANY
Sta     Dist  EvAz     Phase      Date       Time     TRes  Azim  AzRes  Slow  SRes Def   SNR       Amp   Per   Mag1   Mag2       ID
GIVF  001.85 216.0 m E Pn      2012/02/11 09:40:05.3  -0.1                          T                                        4837257
GIVF  001.85 216.0 m E Pg      2012/02/11 09:40:08.4  -0.3                          T                                        4837258
GIVF  001.85 216.0 m E Sg      2012/02/11 09:40:32.5  -0.1                          T               32.1  .29 Ml 3.2         4837242
BAIF  002.13 224.1 m E Pn      2012/02/11 09:40:09.0  -0.3                          T                                        4837255
BAIF  002.13 224.1 m E Pg      2012/02/11 09:40:13.7  -0.2                          T                                        4837256
BAIF  002.13 224.1 m E Sg      2012/02/11 09:40:41.0  -0.4                          T               11.4  .28 Ml 2.8         4837243
CDF   003.24 171.0 m E Pn      2012/02/11 09:40:24.9   0.4                          T                                        4837254
CDF   003.24 171.0 m E Sg      2012/02/11 09:41:16.0  -0.1                          T                4.0  .39 Ml 2.6         4837244
LOR   004.68 202.7 m E Pn      2012/02/11 09:40:44.5   0.5  34.8  14.1              T                                        4837260
LOR   004.68 202.7 m E Sn      2012/02/11 09:41:35.7   0.0                          T                                        4837241
LOR   004.68 202.7 m E Sg      2012/02/11 09:42:00.8  -0.1  16.8  -3.9              T                2.8  .29 Ml 2.8         4837239
SSF   004.96 204.5 m E Pn      2012/02/11 09:40:48.2   0.4                          T                                        4837259
SSF   004.96 204.5 m E Sn      2012/02/11 09:41:41.9  -0.5                          T                                        4837240
SMF   005.27 200.5 m E Pn      2012/02/11 09:40:51.9  -0.1                          T                                        4837252
AVF   005.25 204.4 m E Pn      2012/02/11 09:40:51.9   0.2                          T                                        4837253
FLN   005.32 240.3 m E Pn      2012/02/11 09:40:52.2  -0.4  60.5  5.6               T                                        4837250
BGF   005.60 206.9 m E Pn      2012/02/11 09:40:56.9   0.4                          T                                        4837251
MEZF  003.25 197.4 m E Sg      2012/02/11 09:41:16.0  -0.3  22.4  6.1               T                6.4  .32 Ml 2.8         4837245
SFTF  003.54 196.2 m E Sg      2012/02/11 09:41:25.6   0.3                          T                5.7  .30 Ml 2.8         4837246
HAU   003.61 181.8 m E Sg      2012/02/11 09:41:28.2   0.6                          T                6.3  .38 Ml 2.6         4837247
HINF  003.81 176.5 m E Sg      2012/02/11 09:41:33.2  -0.4                          T                2.2  .30 Ml 2.5         4837248
GRR   005.74 238.7 m E Sn      2012/02/11 09:42:00.9  -0.2                          T                3.7  .24 Ml 3.1         4837249

.
EVENT     269965
    Date      Time       Latitude Longitude    Depth    Ndef Nsta Gap    Mag1  N    Mag2  N    Mag3  N   Author         ID
       rms   OT_Error      Smajor Sminor Az        Err   mdist  Mdist     Err        Err        Err      Quality

2012/02/11 11:55:29.1     42.3745    1.7684      5.0 f    24    5 054  Ml 1.7  5                         js067245    269985

      0.39   +-  0.06       1.3     .9   17.44 +-  0.0    0.18   2.67   +-0.3                            m i ke

PYRENEES
Sta     Dist  EvAz     Phase      Date       Time     TRes  Azim  AzRes  Slow  SRes Def   SNR       Amp   Per   Mag1   Mag2       ID
MTLF  001.02 018.7 m E Pg      2012/02/11 11:55:48.3   0.0                          T                                        4837267
MTLF  001.02 018.7 m E Sn      2012/02/11 11:56:02.1  -0.2                          T                 .8  .18 Ml 1.5         4837262
EPF   001.24 302.4 m E Pg      2012/02/11 11:55:52.3  -0.1                          T                                        4837266
EPF   001.24 302.4 m E Sg      2012/02/11 11:56:08.4  -0.1                          T                1.1  .22 Ml 1.6         4837263
LASF  002.29 041.2 m E Sg      2012/02/11 11:56:41.0   0.0                          T                 .5  .30 Ml 1.5         4837261
CAF   002.56 004.7 m E Sg      2012/02/11 11:56:49.5  -0.1                          T                1.3  .25 Ml 2.0         4837264
LFF   002.67 344.1 m E Sg      2012/02/11 11:56:53.0   0.1                          T                1.6  .24 Ml 2.0         4837265

.
