EVENT     257599
    Date      Time       Latitude Longitude    Depth    Ndef Nsta Gap    Mag1  N    Mag2  N    Mag3  N   Author         ID
       rms   OT_Error      Smajor Sminor Az        Err   mdist  Mdist     Err        Err        Err      Quality

2011/03/25 22:37:39.9     43.6924    7.6627      2.0      22    9 158  Ml 1.5  9  Md 1.5  3              js067245    257599

      0.25   +-  0.07       1.8    1.2   48.55 +-  0.0    0.24   1.94   +-0.2      +-0.2                 m i ke

NEAR SOUTH COAST OF FRANCE
Sta     Dist  EvAz     Phase      Date       Time     TRes  Azim  AzRes  Slow  SRes Def   SNR       Amp   Per   Mag1   Mag2       ID
SBF   000.24 316.1 m E Pg      2011/03/25 22:37:45.2   0.5                          T                                        4664262
SBF   000.24 316.1 m E Sg      2011/03/25 22:37:47.9  -0.1                          T                9.3  .24        Md 1.7  4664258
FRF   000.75 260.2 m E Pg      2011/03/25 22:37:54.4   0.4                          T                                        4664261
FRF   000.75 260.2 m E Sg      2011/03/25 22:38:04.2   0.4                          T               11.9  .20        Md 1.3  4664259
LMR   000.91 247.3 m E Pg      2011/03/25 22:37:56.6  -0.4                          T                                        4664260
LMR   000.91 247.3 m E Sg      2011/03/25 22:38:08.5  -0.4                          T                1.3  .20 Ml 1.6 Md 1.5  4664257
MBDF  001.22 328.5 m E Pg      2011/03/25 22:38:02.7  -0.2                          T                                        4664254
MBDF  001.22 328.5 m E Sg      2011/03/25 22:38:17.9  -0.7                          T                 .9  .33 Ml 1.4         4664255
PGF   001.51 139.0 m E Pn      2011/03/25 22:38:06.4   0.0                          T                                        4664264
PGF   001.51 139.0 m E Sn      2011/03/25 22:38:25.5   0.1                          T                1.3  .40 Ml 1.8         4664263
SMRF  001.54 281.3 m E Pg      2011/03/25 22:38:08.6  -0.1                          T                                        4664253
SMRF  001.54 281.3 m E Sg      2011/03/25 22:38:28.5   0.0                          T                2.0  .44 Ml 1.7         4664256
ORIF  001.77 314.4 m E Pn      2011/03/25 22:38:10.1   0.1                          T                                        4664249
ORIF  001.77 314.4 m E Sn      2011/03/25 22:38:31.8   0.0                          T                 .3  .31 Ml 1.2         4664251
LPG   001.92 340.5 m E Pn      2011/03/25 22:38:12.2   0.0                          T                                        4664247
LPG   001.92 340.5 m E Sn      2011/03/25 22:38:35.5   0.0                          T                 .5  .28 Ml 1.4         4664250
LPL   001.94 340.3 m E Pn      2011/03/25 22:38:12.3  -0.1                          T                                        4664248
LPL   001.94 340.3 m E Sn      2011/03/25 22:38:36.0   0.1                          T                 .4  .25 Ml 1.4         4664252

.
EVENT     257622
    Date      Time       Latitude Longitude    Depth    Ndef Nsta Gap    Mag1  N    Mag2  N    Mag3  N   Author         ID
       rms   OT_Error      Smajor Sminor Az        Err   mdist  Mdist     Err        Err        Err      Quality

2011/03/26 00:41:04.3     41.7871    2.6538      4.0 f    37    6 113  Ml 1.9  7                         js067245    257622

      0.26   +-  0.08       1.4     .8  148.17 +-  0.0    0.17   3.39   +-0.3                            m i ke

SPAIN
Sta     Dist  EvAz     Phase      Date       Time     TRes  Azim  AzRes  Slow  SRes Def   SNR       Amp   Per   Mag1   Mag2       ID
MTLF  001.59 348.4 m E Pn      2011/03/26 00:41:31.7   0.2                          T                                        4664324
MTLF  001.59 348.4 m E Sn      2011/03/26 00:41:51.2   0.0                          T                2.2  .22 Ml 2.1         4664314
EPF   002.12 306.7 m E Pn      2011/03/26 00:41:38.8   0.0                          T                                        4664323
EPF   002.12 306.7 m E Sn      2011/03/26 00:42:03.8  -0.1                          T                3.8  .35 Ml 2.3         4664315
LASF  002.45 020.7 m E Pn      2011/03/26 00:41:43.6   0.3                          T                                        4664319
LASF  002.45 020.7 m E Sn      2011/03/26 00:42:12.3   0.4                          T                 .4  .27 Ml 1.5         4664313
ETSF  002.63 296.1 m E Pn      2011/03/26 00:41:45.9   0.1                          T                                        4664322
ETSF  002.63 296.1 m E Sn      2011/03/26 00:42:16.0  -0.2                          T                1.4  .28 Ml 2.0         4664316
SJPF  003.16 296.1 m E Pn      2011/03/26 00:41:53.1   0.2                          T                                        4664321
SJPF  003.16 296.1 m E Sn      2011/03/26 00:42:28.8  -0.1                          T                 .3  .25 Ml 1.6         4664317
CAF   003.17 352.4 m E Pn      2011/03/26 00:41:53.3   0.3                          T                                        4664320
CAF   003.17 352.4 m E Sn      2011/03/26 00:42:29.0   0.0                          T                 .3  .28 Ml 1.5         4664318

.
EVENT     257623
    Date      Time       Latitude Longitude    Depth    Ndef Nsta Gap    Mag1  N    Mag2  N    Mag3  N   Author         ID
       rms   OT_Error      Smajor Sminor Az        Err   mdist  Mdist     Err        Err        Err      Quality

2011/03/26 02:44:34.5     43.0777   -1.3575      2.0      27    3 077  Ml 1.6  1  Md 1.7  3              js067245    257623

      0.26   +-  0.05        .8     .8   98.34 +-  0.0    0.10   1.25   +-         +-0.1                 m i ke

PYRENEES
Sta     Dist  EvAz     Phase      Date       Time     TRes  Azim  AzRes  Slow  SRes Def   SNR       Amp   Per   Mag1   Mag2       ID
SJPF  000.10 069.8 m E Pg      2011/03/26 02:44:37.1   0.4                          T                                        4664330
SJPF  000.10 069.8 m E Sg      2011/03/26 02:44:38.8   0.4                          T                7.3  .22        Md 1.7  4664328
ETSF  000.61 106.7 m E Pg      2011/03/26 02:44:46.0  -0.2                          T                                        4664329
ETSF  000.61 106.7 m E Sg      2011/03/26 02:44:54.2   0.0                          T                3.2  .21        Md 1.7  4664327
EPF   001.25 091.6 m E Pg      2011/03/26 02:44:57.8   0.0                          T                                        4664325
EPF   001.25 091.6 m E Sg      2011/03/26 02:45:13.6  -0.3                          T                1.1  .22 Ml 1.6 Md 1.6  4664326

.
EVENT     257600
    Date      Time       Latitude Longitude    Depth    Ndef Nsta Gap    Mag1  N    Mag2  N    Mag3  N   Author         ID
       rms   OT_Error      Smajor Sminor Az        Err   mdist  Mdist     Err        Err        Err      Quality

2011/03/26 03:43:33.9     44.6186    7.2598      2.0      20    8 170  Ml 1.4  8  Md 1.5  3              js067245    257600

      0.26   +-  0.08       1.9    1.0   59.08 +-  0.0    0.36   2.42   +-0.4      +-0.0                 m i ke

NORTHERN ITALY
Sta     Dist  EvAz     Phase      Date       Time     TRes  Azim  AzRes  Slow  SRes Def   SNR       Amp   Per   Mag1   Mag2       ID
MBDF  000.36 287.4 m E Pg      2011/03/26 03:43:41.4   0.2                          T                                        4664370
MBDF  000.36 287.4 m E Sg      2011/03/26 03:43:46.0  -0.1                          T               11.9  .28        Md 1.5  4664360
SBF   000.77 170.5 m E Pg      2011/03/26 03:43:48.1  -0.4                          T                                        4664364
SBF   000.77 170.5 m E Sg      2011/03/26 03:43:58.4  -0.1                          T                1.7  .24        Md 1.5  4664361
LPG   000.95 337.9 m E Pg      2011/03/26 03:43:52.0  -0.1                          T                                        4664367
LPG   000.95 337.9 m E Sg      2011/03/26 03:44:03.7  -0.8                          T                1.0  .26 Ml 1.4 Md 1.4  4664357
LPL   000.97 337.6 m E Pg      2011/03/26 03:43:52.7   0.2                          T                                        4664368
LPL   000.97 337.6 m E Sg      2011/03/26 03:44:05.1   0.0                          T                1.2  .31 Ml 1.4         4664358
ORIF  001.03 287.4 m E Pg      2011/03/26 03:43:53.4   0.0                          T                                        4664369
ORIF  001.03 287.4 m E Sg      2011/03/26 03:44:06.0  -0.7                          T                 .5  .24 Ml 1.2         4664359
SMRF  001.37 242.6 m E Pg      2011/03/26 03:43:59.7   0.1                          T                                        4664366
SMRF  001.37 242.6 m E Sg      2011/03/26 03:44:17.1  -0.1                          T                 .3  .24 Ml 1.1         4664356
LMR   001.39 203.1 m E Pg      2011/03/26 03:44:00.2   0.2                          T                                        4664365
LMR   001.39 203.1 m E Sg      2011/03/26 03:44:17.6  -0.4                          T                3.8  .41 Ml 2.0         4664355
PGF   002.42 148.0 m E Pn      2011/03/26 03:44:12.8  -0.1                          T                                        4664363
PGF   002.42 148.0 m E Sn      2011/03/26 03:44:41.5   0.1                          T                  1  .32 Ml 2.0         4664362

.
EVENT     257601
    Date      Time       Latitude Longitude    Depth    Ndef Nsta Gap    Mag1  N    Mag2  N    Mag3  N   Author         ID
       rms   OT_Error      Smajor Sminor Az        Err   mdist  Mdist     Err        Err        Err      Quality

2011/03/26 04:14:56.9     44.6174    7.2695      2.0      16    7 193  Ml 1.1  6  Md 1.4  3              js067245    257601

      0.20   +-  0.09       1.9    1.0   75.54 +-  0.0    0.37   1.40   +-0.2      +-0.0                 m i ke

NORTHERN ITALY
Sta     Dist  EvAz     Phase      Date       Time     TRes  Azim  AzRes  Slow  SRes Def   SNR       Amp   Per   Mag1   Mag2       ID
MBDF  000.37 287.3 m E Pg      2011/03/26 04:15:04.4   0.1                          T                                        4664386
MBDF  000.37 287.3 m E Sg      2011/03/26 04:15:09.0  -0.2                          T                4.7  .28        Md 1.4  4664379
SBF   000.76 171.0 m E Pg      2011/03/26 04:15:11.4   0.0                          T                                        4664382
SBF   000.76 171.0 m E Sg      2011/03/26 04:15:20.7  -0.6                          T                1.1  .34        Md 1.5  4664373
LPG   000.95 337.5 m E Pg      2011/03/26 04:15:14.9  -0.3                          T                                        4664383
LPG   000.95 337.5 m E Sg      2011/03/26 04:15:27.4  -0.2                          T                 .6  .18 Ml 1.3 Md 1.4  4664376
LPL   000.98 337.2 m E Pg      2011/03/26 04:15:15.7   0.2                          T                                        4664384
LPL   000.98 337.2 m E Sg      2011/03/26 04:15:28.1  -0.1                          T                 .6  .32 Ml 1.1         4664377
ORIF  001.03 287.4 m E Pg      2011/03/26 04:15:16.4   0.0                          T                                        4664385
ORIF  001.03 287.4 m E Sg      2011/03/26 04:15:29.6  -0.2                          T                 .3  .29 Ml  .8         4664378
SMRF  001.38 242.8 m E Pg      2011/03/26 04:15:22.7   0.0                          T                                        4664380
SMRF  001.38 242.8 m E Sg      2011/03/26 04:15:40.1  -0.3                          T                 .2  .21 Ml 1           4664375
LMR   001.40 203.4 m E Pg      2011/03/26 04:15:23.0   0.1                          T                                        4664381
LMR   001.40 203.4 m E Sg      2011/03/26 04:15:41.0   0.1                          T                 .9  .35 Ml 1.4         4664374

.
EVENT     257602
    Date      Time       Latitude Longitude    Depth    Ndef Nsta Gap    Mag1  N    Mag2  N    Mag3  N   Author         ID
       rms   OT_Error      Smajor Sminor Az        Err   mdist  Mdist     Err        Err        Err      Quality

2011/03/26 04:16:15.5     44.6199    7.2574      2.0      20    8 170  Ml 1.4  8  Md 1.5  3              js067245    257602

      0.19   +-  0.06       1.4     .8   59.07 +-  0.0    0.36   2.43   +-0.3      +-0.0                 m i ke

NORTHERN ITALY
Sta     Dist  EvAz     Phase      Date       Time     TRes  Azim  AzRes  Slow  SRes Def   SNR       Amp   Per   Mag1   Mag2       ID
MBDF  000.36 287.3 m E Pg      2011/03/26 04:16:22.9   0.2                          T                                        4664406
MBDF  000.36 287.3 m E Sg      2011/03/26 04:16:27.0  -0.5                          T                7.9  .28        Md 1.4  4664391
SBF   000.77 170.3 m E Pg      2011/03/26 04:16:29.9  -0.1                          T                                        4664400
SBF   000.77 170.3 m E Sg      2011/03/26 04:16:39.8  -0.2                          T                 .4  .16        Md 1.5  4664397
LPG   000.95 338.0 m E Pg      2011/03/26 04:16:33.3  -0.3                          T                                        4664403
LPG   000.95 338.0 m E Sg      2011/03/26 04:16:46.0   0.1                          T                 .8  .19 Ml 1.4 Md 1.4  4664394
LPL   000.97 337.6 m E Pg      2011/03/26 04:16:34.2   0.3                          T                                        4664404
LPL   000.97 337.6 m E Sg      2011/03/26 04:16:46.6   0.0                          T                1.2  .32 Ml 1.4         4664393
ORIF  001.03 287.4 m E Pg      2011/03/26 04:16:34.9   0.1                          T                                        4664405
ORIF  001.03 287.4 m E Sg      2011/03/26 04:16:47.6  -0.5                          T                 .6  .24 Ml 1.2         4664392
SMRF  001.37 242.5 m E Pg      2011/03/26 04:16:41.1   0.1                          T                                        4664402
SMRF  001.37 242.5 m E Sg      2011/03/26 04:16:58.7   0.0                          T                 .4  .33 Ml 1.0         4664395
LMR   001.39 203.0 m E Pg      2011/03/26 04:16:41.6   0.1                          T                                        4664401
LMR   001.39 203.0 m E Sg      2011/03/26 04:16:59.5   0.0                          T                1.4  .33 Ml 1.6         4664396
PGF   002.43 148.0 m E Pn      2011/03/26 04:16:54.3  -0.1                          T                                        4664399
PGF   002.43 148.0 m E Sn      2011/03/26 04:17:23.0   0.0                          T                 .6  .20 Ml 2.0         4664398

.
EVENT     257603
    Date      Time       Latitude Longitude    Depth    Ndef Nsta Gap    Mag1  N    Mag2  N    Mag3  N   Author         ID
       rms   OT_Error      Smajor Sminor Az        Err   mdist  Mdist     Err        Err        Err      Quality

2011/03/26 04:19:22.5     44.6157    7.2655      2.0      16    7 192  Ml 1.1  6  Md 1.3  3              js067245    257603

      0.13   +-  0.06       1.3     .7   75.51 +-  0.0    0.37   1.39   +-0.1      +-0.1                 m i ke

NORTHERN ITALY
Sta     Dist  EvAz     Phase      Date       Time     TRes  Azim  AzRes  Slow  SRes Def   SNR       Amp   Per   Mag1   Mag2       ID
MBDF  000.37 287.7 m E Pg      2011/03/26 04:19:30.0   0.1                          T                                        4664422
MBDF  000.37 287.7 m E Sg      2011/03/26 04:19:34.7  -0.1                          T                2.5  .21        Md 1.3  4664409
SBF   000.76 170.7 m E Pg      2011/03/26 04:19:36.8  -0.2                          T                                        4664416
SBF   000.76 170.7 m E Sg      2011/03/26 04:19:47.0   0.1                          T                 .4  .15        Md 1.4  4664415
LPG   000.95 337.7 m E Pg      2011/03/26 04:19:40.6  -0.2                          T                                        4664419
LPG   000.95 337.7 m E Sg      2011/03/26 04:19:53.2   0.0                          T                 .6  .24 Ml 1.2 Md 1.3  4664412
LPL   000.98 337.4 m E Pg      2011/03/26 04:19:41.4   0.2                          T                                        4664420
LPL   000.98 337.4 m E Sg      2011/03/26 04:19:53.8   0.0                          T                 .6  .32 Ml 1.1         4664411
ORIF  001.03 287.5 m E Pg      2011/03/26 04:19:42.0   0.0                          T                                        4664421
ORIF  001.03 287.5 m E Sg      2011/03/26 04:19:55.2  -0.2                          T                 .6  .32 Ml 1.1         4664410
SMRF  001.37 242.8 m E Pg      2011/03/26 04:19:48.2   0.1                          T                                        4664418
SMRF  001.37 242.8 m E Sg      2011/03/26 04:20:05.8  -0.1                          T                 .3  .34 Ml  .9         4664413
LMR   001.39 203.3 m E Pg      2011/03/26 04:19:48.6   0.1                          T                                        4664417
LMR   001.39 203.3 m E Sg      2011/03/26 04:20:06.6   0.1                          T                 .5  .23 Ml 1.3         4664414

.
EVENT     257604
    Date      Time       Latitude Longitude    Depth    Ndef Nsta Gap    Mag1  N    Mag2  N    Mag3  N   Author         ID
       rms   OT_Error      Smajor Sminor Az        Err   mdist  Mdist     Err        Err        Err      Quality

2011/03/26 04:24:14.8     44.6185    7.2698      2.0      16    7 193  Ml 1.0  6  Md 1.3  3              js067245    257604

      0.11   +-  0.06       1.2     .6   75.54 +-  0.0    0.37   1.40   +-0.3      +-0.0                 m i ke

NORTHERN ITALY
Sta     Dist  EvAz     Phase      Date       Time     TRes  Azim  AzRes  Slow  SRes Def   SNR       Amp   Per   Mag1   Mag2       ID
MBDF  000.37 287.1 m E Pg      2011/03/26 04:24:22.3   0.1                          T                                        4664438
MBDF  000.37 287.1 m E Sg      2011/03/26 04:24:27.0  -0.2                          T                3.2  .28        Md 1.3  4664425
SBF   000.76 171.0 m E Pg      2011/03/26 04:24:29.2  -0.1                          T                                        4664432
SBF   000.76 171.0 m E Sg      2011/03/26 04:24:39.2  -0.1                          T                 .3  .17        Md 1.4  4664431
LPG   000.95 337.5 m E Pg      2011/03/26 04:24:32.8  -0.2                          T                                        4664435
LPG   000.95 337.5 m E Sg      2011/03/26 04:24:45.4   0.0                          T                 .4  .20 Ml 1.1 Md 1.3  4664428
LPL   000.98 337.2 m E Pg      2011/03/26 04:24:33.6   0.2                          T                                        4664436
LPL   000.98 337.2 m E Sg      2011/03/26 04:24:46.0   0.0                          T                 .4  .25 Ml 1.0         4664427
ORIF  001.03 287.3 m E Pg      2011/03/26 04:24:34.2  -0.1                          T                                        4664437
ORIF  001.03 287.3 m E Sg      2011/03/26 04:24:47.7   0.0                          T                 .3  .22 Ml 1.0         4664426
SMRF  001.38 242.8 m E Pg      2011/03/26 04:24:40.5   0.0                          T                                        4664434
SMRF  001.38 242.8 m E Sg      2011/03/26 04:24:58.2  -0.1                          T                 .1  .22 Ml  .5         4664429
LMR   001.40 203.4 m E Pg      2011/03/26 04:24:40.9   0.1                          T                                        4664433
LMR   001.40 203.4 m E Sg      2011/03/26 04:24:58.9   0.1                          T                 .5  .19 Ml 1.4         4664430

.
