EVENT     253798
    Date      Time       Latitude Longitude    Depth    Ndef Nsta Gap    Mag1  N    Mag2  N    Mag3  N   Author         ID
       rms   OT_Error      Smajor Sminor Az        Err   mdist  Mdist     Err        Err        Err      Quality

2011/01/14 22:59:03.0     42.9427     .1871      2.0      17    4 090  Ml 1.4  3  Md 1.5  2              js067245    253818

      0.41   +-  0.07       2.1    1.1    3.01 +-  0.0    0.13   1.54   +-0.1      +-0.1                 m i ke

PYRENEES
Sta     Dist  EvAz     Phase      Date       Time     TRes  Azim  AzRes  Slow  SRes Def   SNR       Amp   Per   Mag1   Mag2       ID
EPF   000.14 052.0 m E Pg      2011/01/14 22:59:06.3   0.3                          T                                        4583071
EPF   000.14 052.0 m E Sg      2011/01/14 22:59:08.4   0.3                          T               25.9  .22        Md 1.4  4583067
ETSF  000.55 265.7 m E Pg      2011/01/14 22:59:12.7  -0.8                          T                                        4583070
ETSF  000.55 265.7 m E Sg      2011/01/14 22:59:19.0  -0.8                          T                2.3  .20        Md 1.6  4583068
SJPF  001.05 279.8 m E Pg      2011/01/14 22:59:22.6   0.0                          T                                        4583064
SJPF  001.05 279.8 m E Sg      2011/01/14 22:59:36.2   0.0                          T                1.4  .28 Ml 1.5         4583065
MTLF  001.54 074.3 m E Pg      2011/01/14 22:59:31.2  -0.4                          T                                        4583069
MTLF  001.54 074.3 m E Sg      2011/01/14 22:59:51.3  -0.2                          T                 .6  .26 Ml 1.4         4583066

.
EVENT     253804
    Date      Time       Latitude Longitude    Depth    Ndef Nsta Gap    Mag1  N    Mag2  N    Mag3  N   Author         ID
       rms   OT_Error      Smajor Sminor Az        Err   mdist  Mdist     Err        Err        Err      Quality

2011/01/15 01:13:34.9     44.6816    7.3114      2.0      24   11 173  Ml 1.8 10  Md 1.7  3              js067245    253824

      0.15   +-  0.06       1.2     .7   71.57 +-  0.0    0.39   2.46   +-0.2      +-0.0                 m i ke

NORTHERN ITALY
Sta     Dist  EvAz     Phase      Date       Time     TRes  Azim  AzRes  Slow  SRes Def   SNR       Amp   Per   Mag1   Mag2       ID
MBDF  000.39 276.9 m E Pg      2011/01/15 01:13:42.4  -0.2                          T                                        4583125
MBDF  000.39 276.9 m E Sg      2011/01/15 01:13:48.1   0.3                          T               19.2  .34        Md 1.7  4583143
SBF   000.82 173.8 m E Pg      2011/01/15 01:13:50.5  -0.1                          T                                        4583146
SBF   000.82 173.8 m E Sg      2011/01/15 01:14:01.1  -0.1                          T                3.2  .21        Md 1.8  4583136
LPG   000.91 334.3 m E Pg      2011/01/15 01:13:52.6   0.2                          T                                        4583147
LPG   000.91 334.3 m E Sg      2011/01/15 01:14:04.1  -0.1                          T                1.3  .25 Ml 1.5 Md 1.7  4583140
LPL   000.93 334.0 m E Pg      2011/01/15 01:13:52.8   0.1                          T                                        4583126
LPL   000.93 334.0 m E Sg      2011/01/15 01:14:04.8   0.0                          T                1.6  .23 Ml 1.6         4583141
ORIF  001.05 283.6 m E Pg      2011/01/15 01:13:54.2  -0.4                          T                                        4583127
ORIF  001.05 283.6 m E Sg      2011/01/15 01:14:08.4   0.2                          T                2.4  .28 Ml 1.8         4583142
FRF   001.22 203.4 m E Pg      2011/01/15 01:13:57.9   0.2                          T                                        4583144
FRF   001.22 203.4 m E Sg      2011/01/15 01:14:13.6   0.1                          T                3.5  .28 Ml 2.1         4583138
SMRF  001.43 241.1 m E Pg      2011/01/15 01:14:01.8   0.1                          T                                        4583148
SMRF  001.43 241.1 m E Sg      2011/01/15 01:14:20.3   0.1                          T                7.6  .56 Ml 2.1         4583139
LMR   001.47 203.5 m E Pg      2011/01/15 01:14:02.3   0.0                          T                                        4583145
LMR   001.47 203.5 m E Sg      2011/01/15 01:14:21.3   0.1                          T                2.9  .28 Ml 2.1         4583137
VIVF  001.89 276.2 m E Pn      2011/01/15 01:14:06.6   0.1                          T                                        4583133
VIVF  001.89 276.2 m E Sn      2011/01/15 01:14:29.5   0.0                          T                1.1  .41 Ml 1.6         4583132
CABF  002.11 336.4 m E Pn      2011/01/15 01:14:09.5  -0.1                          T                                        4583130
CABF  002.11 336.4 m E Sn      2011/01/15 01:14:34.9   0.0                          T                 .5  .21 Ml 1.6         4583131
PGF   002.46 149.5 m E Pn      2011/01/15 01:14:14.3   0.0                          T                                        4583135
PGF   002.46 149.5 m E Sn      2011/01/15 01:14:43.2   0.0                          T                 .6  .23 Ml 2.0         4583134

.
EVENT     253805
    Date      Time       Latitude Longitude    Depth    Ndef Nsta Gap    Mag1  N    Mag2  N    Mag3  N   Author         ID
       rms   OT_Error      Smajor Sminor Az        Err   mdist  Mdist     Err        Err        Err      Quality

2011/01/15 05:33:59.7     46.1622    6.6913      2.0      25   10 056  Ml 1.8  8  Md 1.8  3              js067245    253825

      0.23   +-  0.03        .6     .5   84.72 +-  0.0    0.18   2.39   +-0.3      +-0.1                 m i ke

SWITZERLAND
Sta     Dist  EvAz     Phase      Date       Time     TRes  Azim  AzRes  Slow  SRes Def   SNR       Amp   Per   Mag1   Mag2       ID
CABF  000.61 317.3 m E Pg      2011/01/15 05:34:11.8   0.4                          T                                        4583167
CABF  000.61 317.3 m E Sg      2011/01/15 05:34:18.9  -0.6                          T                5.1  .26        Md 1.7  4583154
LPL   000.65 177.4 m E Pg      2011/01/15 05:34:12.1  -0.1                          T                                        4583170
LPL   000.65 177.4 m E Sg      2011/01/15 05:34:20.4  -0.3                          T                2.3  .40        Md 1.8  4583163
LPG   000.67 176.4 m E Pg      2011/01/15 05:34:12.8   0.1                          T                                        4583169
LPG   000.67 176.4 m E Sg      2011/01/15 05:34:21.2  -0.1                          T                1.7  .22        Md 1.9  4583162
ORIF  001.37 204.9 m E Pg      2011/01/15 05:34:25.4   0.0                          T                                        4583168
ORIF  001.37 204.9 m E Sg      2011/01/15 05:34:43.1   0.0                          T                1.4  .25 Ml 1.7         4583164
MBDF  001.44 177.7 m E Pg      2011/01/15 05:34:26.7   0.1                          T                                        4583161
MBDF  001.44 177.7 m E Sg      2011/01/15 05:34:45.2   0.0                          T                 .5  .25 Ml 1.3         4583155
HINF  001.66 003.8 m E Pg      2011/01/15 05:34:30.6  -0.1                          T                                        4583158
HINF  001.66 003.8 m E Sg      2011/01/15 05:34:51.9  -0.1                          T                1.3  .23 Ml 1.9         4583166
HAU   001.86 352.9 m E Pg      2011/01/15 05:34:34.3   0.0                          T                                        4583157
HAU   001.86 352.9 m E Sg      2011/01/15 05:34:58.2  -0.1                          T                2.8  .20 Ml 2.1         4583153
VIVF  001.93 228.1 m E Pg      2011/01/15 05:34:35.4  -0.2                          T                                        4583160
VIVF  001.93 228.1 m E Sg      2011/01/15 05:35:00.5   0.0                          T                4.2  .41 Ml 2.2         4583156
SMF   002.03 284.8 m E Pg      2011/01/15 05:34:37.4  -0.1                          T                                        4583159
SMF   002.03 284.8 m E Sg      2011/01/15 05:35:03.4  -0.2                          T                1.4  .18 Ml 2.1         4583165
AVF   002.39 286.4 m E Pg      2011/01/15 05:34:44.1   0.0                          T                                        4583151
AVF   002.39 286.4 m E Sg      2011/01/15 05:35:14.8   0.0                          T                 .6  .31 Ml 1.6         4583152

.
EVENT     253801
    Date      Time       Latitude Longitude    Depth    Ndef Nsta Gap    Mag1  N    Mag2  N    Mag3  N   Author         ID
       rms   OT_Error      Smajor Sminor Az        Err   mdist  Mdist     Err        Err        Err      Quality

2011/01/15 05:50:47.7     43.0907    -.7269      2.0       9    4 168  Ml 1.4  1  Md 1.3  2              js067245    253821

      0.07   +-  0.03        .9     .4    6.90 +-  0.0    0.23   2.17   +-         +-0.1                 m i ke

PYRENEES
Sta     Dist  EvAz     Phase      Date       Time     TRes  Azim  AzRes  Slow  SRes Def   SNR       Amp   Per   Mag1   Mag2       ID
ETSF  000.23 147.3 m E Pg      2011/01/15 05:50:52.4   0.0                          T                                        4583077
ETSF  000.23 147.3 m E Sg      2011/01/15 05:50:55.3  -0.2                          T                8.3  .25        Md 1.3  4583074
SJPF  000.37 273.7 m E Pg      2011/01/15 05:50:54.8   0.0                          T                                        4583076
SJPF  000.37 273.7 m E Sg      2011/01/15 05:50:59.7   0.0                          T                1.2  .25        Md 1.2  4583075
EPF   000.78 094.1 m E Pg      2011/01/15 05:51:02.6   0.0                          T                                        4583072
EPF   000.78 094.1 m E Sg      2011/01/15 05:51:12.8   0.0                          T                 .4  .20                4583073
MTLF  002.17 082.4 m E Pn      2011/01/15 05:51:23.0   0.0                          T                                        4583081
MTLF  002.17 082.4 m E Sn      2011/01/15 05:51:48.7  -0.1                          T                 .3  .20 Ml 1.4         4583080

.
EVENT     253802
    Date      Time       Latitude Longitude    Depth    Ndef Nsta Gap    Mag1  N    Mag2  N    Mag3  N   Author         ID
       rms   OT_Error      Smajor Sminor Az        Err   mdist  Mdist     Err        Err        Err      Quality

2011/01/15 10:54:36.8     47.1462   -1.7811      5.0 f    45   14 169  Ml 2.5 15  Md 2.3  3              js067245    253822

      0.63   +-  0.09       2.5    1.2   44.19 +-  0.0    1.21   3.85   +-0.2      +-0.0                 m i ke

FRANCE
Sta     Dist  EvAz     Phase      Date       Time     TRes  Azim  AzRes  Slow  SRes Def   SNR       Amp   Per   Mag1   Mag2       ID
QUIF  001.21 309.9 m E Pn      2011/01/15 10:54:57.7  -1.1                          T                                        4583121
QUIF  001.21 309.9 m E Pg      2011/01/15 10:54:59.7   0.2                          T                                        4583672
QUIF  001.21 309.9 m E Sg      2011/01/15 10:55:15.7   0.5                          T               24.5  .24 Ml 2.9 Md 2.3  4583115
SGMF  001.23 335.0 m E Pn      2011/01/15 10:54:58.5  -0.5                          T                                        4583123
SGMF  001.23 335.0 m E Pg      2011/01/15 10:55:00.1   0.4                          T                                        4583678
SGMF  001.23 335.0 m E Sg      2011/01/15 10:55:16.0   0.4                          T                8.6  .31 Ml 2.4 Md 2.3  4583114
MFF   001.25 115.3 m E Pn      2011/01/15 10:54:59.1  -0.2                          T                                        4583124
MFF   001.25 115.3 m E Pg      2011/01/15 10:55:00.4   0.2                          T                                        4583671
MFF   001.25 115.3 m E Sg      2011/01/15 10:55:15.6  -0.7                          T                6.4  .21 Ml 2.6 Md 2.3  4583118
GRR   001.39 026.3 m E Pn      2011/01/15 10:55:01.0  -0.2                          T                                        4583100
GRR   001.39 026.3 m E Pg      2011/01/15 10:55:03.3   0.5                          T                                        4583119
GRR   001.39 026.3 m E Sg      2011/01/15 10:55:20.7   0.0                          T               10.3  .18 Ml 2.6         4583117
ROSF  001.56 320.3 m E Pn      2011/01/15 10:55:02.6  -0.9                          T                                        4583103
ROSF  001.56 320.3 m E Pg      2011/01/15 10:55:06.4   0.5                          T                                        4583122
ROSF  001.56 320.3 m E Sg      2011/01/15 10:55:26.4   0.4                          T                3.8  .24 Ml 2.3         4583113
FLN   001.84 027.9 m E Pn      2011/01/15 10:55:06.8  -0.6                          T                                        4583102
FLN   001.84 027.9 m E Pg      2011/01/15 10:55:11.0   0.0                          T                                        4583112
FLN   001.84 027.9 m E Sg      2011/01/15 10:55:34.0  -0.7 103.5  *****             T                6.0  .24 Ml 2.4         4583099
LDF   001.83 037.0 m E Pn      2011/01/15 10:55:07.2   0.0                          T                                        4583101
LDF   001.83 037.0 m E Pg      2011/01/15 10:55:10.5  -0.3                          T                                        4583120
LDF   001.83 037.0 m E Sg      2011/01/15 10:55:34.0  -0.4                          T                7.4  .29 Ml 2.5         4583116
LFF   002.82 140.6 m E Pn      2011/01/15 10:55:20.9   0.2                          T                                        4583090
LFF   002.82 140.6 m E Pg      2011/01/15 10:55:28.9  -0.2                          T                                        4583087
LFF   002.82 140.6 m E Sg      2011/01/15 10:56:05.2  -0.2                          T                3.5  .43 Ml 2.1         4583092
TCF   002.88 105.9 m E Pn      2011/01/15 10:55:22.2   0.7                          T                                        4583107
TCF   002.88 105.9 m E Pg      2011/01/15 10:55:30.2   0.0                          T                                        4583108
TCF   002.88 105.9 m E Sg      2011/01/15 10:56:07.1  -0.1                          T                1.9  .26 Ml 2.3         4583095
RJF   002.94 127.6 m E Pn      2011/01/15 10:55:22.6   0.2                          T                                        4583091
RJF   002.94 127.6 m E Pg      2011/01/15 10:55:31.0  -0.3                          T                                        4583086
RJF   002.94 127.6 m E Sg      2011/01/15 10:56:08.7  -0.4                          T                5.3  .34 Ml 2.3         4583094
HYF   003.02 086.1 m E Pn      2011/01/15 10:55:23.8   0.4                          T                                        4583106
HYF   003.02 086.1 m E Pg      2011/01/15 10:55:33.0   0.2                          T                                        4583109
HYF   003.02 086.1 m E Sg      2011/01/15 10:56:11.1  -0.5                          T                                        4583096
BGF   003.23 098.8 m E Pn      2011/01/15 10:55:26.5   0.2                          T                                        4583105
BGF   003.23 098.8 m E Pg      2011/01/15 10:55:36.5  -0.1                          T                                        4583110
BGF   003.23 098.8 m E Sg      2011/01/15 10:56:17.7  -0.5                          T                5.6  .37 Ml 2.7         4583097
CAF   003.48 128.3 m E Pn      2011/01/15 10:55:29.9   0.2                          T                                        4583089
CAF   003.48 128.3 m E Pg      2011/01/15 10:55:41.2  -0.1                          T                                        4583088
CAF   003.48 128.3 m E Sg      2011/01/15 10:56:25.5  -0.5                          T                1.9  .26 Ml 2.4         4583093
LOR   003.85 086.1 m E Pg      2011/01/15 10:55:48.1   0.0 267.9  -2.3              T                                        4583679

.
