EVENT     264616
    Date      Time       Latitude Longitude    Depth    Ndef Nsta Gap    Mag1  N    Mag2  N    Mag3  N   Author         ID
       rms   OT_Error      Smajor Sminor Az        Err   mdist  Mdist     Err        Err        Err      Quality

2011/10/02 06:31:28.6     46.9568    4.7518     14.0 f    45   14 128  Ml 2.1 10  Md 2.2  4              js067245    264636

      0.36   +-  0.05       1.3     .7  154.52 +-  0.0    0.68   3.38   +-0.2      +-0.2                 m i ke

FRANCE
Sta     Dist  EvAz     Phase      Date       Time     TRes  Azim  AzRes  Slow  SRes Def   SNR       Amp   Per   Mag1   Mag2       ID
LOR   000.68 297.4 m E Pg      2011/10/02 06:31:42.1   0.3 112.8  -4.0              T                                        4764117
LOR   000.68 297.4 m E Sg      2011/10/02 06:31:51.1   0.3 117.9  1.2               T                                Md 2.1  4764116
SMF   000.70 243.9 m E Pg      2011/10/02 06:31:42.2   0.2                          T                                        4764118
SMF   000.70 243.9 m E Pn      2011/10/02 06:31:42.4  -0.2                          T                                        4764717
SMF   000.70 243.9 m E Sg      2011/10/02 06:31:51.7   0.4                          T               14.1  .32        Md 2.0  4764716
SSF   000.86 277.5 m E Pg      2011/10/02 06:31:44.6  -0.3                          T                                        4764723
SSF   000.86 277.5 m E Pn      2011/10/02 06:31:45.2   0.4                          T                                        4764724
SSF   000.86 277.5 m E Sg      2011/10/02 06:31:56.3   0.1                          T                                        4764115
SSF   000.86 277.5 m E S       2011/10/02 06:31:59.1   0.0                          T                                        4764722
AVF   000.97 260.7 m E Pn      2011/10/02 06:31:46.2  -0.1                          T                                        4764709
AVF   000.97 260.7 m E Pg      2011/10/02 06:31:47.1   0.1                          T                                        4764708
AVF   000.97 260.7 m E Sg      2011/10/02 06:31:59.7  -0.1                          T                2.6  .23 Ml 1.9 Md 2.4  4764707
CABF  000.98 110.2 m E Pn      2011/10/02 06:31:46.5   0.0                          T                                        4764706
CABF  000.98 110.2 m E Pg      2011/10/02 06:31:47.5   0.2                          T                                        4764705
CABF  000.98 110.2 m E Sn      2011/10/02 06:31:59.2  -0.1                          T                                        4764725
CABF  000.98 110.2 m E Sg      2011/10/02 06:32:00.3   0.2                          T                5.9  .22 Ml 2.2 Md 2.1  4764697
BGF   001.37 253.7 m E Pn      2011/10/02 06:31:51.7   0.0                          T                                        4764715
BGF   001.37 253.7 m E Pg      2011/10/02 06:31:54.1  -0.2                          T                                        4764714
BGF   001.37 253.7 m E Sg      2011/10/02 06:32:11.3  -0.7                          T                4.2  .26 Ml 2.2         4764713
HAU   001.51 045.3 m E Pn      2011/10/02 06:31:52.6  -1.1                          T                                        4764703
HAU   001.51 045.3 m E Pg      2011/10/02 06:31:56.9   0.1                          T                                        4764704
HAU   001.51 045.3 m E Sn      2011/10/02 06:32:11.8  -0.1                          T                                        4764701
HAU   001.51 045.3 m E Sg      2011/10/02 06:32:16.3   0.0                          T                4.2  .22 Ml 2.1         4764702
THEF  001.52 033.0 m E Pn      2011/10/02 06:31:53.7  -0.2                          T                                        4764695
THEF  001.52 033.0 m E Pg      2011/10/02 06:31:57.4   0.2                          T                                        4764694
THEF  001.52 033.0 m E Sn      2011/10/02 06:32:12.1  -0.2                          T                                        4764732
THEF  001.52 033.0 m E Sg      2011/10/02 06:32:17.1   0.2                          T                6.3  .24 Ml 2.5         4764696
MEZF  001.56 007.4 m E Pg      2011/10/02 06:31:57.8   0.0 188.4  0.8               T                                        4764690
MEZF  001.56 007.4 m E Sg      2011/10/02 06:32:18.0   0.1                          T                3.9  .30 Ml 2.2         4764692
HINF  001.67 058.2 m E Pg      2011/10/02 06:31:58.4  -1.4                          T                                        4764698
HINF  001.67 058.2 m E Sn      2011/10/02 06:32:15.7  -0.1                          T                                        4764699
HINF  001.67 058.2 m E Sg      2011/10/02 06:32:21.1  -0.2                          T                                        4764700
TCF   001.88 250.0 m E Pn      2011/10/02 06:31:58.8   0.1                          T                                        4764721
TCF   001.88 250.0 m E Pg      2011/10/02 06:32:03.2  -0.4                          T                                        4764720
TCF   001.88 250.0 m E S       2011/10/02 06:32:25.1   0.4                          T                                        4764718
TCF   001.88 250.0 m E Sg      2011/10/02 06:32:28.5   0.7                          T                1.3  .26 Ml 1.9         4764719
SFTF  001.26 008.7 m E Sg      2011/10/02 06:32:08.7  -0.1                          T                5.2  .25 Ml 2.3         4764693
CDF   002.24 048.6 m E Pg      2011/10/02 06:32:10.5   0.0                          T                                        4764733
CDF   002.24 048.6 m E Sg      2011/10/02 06:32:39.5   0.1                          T                                        4764731
PAGF  001.73 022.0 m E Sg      2011/10/02 06:32:22.3  -0.9                          T                 .6  .19 Ml 1.6         4764691

.
EVENT     264647
    Date      Time       Latitude Longitude    Depth    Ndef Nsta Gap    Mag1  N    Mag2  N    Mag3  N   Author         ID
       rms   OT_Error      Smajor Sminor Az        Err   mdist  Mdist     Err        Err        Err      Quality

2011/10/02 12:05:48.6     43.1362    -.7532     10.0      15    4 164  Ml 1.2  1  Md 1.5  2              js067245    264667

      0.32   +-  0.10       2.6    1.3    5.08 +-  0.0    0.06   2.18   +-         +-0.0                 m i ke

PYRENEES
Sta     Dist  EvAz     Phase      Date       Time     TRes  Azim  AzRes  Slow  SRes Def   SNR       Amp   Per   Mag1   Mag2       ID
ETSF  000.28 149.0 m E Pg      2011/10/02 12:05:53.7  -0.6                          T                                        4764743
ETSF  000.28 149.0 m E Sg      2011/10/02 12:05:57.2  -1.0                          T               23.4  .18        Md 1.5  4764742
SJPF  000.35 266.4 m E Pg      2011/10/02 12:05:55.6   0.1                          T                                        4764740
SJPF  000.35 266.4 m E Sg      2011/10/02 12:06:00.2   0.0                          T                8.3  .24        Md 1.5  4764741
EPF   000.81 097.2 m E Pg      2011/10/02 12:06:04.0   0.1                          T                                        4764739
EPF   000.81 097.2 m E Sg      2011/10/02 12:06:14.1  -0.4                          T                1.1  .20                4764738
MTLF  002.18 083.6 m E Sg      2011/10/02 12:06:57.2   0.0                          T                 .2  .20 Ml 1.2         4770104

.
