EVENT     280291
    Date      Time       Latitude Longitude    Depth    Ndef Nsta Gap    Mag1  N    Mag2  N    Mag3  N   Author         ID
       rms   OT_Error      Smajor Sminor Az        Err   mdist  Mdist     Err        Err        Err      Quality

2012/07/27 00:11:45.1     42.6118    1.0026      5.0 f    38    8 044  Ml 1.6  6  Md 1.8  3              bulletin    280391
                                                                                                         _ldg
      0.44   +-  0.06       1.2    1.0   28.36 +-  0.0    0.17   2.72   +-0.2      +-0.0                 m i ke

PYRENEES
Sta     Dist  EvAz     Phase      Date       Time     TRes  Azim  AzRes  Slow  SRes Def   SNR       Amp   Per   Mag1   Mag2       ID
EPF   000.64 310.8 m E Pg      2012/07/27 00:11:57.2  -0.2                          T                                        5035247
EPF   000.64 310.8 m E Pn      2012/07/27 00:11:59.0  -0.4                          T                                        5041635
EPF   000.64 310.8 m E Sg      2012/07/27 00:12:05.7  -0.1                          T                3.0  .26        Md 1.8  5035245
MTLF  001.15 050.3 m E Pn      2012/07/27 00:12:06.7   0.4                          T                                        5035246
MTLF  001.15 050.3 m E Sg      2012/07/27 00:12:21.8   0.1                          T                 .7  .23 Ml 1.4 Md 1.8  5035244
ETSF  001.19 284.5 m E Pg      2012/07/27 00:12:07.0  -0.4                          T                                        5035243
ETSF  001.19 284.5 m E Sg      2012/07/27 00:12:22.2  -0.5                          T                1.2  .23 Ml 1.6 Md 1.8  5035242
SJPF  001.71 287.8 m E Pn      2012/07/27 00:12:14.2   0.3                          T                                        5035239
SJPF  001.71 287.8 m E Sg      2012/07/27 00:12:38.9  -0.3                          T                1.1  .29 Ml 1.7         5041640
LASF  002.55 053.9 m E Pn      2012/07/27 00:12:25.7   0.4                          T                                        5035241
LASF  002.55 053.9 m E Sn      2012/07/27 00:12:55.2   0.4                          T                1.0  .31 Ml 1.8         5035240
LFF   002.33 355.4 m E Sn      2012/07/27 00:12:49.7   0.0                          T                                        5041638
LFF   002.33 355.4 m E Sg      2012/07/27 00:12:58.6   0.1                          T                                        5041639
RJF   002.72 007.7 m E Sn      2012/07/27 00:12:58.5  -0.5                          T                                        5041636
RJF   002.72 007.7 m E Sg      2012/07/27 00:13:10.6   0.1                          T                                        5041637
CAF   002.44 018.0 m E Sg      2012/07/27 00:13:00.5  -1.3                          T                 .8  .32 Ml 1.7         5041634

.
EVENT     280162
    Date      Time       Latitude Longitude    Depth    Ndef Nsta Gap    Mag1  N    Mag2  N    Mag3  N   Author         ID
       rms   OT_Error      Smajor Sminor Az        Err   mdist  Mdist     Err        Err        Err      Quality

2012/07/27 00:55:05.8     44.4583    6.9595      2.0      38    8 048  Ml 1.4  7  Md 1.7  3              bulletin    280262
                                                                                                         _ldg
      0.27   +-  0.04       1.0     .7   51.58 +-  0.0    0.11   1.17   +-0.4      +-0.1                 m i ke

FRANCE
Sta     Dist  EvAz     Phase      Date       Time     TRes  Azim  AzRes  Slow  SRes Def   SNR       Amp   Per   Mag1   Mag2       ID
MBDF  000.30 333.5 m E Pg      2012/07/27 00:55:11.8  -0.1                          T                                        5033486
MBDF  000.30 333.5 m E Sg      2012/07/27 00:55:15.8  -0.1                          T                3.2  .20        Md 1.6  5033481
SBF   000.69 149.9 m E Pg      2012/07/27 00:55:19.3   0.5                          T                                        5033475
SBF   000.69 149.9 m E Pn      2012/07/27 00:55:20.9  -0.2                          T                                        5041777
SBF   000.69 149.9 m E Sg      2012/07/27 00:55:27.9   0.1                          T                1.9  .24        Md 1.6  5033474
ORIF  000.90 301.2 m E Pg      2012/07/27 00:55:22.9   0.1                          T                                        5033485
ORIF  000.90 301.2 m E Sg      2012/07/27 00:55:33.7  -0.7                          T                1.4  .36 Ml 1.3         5033480
FRF   000.93 194.2 m E Pg      2012/07/27 00:55:23.4   0.3                          T                                        5033483
FRF   000.93 194.2 m E P       2012/07/27 00:55:24.9  -0.3                          T                                        5041778
FRF   000.93 194.2 m E Sg      2012/07/27 00:55:35.6   0.5                          T                2.5  .20 Ml 1.9 Md 1.8  5033478
LPL   001.07 351.4 m E Pg      2012/07/27 00:55:26.0  -0.2                          T                                        5033484
LPL   001.07 351.4 m E Sg      2012/07/27 00:55:39.7  -0.2                          T                 .6  .27 Ml 1.2         5033479
LPG   001.05 352.0 m E Pn      2012/07/27 00:55:26.0  -0.2                          T                                        5033476
LPG   001.05 352.0 m E Sg      2012/07/27 00:55:39.6   0.2                          T                 .4  .28 Ml 1           5040581
SMRF  001.11 244.6 m E P       2012/07/27 00:55:28.1  -0.2                          T                                        5041779
SMRF  001.11 244.6 m E Sn      2012/07/27 00:55:41.5  -0.2                          T                 .5  .32 Ml 1.0         5040580
LMR   001.17 196.3 m E Pn      2012/07/27 00:55:28.6   1.1                          T                                        5033482
LMR   001.17 196.3 m E Sn      2012/07/27 00:55:43.1   0.0                          T                3.2  .24 Ml 2.0         5033477

.
EVENT     280292
    Date      Time       Latitude Longitude    Depth    Ndef Nsta Gap    Mag1  N    Mag2  N    Mag3  N   Author         ID
       rms   OT_Error      Smajor Sminor Az        Err   mdist  Mdist     Err        Err        Err      Quality

2012/07/27 01:18:38.9     44.8787    9.8020     10.0 f    38    9 112  Ml 1.9 12  Md 2.2  2              bulletin    280392
                                                                                                         _ldg
      0.41   +-  0.10       2.0    1.5   50.50 +-  0.0    0.28   4.78   +-0.2      +-0.0                 m i ke

NORTHERN ITALY
Sta     Dist  EvAz     Phase      Date       Time     TRes  Azim  AzRes  Slow  SRes Def   SNR       Amp   Per   Mag1   Mag2       ID
SBF   001.98 239.9 m E Pn      2012/07/27 01:19:10.7  -0.1                          T                                        5035271
SBF   001.98 239.9 m E Sn      2012/07/27 01:19:34.5   0.3                          T                3.1  .33 Ml 2.2 Md 2.2  5035268
MBDF  002.16 267.0 m E Pn      2012/07/27 01:19:13.7   0.2                          T                                        5035255
MBDF  002.16 267.0 m E Sn      2012/07/27 01:19:38.8   0.1                          T                 .4  .25 Ml 1.5 Md 2.2  5035254
LPG   002.24 287.1 m E Pn      2012/07/27 01:19:14.4  -0.4                          T                                        5035261
LPG   002.24 287.1 m E Sn      2012/07/27 01:19:40.7  -0.1                          T                2.4  .51 Ml 1.9         5035260
LPL   002.26 287.5 m E Pn      2012/07/27 01:19:14.8  -0.1                          T                                        5035259
LPL   002.26 287.5 m E Sn      2012/07/27 01:19:41.0  -0.1                          T                2.2  .43 Ml 2.0         5035258
PGF   002.40 194.3 m E Pn      2012/07/27 01:19:17.3   0.7                          T                                        5035270
PGF   002.40 194.3 m E Sn      2012/07/27 01:19:45.4   1.0                          T                1.3  .29 Ml 2.2         5035269
FRF   002.62 241.0 m E Pn      2012/07/27 01:19:19.8   0.3                          T                                        5035265
FRF   002.62 241.0 m E Sn      2012/07/27 01:19:50.2   0.7                          T                 .7  .26 Ml 1.8         5035264
ORIF  002.79 272.2 m E Pn      2012/07/27 01:19:21.9   0.0                          T                                        5035257
ORIF  002.79 272.2 m E Sn      2012/07/27 01:19:53.6   0.0                          T                 .4  .24 Ml 1.6         5035256
LMR   002.83 238.1 m E Pn      2012/07/27 01:19:22.7   0.4                          T                                        5035267
LMR   002.83 238.1 m E Sn      2012/07/27 01:19:54.9   0.5                          T                1.4  .29 Ml 2.1         5035266
SMRF  003.16 254.9 m E Pn      2012/07/27 01:19:27.1   0.3                          T                                        5035263
SMRF  003.16 254.9 m E Sn      2012/07/27 01:20:02.6   0.2                          T                 .5  .35 Ml 1.6         5035262

.
EVENT     280163
    Date      Time       Latitude Longitude    Depth    Ndef Nsta Gap    Mag1  N    Mag2  N    Mag3  N   Author         ID
       rms   OT_Error      Smajor Sminor Az        Err   mdist  Mdist     Err        Err        Err      Quality

2012/07/27 03:48:41.0     44.9933    6.1817      2.0      15    7 135  Ml 1.9  4  Md 2.1  4              bulletin    280263
                                                                                                         _ldg
      1.38   +-  0.35       8.1    6.1  167.07 +-  0.0    0.23   1.68   +-0.3      +-0.1                 m i ke

FRANCE
Sta     Dist  EvAz     Phase      Date       Time     TRes  Azim  AzRes  Slow  SRes Def   SNR       Amp   Per   Mag1   Mag2       ID
ORIF  000.23 250.8 m E Pg      2012/07/27 03:48:44.9  -0.7                          T                                        5033494
ORIF  000.23 250.8 m E Sg      2012/07/27 03:48:47.2  -1.6                          T               13.5  .24        Md 2.0  5033491
MBDF  000.50 122.2 m E Pg      2012/07/27 03:48:49.9  -0.7                          T                                        5033493
MBDF  000.50 122.2 m E Sg      2012/07/27 03:48:56.2  -1.0                          T                3.4  .24        Md 2.0  5033490
LPG   000.65 038.4 m E Pg      2012/07/27 03:48:52.1  -1.5                          T                                        5033505
LPG   000.65 038.4 m E Sg      2012/07/27 03:49:05.4   3.4                          T                5.4  .74        Md 2.1  5033504
VIVF  001.08 263.2 m E Pn      2012/07/27 03:49:02.5   1.0                          T                                        5033492
VIVF  001.08 263.2 m E Sn      2012/07/27 03:49:16.8   0.6                          T                4.3  .84 Ml 1.6 Md 2.2  5033489
SMRF  001.11 203.3 m E Pn      2012/07/27 03:49:02.8   0.9                          T                                        5033488
SMRF  001.11 203.3 m E Sn      2012/07/27 03:49:17.9   1.0                          T               17.8 1.42 Ml 2.0         5033487
FRF   001.47 166.7 m E Pn      2012/07/27 03:49:07.2   0.4                          T                                        5033496
FRF   001.47 166.7 m E Sn      2012/07/27 03:49:25.0  -0.4                          T                5.7  .86 Ml 1.9         5033495
LMR   001.68 171.8 m E Sn      2012/07/27 03:49:31.3   1.0                          T               22.2 1.52 Ml 2.3         5033503

.
EVENT     280165
    Date      Time       Latitude Longitude    Depth    Ndef Nsta Gap    Mag1  N    Mag2  N    Mag3  N   Author         ID
       rms   OT_Error      Smajor Sminor Az        Err   mdist  Mdist     Err        Err        Err      Quality

2012/07/27 06:47:38.7     44.4451    7.2048     10.0 f    36    7 056  Ml 2.1  6  Md 2.2  3              bulletin    280265
                                                                                                         _ldg
      0.32   +-  0.05       1.3     .8   49.89 +-  0.0    0.07   1.85   +-0.4      +-0.0                 m i ke

NORTHERN ITALY
Sta     Dist  EvAz     Phase      Date       Time     TRes  Azim  AzRes  Slow  SRes Def   SNR       Amp   Per   Mag1   Mag2       ID
MBDF  000.42 312.4 m E Pg      2012/07/27 06:47:47.0  -0.1                          T                                        5033517
MBDF  000.42 312.4 m E Sg      2012/07/27 06:47:53.0   0.3                          T               46.1  .50        Md 2.2  5033516
SBF   000.61 164.0 m E Pg      2012/07/27 06:47:51.2   0.8                          T                                        5033511
SBF   000.61 164.0 m E Sg      2012/07/27 06:47:58.5   0.1                          T               12.0  .46        Md 2.2  5033507
FRF   000.97 204.7 m E Pg      2012/07/27 06:47:57.2   0.2                          T                                        5033514
FRF   000.97 204.7 m E Sg      2012/07/27 06:48:09.4  -0.2                          T                8.0  .16 Ml 2.5 Md 2.2  5033509
ORIF  001.06 297.1 m E Pg      2012/07/27 06:47:58.7   0.0                          T                                        5033515
ORIF  001.06 297.1 m E Sg      2012/07/27 06:48:11.7  -0.7                          T                3.5  .26 Ml 2.0         5033510
LMR   001.22 204.6 m E Pg      2012/07/27 06:48:01.9   0.4                          T                                        5033513
LMR   001.22 204.6 m E Sg      2012/07/27 06:48:16.7  -0.6                          T                8.3  .22 Ml 2.5         5033508
SMRF  001.26 248.8 m E Pg      2012/07/27 06:48:03.5   1.1                          T                                        5033512
SMRF  001.26 248.8 m E Sg      2012/07/27 06:48:16.0  -2.8                          T                2.6  .24 Ml 2.0         5033506
VIVF  001.85 283.7 m E Pn      2012/07/27 06:48:10.0   1.1                          T                                        5035380
VIVF  001.85 283.7 m E Sn      2012/07/27 06:48:32.1   1.1                          T                 .6  .22 Ml 1.6         5035379

.
EVENT     280166
    Date      Time       Latitude Longitude    Depth    Ndef Nsta Gap    Mag1  N    Mag2  N    Mag3  N   Author         ID
       rms   OT_Error      Smajor Sminor Az        Err   mdist  Mdist     Err        Err        Err      Quality

2012/07/27 07:23:32.5     48.9207    6.5885       .0 f    14    7 249  Ml 2.2  4  Md 2.2  1              bulletin    280266
                                                                                                         _ldg
      0.39   +-  0.13       2.2    1.0   17.28 +-  0.0    0.68   1.25   +-0.2      +-                    m i km

FRANCE
Sta     Dist  EvAz     Phase      Date       Time     TRes  Azim  AzRes  Slow  SRes Def   SNR       Amp   Per   Mag1   Mag2       ID
PAGF  000.68 237.7 m E Pg      2012/07/27 07:23:45.5   0.0  56.6  -0.4              T                                        5035383
PAGF  000.68 237.7 m E Sg      2012/07/27 07:23:54.6   0.0  60.9  3.9               T               65.6  .95        Md 2.2  5035384
CDF   000.68 137.9 m E Pg      2012/07/27 07:23:45.6  -0.1                          T                                        5033599
CDF   000.68 137.9 m E Sg      2012/07/27 07:23:54.9   0.0                          T                9.5  .62                5033593
THEF  000.80 209.9 m E Pg      2012/07/27 07:23:47.9   0.2                          T                                        5033594
THEF  000.80 209.9 m E Sg      2012/07/27 07:23:58.3  -0.1                          T               43.0  .89                5033600
HAU   000.93 190.0 m E Pg      2012/07/27 07:23:50.3   0.1                          T                                        5033598
HAU   000.93 190.0 m E Sg      2012/07/27 07:24:02.1  -0.4                          T                8.9  .36 Ml 2.0         5033597
MEZF  001.10 248.2 m E Pg      2012/07/27 07:23:53.4   0.1  64.6  -2.5              T                                        5035381
MEZF  001.10 248.2 m E Sg      2012/07/27 07:24:07.8   0.1                          T               11.0  .34 Ml 2.4         5035382
HINF  001.12 170.8 m E Pg      2012/07/27 07:23:53.8   0.1                          T                                        5033596
HINF  001.12 170.8 m E Sg      2012/07/27 07:24:08.5   0.1                          T                4.5  .32 Ml 2.0         5033595
SFTF  001.25 235.8 m E Pg      2012/07/27 07:23:56.0  -0.1                          T                                        5033602
SFTF  001.25 235.8 m E Sg      2012/07/27 07:24:12.3  -0.3                          T               11.4  .48 Ml 2.3         5033601

.
EVENT     280168
    Date      Time       Latitude Longitude    Depth    Ndef Nsta Gap    Mag1  N    Mag2  N    Mag3  N   Author         ID
       rms   OT_Error      Smajor Sminor Az        Err   mdist  Mdist     Err        Err        Err      Quality

2012/07/27 07:51:53.3     44.1814    1.5869       .0 f    15    5 170  Ml 2.0  5  Md 1.9  1              bulletin    280268
                                                                                                         _ldg
      0.50   +-  0.08       1.9    1.1   64.54 +-  0.0    0.82   1.64   +-0.3      +-                    m i km

FRANCE
Sta     Dist  EvAz     Phase      Date       Time     TRes  Azim  AzRes  Slow  SRes Def   SNR       Amp   Per   Mag1   Mag2       ID
CAF   000.82 024.5 m E Pg      2012/07/27 07:52:09.0   0.0                          T                                        5041393
CAF   000.82 024.5 m E Pn      2012/07/27 07:52:10.7   0.0                          T                                        5041394
CAF   000.82 024.5 m E Sg      2012/07/27 07:52:20.1   0.2                          T                                        5033533
CAF   000.82 024.5 m E Sn      2012/07/27 07:52:22.7  -0.2                          T               11.8  .32        Md 1.9  5033532
LFF   000.97 321.7 m E Pg      2012/07/27 07:52:11.6  -0.1                          T                                        5041395
LFF   000.97 321.7 m E Sg      2012/07/27 07:52:24.4  -0.1                          T               10.2  .36 Ml 2.1         5041396
MTLF  000.96 151.2 m E Pn      2012/07/27 07:52:12.4  -0.1                          T                                        5033534
MTLF  000.96 151.2 m E Sn      2012/07/27 07:52:26.2   0.0                          T                7.0  .29 Ml 2.2         5033592
RJF   001.12 357.5 m E Pg      2012/07/27 07:52:14.8   0.2                          T                                        5033531
RJF   001.12 357.5 m E Sg      2012/07/27 07:52:28.7  -0.6                          T                5.4  .34 Ml 1.7         5033530
LASF  001.64 092.9 m E Pg      2012/07/27 07:52:24.2   0.1                          T                                        5041390
LASF  001.64 092.9 m E Sn      2012/07/27 07:52:42.5   0.0                          T                                        5041391
LASF  001.64 092.9 m E Sg      2012/07/27 07:52:45.5   0.1                          T                1.2  .29 Ml 1.7         5041392

.
