EVENT     265996
    Date      Time       Latitude Longitude    Depth    Ndef Nsta Gap    Mag1  N    Mag2  N    Mag3  N   Author         ID
       rms   OT_Error      Smajor Sminor Az        Err   mdist  Mdist     Err        Err        Err      Quality

2011/11/06 09:08:49.9     48.0386    7.1174      3.9      14    7 193  Ml 1.6  3  Md 1.5  3              js067245    266016

      0.14   +-  0.07       2.0     .7  133.58 +-  0.9    0.28   1.40   +-0.4      +-0.1                 m i ke

FRANCE
Sta     Dist  EvAz     Phase      Date       Time     TRes  Azim  AzRes  Slow  SRes Def   SNR       Amp   Per   Mag1   Mag2       ID
HINF  000.28 218.8 m E Pg      2011/11/06 09:08:55.5   0.0                          T                                        4782448
HINF  000.28 218.8 m E Sg      2011/11/06 09:08:59.3  -0.1                          T                3.9  .17        Md 1.6  4782447
CDF   000.39 015.8 m E Pg      2011/11/06 09:08:57.5   0.0                          T                                        4782444
CDF   000.39 015.8 m E Sg      2011/11/06 09:09:02.5  -0.2                          T                2.6  .24        Md 1.4  4782445
HAU   000.52 266.6 m E Pg      2011/11/06 09:08:59.7  -0.1                          T                                        4782446
HAU   000.52 266.6 m E P       2011/11/06 09:09:01.0   0.0                          T                                        4782452
HAU   000.52 266.6 m E Pn      2011/11/06 09:09:02.1   0.2                          T                                        4782451
HAU   000.52 266.6 m E Sg      2011/11/06 09:09:06.7   0.1                          T                2.7  .25                4782450
HAU   000.52 266.6 m E Sn      2011/11/06 09:09:10.8   0.4                          T                                Md 1.6  4782449
LANF  001.05 025.6 m E Pg      2011/11/06 09:09:09.5   0.0                          T                                        4784154
LANF  001.05 025.6 m E Sg      2011/11/06 09:09:23.1   0.0                          T                2.4  .20 Ml 1.9         4784155
THEF  000.78 284.6 m E Sn      2011/11/06 09:09:17.3  -0.2                          T                3.3  .18                4782454
PAGF  001.06 299.6 m E Sn      2011/11/06 09:09:24.4   0.1                          T                 .3  .17 Ml 1.1         4782453
SFTF  001.40 277.6 m E Sg      2011/11/06 09:09:34.0  -0.2                          T                1.4  .24 Ml 1.8         4784156

.
EVENT     266005
    Date      Time       Latitude Longitude    Depth    Ndef Nsta Gap    Mag1  N    Mag2  N    Mag3  N   Author         ID
       rms   OT_Error      Smajor Sminor Az        Err   mdist  Mdist     Err        Err        Err      Quality

2011/11/06 09:33:12.3     45.0070    6.4364      2.0      27   14 115  Ml 2.1  5  Md 2.1  5              js067245    266025

      1.15   +-  0.16       3.4    2.5   81.31 +-  0.0    0.37   3.00   +-0.1      +-0.1                 m i ke

FRANCE
Sta     Dist  EvAz     Phase      Date       Time     TRes  Azim  AzRes  Slow  SRes Def   SNR       Amp   Per   Mag1   Mag2       ID
MBDF  000.37 139.5 m E Pg      2011/11/06 09:33:19.0  -0.6                          T                                        4782464
MBDF  000.37 139.5 m E Sg      2011/11/06 09:33:24.3  -0.2                          T               12.5  .24        Md 2.0  4782456
ORIF  000.40 257.5 m E Pg      2011/11/06 09:33:19.6  -0.6                          T                                        4782463
ORIF  000.40 257.5 m E Sg      2011/11/06 09:33:24.7  -0.8                          T               13.6  .22        Md 2.1  4782455
LPG   000.54 024.3 m E Pg      2011/11/06 09:33:22.1  -0.8                          T                                        4782461
LPG   000.54 024.3 m E Sg      2011/11/06 09:33:29.7  -0.2                          T                5.4  .25        Md 2.2  4782483
LPL   000.55 022.2 m E Pg      2011/11/06 09:33:22.6  -0.4                          T                                        4782462
LPL   000.55 022.2 m E Sg      2011/11/06 09:33:30.6   0.4                          T                6.4  .24        Md 2.1  4782484
SMRF  001.20 211.2 m E Pg      2011/11/06 09:33:35.7   0.9                          T                                        4782471
VIVF  001.26 263.8 m E Pg      2011/11/06 09:33:35.8   0.0                          T                                        4782475
VIVF  001.26 263.8 m E P       2011/11/06 09:33:36.9  -0.1                          T                                        4782465
SBF   001.35 147.6 m E Pg      2011/11/06 09:33:36.9  -0.7                          T                                        4782473
FRF   001.45 174.0 m E Pg      2011/11/06 09:33:40.3   0.9                          T                                        4782472
CABF  001.62 351.5 m E Pg      2011/11/06 09:33:43.6   1.0                          T                                        4782482
CABF  001.62 351.5 m E Sg      2011/11/06 09:34:05.2   1.7                          T                2.5  .24 Ml 2.1         4782468
LMR   001.67 178.2 m E Pg      2011/11/06 09:33:43.6   0.2                          T                                        4782458
LMR   001.67 178.2 m E Sg      2011/11/06 09:34:04.6  -0.4                          T                4.5  .26 Ml 2.4 Md 2.2  4782474
SMF   002.44 313.0 m E Pg      2011/11/06 09:33:58.6   1.0                          T                                        4782476
SMF   002.44 313.0 m E Sg      2011/11/06 09:34:28.6  -0.5                          T                1.4  .23 Ml 2.1         4782477
AVF   002.80 310.7 m E Pg      2011/11/06 09:34:04.3   0.2                          T                                        4782467
AVF   002.80 310.7 m E Sn      2011/11/06 09:34:28.1  -0.3                          T                                        4782466
AVF   002.80 310.7 m E Sg      2011/11/06 09:34:39.6  -0.4                          T                1.2  .26 Ml 2.0         4782478
HAU   003.00 358.9 m E Pg      2011/11/06 09:34:08.3   0.4                          T                                        4782480
HAU   003.00 358.9 m E Sg      2011/11/06 09:34:46.0  -0.5                          T                2.3  .28 Ml 2.1         4782481
LOR   002.89 322.5 m E Sg      2011/11/06 09:34:42.2  -0.7                          T                                        4782479

.
EVENT     266006
    Date      Time       Latitude Longitude    Depth    Ndef Nsta Gap    Mag1  N    Mag2  N    Mag3  N   Author         ID
       rms   OT_Error      Smajor Sminor Az        Err   mdist  Mdist     Err        Err        Err      Quality

2011/11/06 15:40:59.1     44.3633    7.1463      2.0      22    9 171  Ml 2.3  7  Md 2.2  5              js067245    266026

      0.85   +-  0.14       3.1    1.5   77.59 +-  0.0    0.19   1.83   +-0.2      +-0.0                 m i ke

NORTHERN ITALY
Sta     Dist  EvAz     Phase      Date       Time     TRes  Azim  AzRes  Slow  SRes Def   SNR       Amp   Per   Mag1   Mag2       ID
MBDF  000.45 323.7 m E Pg      2011/11/06 15:41:08.1   0.1                          T                                        4782494
MBDF  000.45 323.7 m E Sg      2011/11/06 15:41:14.2   0.3                          T               19.7  .21        Md 2.2  4782493
SBF   000.54 157.3 m E Pg      2011/11/06 15:41:09.6   0.2                          T                                        4782503
SBF   000.54 157.3 m E Sg      2011/11/06 15:41:16.4  -0.2                          T               17.1  .19                4782497
FRF   000.88 204.4 m E Pg      2011/11/06 15:41:15.4  -0.2                          T                                        4782489
FRF   000.88 204.4 m E Sg      2011/11/06 15:41:26.6  -0.4                          T               15.5  .22 Ml 2.6 Md 2.1  4782486
ORIF  001.06 302.0 m E Pg      2011/11/06 15:41:19.0   0.0                          T                                        4782492
ORIF  001.06 302.0 m E Sg      2011/11/06 15:41:32.7  -0.1                          T                4.9  .33 Ml 2.0         4782498
LMR   001.13 204.3 m E Pg      2011/11/06 15:41:20.4   0.3                          T                                        4782487
LMR   001.13 204.3 m E Sg      2011/11/06 15:41:34.2  -0.5                          T                9.7  .20 Ml 2.6         4782485
LPG   001.17 346.2 m E Pg      2011/11/06 15:41:21.0  -0.3                          T                                        4782490
LPG   001.17 346.2 m E Sg      2011/11/06 15:41:36.3  -0.1                          T                4.3  .25 Ml 2.1 Md 2.2  4782500
LPL   001.19 345.8 m E Pg      2011/11/06 15:41:21.5  -0.1                          T                                        4782491
LPL   001.19 345.8 m E Sg      2011/11/06 15:41:37.1   0.1                          T                5.2  .25 Ml 2.2 Md 2.1  4782499
SMRF  001.19 251.6 m E Pg      2011/11/06 15:41:22.2   0.8                          T                                        4782488
SMRF  001.19 251.6 m E Sg      2011/11/06 15:41:37.8   0.8                          T                6.7  .27 Ml 2.3 Md 2.2  4782501
VIVF  001.83 286.4 m E Pg      2011/11/06 15:41:32.9  -0.4                          T                                        4782502

.
EVENT     265999
    Date      Time       Latitude Longitude    Depth    Ndef Nsta Gap    Mag1  N    Mag2  N    Mag3  N   Author         ID
       rms   OT_Error      Smajor Sminor Az        Err   mdist  Mdist     Err        Err        Err      Quality

2011/11/06 16:29:32.3     48.1677    5.8860     19.4      32   14 056  Ml 2.1  7  Md 2.0  5              js067245    266019

      0.91   +-  0.06       1.6    1.2  159.56 +-  0.7    0.09   2.20   +-0.4      +-0.2                 m i ke

FRANCE
Sta     Dist  EvAz     Phase      Date       Time     TRes  Azim  AzRes  Slow  SRes Def   SNR       Amp   Per   Mag1   Mag2       ID
THEF  000.09 050.0 m E Pg      2011/11/06 16:29:36.5   0.3                          T                                        4782527
THEF  000.09 050.0 m E Sg      2011/11/06 16:29:38.9  -0.1                          T               44.5  .20        Md 2.0  4782526
HAU   000.35 117.5 m E Pg      2011/11/06 16:29:40.1   0.3                          T                                        4782524
HAU   000.35 117.5 m E Pn      2011/11/06 16:29:41.0   0.1                          T                                        4782523
HAU   000.35 117.5 m E Sg      2011/11/06 16:29:45.1   0.1                          T               38.1  .18        Md 2.2  4782525
PAGF  000.40 344.6 m E Pg      2011/11/06 16:29:40.8   0.1 167.8  3.4               T                                        4782517
PAGF  000.40 344.6 m E Pn      2011/11/06 16:29:41.5  -0.1                          T                                        4782513
PAGF  000.40 344.6 m E Sg      2011/11/06 16:29:46.1  -0.4                          T                1.7  .17        Md 1.8  4782518
SFTF  000.57 274.1 m E Pn      2011/11/06 16:29:43.9  -0.1 102.1  8.6               T                                        4782516
SFTF  000.57 274.1 m E Sg      2011/11/06 16:29:51.2  -0.1                          T               13.0  .16        Md 2.2  4782515
MEZF  000.65 301.3 m E Pg      2011/11/06 16:29:45.2   0.2 115.6  -5.1              T                                        4782511
MEZF  000.65 301.3 m E Sg      2011/11/06 16:29:53.6  -0.2 125.4  4.7               T                3.9  .19        Md 2.1  4782512
HINF  000.74 118.0 m E Pg      2011/11/06 16:29:46.7   0.0                          T                                        4782522
HINF  000.74 118.0 m E Sg      2011/11/06 16:29:56.5   0.0                          T               14.4  .16                4782521
CDF   000.96 074.7 m E Pn      2011/11/06 16:29:49.2  -0.1                          T                                        4782514
CDF   000.96 074.7 m E Pg      2011/11/06 16:29:50.5  -0.3                          T                                        4782520
CDF   000.96 074.7 m E Sg      2011/11/06 16:30:03.1  -0.3                          T               26.8  .28 Ml 2.9         4782519
LOR   001.64 237.4 m E Pn      2011/11/06 16:29:58.7   0.2  54.5  -1.5              T                                        4782509
LOR   001.64 237.4 m E Pg      2011/11/06 16:30:02.7  -0.3  64.9  8.9               T                                        4782505
LOR   001.64 237.4 m E Sg      2011/11/06 16:30:24.2  -0.1                          T                2.5  .24 Ml 2.1         4782506
SSF   001.95 236.4 m E Pn      2011/11/06 16:30:03.0   0.2                          T                                        4782508
SSF   001.95 236.4 m E Pg      2011/11/06 16:30:08.8   0.0                          T                                        4782528
SSF   001.95 236.4 m E Sg      2011/11/06 16:30:34.0   0.0                          T                1.1  .27 Ml 1.9         4784184
SMF   002.06 223.1 m E Pn      2011/11/06 16:30:04.2  -0.1                          T                                        4784180
SMF   002.06 223.1 m E Pg      2011/11/06 16:30:10.7   0.0                          T                                        4784179
SMF   002.06 223.1 m E Sg      2011/11/06 16:30:37.3  -0.1                          T                  1  .19 Ml 1.9         4784178
AVF   002.20 232.2 m E Pn      2011/11/06 16:30:06.3   0.2                          T                                        4784182
AVF   002.20 232.2 m E Pg      2011/11/06 16:30:13.2  -0.1                          T                                        4784181
AVF   002.20 232.2 m E Sg      2011/11/06 16:30:42.0   0.2                          T                 .5  .24 Ml 1.6         4784177
LANF  001.51 056.7 m E Sg      2011/11/06 16:30:20.3  -0.1                          T                1.8  .17 Ml 2.1         4784176
CABF  001.56 174.9 m E Sg      2011/11/06 16:30:22.1   0.0                          T                1.6  .21 Ml 1.9         4782507
RUP   001.72 026.3 m E Sg      2011/11/06 16:30:26.2  -0.7                          T                                        4784183

.
EVENT     266007
    Date      Time       Latitude Longitude    Depth    Ndef Nsta Gap    Mag1  N    Mag2  N    Mag3  N   Author         ID
       rms   OT_Error      Smajor Sminor Az        Err   mdist  Mdist     Err        Err        Err      Quality

2011/11/06 17:25:23.3     43.7753    7.8459      2.0      38   11 119  Ml 2.6 12  Md 2.6  6              js067245    266027

      0.61   +-  0.12       2.3    2.2   59.44 +-  0.0    0.13   2.90   +-0.3      +-0.1                 m i ke

NEAR SOUTH COAST OF FRANCE
Sta     Dist  EvAz     Phase      Date       Time     TRes  Azim  AzRes  Slow  SRes Def   SNR       Amp   Per   Mag1   Mag2       ID
SBF   000.31 286.6 m E Pg      2011/11/06 17:25:28.8  -0.7                          T                                        4782551
SBF   000.31 286.6 m E Sg      2011/11/06 17:25:32.8  -0.8                          T              394.0  .23        Md 2.6  4782550
FRF   000.90 256.6 m E Pg      2011/11/06 17:25:40.2   0.0                          T                                        4782549
FRF   000.90 256.6 m E Sg      2011/11/06 17:25:52.0   0.1                          T               43.5  .18 Ml 3.2 Md 2.8  4782541
LMR   001.07 246.0 m E Pg      2011/11/06 17:25:43.0  -0.3                          T                                        4782548
LMR   001.07 246.0 m E Pn      2011/11/06 17:25:44.5   0.9                          T                                        4782538
LMR   001.07 246.0 m E Sg      2011/11/06 17:25:57.0  -0.2                          T               17.7  .22 Ml 2.8         4782547
MBDF  001.23 321.3 m E Pn      2011/11/06 17:25:45.8  -0.2                          T                                        4782540
MBDF  001.23 321.3 m E Sn      2011/11/06 17:26:00.7  -1.5                          T               11.5  .23 Ml 2.6 Md 2.4  4782539
PGF   001.49 145.1 m E Pn      2011/11/06 17:25:49.5  -0.1                          T                                Md 2.5  4782542
PGF   001.49 145.1 m E Sn      2011/11/06 17:26:08.0  -0.4                          T                3.1  .21 Ml 2.4 Md 2.6  4782530
SMRF  001.65 277.8 m E Pn      2011/11/06 17:25:52.6   0.8                          T                                        4782546
SMRF  001.65 277.8 m E Sg      2011/11/06 17:26:15.5   0.0                          T               18.9  .22 Ml 3.0         4782537
ORIF  001.82 309.7 m E Pn      2011/11/06 17:25:54.3   0.3                          T                                        4782545
ORIF  001.82 309.7 m E P       2011/11/06 17:25:55.9  -0.2                          T                                        4782533
ORIF  001.82 309.7 m E Pg      2011/11/06 17:25:57.7   0.5                          T                                        4782532
ORIF  001.82 309.7 m E Sg      2011/11/06 17:26:21.0   0.4                          T               29.5  .74 Ml 2.8 Md 2.6  4782531
LPL   001.91 335.8 m E Pn      2011/11/06 17:25:57.1   1.6                          T                                        4782544
LPL   001.91 335.8 m E Pg      2011/11/06 17:26:00.0   0.8                          T                                        4782543
LPL   001.91 335.8 m E Sg      2011/11/06 17:26:23.6  -0.2                          T                3.8  .35 Ml 2.2         4784208
LPG   001.89 336.0 m E Pg      2011/11/06 17:25:58.4  -0.5                          T                                        4784209
LPG   001.89 336.0 m E Sg      2011/11/06 17:26:23.5   0.3                          T                5.9  .40 Ml 2.4         4784207
VIVF  002.52 296.5 m E Pn      2011/11/06 17:26:04.1   0.6                          T                                        4782562
VIVF  002.52 296.5 m E Sn      2011/11/06 17:26:33.5   0.5                          T                                        4782536
VIVF  002.52 296.5 m E Sg      2011/11/06 17:26:42.9   0.3                          T                9.0  .32 Ml 2.8         4782529
LASF  002.90 277.3 m E Pn      2011/11/06 17:26:08.6   0.0                          T                                        4782534
LASF  002.90 277.3 m E Sn      2011/11/06 17:26:42.0   0.0                          T                1.8  .22 Ml 2.3         4782535

.
EVENT     266008
    Date      Time       Latitude Longitude    Depth    Ndef Nsta Gap    Mag1  N    Mag2  N    Mag3  N   Author         ID
       rms   OT_Error      Smajor Sminor Az        Err   mdist  Mdist     Err        Err        Err      Quality

2011/11/06 20:19:23.9     44.5491    6.9087      2.0      10    3 219  Ml 1.6  1  Md 1.4  2              js067245    266028

      0.49   +-  0.27       5.7    3.0   80.67 +-  0.0    0.20   1.01   +-         +-0.1                 m i ke

FRANCE
Sta     Dist  EvAz     Phase      Date       Time     TRes  Azim  AzRes  Slow  SRes Def   SNR       Amp   Per   Mag1   Mag2       ID
MBDF  000.20 331.2 m E Pg      2011/11/06 20:19:28.3   0.1                          T                                        4782629
MBDF  000.20 331.2 m E Sg      2011/11/06 20:19:31.1   0.1                          T               15.1  .24        Md 1.5  4782628
ORIF  000.82 297.1 m E Pg      2011/11/06 20:19:39.7   0.3                          T                                        4782626
ORIF  000.82 297.1 m E Pn      2011/11/06 20:19:40.7  -0.3                          T                                        4782625
ORIF  000.82 297.1 m E Sg      2011/11/06 20:19:50.0  -0.2                          T                2.2  .29        Md 1.4  4782627
FRF   001.01 190.9 m E Sg      2011/11/06 20:19:56.0   0.1                          T                  1  .18 Ml 1.6         4782624

.
