EVENT     277168
    Date      Time       Latitude Longitude    Depth    Ndef Nsta Gap    Mag1  N    Mag2  N    Mag3  N   Author         ID
       rms   OT_Error      Smajor Sminor Az        Err   mdist  Mdist     Err        Err        Err      Quality

2012/05/30 06:00:33.6     44.9291   11.0810      2.0     229   35 014  Ml 4.1 10                         bulletin    277268
                                                                                                         _ldg
      0.96   +-  0.06       2.0    1.6   42.83 +-  0.0    0.17  11.83   +-0.3                            m i ke

NORTHERN ITALY
Sta     Dist  EvAz     Phase      Date       Time     TRes  Azim  AzRes  Slow  SRes Def   SNR       Amp   Per   Mag1   Mag2       ID
PGF   002.82 213.1 m E Pn      2012/05/30 06:01:18.7   0.8                          T                                        4976807
PGF   002.82 213.1 m E Sn      2012/05/30 06:01:51.0   0.5                          T                                        4976761
SBF   002.82 249.1 m E Pn      2012/05/30 06:01:19.4   1.5                          T                                        4976806
SBF   002.82 249.1 m E Sn      2012/05/30 06:01:53.7   3.2                          T              403.3  .42 Ml 4.4         4976762
MBDF  003.07 267.7 m E Pn      2012/05/30 06:01:20.6  -0.9                          T                                        4976799
LPL   003.13 282.4 m E Pn      2012/05/30 06:01:23.4   1.1                          T                                        4976801
LPG   003.11 282.1 m E Pn      2012/05/30 06:01:24.1   2.0                          T                                        4976802
FRF   003.47 248.3 m E Pn      2012/05/30 06:01:27.1   0.5                          T                                        4976804
FRF   003.47 248.3 m E Sn      2012/05/30 06:02:07.2   1.3                          T              137.0  .54 Ml 4.0         4976764
LMR   003.66 245.8 m E Pn      2012/05/30 06:01:29.4   0.2                          T                                        4976805
LMR   003.66 245.8 m E Sn      2012/05/30 06:02:10.6   0.2                          T              128.1  .46 Ml 4.0         4976763
ORIF  003.69 271.7 m E Pn      2012/05/30 06:01:30.8   1.0                          T                                        4976800
ORIF  003.69 271.7 m E Sn      2012/05/30 06:02:12.9   1.5                          T              333.5  .84 Ml 4.2         4976765
CABF  003.88 297.5 m E Pn      2012/05/30 06:01:32.7   0.3                          T                                        4976784
SMRF  004.06 258.3 m E Pn      2012/05/30 06:01:35.5   0.8                          T                                        4976803
HINF  004.11 316.1 m E Pn      2012/05/30 06:01:35.5   0.0                          T                                        4976783
CDF   004.36 324.4 m E Pn      2012/05/30 06:01:39.5   0.6                          T                                        4976777
HAU   004.49 314.9 m E Pn      2012/05/30 06:01:41.1   0.5                          T                                        4976782
HAU   004.49 314.9 m E Sn      2012/05/30 06:02:30.3   0.0                          T              265.5  .52 Ml 4.2         4976771
VIVF  004.55 271.3 m E Pn      2012/05/30 06:01:41.2  -0.3                          T                                        4976798
VIVF  004.55 271.3 m E Sn      2012/05/30 06:02:31.7  -0.1                          T               22.3  .38 Ml 3.5         4976766
LANF  004.63 332.2 m E Pn      2012/05/30 06:01:43.5   0.9                          T                                        4976776
THEF  004.82 315.1 m E Pn      2012/05/30 06:01:45.8   0.8                          T                                        4976781
LASF  005.24 263.2 m E Pn      2012/05/30 06:01:50.4  -0.4                          T                                        4976797
LASF  005.24 263.2 m E Sn      2012/05/30 06:02:47.6  -0.6                          T               28.5  .56 Ml 3.6         4976767
PAGF  005.17 316.5 m E Pn      2012/05/30 06:01:50.7   0.9                          T                                        4976778
SFTF  005.30 310.3 m E Pn      2012/05/30 06:01:52.6   1.0                          T                                        4976779
SMF   005.35 291.3 m E Pn      2012/05/30 06:01:52.7   0.5                          T                                        4976791
LOR   005.54 297.5 m E Pn      2012/05/30 06:01:55.1   0.2                          T                                        4976773
LOR   005.54 297.5 m E Sn      2012/05/30 06:02:57.5   2.1                          T               40.8  .35 Ml 4.1         4976772
MEZF  005.47 312.9 m E Pn      2012/05/30 06:01:55.3   1.3                          T                                        4976780
SSF   005.69 294.7 m E Pn      2012/05/30 06:01:57.2   0.2                          T                                        4976788
AVF   005.71 291.8 m E Pn      2012/05/30 06:01:57.3   0.1                          T                                        4976790
BGF   005.99 288.7 m E Pn      2012/05/30 06:02:01.0   0.0                          T                                        4976793
BGF   005.99 288.7 m E Sn      2012/05/30 06:03:07.9   1.7                          T              116.8  .48 Ml 4.5         4976768
TCF   006.37 285.5 m E Pn      2012/05/30 06:02:06.4   0.1                          T                                        4976789
TCF   006.37 285.5 m E Sn      2012/05/30 06:03:15.8   0.5                          T               55.9  .68 Ml 4.1         4976770
HYF   006.32 294.7 m E Pn      2012/05/30 06:02:06.4   0.9                          T                                        4976792
HYF   006.32 294.7 m E Sn      2012/05/30 06:03:14.9   0.9                          T                                        4976769
CAF   006.40 273.1 m E Pn      2012/05/30 06:02:07.4   0.7                          T                                        4976795
MTLF  006.57 259.1 m E Pn      2012/05/30 06:02:08.9   0.0                          T                                        4976796
GIVF  006.69 322.9 m E Pn      2012/05/30 06:02:11.8   1.3                          T                                        4976775
RJF   006.78 276.5 m E Pn      2012/05/30 06:02:12.8   1.0                          T                                        4976794
BAIF  006.93 320.2 m E Pn      2012/05/30 06:02:16.9   3.2                          T                                        4976774
MFF   008.03 286.0 m E Pn      2012/05/30 06:02:27.8  -1.0                          T                                        4976787
GRR   008.91 297.1 m E Pn      2012/05/30 06:02:39.9  -0.9                          T                                        4976785
SGMF  009.96 294.3 m E Pn      2012/05/30 06:02:54.2  -0.8                          T                                        4976786

.
EVENT     277169
    Date      Time       Latitude Longitude    Depth    Ndef Nsta Gap    Mag1  N    Mag2  N    Mag3  N   Author         ID
       rms   OT_Error      Smajor Sminor Az        Err   mdist  Mdist     Err        Err        Err      Quality

2012/05/30 07:25:11.6     44.8795   11.1486      2.0      61   10 077  Ml 3.2  5                         bulletin    277269
                                                                                                         _ldg
      1.10   +-  0.15       5.2    3.6   80.78 +-  0.0    0.13   4.56   +-0.2                            m i ke

NORTHERN ITALY
Sta     Dist  EvAz     Phase      Date       Time     TRes  Azim  AzRes  Slow  SRes Def   SNR       Amp   Per   Mag1   Mag2       ID
PGF   002.80 214.5 m E Pn      2012/05/30 07:25:56.0   0.3                          T                                        4976882
PGF   002.80 214.5 m E Sn      2012/05/30 07:26:28.1   0.1                          T               10.4  .23 Ml 3.3         4976877
SBF   002.85 250.4 m E Pn      2012/05/30 07:25:57.7   1.5                          T                                        4976881
SBF   002.85 250.4 m E Sn      2012/05/30 07:26:31.8   2.7                          T               49.6  .49 Ml 3.4         4976876
MBDF  003.12 268.7 m E Pn      2012/05/30 07:26:00.9   0.9                          T                                        5011342
LPG   003.17 282.8 m E Pn      2012/05/30 07:26:03.2   2.3                          T                                        5011341
FRF   003.49 249.4 m E Pn      2012/05/30 07:26:06.4   1.4                          T                                        4976879
FRF   003.49 249.4 m E Sn      2012/05/30 07:26:46.7   2.2                          T               28.5  .48 Ml 3.4         4976874
LMR   003.68 246.8 m E Pn      2012/05/30 07:26:07.5   0.0                          T                                        4976880
LMR   003.68 246.8 m E Sn      2012/05/30 07:26:50.1   1.2                          T               18.9  .38 Ml 3.3         4976875
HINF  004.18 316.2 m E Pn      2012/05/30 07:26:13.0  -1.4                          T                                        5011340
SMRF  004.09 259.2 m E Pn      2012/05/30 07:26:16.7   3.6                          T                                        4976878
CDF   004.43 324.3 m E Pn      2012/05/30 07:26:17.5  -0.3                          T                                        5011344
CDF   004.43 324.3 m E Sn      2012/05/30 07:27:07.7   0.9                          T                4.4  .40 Ml 2.9         5011339
HAU   004.56 315.0 m E Pn      2012/05/30 07:26:20.0   0.5                          T                                        5011343

.
EVENT     277192
    Date      Time       Latitude Longitude    Depth    Ndef Nsta Gap    Mag1  N    Mag2  N    Mag3  N   Author         ID
       rms   OT_Error      Smajor Sminor Az        Err   mdist  Mdist     Err        Err        Err      Quality

2012/05/30 08:27:21.9     44.5143    6.6939      2.0      30    9 056  Ml 2.2  6  Md 2.1  1              bulletin    277292
                                                                                                         _ldg
      0.32   +-  0.06       1.2     .9   67.91 +-  0.0    0.09   1.48   +-0.4      +-                    m i ke

FRANCE
Sta     Dist  EvAz     Phase      Date       Time     TRes  Azim  AzRes  Slow  SRes Def   SNR       Amp   Per   Mag1   Mag2       ID
MBDF  000.22 014.6 m E Pg      2012/05/30 08:27:26.4   0.0                          T                                        4977151
MBDF  000.22 014.6 m E Sg      2012/05/30 08:27:29.2  -0.3                          T               24.0  .26        Md 2.1  4977150
ORIF  000.71 305.1 m E Pg      2012/05/30 08:27:34.8  -0.6                          T                                        4977148
ORIF  000.71 305.1 m E Sg      2012/05/30 08:27:44.0  -0.7                          T               14.0  .26                4977149
SBF   000.84 140.4 m E Pn      2012/05/30 08:27:39.5   0.2                          T                                        4977141
SBF   000.84 140.4 m E Sg      2012/05/30 08:27:49.0   0.3                          T                9.4  .24                5011374
LPG   000.98 002.4 m E Pg      2012/05/30 08:27:40.4  -0.3                          T                                        5011376
LPG   000.98 002.4 m E Sg      2012/05/30 08:27:53.7   0.2                          T                2.6  .24 Ml 1.8         5011377
SMRF  000.97 236.6 m E Pg      2012/05/30 08:27:40.4   0.3                          T                                        4977147
SMRF  000.97 236.6 m E Sn      2012/05/30 08:27:54.4  -0.1                          T                3.5  .24 Ml 2.0         4977146
LPL   001.00 001.5 m E Pg      2012/05/30 08:27:40.7  -0.3                          T                                        5011375
LPL   001.00 001.5 m E Sg      2012/05/30 08:27:53.9  -0.1                          T                2.6  .22 Ml 1.9         5011378
FRF   000.95 182.1 m E Pn      2012/05/30 08:27:40.8   0.1                          T                                        4977144
FRF   000.95 182.1 m E Sn      2012/05/30 08:27:54.6   0.5                          T               13.6  .20 Ml 2.7         4977145
LMR   001.19 186.5 m E Pg      2012/05/30 08:27:44.6   0.5                          T                                        4977143
LMR   001.19 186.5 m E Sg      2012/05/30 08:27:59.8   0.4                          T                7.5  .18 Ml 2.5         4977142
VIVF  001.48 284.0 m E Pg      2012/05/30 08:27:49.5  -0.1                          T                                        5011379
VIVF  001.48 284.0 m E Sn      2012/05/30 08:28:06.6  -0.1                          T                4.3  .38 Ml 2.1         5011380

.
EVENT     277195
    Date      Time       Latitude Longitude    Depth    Ndef Nsta Gap    Mag1  N    Mag2  N    Mag3  N   Author         ID
       rms   OT_Error      Smajor Sminor Az        Err   mdist  Mdist     Err        Err        Err      Quality

2012/05/30 08:31:19.4     49.4902    6.1275       .0 f    14   10 198  Ml 2.3  9                         bulletin    277295
                                                                                                         _ldg
      1.00   +-  0.45       9.1    4.6   56.75 +-  0.0    0.97   2.88   +-0.2                            m i km

GERMANY
Sta     Dist  EvAz     Phase      Date       Time     TRes  Azim  AzRes  Slow  SRes Def   SNR       Amp   Per   Mag1   Mag2       ID
PAGF  000.97 196.0 m E Pg      2012/05/30 08:31:38.7   0.8                          T                                        4977235
PAGF  000.97 196.0 m E Sg      2012/05/30 08:31:50.2  -0.5                          T                6.5  .53 Ml 1.9         4977234
GIVF  001.04 306.4 m E Pg      2012/05/30 08:31:38.8  -0.4                          T                                        4977216
GIVF  001.04 306.4 m E Sg      2012/05/30 08:31:53.8   0.9                          T               15.3  .38 Ml 2.4         4977215
CDF   001.32 144.5 m E Pg      2012/05/30 08:31:44.6   0.2                          T                                        4977236
CDF   001.32 144.5 m E Sg      2012/05/30 08:32:02.2   0.6                          T                5.7  .29 Ml 2.4         4977212
HAU   001.49 174.3 m E Pg      2012/05/30 08:31:47.0  -0.5                          T                                        4977231
HAU   001.49 174.3 m E Sg      2012/05/30 08:32:05.8  -1.1                          T               18.1  .46 Ml 2.4         4977211
MEZF  001.22 216.0 m E Sg      2012/05/30 08:31:58.0  -0.3                          T               20.8  .43 Ml 2.6         4977232
BAIF  001.37 295.3 m E Sg      2012/05/30 08:32:02.7  -0.3                          T               12.9  .56 Ml 2.3         4977214
SFTF  001.47 209.6 m E Sg      2012/05/30 08:32:04.6  -1.8                          T                3.6  .21 Ml 2.3         4977233
HINF  001.74 163.7 m E Sg      2012/05/30 08:32:13.1  -1.7                          T                6.2  .43 Ml 2.3         4977210
LOR   002.69 215.1 m E Sg      2012/05/30 08:32:45.8   1.5                          T                5.9  .42 Ml 2.5         4977213
CABF  002.88 180.5 m E Sg      2012/05/30 08:32:52.6   2.2                          T                                        4977209

.
