EVENT     279156
    Date      Time       Latitude Longitude    Depth    Ndef Nsta Gap    Mag1  N    Mag2  N    Mag3  N   Author         ID
       rms   OT_Error      Smajor Sminor Az        Err   mdist  Mdist     Err        Err        Err      Quality

2012/07/06 04:33:30.5     43.0272   -1.1691      2.0      17    7 228  Ml 1.8  7  Md 2.1  2              bulletin    279256
                                                                                                         _ldg
      0.09   +-  0.05       1.0     .5   37.88 +-  0.0    0.10   3.01   +-0.3      +-0.2                 m i ke

PYRENEES
Sta     Dist  EvAz     Phase      Date       Time     TRes  Azim  AzRes  Slow  SRes Def   SNR       Amp   Per   Mag1   Mag2       ID
SJPF  000.10 334.5 m E Pg      2012/07/06 04:33:32.7   0.0                          T                                        5020087
SJPF  000.10 334.5 m E Sg      2012/07/06 04:33:34.0  -0.1                          T              119.8  .21        Md 2.2  5020086
ETSF  000.47 105.8 m E Pg      2012/07/06 04:33:39.5   0.0                          T                                        5020085
ETSF  000.47 105.8 m E Sg      2012/07/06 04:33:45.6  -0.1                          T               24.5  .28        Md 2.0  5020084
EPF   001.11 089.3 m E Pg      2012/07/06 04:33:51.3   0.0                          T                                        5020083
EPF   001.11 089.3 m E Sg      2012/07/06 04:34:05.8   0.1                          T                4.3  .22 Ml 2.1         5020082
LFF   002.36 035.1 m E Pn      2012/07/06 04:34:08.5   0.1                          T                                        5020093
LFF   002.36 035.1 m E Sn      2012/07/06 04:34:36.1  -0.1                          T                                        5020092
LFF   002.36 035.1 m E Sg      2012/07/06 04:34:44.7   0.1                          T                2.0  .22 Ml 2.1         5027704
CAF   003.01 049.8 m E Pn      2012/07/06 04:34:16.5  -0.9                          T                                        5020089
CAF   003.01 049.8 m E Sn      2012/07/06 04:34:51.8  -0.1                          T                 .2  .19 Ml 1.5         5020088
CAF   003.01 049.8 m E Sg      2012/07/06 04:35:05.0   0.0                          T                  1  .23 Ml 2.1         5027703
MTLF  002.50 081.6 m E Pg      2012/07/06 04:34:16.8  -0.1                          T                                        5020095
MTLF  002.50 081.6 m E Sg      2012/07/06 04:34:49.2   0.2                          T                1.1  .31 Ml 1.9         5020094
RJF   002.99 039.4 m E Pn      2012/07/06 04:34:17.1   0.1                          T                                        5020091
RJF   002.99 039.4 m E Sn      2012/07/06 04:34:51.3   0.0                          T                 .2  .12 Ml 1.4         5020090
RJF   002.99 039.4 m E Sg      2012/07/06 04:35:04.1  -0.2                          T                1.7  .29 Ml 1.9         5027705

.
EVENT     279190
    Date      Time       Latitude Longitude    Depth    Ndef Nsta Gap    Mag1  N    Mag2  N    Mag3  N   Author         ID
       rms   OT_Error      Smajor Sminor Az        Err   mdist  Mdist     Err        Err        Err      Quality

2012/07/06 07:33:28.0     43.5110    6.5728       .0 f    27   10 127  Ml 2.1  5  Md 1.9  4              bulletin    279290
                                                                                                         _ldg
      0.51   +-  0.16       3.4    2.5  154.12 +-  0.0    0.07   2.05   +-0.2      +-0.3                 m i km

NEAR SOUTH COAST OF FRANCE
Sta     Dist  EvAz     Phase      Date       Time     TRes  Azim  AzRes  Slow  SRes Def   SNR       Amp   Per   Mag1   Mag2       ID
FRF   000.07 047.3 m E Pg      2012/07/06 07:33:29.0  -0.9                          T                                        5020569
FRF   000.07 047.3 m E Sg      2012/07/06 07:33:30.3  -0.8                          T              964.2  .35        Md 1.6  5020568
LMR   000.18 194.7 m E Pg      2012/07/06 07:33:31.8  -0.1                          T                                        5020567
LMR   000.18 194.7 m E Sg      2012/07/06 07:33:35.1   0.4                          T              286.6  .58        Md 1.8  5020566
SBF   000.72 060.3 m E Pg      2012/07/06 07:33:41.6  -0.3                          T                                        5020571
SBF   000.72 060.3 m E Sg      2012/07/06 07:33:51.9   0.4                          T               17.4  .18        Md 2.0  5020570
SMRF  000.86 303.1 m E Pg      2012/07/06 07:33:44.8   0.3                          T                                        5020586
SMRF  000.86 303.1 m E Sg      2012/07/06 07:33:55.7  -0.1                          T               12.3  .36 Ml 2.3 Md 2.2  5020585
MBDF  001.22 006.6 m E Pg      2012/07/06 07:33:51.7   0.4                          T                                        5020580
MBDF  001.22 006.6 m E Sg      2012/07/06 07:34:07.3  -0.1                          T                2.8  .28 Ml 1.9         5020579
ORIF  001.49 340.7 m E Pg      2012/07/06 07:33:56.0  -0.2                          T                                        5020582
ORIF  001.49 340.7 m E Sg      2012/07/06 07:34:15.4  -0.3                          T               10.3  .56 Ml 2.3         5020581
VIVF  001.92 315.2 m E Pn      2012/07/06 07:34:00.3   0.0                          T                                        5020578
VIVF  001.92 315.2 m E Sn      2012/07/06 07:34:23.7  -0.3                          T                1.3  .21 Ml 2.0         5020577
LASF  002.05 287.0 m E Pn      2012/07/06 07:34:02.1   0.0                          T                                        5020576
LASF  002.05 287.0 m E Sn      2012/07/06 07:34:26.8  -0.2                          T                1.2  .24 Ml 1.9         5020575
LPG   001.99 003.6 m E Pg      2012/07/06 07:34:04.0  -0.6                          T                                        5020584
LPL   002.01 003.2 m E Pg      2012/07/06 07:34:05.4  -0.5                          T                                        5020583

.
EVENT     279191
    Date      Time       Latitude Longitude    Depth    Ndef Nsta Gap    Mag1  N    Mag2  N    Mag3  N   Author         ID
       rms   OT_Error      Smajor Sminor Az        Err   mdist  Mdist     Err        Err        Err      Quality

2012/07/06 08:07:29.4     44.4005    7.4942      8.0 f    24    8 162  Ml 1.7  6  Md 1.9  2              bulletin    279291
                                                                                                         _ldg
      0.23   +-  0.13       2.7    1.1   80.17 +-  0.0    0.18   1.44   +-0.3      +-0.0                 m i ke

NORTHERN ITALY
Sta     Dist  EvAz     Phase      Date       Time     TRes  Azim  AzRes  Slow  SRes Def   SNR       Amp   Per   Mag1   Mag2       ID
SBF   000.54 184.5 m E P       2012/07/06 08:07:41.0  -0.1                          T                                        5020611
SBF   000.54 184.5 m E Sn      2012/07/06 08:07:50.7   0.1                          T                4.7  .22        Md 2.0  5020610
MBDF  000.61 302.5 m E Pg      2012/07/06 08:07:41.4   0.1                          T                                        5020606
MBDF  000.61 302.5 m E Sg      2012/07/06 08:07:49.2  -0.1                          T                4.8  .50        Md 1.9  5020605
FRF   001.04 216.4 m E Pg      2012/07/06 08:07:48.9   0.0                          T                                        5020607
FRF   001.04 216.4 m E Sg      2012/07/06 08:08:02.6   0.2                          T                3.2  .30 Ml 1.9         5020618
LPG   001.22 334.6 m E Pg      2012/07/06 08:07:52.3  -0.3                          T                                        5020615
LPG   001.22 334.6 m E Sg      2012/07/06 08:08:08.1  -0.2                          T                  1  .25 Ml 1.5         5020614
LPL   001.24 334.4 m E Pg      2012/07/06 08:07:52.8  -0.1                          T                                        5020613
LPL   001.24 334.4 m E Sg      2012/07/06 08:08:09.0   0.1                          T                1.2  .22 Ml 1.7         5020612
ORIF  001.26 294.8 m E Pg      2012/07/06 08:07:53.4   0.2                          T                                        5027740
ORIF  001.26 294.8 m E Sg      2012/07/06 08:08:09.5   0.0                          T                 .7  .22 Ml 1.5         5027735
LMR   001.28 214.1 m E Pg      2012/07/06 08:07:53.6   0.2                          T                                        5027738
LMR   001.28 214.1 m E Sg      2012/07/06 08:08:10.1   0.1                          T                3.3  .22 Ml 2.1         5027737
SMRF  001.44 253.6 m E Pg      2012/07/06 08:07:56.2  -0.2                          T                                        5027739
SMRF  001.44 253.6 m E Sg      2012/07/06 08:08:15.1   0.0                          T                 .9  .25 Ml 1.6         5027736

.
EVENT     279193
    Date      Time       Latitude Longitude    Depth    Ndef Nsta Gap    Mag1  N    Mag2  N    Mag3  N   Author         ID
       rms   OT_Error      Smajor Sminor Az        Err   mdist  Mdist     Err        Err        Err      Quality

2012/07/06 09:13:09.4     44.4893   11.7352     10.0      23    9 127  Ml 2.8  7                         bulletin    279293
                                                                                                         _ldg
      0.58   +-  0.18       4.2    2.8   58.35 +-  0.0    0.51   6.16   +-0.3                            m i ke

NORTHERN ITALY
Sta     Dist  EvAz     Phase      Date       Time     TRes  Azim  AzRes  Slow  SRes Def   SNR       Amp   Per   Mag1   Mag2       ID
PGF   002.78 226.7 m E Pn      2012/07/06 09:13:52.1  -0.1                          T                                        5020697
PGF   002.78 226.7 m E Sn      2012/07/06 09:14:22.5  -1.4                          T                5.9  .23 Ml 3.0         5020696
SBF   003.16 260.1 m E Pn      2012/07/06 09:13:57.7   0.4                          T                                        5020695
SBF   003.16 260.1 m E Sn      2012/07/06 09:14:32.5  -0.3                          T               18.3  .40 Ml 3.1         5020694
MBDF  003.55 275.6 m E Pn      2012/07/06 09:14:03.3   0.5                          T                                        5020730
MBDF  003.55 275.6 m E Sn      2012/07/06 09:14:42.0  -0.3                          T                3.7  .41 Ml 2.5         5020729
LPG   003.68 287.7 m E Pn      2012/07/06 09:14:05.0   0.3                          T                                        5020731
FRF   003.79 257.6 m E Pn      2012/07/06 09:14:07.2   1.4                          T                                        5020692
FRF   003.79 257.6 m E Sn      2012/07/06 09:14:47.1  -0.6                          T                                        5020691
LMR   003.95 254.8 m E Pn      2012/07/06 09:14:08.9   0.9                          T                                        5020693
LMR   003.95 254.8 m E Sn      2012/07/06 09:14:50.6  -1.0                          T                2.7  .20 Ml 2.8         5020698
CDF   004.99 323.4 m E Pn      2012/07/06 09:14:22.3   0.0                          T                                        5020726
CDF   004.99 323.4 m E Sn      2012/07/06 09:15:15.7  -0.9                          T                2.1  .27 Ml 2.9         5020725
VIVF  005.05 276.6 m E Pn      2012/07/06 09:14:22.7  -0.4                          T                                        5020728
VIVF  005.05 276.6 m E Sn      2012/07/06 09:15:17.9  -0.1                          T                1.3  .31 Ml 2.5         5020727
LOR   006.16 299.6 m E Pn      2012/07/06 09:14:38.7   0.5                          T                                        5020724
LOR   006.16 299.6 m E Sn      2012/07/06 09:15:44.1  -0.4                          T                1.8  .21 Ml 3.1         5020723

.
EVENT     279203
    Date      Time       Latitude Longitude    Depth    Ndef Nsta Gap    Mag1  N    Mag2  N    Mag3  N   Author         ID
       rms   OT_Error      Smajor Sminor Az        Err   mdist  Mdist     Err        Err        Err      Quality

2012/07/06 09:56:34.5     47.9268   -4.2999       .0 f    16    5 328  Ml 2.2  3  Md 2.0  3              bulletin    279303
                                                                                                         _ldg
      0.28   +-  0.12       2.0    1.8   21.80 +-  0.0    0.76   2.68   +-0.2      +-0.2                 m i km

FRANCE
Sta     Dist  EvAz     Phase      Date       Time     TRes  Azim  AzRes  Slow  SRes Def   SNR       Amp   Per   Mag1   Mag2       ID
QUIF  000.76 090.3 m E Pg      2012/07/06 09:56:49.2   0.1                          T                                Md 1.9  5020874
QUIF  000.76 090.3 m E Pn      2012/07/06 09:56:51.2   0.1                          T                                        5020876
QUIF  000.76 090.3 m E Sg      2012/07/06 09:56:59.2   0.0                          T                                        5020873
QUIF  000.76 090.3 m E Sn      2012/07/06 09:57:02.5  -0.2                          T               12.0  .20                5020875
ROSF  000.80 058.8 m E Pg      2012/07/06 09:56:49.7  -0.1                          T                                Md 1.8  5020878
ROSF  000.80 058.8 m E Pn      2012/07/06 09:56:51.3  -0.2                          T                                        5020870
ROSF  000.80 058.8 m E Sn      2012/07/06 09:57:03.4  -0.2                          T                9.2  .24                5020872
SGMF  001.21 073.7 m E Pn      2012/07/06 09:56:57.3   0.1                          T                                        5020869
SGMF  001.21 073.7 m E P       2012/07/06 09:56:58.8   0.1                          T                                        5027835
SGMF  001.21 073.7 m E Sn      2012/07/06 09:57:13.4  -0.1                          T                2.1  .17 Ml 2.0         5020871
GRR   002.35 077.4 m E Sg      2012/07/06 09:57:48.9   0.1                          T                7.0  .41 Ml 2.4         5027837
FLN   002.68 070.4 m E Sg      2012/07/06 09:57:59.4   0.3 251.5  -1.8              T                5.3  .36 Ml 2.4         5027836

.
EVENT     279205
    Date      Time       Latitude Longitude    Depth    Ndef Nsta Gap    Mag1  N    Mag2  N    Mag3  N   Author         ID
       rms   OT_Error      Smajor Sminor Az        Err   mdist  Mdist     Err        Err        Err      Quality

2012/07/06 10:10:31.0     43.6551    6.9570       .0 f    32   10 102  Ml 1.7  6  Md 2.0  3              bulletin    279305
                                                                                                         _ldg
      0.40   +-  0.11       2.3    1.8  142.61 +-  0.0    0.07   2.28   +-0.2      +-0.0                 m i km

NEAR SOUTH COAST OF FRANCE
Sta     Dist  EvAz     Phase      Date       Time     TRes  Azim  AzRes  Slow  SRes Def   SNR       Amp   Per   Mag1   Mag2       ID
FRF   000.24 247.4 m E Pg      2012/07/06 10:10:36.1   0.1                          T                                Md 2.0  5020854
FRF   000.24 247.4 m E Sn      2012/07/06 10:10:39.6  -7.1                          T                                        5020856
SBF   000.40 058.9 m E Pg      2012/07/06 10:10:38.6  -0.5                          T                                Md 2.0  5020852
SBF   000.40 058.9 m E Sg      2012/07/06 10:10:44.2  -0.4                          T                                        5020860
LMR   000.46 225.6 m E Pg      2012/07/06 10:10:40.0   0.0                          T                                Md 2.0  5020853
LMR   000.46 225.6 m E Sg      2012/07/06 10:10:46.2   0.0                          T                                        5020843
SMRF  001.05 288.3 m E Pg      2012/07/06 10:10:50.6  -0.3                          T                                        5020851
SMRF  001.05 288.3 m E Pn      2012/07/06 10:10:51.7   0.2                          T                                        5020861
SMRF  001.05 288.3 m E Sg      2012/07/06 10:11:05.0   0.2                          T                1.2  .20 Ml 1.6         5020842
MBDF  001.08 353.0 m E Pg      2012/07/06 10:10:51.8   0.2                          T                                        5020844
MBDF  001.08 353.0 m E Sg      2012/07/06 10:11:05.4  -0.4                          T                1.0  .18 Ml 1.6         5020839
ORIF  001.48 328.9 m E Pn      2012/07/06 10:10:57.8   0.3                          T                                        5020846
ORIF  001.48 328.9 m E Pg      2012/07/06 10:10:59.2   0.3                          T                                        5020845
ORIF  001.48 328.9 m E Sn      2012/07/06 10:11:16.1  -0.4                          T                 .7  .19 Ml 1.6         5020840
LPG   001.85 355.5 m E Pn      2012/07/06 10:11:02.9   0.2                          T                                        5020849
LPG   001.85 355.5 m E Pg      2012/07/06 10:11:06.3   0.4                          T                                        5020850
LPG   001.85 355.5 m E Sn      2012/07/06 10:11:25.2  -0.4                          T                 .4  .21 Ml 1.5         5020841
LPL   001.87 355.2 m E Pn      2012/07/06 10:11:03.2   0.3                          T                                        5020848
LPL   001.87 355.2 m E Pg      2012/07/06 10:11:06.3   0.0                          T                                        5020847
LPL   001.87 355.2 m E Sn      2012/07/06 10:11:25.3  -0.6                          T                                        5020859
VIVF  002.03 307.0 m E Pn      2012/07/06 10:11:04.2  -0.7                          T                                        5020858
VIVF  002.03 307.0 m E Sn      2012/07/06 10:11:29.3  -0.3                          T                 .8  .18 Ml 1.9         5020857
LASF  002.28 281.7 m E Sn      2012/07/06 10:11:35.6   0.0                          T                 .8  .22 Ml 1.8         5020855

.
