EVENT     266914
    Date      Time       Latitude Longitude    Depth    Ndef Nsta Gap    Mag1  N    Mag2  N    Mag3  N   Author         ID
       rms   OT_Error      Smajor Sminor Az        Err   mdist  Mdist     Err        Err        Err      Quality

2011/11/30 11:14:08.8     47.6787    6.0035       .0 f    19   10 100  Ml 2.1  6  Md 2.1  3              js067245    266934

      0.96   +-  0.09       1.6    1.4  129.87 +-  0.0    0.40   1.80   +-0.1      +-0.1                 m i km

FRANCE
Sta     Dist  EvAz     Phase      Date       Time     TRes  Azim  AzRes  Slow  SRes Def   SNR       Amp   Per   Mag1   Mag2       ID
HAU   000.40 035.2 m E Pg      2011/11/30 11:14:16.4  -0.3                          T                                        4794561
HAU   000.40 035.2 m E Sg      2011/11/30 11:14:22.0  -0.3                          T               41.6  .82        Md 2.1  4794562
THEF  000.55 359.3 m E Pg      2011/11/30 11:14:19.7   0.2                          T                                        4794546
THEF  000.55 359.3 m E Sg      2011/11/30 11:14:26.6  -0.3                          T               65.1  .95        Md 2.2  4794547
HINF  000.59 076.1 m E Pg      2011/11/30 11:14:20.1  -0.2                          T                                        4794557
HINF  000.59 076.1 m E Sg      2011/11/30 11:14:28.6   0.4                          T               22.1  .92        Md 2.0  4794558
SFTF  000.84 309.4 m E Pg      2011/11/30 11:14:24.9   0.1 126.0  -2.7              T                                        4794559
SFTF  000.84 309.4 m E Sg      2011/11/30 11:14:35.5  -0.3 123.9  -4.8              T                4.6  .27                4794560
PAGF  000.90 348.1 m E Pg      2011/11/30 11:14:26.0   0.1 162.4  -5.5              T                                        4794550
PAGF  000.90 348.1 m E Sg      2011/11/30 11:14:37.9   0.2 172.2  4.3               T                                        4794551
PAGF  000.90 348.1 m E Sn      2011/11/30 11:14:40.7   0.4 173.3  5.4               T               62.4 1.95 Ml 2.3         4794552
MEZF  001.04 322.6 m E Pg      2011/11/30 11:14:28.5   0.0                          T                                        4794548
MEZF  001.04 322.6 m E Sg      2011/11/30 11:14:42.3   0.0 151.2  9.3               T                7.7  .43 Ml 2.1         4794549
CABF  001.07 176.9 m E Pg      2011/11/30 11:14:29.2   0.0                          T                                        4794545
CABF  001.07 176.9 m E Sn      2011/11/30 11:14:44.9   0.4                          T               14.8  .56 Ml 2.3         4794556
LOR   001.51 255.0 m E Pg      2011/11/30 11:14:37.2  -0.1  71.6  -1.9              T                                        4794553
LOR   001.51 255.0 m E Sg      2011/11/30 11:14:56.7  -0.3  72.5  -0.9              T                2.2  .25 Ml 2.0         4794554
CDF   001.13 048.8 m E Sn      2011/11/30 11:14:46.5   0.6                          T                7.5  .50 Ml 2.2         4794555
SMF   001.80 235.8 m E Sg      2011/11/30 11:15:05.6  -0.4                          T                2.9  .32 Ml 2.1         4794544

.
EVENT     266915
    Date      Time       Latitude Longitude    Depth    Ndef Nsta Gap    Mag1  N    Mag2  N    Mag3  N   Author         ID
       rms   OT_Error      Smajor Sminor Az        Err   mdist  Mdist     Err        Err        Err      Quality

2011/11/30 11:35:17.3     50.2516   12.4604      8.0 f    51   14 071  Ml 3.2  9  Md 3.3  2              js067245    266935

      0.51   +-  0.10       2.0    1.4  104.39 +-  0.0    0.02   6.77   +-0.2      +-0.1                 m i ke

GERMANY
Sta     Dist  EvAz     Phase      Date       Time     TRes  Azim  AzRes  Slow  SRes Def   SNR       Amp   Per   Mag1   Mag2       ID
RUP   003.53 263.1 m E Pn      2011/11/30 11:36:12.0   1.4                          T                                        4793840
RUP   003.53 263.1 m E Pg      2011/11/30 11:36:23.0   0.2                          T                                        4793843
RUP   003.53 263.1 m E Sg      2011/11/30 11:37:08.1   0.0                          T                                        4793839
CDF   003.86 243.5 m E Pn      2011/11/30 11:36:16.4   1.3                          T                                        4793864
CDF   003.86 243.5 m E Pg      2011/11/30 11:36:28.8   0.0                          T                                        4793865
CDF   003.86 243.5 m E Sg      2011/11/30 11:37:18.3   0.0                          T               12.3  .36 Ml 3.3 Md 3.3  4793866
LANF  003.28 249.0 m E Pg      2011/11/30 11:36:18.2   0.1                          T                                        4793846
LANF  003.28 249.0 m E Sg      2011/11/30 11:36:59.8  -0.6                          T               22.8  .36 Ml 3.3 Md 3.2  4793856
HINF  004.42 238.7 m E Pn      2011/11/30 11:36:23.2   0.5                          T                                        4793863
HINF  004.42 238.7 m E Pg      2011/11/30 11:36:38.9  -0.2                          T                                        4793841
HINF  004.42 238.7 m E Sn      2011/11/30 11:37:11.3   0.0                          T                                        4793842
HINF  004.42 238.7 m E Sg      2011/11/30 11:37:35.6  -0.3                          T                9.8  .35 Ml 3.2         4793844
HAU   004.60 243.1 m E Pn      2011/11/30 11:36:25.7   0.6                          T                                        4793861
HAU   004.60 243.1 m E Pg      2011/11/30 11:36:42.8   0.4                          T                                        4793860
HAU   004.60 243.1 m E Sg      2011/11/30 11:37:41.1  -0.3                          T               16.3  .38 Ml 3.2         4793858
SFTF  005.28 250.0 m E Pn      2011/11/30 11:36:35.5   1.2                          T                                        4793859
BAIF  005.31 271.1 m E Pn      2011/11/30 11:36:35.9   1.1                          T                                        4793862
CABF  005.59 231.8 m E Pn      2011/11/30 11:36:38.8   0.1                          T                                        4793850
CABF  005.59 231.8 m E Pg      2011/11/30 11:37:01.3   0.6                          T                                        4793851
CABF  005.59 231.8 m E Sg      2011/11/30 11:38:12.3  -0.2                          T                                        4793852
THEF  004.70 246.9 m E Pg      2011/11/30 11:36:44.4   0.2                          T                                        4793847
THEF  004.70 246.9 m E Sg      2011/11/30 11:37:44.6   0.2                          T               10.9  .26 Ml 3.4         4793845
SMF   006.77 241.1 m E Pg      2011/11/30 11:37:22.6   0.1                          T                                        4793849
PAGF  004.71 251.5 m E Sg      2011/11/30 11:37:45.2   0.2                          T                5.8  .59 Ml 2.8         4793857
GIVF  004.91 271.2 m E Sg      2011/11/30 11:37:50.4  -0.7                          T                6.5  .37 Ml 3.1         4793853
LOR   006.42 245.6 m E Sg      2011/11/30 11:38:38.0  -0.3  68.9  9.7               T                4.8  .47 Ml 3.2         4793855
SSF   006.74 245.1 m E Sg      2011/11/30 11:38:47.8  -0.2                          T                2.6  .39 Ml 3.1         4793854

.
EVENT     266912
    Date      Time       Latitude Longitude    Depth    Ndef Nsta Gap    Mag1  N    Mag2  N    Mag3  N   Author         ID
       rms   OT_Error      Smajor Sminor Az        Err   mdist  Mdist     Err        Err        Err      Quality

2011/11/30 11:45:26.3     42.8828     .0368      2.0       7    4 199  Ml 1.3  2  Md 1.4  2              js067245    266932

      0.17   +-  0.20       8.9    1.2  169.16 +-  0.0    0.27   1.66   +-0.1      +-0.1                 m i ke

PYRENEES
Sta     Dist  EvAz     Phase      Date       Time     TRes  Azim  AzRes  Slow  SRes Def   SNR       Amp   Per   Mag1   Mag2       ID
EPF   000.27 056.4 m E Pg      2011/11/30 11:45:31.6   0.0                          T                                        4793868
EPF   000.27 056.4 m E Sg      2011/11/30 11:45:35.5   0.3                          T                5.8  .28        Md 1.4  4793867
ETSF  000.44 272.3 m E Pg      2011/11/30 11:45:34.8   0.1                          T                                        4793870
ETSF  000.44 272.3 m E Sg      2011/11/30 11:45:40.7   0.1                          T                2.7  .20        Md 1.3  4793869
SJPF  000.95 284.4 m E Pg      2011/11/30 11:45:44.1  -0.1                          T                                        4793873
SJPF  000.95 284.4 m E Sg      2011/11/30 11:45:56.5  -0.1                          T                 .6  .21 Ml 1.2         4793872
MTLF  001.66 073.3 m E Sg      2011/11/30 11:46:18.3  -0.4                          T                 .5  .26 Ml 1.4         4793874

.
EVENT     266935
    Date      Time       Latitude Longitude    Depth    Ndef Nsta Gap    Mag1  N    Mag2  N    Mag3  N   Author         ID
       rms   OT_Error      Smajor Sminor Az        Err   mdist  Mdist     Err        Err        Err      Quality

2011/11/30 14:54:54.2     47.9594    7.9086     17.4      21    7 037  Ml 2.0  3  Md 1.8  3              js067245    266955

      0.26   +-  0.04        .9     .8  141.66 +-  0.5    0.01   2.83   +-0.2      +-0.1                 m i ke

SWITZERLAND
Sta     Dist  EvAz     Phase      Date       Time     TRes  Azim  AzRes  Slow  SRes Def   SNR       Amp   Per   Mag1   Mag2       ID
CDF   000.62 317.2 m E Pg      2011/11/30 14:55:06.5   0.1                          T                                        4793879
CDF   000.62 317.2 m E Sg      2011/11/30 14:55:14.9   0.1                          T                4.1  .22        Md 1.9  4793878
HINF  000.72 259.0 m E Pg      2011/11/30 14:55:08.1  -0.1                          T                                        4793877
HINF  000.72 259.0 m E Sg      2011/11/30 14:55:18.5   0.7                          T                3.5  .24        Md 1.6  4793876
LANF  001.02 356.2 m E Pg      2011/11/30 14:55:13.5  -0.1                          T                                        4793885
LANF  001.02 356.2 m E Sg      2011/11/30 14:55:27.0   0.0                          T                4.2  .19 Ml 2.2         4793884
HAU   001.05 273.1 m E Pg      2011/11/30 14:55:13.8  -0.2                          T                                        4793883
HAU   001.05 273.1 m E Sg      2011/11/30 14:55:28.1   0.3                          T                3.7  .22 Ml 1.8 Md 1.8  4793875
LPL   002.57 198.7 m E Pg      2011/11/30 14:55:41.5  -0.8                          T                                        4793881
LPG   002.59 198.3 m E Pg      2011/11/30 14:55:42.0  -0.6                          T                                        4793880
LOR   002.83 257.3 m E Sg      2011/11/30 14:56:23.0   0.0                          T                1.0  .23 Ml 2.0         4793882

.
EVENT     266936
    Date      Time       Latitude Longitude    Depth    Ndef Nsta Gap    Mag1  N    Mag2  N    Mag3  N   Author         ID
       rms   OT_Error      Smajor Sminor Az        Err   mdist  Mdist     Err        Err        Err      Quality

2011/11/30 15:11:33.4     43.0499    -.3650     10.0      11    4 131  Ml 1.6  1  Md 1.7  3              js067245    266956

      0.22   +-  0.07       3.6    1.2  174.39 +-  0.0    0.03   1.91   +-         +-0.1                 m i ke

PYRENEES
Sta     Dist  EvAz     Phase      Date       Time     TRes  Azim  AzRes  Slow  SRes Def   SNR       Amp   Per   Mag1   Mag2       ID
ETSF  000.21 223.4 m E Pg      2011/11/30 15:11:38.0   0.1                          T                                        4793891
ETSF  000.21 223.4 m E Sg      2011/11/30 15:11:41.1   0.1                          T               52.2  .24        Md 1.7  4793890
EPF   000.52 091.9 m E Pg      2011/11/30 15:11:43.3  -0.2                          T                                        4793888
EPF   000.52 091.9 m E Pn      2011/11/30 15:11:45.3  -0.2                          T                                        4793895
EPF   000.52 091.9 m E Sg      2011/11/30 15:11:50.9   0.5                          T                9.6  .30        Md 1.6  4793889
SJPF  000.63 276.0 m E Pg      2011/11/30 15:11:45.5   0.0                          T                                        4793887
SJPF  000.63 276.0 m E Pn      2011/11/30 15:11:46.6  -0.3                          T                                        4793896
SJPF  000.63 276.0 m E Sg      2011/11/30 15:11:54.1   0.2                          T                3.4  .24        Md 1.7  4793886
SJPF  000.63 276.0 m E Sn      2011/11/30 15:11:56.8   0.3                          T                                        4793897
MTLF  001.91 080.4 m E Pg      2011/11/30 15:12:09.1   0.1                          T                                        4793894
MTLF  001.91 080.4 m E Sg      2011/11/30 15:12:33.8   0.2                          T                 .7  .25 Ml 1.6         4793893

.
EVENT     266937
    Date      Time       Latitude Longitude    Depth    Ndef Nsta Gap    Mag1  N    Mag2  N    Mag3  N   Author         ID
       rms   OT_Error      Smajor Sminor Az        Err   mdist  Mdist     Err        Err        Err      Quality

2011/11/30 19:24:43.2     46.2871    2.5791      5.0 f    22   10 081  Ml 1.9  7  Md 1.8  2              js067245    266957

      0.30   +-  0.05       1.4     .8  134.73 +-  0.0    0.22   1.91   +-0.2      +-0.0                 m i ke

FRANCE
Sta     Dist  EvAz     Phase      Date       Time     TRes  Azim  AzRes  Slow  SRes Def   SNR       Amp   Per   Mag1   Mag2       ID
TCF   000.26 270.4 m E Pg      2011/11/30 19:24:48.6   0.2                          T                                        4793911
TCF   000.26 270.4 m E Sg      2011/11/30 19:24:51.7  -0.2                          T               10.8  .18        Md 1.7  4793910
BGF   000.33 034.2 m E Pg      2011/11/30 19:24:49.3  -0.3                          T                                        4793905
BGF   000.33 034.2 m E Pn      2011/11/30 19:24:49.9   0.3                          T                                        4793912
BGF   000.33 034.2 m E Sg      2011/11/30 19:24:54.4   0.4                          T               36.9  .34                4793906
AVF   000.73 046.4 m E Pg      2011/11/30 19:24:57.0   0.0                          T                                        4793898
AVF   000.73 046.4 m E Pn      2011/11/30 19:24:58.5  -0.1                          T                                        4793920
AVF   000.73 046.4 m E Sg      2011/11/30 19:25:06.3  -0.3                          T                1.8  .19                4793907
SMF   000.94 067.2 m E Pg      2011/11/30 19:25:00.6  -0.3                          T                                        4793918
SMF   000.94 067.2 m E Sg      2011/11/30 19:25:13.1  -0.1                          T                2.0  .19 Ml 1.8         4793899
SSF   001.00 039.2 m E Pg      2011/11/30 19:25:01.9  -0.1                          T                                        4793915
SSF   001.00 039.2 m E Sg      2011/11/30 19:25:14.8  -0.3                          T                2.2  .18 Ml 2.0         4793909
RJF   001.23 217.5 m E Pg      2011/11/30 19:25:06.1  -0.1                          T                                        4793903
RJF   001.23 217.5 m E Sg      2011/11/30 19:25:22.3   0.1                          T                1.4  .21 Ml 1.4         4793902
LOR   001.32 041.4 m E Pg      2011/11/30 19:25:07.7  -0.1 224.1  1.8               T                                        4793916
LOR   001.32 041.4 m E Sn      2011/11/30 19:25:23.8   0.3 223.5  1.1               T                2.0  .23 Ml 1.9         4793908
CAF   001.41 195.0 m E Pg      2011/11/30 19:25:09.4  -0.1                          T                                        4793900
CAF   001.41 195.0 m E Sg      2011/11/30 19:25:27.6  -0.1                          T                2.1  .18 Ml 2.1         4793901
HYF   000.98 002.4 m E Sn      2011/11/30 19:25:15.7   0.2                          T                                        4793921
MFF   001.91 280.5 m E Sg      2011/11/30 19:25:43.2  -0.1                          T                 .5  .18 Ml 1.8         4793919

.
EVENT     266938
    Date      Time       Latitude Longitude    Depth    Ndef Nsta Gap    Mag1  N    Mag2  N    Mag3  N   Author         ID
       rms   OT_Error      Smajor Sminor Az        Err   mdist  Mdist     Err        Err        Err      Quality

2011/11/30 21:17:04.1     51.5047   16.0788      1.0 f    62   14 074  Ml 4.0 10                         js067245    266958

      0.68   +-  0.16       3.9    2.5   10.30 +-  0.0    0.68  10.43   +-0.2                            m i sr

POLAND
Sta     Dist  EvAz     Phase      Date       Time     TRes  Azim  AzRes  Slow  SRes Def   SNR       Amp   Per   Mag1   Mag2       ID
RUP   006.02 256.1 m E P       2011/11/30 21:18:36.0  -0.5                          T                                        4793922
RUP   006.02 256.1 m E Sg      2011/11/30 21:20:10.9  -1.7                          T                                        4794618
CDF   006.47 244.8 m E P       2011/11/30 21:18:41.0  -1.9                          T                                        4793923
CDF   006.47 244.8 m E Sg      2011/11/30 21:20:27.2   0.6                          T               85.5  .90 Ml 4.3         4794616
PAGF  007.29 250.2 m E P       2011/11/30 21:18:52.6  -1.8                          T                                        4793927
LPG   008.63 229.5 m E P       2011/11/30 21:19:11.4  -2.0                          T                                        4793924
LPG   008.63 229.5 m E Sg      2011/11/30 21:21:36.0   1.8                          T               52.3 1.20 Ml 4.2         4794609
MBDF  009.20 226.1 m E Pn      2011/11/30 21:19:14.1  -1.4                          T                                        4794612
MBDF  009.20 226.1 m E P       2011/11/30 21:19:21.0  -0.2                          T                                        4794611
MBDF  009.20 226.1 m E Sg      2011/11/30 21:21:54.3   2.3                          T               15.4  .96 Ml 3.8         4794610
SBF   009.61 220.6 m E P       2011/11/30 21:19:25.0  -1.7                          T                                        4793926
LMR   010.43 222.1 m E P       2011/11/30 21:19:35.5  -2.3                          T                                        4793925
LANF  005.88 247.8 m E Sg      2011/11/30 21:20:08.3   0.1                          T               85.1  .79 Ml 4.1         4794617
HINF  007.03 241.9 m E Sg      2011/11/30 21:20:45.9   1.7                          T               67.5 1.12 Ml 4.0         4794614
HAU   007.21 244.7 m E Sg      2011/11/30 21:20:50.5   0.8                          T               37.0  .78 Ml 3.7         4794615
GIVF  007.27 263.3 m E Sg      2011/11/30 21:20:51.6   0.0                          T               50.9  .96 Ml 4.0         4794620
BAIF  007.66 263.8 m E Sg      2011/11/30 21:21:03.5  -0.3                          T               33.3 1.02 Ml 3.9         4794619
CABF  008.19 237.2 m E Sg      2011/11/30 21:21:21.0   0.8                          T              152.2 1.30 Ml 4.5         4794613
LOR   009.03 246.8 m E Sg      2011/11/30 21:21:46.9   0.6                          T               20.8 1.03 Ml 3.9         4794621

.
