EVENT     259550
    Date      Time       Latitude Longitude    Depth    Ndef Nsta Gap    Mag1  N    Mag2  N    Mag3  N   Author         ID
       rms   OT_Error      Smajor Sminor Az        Err   mdist  Mdist     Err        Err        Err      Quality

2011/05/23 02:24:06.6     37.4023   10.5229     10.0 f    83   12 078  Ml 3.3  4                         js067245    259550

      1.10   +-  0.16       4.9    3.1  173.34 +-  0.0    0.55  13.87   +-0.3                            m i ke

TUNISIA
Sta     Dist  EvAz     Phase      Date       Time     TRes  Azim  AzRes  Slow  SRes Def   SNR       Amp   Per   Mag1   Mag2       ID
NOV   003.71 078.9 m E P       2011/05/23 02:25:07.2   1.7                          T                                        4693561
PGF   005.27 347.7 m E Pn      2011/05/23 02:25:25.1   1.7                          T                                        4698939
PGF   005.27 347.7 m E Sn      2011/05/23 02:26:22.2   1.6                          T                8.7  .33 Ml 3.6         4698927
LMR   006.67 333.9 m E Pn      2011/05/23 02:25:42.6   0.4                          T                                        4698937
LMR   006.67 333.9 m E Sn      2011/05/23 02:26:54.1   0.2                          T                2.6  .28 Ml 3.2         4698926
SBF   006.87 341.0 m E Pn      2011/05/23 02:25:45.0   0.0                          T                                        4698938
FRF   006.82 335.6 m E Pn      2011/05/23 02:25:45.1   0.7                          T                                        4698936
SMRF  007.56 331.8 m E Pn      2011/05/23 02:25:54.6   0.0                          T                                        4698934
SMRF  007.56 331.8 m E P       2011/05/23 02:26:00.2   0.3                          T                                        4698935
MBDF  007.85 340.0 m E Pn      2011/05/23 02:25:58.5   0.0                          T                                        4698931
MBDF  007.85 340.0 m E P       2011/05/23 02:26:04.1   0.2                          T                                        4698932
MBDF  007.85 340.0 m E Sn      2011/05/23 02:27:23.1   0.9                          T                1.1  .28 Ml 3.0         4698924
LASF  008.37 324.9 m E Pn      2011/05/23 02:26:05.5   0.0                          T                                        4698930
MTLF  008.68 315.7 m E Pn      2011/05/23 02:26:09.2  -0.5                          T                                        4698928
MTLF  008.68 315.7 m E P       2011/05/23 02:26:14.4  -0.9                          T                                        4698929
MTLF  008.68 315.7 m E Sn      2011/05/23 02:27:42.9   1.1                          T                2.2  .34 Ml 3.3         4698925
LPG   008.57 341.9 m E P       2011/05/23 02:26:14.6   0.5                          T                                        4698933
EPF   009.60 309.0 m E P       2011/05/23 02:26:28.0  -0.1                          T                                        4698923
ETSF  010.10 306.4 m E P       2011/05/23 02:26:34.1  -0.9                          T                                        4698922

.
EVENT     259551
    Date      Time       Latitude Longitude    Depth    Ndef Nsta Gap    Mag1  N    Mag2  N    Mag3  N   Author         ID
       rms   OT_Error      Smajor Sminor Az        Err   mdist  Mdist     Err        Err        Err      Quality

2011/05/23 02:26:02.9     37.3822   10.4576     30.0      48   15 090  Ml 3.3  6                         js067245    259551

      0.88   +-  0.15       4.1    3.8  105.57 +-  0.0    0.49  89.97   +-0.3                            m i ke

TUNISIA
Sta     Dist  EvAz     Phase      Date       Time     TRes  Azim  AzRes  Slow  SRes Def   SNR       Amp   Per   Mag1   Mag2       ID
PGF   005.28 348.2 m E Pn      2011/05/23 02:27:18.7   0.6                          T                                        4699045
PGF   005.28 348.2 m E Sn      2011/05/23 02:28:14.7   0.3                          T               16.1  .44 Ml 3.7         4699031
LMR   006.66 334.3 m E Pn      2011/05/23 02:27:37.3   0.5                          T                                        4699043
LMR   006.66 334.3 m E Sn      2011/05/23 02:28:46.1  -1.3                          T                2.6  .27 Ml 3.2         4699029
FRF   006.82 336.0 m E Pn      2011/05/23 02:27:38.8  -0.2                          T                                        4699042
FRF   006.82 336.0 m E Sn      2011/05/23 02:28:50.6  -0.5                          T                3.7  .48 Ml 3.1         4699028
SBF   006.87 341.4 m E Pn      2011/05/23 02:27:39.9   0.2                          T                                        4699044
SBF   006.87 341.4 m E Sn      2011/05/23 02:28:51.4  -0.9                          T                3.6  .44 Ml 3.1         4699030
MBDF  007.85 340.4 m E Pn      2011/05/23 02:27:52.8  -0.3                          T                                        4699027
MBDF  007.85 340.4 m E Sn      2011/05/23 02:29:14.9  -0.9                          T                 .6  .21 Ml 2.9         4699026
SMRF  007.56 332.2 m E P       2011/05/23 02:27:53.2  -0.7                          T                                        4699041
ORIF  008.28 336.8 m E Pn      2011/05/23 02:27:59.1   0.1                          T                                        4699039
LASF  008.35 325.2 m E Pn      2011/05/23 02:28:00.1   0.2                          T                                        4699038
LPL   008.59 342.2 m E Pn      2011/05/23 02:28:02.9  -0.5                          T                                        4699040
MTLF  008.66 316.0 m E Pn      2011/05/23 02:28:03.6  -0.4                          T                                        4699036
MTLF  008.66 316.0 m E Sn      2011/05/23 02:29:36.3   1.4                          T                6.2  .46 Ml 3.7         4699025
EPF   009.57 309.2 m E Pn      2011/05/23 02:28:16.8   0.3                          T                                        4699037
CAF   009.84 322.6 m E Pn      2011/05/23 02:28:21.1   1.0                          T                                        4699033
ETSF  010.07 306.6 m E Pn      2011/05/23 02:28:25.4   2.1                          T                                        4699035
LFF   010.51 318.9 m E Pn      2011/05/23 02:28:29.9   0.7                          T                                        4699032
SJPF  010.60 306.3 m E Pn      2011/05/23 02:28:32.3   1.8                          T                                        4699034

.
EVENT     259555
    Date      Time       Latitude Longitude    Depth    Ndef Nsta Gap    Mag1  N    Mag2  N    Mag3  N   Author         ID
       rms   OT_Error      Smajor Sminor Az        Err   mdist  Mdist     Err        Err        Err      Quality

2011/05/23 05:13:25.2     42.9751   -1.2825      2.0      18    3 115  Ml 1.3  1  Md 1.3  2              js067245    259555

      0.19   +-  0.06       1.1     .9  101.17 +-  0.0    0.14   1.19   +-         +-0.0                 m i ke

PYRENEES
Sta     Dist  EvAz     Phase      Date       Time     TRes  Azim  AzRes  Slow  SRes Def   SNR       Amp   Per   Mag1   Mag2       ID
SJPF  000.14 016.9 m E Pg      2011/05/23 05:13:28.4   0.2                          T                                        4699130
SJPF  000.14 016.9 m E Sg      2011/05/23 05:13:30.2  -0.1                          T               25.1  .22        Md 1.3  4699131
ETSF  000.54 097.9 m E Pg      2011/05/23 05:13:35.1  -0.4                          T                                        4699128
ETSF  000.54 097.9 m E Sg      2011/05/23 05:13:42.6   0.1                          T                2.1  .20        Md 1.3  4699129
EPF   001.19 086.8 m E Pg      2011/05/23 05:13:47.6   0.0                          T                                        4699126
EPF   001.19 086.8 m E Sg      2011/05/23 05:14:02.9  -0.1                          T                 .5  .23 Ml 1.3         4699127

.
EVENT     259556
    Date      Time       Latitude Longitude    Depth    Ndef Nsta Gap    Mag1  N    Mag2  N    Mag3  N   Author         ID
       rms   OT_Error      Smajor Sminor Az        Err   mdist  Mdist     Err        Err        Err      Quality

2011/05/23 05:44:39.0     47.1497   -1.7233      6.0 f    45   17 133  Ml 2.6 18  Md 2.6  1              js067245    259556

      0.79   +-  0.07       1.7     .8   48.15 +-  0.0    1.21   4.37   +-0.2      +-                    m i ke

FRANCE
Sta     Dist  EvAz     Phase      Date       Time     TRes  Azim  AzRes  Slow  SRes Def   SNR       Amp   Per   Mag1   Mag2       ID
MFF   001.21 116.3 m E Pg      2011/05/23 05:45:01.9   0.2                          T   001.0                                4693540
MFF   001.21 116.3 m E Sn      2011/05/23 05:45:16.3  -0.3                          T   001.0       16.8  .24 Ml 2.9         4693541
MFF   001.21 116.3 m E Sg      2011/05/23 05:45:17.7   0.3                          T               13.6  .20 Ml 2.9 Md 2.6  4699144
QUIF  001.24 308.7 m E Pg      2011/05/23 05:45:02.1  -0.1                          T                                        4699153
QUIF  001.24 308.7 m E Sg      2011/05/23 05:45:18.3   0.0                          T   001.0         11  .24 Ml 2.6         4693545
SGMF  001.24 333.3 m E Pg      2011/05/23 05:45:02.5   0.3                          T   001.0                                4693549
SGMF  001.24 333.3 m E Sn      2011/05/23 05:45:16.9  -0.4                          T   001.0                                4693550
GRR   001.37 024.9 m E Pn      2011/05/23 05:45:02.8  -0.2                          T                                        4699156
GRR   001.37 024.9 m E Pg      2011/05/23 05:45:05.0   0.4                          T                                        4699155
GRR   001.37 024.9 m E Sn      2011/05/23 05:45:19.9  -0.5                          T   001.0       11.7  .16 Ml 2.7         4693536
GRR   001.37 024.9 m E Sg      2011/05/23 05:45:22.4   0.1                          T               13.8  .18 Ml 2.7         4699145
ROSF  001.58 319.2 m E Pg      2011/05/23 05:45:08.4  -0.1                          T   001.0                                4693546
ROSF  001.58 319.2 m E Sn      2011/05/23 05:45:25.0  -0.5                          T   001.0                                4693547
ROSF  001.58 319.2 m E Sg      2011/05/23 05:45:28.7  -0.2                          T   001.0        7.6  .24 Ml 2.6         4693548
FLN   001.82 026.9 m E Pn      2011/05/23 05:45:09.1   0.0                          T   001.0                                4693534
FLN   001.82 026.9 m E Pg      2011/05/23 05:45:12.9   0.1                          T                                        4699154
FLN   001.82 026.9 m E Sg      2011/05/23 05:45:36.1  -0.1                          T   001.0       10.6  .24 Ml 2.7         4693535
LDF   001.80 036.1 m E Pg      2011/05/23 05:45:12.4  -0.1                          T   001.0                                4693537
LDF   001.80 036.1 m E Sg      2011/05/23 05:45:35.8   0.0                          T   001.0        5.3  .20 Ml 2.6         4693538
TCF   002.84 106.2 m E Pn      2011/05/23 05:45:23.2   0.1                          T                                        4699148
TCF   002.84 106.2 m E Pg      2011/05/23 05:45:31.7   0.0                          T                                        4699147
TCF   002.84 106.2 m E Sn      2011/05/23 05:45:55.9   0.3                          T   001.0                                4693543
TCF   002.84 106.2 m E Sg      2011/05/23 05:46:08.1  -0.1                          T   001.0        3.6  .28 Ml 2.5         4693544
RJF   002.91 128.2 m E Pn      2011/05/23 05:45:23.7  -0.2                          T                                        4699142
RJF   002.91 128.2 m E Pg      2011/05/23 05:45:32.9  -0.1                          T                                        4699143
RJF   002.91 128.2 m E Sg      2011/05/23 05:46:10.3  -0.1                          T   001.0        4.4  .28 Ml 2.3         4693529
BGF   003.19 099.0 m E Pn      2011/05/23 05:45:28.1   0.3                          T   001.0                                4693530
BGF   003.19 099.0 m E Pg      2011/05/23 05:45:38.1  -0.1                          T                                        4699150
BGF   003.19 099.0 m E Sn      2011/05/23 05:46:03.8  -0.1                          T   001.0                                4693531
BGF   003.19 099.0 m E Sg      2011/05/23 05:46:19.0  -0.1                          T   001.0          8  .32 Ml 2.9         4693532
LFF   002.80 141.3 m E Pg      2011/05/23 05:45:30.6  -0.2                          T                                        4699137
LFF   002.80 141.3 m E Sg      2011/05/23 05:46:06.9   0.1                          T   001.0        4.2  .28 Ml 2.4         4693539
CAF   003.45 128.8 m E Pn      2011/05/23 05:45:31.9   0.5                          T                                        4699138
CAF   003.45 128.8 m E Pg      2011/05/23 05:45:42.8  -0.2                          T                                        4699139
CAF   003.45 128.8 m E Sn      2011/05/23 05:46:10.0  -0.2                          T                                        4699140
CAF   003.45 128.8 m E Sg      2011/05/23 05:46:27.4   0.2                          T                2.1  .30 Ml 2.4         4699141
AVF   003.49 094.0 m E Pn      2011/05/23 05:45:32.1   0.2                          T                                        4699149
SJPF  004.05 174.8 m E Sn      2011/05/23 05:46:24.1  -0.4                          T   001.0        1.5  .32 Ml 2.3         4693551
SSF   003.57 089.5 m E Sg      2011/05/23 05:46:29.7  -1.3                          T   001.0        2.5  .28 Ml 2.6         4693542
LOR   003.81 086.2 m E Sg      2011/05/23 05:46:38.7   0.3                          T                2.3  .22 Ml 2.6         4699146
EPF   004.37 159.7 m E Sg      2011/05/23 05:46:56.8   0.8                          T   001.0        3.8  .40 Ml 2.7         4693533

.
EVENT     259652
    Date      Time       Latitude Longitude    Depth    Ndef Nsta Gap    Mag1  N    Mag2  N    Mag3  N   Author         ID
       rms   OT_Error      Smajor Sminor Az        Err   mdist  Mdist     Err        Err        Err      Quality

2011/05/23 08:46:57.5     47.7127    8.4432     10.0      14    5 096  Ml 2.2  5                         js067245    259652

      0.27   +-  0.05       1.0     .8  173.20 +-  0.0    0.06   1.95   +-0.2                            m i ke

SWITZERLAND
Sta     Dist  EvAz     Phase      Date       Time     TRes  Azim  AzRes  Slow  SRes Def   SNR       Amp   Per   Mag1   Mag2       ID
HINF  001.08 276.1 m E Pn      2011/05/23 08:47:16.9  -0.2                          T                                        4699168
HINF  001.08 276.1 m E Sg      2011/05/23 08:47:31.8   0.0                          T                6.2  .28 Ml 2.2         4699169
CDF   001.05 312.2 m E Pg      2011/05/23 08:47:17.2  -0.2                          T                                        4699173
CDF   001.05 312.2 m E Sg      2011/05/23 08:47:30.5  -0.5                          T                8.6  .36 Ml 2.3         4699174
HAU   001.44 282.5 m E Pg      2011/05/23 08:47:24.4  -0.1                          T                                        4699170
HAU   001.44 282.5 m E Sg      2011/05/23 08:47:43.3   0.2                          T                6.6  .28 Ml 2.2         4699171
CABF  001.95 236.4 m E Pg      2011/05/23 08:47:33.7  -0.2                          T                                        4699166
CABF  001.95 236.4 m E Sg      2011/05/23 08:47:59.2   0.2                          T                1.5  .22 Ml 2.0         4699167
LANF  001.34 341.7 m E Sn      2011/05/23 08:47:37.3  -0.1                          T                5.2  .18 Ml 2.4         4699172

.
EVENT     259856
    Date      Time       Latitude Longitude    Depth    Ndef Nsta Gap    Mag1  N    Mag2  N    Mag3  N   Author         ID
       rms   OT_Error      Smajor Sminor Az        Err   mdist  Mdist     Err        Err        Err      Quality

2011/05/23 13:18:52.9     42.5918    -.9149      2.0      22    3 128  Ml 1.7  1  Md 1.4  2              js067245    259856

      0.21   +-  0.07       1.6     .9  171.56 +-  0.0    0.01   1.02   +-         +-0.1                 m i ke

PYRENEES
Sta     Dist  EvAz     Phase      Date       Time     TRes  Azim  AzRes  Slow  SRes Def   SNR       Amp   Per   Mag1   Mag2       ID
ETSF  000.40 040.4 m E Pg      2011/05/23 13:19:00.6  -0.2                          T                                        4699194
ETSF  000.40 040.4 m E Sg      2011/05/23 13:19:06.3   0.2                          T                5.2  .33        Md 1.4  4699195
SJPF  000.57 336.5 m E Pg      2011/05/23 13:19:03.7   0.0                          T                                        4699196
SJPF  000.57 336.5 m E Sg      2011/05/23 13:19:11.3   0.1                          T                3.2  .25        Md 1.3  4699197
EPF   001.02 064.2 m E Pg      2011/05/23 13:19:12.1   0.0                          T                                        4699192
EPF   001.02 064.2 m E Sg      2011/05/23 13:19:25.4   0.1                          T                1.6  .23 Ml 1.7         4699193

.
