EVENT     266189
    Date      Time       Latitude Longitude    Depth    Ndef Nsta Gap    Mag1  N    Mag2  N    Mag3  N   Author         ID
       rms   OT_Error      Smajor Sminor Az        Err   mdist  Mdist     Err        Err        Err      Quality

2011/11/11 03:31:48.3     42.9933     .1748      2.0      39   10 075  Ml 2.2 10  Md 2.1  3              js067245    266209

      0.95   +-  0.10       2.1    1.7  168.68 +-  0.0    0.13   4.04   +-0.2      +-0.0                 m i ke

PYRENEES
Sta     Dist  EvAz     Phase      Date       Time     TRes  Azim  AzRes  Slow  SRes Def   SNR       Amp   Per   Mag1   Mag2       ID
EPF   000.13 073.0 m E Pg      2011/11/11 03:31:50.6  -0.4                          T                                        4785786
EPF   000.13 073.0 m E Sg      2011/11/11 03:31:52.9   0.1                          T               77.8  .22        Md 2.2  4785785
ETSF  000.55 260.3 m E Pg      2011/11/11 03:31:57.3  -1.4                          T                                        4785783
ETSF  000.55 260.3 m E Sg      2011/11/11 03:32:04.2  -1.8                          T               14.1  .26        Md 2.1  4785784
SJPF  001.03 277.1 m E Pg      2011/11/11 03:32:08.0   0.4                          T                                        4785780
SJPF  001.03 277.1 m E Sg      2011/11/11 03:32:20.6  -0.4                          T                3.0  .23 Ml 1.9 Md 2.1  4785779
MTLF  001.53 076.2 m E Pg      2011/11/11 03:32:16.6  -0.2                          T                                        4785781
MTLF  001.53 076.2 m E Sg      2011/11/11 03:32:37.4   0.7                          T                2.7  .30 Ml 2.0         4785782
LFF   001.99 011.7 m E Pg      2011/11/11 03:32:25.3   0.2                          T                                        4785808
LFF   001.99 011.7 m E Sg      2011/11/11 03:32:50.6  -0.2                          T                3.5  .27 Ml 2.2         4785810
CAF   002.37 034.6 m E Pg      2011/11/11 03:32:32.1  -0.1                          T                                        4785809
CAF   002.37 034.6 m E Sg      2011/11/11 03:33:03.3   0.6                          T                1.6  .18 Ml 2.2         4785811
RJF   002.50 022.2 m E Pg      2011/11/11 03:32:34.4  -0.4                          T                                        4785807
RJF   002.50 022.2 m E Sg      2011/11/11 03:33:07.2   0.2                          T                2.3  .19 Ml 2.1         4785812
LASF  002.89 066.7 m E Sg      2011/11/11 03:33:19.0   0.1                          T                1.7  .33 Ml 2.1         4785806
MFF   003.62 356.5 m E Sg      2011/11/11 03:33:40.4  -1.2                          T                 .9  .22 Ml 2.3         4785805
BGF   004.04 027.2 m E Sg      2011/11/11 03:33:54.2  -0.6                          T                5.9  .43 Ml 2.8         4785813

.
EVENT     266192
    Date      Time       Latitude Longitude    Depth    Ndef Nsta Gap    Mag1  N    Mag2  N    Mag3  N   Author         ID
       rms   OT_Error      Smajor Sminor Az        Err   mdist  Mdist     Err        Err        Err      Quality

2011/11/11 05:01:48.2     43.6390    6.6073      2.0       9    4 134             Md 1.5  2              js067245    266212

      0.44   +-  0.19       4.6    3.9    8.56 +-  0.0    0.08   0.82              +-0.2                 m i ke

NEAR SOUTH COAST OF FRANCE
Sta     Dist  EvAz     Phase      Date       Time     TRes  Azim  AzRes  Slow  SRes Def   SNR       Amp   Per   Mag1   Mag2       ID
FRF   000.08 159.8 m E Pg      2011/11/11 05:01:49.5  -0.6                          T                                        4785819
FRF   000.08 159.8 m E Sg      2011/11/11 05:01:52.2   0.8                          T                5.4  .18        Md 1.4  4785818
LMR   000.31 193.2 m E Pg      2011/11/11 05:01:53.4  -0.9                          T                                        4785816
LMR   000.31 193.2 m E Sg      2011/11/11 05:01:59.1   0.6                          T                1.1  .27        Md 1.7  4785817
SBF   000.64 069.2 m E Pg      2011/11/11 05:02:00.6   0.2                          T                                        4786631
SBF   000.64 069.2 m E Pn      2011/11/11 05:02:02.8   0.0                          T                                        4786633
SBF   000.64 069.2 m E Sg      2011/11/11 05:02:08.5  -0.3                          T                 .9  .21                4786632
SMRF  000.82 294.6 m E Pg      2011/11/11 05:02:03.8   0.2                          T                                        4786629
SMRF  000.82 294.6 m E Sg      2011/11/11 05:02:13.8  -0.5                          T                 .9  .20                4786630

.
EVENT     266193
    Date      Time       Latitude Longitude    Depth    Ndef Nsta Gap    Mag1  N    Mag2  N    Mag3  N   Author         ID
       rms   OT_Error      Smajor Sminor Az        Err   mdist  Mdist     Err        Err        Err      Quality

2011/11/11 06:26:34.8     44.8056    6.7857      2.0       8    4 189             Md 1.2  2              js067245    266213

      0.17   +-  0.08       2.4    1.2   96.69 +-  0.0    0.08   0.71              +-0.1                 m i ke

FRANCE
Sta     Dist  EvAz     Phase      Date       Time     TRes  Azim  AzRes  Slow  SRes Def   SNR       Amp   Per   Mag1   Mag2       ID
MBDF  000.08 187.4 m E Pg      2011/11/11 06:26:37.0   0.1                          T                                        4785842
MBDF  000.08 187.4 m E Sg      2011/11/11 06:26:37.8  -0.3                          T               18.0  .18        Md 1.2  4785841
ORIF  000.65 280.2 m E Pg      2011/11/11 06:26:47.3   0.0                          T                                        4785840
ORIF  000.65 280.2 m E Sg      2011/11/11 06:26:55.8  -0.1                          T                  1  .25        Md 1.3  4785839
LPG   000.69 358.0 m E Pg      2011/11/11 06:26:48.2  -0.1                          T                                        4785850
LPG   000.69 358.0 m E Sg      2011/11/11 06:26:57.8   0.4                          T                 .4  .21                4785849
LPL   000.71 357.0 m E Pg      2011/11/11 06:26:48.5  -0.1                          T                                        4785851
LPL   000.71 357.0 m E Sg      2011/11/11 06:26:57.7  -0.1                          T                 .3  .19                4785848

.
EVENT     266194
    Date      Time       Latitude Longitude    Depth    Ndef Nsta Gap    Mag1  N    Mag2  N    Mag3  N   Author         ID
       rms   OT_Error      Smajor Sminor Az        Err   mdist  Mdist     Err        Err        Err      Quality

2011/11/11 11:06:36.9     43.9806    7.7896     15.0      13    7 173  Ml 2.0  6  Md 2.0  3              js067245    266214

      0.33   +-  0.16       3.0    2.3   55.10 +-  0.0    0.28   1.71   +-0.2      +-0.2                 m i ke

NEAR SOUTH COAST OF FRANCE
Sta     Dist  EvAz     Phase      Date       Time     TRes  Azim  AzRes  Slow  SRes Def   SNR       Amp   Per   Mag1   Mag2       ID
SBF   000.28 245.5 m E Pg      2011/11/11 11:06:42.8  -0.2                          T                                        4785877
SBF   000.28 245.5 m E Sg      2011/11/11 11:06:47.4   0.3                          T               26.0  .24        Md 1.8  4785872
FRF   000.93 243.5 m E Pg      2011/11/11 11:06:54.8   0.4                          T                                        4786634
FRF   000.93 243.5 m E Sg      2011/11/11 11:07:05.9  -0.8                          T                5.4  .28 Ml 2.1 Md 2.1  4785873
MBDF  001.04 316.0 m E Pg      2011/11/11 11:06:56.8   0.1                          T                                        4785920
MBDF  001.04 316.0 m E Sg      2011/11/11 11:07:11.1   0.7                          T                3.2  .38 Ml 1.8 Md 2.0  4785919
LMR   001.13 235.6 m E Pg      2011/11/11 11:06:58.2   0.0                          T                                        4785876
LMR   001.13 235.6 m E Sg      2011/11/11 11:07:13.4   0.5                          T                3.5  .22 Ml 2.1         4785875
PGF   001.68 147.9 m E Pn      2011/11/11 11:07:04.3   0.0                          T                                        4785916
PGF   001.68 147.9 m E Sn      2011/11/11 11:07:24.1  -0.1                          T                1.4  .27 Ml 2.1         4785915
SMRF  001.60 270.6 m E Pg      2011/11/11 11:07:06.4  -0.4                          T                                        4785870
SMRF  001.60 270.6 m E Sg      2011/11/11 11:07:27.4  -0.1                          T                5.3  .41 Ml 2.2         4785871
LPL   001.71 334.2 m E Sg      2011/11/11 11:07:30.9  -0.3                          T                 .5  .20 Ml 1.6         4785918

.
EVENT     266195
    Date      Time       Latitude Longitude    Depth    Ndef Nsta Gap    Mag1  N    Mag2  N    Mag3  N   Author         ID
       rms   OT_Error      Smajor Sminor Az        Err   mdist  Mdist     Err        Err        Err      Quality

2011/11/11 11:47:37.7     48.2988    7.6474      8.0 f    61   19 022  Ml 2.6 11  Md 2.7  4              js067245    266215

      0.68   +-  0.04        .9     .8  157.07 +-  0.0    0.27   4.21   +-0.2      +-0.1                 m i ke

FRANCE
Sta     Dist  EvAz     Phase      Date       Time     TRes  Azim  AzRes  Slow  SRes Def   SNR       Amp   Per   Mag1   Mag2       ID
CDF   000.27 294.7 m E Pg      2011/11/11 11:47:42.9  -0.4                          T                                        4786139
CDF   000.27 294.7 m E Sg      2011/11/11 11:47:46.4  -0.7                          T               38.5  .18        Md 2.8  4786132
LANF  000.69 008.7 m E Pg      2011/11/11 11:47:51.0   0.1                          T                                        4786138
LANF  000.69 008.7 m E Pn      2011/11/11 11:47:52.1  -0.1                          T                                        4786108
LANF  000.69 008.7 m E Sg      2011/11/11 11:48:00.0   0.1                          T               30.8  .21        Md 2.7  4786119
HINF  000.72 228.1 m E Pg      2011/11/11 11:47:51.0  -0.4                          T                                        4786130
HINF  000.72 228.1 m E Pn      2011/11/11 11:47:52.7   0.0                          T                                        4786647
HINF  000.72 228.1 m E Sg      2011/11/11 11:48:00.8   0.0                          T               25.2  .20        Md 2.6  4786120
HAU   000.92 251.8 m E Pg      2011/11/11 11:47:54.8  -0.2                          T                                        4786129
HAU   000.92 251.8 m E Pn      2011/11/11 11:47:55.4   0.0                          T                                        4786648
HAU   000.92 251.8 m E Sg      2011/11/11 11:48:07.0   0.0                          T               19.3  .18 Ml 2.6 Md 2.7  4786121
HAU   000.92 251.8 m E Sn      2011/11/11 11:48:08.0   0.1                          T                                        4786645
THEF  001.11 267.0 m E Pn      2011/11/11 11:47:57.7  -0.2                          T                                        4786649
THEF  001.11 267.0 m E Pg      2011/11/11 11:47:58.5   0.0                          T                                        4786128
THEF  001.11 267.0 m E P       2011/11/11 11:48:00.4   0.8                          T                                        4786097
THEF  001.11 267.0 m E Sg      2011/11/11 11:48:12.9   0.1                          T               23.8  .24 Ml 2.9         4786122
PAGF  001.31 282.0 m E Pn      2011/11/11 11:48:00.7   0.1                          T                                        4786104
PAGF  001.31 282.0 m E Pg      2011/11/11 11:48:02.2   0.1 105.5  4.9               T                                        4786137
PAGF  001.31 282.0 m E Sn      2011/11/11 11:48:16.9  -0.3                          T                                        4786642
PAGF  001.31 282.0 m E Sg      2011/11/11 11:48:19.2   0.2 112.1  11.5              T                5.1  .22 Ml 2.3         4786136
RUP   001.46 344.8 m E Pg      2011/11/11 11:48:04.8  -0.1                          T                                        4786133
RUP   001.46 344.8 m E Sn      2011/11/11 11:48:20.7  -0.1                          T                                        4786641
RUP   001.46 344.8 m E Sg      2011/11/11 11:48:23.6  -0.2                          T                                        4786134
SFTF  001.75 267.9 m E Pn      2011/11/11 11:48:06.4  -0.2                          T                                        4786098
SFTF  001.75 267.9 m E Pg      2011/11/11 11:48:10.3   0.1  96.2  10.2              T                                        4786115
SFTF  001.75 267.9 m E Sn      2011/11/11 11:48:27.6  -0.1                          T                                        4786644
SFTF  001.75 267.9 m E Sg      2011/11/11 11:48:33.1   0.3  92.7  6.8               T               14.7  .19 Ml 3.0         4786116
CABF  001.99 212.7 m E Pn      2011/11/11 11:48:10.0  -0.1                          T                                        4786109
CABF  001.99 212.7 m E Pg      2011/11/11 11:48:14.9   0.0                          T                                        4786123
CABF  001.99 212.7 m E Sg      2011/11/11 11:48:41.0   0.5                          T                3.0  .21 Ml 2.4         4786117
MEZF  001.74 277.7 m E Pg      2011/11/11 11:48:10.1   0.0 102.6  6.9               T                                        4786131
MEZF  001.74 277.7 m E Sn      2011/11/11 11:48:27.5   0.0                          T                                        4786643
MEZF  001.74 277.7 m E Sg      2011/11/11 11:48:32.5  -0.1                          T                8.9  .26 Ml 2.7         4786135
LOR   002.75 249.4 m E Pn      2011/11/11 11:48:20.2  -0.2                          T                                        4786650
LOR   002.75 249.4 m E Pg      2011/11/11 11:48:29.1   0.3  72.6  5.9               T                                        4786127
LOR   002.75 249.4 m E Sg      2011/11/11 11:49:04.4   0.1  60.0  -6.7              T                5.6  .26 Ml 2.7         4786126
GIVF  002.59 315.3 m E Pg      2011/11/11 11:48:25.1  -0.5                          T                                        4786101
GIVF  002.59 315.3 m E Sg      2011/11/11 11:48:58.9   0.0                          T                2.7  .24 Ml 2.4         4786102
SMF   003.07 238.8 m E P       2011/11/11 11:48:27.7   0.1                          T                                        4786646
SMF   003.07 238.8 m E Pg      2011/11/11 11:48:35.3   0.7                          T                                        4786125
SMF   003.07 238.8 m E Sg      2011/11/11 11:49:14.4   0.4                          T                3.6  .20 Ml 2.7         4786124
BAIF  002.86 309.3 m E Pg      2011/11/11 11:48:30.9   0.2                          T                                        4786103
BAIF  002.86 309.3 m E Sg      2011/11/11 11:49:06.5  -1.1                          T                1.7  .22 Ml 2.3         4786165
SSF   003.06 247.7 m E Pg      2011/11/11 11:48:34.4  -0.1                          T                                        4786118
SSF   003.06 247.7 m E Sg      2011/11/11 11:49:13.8   0.0                          T                2.7  .23 Ml 2.6         4786110
AVF   003.28 244.2 m E Pg      2011/11/11 11:48:38.7   0.3                          T                                        4786096
AVF   003.28 244.2 m E Sg      2011/11/11 11:49:20.0  -0.5                          T                                        4786111
HYF   003.53 254.9 m E Pg      2011/11/11 11:48:43.4   0.3                          T                                        4786095
BGF   003.70 243.7 m E Pg      2011/11/11 11:48:46.2   0.0                          T                                        4786179
BGF   003.70 243.7 m E Sg      2011/11/11 11:49:33.6   0.1                          T                                        4786112
TCF   004.21 243.5 m E Pg      2011/11/11 11:48:55.6  -0.1                          T                                        4786100
TCF   004.21 243.5 m E Sg      2011/11/11 11:49:49.5  -0.2                          T                                        4786099

.
