EVENT     253811
    Date      Time       Latitude Longitude    Depth    Ndef Nsta Gap    Mag1  N    Mag2  N    Mag3  N   Author         ID
       rms   OT_Error      Smajor Sminor Az        Err   mdist  Mdist     Err        Err        Err      Quality

2011/01/16 02:58:50.8     42.4371    1.6992      4.0 f    24    8 053  Ml 1.7  9  Md 1.7  2              js067245    253831

      0.34   +-  0.07       1.4    1.1  172.48 +-  0.0    0.21   2.87   +-0.2      +-0.3                 m i ke

PYRENEES
Sta     Dist  EvAz     Phase      Date       Time     TRes  Azim  AzRes  Slow  SRes Def   SNR       Amp   Per   Mag1   Mag2       ID
MTLF  000.98 022.7 m E Pg      2011/01/16 02:59:08.7  -0.4                          T                                        4583297
MTLF  000.98 022.7 m E Sg      2011/01/16 02:59:21.9   0.0                          T                1.7  .25 Ml 1.6 Md 1.8  4583296
EPF   001.16 301.1 m E Pg      2011/01/16 02:59:12.5  -0.2                          T                                        4583292
EPF   001.16 301.1 m E Sg      2011/01/16 02:59:27.8   0.1                          T                 .7  .29 Ml 1.3 Md 1.5  4583293
ETSF  001.73 286.2 m E Pg      2011/01/16 02:59:23.1   0.0                          T                                        4583291
ETSF  001.73 286.2 m E Sg      2011/01/16 02:59:45.2  -0.2                          T                 .9  .29 Ml 1.6         4583295
LFF   002.60 344.8 m E Pn      2011/01/16 02:59:31.9   0.3                          T                                        4583285
LFF   002.60 344.8 m E Sg      2011/01/16 03:00:12.5   0.2                          T                 .9  .28 Ml 1.7         4583282
SJPF  002.26 288.4 m E Pg      2011/01/16 02:59:32.6  -0.1                          T                                        4583289
SJPF  002.26 288.4 m E Sg      2011/01/16 03:00:01.6  -0.1                          T                1.8  .44 Ml 1.9         4583286
LASF  002.27 043.2 m E Pg      2011/01/16 02:59:33.4   0.4                          T                                        4583288
LASF  002.27 043.2 m E Sg      2011/01/16 03:00:02.4   0.1                          T                 .4  .20 Ml 1.6         4583287
RJF   002.87 357.4 m E Pn      2011/01/16 02:59:35.7   0.3                          T                                        4583284
RJF   002.87 357.4 m E Sg      2011/01/16 03:00:21.1   0.3                          T                 .8  .29 Ml 1.5         4583283
CAF   002.50 006.0 m E Pg      2011/01/16 02:59:37.1  -0.1                          T                                        4583290
CAF   002.50 006.0 m E Sg      2011/01/16 03:00:09.5   0.0                          T                2.7  .44 Ml 2.1         4583294

.
EVENT     253812
    Date      Time       Latitude Longitude    Depth    Ndef Nsta Gap    Mag1  N    Mag2  N    Mag3  N   Author         ID
       rms   OT_Error      Smajor Sminor Az        Err   mdist  Mdist     Err        Err        Err      Quality

2011/01/16 10:12:38.0     42.8506     .1781      2.0      14    6 204  Ml 1.7  4  Md 1.7  3              js067245    253832

      0.16   +-  0.06       1.5     .6  167.88 +-  0.0    0.22   2.48   +-0.1      +-0.1                 m i ke

PYRENEES
Sta     Dist  EvAz     Phase      Date       Time     TRes  Azim  AzRes  Slow  SRes Def   SNR       Amp   Per   Mag1   Mag2       ID
EPF   000.22 033.5 m E Pg      2011/01/16 10:12:42.4   0.0                          T                                        4583314
EPF   000.22 033.5 m E Sg      2011/01/16 10:12:45.1  -0.3                          T               13.7  .20        Md 1.7  4583311
ETSF  000.54 275.3 m E Pg      2011/01/16 10:12:48.5   0.1                          T                                        4583313
ETSF  000.54 275.3 m E Sg      2011/01/16 10:12:55.4  -0.2                          T                6.0  .34        Md 1.6  4583312
SJPF  001.06 284.8 m E Pg      2011/01/16 10:12:58.0   0.1                          T                                        4583309
SJPF  001.06 284.8 m E Sg      2011/01/16 10:13:11.6  -0.1                          T                1.2  .22 Ml 1.6 Md 1.8  4583310
MTLF  001.57 071.1 m E Pg      2011/01/16 10:13:07.3  -0.1                          T                                        4583308
MTLF  001.57 071.1 m E Sg      2011/01/16 10:13:27.7   0.1                          T                1.2  .22 Ml 1.8         4583307
LFF   002.13 010.8 m E Pn      2011/01/16 10:13:12.4  -0.3                          T                                        4583304
LFF   002.13 010.8 m E Pg      2011/01/16 10:13:17.3  -0.2                          T                                        4583305
LFF   002.13 010.8 m E Sg      2011/01/16 10:13:44.6  -0.3                          T                1.2  .24 Ml 1.7         4583306
CAF   002.48 032.7 m E Pn      2011/01/16 10:13:17.7   0.0                          T                                        4583301
CAF   002.48 032.7 m E Sn      2011/01/16 10:13:46.6  -0.1                          T                 .6  .30 Ml 1.6         4583300

.
EVENT     253813
    Date      Time       Latitude Longitude    Depth    Ndef Nsta Gap    Mag1  N    Mag2  N    Mag3  N   Author         ID
       rms   OT_Error      Smajor Sminor Az        Err   mdist  Mdist     Err        Err        Err      Quality

2011/01/16 13:20:25.6     41.8140    2.6087      5.0 f    31    6 152  Ml 1.9  7  Md 1.9  1              js067245    253833

      0.31   +-  0.08       1.5     .9  144.43 +-  0.0    0.14   3.14   +-0.3      +-                    m i ke

SPAIN
Sta     Dist  EvAz     Phase      Date       Time     TRes  Azim  AzRes  Slow  SRes Def   SNR       Amp   Per   Mag1   Mag2       ID
MTLF  001.55 349.4 m E Pg      2011/01/16 13:20:54.4  -0.1                          T                                        4583325
MTLF  001.55 349.4 m E Sg      2011/01/16 13:21:14.3  -0.3                          T                2.0  .30 Ml 1.9 Md 1.9  4583328
EPF   002.07 306.6 m E Pn      2011/01/16 13:20:59.6   0.3                          T                                        4583318
EPF   002.07 306.6 m E Sg      2011/01/16 13:21:30.1  -0.8                          T                1.4  .21 Ml 2.0         4583327
LASF  002.44 021.6 m E Pn      2011/01/16 13:21:04.6   0.3                          T                                        4583319
LASF  002.44 021.6 m E Sg      2011/01/16 13:21:42.2   0.0                          T                 .3  .26 Ml 1.4         4583324
ETSF  002.59 295.8 m E Pn      2011/01/16 13:21:06.6   0.2                          T                                        4583317
ETSF  002.59 295.8 m E Sg      2011/01/16 13:21:47.1   0.2                          T                 .9  .23 Ml 1.9         4583326
SJPF  003.12 295.9 m E Pn      2011/01/16 13:21:13.8   0.3                          T                                        4583316
SJPF  003.12 295.9 m E Sg      2011/01/16 13:22:03.7   0.2                          T                 .5  .23 Ml 1.8         4583323
CAF   003.14 352.9 m E Pn      2011/01/16 13:21:14.1   0.3                          T                                        4583315
CAF   003.14 352.9 m E Sg      2011/01/16 13:22:04.1   0.1                          T                 .6  .23 Ml 1.9         4583322

.
EVENT     253814
    Date      Time       Latitude Longitude    Depth    Ndef Nsta Gap    Mag1  N    Mag2  N    Mag3  N   Author         ID
       rms   OT_Error      Smajor Sminor Az        Err   mdist  Mdist     Err        Err        Err      Quality

2011/01/16 14:25:45.1     44.7270    6.6317      3.0 f    19    9 083  Ml 1.5  5  Md 1.8  2              js067245    253834

      0.18   +-  0.02        .4     .3   70.10 +-  0.0    0.10   1.40   +-0.2      +-0.1                 m i ke

FRANCE
Sta     Dist  EvAz     Phase      Date       Time     TRes  Azim  AzRes  Slow  SRes Def   SNR       Amp   Per   Mag1   Mag2       ID
MBDF  000.10 090.0 m E Pg      2011/01/16 14:25:47.4  -0.2                          T                                        4583348
MBDF  000.10 090.0 m E Sg      2011/01/16 14:25:49.1  -0.1                          T               41.5  .28        Md 1.8  4583345
ORIF  000.57 289.9 m E Pg      2011/01/16 14:25:56.1   0.1                          T                                        4583691
ORIF  000.57 289.9 m E Sg      2011/01/16 14:26:03.4  -0.1                          T                4.9  .22        Md 1.7  4583347
LPG   000.78 006.2 m E Pg      2011/01/16 14:26:00.1   0.0                          T                                        4583338
LPG   000.78 006.2 m E Sg      2011/01/16 14:26:10.2   0.0                          T                2.3  .20                4583333
LPL   000.79 005.1 m E Pg      2011/01/16 14:26:00.3  -0.1                          T                                        4583337
LPL   000.79 005.1 m E Sg      2011/01/16 14:26:10.5  -0.1                          T                2.3  .23                4583334
SBF   001.04 146.0 m E Pg      2011/01/16 14:26:04.6   0.0                          T                                        4583339
SBF   001.04 146.0 m E Sn      2011/01/16 14:26:19.4   0.2                          T                 .9  .15 Ml 1.6         4583332
FRF   001.17 179.5 m E Pg      2011/01/16 14:26:06.8  -0.1                          T                                        4583341
FRF   001.17 179.5 m E Sg      2011/01/16 14:26:22.0  -0.1                          T                 .5  .10 Ml 1.6         4583343
VIVF  001.40 276.0 m E Pn      2011/01/16 14:26:09.9   0.0                          T                                        4583690
VIVF  001.40 276.0 m E Sg      2011/01/16 14:26:29.6   0.1                          T                 .8  .22 Ml 1.5         4583689
LMR   001.40 183.7 m E Pg      2011/01/16 14:26:11.1   0.0                          T                                        4583331
LMR   001.40 183.7 m E Sg      2011/01/16 14:26:29.2   0.0                          T                  1  .20 Ml 1.7         4583342
SMRF  001.07 225.6 m E Sg      2011/01/16 14:26:19.0   0.0                          T                 .4  .19 Ml 1.2         4583344

.
EVENT     253922
    Date      Time       Latitude Longitude    Depth    Ndef Nsta Gap    Mag1  N    Mag2  N    Mag3  N   Author         ID
       rms   OT_Error      Smajor Sminor Az        Err   mdist  Mdist     Err        Err        Err      Quality

2011/01/16 16:18:53.7     44.2766    7.3133      2.0      10    6 186  Ml 1.4  4  Md 1.4  2              js067245    253942

      0.21   +-  0.13       3.1    1.4   76.70 +-  0.0    0.42   1.31   +-0.3      +-0.1                 m i ke

NORTHERN ITALY
Sta     Dist  EvAz     Phase      Date       Time     TRes  Azim  AzRes  Slow  SRes Def   SNR       Amp   Per   Mag1   Mag2       ID
SBF   000.42 168.0 m E Pg      2011/01/16 16:19:01.7  -0.3                          T                                        4583695
SBF   000.42 168.0 m E Sg      2011/01/16 16:19:07.8   0.3                          T                1.6  .18        Md 1.5  4583696
MBDF  000.59 319.5 m E Pg      2011/01/16 16:19:05.1  -0.1                          T                                        4583694
MBDF  000.59 319.5 m E Sg      2011/01/16 16:19:13.0   0.0                          T                1.7  .26        Md 1.4  4583701
FRF   000.86 214.2 m E Pg      2011/01/16 16:19:10.1   0.2                          T                                        4583699
FRF   000.86 214.2 m E Sg      2011/01/16 16:19:21.1   0.0                          T                 .7  .18 Ml 1.4         4583700
LMR   001.11 212.0 m E Pg      2011/01/16 16:19:14.6   0.2                          T                                        4583697
LMR   001.11 212.0 m E Sg      2011/01/16 16:19:28.6  -0.2                          T                1.5  .19 Ml 1.8         4583698
SMRF  001.29 257.1 m E Sg      2011/01/16 16:19:34.1  -0.4                          T                 .5  .22 Ml 1.3         4583692
LPL   001.31 341.8 m E Sg      2011/01/16 16:19:35.6   0.3                          T                 .3  .21 Ml 1.1         4583693

.
EVENT     253815
    Date      Time       Latitude Longitude    Depth    Ndef Nsta Gap    Mag1  N    Mag2  N    Mag3  N   Author         ID
       rms   OT_Error      Smajor Sminor Az        Err   mdist  Mdist     Err        Err        Err      Quality

2011/01/16 19:47:57.5     36.9737   -4.8124      2.0      63    4 101  Ml 2.8  4                         js067245    253835

      0.86   +-  0.13       3.1    1.8    5.69 +-  0.0    0.41   7.23   +-0.4                            m i ke

STRAIT OF GIBRALTAR
Sta     Dist  EvAz     Phase      Date       Time     TRes  Azim  AzRes  Slow  SRes Def   SNR       Amp   Per   Mag1   Mag2       ID
EVOP  003.05 301.6 m E Pn      2011/01/16 19:48:44.8   0.1                          T                                        4583351
EVOP  003.05 301.6 m E Pg      2011/01/16 19:48:54.1   0.2                          T                                        4583352
EVOP  003.05 301.6 m E Sn      2011/01/16 19:49:20.1   0.4                          T                                        4583350
EVOP  003.05 301.6 m E Sg      2011/01/16 19:49:33.2   0.1                          T               38.3  .40 Ml 3.4         4583349
SJPF  006.72 023.0 m E Pn      2011/01/16 19:49:35.0   0.2                          T                                        4583358
SJPF  006.72 023.0 m E Sn      2011/01/16 19:50:47.7   0.3                          T                1.3  .41 Ml 2.7         4583355
ETSF  006.76 027.6 m E Pn      2011/01/16 19:49:35.6   0.2                          T                                        4583357
ETSF  006.76 027.6 m E Sn      2011/01/16 19:50:48.7   0.3                          T                 .4  .23 Ml 2.5         4583354
EPF   007.23 031.6 m E Pn      2011/01/16 19:49:41.8   0.1                          T                                        4583356
EPF   007.23 031.6 m E Sn      2011/01/16 19:50:59.7   0.1                          T                  1  .31 Ml 2.8         4583353

.
EVENT     253816
    Date      Time       Latitude Longitude    Depth    Ndef Nsta Gap    Mag1  N    Mag2  N    Mag3  N   Author         ID
       rms   OT_Error      Smajor Sminor Az        Err   mdist  Mdist     Err        Err        Err      Quality

2011/01/16 20:48:23.3     42.8249   -1.1069      2.0      10    3 201  Ml 1.3  1  Md 1.3  2              js067245    253836

      0.15   +-  0.08       2.0     .8   10.28 +-  0.0    0.10   1.08   +-         +-0.1                 m i ke

PYRENEES
Sta     Dist  EvAz     Phase      Date       Time     TRes  Azim  AzRes  Slow  SRes Def   SNR       Amp   Per   Mag1   Mag2       ID
SJPF  000.30 343.3 m E Pg      2011/01/16 20:48:29.0  -0.2                          T                                        4583364
SJPF  000.30 343.3 m E Sg      2011/01/16 20:48:33.2  -0.1                          T                2.5  .19        Md 1.3  4583361
ETSF  000.41 079.5 m E Pg      2011/01/16 20:48:31.2   0.0                          T                                        4583363
ETSF  000.41 079.5 m E Sg      2011/01/16 20:48:36.7   0.0                          T                1.1  .25        Md 1.3  4583362
EPF   001.08 078.6 m E Pg      2011/01/16 20:48:43.6   0.0                          T                                        4583359
EPF   001.08 078.6 m E Sg      2011/01/16 20:48:57.6  -0.1                          T                 .5  .18 Ml 1.3         4583360

.
