EVENT     296943
    Date      Time       Latitude Longitude    Depth    Ndef Nsta Gap    Mag1  N    Mag2  N    Mag3  N   Author         ID
       rms   OT_Error      Smajor Sminor Az        Err   mdist  Mdist     Err        Err        Err      Quality

2013/04/24 10:21:52.0     41.2890    1.6613       .0 f    27    4 153  Ml 1.8  5                         bulletin    297043
                                                                                                         _ldg
      0.70   +-  0.14       2.6    1.6  169.83 +-  0.0    0.19   2.81   +-0.2                            m i sm

SPAIN
Sta     Dist  EvAz     Phase      Date       Time     TRes  Azim  AzRes  Slow  SRes Def   SNR       Amp   Per   Mag1   Mag2       ID
EPF   002.00 331.0 m E Pn      2013/04/24 10:22:25.5   0.0                          T                                        5269075
EPF   002.00 331.0 m E Pg      2013/04/24 10:22:29.6   0.1                          T                                        5269074
EPF   002.00 331.0 m E Sn      2013/04/24 10:22:49.5  -0.4                          T                                        5269073
EPF   002.00 331.0 m E Sg      2013/04/24 10:22:55.6   0.1                          T                1.7  .21 Ml 2.1         5269072
MTLF  002.09 011.2 m E Pn      2013/04/24 10:22:26.8   0.0                          T                                        5269071
MTLF  002.09 011.2 m E Sg      2013/04/24 10:22:58.5   0.2                          T                1.0  .32 Ml 1.7         5269070
ETSF  002.31 315.0 m E Pn      2013/04/24 10:22:30.0   0.3                          T                                        5269069
ETSF  002.31 315.0 m E Pg      2013/04/24 10:22:34.9  -0.3                          T                                        5269068
ETSF  002.31 315.0 m E Sn      2013/04/24 10:22:57.6   0.3                          T                                        5269067
ETSF  002.31 315.0 m E Sg      2013/04/24 10:23:05.5   0.4                          T                1.1  .23 Ml 2.0         5269066
SJPF  002.81 311.3 m E Pn      2013/04/24 10:22:36.4  -0.2                          T                                        5269065
SJPF  002.81 311.3 m E Pg      2013/04/24 10:22:44.3  -0.2                          T                                        5269064
SJPF  002.81 311.3 m E Sg      2013/04/24 10:23:20.9   0.0                          T                 .4  .25 Ml 1.6         5269063

.
EVENT     296846
    Date      Time       Latitude Longitude    Depth    Ndef Nsta Gap    Mag1  N    Mag2  N    Mag3  N   Author         ID
       rms   OT_Error      Smajor Sminor Az        Err   mdist  Mdist     Err        Err        Err      Quality

2013/04/24 10:57:05.0     43.9385    7.2316       .0 f    42   10 084  Ml 1.9  9  Md 1.9  3              bulletin    296946
                                                                                                         _ldg
      0.42   +-  0.07       1.6    1.2   49.23 +-  0.0    0.15   2.05   +-0.3      +-0.1                 m i km

NEAR SOUTH COAST OF FRANCE
Sta     Dist  EvAz     Phase      Date       Time     TRes  Azim  AzRes  Slow  SRes Def   SNR       Amp   Per   Mag1   Mag2       ID
SBF   000.17 117.0 m E Pg      2013/04/24 10:57:08.8   0.1                          T                                        5268206
SBF   000.17 117.0 m E Sg      2013/04/24 10:57:11.2   0.0                          T               31.6  .27        Md 1.8  5268205
FRF   000.57 228.5 m E Pg      2013/04/24 10:57:15.9  -0.1                          T                                        5268200
FRF   000.57 228.5 m E Sg      2013/04/24 10:57:22.9  -0.8                          T                5.1  .26        Md 1.9  5268199
LMR   000.80 221.2 m E Pg      2013/04/24 10:57:19.4  -0.9                          T                                        5268204
LMR   000.80 221.2 m E Sg      2013/04/24 10:57:30.0  -1.0                          T                3.7  .18        Md 1.9  5268203
MBDF  000.85 337.4 m E Pg      2013/04/24 10:57:22.2   0.7                          T                                        5268183
MBDF  000.85 337.4 m E Sg      2013/04/24 10:57:33.0   0.2                          T                 .9  .15 Ml 1.5         5268182
SMRF  001.20 272.4 m E Pg      2013/04/24 10:57:27.8   0.1                          T                                        5268177
SMRF  001.20 272.4 m E Sg      2013/04/24 10:57:42.9  -0.4                          T                9.8  .22 Ml 2.6         5268176
ORIF  001.38 315.8 m E Pg      2013/04/24 10:57:31.6   0.5                          T                                        5268181
ORIF  001.38 315.8 m E Sg      2013/04/24 10:57:49.3   0.2                          T                1.5  .20 Ml 1.9         5268180
LPG   001.60 347.8 m E Pn      2013/04/24 10:57:33.8   0.5                          T                                        5268202
LPG   001.60 347.8 m E Sn      2013/04/24 10:57:54.2   0.6                          T                1.4  .19 Ml 1.9         5268201
LPL   001.62 347.5 m E Pg      2013/04/24 10:57:36.0   0.4                          T                                        5268179
LPL   001.62 347.5 m E Sg      2013/04/24 10:57:57.0   0.3                          T                 .9  .18 Ml 1.8         5268178
PGF   001.90 136.5 m E Pn      2013/04/24 10:57:37.4   0.3                          T                                        5268214
PGF   001.90 136.5 m E Sn      2013/04/24 10:58:00.9   0.4                          T                1.9  .26 Ml 2.3         5268213
VIVF  002.05 297.5 m E Pn      2013/04/24 10:57:39.2   0.0                          T                                        5268212
VIVF  002.05 297.5 m E Sn      2013/04/24 10:58:04.1   0.0                          T                 .5  .15 Ml 1.7         5268211

.
EVENT     296876
    Date      Time       Latitude Longitude    Depth    Ndef Nsta Gap    Mag1  N    Mag2  N    Mag3  N   Author         ID
       rms   OT_Error      Smajor Sminor Az        Err   mdist  Mdist     Err        Err        Err      Quality

2013/04/24 12:01:29.4     48.5499    8.7414       .0 f    26    8 169  Ml 2.4  8                         bulletin    296976
                                                                                                         _ldg
      1.09   +-  0.24       8.4    3.7  154.56 +-  0.0    0.98   6.32   +-0.2                            m i km

GERMANY
Sta     Dist  EvAz     Phase      Date       Time     TRes  Azim  AzRes  Slow  SRes Def   SNR       Amp   Per   Mag1   Mag2       ID
CDF   000.98 262.5 m E Pn      2013/04/24 12:01:48.7  -0.3                          T                                        5268271
CDF   000.98 262.5 m E Pg      2013/04/24 12:01:50.4   2.2                          T                                        5268265
CDF   000.98 262.5 m E Sg      2013/04/24 12:02:01.9   0.7                          T               33.9  .60 Ml 2.7         5268264
HINF  001.46 240.6 m E Pn      2013/04/24 12:01:55.7   0.2                          T                                        5268269
HINF  001.46 240.6 m E Pg      2013/04/24 12:01:57.2   0.3                          T                                        5281547
HINF  001.46 240.6 m E Sg      2013/04/24 12:02:16.5   0.5                          T               11.1  .58 Ml 2.3         5268263
HAU   001.69 252.1 m E Pn      2013/04/24 12:01:58.6   0.1                          T                                        5268268
HAU   001.69 252.1 m E Sg      2013/04/24 12:02:23.5   0.4                          T               14.3  .54 Ml 2.3         5268262
PAGF  002.00 271.3 m E Pn      2013/04/24 12:02:03.0   0.1                          T                                        5268272
PAGF  002.00 271.3 m E Sn      2013/04/24 12:02:27.3   0.0                          T                2.7  .24 Ml 2.3         5268276
SFTF  002.49 263.4 m E Pn      2013/04/24 12:02:09.2  -0.3  88.4  7.7               T                                        5268267
SFTF  002.49 263.4 m E Sn      2013/04/24 12:02:39.4   0.5                          T                3.6  .26 Ml 2.5         5268274
MEZF  002.45 270.3 m E Pn      2013/04/24 12:02:09.2   0.3  91.0  3.5               T                                        5268266
MEZF  002.45 270.3 m E Sn      2013/04/24 12:02:38.6   0.6                          T                6.9  .42 Ml 2.5         5268275
CABF  002.64 223.8 m E P       2013/04/24 12:02:14.2   0.1                          T                                        5281546
CABF  002.64 223.8 m E Sn      2013/04/24 12:02:42.9   0.2                          T                2.4  .44 Ml 2.1         5281545
BAIF  003.33 298.7 m E Pn      2013/04/24 12:02:19.8  -1.0                          T                                        5268270
BAIF  003.33 298.7 m E Pg      2013/04/24 12:02:31.3   0.0                          T                                        5281548
BAIF  003.33 298.7 m E Sg      2013/04/24 12:03:14.8   0.5                          T                3.3  .22 Ml 2.7         5268273

.
EVENT     297076
    Date      Time       Latitude Longitude    Depth    Ndef Nsta Gap    Mag1  N    Mag2  N    Mag3  N   Author         ID
       rms   OT_Error      Smajor Sminor Az        Err   mdist  Mdist     Err        Err        Err      Quality

2013/04/24 15:11:22.8     43.9216    7.4422      2.0      24    7 074  Ml 1.5  7  Md 1.6  2              bulletin    297176
                                                                                                         _ldg
      0.42   +-  0.04       1.0     .8  111.29 +-  0.0    0.06   2.19   +-0.3      +-0.1                 m i ke

NEAR SOUTH COAST OF FRANCE
Sta     Dist  EvAz     Phase      Date       Time     TRes  Azim  AzRes  Slow  SRes Def   SNR       Amp   Per   Mag1   Mag2       ID
SBF   000.06 185.0 m E Pg      2013/04/24 15:11:24.0  -0.3                          T                                        5269847
SBF   000.06 185.0 m E Sg      2013/04/24 15:11:24.9  -0.5                          T               25.2  .16        Md 1.6  5269846
FRF   000.68 238.2 m E Pg      2013/04/24 15:11:35.6   0.0                          T                                        5269843
FRF   000.68 238.2 m E Sg      2013/04/24 15:11:44.3  -0.2                          T                3.1  .29        Md 1.5  5269842
LMR   000.90 229.4 m E Pg      2013/04/24 15:11:39.6   0.0                          T                                        5269845
LMR   000.90 229.4 m E Sg      2013/04/24 15:11:51.3   0.0                          T                2.2  .25 Ml 1.7         5269844
MBDF  000.94 329.4 m E Pg      2013/04/24 15:11:40.6   0.0                          T                                        5269839
MBDF  000.94 329.4 m E Sg      2013/04/24 15:11:52.6  -0.2                          T                 .7  .19 Ml 1.3         5269838
SMRF  001.35 273.0 m E Pn      2013/04/24 15:11:46.8  -0.2                          T                                        5269841
SMRF  001.35 273.0 m E Sn      2013/04/24 15:12:04.1  -0.3                          T                1.7  .34 Ml 1.7         5269840
ORIF  001.50 312.2 m E Pn      2013/04/24 15:11:49.1   0.0                          T                                        5269835
ORIF  001.50 312.2 m E Sn      2013/04/24 15:12:08.2   0.1                          T                 .5  .20 Ml 1.4         5269834
VIVF  002.19 296.2 m E Pn      2013/04/24 15:11:58.5   0.0                          T                                        5269833
VIVF  002.19 296.2 m E Sn      2013/04/24 15:12:24.8   0.2                          T                 .8  .20 Ml 1.9         5269832

.
EVENT     297077
    Date      Time       Latitude Longitude    Depth    Ndef Nsta Gap    Mag1  N    Mag2  N    Mag3  N   Author         ID
       rms   OT_Error      Smajor Sminor Az        Err   mdist  Mdist     Err        Err        Err      Quality

2013/04/24 19:13:04.2     45.9035    7.4212      6.0 f    17    5 107  Ml 1.4  4  Md 1.6  2              bulletin    297177
                                                                                                         _ldg
      0.61   +-  0.10       2.4    1.7  136.09 +-  0.0    0.18   2.04   +-0.3      +-0.1                 m i ke

NORTHERN ITALY
Sta     Dist  EvAz     Phase      Date       Time     TRes  Azim  AzRes  Slow  SRes Def   SNR       Amp   Per   Mag1   Mag2       ID
LPL   000.62 231.5 m E Pg      2013/04/24 19:13:16.0  -0.3                          T                                        5269859
LPL   000.62 231.5 m E Sg      2013/04/24 19:13:24.3  -0.1                          T                 .9  .27        Md 1.6  5269858
LPG   000.62 229.4 m E Pg      2013/04/24 19:13:16.0  -0.4                          T                                        5269861
LPG   000.62 229.4 m E Sg      2013/04/24 19:13:23.9  -0.7                          T                 .8  .17        Md 1.5  5269860
MBDF  001.26 201.5 m E Pn      2013/04/24 19:13:27.4   0.5                          T                                        5269855
MBDF  001.26 201.5 m E Sn      2013/04/24 19:13:43.6   0.4                          T                 .5  .18 Ml 1.4         5269854
ORIF  001.47 228.3 m E Pn      2013/04/24 19:13:29.9   0.2                          T                                        5269857
ORIF  001.47 228.3 m E Sn      2013/04/24 19:13:48.3   0.2                          T                 .2  .19 Ml 1.1         5269856
SBF   002.04 179.7 m E Pn      2013/04/24 19:13:37.2  -0.2                          T                                        5269853
SBF   002.04 179.7 m E Sn      2013/04/24 19:14:01.8   0.0                          T                1.2  .26 Ml 1.9         5269852

.
EVENT     296967
    Date      Time       Latitude Longitude    Depth    Ndef Nsta Gap    Mag1  N    Mag2  N    Mag3  N   Author         ID
       rms   OT_Error      Smajor Sminor Az        Err   mdist  Mdist     Err        Err        Err      Quality

2013/04/25 01:59:56.6     46.3330    7.5166      7.0 f    21    4 059  Ml 1.4  4  Md 1.7  1              bulletin    297067
                                                                                                         _ldg
      0.67   +-  0.08       2.1    1.5   26.33 +-  0.0    0.09   2.53   +-0.3      +-                    m i ke

SWITZERLAND
Sta     Dist  EvAz     Phase      Date       Time     TRes  Azim  AzRes  Slow  SRes Def   SNR       Amp   Per   Mag1   Mag2       ID
CABF  001.03 286.2 m E Pg      2013/04/25 02:00:15.8  -0.2                          T                                        5269228
CABF  001.03 286.2 m E Sg      2013/04/25 02:00:29.0  -0.3                          T                 .3  .15 Ml 1.1 Md 1.7  5269227
HINF  001.55 343.3 m E Pn      2013/04/25 02:00:23.2   0.2                          T                                        5269231
HINF  001.55 343.3 m E Sn      2013/04/25 02:00:43.0   0.7                          T                                        5269229
HINF  001.55 343.3 m E Sg      2013/04/25 02:00:45.2  -0.5                          T                 .5  .18 Ml 1.5         5269230
CDF   002.09 355.6 m E Pn      2013/04/25 02:00:31.1   0.7                          T                                        5269236
CDF   002.09 355.6 m E Sg      2013/04/25 02:01:02.0  -0.4                          T                 .7  .29 Ml 1.7         5269235
PAGF  002.53 332.0 m E Pn      2013/04/25 02:00:37.1   0.7                          T                                        5269234
PAGF  002.53 332.0 m E Pg      2013/04/25 02:00:43.3  -0.3                          T                                        5269233
PAGF  002.53 332.0 m E Sg      2013/04/25 02:01:15.8  -0.4 162.1  11.4              T                 .2  .23 Ml 1.3         5269232

.
