EVENT     282812
    Date      Time       Latitude Longitude    Depth    Ndef Nsta Gap    Mag1  N    Mag2  N    Mag3  N   Author         ID
       rms   OT_Error      Smajor Sminor Az        Err   mdist  Mdist     Err        Err        Err      Quality

2012/09/08 13:26:40.6     44.9082   11.4966      2.0      43   13 156  Ml 2.7 13                         bulletin    282912
                                                                                                         _ldg
      1.41   +-  0.35       8.1    4.1   89.56 +-  0.0    0.80   4.72   +-0.2                            m i ke

NORTHERN ITALY
Sta     Dist  EvAz     Phase      Date       Time     TRes  Azim  AzRes  Slow  SRes Def   SNR       Amp   Per   Mag1   Mag2       ID
PGF   002.97 218.4 m E Pn      2012/09/08 13:27:27.3   0.2                          T                                        5065374
PGF   002.97 218.4 m E Sn      2012/09/08 13:27:58.2  -3.0                          T                6.0  .62 Ml 2.6         5065373
SBF   003.09 251.7 m E Pn      2012/09/08 13:27:29.5   0.9                          T                                        5065372
SBF   003.09 251.7 m E Sn      2012/09/08 13:28:03.5  -0.5                          T               21.3  .52 Ml 3.1         5065371
MBDF  003.37 268.6 m E Pn      2012/09/08 13:27:33.2   0.8                          T                                        5065363
MBDF  003.37 268.6 m E Sn      2012/09/08 13:28:12.3   1.6                          T                7.4  .50 Ml 2.7         5065362
LPG   003.41 281.6 m E Pn      2012/09/08 13:27:34.1   0.9                          T                                        5069036
LPG   003.41 281.6 m E P       2012/09/08 13:27:37.6   1.3                          T                                        5065377
LPG   003.41 281.6 m E Sn      2012/09/08 13:28:13.5   1.8                          T                5.0  .52 Ml 2.5         5065376
LPL   003.42 281.9 m E Pn      2012/09/08 13:27:34.1   0.8                          T                                        5065378
LPL   003.42 281.9 m E Sn      2012/09/08 13:28:13.7   1.6                          T                5.6  .40 Ml 2.7         5065375
FRF   003.74 250.6 m E Pn      2012/09/08 13:27:38.1   0.8                          T                                        5065368
FRF   003.74 250.6 m E Sn      2012/09/08 13:28:17.1  -2.1                          T                7.7  .40 Ml 2.9         5065367
LMR   003.92 248.1 m E Pn      2012/09/08 13:27:40.7   0.9                          T                                        5065370
LMR   003.92 248.1 m E Sn      2012/09/08 13:28:20.6  -3.1                          T                7.7  .47 Ml 2.9         5065369
ORIF  003.99 272.1 m E Pn      2012/09/08 13:27:41.4   0.5                          T                                        5069039
ORIF  003.99 272.1 m E Sn      2012/09/08 13:28:27.0   1.5                          T                3.7  .38 Ml 2.6         5069035
CABF  004.15 296.1 m E Pn      2012/09/08 13:27:42.5  -0.6                          T                                        5069040
HINF  004.34 313.8 m E Pn      2012/09/08 13:27:45.3  -0.3                          T                                        5069041
HINF  004.34 313.8 m E Sn      2012/09/08 13:28:32.2  -1.4                          T                2.3  .30 Ml 2.6         5069038
SMRF  004.34 259.7 m E Pn      2012/09/08 13:27:46.4   0.8                          T                                        5065364
SMRF  004.34 259.7 m E Sn      2012/09/08 13:28:32.5  -1.3                          T                1.9  .32 Ml 2.5         5065379
CDF   004.55 321.8 m E Pn      2012/09/08 13:27:47.2  -1.4                          T                                        5069042
CDF   004.55 321.8 m E Sn      2012/09/08 13:28:37.1  -1.8                          T                1.8  .28 Ml 2.7         5069037
HAU   004.72 312.9 m E Sn      2012/09/08 13:28:42.6  -0.2                          T                4.3  .40 Ml 2.6         5069034

.
EVENT     282813
    Date      Time       Latitude Longitude    Depth    Ndef Nsta Gap    Mag1  N    Mag2  N    Mag3  N   Author         ID
       rms   OT_Error      Smajor Sminor Az        Err   mdist  Mdist     Err        Err        Err      Quality

2012/09/08 15:32:37.4     43.0566    -.3565      2.0      42   12 065  Ml 2.6 10  Md 2.5  3              bulletin    282913
                                                                                                         _ldg
      0.41   +-  0.05       1.2     .8  176.73 +-  0.0    0.03   4.57   +-0.1      +-0.1                 m i ke

PYRENEES
Sta     Dist  EvAz     Phase      Date       Time     TRes  Azim  AzRes  Slow  SRes Def   SNR       Amp   Per   Mag1   Mag2       ID
ETSF  000.22 223.4 m E Pg      2012/09/08 15:32:41.8   0.0                          T                                        5065405
ETSF  000.22 223.4 m E Sg      2012/09/08 15:32:44.6  -0.2                          T              242.5  .52        Md 2.5  5065400
EPF   000.51 092.7 m E Pg      2012/09/08 15:32:46.6  -0.6                          T                                        5065404
EPF   000.51 092.7 m E Sg      2012/09/08 15:32:53.3  -0.6                          T               34.5  .20        Md 2.4  5065399
SJPF  000.64 275.4 m E Pg      2012/09/08 15:32:49.0  -0.5                          T                                        5065402
SJPF  000.64 275.4 m E Sg      2012/09/08 15:32:57.8   0.0                          T               35.9  .40        Md 2.6  5065398
MTLF  001.90 080.5 m E Pn      2012/09/08 15:33:09.0  -0.1                          T                                        5065403
MTLF  001.90 080.5 m E Pg      2012/09/08 15:33:12.8   0.0                          T                                        5068897
MTLF  001.90 080.5 m E Sg      2012/09/08 15:33:37.7   0.4                          T                6.0  .26 Ml 2.5         5065397
LFF   002.04 022.4 m E Pn      2012/09/08 15:33:10.7  -0.3                          T                                        5065401
LFF   002.04 022.4 m E Pg      2012/09/08 15:33:15.4   0.1                          T                                        5068893
LFF   002.04 022.4 m E Sg      2012/09/08 15:33:42.6   1.0                          T               24.0  .46 Ml 2.8         5065396
CAF   002.56 042.2 m E Pn      2012/09/08 15:33:18.0   0.0                          T                                        5068889
CAF   002.56 042.2 m E Pg      2012/09/08 15:33:24.8   0.0                          T                                        5068888
CAF   002.56 042.2 m E Sg      2012/09/08 15:33:58.1   0.4                          T                5.3  .29 Ml 2.6         5068887
RJF   002.62 030.3 m E Pg      2012/09/08 15:33:26.1   0.1                          T                                        5068892
RJF   002.62 030.3 m E Sg      2012/09/08 15:34:00.1   0.5                          T                4.3  .20 Ml 2.3         5068890
LASF  003.23 070.2 m E Pn      2012/09/08 15:33:27.1   0.0                          T                                        5068896
LASF  003.23 070.2 m E Pg      2012/09/08 15:33:37.0  -0.2                          T                                        5068895
LASF  003.23 070.2 m E Sg      2012/09/08 15:34:18.6   0.0                          T                5.9  .41 Ml 2.6         5068886
VIVF  004.05 061.9 m E Pg      2012/09/08 15:33:52.2  -0.2                          T                                        5068894
VIVF  004.05 061.9 m E Sn      2012/09/08 15:34:23.7   0.1                          T   001.0                                5066013
VIVF  004.05 061.9 m E Sg      2012/09/08 15:34:44.3  -0.1                          T   001.0        2.2  .36 Ml 2.4         5066014
MFF   003.55 002.3 m E Sg      2012/09/08 15:34:29.2   0.6                          T                2.4  .35 Ml 2.5         5068891
TCF   003.71 028.6 m E Sg      2012/09/08 15:34:33.9   0.1                          T                3.3  .34 Ml 2.6         5065395
AVF   004.57 033.9 m E Sg      2012/09/08 15:35:00.9   0.4                          T   001.0        1.6  .32 Ml 2.5         5066015

.
EVENT     282814
    Date      Time       Latitude Longitude    Depth    Ndef Nsta Gap    Mag1  N    Mag2  N    Mag3  N   Author         ID
       rms   OT_Error      Smajor Sminor Az        Err   mdist  Mdist     Err        Err        Err      Quality

2012/09/08 17:42:56.9     46.5722   -2.9072      6.0 f    71   25 191  Ml 2.9 31  Md 3.0  3              bulletin    282914
                                                                                                         _ldg
      1.21   +-  0.16       3.3    1.9   64.01 +-  0.0    1.36   7.03   +-0.3      +-0.0                 m i ke

BAY OF BISCAY
Sta     Dist  EvAz     Phase      Date       Time     TRes  Azim  AzRes  Slow  SRes Def   SNR       Amp   Per   Mag1   Mag2       ID
QUIF  001.36 352.6 m E Pn      2012/09/08 17:43:20.1  -0.6                          T                                        5065440
QUIF  001.36 352.6 m E Pg      2012/09/08 17:43:22.0  -0.2                          T   001.0                                5066029
QUIF  001.36 352.6 m E Sn      2012/09/08 17:43:39.3   1.4                          T               31.7  .26 Ml 3.1 Md 3.0  5065422
SGMF  001.70 007.9 m E Pn      2012/09/08 17:43:25.0  -0.3                          T                                        5065439
SGMF  001.70 007.9 m E Pg      2012/09/08 17:43:28.1  -0.5                          T   001.0                                5066030
SGMF  001.70 007.9 m E Sg      2012/09/08 17:43:50.3  -0.1                          T   001.0       23.8  .31 Ml 3.0 Md 3.0  5066031
ROSF  001.78 352.1 m E Pn      2012/09/08 17:43:25.9  -0.6                          T                                        5068924
ROSF  001.78 352.1 m E Pg      2012/09/08 17:43:29.7  -0.4                          T                                        5065438
ROSF  001.78 352.1 m E Sg      2012/09/08 17:43:51.8  -1.2                          T               44.9  .32 Ml 3.3         5065421
MFF   001.90 088.1 m E Pn      2012/09/08 17:43:28.5   0.4                          T                                        5065435
MFF   001.90 088.1 m E Pg      2012/09/08 17:43:32.6   0.3                          T                                        5068920
MFF   001.90 088.1 m E Sg      2012/09/08 17:43:56.5  -0.4                          T               19.8  .27 Ml 3.2 Md 3.0  5068915
GRR   002.29 036.7 m E P       2012/09/08 17:43:36.4   0.6                          T                                        5068927
GRR   002.29 036.7 m E Pg      2012/09/08 17:43:39.5   0.1                          T                                        5065417
GRR   002.29 036.7 m E Sg      2012/09/08 17:44:07.9  -0.9                          T                8.3  .20 Ml 2.7         5065416
FLN   002.74 035.9 m E Pn      2012/09/08 17:43:39.8   0.3 210.8  -6.9              T                                        5065437
FLN   002.74 035.9 m E Pg      2012/09/08 17:43:48.5   0.8 216.0  -1.7              T                                        5068918
FLN   002.74 035.9 m E Sn      2012/09/08 17:44:09.6  -1.3                          T                3.2  .20 Ml 2.4         5065419
FLN   002.74 035.9 m E Sg      2012/09/08 17:44:21.9  -0.9                          T                6.3  .24 Ml 2.6         5065408
LDF   002.76 042.0 m E Pn      2012/09/08 17:43:39.9   0.0                          T                                        5065436
LDF   002.76 042.0 m E Pg      2012/09/08 17:43:48.4   0.3                          T                                        5068919
LDF   002.76 042.0 m E Sn      2012/09/08 17:44:10.7  -0.8                          T                2.8  .26 Ml 2.4         5065418
LDF   002.76 042.0 m E Sg      2012/09/08 17:44:23.9   0.2                          T   001.0       10.2  .37 Ml 2.8         5066017
LFF   003.03 121.3 m E Pn      2012/09/08 17:43:44.1   0.6                          T                                        5065430
LFF   003.03 121.3 m E Pg      2012/09/08 17:43:52.9  -0.2                          T                                        5068923
LFF   003.03 121.3 m E Sn      2012/09/08 17:44:17.5  -0.4                          T                                        5068916
LFF   003.03 121.3 m E Sg      2012/09/08 17:44:31.8  -0.2                          T   001.0       10.6  .28 Ml 2.8         5066018
RJF   003.34 110.7 m E Pn      2012/09/08 17:43:48.1   0.4                          T                                        5065429
RJF   003.34 110.7 m E Sn      2012/09/08 17:44:24.6  -0.7                          T                2.8  .20 Ml 2.3         5065425
RJF   003.34 110.7 m E Sg      2012/09/08 17:44:41.2  -0.4                          T               10.5  .24 Ml 2.8         5068917
TCF   003.55 092.7 m E Pn      2012/09/08 17:43:51.4   0.8                          T                                        5065434
TCF   003.55 092.7 m E Sn      2012/09/08 17:44:30.0  -0.4                          T                2.8  .18 Ml 2.8         5065424
SJPF  003.66 160.3 m E Pn      2012/09/08 17:43:52.5   0.5                          T                                        5065414
SJPF  003.66 160.3 m E Sn      2012/09/08 17:44:32.4  -0.6                          T                2.1  .20 Ml 2.6         5065413
SJPF  003.66 160.3 m E Sg      2012/09/08 17:44:50.1  -1.5                          T   001.0        1.8  .20 Ml 2.5         5066032
CAF   003.85 113.5 m E Pn      2012/09/08 17:43:55.4   0.7                          T                                        5065412
CAF   003.85 113.5 m E Sn      2012/09/08 17:44:35.7  -1.9                          T                                        5065411
CAF   003.85 113.5 m E Sg      2012/09/08 17:44:58.8   1.2                          T                                        5065410
ETSF  004.04 154.7 m E Pn      2012/09/08 17:43:56.7  -0.6                          T                                        5068922
ETSF  004.04 154.7 m E Sn      2012/09/08 17:44:40.6  -1.5                          T   001.0        1.5  .24 Ml 2.5         5066024
BGF   003.97 088.1 m E Pn      2012/09/08 17:43:57.0   0.7                          T                                        5065431
BGF   003.97 088.1 m E Sn      2012/09/08 17:44:39.5  -0.8                          T                7.0  .26 Ml 3.1         5065415
BGF   003.97 088.1 m E Sg      2012/09/08 17:45:00.8  -0.5                          T               16.3  .30 Ml 3.4         5065409
EPF   004.23 145.7 m E Pn      2012/09/08 17:43:59.3  -0.5                          T                                        5065428
EPF   004.23 145.7 m E Sn      2012/09/08 17:44:45.7  -1.0                          T                2.4  .20 Ml 2.8         5065426
EPF   004.23 145.7 m E Sg      2012/09/08 17:45:09.2  -0.2                          T   001.0        5.3  .20 Ml 3.1         5066016
AVF   004.31 084.8 m E Pn      2012/09/08 17:44:01.5   0.5                          T                                        5065433
AVF   004.31 084.8 m E Sn      2012/09/08 17:44:47.4  -1.2                          T                2.3  .32 Ml 2.6         5068911
SSF   004.43 081.3 m E Pn      2012/09/08 17:44:03.4   0.8                          T                                        5065432
SSF   004.43 081.3 m E Sn      2012/09/08 17:44:49.8  -1.6                          T                                        5068909
SSF   004.43 081.3 m E Sg      2012/09/08 17:45:15.0  -0.6                          T                4.5  .40 Ml 2.9         5068910
SMF   004.65 086.7 m E Pn      2012/09/08 17:44:03.7  -1.9                          T                                        5068926
SMF   004.65 086.7 m E Sn      2012/09/08 17:44:55.2  -1.5                          T                                        5068912
SMF   004.65 086.7 m E Sg      2012/09/08 17:45:21.3  -1.3                          T   001.0        2.1  .24 Ml 2.7         5066022
LOR   004.69 079.0 m E Pn      2012/09/08 17:44:07.0   0.9 256.2  -7.7              T   001.0                                5066019
LOR   004.69 079.0 m E Sn      2012/09/08 17:44:56.5  -1.1 256.9  -7.1              T                                        5068908
LOR   004.69 079.0 m E Sg      2012/09/08 17:45:23.2  -0.5 254.2  -9.7              T   001.0        4.9  .28 Ml 3.1         5066020
MTLF  004.86 129.8 m E Pn      2012/09/08 17:44:08.7   0.2                          T                                        5065427
MTLF  004.86 129.8 m E Sn      2012/09/08 17:44:58.9  -2.8                          T   001.0        1.4  .20 Ml 2.7         5066028
LASF  005.38 115.2 m E Pn      2012/09/08 17:44:16.3   0.7                          T                                        5068921
BAIF  005.89 051.1 m E Pn      2012/09/08 17:44:22.3  -0.1                          T   001.0                                5066023
MEZF  005.72 067.4 m E Sn      2012/09/08 17:45:22.4   0.1 252.1  -1.1              T   001.0        3.3  .36 Ml 3.0         5066027
GIVF  006.25 052.8 m E Sn      2012/09/08 17:45:35.3   0.5                          T   001.0        2.5  .24 Ml 3.2         5066025
MBDF  007.03 101.7 m E Sn      2012/09/08 17:45:55.9   2.2                          T   001.0         .8  .24 Ml 2.8         5066026

.
