EVENT     276739
    Date      Time       Latitude Longitude    Depth    Ndef Nsta Gap    Mag1  N    Mag2  N    Mag3  N   Author         ID
       rms   OT_Error      Smajor Sminor Az        Err   mdist  Mdist     Err        Err        Err      Quality

2012/05/24 06:26:06.6     44.8367   11.2858      2.0      69   21 113  Ml 3.7 23                         bulletin    276839
                                                                                                         _ldg
      0.87   +-  0.17       4.1    3.0   62.60 +-  0.0    0.14   6.54   +-0.2                            m i ke

NORTHERN ITALY
Sta     Dist  EvAz     Phase      Date       Time     TRes  Azim  AzRes  Slow  SRes Def   SNR       Amp   Per   Mag1   Mag2       ID
PGF   002.83 216.7 m E Pn      2012/05/24 06:26:51.7   0.7                          T   001.0                                4962052
PGF   002.83 216.7 m E Sn      2012/05/24 06:27:26.0   2.4                          T              175.5  .66 Ml 4.1         4962834
MBDF  003.22 269.6 m E Pn      2012/05/24 06:26:56.0  -0.3                          T   001.0                                4962062
MBDF  003.22 269.6 m E Sn      2012/05/24 06:27:32.3  -0.7                          T   001.0       70.1  .48 Ml 3.6         4962063
LPG   003.27 283.2 m E Pn      2012/05/24 06:26:57.0  -0.3                          T   001.0                                4962048
LPG   003.27 283.2 m E Sg      2012/05/24 06:27:49.2  -0.5                          T   001.0       58.1  .48 Ml 3.6         4962049
LPL   003.29 283.5 m E Pn      2012/05/24 06:26:57.3  -0.1                          T   001.0                                4962050
LPL   003.29 283.5 m E Sn      2012/05/24 06:27:34.8  -0.1                          T   001.0       43.8  .32 Ml 3.6         4962051
FRF   003.57 250.7 m E Pn      2012/05/24 06:27:00.9  -0.1                          T   001.0                                4962037
FRF   003.57 250.7 m E Sn      2012/05/24 06:27:41.1  -0.2                          T   001.0                                4962038
FRF   003.57 250.7 m E Sg      2012/05/24 06:27:58.6   0.0                          T   001.0       34.6  .40 Ml 3.5         4962039
LMR   003.76 248.1 m E Pn      2012/05/24 06:27:03.9   0.4                          T   001.0                                4962044
LMR   003.76 248.1 m E Sn      2012/05/24 06:27:45.4  -0.3                          T   001.0       37.2  .30 Ml 3.7         4962045
ORIF  003.84 273.1 m E Pn      2012/05/24 06:27:06.1   1.2                          T   001.0                                4962064
ORIF  003.84 273.1 m E Sn      2012/05/24 06:27:47.9   0.0                          T               44.7  .26 Ml 3.9         4962832
CABF  004.05 297.8 m E Pn      2012/05/24 06:27:08.4   0.7                          T   001.0                                4962059
CABF  004.05 297.8 m E Sn      2012/05/24 06:27:53.3   0.5                          T   001.0         10  .28 Ml 3.2         4962060
SMRF  004.18 260.1 m E Pn      2012/05/24 06:27:10.6   1.3                          T   001.0                                4962067
HINF  004.28 315.7 m E Pn      2012/05/24 06:27:11.5   0.8                          T   001.0                                4962061
HINF  004.28 315.7 m E Sn      2012/05/24 06:27:58.9   0.6                          T               11.5  .17 Ml 3.5         4962830
CDF   004.52 323.7 m E Pn      2012/05/24 06:27:15.5   1.5                          T   001.0                                4962035
CDF   004.52 323.7 m E Sn      2012/05/24 06:28:04.1   0.0                          T   001.0         18  .32 Ml 3.6         4962036
HAU   004.66 314.6 m E Pn      2012/05/24 06:27:16.4   0.5                          T   001.0       43.8  .27 Ml 3.8         4962040
HAU   004.66 314.6 m E Sn      2012/05/24 06:28:07.1  -0.2                          T   001.0       35.7  .20 Ml 3.8         4962041
VIVF  004.70 272.6 m E Pn      2012/05/24 06:27:16.8   0.3                          T   001.0                                4962065
VIVF  004.70 272.6 m E Sn      2012/05/24 06:28:08.6   0.2                          T   001.0       19.9  .28 Ml 3.7         4962066
LASF  005.37 264.5 m E Pn      2012/05/24 06:27:25.0  -0.6                          T   001.0                                4962042
LASF  005.37 264.5 m E Sn      2012/05/24 06:28:23.8  -0.5                          T   001.0       10.4  .40 Ml 3.4         4962043
SBF   002.93 251.9 m E Sn      2012/05/24 06:27:26.2   0.1                          T               59.3  .24 Ml 3.8         4962833
SMF   005.52 291.8 m E Pn      2012/05/24 06:27:28.5   1.0                          T   001.0                                4962053
SMF   005.52 291.8 m E Sn      2012/05/24 06:28:26.2  -1.6                          T   001.0       51.7  .44 Ml 4.1         4962054
LOR   005.71 297.8 m E Pn      2012/05/24 06:27:30.6   0.4                          T   001.0                                4962046
LOR   005.71 297.8 m E Sn      2012/05/24 06:28:32.7   0.2                          T   001.0       17.8  .32 Ml 3.8         4962047
SSF   005.86 295.0 m E Pn      2012/05/24 06:27:32.5   0.2                          T   001.0                                4962055
SSF   005.86 295.0 m E Sn      2012/05/24 06:28:35.4  -0.7                          T                9.1  .31 Ml 3.6         4962831
SSF   005.86 295.0 m E Sg      2012/05/24 06:29:07.8  -2.3                          T   001.0        7.8  .44 Ml 3.4         4962056
AVF   005.88 292.2 m E Pn      2012/05/24 06:27:33.5   1.1                          T   001.0                                4962032
BGF   006.16 289.2 m E Pn      2012/05/24 06:27:37.0   1.8                          T   001.0                                4962033
BGF   006.16 289.2 m E Sn      2012/05/24 06:28:44.3   1.2                          T   001.0       55.3  .44 Ml 4.2         4962034
TCF   006.54 286.0 m E Pn      2012/05/24 06:27:42.1   0.7                          T   001.0                                4962057
TCF   006.54 286.0 m E Sn      2012/05/24 06:28:51.8  -0.4                          T   001.0        8.8  .36 Ml 3.6         4962058

.
EVENT     276742
    Date      Time       Latitude Longitude    Depth    Ndef Nsta Gap    Mag1  N    Mag2  N    Mag3  N   Author         ID
       rms   OT_Error      Smajor Sminor Az        Err   mdist  Mdist     Err        Err        Err      Quality

2012/05/24 06:39:27.8     44.4876    6.6841      2.0      27    7 069  Ml 1.5  5  Md 1.5  2              bulletin    276842
                                                                                                         _ldg
      0.37   +-  0.09       1.7    1.2   59.16 +-  0.0    0.25   1.16   +-0.2      +-0.3                 m i ke

FRANCE
Sta     Dist  EvAz     Phase      Date       Time     TRes  Azim  AzRes  Slow  SRes Def   SNR       Amp   Per   Mag1   Mag2       ID
MBDF  000.25 014.6 m E Pg      2012/05/24 06:39:33.4   0.5                          T                                        4962976
MBDF  000.25 014.6 m E Sg      2012/05/24 06:39:36.4   0.1                          T                3.3  .20        Md 1.7  4962975
ORIF  000.72 307.2 m E Pg      2012/05/24 06:39:41.1  -0.4                          T                                        4962974
ORIF  000.72 307.2 m E Sg      2012/05/24 06:39:50.3  -0.6                          T                1.6  .19        Md 1.3  4962973
SMRF  000.95 237.7 m E Pg      2012/05/24 06:39:45.2  -0.5                          T                                        4962964
SMRF  000.95 237.7 m E Sg      2012/05/24 06:39:57.6  -0.3                          T                1.9  .43 Ml 1.4         4962965
FRF   000.93 181.7 m E Pg      2012/05/24 06:39:46.1   0.9                          T                                        4962970
FRF   000.93 181.7 m E Sg      2012/05/24 06:39:58.5   1.2                          T                3.4  .31 Ml 1.9         4962969
LPL   001.03 001.9 m E Pg      2012/05/24 06:39:47.8   0.3                          T                                        4962967
LPL   001.03 001.9 m E Sg      2012/05/24 06:40:00.9   0.1                          T                 .9  .23 Ml 1.4         4962968
LMR   001.16 186.3 m E Pg      2012/05/24 06:39:50.2   0.7                          T                                        4962971
LMR   001.16 186.3 m E Sg      2012/05/24 06:40:05.5   1.0                          T                  1  .21 Ml 1.6         4962972
LPG   001.01 002.7 m E Sg      2012/05/24 06:39:59.9  -0.4                          T                 .7  .25 Ml 1.3         4962966

.
EVENT     276880
    Date      Time       Latitude Longitude    Depth    Ndef Nsta Gap    Mag1  N    Mag2  N    Mag3  N   Author         ID
       rms   OT_Error      Smajor Sminor Az        Err   mdist  Mdist     Err        Err        Err      Quality

2012/05/24 09:51:34.1     43.1730   -1.1992       .0 f    11    3 174  Ml 1.4  1  Md 1.3  2              js067245    276980

      0.28   +-  0.11       2.6    1.6    6.82 +-  0.0    0.06   1.14   +-         +-0.2                 m i km

PYRENEES
Sta     Dist  EvAz     Phase      Date       Time     TRes  Azim  AzRes  Slow  SRes Def   SNR       Amp   Per   Mag1   Mag2       ID
SJPF  000.06 197.6 m E Pg      2012/05/24 09:51:35.8   0.1                          T                                        4989913
SJPF  000.06 197.6 m E Sg      2012/05/24 09:51:36.8   0.0                          T               39.3  .32        Md 1.5  4989914
ETSF  000.54 120.1 m E Pg      2012/05/24 09:51:44.8   0.0                          T                                        4989916
ETSF  000.54 120.1 m E Sg      2012/05/24 09:51:52.0  -0.2                          T                2.2  .20        Md 1.2  4989917
EPF   001.14 096.7 m E Sn      2012/05/24 09:52:11.5   0.1                          T                 .6  .20 Ml 1.4         4989915

.
EVENT     276793
    Date      Time       Latitude Longitude    Depth    Ndef Nsta Gap    Mag1  N    Mag2  N    Mag3  N   Author         ID
       rms   OT_Error      Smajor Sminor Az        Err   mdist  Mdist     Err        Err        Err      Quality

2012/05/24 10:32:14.5     44.8562   11.1631      2.0      20   11 258  Ml 2.4  9                         bulletin    276893
                                                                                                         _ldg
      0.24   +-  0.20       4.1    2.1  101.78 +-  0.0    2.79   5.43   +-0.3                            m i ke

NORTHERN ITALY
Sta     Dist  EvAz     Phase      Date       Time     TRes  Azim  AzRes  Slow  SRes Def   SNR       Amp   Per   Mag1   Mag2       ID
SBF   002.85 250.9 m E Pn      2012/05/24 10:32:59.2   0.0                          T                                        4963596
SBF   002.85 250.9 m E Sn      2012/05/24 10:33:32.7   0.6                          T                6.3  .32 Ml 2.7         4963595
MBDF  003.13 269.2 m E Pn      2012/05/24 10:33:03.0   0.0                          T                                        4963650
FRF   003.50 249.8 m E Pn      2012/05/24 10:33:08.0   0.1                          T                3.4  .26 Ml 2.7         4963592
FRF   003.50 249.8 m E Sn      2012/05/24 10:33:47.5   0.1                          T                                        4963591
LMR   003.68 247.2 m E Pn      2012/05/24 10:33:10.1  -0.3                          T                                        4963593
LMR   003.68 247.2 m E Sn      2012/05/24 10:33:51.4  -0.4                          T                                        4963594
ORIF  003.76 272.8 m E Pn      2012/05/24 10:33:11.4  -0.1                          T                1.8  .26 Ml 2.4         4963652
ORIF  003.76 272.8 m E Sn      2012/05/24 10:33:53.3  -0.4                          T                                        4963651
SMRF  004.10 259.6 m E Pn      2012/05/24 10:33:15.9  -0.3                          T                                        4963653
SMRF  004.10 259.6 m E Sn      2012/05/24 10:34:01.9   0.1                          T                1.2  .48 Ml 2.1         4963654
HINF  004.20 316.3 m E Pn      2012/05/24 10:33:17.6   0.0                          T                                        4963645
HINF  004.20 316.3 m E Sn      2012/05/24 10:34:04.2  -0.2                          T                 .8  .22 Ml 2.3         4963644
HAU   004.58 315.1 m E Pn      2012/05/24 10:33:22.8   0.1                          T                                        4963642
HAU   004.58 315.1 m E Sn      2012/05/24 10:34:13.7   0.3                          T                4.1  .38 Ml 2.6         4963643
VIVF  004.62 272.3 m E Pn      2012/05/24 10:33:23.3   0.1                          T                                        4963649
VIVF  004.62 272.3 m E Sn      2012/05/24 10:34:14.5   0.3                          T                 .5  .26 Ml 2.1         4963648
PGF   002.79 215.0 m E Sn      2012/05/24 10:33:31.1   0.5                          T                1.1  .20 Ml 2.4         4963655
SMF   005.43 291.8 m E Pn      2012/05/24 10:33:34.4   0.2                          T                                        4963646
SMF   005.43 291.8 m E Sn      2012/05/24 10:34:33.3  -0.3                          T                3.1  .48 Ml 2.8         4963647

.
EVENT     276849
    Date      Time       Latitude Longitude    Depth    Ndef Nsta Gap    Mag1  N    Mag2  N    Mag3  N   Author         ID
       rms   OT_Error      Smajor Sminor Az        Err   mdist  Mdist     Err        Err        Err      Quality

2012/05/24 14:02:43.3     44.4880    6.6985      2.0      38    9 054  Ml 2.1  6  Md 2.1  1              bulletin    276949
                                                                                                         _ldg
      0.31   +-  0.05       1.1     .9   53.02 +-  0.0    0.08   1.73   +-0.3      +-                    m i ke

FRANCE
Sta     Dist  EvAz     Phase      Date       Time     TRes  Azim  AzRes  Slow  SRes Def   SNR       Amp   Per   Mag1   Mag2       ID
MBDF  000.24 012.3 m E Pg      2012/05/24 14:02:48.2  -0.1                          T                                        4963981
MBDF  000.24 012.3 m E Sg      2012/05/24 14:02:51.8   0.1                          T               18.2  .22        Md 2.1  4963980
ORIF  000.73 306.7 m E Pg      2012/05/24 14:02:56.5  -0.6                          T                                        4963978
ORIF  000.73 306.7 m E Sg      2012/05/24 14:03:06.2  -0.3                          T                6.9  .24                4963979
SBF   000.82 139.4 m E Pg      2012/05/24 14:02:58.9   0.1                          T                                        4963974
SBF   000.82 139.4 m E Sg      2012/05/24 14:03:09.4  -0.1                          T                5.6  .20                4963975
FRF   000.93 182.3 m E Pg      2012/05/24 14:03:00.8   0.1                          T                                        4989923
FRF   000.93 182.3 m E Sg      2012/05/24 14:03:12.8   0.0                          T                9.2  .18 Ml 2.5         4989922
SMRF  000.96 238.0 m E Pn      2012/05/24 14:03:02.3   0.1                          T                                        4989924
SMRF  000.96 238.0 m E Sn      2012/05/24 14:03:15.6   0.1                          T                6.3  .25 Ml 2.2         4989921
LPL   001.03 001.3 m E Pg      2012/05/24 14:03:02.7  -0.1                          T                                        4989926
LPL   001.03 001.3 m E Sg      2012/05/24 14:03:16.3   0.1                          T                2.9  .26 Ml 1.9         4989919
LMR   001.16 186.8 m E Pg      2012/05/24 14:03:05.9   0.9                          T                                        4963977
LMR   001.16 186.8 m E Sg      2012/05/24 14:03:20.8   0.7                          T                4.7  .18 Ml 2.3         4963976
VIVF  001.49 285.0 m E Pg      2012/05/24 14:03:11.0  -0.2                          T                                        4989925
VIVF  001.49 285.0 m E Sg      2012/05/24 14:03:30.4   0.0                          T                1.5  .26 Ml 1.8         4989918
LPG   001.01 002.1 m E Sg      2012/05/24 14:03:15.8   0.0                          T                3.4  .22 Ml 2.0         4989920

.
EVENT     276850
    Date      Time       Latitude Longitude    Depth    Ndef Nsta Gap    Mag1  N    Mag2  N    Mag3  N   Author         ID
       rms   OT_Error      Smajor Sminor Az        Err   mdist  Mdist     Err        Err        Err      Quality

2012/05/24 14:34:39.8     44.7866   11.4139      2.0      12    8 294  Ml 3.3  4                         bulletin    276950
                                                                                                         _ldg
      0.36   +-  0.55      12.1    7.4   91.00 +-  0.0    2.84   3.94   +-0.3                            m i ke

NORTHERN ITALY
Sta     Dist  EvAz     Phase      Date       Time     TRes  Azim  AzRes  Slow  SRes Def   SNR       Amp   Per   Mag1   Mag2       ID
PGF   002.84 218.9 m E Pn      2012/05/24 14:35:24.5   0.1                          T                                        4963993
PGF   002.84 218.9 m E Sn      2012/05/24 14:35:56.9  -0.3                          T               62.8  .66 Ml 3.6         4963992
SBF   003.00 253.5 m E Pn      2012/05/24 14:35:26.7   0.2                          T                                        4963990
SBF   003.00 253.5 m E Sn      2012/05/24 14:36:01.0   0.1                          T               62.2  .56 Ml 3.5         4963991
MBDF  003.31 270.6 m E Pn      2012/05/24 14:35:30.9   0.0                          T                                        4963982
LPG   003.38 283.8 m E Pn      2012/05/24 14:35:31.8  -0.1                          T                                        4963985
LPL   003.39 284.1 m E Pn      2012/05/24 14:35:32.6   0.5                          T                                        4963984
FRF   003.64 252.0 m E Pn      2012/05/24 14:35:36.3   1.1                          T                                        4963986
LMR   003.82 249.4 m E Pn      2012/05/24 14:35:36.3  -1.3                          T                                        4963989
FRF   003.64 252.0 m E Sn      2012/05/24 14:36:16.7   0.5                          T               11.0  .38 Ml 3.1         4963987
LMR   003.82 249.4 m E Sn      2012/05/24 14:36:20.3  -0.2                          T               15.1  .42 Ml 3.2         4963988
ORIF  003.94 273.9 m E Pn      2012/05/24 14:35:38.6  -0.7                          T                                        4963983

.
