EVENT     260693
    Date      Time       Latitude Longitude    Depth    Ndef Nsta Gap    Mag1  N    Mag2  N    Mag3  N   Author         ID
       rms   OT_Error      Smajor Sminor Az        Err   mdist  Mdist     Err        Err        Err      Quality

2011/06/23 13:43:37.4     50.5790   -3.7472     10.0      66   24 073  Ml 3.4 23  Md 3.1  1              js067245    260693

      0.65   +-  0.10       2.2    1.8   62.30 +-  0.0    0.19   7.99   +-0.2      +-                    m i ke

UNITED KINGDOM
Sta     Dist  EvAz     Phase      Date       Time     TRes  Azim  AzRes  Slow  SRes Def   SNR       Amp   Per   Mag1   Mag2       ID
ROSF  002.27 172.0 m E Pn      2011/06/23 13:44:13.7   0.6                          T                                        4712362
ROSF  002.27 172.0 m E Pg      2011/06/23 13:44:19.3  -0.2                          T                                        4712363
ROSF  002.27 172.0 m E Sn      2011/06/23 13:44:39.0  -0.4                          T                                        4712343
ROSF  002.27 172.0 m E Sg      2011/06/23 13:44:47.6  -1.1                          T   001.0       42.6  .24 Ml 3.5 Md 3.1  4711239
SGMF  002.45 161.1 m E Pn      2011/06/23 13:44:16.1   0.4                          T                                        4712361
SGMF  002.45 161.1 m E Sn      2011/06/23 13:44:43.4  -0.6                          T                                        4712344
SGMF  002.45 161.1 m E Sg      2011/06/23 13:44:53.7  -0.8                          T   001.0       37.6  .32 Ml 3.4         4711240
QUIF  002.69 171.6 m E Pn      2011/06/23 13:44:19.5   0.5                          T                                        4712359
QUIF  002.69 171.6 m E Pg      2011/06/23 13:44:27.1  -0.2                          T                                        4712360
QUIF  002.69 171.6 m E Sg      2011/06/23 13:45:01.2  -0.7                          T   001.0       55.6  .28 Ml 3.7         4711238
FLN   002.79 129.4 m E Pn      2011/06/23 13:44:20.7   0.3                          T                                        4712357
FLN   002.79 129.4 m E Pg      2011/06/23 13:44:29.1  -0.1                          T                                        4712358
FLN   002.79 129.4 m E Sg      2011/06/23 13:45:05.2   0.1                          T               36.8  .26 Ml 3.4         4712345
GRR   002.89 138.2 m E Pn      2011/06/23 13:44:21.9   0.2                          T                                        4712352
GRR   002.89 138.2 m E P       2011/06/23 13:44:24.4  -0.2                          T                                        4712353
GRR   002.89 138.2 m E Pg      2011/06/23 13:44:30.7  -0.3                          T                                        4712354
GRR   002.89 138.2 m E Sn      2011/06/23 13:44:54.1  -0.2                          T                                        4712348
GRR   002.89 138.2 m E Sg      2011/06/23 13:45:07.9  -0.3                          T               34.4  .24 Ml 3.4         4712349
LDF   003.08 128.7 m E P       2011/06/23 13:44:26.9  -0.4                          T                                        4712355
LDF   003.08 128.7 m E Pg      2011/06/23 13:44:34.5  -0.1                          T                                        4712356
LDF   003.08 128.7 m E Sn      2011/06/23 13:44:59.1   0.1                          T                                        4712346
LDF   003.08 128.7 m E Sg      2011/06/23 13:45:14.2   0.0                          T               19.3  .26 Ml 3.3         4712347
MFF   004.64 147.6 m E Pn      2011/06/23 13:44:46.1   0.6                          T   001.0                                4711229
MFF   004.64 147.6 m E Sn      2011/06/23 13:45:36.3   0.1                          T   001.0        6.2  .28 Ml 3.3         4711230
BAIF  005.12 092.8 m E Pn      2011/06/23 13:44:51.7  -0.3                          T                                        4712367
BAIF  005.12 092.8 m E Sn      2011/06/23 13:45:48.0   0.2                          T                3.1  .16 Ml 3.2         4712340
GIVF  005.51 091.7 m E Pn      2011/06/23 13:44:57.3   0.0                          T   001.0                                4711237
GIVF  005.51 091.7 m E Sn      2011/06/23 13:45:57.3   0.3                          T                6.1  .18 Ml 3.5         4712339
TCF   005.84 135.0 m E Pn      2011/06/23 13:45:02.2   0.3                          T   001.0                                4711233
TCF   005.84 135.0 m E Sn      2011/06/23 13:46:04.0  -1.0                          T                6.4  .22 Ml 3.6         4712338
SSF   005.94 123.5 m E Pn      2011/06/23 13:45:03.1  -0.1                          T   001.0                                4711232
SSF   005.94 123.5 m E Sn      2011/06/23 13:46:06.5  -0.8                          T                2.3  .23 Ml 3.2         4712337
BGF   005.94 130.1 m E Pn      2011/06/23 13:45:03.3   0.0                          T                                        4712364
BGF   005.94 130.1 m E Sn      2011/06/23 13:46:07.6   0.2                          T   001.0       14.1  .32 Ml 3.7         4711221
LOR   006.01 120.5 m E Pn      2011/06/23 13:45:04.2   0.1                          T   001.0                                4711227
AVF   006.04 126.2 m E Pn      2011/06/23 13:45:04.2  -0.3                          T   001.0                                4711219
AVF   006.04 126.2 m E Sn      2011/06/23 13:46:08.5  -1.1                          T   001.0          3  .24 Ml 3.2         4711220
LOR   006.01 120.5 m E Sn      2011/06/23 13:46:09.0   0.1                          T   001.0        3.8  .24 Ml 3.3         4711228
RJF   006.35 144.2 m E Pn      2011/06/23 13:45:08.7   0.0                          T   001.0                                4711218
RJF   006.35 144.2 m E Sn      2011/06/23 13:46:15.1  -2.0                          T                3.3  .25 Ml 2.9         4712350
SMF   006.39 125.1 m E Pn      2011/06/23 13:45:09.2  -0.1                          T   001.0                                4711231
LFF   006.40 150.1 m E Pn      2011/06/23 13:45:09.5   0.1                          T                                        4712351
CAF   006.88 143.1 m E Pn      2011/06/23 13:45:15.2  -0.8                          T   001.0                                4711222
CAF   006.88 143.1 m E Sn      2011/06/23 13:46:27.5  -2.2                          T   001.0        3.2  .24 Ml 3.4         4711223
HAU   007.09 107.4 m E Pn      2011/06/23 13:45:19.2   0.3                          T   001.0                                4711226
HAU   007.09 107.4 m E Sn      2011/06/23 13:46:34.6  -0.1                          T                6.1  .23 Ml 3.5         4712342
CDF   007.50 102.6 m E Pn      2011/06/23 13:45:24.9   0.4                          T   001.0                                4711224
CDF   007.50 102.6 m E Sn      2011/06/23 13:46:45.6   1.0                          T   001.0        2.8  .28 Ml 3.4         4711225
SJPF  007.67 166.0 m E Pn      2011/06/23 13:45:27.3   0.6                          T   001.0                                4711241
SJPF  007.67 166.0 m E Sn      2011/06/23 13:46:46.6  -1.9                          T   001.0        1.7  .20 Ml 3.3         4711242
CABF  007.63 117.6 m E Pn      2011/06/23 13:45:27.4   1.0                          T                                        4712366
CABF  007.63 117.6 m E Sn      2011/06/23 13:46:49.6   1.8                          T   001.0          4  .60 Ml 3.2         4711234
ETSF  007.99 162.9 m E Pn      2011/06/23 13:45:30.8  -0.4                          T   001.0                                4711235
ETSF  007.99 162.9 m E Sn      2011/06/23 13:46:55.6  -0.7                          T   001.0        1.1  .20 Ml 3.2         4711236
SFTF  006.21 109.1 m E Sn      2011/06/23 13:46:13.8   0.2                          T                5.3  .30 Ml 3.4         4712341

.
EVENT     260694
    Date      Time       Latitude Longitude    Depth    Ndef Nsta Gap    Mag1  N    Mag2  N    Mag3  N   Author         ID
       rms   OT_Error      Smajor Sminor Az        Err   mdist  Mdist     Err        Err        Err      Quality

2011/06/23 13:50:34.2     43.8144    8.6544     10.0      44   10 085  Ml 2.7 10  Md 2.8  1              js067245    260694

      0.56   +-  0.09       1.9    1.5   51.64 +-  0.0    0.43   3.04   +-0.4      +-                    m i ke

CORSICA, FRANCE
Sta     Dist  EvAz     Phase      Date       Time     TRes  Azim  AzRes  Slow  SRes Def   SNR       Amp   Per   Mag1   Mag2       ID
SBF   000.88 273.6 m E Pg      2011/06/23 13:50:51.2   0.2                          T                                        4712381
SBF   000.88 273.6 m E Sn      2011/06/23 13:51:03.2  -0.2                          T              180.2  .20 Ml 3.7 Md 2.8  4712382
PGF   001.29 168.6 m E Pn      2011/06/23 13:50:57.2   0.4                          T                                        4712368
PGF   001.29 168.6 m E Sn      2011/06/23 13:51:12.5  -0.6                          T                6.4  .32 Ml 2.5         4712369
FRF   001.48 260.8 m E Pn      2011/06/23 13:50:59.1  -0.2                          T                                        4712372
FRF   001.48 260.8 m E P       2011/06/23 13:51:01.7   0.5                          T                                        4712461
FRF   001.48 260.8 m E Sn      2011/06/23 13:51:16.9  -0.6                          T               13.3  .27 Ml 2.8         4712415
LMR   001.63 253.6 m E Pn      2011/06/23 13:51:01.0  -0.3                          T                                        4712370
LMR   001.63 253.6 m E P       2011/06/23 13:51:03.5   0.1                          T                                        4712460
LMR   001.63 253.6 m E Sn      2011/06/23 13:51:20.3  -0.8                          T               11.3  .22 Ml 2.8         4712371
MBDF  001.63 304.6 m E P       2011/06/23 13:51:03.5  -0.1                          T                                        4712466
MBDF  001.63 304.6 m E Sn      2011/06/23 13:51:21.6   0.3                          T               29.0  .52 Ml 2.8         4712377
LPL   002.19 321.8 m E Pn      2011/06/23 13:51:09.1  -0.1                          T                                        4712374
LPL   002.19 321.8 m E P       2011/06/23 13:51:11.9   0.3                          T                                        4712464
LPL   002.19 321.8 m E Pg      2011/06/23 13:51:15.2   0.1                          T                                        4712465
LPL   002.19 321.8 m E Sn      2011/06/23 13:51:34.9   0.2                          T                4.9  .29 Ml 2.5         4712413
LPG   002.16 321.8 m E Pn      2011/06/23 13:51:09.2   0.2                          T                                        4712373
LPG   002.16 321.8 m E P       2011/06/23 13:51:12.2   0.8                          T                                        4712463
LPG   002.16 321.8 m E Sn      2011/06/23 13:51:33.9  -0.3                          T                5.8  .39 Ml 2.4         4712414
SMRF  002.23 275.2 m E P       2011/06/23 13:51:11.9  -0.1                          T                                        4712462
SMRF  002.23 275.2 m E Pg      2011/06/23 13:51:16.8   1.0                          T                                        4712378
SMRF  002.23 275.2 m E Sg      2011/06/23 13:51:45.1   0.6                          T               25.4  .41 Ml 3.0         4712380
ORIF  002.28 300.0 m E Pg      2011/06/23 13:51:16.1  -0.6                          T                                        4712375
ORIF  002.28 300.0 m E Sg      2011/06/23 13:51:47.1   1.2                          T                6.6  .35 Ml 2.5         4712412
VIVF  003.04 291.4 m E P       2011/06/23 13:51:24.1   0.5                          T                                        4712411
VIVF  003.04 291.4 m E Sg      2011/06/23 13:52:10.5   0.8                          T                1.1  .21 Ml 2.2         4712410

.
EVENT     260698
    Date      Time       Latitude Longitude    Depth    Ndef Nsta Gap    Mag1  N    Mag2  N    Mag3  N   Author         ID
       rms   OT_Error      Smajor Sminor Az        Err   mdist  Mdist     Err        Err        Err      Quality

2011/06/23 15:02:11.1     45.8589    9.4188     10.0      35   11 073  Ml 2.5  8                         js067245    260698

      0.32   +-  0.06       1.6    1.2  163.91 +-  0.0    0.27   3.49   +-0.1                            m i ke

NORTHERN ITALY
Sta     Dist  EvAz     Phase      Date       Time     TRes  Azim  AzRes  Slow  SRes Def   SNR       Amp   Per   Mag1   Mag2       ID
LPG   001.90 260.0 m E Pn      2011/06/23 15:02:42.1  -0.2                          T                                        4712422
LPG   001.90 260.0 m E Sn      2011/06/23 15:03:05.6   0.8                          T                7.1  .28 Ml 2.6         4712533
LPL   001.91 260.7 m E Pn      2011/06/23 15:02:42.6   0.3                          T                                        4712531
LPL   001.91 260.7 m E Sn      2011/06/23 15:03:05.2   0.2                          T                5.9  .34 Ml 2.4         4712419
MBDF  002.18 239.7 m E Pn      2011/06/23 15:02:45.7  -0.2                          T                                        4712421
MBDF  002.18 239.7 m E Sn      2011/06/23 15:03:12.0   0.6                          T                1.8  .16 Ml 2.3         4712534
SBF   002.44 216.0 m E Pn      2011/06/23 15:02:49.8   0.5                          T                                        4712425
SBF   002.44 216.0 m E Sn      2011/06/23 15:03:17.5   0.0                          T                5.8  .29 Ml 2.6         4712532
CABF  002.43 289.2 m E P       2011/06/23 15:02:51.4  -0.3                          T                                        4712528
HINF  002.63 319.0 m E Pn      2011/06/23 15:02:51.8  -0.1                          T                                        4712524
HINF  002.63 319.0 m E Pg      2011/06/23 15:03:00.0   0.0                          T                                        4712525
HINF  002.63 319.0 m E Sn      2011/06/23 15:03:22.5   0.5                          T                                        4712526
HINF  002.63 319.0 m E Sg      2011/06/23 15:03:34.1   0.2                          T                5.0  .32 Ml 2.5         4712527
ORIF  002.66 250.6 m E P       2011/06/23 15:02:55.1   0.0                          T                                        4712530
ORIF  002.66 250.6 m E Sn      2011/06/23 15:03:22.3  -0.5                          T                4.6  .39 Ml 2.4         4712535
FRF   003.03 221.7 m E Pn      2011/06/23 15:02:57.2   0.0                          T                                        4712423
FRF   003.03 221.7 m E Sn      2011/06/23 15:03:31.7   0.3                          T                2.8  .29 Ml 2.5         4712418
CDF   002.94 331.0 m E P       2011/06/23 15:02:58.2  -0.9                          T                                        4712420
CDF   002.94 331.0 m E Sg      2011/06/23 15:03:44.0   0.4                          T                3.0  .35 Ml 2.5         4712523
LMR   003.27 220.5 m E Pn      2011/06/23 15:03:00.6   0.1                          T                                        4712424
VIVF  003.49 255.0 m E P       2011/06/23 15:03:06.1  -0.8                          T                                        4712529

.
EVENT     260699
    Date      Time       Latitude Longitude    Depth    Ndef Nsta Gap    Mag1  N    Mag2  N    Mag3  N   Author         ID
       rms   OT_Error      Smajor Sminor Az        Err   mdist  Mdist     Err        Err        Err      Quality

2011/06/23 22:01:24.9     47.4541    -.9323     11.0 f    30   12 133  Ml 2.0 13  Md 2.2  2              js067245    260699

      0.39   +-  0.04       1.2     .7   52.09 +-  0.0    0.94   3.28   +-0.2      +-0.0                 m i ke

FRANCE
Sta     Dist  EvAz     Phase      Date       Time     TRes  Azim  AzRes  Slow  SRes Def   SNR       Amp   Per   Mag1   Mag2       ID
GRR   000.94 003.0 m E Pg      2011/06/23 22:01:42.9   0.3                          T                                        4712571
GRR   000.94 003.0 m E Sg      2011/06/23 22:01:54.9   0.1                          T               11.8  .26 Ml 2.3 Md 2.2  4712572
MFF   001.01 147.4 m E Pg      2011/06/23 22:01:43.8  -0.1                          T                                        4712564
MFF   001.01 147.4 m E Sg      2011/06/23 22:01:57.1   0.1                          T                5.5  .20 Ml 2.4 Md 2.1  4712566
LDF   001.26 025.2 m E Pn      2011/06/23 22:01:46.8  -0.1                          T                                        4712595
LDF   001.26 025.2 m E Pg      2011/06/23 22:01:48.6   0.0                          T                                        4712567
LDF   001.26 025.2 m E Sg      2011/06/23 22:02:04.7  -0.3                          T                1.1  .17 Ml 1.7         4712570
SGMF  001.36 306.8 m E Pn      2011/06/23 22:01:47.9  -0.3                          T                                        4712560
SGMF  001.36 306.8 m E Pg      2011/06/23 22:01:50.4   0.1                          T                                        4712559
SGMF  001.36 306.8 m E Sg      2011/06/23 22:02:09.3   1.5                          T                 .9  .19 Ml 1.6         4712561
FLN   001.34 012.8 m E Pn      2011/06/23 22:01:48.1   0.1                          T                                        4712596
FLN   001.34 012.8 m E Pg      2011/06/23 22:01:50.2   0.1                          T                                        4712563
FLN   001.34 012.8 m E Sg      2011/06/23 22:02:07.4  -0.1                          T                3.9  .25 Ml 2.0         4712569
QUIF  001.58 287.9 m E Pn      2011/06/23 22:01:51.1  -0.1                          T                                        4712597
QUIF  001.58 287.9 m E Pg      2011/06/23 22:01:54.5   0.2                          T                                        4712562
QUIF  001.58 287.9 m E Sg      2011/06/23 22:02:14.0  -0.7                          T                1.8  .23 Ml 2.0         4712568
ROSF  001.81 300.1 m E Pg      2011/06/23 22:01:58.7   0.1                          T                                        4712557
ROSF  001.81 300.1 m E Sg      2011/06/23 22:02:21.5  -0.4                          T                1.1  .23 Ml 1.8         4712558
RJF   002.74 140.9 m E Pn      2011/06/23 22:02:07.1   0.1                          T                                        4712593
RJF   002.74 140.9 m E Pg      2011/06/23 22:02:15.6  -0.1                          T                                        4712594
RJF   002.74 140.9 m E Sg      2011/06/23 22:02:50.7  -0.2                          T                2.3  .28 Ml 2.0         4712556
CAF   003.28 139.5 m E Pn      2011/06/23 22:02:14.3  -0.1                          T                                        4712591
CAF   003.28 139.5 m E Sn      2011/06/23 22:02:51.2   0.2                          T                                        4712592
CAF   003.28 139.5 m E Sg      2011/06/23 22:03:06.5  -1.2                          T                 .5  .17 Ml 2.0         4712554
BGF   002.74 107.7 m E Pg      2011/06/23 22:02:15.5  -0.2                          T                                        4712589
BGF   002.74 107.7 m E Sg      2011/06/23 22:02:50.7  -0.2                          T                  1  .23 Ml 2.0         4712590
TCF   002.45 117.3 m E Sg      2011/06/23 22:02:42.1   0.0                          T                 .4  .17 Ml 1.7         4712588
LFF   002.77 154.6 m E Sg      2011/06/23 22:02:52.7   0.7                          T                2.2  .35 Ml 2.0         4712555

.
