EVENT     284045
    Date      Time       Latitude Longitude    Depth    Ndef Nsta Gap    Mag1  N    Mag2  N    Mag3  N   Author         ID
       rms   OT_Error      Smajor Sminor Az        Err   mdist  Mdist     Err        Err        Err      Quality

2012/09/27 19:01:45.2     42.9517    -.9159      2.0      50   10 043  Ml 2.5  7  Md 2.4  2              bulletin    284145
                                                                                                         _ldg
      0.64   +-  0.08       1.6    1.3  179.78 +-  0.0    0.21   4.49   +-0.2      +-0.0                 m i ke

PYRENEES
Sta     Dist  EvAz     Phase      Date       Time     TRes  Azim  AzRes  Slow  SRes Def   SNR       Amp   Per   Mag1   Mag2       ID
ETSF  000.27 101.3 m E Pg      2012/09/27 19:01:50.2  -0.4                          T                                        5080593
ETSF  000.27 101.3 m E Sg      2012/09/27 19:01:53.6  -0.6                          T              177.5  .28        Md 2.4  5080589
SJPF  000.28 305.6 m E Pg      2012/09/27 19:01:50.2  -0.4                          T                                        5080594
SJPF  000.28 305.6 m E Sg      2012/09/27 19:01:54.1  -0.3                          T              226.3  .28        Md 2.3  5080590
EPF   000.92 084.7 m E Pg      2012/09/27 19:02:02.2  -0.4                          T                                        5080592
EPF   000.92 084.7 m E Sg      2012/09/27 19:02:14.8   0.1                          T               25.4  .38 Ml 2.6         5080588
LFF   002.32 030.5 m E Pn      2012/09/27 19:02:22.4  -0.1                          T                                        5080585
LFF   002.32 030.5 m E Sn      2012/09/27 19:02:49.3  -0.7                          T                                        5080586
LFF   002.32 030.5 m E Sg      2012/09/27 19:02:58.3   0.3                          T                7.1  .41 Ml 2.3         5081292
MTLF  002.33 079.3 m E Pn      2012/09/27 19:02:23.0   0.4                          T                                        5080591
MTLF  002.33 079.3 m E Pg      2012/09/27 19:02:27.5  -0.8                          T                                        5081286
MTLF  002.33 079.3 m E Sn      2012/09/27 19:02:49.6  -0.6                          T                                        5080587
MTLF  002.33 079.3 m E Sg      2012/09/27 19:02:58.3   0.0                          T                6.2  .44 Ml 2.4         5081289
CAF   002.92 046.5 m E Pn      2012/09/27 19:02:30.9   0.1                          T                                        5080584
CAF   002.92 046.5 m E P       2012/09/27 19:02:33.5  -0.1                          T                                        5081285
CAF   002.92 046.5 m E Sg      2012/09/27 19:03:16.9   0.0                          T                2.4  .27 Ml 2.4         5081290
RJF   002.93 035.8 m E P       2012/09/27 19:02:34.3   0.5                          T                                        5081284
RJF   002.93 035.8 m E Sg      2012/09/27 19:03:17.4   0.2                          T                6.1  .42 Ml 2.2         5081291
LASF  003.65 070.4 m E P       2012/09/27 19:02:43.9  -0.1                          T                                        5081287
LASF  003.65 070.4 m E Sg      2012/09/27 19:03:39.6   0.0                          T                2.2  .37 Ml 2.3         5081288
MFF   003.69 008.3 m E P       2012/09/27 19:02:44.4  -0.1                          T                                        5081283
BGF   004.49 035.3 m E Sg      2012/09/27 19:04:05.4  -0.5                          T                4.6  .33 Ml 2.9         5080595

.
EVENT     284049
    Date      Time       Latitude Longitude    Depth    Ndef Nsta Gap    Mag1  N    Mag2  N    Mag3  N   Author         ID
       rms   OT_Error      Smajor Sminor Az        Err   mdist  Mdist     Err        Err        Err      Quality

2012/09/27 23:27:18.5     40.6327     .8325     10.0 f    32    4 155  Ml 1.8  5                         bulletin    284149
                                                                                                         _ldg
      0.50   +-  0.14       2.7    1.6  153.10 +-  0.0    0.32   2.92   +-0.1                            m i ke

SPAIN
Sta     Dist  EvAz     Phase      Date       Time     TRes  Azim  AzRes  Slow  SRes Def   SNR       Amp   Per   Mag1   Mag2       ID
EPF   002.42 351.4 m E Pn      2012/09/27 23:27:57.2   0.7                          T                                        5080697
EPF   002.42 351.4 m E Pg      2012/09/27 23:28:03.7   0.1                          T                                        5080696
EPF   002.42 351.4 m E Sn      2012/09/27 23:28:25.8   1.4                          T                1.4  .26 Ml 2.0         5080695
ETSF  002.49 335.8 m E Pn      2012/09/27 23:27:58.0   0.6                          T                                        5080690
ETSF  002.49 335.8 m E Sn      2012/09/27 23:28:27.8   1.7                          T                 .5  .24 Ml 1.6         5080691
SJPF  002.92 328.9 m E Pn      2012/09/27 23:28:03.4   0.3                          T                                        5080689
SJPF  002.92 328.9 m E Sn      2012/09/27 23:28:37.8   1.7                          T                 .6  .20 Ml 1.9         5080688
MTLF  002.90 020.4 m E Pn      2012/09/27 23:28:03.4   0.6                          T                                        5080694
MTLF  002.90 020.4 m E Sn      2012/09/27 23:28:36.8   1.2                          T                 .5  .24 Ml 1.7         5080692

.
EVENT     284047
    Date      Time       Latitude Longitude    Depth    Ndef Nsta Gap    Mag1  N    Mag2  N    Mag3  N   Author         ID
       rms   OT_Error      Smajor Sminor Az        Err   mdist  Mdist     Err        Err        Err      Quality

2012/09/27 23:57:02.7     43.1692    -.6997      2.0      17    4 159  Ml 1.1  1  Md 1.4  2              bulletin    284147
                                                                                                         _ldg
      0.37   +-  0.10       2.6    1.2    6.78 +-  0.0    0.08   2.14   +-         +-0.0                 m i ke

PYRENEES
Sta     Dist  EvAz     Phase      Date       Time     TRes  Azim  AzRes  Slow  SRes Def   SNR       Amp   Per   Mag1   Mag2       ID
ETSF  000.29 159.1 m E Pg      2012/09/27 23:57:08.5   0.0                          T                                        5080657
ETSF  000.29 159.1 m E Sg      2012/09/27 23:57:12.5   0.1                          T                3.0  .18        Md 1.4  5080656
SJPF  000.39 261.9 m E Pg      2012/09/27 23:57:10.3   0.0                          T                                        5080655
SJPF  000.39 261.9 m E Sg      2012/09/27 23:57:15.3  -0.1                          T                3.8  .23        Md 1.4  5080654
EPF   000.77 100.0 m E Pg      2012/09/27 23:57:17.1  -0.2                          T                                        5080661
EPF   000.77 100.0 m E Sg      2012/09/27 23:57:26.9  -0.6                          T                 .6  .13                5080660
MTLF  002.14 084.4 m E Pn      2012/09/27 23:57:37.6   0.0                          T                                        5080659
MTLF  002.14 084.4 m E Sn      2012/09/27 23:58:02.6  -0.6                          T                 .2  .24 Ml 1.1         5080658

.
EVENT     284050
    Date      Time       Latitude Longitude    Depth    Ndef Nsta Gap    Mag1  N    Mag2  N    Mag3  N   Author         ID
       rms   OT_Error      Smajor Sminor Az        Err   mdist  Mdist     Err        Err        Err      Quality

2012/09/28 00:11:02.4     44.9300   11.3101      5.0 f    53   15 125  Ml 2.7 17                         bulletin    284150
                                                                                                         _ldg
      0.47   +-  0.11       2.5    1.7   71.11 +-  0.0    0.08   6.14   +-0.3                            m i ke

NORTHERN ITALY
Sta     Dist  EvAz     Phase      Date       Time     TRes  Azim  AzRes  Slow  SRes Def   SNR       Amp   Per   Mag1   Mag2       ID
PGF   002.91 215.9 m E Pn      2012/09/28 00:11:47.7   0.1                          T                                        5080749
PGF   002.91 215.9 m E Sn      2012/09/28 00:12:21.5   0.6                          T                7.3  .30 Ml 3.0         5080748
SBF   002.98 250.4 m E Pn      2012/09/28 00:11:48.3  -0.1                          T                                        5080747
SBF   002.98 250.4 m E Sn      2012/09/28 00:12:22.5   0.1                          T               23.4  .43 Ml 3.2         5080746
MBDF  003.24 268.0 m E Pn      2012/09/28 00:11:52.3   0.2                          T                                        5080735
MBDF  003.24 268.0 m E Sn      2012/09/28 00:12:28.1  -0.6                          T                2.0  .33 Ml 2.3         5080734
LPL   003.29 281.9 m E Pn      2012/09/28 00:11:53.0   0.1                          T                                        5080739
LPL   003.29 281.9 m E Sn      2012/09/28 00:12:29.1  -0.9                          T                3.1  .33 Ml 2.5         5080738
FRF   003.62 249.4 m E Pn      2012/09/28 00:11:57.1   0.0                          T                                        5080743
FRF   003.62 249.4 m E Sn      2012/09/28 00:12:37.6  -0.1                          T                3.6  .31 Ml 2.7         5080742
LMR   003.81 246.9 m E Pn      2012/09/28 00:11:59.3  -0.3                          T                                        5080745
LMR   003.81 246.9 m E Sn      2012/09/28 00:12:42.6   0.4                          T                8.7  .36 Ml 3.0         5080744
ORIF  003.86 271.7 m E Pn      2012/09/28 00:12:00.5   0.1                          T                                        5080737
ORIF  003.86 271.7 m E Sn      2012/09/28 00:12:43.2  -0.3                          T                3.5  .46 Ml 2.5         5080736
SMRF  004.22 258.9 m E Pn      2012/09/28 00:12:05.1  -0.2                          T                                        5080741
SMRF  004.22 258.9 m E Sn      2012/09/28 00:12:51.2  -0.8                          T                2.2  .36 Ml 2.5         5080740
HINF  004.22 314.7 m E Pn      2012/09/28 00:12:05.5   0.1                          T                                        5080729
HINF  004.22 314.7 m E Sn      2012/09/28 00:12:52.3   0.0                          T                3.2  .31 Ml 2.7         5080728
CDF   004.45 322.9 m E Pn      2012/09/28 00:12:08.8   0.2                          T                                        5080727
CDF   004.45 322.9 m E Sn      2012/09/28 00:12:58.0   0.2                          T                3.4  .31 Ml 2.9         5080726
SMF   005.50 290.8 m E Pn      2012/09/28 00:12:22.8   0.1                          T                                        5080733
SMF   005.50 290.8 m E Sn      2012/09/28 00:13:21.7  -0.9                          T                 .5  .20 Ml 2.4         5080732
LOR   005.68 296.9 m E Pn      2012/09/28 00:12:25.4   0.1                          T                                        5080725
LOR   005.68 296.9 m E Sn      2012/09/28 00:13:27.1   0.0                          T                1.0  .22 Ml 2.7         5080724
SSF   005.84 294.2 m E Pn      2012/09/28 00:12:27.6   0.3                          T                                        5080723
SSF   005.84 294.2 m E Sn      2012/09/28 00:13:31.0   0.2                          T                1.5  .44 Ml 2.7         5080722
AVF   005.86 291.3 m E Pn      2012/09/28 00:12:27.9   0.3                          T                                        5080731
AVF   005.86 291.3 m E Sn      2012/09/28 00:13:30.7  -0.5                          T                 .2  .25 Ml 2.0         5080730
BGF   006.14 288.4 m E Pn      2012/09/28 00:12:31.7   0.3                          T                                        5080755
BGF   006.14 288.4 m E Sn      2012/09/28 00:13:39.0   1.0                          T                2.7  .36 Ml 3.0         5080754

.
EVENT     284053
    Date      Time       Latitude Longitude    Depth    Ndef Nsta Gap    Mag1  N    Mag2  N    Mag3  N   Author         ID
       rms   OT_Error      Smajor Sminor Az        Err   mdist  Mdist     Err        Err        Err      Quality

2012/09/28 05:24:40.5     46.4238    7.5107      2.0      78   16 097  Ml 2.1 16                         bulletin    284153
                                                                                                         _ldg
      0.74   +-  0.05        .9     .7   56.10 +-  0.0    0.18   3.49   +-0.2                            m i ke

SWITZERLAND
Sta     Dist  EvAz     Phase      Date       Time     TRes  Azim  AzRes  Slow  SRes Def   SNR       Amp   Per   Mag1   Mag2       ID
CABF  001.00 281.3 m E Pg      2012/09/28 05:24:59.5   0.1                          T                                        5081023
CABF  001.00 281.3 m E Sg      2012/09/28 05:25:12.6   0.2                          T                                        5081022
LPL   001.06 211.2 m E Pg      2012/09/28 05:25:00.6   0.0                          T                                        5080994
LPL   001.06 211.2 m E Sg      2012/09/28 05:25:14.3   0.0                          T                2.5  .27 Ml 1.8         5080993
LPG   001.07 210.0 m E Pg      2012/09/28 05:25:00.7  -0.2                          T                                        5080992
LPG   001.07 210.0 m E Sg      2012/09/28 05:25:14.6  -0.1                          T                3.4  .22 Ml 2.0         5080991
HINF  001.46 342.4 m E Pn      2012/09/28 05:25:06.3   0.0                          T                                        5081012
HINF  001.46 342.4 m E Pg      2012/09/28 05:25:07.8  -0.1                          T                                        5081021
HINF  001.46 342.4 m E Sg      2012/09/28 05:25:26.8  -0.1                          T                4.6  .24 Ml 2.3         5081020
MBDF  001.77 197.3 m E Pn      2012/09/28 05:25:10.5  -0.2                          T                                        5080986
MBDF  001.77 197.3 m E Pg      2012/09/28 05:25:13.7  -0.1                          T                                        5080985
MBDF  001.77 197.3 m E Sn      2012/09/28 05:25:32.5  -0.1                          T                                        5080984
MBDF  001.77 197.3 m E Sg      2012/09/28 05:25:36.5  -0.1                          T                 .9  .26 Ml 1.7         5080983
ORIF  001.89 217.8 m E Pn      2012/09/28 05:25:12.2   0.0                          T                                        5080990
ORIF  001.89 217.8 m E Pg      2012/09/28 05:25:15.9   0.1                          T                                        5080989
ORIF  001.89 217.8 m E Sn      2012/09/28 05:25:35.0  -0.2                          T                                        5080988
ORIF  001.89 217.8 m E Sg      2012/09/28 05:25:40.2   0.0                          T                3.7  .36 Ml 2.2         5080987
CDF   002.00 355.5 m E Pn      2012/09/28 05:25:13.6   0.0                          T                                        5081019
CDF   002.00 355.5 m E Pg      2012/09/28 05:25:17.8   0.1                          T                                        5081018
CDF   002.00 355.5 m E Sn      2012/09/28 05:25:37.6  -0.1                          T                                        5081017
CDF   002.00 355.5 m E Sg      2012/09/28 05:25:43.6   0.1                          T                2.4  .22 Ml 2.3         5081016
VIVF  002.53 232.8 m E Pn      2012/09/28 05:25:20.9   0.0                          T                                        5080982
VIVF  002.53 232.8 m E Pg      2012/09/28 05:25:27.7   0.1                          T                                        5080981
VIVF  002.53 232.8 m E Sn      2012/09/28 05:25:50.4  -0.1                          T                                        5080980
VIVF  002.53 232.8 m E Sg      2012/09/28 05:26:00.0  -0.2                          T                1.4  .28 Ml 2.0         5080979
SMF   002.54 276.3 m E Pn      2012/09/28 05:25:21.0   0.0                          T                                        5081011
SMF   002.54 276.3 m E Pg      2012/09/28 05:25:27.9   0.2                          T                                        5081010
SMF   002.54 276.3 m E Sn      2012/09/28 05:25:50.7   0.0                          T                                        5081008
SMF   002.54 276.3 m E Sg      2012/09/28 05:26:00.5   0.1                          T                1.3  .19 Ml 2.2         5081009
LOR   002.64 289.9 m E Pn      2012/09/28 05:25:22.4   0.0                          T                                        5081004
LOR   002.64 289.9 m E Pg      2012/09/28 05:25:29.8   0.2 108.7  1.4               T                                        5081003
LOR   002.64 289.9 m E Sn      2012/09/28 05:25:53.1  -0.1                          T                                        5081002
LOR   002.64 289.9 m E Sg      2012/09/28 05:26:02.1  -1.5 121.0  13.7              T                1.4  .22 Ml 2.2         5081001
MEZF  002.67 322.2 m E Pn      2012/09/28 05:25:22.4  -0.2 144.4  4.0               T                                        5081015
MEZF  002.67 322.2 m E Sn      2012/09/28 05:25:53.4  -0.2                          T                                        5081014
MEZF  002.67 322.2 m E Sg      2012/09/28 05:26:03.9  -0.4                          T                5.5  .32 Ml 2.6         5081013
SSF   002.83 284.5 m E Pn      2012/09/28 05:25:24.5  -0.3                          T                                        5081000
SSF   002.83 284.5 m E Pg      2012/09/28 05:25:32.8  -0.1                          T                                        5080999
SSF   002.83 284.5 m E Sn      2012/09/28 05:25:57.3  -0.2                          T                                        5080998
SSF   002.83 284.5 m E Sg      2012/09/28 05:26:09.4   0.1                          T                2.0  .31 Ml 2.3         5080997
AVF   002.89 278.8 m E Pn      2012/09/28 05:25:25.7   0.0                          T                                        5080996
AVF   002.89 278.8 m E Sn      2012/09/28 05:25:59.3   0.4                          T                 .9  .33 Ml 1.8         5080995
FRF   002.93 192.4 m E Pn      2012/09/28 05:25:26.3   0.1                          T                                        5080975
BGF   003.22 274.1 m E Pn      2012/09/28 05:25:30.4   0.1                          T                                        5081007
BGF   003.22 274.1 m E Pg      2012/09/28 05:25:40.7   0.4                          T                                        5081006
BGF   003.22 274.1 m E Sg      2012/09/28 05:26:21.6  -0.1                          T                2.0  .30 Ml 2.3         5081005
LASF  003.49 229.0 m E Pn      2012/09/28 05:25:34.1   0.2                          T                                        5080978
LASF  003.49 229.0 m E Pg      2012/09/28 05:25:45.0  -0.2                          T                                        5080977
LASF  003.49 229.0 m E Sn      2012/09/28 05:26:13.4   0.0                          T                1.4  .22 Ml 2.3         5080976

.
