BEGIN GSE2.0
MSG_TYPE DATA
MSG_ID 13-SEP-1112:10:47  FRA_NDC
E-MAIL
DATA_TYPE BULLETIN
Reviewed Bulletin (REB) # P2011-033  from French NDC for regional phases     PERIOD 17 AUG 2011 TO 23 AUG 2011 N P., J-P S.
EVENT     262634
    Date      Time       Latitude Longitude    Depth    Ndef Nsta Gap    Mag1  N    Mag2  N    Mag3  N   Author         ID
       rms   OT_Error      Smajor Sminor Az        Err   mdist  Mdist     Err        Err        Err      Quality

2011/08/17 01:02:46.7     43.1464   -1.0657      2.0      12    3 173  Ml 1.2  1  Md 1.2  3              js067245    262634

      0.38   +-  0.15       3.9    1.8  179.20 +-  0.0    0.12   1.04   +-         +-0.2                 m i ke

PYRENEES
Sta     Dist  EvAz     Phase      Date       Time     TRes  Azim  AzRes  Slow  SRes Def   SNR       Amp   Per   Mag1   Mag2       ID
SJPF  000.12 254.2 m E Pg      2011/08/17 01:02:49.7   0.4                          T                                        4738835
SJPF  000.12 254.2 m E Sg      2011/08/17 01:02:51.3   0.2                          T                4.1  .20        Md 1.4  4738833
ETSF  000.45 123.5 m E Pg      2011/08/17 01:02:54.9  -0.5                          T                                        4738834
ETSF  000.45 123.5 m E Sg      2011/08/17 01:03:01.0  -0.3                          T                2.9  .26        Md 1.0  4738832
EPF   001.04 096.0 m E Pg      2011/08/17 01:03:06.3   0.1                          T                                        4738831
EPF   001.04 096.0 m E Sg      2011/08/17 01:03:19.5  -0.2                          T                 .5  .22 Ml 1.2 Md 1.2  4738830

.
EVENT     262621
    Date      Time       Latitude Longitude    Depth    Ndef Nsta Gap    Mag1  N    Mag2  N    Mag3  N   Author         ID
       rms   OT_Error      Smajor Sminor Az        Err   mdist  Mdist     Err        Err        Err      Quality

2011/08/17 09:15:00.6     43.0612    -.6383      2.0       8    4 164  Ml 1.7  1  Md 1.6  2              js067245    262621

      0.20   +-  0.09       2.7    1.5    3.18 +-  0.0    0.17   2.11   +-         +-0.1                 m i ke

PYRENEES
Sta     Dist  EvAz     Phase      Date       Time     TRes  Azim  AzRes  Slow  SRes Def   SNR       Amp   Per   Mag1   Mag2       ID
ETSF  000.17 160.3 m E Pg      2011/08/17 09:15:04.3   0.1                          T                                        4738849
ETSF  000.17 160.3 m E Sg      2011/08/17 09:15:06.4  -0.2                          T               12.2  .29        Md 1.7  4738847
SJPF  000.43 277.1 m E Pg      2011/08/17 09:15:08.7  -0.2                          T                                        4738848
SJPF  000.43 277.1 m E Sg      2011/08/17 09:15:15.2   0.5                          T                3.9  .22        Md 1.6  4738846
EPF   000.72 092.1 m E Pg      2011/08/17 09:15:14.3   0.1                          T                                        4738844
EPF   000.72 092.1 m E Sg      2011/08/17 09:15:23.6   0.0                          T                2.1  .20                4738845
MTLF  002.11 081.4 m E Pg      2011/08/17 09:15:39.6  -0.1                          T                                        4738842
MTLF  002.11 081.4 m E Sg      2011/08/17 09:16:07.1   0.2                          T                 .8  .29 Ml 1.7         4738843

.
EVENT     262625
    Date      Time       Latitude Longitude    Depth    Ndef Nsta Gap    Mag1  N    Mag2  N    Mag3  N   Author         ID
       rms   OT_Error      Smajor Sminor Az        Err   mdist  Mdist     Err        Err        Err      Quality

2011/08/17 11:11:13.3     46.8176    -.1193       .0 f    24   12 114  Ml 2.1 10  Md 2.1  1              js067245    262625

      0.69   +-  0.11       2.6    1.7   49.41 +-  0.0    0.22   2.62   +-0.2      +-                    m i km

FRANCE
Sta     Dist  EvAz     Phase      Date       Time     TRes  Azim  AzRes  Slow  SRes Def   SNR       Amp   Per   Mag1   Mag2       ID
MFF   000.22 184.8 m E Pg      2011/08/17 11:11:18.1   0.2                          T                                        4740440
MFF   000.22 184.8 m E Sg      2011/08/17 11:11:20.2  -0.8                          T              104.2  .44        Md 2.1  4740439
GRR   001.65 342.6 m E Pn      2011/08/17 11:11:41.7  -0.3                          T   001.0                                4737284
GRR   001.65 342.6 m E Sn      2011/08/17 11:12:02.7  -0.1                          T   001.0                                4737285
GRR   001.65 342.6 m E Sg      2011/08/17 11:12:06.1   0.3                          T   001.0        5.0  .22 Ml 2.3         4737286
LDF   001.78 359.9 m E Pn      2011/08/17 11:11:43.2  -0.5                          T   001.0                                4737287
LDF   001.78 359.9 m E Sn      2011/08/17 11:12:05.9   0.1                          T   001.0        3.0  .17 Ml 2.4         4737288
RJF   001.89 142.4 m E Pg      2011/08/17 11:11:49.1   0.2                          T                                        4740438
RJF   001.89 142.4 m E Sg      2011/08/17 11:12:12.9  -0.5                          T                3.5  .21 Ml 2.1         4740437
SGMF  002.19 311.9 m E Pn      2011/08/17 11:11:49.9   0.6                          T                                        4740432
SGMF  002.19 311.9 m E Sn      2011/08/17 11:12:16.5   0.8                          T                1.1  .19 Ml 2.0         4740434
BGF   002.06 096.2 m E Pg      2011/08/17 11:11:51.7  -0.2                          T                                        4740431
ROSF  002.62 306.6 m E Pn      2011/08/17 11:11:56.0   0.8                          T                                        4740433
ROSF  002.62 306.6 m E Sn      2011/08/17 11:12:26.7   0.7                          T   001.0                                4737292
ROSF  002.62 306.6 m E Sg      2011/08/17 11:12:34.8  -1.3                          T   001.0         .8  .18 Ml 2.0         4737293
AVF   002.38 089.4 m E Pg      2011/08/17 11:11:57.8  -0.1                          T   001.0                                4737279
AVF   002.38 089.4 m E Sg      2011/08/17 11:12:28.6  -0.2                          T   001.0        1.0  .23 Ml 1.9         4737280
LFF   001.97 162.0 m E Sg      2011/08/17 11:12:15.2  -0.7                          T   001.0        1.8  .22 Ml 1.9         4737289
FLN   001.96 353.0 m E Sg      2011/08/17 11:12:15.5   0.0                          T   001.0        2.8  .20 Ml 2.2         4737283
QUIF  002.34 299.1 m E Sn      2011/08/17 11:12:18.7  -0.7                          T                                        4740435
QUIF  002.34 299.1 m E Sg      2011/08/17 11:12:26.1  -1.3                          T                1.4  .21 Ml 2.1         4740441
CAF   002.43 140.3 m E Sg      2011/08/17 11:12:30.2   0.0                          T                 .7  .15 Ml 2.0         4740436

.
EVENT     262626
    Date      Time       Latitude Longitude    Depth    Ndef Nsta Gap    Mag1  N    Mag2  N    Mag3  N   Author         ID
       rms   OT_Error      Smajor Sminor Az        Err   mdist  Mdist     Err        Err        Err      Quality

2011/08/17 18:21:35.3     42.9488   -3.0554      6.0 f   184   35 042  Ml 3.6 26  Md 3.6  3              js067245    262626

      0.85   +-  0.06       1.5    1.1  156.05 +-  0.0    0.40   8.98   +-0.3      +-0.1                 m i ke

SPAIN
Sta     Dist  EvAz     Phase      Date       Time     TRes  Azim  AzRes  Slow  SRes Def   SNR       Amp   Per   Mag1   Mag2       ID
SJPF  001.35 082.4 m E Pn      2011/08/17 18:21:59.0  -0.1                          T   001.0                                4737264
SJPF  001.35 082.4 m E Pg      2011/08/17 18:22:00.6   0.1                          T                                        4748023
SJPF  001.35 082.4 m E Sg      2011/08/17 18:22:17.7  -0.4                          T   001.0      583.6  .31 Ml 4.2 Md 3.5  4737265
ETSF  001.83 090.7 m E Pn      2011/08/17 18:22:06.8   1.1                          T   001.0                                4737256
ETSF  001.83 090.7 m E Pg      2011/08/17 18:22:09.5   0.0                          T                                        4748022
ETSF  001.83 090.7 m E Sn      2011/08/17 18:22:27.8   0.0                          T   001.0                                4737257
ETSF  001.83 090.7 m E Sg      2011/08/17 18:22:33.0  -0.2                          T   001.0      437.3  .48 Ml 4.1 Md 3.6  4737258
EPF   002.49 087.0 m E P       2011/08/17 18:22:16.2  -1.0                          T   001.0                                4737237
EPF   002.49 087.0 m E Pg      2011/08/17 18:22:21.7   0.1                          T                                        4748021
EPF   002.49 087.0 m E Sn      2011/08/17 18:22:43.4  -0.1                          T               67.1  .36 Ml 3.6         4737267
EPF   002.49 087.0 m E Sg      2011/08/17 18:22:53.9   0.2                          T               76.0  .34 Ml 3.7         4748024
LFF   003.39 052.7 m E Pn      2011/08/17 18:22:27.4   0.6                          T   001.0                                4737243
LFF   003.39 052.7 m E Sn      2011/08/17 18:23:04.9   0.0                          T   001.0       61.8  .34 Ml 3.6 Md 3.6  4737244
MTLF  003.88 082.4 m E Pn      2011/08/17 18:22:34.2   0.8                          T   001.0                                4737260
MTLF  003.88 082.4 m E Sn      2011/08/17 18:23:16.7   0.1                          T               17.6  .42 Ml 3.2         4737270
RJF   004.05 052.9 m E Pn      2011/08/17 18:22:35.7  -0.1                          T   001.0                                4737229
RJF   004.05 052.9 m E Sn      2011/08/17 18:23:20.0  -0.6                          T   001.0       33.7  .22 Ml 3.5         4737230
CAF   004.19 060.1 m E Pn      2011/08/17 18:22:37.6  -0.2                          T   001.0                                4737236
CAF   004.19 060.1 m E Sn      2011/08/17 18:23:24.4   0.2                          T               19.0  .24 Ml 3.6         4737271
MFF   004.20 028.6 m E Pn      2011/08/17 18:22:38.8   1.0                          T   001.0                                4737249
MFF   004.20 028.6 m E Sn      2011/08/17 18:23:24.4   0.1                          T   001.0        9.3  .27 Ml 3.4         4737250
QUIF  004.97 359.1 m E Pn      2011/08/17 18:22:48.5   0.2                          T   001.0                                4737262
QUIF  004.97 359.1 m E Sn      2011/08/17 18:23:41.9  -0.8                          T               11.1  .20 Ml 3.6         4737275
TCF   005.03 046.6 m E Pn      2011/08/17 18:22:48.7  -0.4                          T   001.0                                4737253
TCF   005.03 046.6 m E Sn      2011/08/17 18:23:43.7  -0.4                          T               11.7  .30 Ml 3.5         4738899
LASF  005.15 075.0 m E Pn      2011/08/17 18:22:51.2   0.4                          T   001.0                                4737241
LASF  005.15 075.0 m E Sn      2011/08/17 18:23:47.3   0.3                          T               15.7  .44 Ml 3.5         4737269
SGMF  005.32 003.6 m E Pn      2011/08/17 18:22:53.4   0.3                          T   001.0                                4737228
SGMF  005.32 003.6 m E Sn      2011/08/17 18:23:50.6  -0.4                          T                8.0  .23 Ml 3.5         4737276
ROSF  005.39 358.4 m E Pn      2011/08/17 18:22:54.5   0.5                          T   001.0                                4737263
ROSF  005.39 358.4 m E Sn      2011/08/17 18:23:51.7  -1.0                          T               12.1  .19 Ml 3.8         4737277
BGF   005.54 047.3 m E Pn      2011/08/17 18:22:56.1   0.1                          T   001.0                                4737234
BGF   005.54 047.3 m E Sn      2011/08/17 18:23:56.1  -0.2                          T   001.0       45.5  .34 Ml 4.1         4737235
GRR   005.65 015.0 m E Pn      2011/08/17 18:22:57.5  -0.1                          T   001.0                                4737240
GRR   005.65 015.0 m E Sn      2011/08/17 18:23:58.1  -0.9                          T               16.6  .28 Ml 3.6         4737272
HYF   005.91 041.0 m E Pn      2011/08/17 18:23:00.9  -0.2                          T                                        4738906
HYF   005.91 041.0 m E Sn      2011/08/17 18:24:05.3   0.2                          T                                        4748025
AVF   005.96 047.6 m E Pn      2011/08/17 18:23:01.5  -0.2                          T   001.0                                4737231
AVF   005.96 047.6 m E Sn      2011/08/17 18:24:06.2   0.0                          T   001.0        4.6  .30 Ml 3.3         4737232
VIVF  005.90 068.5 m E Pn      2011/08/17 18:23:01.5   0.5                          T   001.0                                4737266
VIVF  005.90 068.5 m E Sn      2011/08/17 18:24:05.1   0.2                          T                6.1  .28 Ml 3.4         4737268
LDF   006.01 018.9 m E Pn      2011/08/17 18:23:02.3  -0.1                          T   001.0                                4737242
LDF   006.01 018.9 m E Sn      2011/08/17 18:24:07.5   0.0                          T                3.4  .20 Ml 3.3         4737273
FLN   006.09 016.3 m E Pn      2011/08/17 18:23:03.0  -0.4 195.6  -2.5              T   001.0                                4737238
FLN   006.09 016.3 m E Sn      2011/08/17 18:24:07.2  -2.1                          T                6.1  .27 Ml 3.3         4737274
SMF   006.14 050.6 m E Pn      2011/08/17 18:23:04.1  -0.2                          T   001.0                                4737251
SMF   006.14 050.6 m E Sn      2011/08/17 18:24:10.7   0.0                          T                5.3  .30 Ml 3.4         4737278
SSF   006.21 046.3 m E Pn      2011/08/17 18:23:05.1  -0.1                          T   001.0                                4737252
SMRF  006.36 077.8 m E Pn      2011/08/17 18:23:08.5   1.1                          T                                        4738903
LOR   006.52 046.2 m E Pn      2011/08/17 18:23:09.1  -0.4 223.3  -7.8              T   001.0                                4737246
LOR   006.52 046.2 m E Sn      2011/08/17 18:24:19.4  -0.5                          T   001.0        5.0  .31 Ml 3.4         4737247
ORIF  006.75 070.0 m E Pn      2011/08/17 18:23:13.7   1.2                          T   001.0                                4737261
LMR   007.01 083.6 m E Pn      2011/08/17 18:23:17.0   1.0                          T   001.0                                4737245
FRF   007.11 081.8 m E Pn      2011/08/17 18:23:18.8   1.4                          T   001.0                                4737239
CABF  007.46 057.5 m E Pn      2011/08/17 18:23:21.6  -0.8                          T   001.0                                4737255
LPL   007.48 066.6 m E Pn      2011/08/17 18:23:24.3   1.5                          T   001.0                                4737248
LPG   007.49 066.8 m E Pn      2011/08/17 18:23:24.9   1.9                          T                                        4738904
SFTF  007.73 044.4 m E Pn      2011/08/17 18:23:26.0   0.1                          T                                        4738900
BAIF  008.70 032.6 m E Pn      2011/08/17 18:23:39.3   0.3                          T   001.0                                4737254
PGF   008.88 088.5 m E Pn      2011/08/17 18:23:41.6  -0.1                          T                                        4738902
GIVF  008.98 034.4 m E Pn      2011/08/17 18:23:43.5   0.6                          T   001.0                                4737259
HAU   008.32 049.3 m E Sn      2011/08/17 18:25:02.2  -0.5                          T                5.6  .21 Ml 3.7         4738898

.
EVENT     262628
    Date      Time       Latitude Longitude    Depth    Ndef Nsta Gap    Mag1  N    Mag2  N    Mag3  N   Author         ID
       rms   OT_Error      Smajor Sminor Az        Err   mdist  Mdist     Err        Err        Err      Quality

2011/08/18 01:17:24.1     45.0006   17.0274      2.0     102   12 059  Ml 3.5  8                         js067245    262628

      1.25   +-  0.12       4.1    2.6   36.14 +-  0.0    0.28   9.42   +-0.2                            m i ke

NORTHWESTERN BALKAN PEN.
Sta     Dist  EvAz     Phase      Date       Time     TRes  Azim  AzRes  Slow  SRes Def   SNR       Amp   Per   Mag1   Mag2       ID
PGF   006.31 249.9 m E Pn      2011/08/18 01:18:56.9   1.0                          T                                        4738974
HINF  007.58 295.4 m E Pn      2011/08/18 01:19:13.2   0.1                          T                                        4738966
FRF   007.59 262.7 m E Pn      2011/08/18 01:19:14.3   1.1                          T                                        4738973
FRF   007.59 262.7 m E Sn      2011/08/18 01:20:35.5   0.7                          T                4.8  .44 Ml 3.4         4738965
LPG   007.27 277.5 m E P       2011/08/18 01:19:14.5   0.1                          T                                        4738970
LPG   007.27 277.5 m E S       2011/08/18 01:20:38.8   0.2                          T                                        4738980
LPL   007.28 277.7 m E P       2011/08/18 01:19:15.1   0.6                          T                                        4738969
LPL   007.28 277.7 m E Sn      2011/08/18 01:20:27.4  -0.4                          T                9.0  .57 Ml 3.5         4738979
LMR   007.74 261.3 m E Pn      2011/08/18 01:19:16.4   1.1                          T                                        4738972
LMR   007.74 261.3 m E Sn      2011/08/18 01:20:38.8   0.3                          T                2.8  .40 Ml 3.2         4738964
HAU   007.96 296.0 m E P       2011/08/18 01:19:22.3  -1.4                          T                                        4738960
HAU   007.96 296.0 m E Sn      2011/08/18 01:20:43.7   0.1                          T                3.4  .38 Ml 3.1         4738978
SMRF  008.25 266.9 m E Pn      2011/08/18 01:19:22.8   0.5                          T                                        4738971
ORIF  007.91 273.3 m E P       2011/08/18 01:19:23.0   0.0                          T                                        4738968
ORIF  007.91 273.3 m E Sn      2011/08/18 01:20:44.9   2.4                          T                9.3  .52 Ml 3.7         4738963
LOR   009.42 288.6 m E Pn      2011/08/18 01:19:38.0  -0.2                          T                                        4738967
SBF   006.96 264.0 m E Sn      2011/08/18 01:20:20.3   0.4                          T                5.6  .31 Ml 3.5         4738962
MBDF  007.29 271.5 m E Sn      2011/08/18 01:20:26.9  -1.0                          T               10.5  .55 Ml 3.6         4738961

.
