EVENT     263116
    Date      Time       Latitude Longitude    Depth    Ndef Nsta Gap    Mag1  N    Mag2  N    Mag3  N   Author         ID
       rms   OT_Error      Smajor Sminor Az        Err   mdist  Mdist     Err        Err        Err      Quality

2011/08/26 00:15:35.1     50.2351   12.4671     10.0      62   19 046  Ml 3.3 16                         js067245    263116

      0.58   +-  0.08       2.0    1.4  136.86 +-  0.0    0.01   9.84   +-0.2                            m i ke

GERMANY
Sta     Dist  EvAz     Phase      Date       Time     TRes  Azim  AzRes  Slow  SRes Def   SNR       Amp   Per   Mag1   Mag2       ID
RUP   003.53 263.4 m E P       2011/08/26 00:16:30.2  -1.2                          T                                        4741700
RUP   003.53 263.4 m E Sg      2011/08/26 00:17:25.6  -0.3                          T                                        4741698
CDF   003.85 243.7 m E Pn      2011/08/26 00:16:32.0  -0.5                          T                                        4741701
CDF   003.85 243.7 m E Pg      2011/08/26 00:16:45.8  -0.7                          T                                        4741686
CDF   003.85 243.7 m E Sn      2011/08/26 00:17:15.0  -0.3                          T                                        4741670
CDF   003.85 243.7 m E Sg      2011/08/26 00:17:36.2   0.2                          T               17.4  .49 Ml 3.3         4741697
HINF  004.42 238.9 m E Pn      2011/08/26 00:16:39.8  -0.4                          T                                        4741672
HINF  004.42 238.9 m E Pg      2011/08/26 00:16:56.4  -0.4                          T                                        4741684
HINF  004.42 238.9 m E Sg      2011/08/26 00:17:53.6   0.2                          T               15.3  .43 Ml 3.3         4741691
HAU   004.60 243.3 m E Pn      2011/08/26 00:16:43.1   0.5                          T                                        4741671
HAU   004.60 243.3 m E Pg      2011/08/26 00:16:59.5  -0.6                          T                                        4741685
HAU   004.60 243.3 m E Sg      2011/08/26 00:17:59.8   0.7                          T               14.9  .38 Ml 3.2         4741692
CABF  005.58 231.9 m E Pg      2011/08/26 00:17:19.5   1.1                          T                                        4741683
CABF  005.58 231.9 m E Sg      2011/08/26 00:18:31.9   1.9                          T               14.4  .65 Ml 3.3         4741690
LPL   006.10 221.4 m E Pg      2011/08/26 00:17:27.6  -0.4                          T                                        4741679
LPG   006.10 221.2 m E Pg      2011/08/26 00:17:29.0   0.8                          T                                        4741678
LOR   006.42 245.7 m E Pg      2011/08/26 00:17:33.9   0.2                          T                                        4741699
LOR   006.42 245.7 m E Sg      2011/08/26 00:18:57.4   1.4                          T                7.5  .49 Ml 3.4         4741676
SMF   006.77 241.3 m E Pg      2011/08/26 00:17:41.0   0.9                          T                                        4741681
SMF   006.77 241.3 m E Sg      2011/08/26 00:19:07.4   0.5                          T                8.1  .42 Ml 3.5         4741688
AVF   006.97 243.8 m E Pg      2011/08/26 00:17:42.7  -1.1                          T                                        4741682
AVF   006.97 243.8 m E Sg      2011/08/26 00:19:13.4   0.4                          T                9.6  .69 Ml 3.4         4741689
ORIF  006.94 222.4 m E Pg      2011/08/26 00:17:43.8   0.5                          T                                        4741680
BGF   007.38 243.8 m E Pg      2011/08/26 00:17:51.9   0.4                          T                                        4741673
BGF   007.38 243.8 m E Sg      2011/08/26 00:19:27.4   1.3                          T                9.6  .51 Ml 3.6         4741687
THEF  004.69 247.1 m E Sg      2011/08/26 00:18:02.9   0.8                          T               11.9  .37 Ml 3.3         4741693
PAGF  004.71 251.7 m E Sg      2011/08/26 00:18:03.6   0.9                          T                6.5  .74 Ml 2.8         4741677
GIVF  004.92 271.4 m E Sg      2011/08/26 00:18:08.9  -0.1                          T                6.5  .31 Ml 3.2         4741696
RJF   008.87 240.4 m E Pg      2011/08/26 00:18:19.0   0.1                          T                                        4741674
SFTF  005.27 250.2 m E Sg      2011/08/26 00:18:19.8  -0.4                          T               10.5  .50 Ml 3.3         4741694
BAIF  005.31 271.3 m E Sg      2011/08/26 00:18:20.2  -1.2                          T                7.7  .56 Ml 3.1         4741695
SSF   006.73 245.3 m E Sg      2011/08/26 00:19:07.3   1.6                          T                6.8  .52 Ml 3.4         4741675

.
EVENT     263117
    Date      Time       Latitude Longitude    Depth    Ndef Nsta Gap    Mag1  N    Mag2  N    Mag3  N   Author         ID
       rms   OT_Error      Smajor Sminor Az        Err   mdist  Mdist     Err        Err        Err      Quality

2011/08/26 00:35:02.4     50.2291   12.4737     10.0      59   14 046  Ml 3.0 12                         js067245    263117

      0.62   +-  0.08       2.0    1.6  139.09 +-  0.0    0.02   7.39   +-0.2                            m i ke

GERMANY
Sta     Dist  EvAz     Phase      Date       Time     TRes  Azim  AzRes  Slow  SRes Def   SNR       Amp   Per   Mag1   Mag2       ID
RUP   003.53 263.5 m E Pn      2011/08/26 00:35:57.9   2.4                          T                                        4741725
RUP   003.53 263.5 m E Pg      2011/08/26 00:36:07.9  -0.1                          T                                        4741724
RUP   003.53 263.5 m E Sg      2011/08/26 00:36:52.9  -0.5                          T                                        4741711
CDF   003.86 243.8 m E Pn      2011/08/26 00:36:01.5   1.5                          T                                        4741723
CDF   003.86 243.8 m E Pg      2011/08/26 00:36:15.5   1.6                          T                                        4741722
CDF   003.86 243.8 m E Sg      2011/08/26 00:37:04.1   0.7                          T                8.8  .41 Ml 3.1         4741710
HINF  004.42 239.0 m E Pn      2011/08/26 00:36:07.0  -0.5                          T                                        4741717
HINF  004.42 239.0 m E Sg      2011/08/26 00:37:20.3  -0.5                          T                9.0  .37 Ml 3.1         4741705
HAU   004.60 243.4 m E Pn      2011/08/26 00:36:10.3   0.4                          T                                        4741718
HAU   004.60 243.4 m E Sg      2011/08/26 00:37:27.3   0.9                          T               17.0  .49 Ml 3.1         4741706
PAGF  004.72 251.8 m E Pn      2011/08/26 00:36:13.6   2.1                          T                                        4741721
PAGF  004.72 251.8 m E Sg      2011/08/26 00:37:33.2   3.0                          T                4.0  .65 Ml 2.6         4741709
MEZF  005.15 253.2 m E Pn      2011/08/26 00:36:17.6   0.2                          T                                        4741720
MEZF  005.15 253.2 m E Sg      2011/08/26 00:37:44.9   1.3                          T               15.0  .70 Ml 3.2         4741708
SFTF  005.28 250.3 m E Pn      2011/08/26 00:36:19.5   0.3                          T                                        4741719
SFTF  005.28 250.3 m E Sg      2011/08/26 00:37:47.1  -0.5                          T                3.7  .33 Ml 3.0         4741707
CABF  005.58 232.0 m E Pn      2011/08/26 00:36:23.1  -0.4                          T                                        4741716
LOR   006.42 245.8 m E Pn      2011/08/26 00:36:35.7   0.9                          T                                        4741729
LOR   006.42 245.8 m E Pg      2011/08/26 00:37:01.3   0.2                          T                                        4741728
LOR   006.42 245.8 m E Sg      2011/08/26 00:38:24.4   1.0                          T                3.1  .34 Ml 3.1         4741715
SSF   006.73 245.4 m E Pn      2011/08/26 00:36:40.3   1.3                          T                                        4741727
SSF   006.73 245.4 m E Pg      2011/08/26 00:37:07.3   0.5                          T                                        4741726
SSF   006.73 245.4 m E Sg      2011/08/26 00:38:33.6   0.5                          T                2.1  .39 Ml 3.0         4741714
GIVF  004.92 271.5 m E Sg      2011/08/26 00:37:34.5  -2.0                          T                5.1  .29 Ml 3.1         4741713
BAIF  005.32 271.3 m E Sg      2011/08/26 00:37:47.9  -1.0                          T                5.7  .40 Ml 3.1         4741712
AVF   006.97 243.9 m E Sg      2011/08/26 00:38:41.2   0.9                          T                                        4741704
BGF   007.39 243.9 m E Sg      2011/08/26 00:38:55.1   1.7                          T                5.8  .46 Ml 3.4         4741703

.
EVENT     263118
    Date      Time       Latitude Longitude    Depth    Ndef Nsta Gap    Mag1  N    Mag2  N    Mag3  N   Author         ID
       rms   OT_Error      Smajor Sminor Az        Err   mdist  Mdist     Err        Err        Err      Quality

2011/08/26 00:55:57.2     50.2316   12.4291     10.0 f    26    9 051  Ml 2.7  5                         js067245    263118

      0.46   +-  0.13       3.6    2.5  157.54 +-  0.0    0.01   6.94   +-0.2                            m i ke

GERMANY
Sta     Dist  EvAz     Phase      Date       Time     TRes  Azim  AzRes  Slow  SRes Def   SNR       Amp   Per   Mag1   Mag2       ID
CDF   003.83 243.6 m E Pn      2011/08/26 00:56:54.5   0.0                          T                                        4741735
CDF   003.83 243.6 m E Pg      2011/08/26 00:57:07.2  -1.1                          T                                        4741736
CDF   003.83 243.6 m E Sg      2011/08/26 00:57:58.5   1.0                          T                4.9  .31 Ml 2.9         4741740
HAU   004.57 243.2 m E Pg      2011/08/26 00:57:21.9   0.0                          T                                        4741737
HAU   004.57 243.2 m E Sg      2011/08/26 00:58:20.2  -0.3                          T                2.6  .26 Ml 2.6         4741739
RUP   003.51 263.4 m E Sg      2011/08/26 00:57:47.9   0.6                          T                                        4741741
LOR   006.40 245.7 m E Pg      2011/08/26 00:57:55.7   0.3                          T                                        4741730
SMF   006.75 241.1 m E Pg      2011/08/26 00:58:02.1   0.2                          T                                        4741731
AVF   006.94 243.7 m E Pg      2011/08/26 00:58:05.5   0.0                          T                                        4741732
HINF  004.39 238.8 m E Sg      2011/08/26 00:58:15.6   0.7                          T                4.5  .34 Ml 2.9         4741738
THEF  004.67 247.0 m E Sg      2011/08/26 00:58:23.7   0.2                          T                2.8  .30 Ml 2.8         4741734
MEZF  005.12 253.1 m E Sg      2011/08/26 00:58:37.3  -0.3                          T                1.3  .27 Ml 2.6         4741733

.
EVENT     263119
    Date      Time       Latitude Longitude    Depth    Ndef Nsta Gap    Mag1  N    Mag2  N    Mag3  N   Author         ID
       rms   OT_Error      Smajor Sminor Az        Err   mdist  Mdist     Err        Err        Err      Quality

2011/08/26 01:45:27.3     50.2286   12.4661     10.0 f    57   16 046  Ml 3.0 15                         js067245    263119

      0.64   +-  0.11       2.6    1.8  129.50 +-  0.0    0.01   9.84   +-0.2                            m i ke

GERMANY
Sta     Dist  EvAz     Phase      Date       Time     TRes  Azim  AzRes  Slow  SRes Def   SNR       Amp   Per   Mag1   Mag2       ID
RUP   003.53 263.5 m E Pn      2011/08/26 01:46:22.7   2.3                          T                                        4741771
RUP   003.53 263.5 m E Pg      2011/08/26 01:46:33.6   0.9                          T                                        4741766
RUP   003.53 263.5 m E Sg      2011/08/26 01:47:17.8  -0.3                          T                                        4741765
CDF   003.85 243.8 m E Pn      2011/08/26 01:46:26.5   1.7                          T                                        4741770
CDF   003.85 243.8 m E Pg      2011/08/26 01:46:40.0   1.3                          T                                        4741767
CDF   003.85 243.8 m E Sg      2011/08/26 01:47:28.4   0.2                          T                8.9  .32 Ml 3.2         4741764
HINF  004.41 239.0 m E Pn      2011/08/26 01:46:31.9  -0.4                          T                                        4741768
HINF  004.41 239.0 m E Sg      2011/08/26 01:47:45.5  -0.1                          T                7.2  .30 Ml 3.1         4741757
HAU   004.59 243.4 m E Pn      2011/08/26 01:46:36.3   1.5                          T                                        4741769
HAU   004.59 243.4 m E Pg      2011/08/26 01:46:52.0  -0.3                          T                                        4741745
HAU   004.59 243.4 m E Sg      2011/08/26 01:47:52.0   0.7                          T                8.1  .31 Ml 3.0         4741758
PAGF  004.71 251.8 m E Pn      2011/08/26 01:46:37.8   1.5                          T                                        4741755
PAGF  004.71 251.8 m E Sg      2011/08/26 01:47:55.2   0.4                          T                2.1  .48 Ml 2.4         4741754
LOR   006.42 245.8 m E Pn      2011/08/26 01:47:00.9   1.3                          T                                        4741772
LOR   006.42 245.8 m E Pg      2011/08/26 01:47:25.7  -0.2                          T                                        4741744
LOR   006.42 245.8 m E Sg      2011/08/26 01:48:49.2   1.0                          T                1.9  .27 Ml 3.0         4741763
SSF   006.73 245.3 m E Pn      2011/08/26 01:47:04.1   0.3                          T                                        4741756
SSF   006.73 245.3 m E Sg      2011/08/26 01:48:58.6   0.7                          T                1.4  .28 Ml 3.0         4741762
SMF   006.76 241.3 m E Pg      2011/08/26 01:47:32.7   0.4                          T                                        4741751
SMF   006.76 241.3 m E Sg      2011/08/26 01:48:59.1   0.1                          T                3.0  .33 Ml 3.2         4741749
BGF   007.38 243.8 m E Pg      2011/08/26 01:47:44.2   0.5                          T                                        4741750
BGF   007.38 243.8 m E Sg      2011/08/26 01:49:16.7  -1.5                          T                4.8  .46 Ml 3.3         4741747
THEF  004.69 247.2 m E Sg      2011/08/26 01:47:54.3   0.1                          T                8.9  .33 Ml 3.2         4741753
GIVF  004.91 271.5 m E Sg      2011/08/26 01:48:00.1  -1.2                          T                3.2  .19 Ml 3.1         4741761
MEZF  005.14 253.2 m E Sg      2011/08/26 01:48:08.5   0.1                          T                1.9  .31 Ml 2.7         4741746
BAIF  005.31 271.3 m E Sg      2011/08/26 01:48:12.6  -1.1                          T                4.6  .45 Ml 2.9         4741760
SFTF  005.27 250.3 m E Sg      2011/08/26 01:48:12.7   0.3                          T                3.8  .31 Ml 3.0         4741759
CABF  005.58 232.0 m E Sg      2011/08/26 01:48:21.9  -0.2                          T                9.6  .68 Ml 3.1         4741752
AVF   006.96 243.9 m E Sg      2011/08/26 01:49:04.5  -0.6                          T                                        4741748

.
