BEGIN GSE2.0
MSG_TYPE DATA
MSG_ID 10-FEB-1109:52:59  FRA_NDC
E-MAIL
DATA_TYPE BULLETIN
Reviewed Bulletin (REB) # P2011-005  from French NDC for regional phases     PERIOD 02 FEB 2011 TO 08 FEB 2011 C M., J-P S
EVENT     255506
    Date      Time       Latitude Longitude    Depth    Ndef Nsta Gap    Mag1  N    Mag2  N    Mag3  N   Author         ID
       rms   OT_Error      Smajor Sminor Az        Err   mdist  Mdist     Err        Err        Err      Quality

2011/02/02 04:09:25.3     46.0145     .9871      2.0      16    7 117  Ml 1.8  7  Md 1.8  3              js067245    255526

      0.33   +-  0.03        .7     .6   38.72 +-  0.0    0.80   1.69   +-0.2      +-0.2                 m i ke

FRANCE
Sta     Dist  EvAz     Phase      Date       Time     TRes  Azim  AzRes  Slow  SRes Def   SNR       Amp   Per   Mag1   Mag2       ID
RJF   000.80 152.2 m E Pg      2011/02/02 04:09:40.4   0.0                          T                                        4641642
RJF   000.80 152.2 m E Sg      2011/02/02 04:09:50.7  -0.2                          T                3.4  .20        Md 2.1  4641646
TCF   000.89 071.7 m E Pg      2011/02/02 04:09:42.1  -0.1                          T                                        4641638
TCF   000.89 071.7 m E Sg      2011/02/02 04:09:53.5  -0.3                          T                3.3  .33 Ml 1.8 Md 1.7  4641653
MFF   000.98 307.2 m E Pg      2011/02/02 04:09:43.7  -0.1                          T                                        4641641
MFF   000.98 307.2 m E Sg      2011/02/02 04:09:56.3  -0.1                          T                1.6  .25 Ml 1.8 Md 1.6  4641645
LFF   001.09 189.3 m E Pg      2011/02/02 04:09:45.7   0.0                          T                                        4641650
LFF   001.09 189.3 m E Sg      2011/02/02 04:09:59.7  -0.1                          T                7.6  .54 Ml 1.8         4641644
CAF   001.33 144.8 m E Pg      2011/02/02 04:09:50.2   0.0                          T                                        4641640
CAF   001.33 144.8 m E Sg      2011/02/02 04:10:07.2   0.0                          T                1.6  .34 Ml 1.6         4641643
BGF   001.40 066.5 m E Pg      2011/02/02 04:09:51.6   0.2                          T                                        4641639
BGF   001.40 066.5 m E Sg      2011/02/02 04:10:09.5   0.0                          T                6.2  .44 Ml 2.1         4641648
HYF   001.69 041.6 m E Pg      2011/02/02 04:09:56.8  -0.1                          T                                        4641651
HYF   001.69 041.6 m E Sg      2011/02/02 04:10:18.7   0.0                          T                                        4641647

.
EVENT     255560
    Date      Time       Latitude Longitude    Depth    Ndef Nsta Gap    Mag1  N    Mag2  N    Mag3  N   Author         ID
       rms   OT_Error      Smajor Sminor Az        Err   mdist  Mdist     Err        Err        Err      Quality

2011/02/02 17:23:46.1     51.4986    6.5766      1.0 f   139   33 115  Ml 3.6 36  Md 3.6  2              js067245    255580

      0.91   +-  0.12       2.3    1.7  153.59 +-  0.0    0.30   7.63   +-0.3      +-0.3                 m i sr

GERMANY
Sta     Dist  EvAz     Phase      Date       Time     TRes  Azim  AzRes  Slow  SRes Def   SNR       Amp   Per   Mag1   Mag2       ID
GIVF  001.79 219.2 m E Pn      2011/02/02 17:24:16.9   0.6                          T                                        4642277
GIVF  001.79 219.2 m E Pg      2011/02/02 17:24:19.3   0.0                          T                                        4642315
GIVF  001.79 219.2 m E Sg      2011/02/02 17:24:42.1  -0.3                          T              300.8  .40 Ml 4.0 Md 3.4  4642235
RUP   001.83 170.1 m E Pn      2011/02/02 17:24:17.3   0.3                          T                                        4642279
RUP   001.83 170.1 m E Pg      2011/02/02 17:24:19.7  -0.5                          T                                        4642313
RUP   001.83 170.1 m E Sg      2011/02/02 17:24:44.1   0.4                          T                                Md 3.8  4642237
BAIF  002.08 227.1 m E Pn      2011/02/02 17:24:20.9   0.6                          T                                        4642278
BAIF  002.08 227.1 m E Pg      2011/02/02 17:24:25.4   0.6                          T                                        4642314
BAIF  002.08 227.1 m E Sg      2011/02/02 17:24:51.1  -0.5                          T               92.4  .43 Ml 3.6         4642236
LANF  002.64 162.2 m E Pn      2011/02/02 17:24:27.9  -0.2                          T                                        4642280
LANF  002.64 162.2 m E Pg      2011/02/02 17:24:34.7  -0.4                          T                                        4642312
LANF  002.64 162.2 m E Sg      2011/02/02 17:25:08.3  -0.8                          T              101.3  .47 Ml 3.7         4642238
PAGF  003.00 190.9 m E Pn      2011/02/02 17:24:31.9  -0.9                          T                                        4642282
PAGF  003.00 190.9 m E Pg      2011/02/02 17:24:41.2  -0.5  19.9  9.7               T                                        4642310
PAGF  003.00 190.9 m E Sg      2011/02/02 17:25:20.0  -0.2  14.8  4.5               T               31.1  .59 Ml 3.1         4642240
MEZF  003.16 198.7 m E Pn      2011/02/02 17:24:34.5  -0.5  21.5  3.9               T                                        4642283
MEZF  003.16 198.7 m E Pg      2011/02/02 17:24:44.7   0.1  13.4  -4.2              T                                        4642221
MEZF  003.16 198.7 m E Sg      2011/02/02 17:25:25.5   0.4  15.5  -2.1              T               83.7  .44 Ml 3.7         4642216
CDF   003.12 171.4 m E Pn      2011/02/02 17:24:35.2   0.6                          T                                        4642281
CDF   003.12 171.4 m E Pg      2011/02/02 17:24:43.9  -0.2                          T                                        4642311
CDF   003.12 171.4 m E Sg      2011/02/02 17:25:23.4  -0.8                          T               35.0  .46 Ml 3.4         4642239
THEF  003.30 186.8 m E Pn      2011/02/02 17:24:35.9  -1.0                          T                                        4642285
THEF  003.30 186.8 m E Pg      2011/02/02 17:24:47.1  -0.1                          T                                        4642219
THEF  003.30 186.8 m E Sg      2011/02/02 17:25:28.9  -0.6                          T              101.3  .65 Ml 3.7         4642214
SFTF  003.44 197.4 m E Pn      2011/02/02 17:24:37.9  -1.0                          T                                        4642284
SFTF  003.44 197.4 m E Pg      2011/02/02 17:24:49.4  -0.5  12.9  -3.3              T                                        4642220
SFTF  003.44 197.4 m E Sg      2011/02/02 17:25:34.2   0.1                          T               52.5  .40 Ml 3.6         4642215
HAU   003.50 182.5 m E Pn      2011/02/02 17:24:38.5  -1.2                          T                                        4642286
HAU   003.50 182.5 m E Pg      2011/02/02 17:24:51.1   0.1                          T                                        4642218
HAU   003.50 182.5 m E Sg      2011/02/02 17:25:35.7  -0.2                          T               47.4  .40 Ml 3.4         4642213
HINF  003.69 177.1 m E Pn      2011/02/02 17:24:41.6  -0.8                          T                                        4642287
HINF  003.69 177.1 m E Pg      2011/02/02 17:24:54.7   0.2                          T                                        4642217
HINF  003.69 177.1 m E Sg      2011/02/02 17:25:41.4  -0.4                          T               43.6  .60 Ml 3.4         4642241
LOR   004.59 203.8 m E Pn      2011/02/02 17:24:54.7   0.2  41.2  19.5              T                                        4642275
LOR   004.59 203.8 m E Sn      2011/02/02 17:25:44.2  -1.2                          T                                        4642274
LOR   004.59 203.8 m E Sg      2011/02/02 17:26:10.3   0.4  20.1  -1.7              T               26.4  .34 Ml 3.7         4642232
SSF   004.87 205.5 m E Pn      2011/02/02 17:24:58.8   0.4                          T                                        4642276
SSF   004.87 205.5 m E Sn      2011/02/02 17:25:51.3  -0.9                          T                                        4642273
SSF   004.87 205.5 m E Sg      2011/02/02 17:26:19.3   0.5                          T               69.6  .64 Ml 4.0         4642233
HYF   004.95 212.8 m E Pn      2011/02/02 17:24:59.0  -0.5                          T                                        4642290
HYF   004.95 212.8 m E Sn      2011/02/02 17:25:53.4  -0.6                          T                                        4642269
HYF   004.95 212.8 m E Sg      2011/02/02 17:26:21.7   0.5                          T                                        4642244
CABF  004.90 183.9 m E Pn      2011/02/02 17:24:59.1   0.2                          T                                        4642288
CABF  004.90 183.9 m E Pg      2011/02/02 17:25:16.6  -0.3                          T                                        4642309
CABF  004.90 183.9 m E Sg      2011/02/02 17:26:19.5  -0.2                          T               58.4  .74 Ml 3.7         4642242
LDF   005.20 238.6 m E Pn      2011/02/02 17:25:02.5  -0.3                          T                                        4642297
LDF   005.20 238.6 m E Sn      2011/02/02 17:25:59.7  -0.3                          T                                        4642267
LDF   005.20 238.6 m E Sg      2011/02/02 17:26:30.2   1.2                          T               40.0  .82 Ml 3.6         4642251
SMF   005.18 201.4 m E Pn      2011/02/02 17:25:02.9   0.3                          T                                        4642289
SMF   005.18 201.4 m E Pg      2011/02/02 17:25:22.4   0.5                          T                                        4642308
SMF   005.18 201.4 m E Sg      2011/02/02 17:26:28.9   0.6                          T                 10  .16 Ml 3.7         4642243
FLN   005.30 241.6 m E Pn      2011/02/02 17:25:04.0  -0.2  57.7  1.4               T                                        4642296
FLN   005.30 241.6 m E Sn      2011/02/02 17:26:02.9   0.6                          T                                        4642268
FLN   005.30 241.6 m E Sg      2011/02/02 17:26:33.3   1.3                          T               25.7  .46 Ml 3.5         4642250
BGF   005.52 207.8 m E Pn      2011/02/02 17:25:07.4   0.2                          T                                        4642291
BGF   005.52 207.8 m E Sn      2011/02/02 17:26:07.5  -0.1                          T                                        4642270
BGF   005.52 207.8 m E Sg      2011/02/02 17:26:39.4   0.5                          T               71.6  .52 Ml 4.1         4642245
GRR   005.72 239.9 m E Pn      2011/02/02 17:25:09.2  -0.7                          T                                        4642298
GRR   005.72 239.9 m E Sn      2011/02/02 17:26:10.9  -1.5                          T                                        4642266
GRR   005.72 239.9 m E Sg      2011/02/02 17:26:46.0   0.9                          T                5.1  .29 Ml 3.1         4642252
LPL   005.99 179.0 m E Pn      2011/02/02 17:25:12.6  -1.2                          T                                        4642306
LPL   005.99 179.0 m E Sg      2011/02/02 17:26:53.3  -0.5                          T                8.7  .89 Ml 3.1         4642260
LPG   006.01 178.8 m E Pn      2011/02/02 17:25:13.2  -0.9                          T                                        4642307
LPG   006.01 178.8 m E Sg      2011/02/02 17:26:53.8  -0.7                          T               12.0  .98 Ml 3.2         4642261
TCF   005.96 210.6 m E Pn      2011/02/02 17:25:13.6   0.4                          T                                        4642271
TCF   005.96 210.6 m E Sn      2011/02/02 17:26:16.5  -1.5                          T                                        4642272
TCF   005.96 210.6 m E Sg      2011/02/02 17:26:52.9   0.3                          T               31.1  .78 Ml 3.7         4642234
ORIF  006.60 184.3 m E Pn      2011/02/02 17:25:20.8  -1.2                          T                                        4642305
ORIF  006.60 184.3 m E Sg      2011/02/02 17:27:12.3  -0.5                          T               83.9 1.48 Ml 3.9         4642259
MFF   006.60 224.6 m E Pn      2011/02/02 17:25:21.0  -0.8                          T                                        4642299
MFF   006.60 224.6 m E Sn      2011/02/02 17:26:32.9  -0.3                          T                                        4642265
MFF   006.60 224.6 m E Sg      2011/02/02 17:27:13.4   0.9                          T               22.4  .84 Ml 3.8         4642253
VIVF  006.77 191.6 m E Pn      2011/02/02 17:25:23.2  -1.0                          T                                        4642303
VIVF  006.77 191.6 m E Sg      2011/02/02 17:27:17.6  -0.3                          T               39.9 1.18 Ml 3.7         4642257
MBDF  006.78 178.8 m E Pn      2011/02/02 17:25:23.3  -1.2                          T                                        4642304
MBDF  006.78 178.8 m E Sg      2011/02/02 17:27:18.1  -0.3                          T               33.8 1.38 Ml 3.6         4642258
SGMF  006.74 244.7 m E Pn      2011/02/02 17:25:23.5  -0.2                          T                                        4642294
SGMF  006.74 244.7 m E Sg      2011/02/02 17:27:18.1   1.2                          T               12.7  .61 Ml 3.5         4642248
RJF   007.05 210.5 m E Pn      2011/02/02 17:25:27.2  -0.9                          T                                        4642300
RJF   007.05 210.5 m E Sn      2011/02/02 17:26:43.0  -1.2                          T                                        4642264
RJF   007.05 210.5 m E Sg      2011/02/02 17:27:27.3   0.5                          T               39.2  .99 Ml 3.5         4642254
ROSF  007.10 247.4 m E Pn      2011/02/02 17:25:28.2  -0.5                          T                                        4642293
ROSF  007.10 247.4 m E Sg      2011/02/02 17:27:29.5   1.2                          T                4.1  .44 Ml 3.2         4642247
CAF   007.23 206.4 m E Pn      2011/02/02 17:25:29.9  -0.7                          T                                        4642302
CAF   007.23 206.4 m E Sn      2011/02/02 17:26:47.8  -0.8                          T                                        4642262
CAF   007.23 206.4 m E Sg      2011/02/02 17:27:32.8   0.4                          T               20.0  .72 Ml 3.7         4642256
QUIF  007.26 244.2 m E Pn      2011/02/02 17:25:30.4  -0.5                          T                                        4642295
QUIF  007.26 244.2 m E Sg      2011/02/02 17:27:34.6   1.3                          T               10.7  .52 Ml 3.6         4642249
LFF   007.63 212.9 m E Pn      2011/02/02 17:25:35.3  -0.6                          T                                        4642301
LFF   007.63 212.9 m E Sn      2011/02/02 17:26:57.5  -0.5                          T                                        4642263
LFF   007.63 212.9 m E Sg      2011/02/02 17:27:45.3   0.6                          T               32.3  .72 Ml 3.8         4642255

.
EVENT     255561
    Date      Time       Latitude Longitude    Depth    Ndef Nsta Gap    Mag1  N    Mag2  N    Mag3  N   Author         ID
       rms   OT_Error      Smajor Sminor Az        Err   mdist  Mdist     Err        Err        Err      Quality

2011/02/02 19:23:51.8     43.3072    3.6836      2.0      20    9 176  Ml 2.3  9  Md 2.2  3              js067245    255581

      0.62   +-  0.08       1.9    1.0  174.85 +-  0.0    0.78   2.53   +-0.2      +-0.0                 m i ke

NEAR SOUTH COAST OF FRANCE
Sta     Dist  EvAz     Phase      Date       Time     TRes  Azim  AzRes  Slow  SRes Def   SNR       Amp   Per   Mag1   Mag2       ID
LASF  000.78 009.2 m E Pg      2011/02/02 19:24:06.4   0.0                          T                                        4642335
LASF  000.78 009.2 m E Sg      2011/02/02 19:24:16.4  -0.3                          T                9.9  .20        Md 2.2  4642332
MTLF  001.07 272.3 m E Pg      2011/02/02 19:24:11.6  -0.2                          T                                        4642334
MTLF  001.07 272.3 m E Sg      2011/02/02 19:24:26.2   0.5                          T                8.2  .22 Ml 2.4 Md 2.1  4642333
SMRF  001.53 063.4 m E Pg      2011/02/02 19:24:20.3   0.1                          T                                        4642325
SMRF  001.53 063.4 m E Sg      2011/02/02 19:24:40.1   0.1                          T                4.9  .36 Ml 2.2 Md 2.2  4642320
VIVF  001.70 024.4 m E Pg      2011/02/02 19:24:23.7   0.1                          T                                        4642330
VIVF  001.70 024.4 m E Sg      2011/02/02 19:24:44.9  -0.7                          T                4.8  .19 Ml 2.5         4642331
CAF   001.99 324.8 m E Pg      2011/02/02 19:24:28.9   0.1                          T                                        4642328
CAF   001.99 324.8 m E Sg      2011/02/02 19:24:54.6   0.0                          T                2.5  .21 Ml 2.3         4642319
LMR   002.06 088.3 m E Pg      2011/02/02 19:24:30.1   0.1                          T                                        4642323
LMR   002.06 088.3 m E Sg      2011/02/02 19:24:56.5  -0.1                          T                4.0  .33 Ml 2.3         4642322
FRF   002.17 082.3 m E Pg      2011/02/02 19:24:32.2   0.0                          T                                        4642324
FRF   002.17 082.3 m E Sg      2011/02/02 19:25:00.1   0.0                          T                2.6  .30 Ml 2.2         4642321
EPF   002.46 264.7 m E Pg      2011/02/02 19:24:37.5   0.0                          T                                        4642327
EPF   002.46 264.7 m E Sg      2011/02/02 19:25:09.1   0.0                          T                3.1  .31 Ml 2.3         4642329
RJF   002.53 322.8 m E Pg      2011/02/02 19:24:38.8   0.1                          T                                        4642326
RJF   002.53 322.8 m E Sg      2011/02/02 19:25:11.2  -0.1                          T                1.2  .15 Ml 1.9         4642318

.
