EVENT     284103
    Date      Time       Latitude Longitude    Depth    Ndef Nsta Gap    Mag1  N    Mag2  N    Mag3  N   Author         ID
       rms   OT_Error      Smajor Sminor Az        Err   mdist  Mdist     Err        Err        Err      Quality

2012/09/29 04:46:20.3     43.8806    5.8437      2.0      71   16 041  Ml 2.5 16  Md 2.4  3              bulletin    284204
                                                                                                         _ldg
      0.64   +-  0.06       1.3    1.1   14.02 +-  0.0    0.12   3.41   +-0.4      +-0.0                 m i ke

NEAR SOUTH COAST OF FRANCE
Sta     Dist  EvAz     Phase      Date       Time     TRes  Azim  AzRes  Slow  SRes Def   SNR       Amp   Per   Mag1   Mag2       ID
SMRF  000.22 296.3 m E Pg      2012/09/29 04:46:24.0  -0.7                          T                                        5081543
SMRF  000.22 296.3 m E Sg      2012/09/29 04:46:27.5  -0.1                          T              175.3  .22        Md 2.4  5081544
FRF   000.66 118.5 m E Pg      2012/09/29 04:46:32.6  -0.2                          T                                        5081542
FRF   000.66 118.5 m E Sg      2012/09/29 04:46:41.5  -0.1                          T               74.7  .20        Md 2.4  5081531
FRF   000.66 118.5 m E Sn      2012/09/29 04:46:45.3  -0.2                          T               79.0  .20                5082160
LMR   000.73 138.3 m E Pg      2012/09/29 04:46:33.6  -0.4                          T                                        5081541
LMR   000.73 138.3 m E Sg      2012/09/29 04:46:43.5   0.0                          T               55.6  .18        Md 2.4  5081532
MBDF  001.08 037.9 m E Pg      2012/09/29 04:46:40.5  -0.2                          T                                        5082164
MBDF  001.08 037.9 m E P       2012/09/29 04:46:42.1  -0.4                          T                                        5081539
MBDF  001.08 037.9 m E Sn      2012/09/29 04:46:55.5  -0.1                          T               35.4  .25 Ml 3.0         5081527
ORIF  001.04 001.4 m E Pn      2012/09/29 04:46:40.5   0.2                          T                                        5082165
ORIF  001.04 001.4 m E P       2012/09/29 04:46:41.7  -0.2                          T                                        5081540
ORIF  001.04 001.4 m E Sn      2012/09/29 04:46:54.5   0.0                          T               20.9  .36 Ml 2.6         5081528
SBF   001.15 090.3 m E Pg      2012/09/29 04:46:41.8  -0.1                          T                                        5081536
SBF   001.15 090.3 m E Sg      2012/09/29 04:46:56.9   0.1                          T               40.3  .20 Ml 3.2         5081535
VIVF  001.29 319.7 m E Pn      2012/09/29 04:46:43.1  -0.6                          T                                        5081538
VIVF  001.29 319.7 m E Sn      2012/09/29 04:47:00.1  -0.3                          T                2.8  .18 Ml 2.1         5081526
LASF  001.45 278.4 m E Pn      2012/09/29 04:46:44.8  -1.0                          T                                        5081537
LASF  001.45 278.4 m E Pg      2012/09/29 04:46:47.4   0.1                          T                                        5082163
LASF  001.45 278.4 m E Sg      2012/09/29 04:47:07.6   1.6                          T               14.8  .45 Ml 2.5         5081523
LPG   001.74 021.5 m E Pg      2012/09/29 04:46:53.0  -0.1                          T                                        5081529
LPG   001.74 021.5 m E Sg      2012/09/29 04:47:15.3  -0.2                          T               10.0  .40 Ml 2.5         5081525
LPL   001.75 020.9 m E Pg      2012/09/29 04:46:53.0  -0.2                          T                                        5081530
LPL   001.75 020.9 m E Sg      2012/09/29 04:47:15.3  -0.5                          T                9.9  .38 Ml 2.6         5081524
PGF   002.66 118.9 m E Pn      2012/09/29 04:47:02.0  -0.4                          T                                        5081534
PGF   002.66 118.9 m E Sn      2012/09/29 04:47:32.4  -1.0                          T                4.4  .20 Ml 2.9         5081533
MTLF  002.69 259.7 m E Pn      2012/09/29 04:47:02.8   0.1                          T                                        5082162
MTLF  002.69 259.7 m E Sg      2012/09/29 04:47:45.2   0.6                          T                3.6  .42 Ml 2.3         5082159
CAF   002.90 292.4 m E Pn      2012/09/29 04:47:05.9   0.3                          T                                        5082161
CAF   002.90 292.4 m E Sg      2012/09/29 04:47:51.5   0.1                          T                1.7  .24 Ml 2.3         5082158
SMF   003.11 333.6 m E Pn      2012/09/29 04:47:08.3  -0.1                          T                                        5082247
SMF   003.11 333.6 m E Sg      2012/09/29 04:47:57.3  -0.4                          T                1.1  .30 Ml 2.0         5082249
BGF   003.41 322.7 m E Pg      2012/09/29 04:47:23.5   0.0                          T                                        5082245
RJF   003.40 296.2 m E Sg      2012/09/29 04:48:07.1   0.1                          T                 .5  .17 Ml 1.6         5082166

.
EVENT     284104
    Date      Time       Latitude Longitude    Depth    Ndef Nsta Gap    Mag1  N    Mag2  N    Mag3  N   Author         ID
       rms   OT_Error      Smajor Sminor Az        Err   mdist  Mdist     Err        Err        Err      Quality

2012/09/29 12:26:49.9     50.0285   -5.1860      5.0 f    30   13 313  Ml 2.5  7                         bulletin    284205
                                                                                                         _ldg
      0.55   +-  0.23       4.4    4.0   44.09 +-  0.0    2.11   7.97   +-0.1                            m i ke

UNITED KINGDOM
Sta     Dist  EvAz     Phase      Date       Time     TRes  Azim  AzRes  Slow  SRes Def   SNR       Amp   Per   Mag1   Mag2       ID
ROSF  002.11 142.7 m E Pn      2012/09/29 12:27:24.3   0.2                          T                                        5081567
ROSF  002.11 142.7 m E Pg      2012/09/29 12:27:28.2  -0.9                          T                                        5081886
ROSF  002.11 142.7 m E Sn      2012/09/29 12:27:49.6   0.5                          T                6.0  .29 Ml 2.5         5081563
SGMF  002.48 134.8 m E Pn      2012/09/29 12:27:29.5   0.4                          T                                        5081566
SGMF  002.48 134.8 m E Pg      2012/09/29 12:27:34.9  -1.0                          T                                        5081885
SGMF  002.48 134.8 m E Sn      2012/09/29 12:27:58.0   0.1                          T                                        5081564
SGMF  002.48 134.8 m E Sg      2012/09/29 12:28:07.8   0.1                          T                2.9  .20 Ml 2.5         5082257
QUIF  002.50 147.0 m E Pn      2012/09/29 12:27:30.3   1.0                          T                                        5081565
QUIF  002.50 147.0 m E Pg      2012/09/29 12:27:36.1  -0.1                          T                                        5081884
QUIF  002.50 147.0 m E Sn      2012/09/29 12:27:59.3   0.8                          T                                        5081569
QUIF  002.50 147.0 m E Sg      2012/09/29 12:28:08.7   0.3                          T                2.8  .19 Ml 2.5         5082260
GRR   003.28 118.4 m E Pn      2012/09/29 12:27:40.4   0.4                          T                                        5081573
GRR   003.28 118.4 m E Sg      2012/09/29 12:28:32.4  -0.4                          T                2.6  .24 Ml 2.4         5082261
FLN   003.32 110.6 m E Pn      2012/09/29 12:27:41.0   0.3 294.0  -0.1              T                                        5081572
FLN   003.32 110.6 m E Pg      2012/09/29 12:27:52.0   0.5 296.4  2.3               T                                        5081883
FLN   003.32 110.6 m E Sg      2012/09/29 12:28:33.7  -0.5 298.9  4.7               T                2.5  .26 Ml 2.3         5082259
LDF   003.61 111.5 m E Pn      2012/09/29 12:27:44.6   0.0                          T                                        5081571
LDF   003.61 111.5 m E Sn      2012/09/29 12:28:25.0   0.0                          T                                        5081574
LDF   003.61 111.5 m E Sg      2012/09/29 12:28:43.7   0.5                          T                1.8  .25 Ml 2.4         5082258
MFF   004.80 133.6 m E Pn      2012/09/29 12:28:00.9   0.1                          T                                        5082265
TCF   006.20 124.3 m E Pn      2012/09/29 12:28:19.3  -0.6                          T                                        5081570
SSF   006.49 113.9 m E Pn      2012/09/29 12:28:23.5  -0.3                          T                                        5082266
LOR   006.60 111.3 m E Pn      2012/09/29 12:28:24.7  -0.5                          T                                        5082267
CAF   007.08 133.4 m E Pn      2012/09/29 12:28:31.9   0.1                          T                                        5082264
SJPF  007.44 157.0 m E Pn      2012/09/29 12:28:36.9   0.3                          T                                        5082263
EPF   007.97 149.4 m E Pn      2012/09/29 12:28:43.9   0.0                          T                                        5082262

.
EVENT     284105
    Date      Time       Latitude Longitude    Depth    Ndef Nsta Gap    Mag1  N    Mag2  N    Mag3  N   Author         ID
       rms   OT_Error      Smajor Sminor Az        Err   mdist  Mdist     Err        Err        Err      Quality

2012/09/29 21:06:33.0     44.7037    6.7938      2.0      87   22 025  Ml 2.3 17  Md 2.5  4              bulletin    284206
                                                                                                         _ldg
      0.65   +-  0.06       1.5    1.1   64.59 +-  0.0    0.03   3.92   +-0.4      +-0.1                 m i ke

FRANCE
Sta     Dist  EvAz     Phase      Date       Time     TRes  Azim  AzRes  Slow  SRes Def   SNR       Amp   Per   Mag1   Mag2       ID
MBDF  000.03 325.5 m E Pg      2012/09/29 21:06:33.8  -0.4                          T   001.0                                5081626
MBDF  000.03 325.5 m E Sg      2012/09/29 21:06:34.8   0.0                          T             2899.9  .18        Md 2.6  5081646
ORIF  000.68 288.6 m E Pg      2012/09/29 21:06:44.5  -1.5                          T   001.0                                5081629
ORIF  000.68 288.6 m E Sg      2012/09/29 21:06:52.6  -2.3                          T   001.0       53.7  .22        Md 2.5  5081630
LPG   000.79 357.8 m E Pg      2012/09/29 21:06:47.6  -0.7                          T   001.0                                5081613
LPG   000.79 357.8 m E Sg      2012/09/29 21:06:58.6   0.0                          T                8.5  .19        Md 2.4  5081645
LPL   000.81 357.0 m E Pg      2012/09/29 21:06:48.1  -0.4                          T   001.0                                5081615
LPL   000.81 357.0 m E Sg      2012/09/29 21:06:58.9  -0.3                          T   001.0       17.2  .32        Md 2.5  5081616
SBF   000.96 151.0 m E Pg      2012/09/29 21:06:51.2   0.2                          T   001.0                                5081619
SBF   000.96 151.0 m E Sg      2012/09/29 21:07:03.3  -0.2                          T   001.0       41.9  .27 Ml 3.0         5081620
FRF   001.15 185.3 m E Pg      2012/09/29 21:06:53.9  -0.5                          T   001.0                                5081607
FRF   001.15 185.3 m E Sg      2012/09/29 21:07:09.0  -0.3                          T   001.0       33.3  .22 Ml 3.1         5081608
SMRF  001.14 230.7 m E Pg      2012/09/29 21:06:54.3   0.0                          T   001.0                                5081633
SMRF  001.14 230.7 m E Sg      2012/09/29 21:07:08.7  -0.3                          T   001.0       27.2  .38 Ml 2.7         5081634
VIVF  001.52 276.5 m E Pn      2012/09/29 21:06:59.5   0.0                          T   001.0                                5081631
VIVF  001.52 276.5 m E Pg      2012/09/29 21:07:01.2  -0.1                          T                                        5082271
VIVF  001.52 276.5 m E Sg      2012/09/29 21:07:21.0   0.1                          T   001.0        5.1  .24 Ml 2.4         5081632
CABF  001.97 345.7 m E Pn      2012/09/29 21:07:06.2   0.4                          T   001.0                                5081624
CABF  001.97 345.7 m E Pg      2012/09/29 21:07:09.9   0.2                          T                                        5081638
CABF  001.97 345.7 m E Sg      2012/09/29 21:07:34.0  -0.1                          T   001.0         10  .76 Ml 2.3         5081625
LASF  002.20 254.4 m E Pn      2012/09/29 21:07:08.9   0.2                          T   001.0                                5081609
LASF  002.20 254.4 m E Pg      2012/09/29 21:07:13.9   0.1                          T   001.0                                5081610
LASF  002.20 254.4 m E Sn      2012/09/29 21:07:34.5  -0.4                          T   001.0        1.5  .20 Ml 2.1         5081611
PGF   002.68 142.6 m E Pn      2012/09/29 21:07:16.2   0.8                          T   001.0                                5081617
PGF   002.68 142.6 m E Sn      2012/09/29 21:07:46.8   0.2                          T   001.0        2.1  .23 Ml 2.6         5081618
SMF   002.84 314.2 m E Pn      2012/09/29 21:07:18.0   0.5                          T                                        5081642
SMF   002.84 314.2 m E Pg      2012/09/29 21:07:26.0   0.4                          T                                        5082268
SMF   002.84 314.2 m E Sn      2012/09/29 21:07:50.8   0.6                          T                1.6  .23 Ml 2.2         5081641
LOR   003.28 322.5 m E Pn      2012/09/29 21:07:23.1  -0.4                          T   001.0                                5081612
LOR   003.28 322.5 m E Sn      2012/09/29 21:08:01.2   0.4                          T                                        5081636
LOR   003.28 322.5 m E Sg      2012/09/29 21:08:15.7  -0.2                          T                 .9  .22 Ml 2.1         5081635
AVF   003.19 312.1 m E Pn      2012/09/29 21:07:23.3   1.2                          T   001.0                                5081603
AVF   003.19 312.1 m E Pg      2012/09/29 21:07:31.9  -0.1                          T                                        5081640
AVF   003.19 312.1 m E Sg      2012/09/29 21:08:11.9  -1.0                          T                 .6  .18 Ml 2.0         5081639
SSF   003.29 316.9 m E Pn      2012/09/29 21:07:24.1   0.5                          T   001.0                                5081621
SSF   003.29 316.9 m E Sn      2012/09/29 21:08:00.9  -0.1                          T                                        5081637
SSF   003.29 316.9 m E Sg      2012/09/29 21:08:15.7  -0.5                          T   001.0        2.2  .43 Ml 2.3         5081622
CAF   003.37 275.4 m E Pn      2012/09/29 21:07:24.8   0.1                          T                                        5081685
CAF   003.37 275.4 m E Sn      2012/09/29 21:08:02.7  -0.3                          T                 .3  .18 Ml 1.7         5081684
BGF   003.33 305.2 m E Pn      2012/09/29 21:07:25.2   1.1                          T   001.0                                5081604
BGF   003.33 305.2 m E Pg      2012/09/29 21:07:34.3  -0.4                          T                                        5081644
BGF   003.33 305.2 m E Sn      2012/09/29 21:08:02.4   0.4                          T               13.8  .55 Ml 2.9         5081643
MTLF  003.57 249.2 m E Pn      2012/09/29 21:07:28.0   0.6                          T   001.0                                5081627
MTLF  003.57 249.2 m E Sn      2012/09/29 21:08:07.6  -0.1                          T   001.0        4.2  .84 Ml 2.3         5081628
CDF   003.72 005.0 m E Pn      2012/09/29 21:07:28.3  -1.3                          T   001.0                                5081606
TCF   003.59 297.8 m E Pn      2012/09/29 21:07:28.5   0.8                          T   001.0                                5081623
RJF   003.79 281.0 m E Pn      2012/09/29 21:07:29.4  -1.0                          T                                        5081683
RJF   003.79 281.0 m E Sn      2012/09/29 21:08:12.6  -0.4                          T                 .4  .17 Ml 1.6         5081682
PAGF  003.92 349.6 m E Pn      2012/09/29 21:07:32.8   0.6                          T                                        5081687
PAGF  003.92 349.6 m E Sn      2012/09/29 21:08:15.4  -0.6                          T                 .4  .24 Ml 1.9         5081686

.
