EVENT     267532
    Date      Time       Latitude Longitude    Depth    Ndef Nsta Gap    Mag1  N    Mag2  N    Mag3  N   Author         ID
       rms   OT_Error      Smajor Sminor Az        Err   mdist  Mdist     Err        Err        Err      Quality

2011/12/17 20:11:11.8     43.0734    -.3142      2.0      51   11 081  Ml 2.6 12  Md 2.6  3              js067245    267552

      0.82   +-  0.08       1.5    1.4  129.63 +-  0.0    0.06   4.54   +-0.2      +-0.1                 m i ke

PYRENEES
Sta     Dist  EvAz     Phase      Date       Time     TRes  Azim  AzRes  Slow  SRes Def   SNR       Amp   Per   Mag1   Mag2       ID
EPF   000.48 094.9 m E Pg      2011/12/17 20:11:20.5  -0.6                          T                                        4801996
EPF   000.48 094.9 m E Sg      2011/12/17 20:11:26.9  -0.6                          T               24.3  .26        Md 2.6  4801995
MTLF  001.87 080.9 m E Pn      2011/12/17 20:11:43.3   0.2                          T                                        4802665
MTLF  001.87 080.9 m E Pg      2011/12/17 20:11:46.7   0.1                          T                                        4801993
MTLF  001.87 080.9 m E Sg      2011/12/17 20:12:11.8   1.1                          T                3.5  .20 Ml 2.4 Md 2.4  4801994
LFF   002.01 021.8 m E Pn      2011/12/17 20:11:44.8  -0.3                          T                                        4802667
LFF   002.01 021.8 m E Pg      2011/12/17 20:11:49.1  -0.1                          T                                        4801991
LFF   002.01 021.8 m E Sg      2011/12/17 20:12:16.2   1.0                          T               17.7  .32 Ml 2.8         4801990
CAF   002.52 042.0 m E Pn      2011/12/17 20:11:51.7  -0.4                          T                                        4802668
CAF   002.52 042.0 m E Pg      2011/12/17 20:11:58.6  -0.2                          T                                        4801992
CAF   002.52 042.0 m E Sg      2011/12/17 20:12:32.5   1.3                          T                7.1  .25 Ml 2.8         4801989
RJF   002.59 029.9 m E Pn      2011/12/17 20:11:52.5  -0.4                          T                                        4802666
RJF   002.59 029.9 m E Pg      2011/12/17 20:11:59.7  -0.2                          T                                        4801985
RJF   002.59 029.9 m E Sg      2011/12/17 20:12:32.6  -0.6                          T                4.3  .19 Ml 2.4 Md 2.7  4801988
LASF  003.19 070.3 m E Pn      2011/12/17 20:12:01.9   0.8                          T                                        4801997
LASF  003.19 070.3 m E Sg      2011/12/17 20:12:51.9  -0.1                          T                1.2  .20 Ml 2.2         4802003
MFF   003.53 001.9 m E Pg      2011/12/17 20:12:17.2   0.0                          T                                        4801986
MFF   003.53 001.9 m E Sg      2011/12/17 20:13:00.9  -1.7                          T                1.6  .23 Ml 2.5         4801987
TCF   003.68 028.4 m E Sg      2011/12/17 20:13:07.2  -0.1                          T                2.8  .26 Ml 2.7         4801999
VIVF  004.02 062.0 m E Sg      2011/12/17 20:13:17.4  -0.3                          T                1.7  .28 Ml 2.4         4801998
BGF   004.15 031.7 m E Sg      2011/12/17 20:13:21.7  -0.1                          T                6.3  .31 Ml 3.0         4802001
AVF   004.54 033.7 m E Sg      2011/12/17 20:13:34.5   0.6                          T                 .9  .27 Ml 2.3         4802000

.
EVENT     267534
    Date      Time       Latitude Longitude    Depth    Ndef Nsta Gap    Mag1  N    Mag2  N    Mag3  N   Author         ID
       rms   OT_Error      Smajor Sminor Az        Err   mdist  Mdist     Err        Err        Err      Quality

2011/12/18 06:09:02.3     45.2700     .7922      4.0 f    31   16 137  Ml 2.3 16  Md 2.3  5              js067245    267554

      0.62   +-  0.11       1.8    1.4   61.79 +-  0.0    0.33   3.77   +-0.2      +-0.2                 m i ke

FRANCE
Sta     Dist  EvAz     Phase      Date       Time     TRes  Azim  AzRes  Slow  SRes Def   SNR       Amp   Per   Mag1   Mag2       ID
LFF   000.33 186.4 m E Pg      2011/12/18 06:09:08.7  -0.1                          T   001.0                                4801588
LFF   000.33 186.4 m E Sg      2011/12/18 06:09:14.0   0.7                          T   001.0       38.1  .28        Md 2.2  4801589
RJF   000.51 085.9 m E Pg      2011/12/18 06:09:11.8  -0.3                          T   001.0                        Md 2.2  4801576
RJF   000.51 085.9 m E Pn      2011/12/18 06:09:14.0  -0.2                          T                                        4802036
RJF   000.51 085.9 m E Sg      2011/12/18 06:09:18.4  -0.5                          T   001.0        7.0  .18        Md 2.3  4801577
CAF   000.96 110.5 m E Pg      2011/12/18 06:09:20.0  -0.4                          T   001.0                                4801583
CAF   000.96 110.5 m E Pn      2011/12/18 06:09:21.1   0.0                          T   001.0                                4801584
CAF   000.96 110.5 m E P       2011/12/18 06:09:21.9  -0.5                          T                                        4802041
CAF   000.96 110.5 m E Sg      2011/12/18 06:09:32.8  -0.2                          T   001.0        8.8  .20 Ml 2.4 Md 2.2  4801585
TCF   001.42 043.8 m E Pg      2011/12/18 06:09:28.9   0.0                          T   001.0                                4801594
TCF   001.42 043.8 m E Sg      2011/12/18 06:09:47.3   0.0                          T   001.0        7.0  .25 Ml 2.5         4801596
MFF   001.48 334.2 m E Pg      2011/12/18 06:09:29.7  -0.3                          T   001.0                                4801575
MFF   001.48 334.2 m E Sg      2011/12/18 06:09:49.7   0.5                          T   001.0        4.9  .23 Ml 2.5         4801591
BGF   001.93 047.3 m E Pg      2011/12/18 06:09:38.5   0.3                          T                                        4802046
BGF   001.93 047.3 m E Sg      2011/12/18 06:10:03.3   0.3                          T   001.0        9.8  .30 Ml 2.7         4801582
AVF   002.34 048.6 m E Sn      2011/12/18 06:10:08.4   1.1                          T   001.0                                4801580
AVF   002.34 048.6 m E Sg      2011/12/18 06:10:15.0  -1.0                          T   001.0        1.8  .33 Ml 2.0         4801581
MTLF  002.18 151.6 m E Sg      2011/12/18 06:10:11.2   0.2                          T                                        4802044
SMF   002.53 056.0 m E Sg      2011/12/18 06:10:21.9   0.0                          T   001.0        1.7  .24 Ml 2.2         4801592
SSF   002.60 045.5 m E Sg      2011/12/18 06:10:24.4   0.4                          T   001.0        1.5  .24 Ml 2.2         4801593
VIVF  002.78 097.2 m E Sg      2011/12/18 06:10:29.1  -0.6                          T   001.0        3.3  .48 Ml 2.2         4801600
LOR   002.92 045.7 m E Sg      2011/12/18 06:10:33.5  -0.5                          T   001.0        1.5  .36 Ml 2.0         4801590
SGMF  003.77 323.6 m E Sn      2011/12/18 06:10:40.9  -0.5                          T   001.0        8.8  .80 Ml 2.6         4801599
SGMF  003.77 323.6 m E Sg      2011/12/18 06:10:59.6  -0.9                          T                1.2  .32 Ml 2.2         4802039
GRR   003.32 340.6 m E Sg      2011/12/18 06:10:46.6   0.2                          T                1.2  .20 Ml 2.1         4802045
LDF   003.38 349.7 m E Sg      2011/12/18 06:10:47.6  -0.8                          T   001.0        6.3  .80 Ml 2.4         4801587
FLN   003.60 346.5 m E Sg      2011/12/18 06:10:55.4   0.2                          T                                        4802040

.
EVENT     267541
    Date      Time       Latitude Longitude    Depth    Ndef Nsta Gap    Mag1  N    Mag2  N    Mag3  N   Author         ID
       rms   OT_Error      Smajor Sminor Az        Err   mdist  Mdist     Err        Err        Err      Quality

2011/12/18 10:17:47.1     46.6784    9.9643     15.6      36    7 116  Ml 2.2  7                         js067245    267561

      0.29   +-  0.05       1.5     .9   19.11 +-  0.6    0.12   4.22   +-0.2                            m i ke

SWITZERLAND
Sta     Dist  EvAz     Phase      Date       Time     TRes  Azim  AzRes  Slow  SRes Def   SNR       Amp   Per   Mag1   Mag2       ID
HINF  002.41 299.4 m E Pn      2011/12/18 10:18:24.4   0.1                          T                                        4802675
HINF  002.41 299.4 m E P       2011/12/18 10:18:26.9   0.1                          T                                        4802676
HINF  002.41 299.4 m E Pg      2011/12/18 10:18:31.8  -0.1                          T                                        4802674
HINF  002.41 299.4 m E Sg      2011/12/18 10:19:03.6   0.7                          T                2.1  .25 Ml 2.2         4802050
CDF   002.51 314.6 m E Pn      2011/12/18 10:18:25.5  -0.2                          T                                        4802680
CDF   002.51 314.6 m E Pg      2011/12/18 10:18:33.5  -0.4                          T                                        4802679
CDF   002.51 314.6 m E Sg      2011/12/18 10:19:06.5   0.2                          T                3.7  .27 Ml 2.6         4802681
HAU   002.79 299.7 m E Pn      2011/12/18 10:18:29.4  -0.1                          T                                        4802678
HAU   002.79 299.7 m E P       2011/12/18 10:18:32.4   0.0                          T                                        4802677
HAU   002.79 299.7 m E Sg      2011/12/18 10:19:15.4   0.5                          T                3.2  .36 Ml 2.1         4802049
LPG   002.53 243.3 m E Pg      2011/12/18 10:18:34.0  -0.4                          T                                        4802671
LPG   002.53 243.3 m E Sg      2011/12/18 10:19:07.5   0.5                          T                1.6  .28 Ml 2.1         4802670
MBDF  002.97 230.1 m E P       2011/12/18 10:18:35.0   0.0                          T                                        4802673
MBDF  002.97 230.1 m E Pg      2011/12/18 10:18:41.9  -0.5                          T                                        4802672
MBDF  002.97 230.1 m E Sg      2011/12/18 10:19:20.9   0.4                          T                1.3  .29 Ml 2.1         4802669
CABF  002.67 270.0 m E Pg      2011/12/18 10:18:36.7  -0.1                          T                                        4802052
CABF  002.67 270.0 m E Sg      2011/12/18 10:19:11.6   0.4                          T                1.0  .22 Ml 2.0         4802051
LOR   004.22 280.3 m E Sg      2011/12/18 10:19:59.5   0.0                          T                1.0  .26 Ml 2.3         4802682

.
EVENT     267536
    Date      Time       Latitude Longitude    Depth    Ndef Nsta Gap    Mag1  N    Mag2  N    Mag3  N   Author         ID
       rms   OT_Error      Smajor Sminor Az        Err   mdist  Mdist     Err        Err        Err      Quality

2011/12/18 11:05:16.4     45.2296    7.0778      2.0      30    8 062  Ml 1.8  4  Md 1.7  2              js067245    267556

      0.93   +-  0.09       2.0    1.5   95.47 +-  0.0    0.15   1.75   +-0.2      +-0.0                 m i ke

NORTHERN ITALY
Sta     Dist  EvAz     Phase      Date       Time     TRes  Azim  AzRes  Slow  SRes Def   SNR       Amp   Per   Mag1   Mag2       ID
LPG   000.35 319.5 m E Pg      2011/12/18 11:05:23.5  -0.1                          T                                        4802065
LPG   000.35 319.5 m E Sg      2011/12/18 11:05:27.7  -0.7                          T                4.5  .26        Md 1.8  4802066
LPL   000.38 319.8 m E Pg      2011/12/18 11:05:24.0   0.0                          T                                        4802064
LPL   000.38 319.8 m E Sg      2011/12/18 11:05:28.9  -0.1                          T                3.1  .23                4802059
MBDF  000.55 203.5 m E Pg      2011/12/18 11:05:27.2   0.2                          T                                        4802063
MBDF  000.55 203.5 m E Sg      2011/12/18 11:05:34.3   0.0                          T                4.1  .25        Md 1.7  4802062
ORIF  000.90 250.3 m E Pg      2011/12/18 11:05:34.0   0.4                          T                                        4802060
ORIF  000.90 250.3 m E Sg      2011/12/18 11:05:45.5   0.2                          T                1.9  .23 Ml 1.7         4802061
SMRF  001.65 221.1 m E Pn      2011/12/18 11:05:44.2  -0.5                          T                                        4802067
SMRF  001.65 221.1 m E Sg      2011/12/18 11:06:08.3  -0.2                          T                1.1  .17 Ml 1.9         4802068
FRF   001.70 190.6 m E Pg      2011/12/18 11:05:49.0   1.0                          T                                        4802056
FRF   001.70 190.6 m E Sg      2011/12/18 11:06:09.6  -0.4                          T                1.4  .24 Ml 1.9         4802057
SBF   001.39 169.3 m E Sg      2011/12/18 11:05:59.6  -0.9                          T                                        4802055
VIVF  001.75 258.5 m E Sg      2011/12/18 11:06:11.0  -0.4                          T                 .6  .28 Ml 1.5         4802058

.
EVENT     267537
    Date      Time       Latitude Longitude    Depth    Ndef Nsta Gap    Mag1  N    Mag2  N    Mag3  N   Author         ID
       rms   OT_Error      Smajor Sminor Az        Err   mdist  Mdist     Err        Err        Err      Quality

2011/12/18 15:01:01.3     36.0191   12.9655      2.0     202   25 045  Ml 4.3  8                         js067245    267557

      3.00   +-  0.27       8.1    5.4  175.92 +-  0.0    1.27 128.01   +-0.3                            m i ke

CENTRAL MEDITERRANEAN SEA
Sta     Dist  EvAz     Phase      Date       Time     TRes  Azim  AzRes  Slow  SRes Def   SNR       Amp   Per   Mag1   Mag2       ID
PGF   007.21 336.0 m E Pn      2011/12/18 15:02:47.1   1.7                          T                                        4802078
PGF   007.21 336.0 m E Sn      2011/12/18 15:04:03.3   0.3                          T               47.7  .41 Ml 4.6         4802071
LMR   008.84 327.7 m E Pn      2011/12/18 15:03:08.0   0.6                          T                                        4802073
LMR   008.84 327.7 m E Sn      2011/12/18 15:04:39.2  -2.6                          T                                        4802694
SBF   008.91 333.2 m E Pn      2011/12/18 15:03:09.8   1.3                          T                                        4802074
SBF   008.91 333.2 m E Sn      2011/12/18 15:04:45.5   1.8                          T               66.5  .58 Ml 4.6         4802070
FRF   008.96 329.1 m E Pn      2011/12/18 15:03:09.8   0.7                          T                                        4802075
FRF   008.96 329.1 m E Sn      2011/12/18 15:04:44.9   0.1                          T                9.1  .48 Ml 3.9         4802715
SMRF  009.76 326.8 m E Pn      2011/12/18 15:03:19.7  -0.3                          T                                        4802731
MBDF  009.89 333.4 m E Pn      2011/12/18 15:03:24.7   2.7                          T                                        4802076
MBDF  009.89 333.4 m E Sn      2011/12/18 15:05:09.1   1.8                          T               37.6  .64 Ml 4.5         4802069
ORIF  010.39 330.9 m E Pn      2011/12/18 15:03:31.0   2.2                          T                                        4802077
ORIF  010.39 330.9 m E Sn      2011/12/18 15:05:19.5   0.3                          T                                        4802692
LASF  010.65 321.9 m E Pn      2011/12/18 15:03:32.1   0.0                          T                                        4802728
LPG   010.57 335.5 m E Pn      2011/12/18 15:03:32.7   1.3                          T                                        4802729
LPG   010.57 335.5 m E P       2011/12/18 15:03:38.5   1.1                          T                                        4802730
LPG   010.57 335.5 m E Sn      2011/12/18 15:05:24.5   0.9                          T                5.1  .53 Ml 3.8         4802716
MTLF  011.04 314.7 m E Pn      2011/12/18 15:03:37.0  -0.4                          T                                        4802727
MTLF  011.04 314.7 m E Sn      2011/12/18 15:05:33.6  -0.8                          T                                        4802691
LPL   010.60 335.5 m E P       2011/12/18 15:03:37.6   0.0                          T                                        4802072
CABF  011.77 336.1 m E Pn      2011/12/18 15:03:49.0   1.6                          T                                        4802723
CABF  011.77 336.1 m E Sn      2011/12/18 15:05:53.0   0.9                          T               11.9  .56 Ml 4.3         4802718
EPF   011.99 309.5 m E Pn      2011/12/18 15:03:50.1  -0.4                          T                                        4802726
CAF   012.16 320.4 m E Pn      2011/12/18 15:03:53.0   0.3                          T                                        4802725
HINF  012.63 340.8 m E Pn      2011/12/18 15:03:59.4   0.3                          T                                        4802722
SSF   013.10 330.3 m E Pn      2011/12/18 15:04:05.2  -0.2                          T                                        4802720
LOR   013.13 331.7 m E Pn      2011/12/18 15:04:05.2  -0.7                          T                                        4802719
CDF   013.08 343.0 m E P       2011/12/18 15:04:08.9  -2.0                          T                                        4802721
LANF  013.50 345.3 m E P       2011/12/18 15:04:17.1   0.7                          T                                        4802696
RUP   014.34 344.3 m E P       2011/12/18 15:04:28.4   0.9                          T                                        4802736
BAIF  015.41 338.3 m E P       2011/12/18 15:04:43.5   2.1                          T                                        4802702
LDF   015.83 326.6 m E P       2011/12/18 15:04:48.8   1.9                          T                                        4802701
GRR   016.02 324.8 m E P       2011/12/18 15:04:50.4   1.2                          T                                        4802732
FLN   016.12 326.3 m E P       2011/12/18 15:04:52.0   1.5 140.4  3.2               T                                        4802700
LIC   033.94 213.4 m E P       2011/12/18 15:07:47.6  -0.3  17.2  -9.4              T                8.7  .63                4802711

.
