BEGIN GSE2.0
MSG_TYPE DATA
MSG_ID 06-SEP-1213:56:31  FRA_NDC
E-MAIL
DATA_TYPE BULLETIN
Reviewed Bulletin (REB) # P2012-035  from French NDC for regional phases     PERIOD 29 AUG 2012 TO 04 SEP 2012 Cenalt JP S
EVENT     282177
    Date      Time       Latitude Longitude    Depth    Ndef Nsta Gap    Mag1  N    Mag2  N    Mag3  N   Author         ID
       rms   OT_Error      Smajor Sminor Az        Err   mdist  Mdist     Err        Err        Err      Quality

2012/08/29 01:59:17.1     43.0473     .0074      4.0 f    41    8 055  Ml 1.8  7  Md 1.8  2              bulletin    282277
                                                                                                         _ldg
      0.75   +-  0.07       1.4    1.2    5.39 +-  0.0    0.07   2.98   +-0.2      +-0.1                 m i ke

FRANCE
Sta     Dist  EvAz     Phase      Date       Time     TRes  Azim  AzRes  Slow  SRes Def   SNR       Amp   Per   Mag1   Mag2       ID
EPF   000.24 093.9 m E Pg      2012/08/29 01:59:21.7  -0.4                          T                                        5056110
EPF   000.24 093.9 m E Sg      2012/08/29 01:59:25.4   0.0                          T               25.2  .22        Md 1.7  5056109
ETSF  000.44 250.5 m E Pg      2012/08/29 01:59:25.5  -0.3                          T                                        5056108
ETSF  000.44 250.5 m E Sg      2012/08/29 01:59:31.1  -0.5                          T                9.9  .22        Md 1.9  5056107
SJPF  000.91 274.6 m E Pg      2012/08/29 01:59:34.0  -0.2                          T                                        5056116
SJPF  000.91 274.6 m E Sg      2012/08/29 01:59:46.0   0.0                          T                1.2  .28 Ml 1.4         5056115
MTLF  001.64 079.0 m E P       2012/08/29 01:59:47.2   0.1                          T                                        5056106
MTLF  001.64 079.0 m E Sg      2012/08/29 02:00:08.9   0.0                          T                1.3  .23 Ml 1.9         5056105
LFF   001.96 015.4 m E Pn      2012/08/29 01:59:49.7   0.3                          T                                        5056113
LFF   001.96 015.4 m E Pg      2012/08/29 01:59:53.8   0.2                          T                                        5062638
LFF   001.96 015.4 m E Sg      2012/08/29 02:00:19.4   0.4                          T                2.0  .29 Ml 1.9         5056114
CAF   002.39 037.6 m E Pn      2012/08/29 01:59:55.0  -0.3                          T                                        5056111
CAF   002.39 037.6 m E Pg      2012/08/29 02:00:01.2  -0.4                          T                                        5062636
CAF   002.39 037.6 m E Sg      2012/08/29 02:00:32.7   0.3                          T                 .4  .16 Ml 1.7         5056112
RJF   002.50 025.2 m E Pn      2012/08/29 01:59:57.0   0.2                          T                                        5056118
RJF   002.50 025.2 m E Pg      2012/08/29 02:00:03.7   0.1                          T                                        5062637
RJF   002.50 025.2 m E Sg      2012/08/29 02:00:36.1   0.3                          T                1.4  .27 Ml 1.7         5056117
LASF  002.98 068.5 m E Sg      2012/08/29 02:00:50.7   0.0                          T                 .9  .32 Ml 1.9         5062635

.
EVENT     282208
    Date      Time       Latitude Longitude    Depth    Ndef Nsta Gap    Mag1  N    Mag2  N    Mag3  N   Author         ID
       rms   OT_Error      Smajor Sminor Az        Err   mdist  Mdist     Err        Err        Err      Quality

2012/08/29 09:17:21.9     43.0598     .1607      4.0 f    34    7 087  Ml 1.9  4  Md 2.0  2              bulletin    282308
                                                                                                         _ldg
      0.44   +-  0.07       1.5    1.2  178.03 +-  0.0    0.13   2.45   +-0.2      +-0.0                 m i ke

FRANCE
Sta     Dist  EvAz     Phase      Date       Time     TRes  Azim  AzRes  Slow  SRes Def   SNR       Amp   Per   Mag1   Mag2       ID
EPF   000.13 102.6 m E Pg      2012/08/29 09:17:25.2   0.3                          T                                        5056385
EPF   000.13 102.6 m E Sg      2012/08/29 09:17:26.8   0.0                          T                                Md 2.0  5056393
ETSF  000.55 253.3 m E Pg      2012/08/29 09:17:32.3  -0.2                          T                                        5056398
ETSF  000.55 253.3 m E Sg      2012/08/29 09:17:39.2  -0.5                          T                                Md 1.9  5056390
SJPF  001.02 273.5 m E Pg      2012/08/29 09:17:40.7  -0.3                          T                                        5056397
SJPF  001.02 273.5 m E Sg      2012/08/29 09:17:53.8  -0.3                          T                2.3  .26 Ml 1.8         5056392
MTLF  001.53 078.7 m E Pg      2012/08/29 09:17:50.4   0.1                          T                                        5056384
MTLF  001.53 078.7 m E Sg      2012/08/29 09:18:10.2   0.1                          T                 .7  .15 Ml 1.7         5056394
LFF   001.93 012.3 m E Pn      2012/08/29 09:17:54.3   0.7                          T                                        5056395
RJF   002.45 023.0 m E Pn      2012/08/29 09:18:00.3  -0.5                          T                                        5056402
RJF   002.45 023.0 m E Pg      2012/08/29 09:18:07.0  -0.3                          T                                        5056399
RJF   002.45 023.0 m E Sg      2012/08/29 09:18:38.8   0.0                          T                1.7  .21 Ml 1.9         5056389
CAF   002.32 035.7 m E Pg      2012/08/29 09:18:04.8  -0.2                          T                                        5056396
CAF   002.32 035.7 m E Sg      2012/08/29 09:18:34.8   0.1                          T                1.9  .21 Ml 2.2         5056391

.
EVENT     282214
    Date      Time       Latitude Longitude    Depth    Ndef Nsta Gap    Mag1  N    Mag2  N    Mag3  N   Author         ID
       rms   OT_Error      Smajor Sminor Az        Err   mdist  Mdist     Err        Err        Err      Quality

2012/08/29 13:41:02.8     47.6338    6.2505       .0 f    15    8 120  Ml 2.1  4  Md 2.2  1              bulletin    282314
                                                                                                         _ldg
      0.67   +-  0.09       2.0    1.6  125.59 +-  0.0    0.38   1.70   +-0.3      +-                    m i km

FRANCE
Sta     Dist  EvAz     Phase      Date       Time     TRes  Azim  AzRes  Slow  SRes Def   SNR       Amp   Per   Mag1   Mag2       ID
HAU   000.38 010.0 m E Pg      2012/08/29 13:41:09.9  -0.5                          T                                        5056833
HAU   000.38 010.0 m E Sg      2012/08/29 13:41:15.5  -0.1                          T               62.2  .80        Md 2.2  5056832
HINF  000.45 065.6 m E Pg      2012/08/29 13:41:11.9   0.2                          T                                        5056831
HINF  000.45 065.6 m E Sg      2012/08/29 13:41:17.3  -0.5                          T               37.8  .82                5056828
THEF  000.62 343.9 m E Pg      2012/08/29 13:41:15.2   0.4                          T                                        5056827
THEF  000.62 343.9 m E Sg      2012/08/29 13:41:23.4   0.3                          T                3.2  .22                5056826
SFTF  001.00 305.5 m E Pg      2012/08/29 13:41:21.7  -0.1 127.8  3.2               T                                        5056823
SFTF  001.00 305.5 m E Sg      2012/08/29 13:41:34.7  -0.2 132.2  7.6               T                9.9  .43 Ml 2.2         5056822
CABF  001.03 186.3 m E Pg      2012/08/29 13:41:22.5   0.0                          T                                        5056830
CABF  001.03 186.3 m E Sg      2012/08/29 13:41:36.0  -0.1                          T               23.4  .74 Ml 2.3         5056829
CDF   001.04 041.1 m E Pg      2012/08/29 13:41:22.6  -0.1                          T                                        5056825
CDF   001.04 041.1 m E Sg      2012/08/29 13:41:36.7   0.4                          T                8.2  .36 Ml 2.3         5056821
LOR   001.66 258.2 m E Pn      2012/08/29 13:41:31.8   0.1                          T                                        5056824
LOR   001.66 258.2 m E Sn      2012/08/29 13:41:52.5  -0.1  79.6  3.2               T                 .7  .18 Ml 1.7         5056819
LANF  001.70 037.0 m E Pn      2012/08/29 13:41:32.3   0.1                          T                                        5056820

.
EVENT     282216
    Date      Time       Latitude Longitude    Depth    Ndef Nsta Gap    Mag1  N    Mag2  N    Mag3  N   Author         ID
       rms   OT_Error      Smajor Sminor Az        Err   mdist  Mdist     Err        Err        Err      Quality

2012/08/29 20:05:03.7     42.9916     .0768      2.0      10    5 180  Ml 1.6  3  Md 1.7  2              bulletin    282316
                                                                                                         _ldg
      0.13   +-  0.06       3.2     .7  170.07 +-  0.0    0.20   2.41   +-0.0      +-0.1                 m i ke

PYRENEES
Sta     Dist  EvAz     Phase      Date       Time     TRes  Azim  AzRes  Slow  SRes Def   SNR       Amp   Per   Mag1   Mag2       ID
EPF   000.20 078.6 m E Pg      2012/08/29 20:05:07.5  -0.2                          T                                        5056860
EPF   000.20 078.6 m E Sg      2012/08/29 20:05:10.5   0.0                          T               23.7  .23        Md 1.8  5056859
ETSF  000.48 259.0 m E Pg      2012/08/29 20:05:12.8   0.0                          T                                        5056858
ETSF  000.48 259.0 m E Sg      2012/08/29 20:05:19.2   0.1                          T                5.1  .28        Md 1.6  5056857
SJPF  000.96 277.7 m E Pg      2012/08/29 20:05:21.7   0.0                          T                                        5056864
SJPF  000.96 277.7 m E Sg      2012/08/29 20:05:34.4   0.1                          T                1.6  .26 Ml 1.6         5056863
MTLF  001.60 076.7 m E Pg      2012/08/29 20:05:33.7   0.1                          T                                        5056856
MTLF  001.60 076.7 m E Sg      2012/08/29 20:05:54.6   0.3                          T                 .9  .24 Ml 1.6         5056855
CAF   002.41 035.9 m E Pn      2012/08/29 20:05:42.2  -0.1                          T                                        5056862
CAF   002.41 035.9 m E Sn      2012/08/29 20:06:10.6   0.0                          T                 .6  .31 Ml 1.6         5056861

.
EVENT     282600
    Date      Time       Latitude Longitude    Depth    Ndef Nsta Gap    Mag1  N    Mag2  N    Mag3  N   Author         ID
       rms   OT_Error      Smajor Sminor Az        Err   mdist  Mdist     Err        Err        Err      Quality

2012/08/29 23:32:49.7     47.4866    5.6109      2.0      33   12 091  Ml 1.7 10  Md 1.9  3              bulletin    282700
                                                                                                         _ldg
      0.89   +-  0.09       2.0    1.4  136.79 +-  0.0    0.72   1.69   +-0.4      +-0.1                 m i ke

FRANCE
Sta     Dist  EvAz     Phase      Date       Time     TRes  Azim  AzRes  Slow  SRes Def   SNR       Amp   Per   Mag1   Mag2       ID
HAU   000.72 043.5 m E Pg      2012/08/29 23:33:03.1  -0.2                          T                                        5056874
HAU   000.72 043.5 m E Sg      2012/08/29 23:33:13.0   0.3                          T                  1  .19        Md 2.0  5056873
THEF  000.79 019.0 m E Pg      2012/08/29 23:33:04.2  -0.3                          T                                        5062653
THEF  000.79 019.0 m E Sg      2012/08/29 23:33:14.8   0.0                          T                2.6  .21        Md 1.9  5062652
SFTF  000.82 332.0 m E Pg      2012/08/29 23:33:05.0   0.0 148.3  -3.3              T                                        5056868
SFTF  000.82 332.0 m E Pn      2012/08/29 23:33:05.8  -0.8                          T                                        5062651
SFTF  000.82 332.0 m E Sg      2012/08/29 23:33:15.8   0.2 152.0  0.4               T                2.0  .24        Md 1.9  5056867
HINF  000.90 068.1 m E Pg      2012/08/29 23:33:06.6  -0.1                          T                                        5056872
HINF  000.90 068.1 m E Sg      2012/08/29 23:33:18.0  -0.4                          T                3.4  .22 Ml 2.0         5056871
CABF  000.93 159.4 m E Pg      2012/08/29 23:33:07.4   0.0                          T                                        5056876
CABF  000.93 159.4 m E Pn      2012/08/29 23:33:08.2  -0.1                          T                                        5062655
CABF  000.93 159.4 m E Sg      2012/08/29 23:33:19.1  -0.3                          T                1.1  .30 Ml 1.4         5056875
CABF  000.93 159.4 m E Sn      2012/08/29 23:33:21.1  -0.3                          T                                        5062654
PAGF  001.07 004.1 m E Pg      2012/08/29 23:33:09.9   0.2 190.7  6.5               T                                        5056887
PAGF  001.07 004.1 m E Sg      2012/08/29 23:33:23.8   0.2 175.7  -8.5              T                 .8  .18 Ml 1.5         5056886
MEZF  001.08 339.9 m E Pg      2012/08/29 23:33:10.3   0.4 159.0  -0.5              T                                        5056866
MEZF  001.08 339.9 m E Sg      2012/08/29 23:33:23.7  -0.2 162.1  2.6               T                1.3  .17 Ml 1.7         5056865
LOR   001.21 260.2 m E Pg      2012/08/29 23:33:12.3   0.0  82.0  3.0               T                                        5056870
LOR   001.21 260.2 m E Sg      2012/08/29 23:33:27.7  -0.3  88.9  10.0              T                4.7  .19 Ml 2.3         5056869
CDF   001.45 049.8 m E Pn      2012/08/29 23:33:15.5   0.1                          T                                        5056885
CDF   001.45 049.8 m E Sn      2012/08/29 23:33:33.8  -0.1                          T                                        5056884
CDF   001.45 049.8 m E Sg      2012/08/29 23:33:35.7   0.0                          T                 .6  .29 Ml 1.5         5056883
SMF   001.47 235.8 m E Pn      2012/08/29 23:33:16.6   1.1                          T                                        5056878
SMF   001.47 235.8 m E Pg      2012/08/29 23:33:17.3   0.1                          T                                        5062658
SMF   001.47 235.8 m E Sn      2012/08/29 23:33:32.4  -1.8                          T                                        5062657
SMF   001.47 235.8 m E Sg      2012/08/29 23:33:35.6  -0.6                          T                1.4  .23 Ml 1.8         5056877
SSF   001.50 254.2 m E Pg      2012/08/29 23:33:17.4  -0.2                          T                                        5056882
SSF   001.50 254.2 m E Sg      2012/08/29 23:33:36.1  -0.7                          T                 .7  .25 Ml 1.6         5056881
AVF   001.69 246.5 m E Pn      2012/08/29 23:33:18.9   0.4                          T                                        5056880
AVF   001.69 246.5 m E Pg      2012/08/29 23:33:21.4   0.2                          T                                        5062656
AVF   001.69 246.5 m E Sg      2012/08/29 23:33:42.2  -0.7                          T                 .2  .16 Ml 1.2         5056879

.
EVENT     282219
    Date      Time       Latitude Longitude    Depth    Ndef Nsta Gap    Mag1  N    Mag2  N    Mag3  N   Author         ID
       rms   OT_Error      Smajor Sminor Az        Err   mdist  Mdist     Err        Err        Err      Quality

2012/08/30 00:52:31.7     44.5010    6.8733      2.0      15    8 145  Ml 1.1  4  Md 1.4  1              bulletin    282319
                                                                                                         _ldg
      0.25   +-  0.08       2.1    1.2   79.84 +-  0.0    0.24   2.49   +-0.4      +-                    m i ke

FRANCE
Sta     Dist  EvAz     Phase      Date       Time     TRes  Azim  AzRes  Slow  SRes Def   SNR       Amp   Per   Mag1   Mag2       ID
MBDF  000.24 342.2 m E Pg      2012/08/30 00:52:36.8   0.2                          T                                        5056893
MBDF  000.24 342.2 m E Sg      2012/08/30 00:52:40.7   0.8                          T                2.4  .29        Md 1.4  5056892
ORIF  000.82 300.8 m E Pg      2012/08/30 00:52:47.3   0.0                          T                                        5056903
ORIF  000.82 300.8 m E Sg      2012/08/30 00:52:57.6  -0.4                          T                 .2  .28                5056902
LPG   001.00 355.1 m E Pg      2012/08/30 00:52:50.6  -0.2                          T                                        5056898
LPG   001.00 355.1 m E Sg      2012/08/30 00:53:03.9   0.1                          T                 .2  .22 Ml  .7         5056897
LPL   001.02 354.4 m E Pg      2012/08/30 00:52:50.8  -0.3                          T                                        5056899
LMR   001.20 192.8 m E Pg      2012/08/30 00:52:54.1   0.0                          T                                        5056891
LMR   001.20 192.8 m E Sg      2012/08/30 00:53:09.5   0.0                          T                 .1  .17 Ml  .8         5056890
LASF  002.21 260.0 m E Pn      2012/08/30 00:53:07.5   0.0                          T                                        5056895
LASF  002.21 260.0 m E Sn      2012/08/30 00:53:33.7  -0.1                          T                 .4  .22 Ml 1.5         5056894
PGF   002.49 140.9 m E Pn      2012/08/30 00:53:11.6   0.1                          T                                        5056901
VIVF  001.61 283.5 m E Sn      2012/08/30 00:53:19.9   0.4                          T                 .4  .24 Ml 1.3         5056896

.
