EVENT     260060
    Date      Time       Latitude Longitude    Depth    Ndef Nsta Gap    Mag1  N    Mag2  N    Mag3  N   Author         ID
       rms   OT_Error      Smajor Sminor Az        Err   mdist  Mdist     Err        Err        Err      Quality

2011/06/06 20:27:58.9     42.3556     .7838      2.0      20    4 061  Ml 1.7  3  Md 2.0  1              js067245    260060

      0.45   +-  0.08       1.6    1.4    1.82 +-  0.0    0.03   1.66   +-0.2      +-                    m i ke

PYRENEES
Sta     Dist  EvAz     Phase      Date       Time     TRes  Azim  AzRes  Slow  SRes Def   SNR       Amp   Per   Mag1   Mag2       ID
EPF   000.75 334.3 m E Pg      2011/06/06 20:28:13.0   0.0                          T                                        4704497
EPF   000.75 334.3 m E Sg      2011/06/06 20:28:22.9   0.1                          T                2.8  .22        Md 2.0  4704498
ETSF  001.13 299.2 m E Pg      2011/06/06 20:28:19.8  -0.3                          T                                        4704495
ETSF  001.13 299.2 m E Sg      2011/06/06 20:28:34.7   0.0                          T                1.4  .23 Ml 1.6         4704496
MTLF  001.44 046.5 m E Pg      2011/06/06 20:28:25.4  -0.4                          T                                        4704492
MTLF  001.44 046.5 m E Sg      2011/06/06 20:28:44.4   0.0                          T                 .5  .12 Ml 1.6         4704493
SJPF  001.66 297.8 m E Pg      2011/06/06 20:28:29.5  -0.3                          T                                        4704491
SJPF  001.66 297.8 m E Sg      2011/06/06 20:28:51.2  -0.1                          T                2.5  .32 Ml 2.0         4704494

.
EVENT     260062
    Date      Time       Latitude Longitude    Depth    Ndef Nsta Gap    Mag1  N    Mag2  N    Mag3  N   Author         ID
       rms   OT_Error      Smajor Sminor Az        Err   mdist  Mdist     Err        Err        Err      Quality

2011/06/07 00:10:43.9     51.5736    6.4906      1.0 f    49   17 244  Ml 2.5 12  Md 3.0  2              js067245    260062

      1.14   +-  0.22       3.7    2.6    7.90 +-  0.0    0.39   5.99   +-0.3      +-0.2                 m i sr

GERMANY
Sta     Dist  EvAz     Phase      Date       Time     TRes  Azim  AzRes  Slow  SRes Def   SNR       Amp   Per   Mag1   Mag2       ID
GIVF  001.81 216.3 m E Pn      2011/06/07 00:11:14.5   0.0                          T                                        4704519
GIVF  001.81 216.3 m E Pg      2011/06/07 00:11:17.5   0.0                          T                                        4704538
GIVF  001.81 216.3 m E Sn      2011/06/07 00:11:36.2  -0.5                          T                                        4704513
GIVF  001.81 216.3 m E Sg      2011/06/07 00:11:41.2   0.3                          T               23.6  .24 Ml 3.2 Md 2.8  4704509
RUP   001.91 168.8 m E Pn      2011/06/07 00:11:15.8   0.0                          T                                        4704521
RUP   001.91 168.8 m E Pg      2011/06/07 00:11:19.5   0.1                          T                                        4704530
RUP   001.91 168.8 m E Sn      2011/06/07 00:11:38.7  -0.4                          T                                        4704511
RUP   001.91 168.8 m E Sg      2011/06/07 00:11:44.3   0.2                          T                                Md 3.1  4704507
BAIF  002.10 224.6 m E Pn      2011/06/07 00:11:18.5   0.2                          T                                        4704520
BAIF  002.10 224.6 m E Pg      2011/06/07 00:11:22.7  -0.1                          T                                        4704537
BAIF  002.10 224.6 m E Sn      2011/06/07 00:11:43.3  -0.2                          T                8.3  .31 Ml 2.7         4704512
BAIF  002.10 224.6 m E Sg      2011/06/07 00:11:49.7  -0.1                          T                4.8  .25 Ml 2.5         4704508
LANF  002.73 161.5 m E Pn      2011/06/07 00:11:26.9  -0.1                          T                                        4704500
LANF  002.73 161.5 m E Pg      2011/06/07 00:11:34.4  -0.1                          T                                        4704501
LANF  002.73 161.5 m E Sg      2011/06/07 00:12:09.6   0.0                          T                2.5  .18 Ml 2.5         4704502
MEZF  003.21 197.3 m E Pn      2011/06/07 00:11:33.4  -0.1   5.9  -10.4             T                                        4704528
MEZF  003.21 197.3 m E Pg      2011/06/07 00:11:43.2  -0.2  25.2  8.9               T                                        4704534
MEZF  003.21 197.3 m E Sg      2011/06/07 00:12:24.5  -0.1                          T                3.7  .31 Ml 2.6         4704532
CDF   003.21 170.6 m E Pn      2011/06/07 00:11:33.5   0.0                          T                                        4704529
CDF   003.21 170.6 m E Pg      2011/06/07 00:11:43.5   0.1                          T                                        4704536
CDF   003.21 170.6 m E Sg      2011/06/07 00:12:24.6   0.1                          T                4.1  .48 Ml 2.5         4704531
SFTF  003.50 196.1 m E Pn      2011/06/07 00:11:37.1  -0.4                          T                                        4704503
SFTF  003.50 196.1 m E Pg      2011/06/07 00:11:48.2  -0.5                          T                                        4704522
SFTF  003.50 196.1 m E Sg      2011/06/07 00:12:33.6   0.0                          T                3.7  .34 Ml 2.6         4704505
PAGF  003.06 189.6 m E Pg      2011/06/07 00:11:40.3  -0.3  21.7  12.7              T                                        4704535
PAGF  003.06 189.6 m E Sg      2011/06/07 00:12:20.1   0.2                          T                 .5  .22 Ml 1.8         4704506
LOR   004.64 202.7 m E Pn      2011/06/07 00:11:53.3   0.4  34.2  13.4              T                                        4704516
LOR   004.64 202.7 m E Sn      2011/06/07 00:12:44.6   0.3                          T                                        4704515
LOR   004.64 202.7 m E Sg      2011/06/07 00:13:09.2   0.0                          T                1.6  .25 Ml 2.6         4704510
SSF   004.92 204.5 m E Pn      2011/06/07 00:11:57.3   0.5                          T                                        4704517
SSF   004.92 204.5 m E Sn      2011/06/07 00:12:51.1   0.1                          T                                        4704514
SSF   004.92 204.5 m E Sg      2011/06/07 00:13:18.3   0.4                          T                 .6  .21 Ml 2.4         4704499
LDF   005.20 237.6 m E Pn      2011/06/07 00:12:00.1  -0.4                          T                                        4704523
AVF   005.21 204.5 m E Pn      2011/06/07 00:12:00.8   0.1                          T                                        4704527
SMF   005.23 200.4 m E Pn      2011/06/07 00:12:01.3   0.3                          T                                        4704526
SMF   005.23 200.4 m E Sg      2011/06/07 00:13:27.4  -0.2                          T                1.3  .28 Ml 2.6         4704533
FLN   005.29 240.6 m E Pn      2011/06/07 00:12:01.7  -0.1                          T                                        4704524
BGF   005.56 206.9 m E Pn      2011/06/07 00:12:05.5   0.0                          T                                        4704525
TCF   005.99 209.7 m E Pn      2011/06/07 00:12:11.1  -0.3                          T                                        4704518
HAU   003.57 181.5 m E Sg      2011/06/07 00:12:35.5  -0.4                          T                2.8  .30 Ml 2.3         4704504

.
EVENT     260061
    Date      Time       Latitude Longitude    Depth    Ndef Nsta Gap    Mag1  N    Mag2  N    Mag3  N   Author         ID
       rms   OT_Error      Smajor Sminor Az        Err   mdist  Mdist     Err        Err        Err      Quality

2011/06/07 04:45:20.1     43.3321    5.4573      2.0 f     9    4 278  Ml 2.1  1  Md 2.0  3              js067245    260061

      0.65   +-  0.94      17.2    6.8   42.14 +-  0.0    0.65   1.53   +-         +-0.1                 m i si

NEAR SOUTH COAST OF FRANCE
Sta     Dist  EvAz     Phase      Date       Time     TRes  Azim  AzRes  Slow  SRes Def   SNR       Amp   Per   Mag1   Mag2       ID
SMRF  000.65 007.5 m E Pg      2011/06/07 04:45:32.5   0.0                          T                                        4704546
SMRF  000.65 007.5 m E Sg      2011/06/07 04:45:40.6  -0.4                          T                3.8  .33        Md 2.0  4704547
LMR   000.77 089.5 m E Pg      2011/06/07 04:45:33.9  -0.7                          T                                        4704541
LMR   000.77 089.5 m E Sg      2011/06/07 04:45:44.1  -0.5                          T                                        4704542
LMR   000.77 089.5 m E Sn      2011/06/07 04:45:48.8   1.0                          T                8.1  .20        Md 2.0  4704543
FRF   000.90 074.8 m E Pg      2011/06/07 04:45:37.3   0.3                          T                                        4704544
FRF   000.90 074.8 m E Sg      2011/06/07 04:45:49.8   1.2                          T                                Md 1.9  4704545
SBF   001.53 069.1 m E Pg      2011/06/07 04:45:49.1   0.3                          T                                        4704539
SBF   001.53 069.1 m E Sg      2011/06/07 04:46:07.3  -1.2                          T                3.2  .27 Ml 2.1         4704540

.
EVENT     260098
    Date      Time       Latitude Longitude    Depth    Ndef Nsta Gap    Mag1  N    Mag2  N    Mag3  N   Author         ID
       rms   OT_Error      Smajor Sminor Az        Err   mdist  Mdist     Err        Err        Err      Quality

2011/06/07 09:25:50.5     42.8356   -1.3894      2.0      33    3 098  Ml 1.6  1  Md 1.7  2              js067245    260098

      0.45   +-  0.10       1.9    1.6   48.35 +-  0.0    0.04   1.31   +-         +-0.2                 m i ke

PYRENEES
Sta     Dist  EvAz     Phase      Date       Time     TRes  Azim  AzRes  Slow  SRes Def   SNR       Amp   Per   Mag1   Mag2       ID
SJPF  000.30 023.4 m E Pg      2011/06/07 09:25:56.7   0.3                          T                                        4704551
SJPF  000.30 023.4 m E Sg      2011/06/07 09:26:01.4   0.9                          T                7.1  .28        Md 1.8  4704552
ETSF  000.61 083.8 m E Pg      2011/06/07 09:26:02.2  -0.1                          T                                        4704549
ETSF  000.61 083.8 m E Sg      2011/06/07 09:26:10.2  -0.1                          T                2.4  .26        Md 1.5  4704550
EPF   001.28 080.7 m E Sg      2011/06/07 09:26:31.3   0.1                          T                1.1  .26 Ml 1.6         4704548

.
EVENT     260089
    Date      Time       Latitude Longitude    Depth    Ndef Nsta Gap    Mag1  N    Mag2  N    Mag3  N   Author         ID
       rms   OT_Error      Smajor Sminor Az        Err   mdist  Mdist     Err        Err        Err      Quality

2011/06/07 10:15:53.6     49.5563    6.3886       .0 f    22   11 132  Ml 2.4 10  Md 2.4  1              js067245    260089

      0.55   +-  0.05       1.0     .8   34.61 +-  0.0    0.46   2.84   +-0.2      +-                    m i km

GERMANY
Sta     Dist  EvAz     Phase      Date       Time     TRes  Azim  AzRes  Slow  SRes Def   SNR       Amp   Per   Mag1   Mag2       ID
RUP   000.46 071.3 m E Pg      2011/06/07 10:16:02.7  -0.1                          T                                        4704569
RUP   000.46 071.3 m E Sg      2011/06/07 10:16:09.0   0.0                          T                                Md 2.4  4704570
LANF  001.09 121.3 m E Pg      2011/06/07 10:16:14.4   0.0                          T                                        4704567
LANF  001.09 121.3 m E Sg      2011/06/07 10:16:28.7   0.0                          T               17.8  .33 Ml 2.6         4704568
PAGF  001.09 203.8 m E Pg      2011/06/07 10:16:14.4   0.1  23.3  0.0               T                                        4704563
PAGF  001.09 203.8 m E Sg      2011/06/07 10:16:28.8   0.1  23.9  0.6               T                2.7  .32 Ml 1.8         4704564
GIVF  001.15 298.9 m E Pg      2011/06/07 10:16:15.4   0.0                          T                                        4704553
GIVF  001.15 298.9 m E P       2011/06/07 10:16:16.8  -0.1                          T                                        4704573
GIVF  001.15 298.9 m E Sg      2011/06/07 10:16:30.6   0.1                          T                8.8  .24 Ml 2.4         4704574
CDF   001.29 152.6 m E Pg      2011/06/07 10:16:18.1   0.1                          T                                        4704565
CDF   001.29 152.6 m E Sg      2011/06/07 10:16:35.1   0.3                          T               13.1  .46 Ml 2.5         4704566
BAIF  001.50 290.4 m E Pg      2011/06/07 10:16:21.8   0.0                          T                                        4704571
BAIF  001.50 290.4 m E Sg      2011/06/07 10:16:41.3   0.0                          T                5.5  .31 Ml 2.3         4704572
HAU   001.55 181.0 m E Pg      2011/06/07 10:16:22.8   0.0                          T                                        4704558
HAU   001.55 181.0 m E Sg      2011/06/07 10:16:43.0   0.0                          T               11.3  .32 Ml 2.4         4704559
SFTF  001.62 213.9 m E Pg      2011/06/07 10:16:24.1   0.1                          T                                        4704560
SFTF  001.62 213.9 m E Sg      2011/06/07 10:16:45.2   0.1  23.7  -9.2              T                7.9  .32 Ml 2.5         4704561
HINF  001.77 169.8 m E Pg      2011/06/07 10:16:26.9   0.0                          T                                        4704556
HINF  001.77 169.8 m E Sg      2011/06/07 10:16:49.0  -0.8                          T                4.3  .25 Ml 2.4         4704557
MEZF  001.37 220.3 m E Sg      2011/06/07 10:16:37.2  -0.2                          T               10.4  .32 Ml 2.5         4704562
LOR   002.84 217.3 m E Pg      2011/06/07 10:16:46.5  -0.1                          T                                        4704554
LOR   002.84 217.3 m E Sg      2011/06/07 10:17:23.4   0.0  32.9  -2.5              T                1.8  .27 Ml 2.2         4704555

.
EVENT     260093
    Date      Time       Latitude Longitude    Depth    Ndef Nsta Gap    Mag1  N    Mag2  N    Mag3  N   Author         ID
       rms   OT_Error      Smajor Sminor Az        Err   mdist  Mdist     Err        Err        Err      Quality

2011/06/07 13:33:43.7     44.9661    6.7786      2.0      20    9 158  Ml 2.0  5  Md 2.0  1              js067245    260093

      0.28   +-  0.05       1.1     .7   81.31 +-  0.0    0.24   1.64   +-0.1      +-                    m i ke

FRANCE
Sta     Dist  EvAz     Phase      Date       Time     TRes  Azim  AzRes  Slow  SRes Def   SNR       Amp   Per   Mag1   Mag2       ID
MBDF  000.24 181.2 m E Pg      2011/06/07 13:33:48.8   0.1                          T                                        4704581
MBDF  000.24 181.2 m E Sg      2011/06/07 13:33:51.9   0.0                          T               33.0  .22        Md 2.0  4704582
LPG   000.53 357.9 m E Pg      2011/06/07 13:33:54.2  -0.1                          T                                        4704577
LPG   000.53 357.9 m E Sg      2011/06/07 13:34:01.0  -0.2                          T               15.7  .28                4704583
LPL   000.55 356.6 m E Pg      2011/06/07 13:33:54.6   0.1                          T                                        4704578
LPL   000.55 356.6 m E Sg      2011/06/07 13:34:01.6  -0.2                          T               11.8  .28                4704584
ORIF  000.64 266.0 m E Pg      2011/06/07 13:33:55.9  -0.1                          T                                        4704579
ORIF  000.64 266.0 m E Sg      2011/06/07 13:34:04.7   0.3                          T               14.3  .24                4704580
SBF   001.20 156.7 m E Pg      2011/06/07 13:34:06.2   0.0                          T                                        4704593
SBF   001.20 156.7 m E Sg      2011/06/07 13:34:21.7   0.0                          T                2.7  .26 Ml 1.9         4704586
SMRF  001.31 221.5 m E Pg      2011/06/07 13:34:08.3   0.0                          T                                        4704590
SMRF  001.31 221.5 m E Sg      2011/06/07 13:34:24.6  -0.7                          T                3.9  .40 Ml 1.9         4704589
FRF   001.41 183.9 m E Pg      2011/06/07 13:34:10.0  -0.1                          T                                        4704591
FRF   001.41 183.9 m E Sg      2011/06/07 13:34:28.0  -0.2                          T                6.0  .48 Ml 2.1         4704588
VIVF  001.50 266.5 m E Pg      2011/06/07 13:34:11.9   0.1                          T                                        4704594
VIVF  001.50 266.5 m E Sg      2011/06/07 13:34:31.1   0.0                          T                3.5  .32 Ml 2.1         4704585
LMR   001.64 186.9 m E Pg      2011/06/07 13:34:14.4   0.1                          T                                        4704592
LMR   001.64 186.9 m E Sg      2011/06/07 13:34:35.7   0.2                          T                1.3  .23 Ml 1.9         4704587

.
EVENT     260095
    Date      Time       Latitude Longitude    Depth    Ndef Nsta Gap    Mag1  N    Mag2  N    Mag3  N   Author         ID
       rms   OT_Error      Smajor Sminor Az        Err   mdist  Mdist     Err        Err        Err      Quality

2011/06/07 14:00:35.4     48.7437    5.9897       .0 f    10    6 221  Ml 1.9  2  Md 2.2  1              js067245    260095

      2.30   +-  0.74      12.3    5.2   25.59 +-  0.0    0.26   1.09   +-0.3      +-                    m i km

FRANCE
Sta     Dist  EvAz     Phase      Date       Time     TRes  Azim  AzRes  Slow  SRes Def   SNR       Amp   Per   Mag1   Mag2       ID
PAGF  000.26 223.0 m E Pg      2011/06/07 14:00:42.1   1.3  41.9  -0.9              T                                        4704601
PAGF  000.26 223.0 m E Sg      2011/06/07 14:00:46.3   1.8  68.2  25.3              T               40.0  .85        Md 2.2  4704602
MEZF  000.67 249.1 m E Pg      2011/06/07 14:00:47.7  -0.6  68.6  0.2               T                                        4704604
MEZF  000.67 249.1 m E Sg      2011/06/07 14:00:56.6  -0.6  70.0  1.6               T              154.9  .86                4704600
SFTF  000.83 229.9 m E Pg      2011/06/07 14:00:50.4  -0.9                          T                                        4704597
SFTF  000.83 229.9 m E Sg      2011/06/07 14:01:01.1  -1.2  50.9  1.7               T                                        4704598
HAU   000.78 161.9 m E Pg      2011/06/07 14:00:50.7   0.3                          T                                        4704603
HAU   000.78 161.9 m E Sg      2011/06/07 14:01:01.3   0.7                          T                6.5  .38                4704595
CDF   000.92 110.7 m E Sg      2011/06/07 14:01:05.2   0.0                          T                1.9  .34 Ml 1.6         4704605
HINF  001.09 147.8 m E Sg      2011/06/07 14:01:09.6  -0.9                          T                5.5  .30 Ml 2.1         4704596

.
