EVENT     265306
    Date      Time       Latitude Longitude    Depth    Ndef Nsta Gap    Mag1  N    Mag2  N    Mag3  N   Author         ID
       rms   OT_Error      Smajor Sminor Az        Err   mdist  Mdist     Err        Err        Err      Quality

2011/10/20 06:31:24.4     44.6765    9.5379     10.0 f    32   10 146  Ml 2.6  8                         js067245    265326

      0.36   +-  0.11       2.4    1.6   22.34 +-  0.0    0.56   3.47   +-0.3                            m i ke

NORTHERN ITALY
Sta     Dist  EvAz     Phase      Date       Time     TRes  Azim  AzRes  Slow  SRes Def   SNR       Amp   Per   Mag1   Mag2       ID
SBF   001.72 242.4 m E Pn      2011/10/20 06:31:53.7   0.9                          T                                        4773406
SBF   001.72 242.4 m E Sn      2011/10/20 06:32:14.0   0.6                          T               24.4  .27 Ml 3.1         4777130
LPG   002.14 293.6 m E Pn      2011/10/20 06:31:58.7  -0.1                          T                                        4777135
LPG   002.14 293.6 m E Pg      2011/10/20 06:32:04.7   0.2                          T                                        4777134
LPG   002.14 293.6 m E Sg      2011/10/20 06:32:32.0   0.0                          T                6.8  .46 Ml 2.4         4777127
LPL   002.16 293.9 m E Pn      2011/10/20 06:31:58.9  -0.1                          T                                        4777137
LPL   002.16 293.9 m E Pg      2011/10/20 06:32:04.9   0.1                          T                                        4777136
LPL   002.16 293.9 m E Sg      2011/10/20 06:32:32.9   0.3                          T                6.4  .42 Ml 2.4         4777126
PGF   002.16 190.6 m E Pn      2011/10/20 06:31:59.3   0.4                          T                                        4777129
MBDF  001.97 272.4 m E Pg      2011/10/20 06:32:01.4   0.1                          T                                        4777141
MBDF  001.97 272.4 m E Sn      2011/10/20 06:32:19.8   0.1                          T               15.5  .42 Ml 2.8         4777124
FRF   002.36 242.8 m E Pn      2011/10/20 06:32:01.6   0.2                          T                                        4777132
FRF   002.36 242.8 m E Pg      2011/10/20 06:32:08.7   0.4                          T                                        4777131
FRF   002.36 242.8 m E Sn      2011/10/20 06:32:28.6  -0.1                          T               10.8  .33 Ml 2.8         4777128
ORIF  002.62 276.6 m E Pn      2011/10/20 06:32:04.9  -0.1                          T                                        4777139
ORIF  002.62 276.6 m E Pg      2011/10/20 06:32:13.3   0.3                          T                                        4777138
ORIF  002.62 276.6 m E Sg      2011/10/20 06:32:47.0   0.3                          T                5.0  .37 Ml 2.5         4777125
LMR   002.56 239.5 m E Pn      2011/10/20 06:32:05.4   1.2                          T                                        4773405
LMR   002.56 239.5 m E Sn      2011/10/20 06:32:33.2  -0.4                          T                7.8  .31 Ml 2.8         4773404
SMRF  002.93 257.6 m E P       2011/10/20 06:32:11.7  -0.5                          T                                        4773403
SMRF  002.93 257.6 m E Pg      2011/10/20 06:32:19.5   0.8                          T                                        4777133
VIVF  003.47 274.7 m E P       2011/10/20 06:32:19.7  -0.2                          T                                        4777140
VIVF  003.47 274.7 m E Sn      2011/10/20 06:32:55.6   0.3                          T                1.7  .34 Ml 2.2         4777123

.
EVENT     265307
    Date      Time       Latitude Longitude    Depth    Ndef Nsta Gap    Mag1  N    Mag2  N    Mag3  N   Author         ID
       rms   OT_Error      Smajor Sminor Az        Err   mdist  Mdist     Err        Err        Err      Quality

2011/10/20 06:39:14.9     44.4040    9.5351     10.0 f    75   24 145  Ml 3.4 23                         js067245    265327

      1.11   +-  0.22       5.0    3.3  120.73 +-  0.0    1.56   5.50   +-0.3                            m i ke

NORTHERN ITALY
Sta     Dist  EvAz     Phase      Date       Time     TRes  Azim  AzRes  Slow  SRes Def   SNR       Amp   Per   Mag1   Mag2       ID
SBF   001.61 251.1 m E Pn      2011/10/20 06:39:40.7  -1.0                          T                                        4774070
SBF   001.61 251.1 m E Sn      2011/10/20 06:40:01.0  -0.2                          T              200.9  .36 Ml 3.8         4774038
PGF   001.90 192.1 m E Pn      2011/10/20 06:39:45.9   0.2                          T                                        4774055
PGF   001.90 192.1 m E Sn      2011/10/20 06:40:08.7   0.5                          T               17.4  .28 Ml 3.2         4774039
MBDF  002.00 280.2 m E Pn      2011/10/20 06:39:47.4   0.1                          T                                        4774056
MBDF  002.00 280.2 m E Sn      2011/10/20 06:40:10.4  -0.5                          T               95.8  .41 Ml 3.6         4774050
FRF   002.25 249.0 m E Pn      2011/10/20 06:39:49.4  -1.0                          T                                        4774068
FRF   002.25 249.0 m E Pg      2011/10/20 06:39:55.1  -1.5                          T                                        4777404
FRF   002.25 249.0 m E Sn      2011/10/20 06:40:15.8  -0.7                          T               51.8  .36 Ml 3.5         4774037
LPG   002.26 299.9 m E Pn      2011/10/20 06:39:50.9   0.0                          T                                        4774065
LPG   002.26 299.9 m E P       2011/10/20 06:39:53.7   0.3                          T                                        4774032
LPG   002.26 299.9 m E Sn      2011/10/20 06:40:17.3   0.1                          T               44.2  .39 Ml 3.3         4777395
LPL   002.28 300.2 m E Pn      2011/10/20 06:39:51.2   0.1                          T                                        4774067
LPL   002.28 300.2 m E P       2011/10/20 06:39:53.9   0.3                          T                                        4777403
LPL   002.28 300.2 m E Sn      2011/10/20 06:40:18.0   0.4                          T               41.0  .34 Ml 3.3         4777396
LMR   002.44 245.0 m E Pn      2011/10/20 06:39:51.9  -1.1                          T                                        4774069
LMR   002.44 245.0 m E P       2011/10/20 06:39:53.6  -1.9                          T                                        4774031
LMR   002.44 245.0 m E Sn      2011/10/20 06:40:19.4  -1.6                          T               36.3  .26 Ml 3.5         4774051
ORIF  002.66 282.4 m E Pn      2011/10/20 06:39:57.6   1.5                          T                                        4774066
ORIF  002.66 282.4 m E Sn      2011/10/20 06:40:25.6  -0.8                          T               67.9  .56 Ml 3.4         4774049
SMRF  002.88 262.8 m E Pn      2011/10/20 06:39:59.1   0.0                          T                                        4774064
SMRF  002.88 262.8 m E Sn      2011/10/20 06:40:30.8  -0.9                          T               37.6  .54 Ml 3.2         4777394
CABF  003.28 313.5 m E Pn      2011/10/20 06:40:05.0   0.5                          T                                        4774058
CABF  003.28 313.5 m E Sn      2011/10/20 06:40:41.4   0.1                          T               28.1  .52 Ml 3.2         4774040
VIVF  003.50 279.1 m E Pn      2011/10/20 06:40:07.9   0.4                          T                                        4774057
VIVF  003.50 279.1 m E P       2011/10/20 06:40:09.8  -1.0                          T                                        4777402
VIVF  003.50 279.1 m E Sn      2011/10/20 06:40:47.0   0.4                          T                9.9  .31 Ml 3.0         4777397
HINF  003.89 332.3 m E Pn      2011/10/20 06:40:12.3  -0.5                          T                                        4774059
HINF  003.89 332.3 m E Sn      2011/10/20 06:40:54.9  -1.0                          T               23.2  .42 Ml 3.4         4774047
LASF  004.09 267.4 m E Pn      2011/10/20 06:40:14.4  -1.2                          T                                        4777401
HAU   004.23 329.6 m E Pn      2011/10/20 06:40:17.4   0.0                          T                                        4774062
HAU   004.23 329.6 m E Sn      2011/10/20 06:41:04.8   0.9                          T               65.3  .36 Ml 3.7         4774053
CDF   004.30 339.5 m E Pn      2011/10/20 06:40:17.5  -1.0                          T                                        4774054
CDF   004.30 339.5 m E Sn      2011/10/20 06:41:04.7  -1.1                          T               15.4  .32 Ml 3.5         4774041
SMF   004.59 301.3 m E Pn      2011/10/20 06:40:22.5   0.3                          T                                        4774060
SMF   004.59 301.3 m E Sn      2011/10/20 06:41:13.3   0.9                          T               20.0  .29 Ml 3.6         4774052
LOR   004.89 307.8 m E Pn      2011/10/20 06:40:26.6   0.1 123.3  -0.5              T                                        4774046
LOR   004.89 307.8 m E Sn      2011/10/20 06:41:19.9   0.1 127.2  3.5               T               28.4  .40 Ml 3.7         4774036
PAGF  004.92 329.0 m E Pn      2011/10/20 06:40:27.0   0.3 158.0  11.8              T                                        4774042
PAGF  004.92 329.0 m E Sn      2011/10/20 06:41:19.9  -0.4 146.1  -0.2              T                4.5  .44 Ml 2.9         4774034
SFTF  004.91 322.3 m E Pn      2011/10/20 06:40:27.1   0.3 130.3  -8.7              T                                        4774043
AVF   004.95 301.0 m E Pn      2011/10/20 06:40:27.5   0.3                          T                                        4774063
AVF   004.95 301.0 m E Sn      2011/10/20 06:41:20.7  -0.4                          T                4.7  .33 Ml 3.0         4777398
SSF   004.99 304.3 m E Pn      2011/10/20 06:40:28.1   0.4                          T                                        4774045
SSF   004.99 304.3 m E Sn      2011/10/20 06:41:20.5  -1.5                          T                4.6  .28 Ml 3.2         4777399
BGF   005.17 296.9 m E Pn      2011/10/20 06:40:30.7   0.5                          T                                        4774061
BGF   005.17 296.9 m E Sn      2011/10/20 06:41:27.7   1.2                          T               22.5  .42 Ml 3.6         4774033
CAF   005.35 278.2 m E Pn      2011/10/20 06:40:33.3   0.5                          T                                        4777400
TCF   005.50 292.6 m E Pn      2011/10/20 06:40:35.3   0.7                          T                                        4774044
TCF   005.50 292.6 m E Sn      2011/10/20 06:41:34.3   0.1                          T                6.6  .40 Ml 3.2         4774035

.
EVENT     265319
    Date      Time       Latitude Longitude    Depth    Ndef Nsta Gap    Mag1  N    Mag2  N    Mag3  N   Author         ID
       rms   OT_Error      Smajor Sminor Az        Err   mdist  Mdist     Err        Err        Err      Quality

2011/10/20 09:35:12.7     44.4486    9.4238     10.0 f    21    9 139  Ml 2.4  4                         js067245    265339

      1.04   +-  0.32       7.5    5.2   48.35 +-  0.0    0.15   4.83   +-0.3                            m i ke

NORTHERN ITALY
Sta     Dist  EvAz     Phase      Date       Time     TRes  Azim  AzRes  Slow  SRes Def   SNR       Amp   Per   Mag1   Mag2       ID
SBF   001.55 248.5 m E Pn      2011/10/20 09:35:38.8   0.1                          T                                        4776142
SBF   001.55 248.5 m E Pg      2011/10/20 09:35:40.8  -0.7                          T                                        4776141
SBF   001.55 248.5 m E Sn      2011/10/20 09:36:00.0   2.4                          T                7.6  .23 Ml 2.6         4776126
MBDF  001.92 279.3 m E Pn      2011/10/20 09:35:43.6  -0.3                          T                                        4776134
MBDF  001.92 279.3 m E P       2011/10/20 09:35:46.6   0.5                          T                                        4776133
MBDF  001.92 279.3 m E Sn      2011/10/20 09:36:07.4   0.8                          T                                        4776128
MBDF  001.92 279.3 m E Sg      2011/10/20 09:36:12.9  -0.3                          T                4.0  .39 Ml 2.2         4776129
PGF   001.92 189.4 m E Pn      2011/10/20 09:35:43.8  -0.1                          T                                        4776143
FRF   002.19 247.1 m E Pn      2011/10/20 09:35:47.1  -0.3                          T                                        4776138
FRF   002.19 247.1 m E Pg      2011/10/20 09:35:52.7  -0.7                          T                                        4776137
LPG   002.17 299.9 m E Pn      2011/10/20 09:35:49.3   1.9                          T                                        4776135
LPG   002.17 299.9 m E Sg      2011/10/20 09:36:20.6  -0.6                          T                1.9  .30 Ml 2.0         4776127
LMR   002.38 243.1 m E Pn      2011/10/20 09:35:49.7  -0.3                          T                                        4776140
LMR   002.38 243.1 m E Pg      2011/10/20 09:35:56.2  -0.7                          T                                        4776139
SMRF  002.81 261.7 m E Pn      2011/10/20 09:35:56.8   1.0                          T                                        4776136
HAU   004.15 330.1 m E Pn      2011/10/20 09:36:15.0   0.9                          T                                        4776132
HAU   004.15 330.1 m E Sn      2011/10/20 09:37:01.6   1.8                          T                3.7  .28 Ml 2.6         4776130
SFTF  004.83 322.6 m E Pn      2011/10/20 09:36:23.9   0.5                          T                                        4776131

.
EVENT     265320
    Date      Time       Latitude Longitude    Depth    Ndef Nsta Gap    Mag1  N    Mag2  N    Mag3  N   Author         ID
       rms   OT_Error      Smajor Sminor Az        Err   mdist  Mdist     Err        Err        Err      Quality

2011/10/20 10:01:18.7     48.7437    5.9846       .0 f    15    8 221  Ml 2.2  3  Md 1.8  1              js067245    265340

      0.88   +-  0.19       3.3    1.6   12.28 +-  0.0    0.26   2.05   +-0.2      +-                    m i km

FRANCE
Sta     Dist  EvAz     Phase      Date       Time     TRes  Azim  AzRes  Slow  SRes Def   SNR       Amp   Per   Mag1   Mag2       ID
PAGF  000.26 222.4 m E Pg      2011/10/20 10:01:24.1   0.1  46.5  4.2               T                                        4776157
PAGF  000.26 222.4 m E Sg      2011/10/20 10:01:28.0   0.4  39.5  -2.8              T               45.6  .81        Md 1.8  4776158
THEF  000.52 179.3 m E Pg      2011/10/20 10:01:28.4  -0.4                          T                                        4776153
THEF  000.52 179.3 m E Sg      2011/10/20 10:01:35.9   0.1                          T               81.3 1.11                4776154
MEZF  000.66 249.0 m E Pg      2011/10/20 10:01:31.2  -0.3                          T                                        4776146
MEZF  000.66 249.0 m E Sg      2011/10/20 10:01:40.3  -0.1                          T               20.4  .38                4776147
HAU   000.78 161.7 m E Pg      2011/10/20 10:01:33.8   0.2                          T               13.8  .34                4776151
HAU   000.78 161.7 m E Sg      2011/10/20 10:01:44.2   0.3                          T                                        4776152
SFTF  000.83 229.8 m E Pg      2011/10/20 10:01:34.5  -0.1                          T                                        4776144
SFTF  000.83 229.8 m E Sg      2011/10/20 10:01:45.4  -0.1  44.7  -4.4              T               21.8  .89                4776145
CDF   000.92 110.7 m E Pg      2011/10/20 10:01:36.2  -0.1                          T                                        4776155
CDF   000.92 110.7 m E Sg      2011/10/20 10:01:48.1  -0.3                          T                6.7  .36 Ml 2.2         4776156
HINF  001.09 147.7 m E Pg      2011/10/20 10:01:40.0   0.5                          T                                        4776149
HINF  001.09 147.7 m E Sg      2011/10/20 10:01:53.5  -0.4                          T               10.6  .31 Ml 2.4         4776150
LOR   002.05 224.8 m E Sg      2011/10/20 10:02:23.8   0.0  33.5  -9.8              T                 .8  .13 Ml 2.0         4776148

.
