EVENT     260200
    Date      Time       Latitude Longitude    Depth    Ndef Nsta Gap    Mag1  N    Mag2  N    Mag3  N   Author         ID
       rms   OT_Error      Smajor Sminor Az        Err   mdist  Mdist     Err        Err        Err      Quality

2011/06/09 10:06:10.1     50.3118    7.4132     10.0      27    9 038  Ml 2.4  8  Md 2.4  1              js067245    260200

      0.47   +-  0.07       1.4    1.2   70.23 +-  0.0    0.12   2.62   +-0.4      +-                    m i ke

GERMANY
Sta     Dist  EvAz     Phase      Date       Time     TRes  Azim  AzRes  Slow  SRes Def   SNR       Amp   Per   Mag1   Mag2       ID
RUP   000.65 200.6 m E Pg      2011/06/09 10:06:22.0  -0.5                          T                                        4704964
RUP   000.65 200.6 m E Sg      2011/06/09 10:06:31.0  -0.2                          T                                Md 2.4  4704965
LANF  001.36 169.0 m E Pg      2011/06/09 10:06:35.5   0.1                          T                                        4704958
LANF  001.36 169.0 m E Sg      2011/06/09 10:06:53.2   0.1                          T               12.2  .26 Ml 2.7         4704959
CDF   001.90 182.8 m E Pn      2011/06/09 10:06:41.1   0.0                          T                                        4704956
CDF   001.90 182.8 m E Pg      2011/06/09 10:06:45.7   0.1                          T                                        4704955
CDF   001.90 182.8 m E Sg      2011/06/09 10:07:10.5   0.3                          T                7.7  .35 Ml 2.6         4704957
GIVF  001.68 263.8 m E Pg      2011/06/09 10:06:41.2  -0.1                          T                                        4704962
GIVF  001.68 263.8 m E Sg      2011/06/09 10:07:03.0   0.0                          T               13.1  .28 Ml 2.8         4704963
BAIF  002.08 264.2 m E Pn      2011/06/09 10:06:43.1  -0.1                          T                                        4704960
BAIF  002.08 264.2 m E Sn      2011/06/09 10:07:07.9   0.3                          T                6.0  .30 Ml 2.5         4704961
PAGF  002.08 212.7 m E Pg      2011/06/09 10:06:48.7   0.0                          T                                        4704949
PAGF  002.08 212.7 m E Sg      2011/06/09 10:07:15.5   0.0                          T                 .6  .28 Ml 1.6         4704954
SFTF  002.62 217.3 m E Pn      2011/06/09 10:06:50.4  -0.2                          T                                        4704947
SFTF  002.62 217.3 m E Pg      2011/06/09 10:06:58.6  -0.1                          T                                        4704946
SFTF  002.62 217.3 m E Sg      2011/06/09 10:07:32.0  -0.4                          T                2.2  .19 Ml 2.4         4704948
HAU   002.41 197.3 m E Pg      2011/06/09 10:06:54.7  -0.2                          T                                        4704951
HAU   002.41 197.3 m E Sg      2011/06/09 10:07:25.9  -0.1                          T                4.0  .24 Ml 2.3         4704953
HINF  002.52 188.6 m E Pg      2011/06/09 10:06:56.8  -0.2                          T                                        4704950
HINF  002.52 188.6 m E Sg      2011/06/09 10:07:29.7   0.3                          T                1.4  .15 Ml 2.3         4704952

.
EVENT     260190
    Date      Time       Latitude Longitude    Depth    Ndef Nsta Gap    Mag1  N    Mag2  N    Mag3  N   Author         ID
       rms   OT_Error      Smajor Sminor Az        Err   mdist  Mdist     Err        Err        Err      Quality

2011/06/09 16:16:34.6     40.6783   19.8574     10.0 f    92   17 056  Ml 4.2  9                         js067245    260190

      0.69   +-  0.08       2.9    1.7   39.31 +-  0.0    0.67  16.24   +-0.2                            m i ke

ALBANIA
Sta     Dist  EvAz     Phase      Date       Time     TRes  Azim  AzRes  Slow  SRes Def   SNR       Amp   Per   Mag1   Mag2       ID
PGF   008.35 286.5 m E P       2011/06/09 16:18:38.7  -0.1                          T                                        4704999
SBF   009.74 293.1 m E P       2011/06/09 16:18:57.7  -0.3                          T                                        4704998
FRF   010.23 290.7 m E P       2011/06/09 16:19:04.9   0.2                          T                                        4704997
LPG   010.72 301.0 m E Pn      2011/06/09 16:19:06.1   0.2                          T                                        4705000
LPG   010.72 301.0 m E Sn      2011/06/09 16:20:59.5   0.4                          T               20.9  .56 Ml 4.4         4704996
LPL   010.74 301.1 m E Pn      2011/06/09 16:19:06.1   0.1                          T                                        4705001
LPL   010.74 301.1 m E Sn      2011/06/09 16:20:59.9   0.4                          T               30.9  .70 Ml 4.5         4704995
MBDF  010.45 297.1 m E P       2011/06/09 16:19:07.4  -0.4                          T                                        4705003
MBDF  010.45 297.1 m E Sn      2011/06/09 16:20:52.3   0.0                          T               12.0  .64 Ml 4.1         4704993
ORIF  011.11 297.0 m E Pn      2011/06/09 16:19:10.8  -0.1                          T                                        4705002
ORIF  011.11 297.0 m E Sn      2011/06/09 16:21:08.7   0.6                          T                9.7  .62 Ml 4.1         4704994
CABF  011.60 305.3 m E Pn      2011/06/09 16:19:17.6   0.0                          T                                        4705006
HINF  011.73 311.8 m E Pn      2011/06/09 16:19:19.2  -0.1                          T                                        4705007
HINF  011.73 311.8 m E Sn      2011/06/09 16:21:22.7  -0.2                          T               14.9  .62 Ml 4.3         4704991
CDF   011.84 315.0 m E Pn      2011/06/09 16:19:21.2   0.4                          T                                        4705010
CDF   011.84 315.0 m E Sn      2011/06/09 16:21:25.1  -0.4                          T                4.8  .60 Ml 4.0         4704989
HAU   012.12 311.7 m E Pn      2011/06/09 16:19:24.2  -0.3                          T                                        4705008
HAU   012.12 311.7 m E Sn      2011/06/09 16:21:31.5  -0.7                          T               10.8  .46 Ml 4.2         4704990
PAGF  012.77 312.8 m E Pn      2011/06/09 16:19:33.7   0.4                          T                                        4705009
SMF   013.03 302.5 m E Pn      2011/06/09 16:19:36.8  -0.2                          T                                        4705005
SMF   013.03 302.5 m E Sn      2011/06/09 16:21:53.5  -0.4                          T               11.1  .60 Ml 4.3         4704992
LOR   013.26 305.1 m E Pn      2011/06/09 16:19:39.4  -0.7                          T                                        4705013
LOR   013.26 305.1 m E Sn      2011/06/09 16:21:59.1  -0.3                          T                9.8  .56 Ml 4.3         4704988
SSF   013.40 303.9 m E Pn      2011/06/09 16:19:42.4   0.5                          T                                        4705012
TCF   013.98 299.5 m E Pn      2011/06/09 16:19:49.0  -0.8                          T                                        4705011
LDF   016.24 305.8 m E P       2011/06/09 16:20:25.2   0.7                          T                                        4705004

.
EVENT     260191
    Date      Time       Latitude Longitude    Depth    Ndef Nsta Gap    Mag1  N    Mag2  N    Mag3  N   Author         ID
       rms   OT_Error      Smajor Sminor Az        Err   mdist  Mdist     Err        Err        Err      Quality

2011/06/09 18:11:10.1     42.9986     .3220      2.0      25    7 088  Ml 1.9  6  Md 1.9  2              js067245    260191

      0.44   +-  0.08       1.9    1.4  142.26 +-  0.0    0.03   2.79   +-0.3      +-0.1                 m i ke

PYRENEES
Sta     Dist  EvAz     Phase      Date       Time     TRes  Azim  AzRes  Slow  SRes Def   SNR       Amp   Per   Mag1   Mag2       ID
EPF   000.03 022.6 m E Pg      2011/06/09 18:11:10.3  -1.0                          T                                        4705020
EPF   000.03 022.6 m E Sg      2011/06/09 18:11:11.0  -1.1                          T              471.6  .30        Md 1.9  4705021
ETSF  000.65 261.5 m E Pg      2011/06/09 18:11:21.7  -0.9                          T                                        4706124
ETSF  000.65 261.5 m E Sg      2011/06/09 18:11:30.2  -0.9                          T                8.5  .26        Md 2.0  4705019
SJPF  001.14 276.3 m E Pg      2011/06/09 18:11:31.5   0.1                          T                                        4706123
SJPF  001.14 276.3 m E Sg      2011/06/09 18:11:46.4   0.1                          T                 .8  .19 Ml 1.5         4705014
LFF   001.96 008.7 m E Pg      2011/06/09 18:11:46.5  -0.1                          T                                        4706120
LFF   001.96 008.7 m E Sn      2011/06/09 18:12:06.2  -0.2                          T                                        4706118
LFF   001.96 008.7 m E Sg      2011/06/09 18:12:12.0   0.1                          T                4.1  .30 Ml 2.2         4706115
CAF   002.30 032.5 m E Pn      2011/06/09 18:11:47.1  -0.2                          T                                        4706122
CAF   002.30 032.5 m E Pg      2011/06/09 18:11:52.9   0.0                          T                                        4706121
CAF   002.30 032.5 m E Sn      2011/06/09 18:12:14.4  -0.1                          T                                        4706117
CAF   002.30 032.5 m E Sg      2011/06/09 18:12:22.5   0.0                          T                1.0  .24 Ml 1.9         4706116
RJF   002.46 020.0 m E Sn      2011/06/09 18:12:18.0  -0.3                          T                                        4706119
RJF   002.46 020.0 m E Sg      2011/06/09 18:12:27.7   0.3                          T                 .8  .24 Ml 1.5         4706114
LASF  002.79 066.1 m E Sg      2011/06/09 18:12:37.6   0.0                          T                 .5  .20 Ml 1.8         4706113

.
EVENT     260192
    Date      Time       Latitude Longitude    Depth    Ndef Nsta Gap    Mag1  N    Mag2  N    Mag3  N   Author         ID
       rms   OT_Error      Smajor Sminor Az        Err   mdist  Mdist     Err        Err        Err      Quality

2011/06/09 18:39:28.8     42.9186     .1722      2.0       8    4 194  Ml 0.9  2  Md 1.2  2              js067245    260192

      0.21   +-  0.12       5.4    1.0  168.32 +-  0.0    0.17   1.56   +-0.1      +-0.1                 m i ke

PYRENEES
Sta     Dist  EvAz     Phase      Date       Time     TRes  Azim  AzRes  Slow  SRes Def   SNR       Amp   Per   Mag1   Mag2       ID
EPF   000.17 047.8 m E Pg      2011/06/09 18:39:32.2   0.0                          T                                        4705026
EPF   000.17 047.8 m E Sg      2011/06/09 18:39:34.0  -0.6                          T               11.7  .24        Md 1.2  4705027
ETSF  000.54 268.1 m E Pg      2011/06/09 18:39:39.0  -0.1                          T                                        4705024
ETSF  000.54 268.1 m E Sg      2011/06/09 18:39:46.5   0.3                          T                1.1  .20        Md 1.1  4705025
SJPF  001.04 281.2 m E Pg      2011/06/09 18:39:48.3   0.0                          T                                        4706138
SJPF  001.04 281.2 m E Sg      2011/06/09 18:40:01.8   0.0                          T                 .2  .19 Ml  .8         4706140
MTLF  001.56 073.6 m E Pg      2011/06/09 18:39:57.7   0.0                          T                                        4706139
MTLF  001.56 073.6 m E Sg      2011/06/09 18:40:17.8   0.0                          T                 .2  .23 Ml  .9         4705022

.
EVENT     260193
    Date      Time       Latitude Longitude    Depth    Ndef Nsta Gap    Mag1  N    Mag2  N    Mag3  N   Author         ID
       rms   OT_Error      Smajor Sminor Az        Err   mdist  Mdist     Err        Err        Err      Quality

2011/06/10 04:21:52.3     47.9410   -1.3326      7.0 f    24   10 121  Ml 2.1  9  Md 1.8  1              js067245    260193

      1.80   +-  0.18       4.0    2.9    5.30 +-  0.0    0.55   3.82   +-0.2      +-                    m i ke

FRANCE
Sta     Dist  EvAz     Phase      Date       Time     TRes  Azim  AzRes  Slow  SRes Def   SNR       Amp   Per   Mag1   Mag2       ID
GRR   000.55 035.2 m E Pg      2011/06/10 04:22:03.4   0.7                          T   001.0                                4704881
GRR   000.55 035.2 m E Sg      2011/06/10 04:22:10.0   0.0                          T   001.0        9.5  .24        Md 1.8  4704882
SGMF  000.88 291.4 m E Pg      2011/06/10 04:22:08.9   0.1                          T                                        4705033
SGMF  000.88 291.4 m E Pn      2011/06/10 04:22:09.8   0.4                          T   001.0                                4704893
SGMF  000.88 291.4 m E Sn      2011/06/10 04:22:21.3  -0.4                          T   001.0        3.6  .20 Ml 2.0         4704894
FLN   001.00 034.3 m E Pg      2011/06/10 04:22:10.8  -0.2 208.3  -6.6              T   001.0                                4704878
FLN   001.00 034.3 m E Sn      2011/06/10 04:22:22.0  -1.6                          T   001.0                                4704879
FLN   001.00 034.3 m E Sg      2011/06/10 04:22:24.0   0.0                          T   001.0        3.4  .20 Ml 1.9         4704880
LDF   001.04 050.6 m E Pg      2011/06/10 04:22:11.5  -0.3                          T                                        4705032
LDF   001.04 050.6 m E Pn      2011/06/10 04:22:11.9   0.3                          T   001.0                                4704883
LDF   001.04 050.6 m E Sg      2011/06/10 04:22:24.8  -0.5                          T   001.0        4.4  .20 Ml 2.1         4704884
QUIF  001.23 269.5 m E Pg      2011/06/10 04:22:15.9   0.6                          T   001.0                                4704888
QUIF  001.23 269.5 m E Sg      2011/06/10 04:22:31.0  -0.3                          T   001.0       12.7  .36 Ml 2.5         4704889
ROSF  001.36 287.6 m E Pg      2011/06/10 04:22:16.9  -0.7                          T   001.0                                4704890
ROSF  001.36 287.6 m E Sn      2011/06/10 04:22:32.7  -0.5                          T   001.0                                4704892
ROSF  001.36 287.6 m E Sg      2011/06/10 04:22:35.6   0.4                          T   001.0        1.3  .20 Ml 1.8         4704891
MFF   001.56 148.5 m E Sg      2011/06/10 04:22:41.0  -0.6                          T   001.0        2.8  .24 Ml 2.3         4704886
SSF   003.40 103.2 m E Sn      2011/06/10 04:23:24.2   2.3                          T   001.0        1.9  .44 Ml 2.2         4704887
RJF   003.29 142.3 m E Sg      2011/06/10 04:23:35.8   0.4                          T   001.0        2.4  .32 Ml 2.0         4704885
CAF   003.82 140.8 m E Sg      2011/06/10 04:23:53.9   1.8                          T   001.0         .7  .24 Ml 2.1         4704877

.
EVENT     260194
    Date      Time       Latitude Longitude    Depth    Ndef Nsta Gap    Mag1  N    Mag2  N    Mag3  N   Author         ID
       rms   OT_Error      Smajor Sminor Az        Err   mdist  Mdist     Err        Err        Err      Quality

2011/06/10 04:25:28.5     43.7836   11.9794      2.0      16   10 178  Ml 2.7  4                         js067245    260194

      0.64   +-  0.29       7.3    4.5   49.69 +-  0.0    0.14   5.87   +-0.2                            m i ke

CENTRAL ITALY
Sta     Dist  EvAz     Phase      Date       Time     TRes  Azim  AzRes  Slow  SRes Def   SNR       Amp   Per   Mag1   Mag2       ID
PGF   002.51 241.5 m E Pn      2011/06/10 04:26:08.6   0.0                          T                                        4706153
PGF   002.51 241.5 m E Sn      2011/06/10 04:26:39.3   1.4                          T                3.4  .34 Ml 2.6         4706141
SBF   003.29 273.0 m E Pn      2011/06/10 04:26:19.2   0.0                          T                                        4706152
SBF   003.29 273.0 m E Sn      2011/06/10 04:26:57.2   0.6                          T               10.5  .37 Ml 2.9         4706142
FRF   003.88 268.5 m E Pn      2011/06/10 04:26:27.3   0.2                          T                                        4706150
MBDF  003.86 285.9 m E Pn      2011/06/10 04:26:28.1   1.1                          T                                        4706149
LMR   004.00 265.4 m E Pn      2011/06/10 04:26:28.3  -0.5                          T                                        4706151
CABF  005.03 306.2 m E Pn      2011/06/10 04:26:44.0   1.0                          T                                        4706147
CDF   005.67 326.4 m E Pn      2011/06/10 04:26:52.2   0.6                          T                                        4706146
HAU   005.77 319.0 m E Pn      2011/06/10 04:26:52.9   0.0                          T                                        4706145
HAU   005.77 319.0 m E Sn      2011/06/10 04:27:55.9   0.1                          T                1.4  .29 Ml 2.5         4706144
LASF  005.87 275.7 m E Pn      2011/06/10 04:26:54.9   0.6                          T                                        4706148
HINF  005.40 320.2 m E Sn      2011/06/10 04:27:48.6   1.7                          T                2.0  .33 Ml 2.7         4706143

.
