EVENT     257326
    Date      Time       Latitude Longitude    Depth    Ndef Nsta Gap    Mag1  N    Mag2  N    Mag3  N   Author         ID
       rms   OT_Error      Smajor Sminor Az        Err   mdist  Mdist     Err        Err        Err      Quality

2011/03/18 16:33:52.5     51.4281   16.1282      1.0 f    76   22 168  Ml 4.1 23                         js067245    257326

      0.47   +-  0.15       3.9    1.9    7.06 +-  0.0    0.60  10.28   +-0.3                            m i sr

POLAND
Sta     Dist  EvAz     Phase      Date       Time     TRes  Azim  AzRes  Slow  SRes Def   SNR       Amp   Per   Mag1   Mag2       ID
LANF  005.88 248.6 m E Pn      2011/03/18 16:35:20.3   1.8                          T                                        4661572
LANF  005.88 248.6 m E Sg      2011/03/18 16:36:56.4  -0.1                          T              190.2 1.13 Ml 4.3         4661549
RUP   006.03 256.9 m E Pn      2011/03/18 16:35:23.0   2.5                          T                                        4661573
RUP   006.03 256.9 m E Sg      2011/03/18 16:37:01.0  -0.3                          T                                        4661550
CDF   006.46 245.6 m E Pn      2011/03/18 16:35:27.6   1.1                          T                                        4661571
CDF   006.46 245.6 m E Sg      2011/03/18 16:37:14.7  -0.1                          T              150.7 1.24 Ml 4.4         4661548
HINF  007.02 242.7 m E Pn      2011/03/18 16:35:34.5   0.4                          T                                        4661563
HINF  007.02 242.7 m E Sg      2011/03/18 16:37:32.2   0.0                          T               69.2 1.04 Ml 4.1         4661542
HAU   007.21 245.4 m E Pn      2011/03/18 16:35:36.9   0.3                          T                                        4661562
HAU   007.21 245.4 m E Sg      2011/03/18 16:37:37.9   0.0                          T               74.3 1.10 Ml 3.9         4661543
THEF  007.29 247.9 m E Pn      2011/03/18 16:35:37.9   0.2                          T                                        4661561
THEF  007.29 247.9 m E Sg      2011/03/18 16:37:40.3  -0.3                          T              100.7 1.43 Ml 4.2         4661544
GIVF  007.29 263.9 m E Pn      2011/03/18 16:35:38.2   0.5                          T                                        4661557
GIVF  007.29 263.9 m E Sg      2011/03/18 16:37:40.0  -0.6                          T               83.3 1.22 Ml 4.1         4661552
PAGF  007.30 250.8 m E Pn      2011/03/18 16:35:38.4   0.7                          T                                        4661570
PAGF  007.30 250.8 m E Sg      2011/03/18 16:37:40.4  -0.3                          T               37.6 1.28 Ml 3.8         4661547
BAIF  007.69 264.4 m E Pn      2011/03/18 16:35:42.6  -0.4                          T                                        4661558
BAIF  007.69 264.4 m E Sg      2011/03/18 16:37:52.6  -0.3                          T               51.2 1.09 Ml 4.0         4661551
MEZF  007.72 252.0 m E Pn      2011/03/18 16:35:44.1   0.7                          T                                        4661559
MEZF  007.72 252.0 m E Sg      2011/03/18 16:37:53.7  -0.2                          T               68.3 1.10 Ml 4.2         4661546
SFTF  007.86 250.1 m E Pn      2011/03/18 16:35:45.7   0.2                          T                                        4661560
SFTF  007.86 250.1 m E Sg      2011/03/18 16:37:57.9  -0.6                          T               81.9 1.12 Ml 4.3         4661545
CABF  008.17 237.8 m E Pn      2011/03/18 16:35:50.0   0.3                          T                                        4661540
CABF  008.17 237.8 m E Sg      2011/03/18 16:38:08.2   0.1                          T              105.2 1.18 Ml 4.4         4661541
LPG   008.60 230.0 m E Pn      2011/03/18 16:35:55.8  -0.1                          T                                        4661564
LPG   008.60 230.0 m E Sg      2011/03/18 16:38:21.8   0.0                          T               43.7 1.16 Ml 4.1         4661530
LPL   008.60 230.2 m E Pn      2011/03/18 16:35:56.5   0.8                          T                                        4661565
LPL   008.60 230.2 m E Sg      2011/03/18 16:38:22.0   0.5                          T               75.1 1.56 Ml 4.2         4661531
LOR   009.02 247.3 m E Pn      2011/03/18 16:36:01.6   0.3                          T                                        4661556
LOR   009.02 247.3 m E Sg      2011/03/18 16:38:34.3  -0.4                          T               32.0 1.15 Ml 4.0         4661554
MBDF  009.17 226.7 m E Pn      2011/03/18 16:36:04.9   1.5                          T                                        4661567
MBDF  009.17 226.7 m E Sg      2011/03/18 16:38:39.2  -0.2                          T              120.3 1.90 Ml 4.4         4661533
SSF   009.34 247.0 m E Pn      2011/03/18 16:36:05.5  -0.1                          T                                        4661555
SSF   009.34 247.0 m E Sg      2011/03/18 16:38:44.2  -0.2                          T               42.7 1.24 Ml 4.2         4661553
ORIF  009.44 230.4 m E Pn      2011/03/18 16:36:07.9   0.8                          T                                        4661566
ORIF  009.44 230.4 m E Sg      2011/03/18 16:38:47.9   0.0                          T               86.8 1.62 Ml 4.4         4661532
SMF   009.38 244.1 m E Pn      2011/03/18 16:36:08.1   2.0                          T                                        4661568
SMF   009.38 244.1 m E Sg      2011/03/18 16:38:45.8   0.1                          T               26.3  .84 Ml 4.1         4661538
SBF   009.57 221.1 m E Pn      2011/03/18 16:36:10.3   1.6                          T                                        4661529
AVF   009.57 246.0 m E Pn      2011/03/18 16:36:11.4   2.6                          T                                        4661569
AVF   009.57 246.0 m E Sg      2011/03/18 16:38:51.8   0.0                          T               41.3 1.20 Ml 4.2         4661539
BGF   009.99 246.0 m E Pn      2011/03/18 16:36:14.0  -0.5                          T                                        4661535
BGF   009.99 246.0 m E Sg      2011/03/18 16:39:04.5  -0.4                          T               92.4 1.44 Ml 4.5         4661537

.
EVENT     257327
    Date      Time       Latitude Longitude    Depth    Ndef Nsta Gap    Mag1  N    Mag2  N    Mag3  N   Author         ID
       rms   OT_Error      Smajor Sminor Az        Err   mdist  Mdist     Err        Err        Err      Quality

2011/03/18 17:21:12.5     41.6902    8.8716      2.0      18    7 307  Ml 2.1  9                         js067245    257327

      0.21   +-  0.22       4.4    3.2  177.74 +-  0.0    0.86   3.90   +-0.3                            m i ke

CORSICA, FRANCE
Sta     Dist  EvAz     Phase      Date       Time     TRes  Azim  AzRes  Slow  SRes Def   SNR       Amp   Per   Mag1   Mag2       ID
PGF   000.86 006.3 m E Pn      2011/03/18 17:21:29.9  -0.2                          T                                        4661580
PGF   000.86 006.3 m E Sn      2011/03/18 17:21:42.7   0.2                          T               19.0  .32 Ml 2.8         4661579
LMR   002.40 314.0 m E Pn      2011/03/18 17:21:50.3  -0.6                          T                                        4661577
LMR   002.40 314.0 m E Sn      2011/03/18 17:22:18.9  -0.2                          T                1.5  .25 Ml 2.1         4661574
SBF   002.42 334.5 m E Pn      2011/03/18 17:21:51.5   0.3                          T                                        4661578
SBF   002.42 334.5 m E Sn      2011/03/18 17:22:19.8   0.1                          T                1.4  .34 Ml 1.9         4661584
FRF   002.49 319.5 m E Pn      2011/03/18 17:21:52.5   0.4                          T                                        4661576
FRF   002.49 319.5 m E Sn      2011/03/18 17:22:21.0  -0.3                          T                2.1  .34 Ml 2.2         4661575
SMRF  003.33 314.4 m E Pn      2011/03/18 17:22:03.3  -0.3                          T                                        4661587
SMRF  003.33 314.4 m E Sn      2011/03/18 17:22:41.3  -0.1                          T                 .6  .34 Ml 1.8         4661581
MBDF  003.40 333.9 m E Pn      2011/03/18 17:22:04.8   0.0                          T                                        4661586
MBDF  003.40 333.9 m E Sn      2011/03/18 17:22:43.3   0.0                          T                  1  .37 Ml 1.9         4661583
ORIF  003.90 326.9 m E Pn      2011/03/18 17:22:11.4   0.0                          T                                        4661585
ORIF  003.90 326.9 m E Sn      2011/03/18 17:22:55.0   0.0                          T                 .6  .28 Ml 2.0         4661582

.
EVENT     257328
    Date      Time       Latitude Longitude    Depth    Ndef Nsta Gap    Mag1  N    Mag2  N    Mag3  N   Author         ID
       rms   OT_Error      Smajor Sminor Az        Err   mdist  Mdist     Err        Err        Err      Quality

2011/03/18 22:07:43.4     46.3556    1.5977      2.0      26   11 115  Ml 1.8 12  Md 1.9  3              js067245    257328

      0.21   +-  0.05       1.0     .7  152.15 +-  0.0    0.43   1.80   +-0.2      +-0.0                 m i ke

FRANCE
Sta     Dist  EvAz     Phase      Date       Time     TRes  Azim  AzRes  Slow  SRes Def   SNR       Amp   Per   Mag1   Mag2       ID
TCF   000.43 098.8 m E Pg      2011/03/18 22:07:51.9   0.2                          T                                        4661613
TCF   000.43 098.8 m E Sg      2011/03/18 22:07:57.4   0.0                          T                1.5  .19        Md 2.0  4661604
BGF   000.89 076.4 m E Pg      2011/03/18 22:08:00.2   0.2                          T                                        4661614
BGF   000.89 076.4 m E Sg      2011/03/18 22:08:11.6   0.0                          T                5.5  .27 Ml 2.1 Md 1.9  4661607
RJF   001.05 183.1 m E Pg      2011/03/18 22:08:03.1   0.0                          T                                        4661611
RJF   001.05 183.1 m E Sg      2011/03/18 22:08:16.7  -0.1                          T                3.6  .26 Ml 1.7         4661610
HYF   001.16 037.7 m E Pg      2011/03/18 22:08:05.2   0.1                          T                                        4661597
HYF   001.16 037.7 m E Sg      2011/03/18 22:08:20.3   0.2                          T                                        4661596
MFF   001.23 282.2 m E Pg      2011/03/18 22:08:06.5   0.2                          T                                        4661612
MFF   001.23 282.2 m E Sg      2011/03/18 22:08:21.8  -0.5                          T                1.6  .26 Ml 1.9         4661609
AVF   001.29 069.6 m E Pg      2011/03/18 22:08:07.5   0.1                          T                                        4661599
AVF   001.29 069.6 m E Sg      2011/03/18 22:08:23.6  -0.4                          T                1.3  .26 Ml 1.6         4661605
CAF   001.47 166.9 m E Pg      2011/03/18 22:08:11.0   0.3                          T                                        4661592
CAF   001.47 166.9 m E Sg      2011/03/18 22:08:29.5  -0.3                          T                2.2  .31 Ml 1.9         4661595
SSF   001.49 061.0 m E Pg      2011/03/18 22:08:11.3   0.1                          T                                        4661600
SSF   001.49 061.0 m E Sg      2011/03/18 22:08:30.3  -0.1                          T                2.1  .37 Ml 1.9         4661603
LFF   001.54 203.3 m E Pg      2011/03/18 22:08:12.0   0.0                          T                                        4661593
LFF   001.54 203.3 m E Sg      2011/03/18 22:08:31.7  -0.1                          T                1.8  .34 Ml 1.6         4661594
SMF   001.58 078.6 m E Pg      2011/03/18 22:08:12.7   0.0                          T                                        4661598
SMF   001.58 078.6 m E Sg      2011/03/18 22:08:33.1   0.0                          T                1.1  .34 Ml 1.6         4661606
LOR   001.80 058.7 m E Pg      2011/03/18 22:08:17.0   0.0                          T                                        4661601
LOR   001.80 058.7 m E Sg      2011/03/18 22:08:40.3   0.2                          T                1.8  .37 Ml 1.9         4661602

.
EVENT     257329
    Date      Time       Latitude Longitude    Depth    Ndef Nsta Gap    Mag1  N    Mag2  N    Mag3  N   Author         ID
       rms   OT_Error      Smajor Sminor Az        Err   mdist  Mdist     Err        Err        Err      Quality

2011/03/19 01:02:41.7     46.4352    7.0091      2.0      43   17 104  Ml 2.0 18  Md 2.0  3              js067245    257329

      0.17   +-  0.04        .8     .5   80.76 +-  0.0    0.10   2.55   +-0.3      +-0.0                 m i ke

SWITZERLAND
Sta     Dist  EvAz     Phase      Date       Time     TRes  Azim  AzRes  Slow  SRes Def   SNR       Amp   Per   Mag1   Mag2       ID
CABF  000.66 285.8 m E Pg      2011/03/19 01:02:54.0  -0.3                          T                                        4661678
CABF  000.66 285.8 m E Sg      2011/03/19 01:03:03.1   0.2                          T               13.0  .66        Md 2.0  4661673
LPL   000.94 192.0 m E Pg      2011/03/19 01:02:59.2  -0.4                          T                                        4661672
LPL   000.94 192.0 m E Sg      2011/03/19 01:03:11.8   0.0                          T                2.5  .36 Ml 1.6 Md 2.0  4661642
LPG   000.95 190.9 m E Pg      2011/03/19 01:02:59.7  -0.2                          T                                        4661671
LPG   000.95 190.9 m E Sg      2011/03/19 01:03:12.4   0.1                          T                1.6  .25 Ml 1.6 Md 1.9  4661641
HINF  001.39 355.6 m E Pg      2011/03/19 01:03:07.5  -0.1                          T                                        4661677
HINF  001.39 355.6 m E Sg      2011/03/19 01:03:25.5   0.0                          T                7.5  .22 Ml 2.5         4661675
HAU   001.63 344.2 m E Pg      2011/03/19 01:03:11.9  -0.3                          T                                        4661676
HAU   001.63 344.2 m E Sg      2011/03/19 01:03:33.1  -0.1                          T                6.1  .22 Ml 2.3         4661674
ORIF  001.71 208.0 m E Pg      2011/03/19 01:03:13.7   0.1                          T                                        4661669
ORIF  001.71 208.0 m E Sg      2011/03/19 01:03:35.8   0.1                          T                1.5  .27 Ml 1.9         4661648
MBDF  001.72 185.7 m E Pg      2011/03/19 01:03:13.8   0.0                          T                                        4661670
MBDF  001.72 185.7 m E Sg      2011/03/19 01:03:36.1   0.2                          T                 .6  .27 Ml 1.5         4661649
THEF  001.92 339.3 m E Pg      2011/03/19 01:03:17.4   0.0                          T                                        4661666
THEF  001.92 339.3 m E Sg      2011/03/19 01:03:42.3   0.1                          T                2.6  .22 Ml 2.3         4661657
CDF   001.99 005.1 m E Pg      2011/03/19 01:03:18.7   0.0                          T                                        4661664
CDF   001.99 005.1 m E Sg      2011/03/19 01:03:44.3   0.0                          T                2.4  .42 Ml 2.1         4661659
SMF   002.20 276.6 m E Pg      2011/03/19 01:03:22.1  -0.3                          T                                        4661667
SMF   002.20 276.6 m E Sg      2011/03/19 01:03:50.8   0.0                          T                2.2  .29 Ml 2.1         4661656
SFTF  002.22 323.6 m E Pg      2011/03/19 01:03:22.9   0.0                          T                                        4661665
SFTF  002.22 323.6 m E Sg      2011/03/19 01:03:51.3  -0.2                          T                3.6  .28 Ml 2.4         4661658
PAGF  002.29 338.2 m E Pg      2011/03/19 01:03:24.1  -0.1                          T                                        4661652
PAGF  002.29 338.2 m E Sg      2011/03/19 01:03:53.9   0.1                          T                 .7  .43 Ml 1.5         4661651
VIVF  002.28 226.9 m E Pg      2011/03/19 01:03:24.2   0.2                          T                                        4661668
VIVF  002.28 226.9 m E Sg      2011/03/19 01:03:53.4   0.1                          T                1.3  .31 Ml 1.9         4661647
LOR   002.32 292.2 m E Pg      2011/03/19 01:03:24.8   0.1                          T                                        4661663
LOR   002.32 292.2 m E Sg      2011/03/19 01:03:54.5   0.0                          T                1.1  .24 Ml 2.0         4661661
MEZF  002.46 328.0 m E Pg      2011/03/19 01:03:27.3   0.1                          T                                        4661653
MEZF  002.46 328.0 m E Sg      2011/03/19 01:03:58.8   0.0                          T                2.2  .31 Ml 2.2         4661650
SSF   002.49 285.8 m E Pg      2011/03/19 01:03:27.9   0.1                          T                                        4661662
SSF   002.49 285.8 m E Sg      2011/03/19 01:04:00.0   0.1                          T                 .7  .20 Ml 2.0         4661660
AVF   002.55 279.3 m E Pg      2011/03/19 01:03:29.0   0.1                          T                                        4661654
AVF   002.55 279.3 m E Sg      2011/03/19 01:04:01.8   0.2                          T                 .7  .33 Ml 1.7         4661655

.
