BEGIN GSE2.0
MSG_TYPE DATA
MSG_ID 21-MAR-1215:38:15  FRA_NDC
E-MAIL
DATA_TYPE BULLETIN
Reviewed Bulletin (REB) # P2012-010  from French NDC for regional phases     PERIOD 07 MAR 2012 TO 13 MAR 2012 S M., J-P S
EVENT     271388
    Date      Time       Latitude Longitude    Depth    Ndef Nsta Gap    Mag1  N    Mag2  N    Mag3  N   Author         ID
       rms   OT_Error      Smajor Sminor Az        Err   mdist  Mdist     Err        Err        Err      Quality

2012/03/07 02:30:35.7     44.7586    6.6891      2.0      22    7 076  Ml 1.7  1  Md 1.4  2              js067245    271408

      0.89   +-  0.12       2.8    2.2   63.11 +-  0.0    0.07   1.20   +-         +-0.0                 m i ke

FRANCE
Sta     Dist  EvAz     Phase      Date       Time     TRes  Azim  AzRes  Slow  SRes Def   SNR       Amp   Per   Mag1   Mag2       ID
MBDF  000.07 118.3 m E Pg      2012/03/07 02:30:37.1  -0.4                          T                                        4875898
MBDF  000.07 118.3 m E Sg      2012/03/07 02:30:38.8   0.1                          T              105.1  .48        Md 1.4  4873832
ORIF  000.60 285.8 m E Pg      2012/03/07 02:30:47.3   0.1                          T                                        4873831
ORIF  000.60 285.8 m E Sg      2012/03/07 02:30:54.5  -0.5                          T                6.6  .22        Md 1.4  4873830
LPG   000.74 003.4 m E Pg      2012/03/07 02:30:50.6   0.6                          T                                        4873828
LPG   000.74 003.4 m E Sg      2012/03/07 02:31:00.0   0.3                          T                2.0  .26                4873823
LPL   000.76 002.3 m E Pg      2012/03/07 02:30:50.7   0.4                          T                                        4873829
LPL   000.76 002.3 m E Pn      2012/03/07 02:30:51.7  -0.4                          T                                        4873903
LPL   000.76 002.3 m E Sg      2012/03/07 02:30:59.8  -0.3                          T                2.8  .34                4873822
SBF   001.04 148.8 m E Pg      2012/03/07 02:30:56.1   0.8                          T                                        4873906
SMRF  001.12 226.0 m E P       2012/03/07 02:30:58.3   0.0                          T                                        4873826
FRF   001.20 181.5 m E Pg      2012/03/07 02:30:58.4   0.3                          T                                        4873827
FRF   001.20 181.5 m E Sg      2012/03/07 02:31:13.3  -0.3                          T                1.4  .23 Ml 1.7         4873825

.
EVENT     271386
    Date      Time       Latitude Longitude    Depth    Ndef Nsta Gap    Mag1  N    Mag2  N    Mag3  N   Author         ID
       rms   OT_Error      Smajor Sminor Az        Err   mdist  Mdist     Err        Err        Err      Quality

2012/03/07 05:29:51.4     42.3558    1.7731      6.0 f    15    2 075  Ml 1.6  3  Md 1.7  2              js067245    271406

      1.07   +-  0.11       2.6    1.9  137.26 +-  0.0    0.19   1.79   +-0.1      +-0.1                 m i ke

PYRENEES
Sta     Dist  EvAz     Phase      Date       Time     TRes  Azim  AzRes  Slow  SRes Def   SNR       Amp   Per   Mag1   Mag2       ID
MTLF  001.04 018.2 m E Pg      2012/03/07 05:30:11.1   0.2                          T                                        4873912
MTLF  001.04 018.2 m E Sg      2012/03/07 05:30:24.8   0.4                          T                 .9  .21 Ml 1.5 Md 1.7  4873911
EPF   001.25 303.0 m E Pg      2012/03/07 05:30:14.6  -0.4                          T                                        4873909
EPF   001.25 303.0 m E Sg      2012/03/07 05:30:31.1  -0.1                          T                1.5  .24 Ml 1.7 Md 1.8  4873910

.
EVENT     271387
    Date      Time       Latitude Longitude    Depth    Ndef Nsta Gap    Mag1  N    Mag2  N    Mag3  N   Author         ID
       rms   OT_Error      Smajor Sminor Az        Err   mdist  Mdist     Err        Err        Err      Quality

2012/03/07 05:40:32.5     42.3576    1.7700      9.0 f    35    4 041  Ml 2.1  5  Md 2.1  2              js067245    271407

      1.07   +-  0.09       1.9    1.5    3.62 +-  0.0    0.19   2.69   +-0.1      +-0.1                 m i ke

PYRENEES
Sta     Dist  EvAz     Phase      Date       Time     TRes  Azim  AzRes  Slow  SRes Def   SNR       Amp   Per   Mag1   Mag2       ID
MTLF  001.04 018.4 m E Pg      2012/03/07 05:40:52.6   0.5                          T                                        4873923
MTLF  001.04 018.4 m E Sg      2012/03/07 05:41:06.8   1.3                          T                2.9  .20 Ml 2.0 Md 2.0  4873918
EPF   001.25 303.0 m E Pg      2012/03/07 05:40:55.6  -0.4                          T                                        4873919
EPF   001.25 303.0 m E Sg      2012/03/07 05:41:11.4  -0.8                          T                2.3  .22 Ml 1.9 Md 2.1  4873920
CAF   002.58 004.7 m E Sg      2012/03/07 05:41:53.1  -0.4                          T                2.3  .34 Ml 2.2         4873922
LFF   002.69 344.2 m E Sg      2012/03/07 05:41:58.7   1.7                          T                3.4  .29 Ml 2.2         4873921

.
EVENT     271390
    Date      Time       Latitude Longitude    Depth    Ndef Nsta Gap    Mag1  N    Mag2  N    Mag3  N   Author         ID
       rms   OT_Error      Smajor Sminor Az        Err   mdist  Mdist     Err        Err        Err      Quality

2012/03/07 06:47:45.0     44.5037    6.7276      2.0      29    7 066  Ml 1.7  3  Md 1.8  2              js067245    271410

      1.64   +-  0.13       2.9    2.3   67.97 +-  0.0    0.07   1.18   +-0.3      +-0.1                 m i ke

FRANCE
Sta     Dist  EvAz     Phase      Date       Time     TRes  Azim  AzRes  Slow  SRes Def   SNR       Amp   Per   Mag1   Mag2       ID
MBDF  000.23 008.0 m E Pg      2012/03/07 06:47:50.0   0.4                          T                                        4873947
MBDF  000.23 008.0 m E Sg      2012/03/07 06:47:53.1   0.4                          T                8.6  .30        Md 1.7  4873946
ORIF  000.73 304.7 m E Pg      2012/03/07 06:47:58.4  -0.5                          T                                        4873948
ORIF  000.73 304.7 m E Sg      2012/03/07 06:48:08.2  -0.3                          T                2.1  .23        Md 1.8  4873938
FRF   000.94 183.6 m E Pg      2012/03/07 06:48:03.6   0.9                          T                                        4873942
LPG   000.99 001.0 m E Pg      2012/03/07 06:48:04.2   0.2                          T                                        4873944
LPG   000.99 001.0 m E Sg      2012/03/07 06:48:16.3  -0.6                          T                1.3  .32 Ml 1.4         4873937
SMRF  000.98 237.9 m E Pg      2012/03/07 06:48:04.5   1.0                          T                                        4873943
SMRF  000.98 237.9 m E Sg      2012/03/07 06:48:16.2   0.0                          T                2.2  .27 Ml 1.7         4873939
LPL   001.01 000.2 m E Pg      2012/03/07 06:48:05.1   0.8                          T                                        4873945
LMR   001.18 187.8 m E Pg      2012/03/07 06:48:07.1   0.1                          T                                        4873941
LMR   001.18 187.8 m E Sg      2012/03/07 06:48:21.5  -0.8                          T                3.0  .23 Ml 2.0         4873940

.
EVENT     271407
    Date      Time       Latitude Longitude    Depth    Ndef Nsta Gap    Mag1  N    Mag2  N    Mag3  N   Author         ID
       rms   OT_Error      Smajor Sminor Az        Err   mdist  Mdist     Err        Err        Err      Quality

2012/03/07 11:13:18.0     43.5638    6.3300       .0 f    19    5 123  Ml 2.3  2  Md 2.0  2              js067245    271427

      0.74   +-  0.24       5.5    3.6   19.20 +-  0.0    0.23   1.44   +-0.2      +-0.0                 m i km

NEAR SOUTH COAST OF FRANCE
Sta     Dist  EvAz     Phase      Date       Time     TRes  Azim  AzRes  Slow  SRes Def   SNR       Amp   Per   Mag1   Mag2       ID
FRF   000.23 090.7 m E Pg      2012/03/07 11:13:21.8  -1.0                          T                                        4873954
FRF   000.23 090.7 m E Sg      2012/03/07 11:13:27.0   0.9                          T               34.4  .38        Md 2.0  4873953
LMR   000.26 150.3 m E Pg      2012/03/07 11:13:22.7  -0.7                          T                                        4873952
LMR   000.26 150.3 m E Sg      2012/03/07 11:13:28.4   1.2                          T               17.5  .33        Md 2.0  4873949
SMRF  000.68 307.3 m E Pg      2012/03/07 11:13:30.7  -0.5                          T                                        4873962
SMRF  000.68 307.3 m E Sg      2012/03/07 11:13:41.0   0.7                          T                6.2  .34                4873961
SBF   000.86 069.1 m E Pg      2012/03/07 11:13:34.5   0.1                          T                                        4873951
SBF   000.86 069.1 m E Sn      2012/03/07 11:13:48.2  -0.4                          T               16.0  .30 Ml 2.5         4873950
ORIF  001.39 346.7 m E Pn      2012/03/07 11:13:42.9  -0.4                          T                                        4873955
ORIF  001.39 346.7 m E Sn      2012/03/07 11:14:01.3  -0.1                          T                5.1  .37 Ml 2.1         4873960

.
EVENT     271409
    Date      Time       Latitude Longitude    Depth    Ndef Nsta Gap    Mag1  N    Mag2  N    Mag3  N   Author         ID
       rms   OT_Error      Smajor Sminor Az        Err   mdist  Mdist     Err        Err        Err      Quality

2012/03/07 11:42:19.1     43.2047   17.7825      2.0     117   19 045  Ml 4.0  3                         js067245    271429

      1.12   +-  0.11       3.8    2.5   11.74 +-  0.0    0.34  11.12   +-0.1                            m i ke

NORTHWESTERN BALKAN PEN.
Sta     Dist  EvAz     Phase      Date       Time     TRes  Azim  AzRes  Slow  SRes Def   SNR       Amp   Per   Mag1   Mag2       ID
PGF   006.49 267.2 m E Pn      2012/03/07 11:43:55.0   1.6                          T                                        4873981
SBF   007.55 278.5 m E Pn      2012/03/07 11:44:09.0   1.2                          T                                        4873983
MBDF  008.09 284.6 m E Pn      2012/03/07 11:44:15.3   0.0                          T                                        4873979
FRF   008.12 276.3 m E Pn      2012/03/07 11:44:16.9   1.4                          T                                        4873982
LMR   008.23 274.8 m E Pn      2012/03/07 11:44:18.4   1.4                          T                                        4873977
ORIF  008.74 285.4 m E Pn      2012/03/07 11:44:25.5   1.5                          T                                        4873980
SMRF  008.90 279.2 m E Pn      2012/03/07 11:44:27.2   1.1                          T                                        4873973
SMRF  008.90 279.2 m E P       2012/03/07 11:44:29.9  -1.9                          T                                        4873986
CABF  008.97 296.3 m E Pn      2012/03/07 11:44:28.5   1.3                          T                                        4873993
CDF   008.99 309.0 m E Pn      2012/03/07 11:44:28.7   1.2                          T                                        4873991
HINF  008.95 304.8 m E Pn      2012/03/07 11:44:29.6   2.7                          T                                        4873992
HINF  008.95 304.8 m E Sn      2012/03/07 11:46:04.1   1.7                          T               16.4  .68 Ml 3.9         4873985
VIVF  009.59 284.4 m E Pn      2012/03/07 11:44:36.2   0.7                          T                                        4873978
LASF  010.14 279.7 m E Pn      2012/03/07 11:44:43.1   0.1                          T                                        4873987
SMF   010.47 294.0 m E Pn      2012/03/07 11:44:48.2   0.7                          T                                        4873974
LOR   010.63 297.3 m E Pn      2012/03/07 11:44:51.1   1.5                          T                                        4873990
SSF   010.80 295.8 m E Pn      2012/03/07 11:44:52.4   0.4                          T                                        4873989
AVF   010.83 294.3 m E Pn      2012/03/07 11:44:53.7   1.3                          T                                        4873975
BGF   011.12 292.7 m E Pn      2012/03/07 11:44:57.2   0.9                          T                                        4873976
LPL   008.25 290.1 m E Sn      2012/03/07 11:45:46.0   0.1                          T               34.7  .78 Ml 4.1         4873969
LPG   008.23 290.0 m E Sn      2012/03/07 11:45:46.2   0.6                          T               15.7  .44 Ml 4.0         4873984

.
EVENT     271429
    Date      Time       Latitude Longitude    Depth    Ndef Nsta Gap    Mag1  N    Mag2  N    Mag3  N   Author         ID
       rms   OT_Error      Smajor Sminor Az        Err   mdist  Mdist     Err        Err        Err      Quality

2012/03/07 19:36:17.1     44.5398    9.4270      2.0      55   17 061  Ml 2.6 12  Md 2.6  4              js067245    271449

      0.76   +-  0.11       2.7    1.8   29.06 +-  0.0    0.23   5.04   +-0.2      +-0.1                 m i ke

NORTHERN ITALY
Sta     Dist  EvAz     Phase      Date       Time     TRes  Azim  AzRes  Slow  SRes Def   SNR       Amp   Per   Mag1   Mag2       ID
SBF   001.58 245.4 m E Pg      2012/03/07 19:36:44.9  -1.8                          T                                        4874189
SBF   001.58 245.4 m E Sg      2012/03/07 19:37:07.2   0.1                          T               22.1  .30 Ml 2.9 Md 2.6  4874171
PGF   002.01 189.0 m E Pn      2012/03/07 19:36:50.1  -0.4                          T                                        4874188
PGF   002.01 189.0 m E Sn      2012/03/07 19:37:14.8   0.0                          T                2.2  .25 Ml 2.4 Md 2.5  4874273
MBDF  001.91 276.6 m E P       2012/03/07 19:36:51.2   0.0                          T                                        4874196
MBDF  001.91 276.6 m E Sn      2012/03/07 19:37:12.8   0.6                          T                                        4874176
MBDF  001.91 276.6 m E Sg      2012/03/07 19:37:17.7   0.4                          T               11.2  .42 Ml 2.6 Md 2.6  4874231
FRF   002.23 244.9 m E Pn      2012/03/07 19:36:53.3   0.0                          T                                        4874191
FRF   002.23 244.9 m E P       2012/03/07 19:36:54.7  -1.0                          T                                        4874275
FRF   002.23 244.9 m E Sn      2012/03/07 19:37:19.5  -0.3                          T                8.2  .31 Ml 2.7 Md 2.7  4874187
LPG   002.13 297.7 m E P       2012/03/07 19:36:54.6   0.1                          T                                        4874274
LPG   002.13 297.7 m E Pg      2012/03/07 19:36:57.9   0.9                          T                                        4874193
LPG   002.13 297.7 m E Sn      2012/03/07 19:37:16.5  -1.1                          T                3.6  .28 Ml 2.3         4874316
LPG   002.13 297.7 m E Sg      2012/03/07 19:37:24.2  -0.1                          T                4.3  .36 Ml 2.3         4874234
LPL   002.15 298.0 m E P       2012/03/07 19:36:55.2   0.4                          T                                        4874194
LPL   002.15 298.0 m E Pg      2012/03/07 19:36:57.8   0.5                          T                                        4874186
LPL   002.15 298.0 m E Sg      2012/03/07 19:37:24.3  -0.6                          T                6.3  .38 Ml 2.5         4874233
LMR   002.43 241.2 m E Pn      2012/03/07 19:36:56.0   0.1                          T                                        4874190
LMR   002.43 241.2 m E Pg      2012/03/07 19:37:02.4   0.2                          T                                        4874185
LMR   002.43 241.2 m E Sn      2012/03/07 19:37:24.7   0.2                          T                4.2  .24 Ml 2.6         4874184
ORIF  002.56 279.8 m E P       2012/03/07 19:37:00.9   0.4                          T                                        4874195
ORIF  002.56 279.8 m E Sn      2012/03/07 19:37:28.5   0.8                          T                                        4874175
ORIF  002.56 279.8 m E Sg      2012/03/07 19:37:37.9   0.4                          T                9.9  .60 Ml 2.5         4874232
SMRF  002.82 259.8 m E Pn      2012/03/07 19:37:03.3   1.9                          T                                        4874192
SMRF  002.82 259.8 m E Sn      2012/03/07 19:37:35.1   1.1                          T                2.3  .29 Ml 2.3         4874317
CABF  003.13 312.6 m E P       2012/03/07 19:37:08.7   0.0                          T                                        4874182
CABF  003.13 312.6 m E S       2012/03/07 19:37:47.4   0.3                          T                                        4874181
VIVF  003.40 277.0 m E P       2012/03/07 19:37:13.0   0.5                          T                                        4874177
SMF   004.45 300.2 m E P       2012/03/07 19:37:26.6  -0.7                          T                                        4874180
SMF   004.45 300.2 m E Sn      2012/03/07 19:38:14.4   1.6                          T                3.3  .34 Ml 2.7         4874179
LOR   004.75 307.0 m E P       2012/03/07 19:37:30.5  -1.0                          T                                        4874169
LOR   004.75 307.0 m E Sn      2012/03/07 19:38:21.9   1.9                          T                2.2  .26 Ml 2.7         4874170
LASF  004.02 265.3 m E Pg      2012/03/07 19:37:31.2  -0.5                          T                                        4874183
BGF   005.04 295.9 m E P       2012/03/07 19:37:34.9  -0.8                          T                                        4874178
HINF  003.73 332.3 m E S       2012/03/07 19:38:01.2  -1.2                          T                                        4874315
HAU   004.07 329.5 m E S       2012/03/07 19:38:09.3  -1.7                          T                                        4874314

.
EVENT     271433
    Date      Time       Latitude Longitude    Depth    Ndef Nsta Gap    Mag1  N    Mag2  N    Mag3  N   Author         ID
       rms   OT_Error      Smajor Sminor Az        Err   mdist  Mdist     Err        Err        Err      Quality

2012/03/07 21:57:22.9     44.5129    6.6831      2.0      14    4 115  Ml 1.5  2  Md 1.5  1              js067245    271453

      1.08   +-  0.14       3.2    2.4   63.22 +-  0.0    0.10   1.19   +-0.1      +-                    m i ke

FRANCE
Sta     Dist  EvAz     Phase      Date       Time     TRes  Azim  AzRes  Slow  SRes Def   SNR       Amp   Per   Mag1   Mag2       ID
MBDF  000.22 016.4 m E Pg      2012/03/07 21:57:27.8   0.3                          T                                        4874325
MBDF  000.22 016.4 m E Sg      2012/03/07 21:57:30.4  -0.2                          T                1.5  .21        Md 1.5  4874326
ORIF  000.70 305.6 m E Pg      2012/03/07 21:57:36.1  -0.1                          T                                        4874323
ORIF  000.70 305.6 m E Sg      2012/03/07 21:57:45.4   0.0                          T                1.0  .23                4874324
LMR   001.19 186.1 m E Pg      2012/03/07 21:57:45.8   0.8                          T                                        4874320
LMR   001.19 186.1 m E Sg      2012/03/07 21:58:00.0  -0.3                          T                 .9  .23 Ml 1.5         4874321
FRF   000.95 181.6 m E Sg      2012/03/07 21:57:54.1   1.0                          T                1.1  .27 Ml 1.4         4874322

.
