BEGIN GSE2.0
MSG_TYPE DATA
MSG_ID 11-JAN-1309:49:27  FRA_NDC
E-MAIL
DATA_TYPE BULLETIN
Reviewed Bulletin (REB) # P2012-051  from French NDC for regional phases     PERIOD 19 DEC 2012 TO 25 DEC 2012 Cenalt JP S
EVENT     288655
    Date      Time       Latitude Longitude    Depth    Ndef Nsta Gap    Mag1  N    Mag2  N    Mag3  N   Author         ID
       rms   OT_Error      Smajor Sminor Az        Err   mdist  Mdist     Err        Err        Err      Quality

2012/12/19 00:10:36.1     43.0233     .0528      2.0      28    5 090  Ml 1.4  4  Md 1.5  2              bulletin    288755
                                                                                                         _ldg
      0.38   +-  0.07       1.5    1.1   11.81 +-  0.0    0.11   1.98   +-0.3      +-0.1                 m i ke

FRANCE
Sta     Dist  EvAz     Phase      Date       Time     TRes  Azim  AzRes  Slow  SRes Def   SNR       Amp   Per   Mag1   Mag2       ID
EPF   000.21 088.0 m E Pg      2012/12/19 00:10:40.8   0.4                          T                                        5142815
EPF   000.21 088.0 m E Sg      2012/12/19 00:10:43.5   0.2                          T                3.5  .18        Md 1.6  5142813
ETSF  000.47 254.7 m E Pg      2012/12/19 00:10:45.3   0.2                          T                                        5142814
ETSF  000.47 254.7 m E Sg      2012/12/19 00:10:51.6   0.3                          T                3.1  .18        Md 1.4  5142812
SJPF  000.94 275.9 m E Pg      2012/12/19 00:10:54.6   0.8                          T                                        5142821
SJPF  000.94 275.9 m E Sg      2012/12/19 00:11:05.9  -0.1                          T                 .3  .18 Ml 1.0         5142818
MTLF  001.61 077.9 m E Pg      2012/12/19 00:11:06.2   0.1                          T                                        5142817
MTLF  001.61 077.9 m E Sn      2012/12/19 00:11:24.2   0.2                          T                                        5160219
MTLF  001.61 077.9 m E Sg      2012/12/19 00:11:27.1   0.1                          T                1.1  .29 Ml 1.7         5142816
LFF   001.98 014.3 m E Pn      2012/12/19 00:11:08.9   0.1                          T                                        5160217
LFF   001.98 014.3 m E Sn      2012/12/19 00:11:32.6  -0.1                          T                                        5160216
LFF   001.98 014.3 m E Sg      2012/12/19 00:11:38.4   0.1                          T                 .4  .19 Ml 1.4         5160218

.
EVENT     288718
    Date      Time       Latitude Longitude    Depth    Ndef Nsta Gap    Mag1  N    Mag2  N    Mag3  N   Author         ID
       rms   OT_Error      Smajor Sminor Az        Err   mdist  Mdist     Err        Err        Err      Quality

2012/12/19 09:13:55.3     46.9773   -1.9374      4.0 f    90   26 146  Ml 2.9 28  Md 2.9  2              bulletin    288818
                                                                                                         _ldg
      0.94   +-  0.08       1.7    1.1   54.91 +-  0.0    1.26   5.71   +-0.3      +-0.1                 m i ke

FRANCE
Sta     Dist  EvAz     Phase      Date       Time     TRes  Azim  AzRes  Slow  SRes Def   SNR       Amp   Per   Mag1   Mag2       ID
QUIF  001.26 318.9 m E Pn      2012/12/19 09:14:17.1  -0.9                          T   001.0                                5142989
QUIF  001.26 318.9 m E Pg      2012/12/19 09:14:19.2   0.5                          T   001.0                                5142990
QUIF  001.26 318.9 m E Sg      2012/12/19 09:14:35.3   0.3                          T   001.0       24.0  .25 Ml 2.9 Md 3.0  5142991
MFF   001.29 106.3 m E Pg      2012/12/19 09:14:20.2   0.9                          T   001.0                                5142981
MFF   001.29 106.3 m E Sg      2012/12/19 09:14:36.1   0.1                          T               53.0  .26 Ml 3.4 Md 2.8  5143013
SGMF  001.34 342.1 m E Pg      2012/12/19 09:14:20.2  -0.1                          T   001.0                                5142995
SGMF  001.34 342.1 m E Sg      2012/12/19 09:14:37.3  -0.5                          T               41.4  .32 Ml 3.1         5143012
ROSF  001.63 326.9 m E Pn      2012/12/19 09:14:23.4   0.3                          T                                        5143016
ROSF  001.63 326.9 m E Pg      2012/12/19 09:14:25.9   0.2                          T                                        5143015
ROSF  001.63 326.9 m E Sn      2012/12/19 09:14:41.6  -1.7                          T   001.0                                5142992
ROSF  001.63 326.9 m E Sg      2012/12/19 09:14:46.1  -0.7                          T   001.0       13.7  .25 Ml 2.8         5142993
GRR   001.59 026.9 m E Pg      2012/12/19 09:14:25.3   0.4                          T   001.0                                5142970
GRR   001.59 026.9 m E Sn      2012/12/19 09:14:42.0  -0.2                          T   001.0                                5142971
GRR   001.59 026.9 m E Sg      2012/12/19 09:14:45.0  -0.4                          T   001.0       12.5  .15 Ml 2.9         5142972
FLN   002.04 028.2 m E Pn      2012/12/19 09:14:28.4  -0.2 208.2  -1.1              T                                        5143007
FLN   002.04 028.2 m E Pg      2012/12/19 09:14:32.8  -0.3 207.8  -1.5              T                                        5143006
FLN   002.04 028.2 m E Sn      2012/12/19 09:14:53.0   0.0                          T   001.0                                5142968
FLN   002.04 028.2 m E Sg      2012/12/19 09:14:57.6  -1.8                          T   001.0       24.3  .36 Ml 2.9         5142969
LDF   002.03 036.5 m E Pn      2012/12/19 09:14:28.4  -0.1                          T   001.0                                5142973
LDF   002.03 036.5 m E Pg      2012/12/19 09:14:32.8  -0.2                          T   001.0                                5142974
LDF   002.03 036.5 m E Sg      2012/12/19 09:14:58.3  -0.8                          T   001.0        6.3  .20 Ml 2.7         5142976
TCF   002.94 102.1 m E Pn      2012/12/19 09:14:41.2   0.3                          T                                        5160486
TCF   002.94 102.1 m E Sn      2012/12/19 09:15:15.1   0.5                          T   001.0                                5142985
TCF   002.94 102.1 m E Sg      2012/12/19 09:15:26.8  -0.8                          T   001.0       12.3  .28 Ml 3.1         5142986
HYF   003.14 083.0 m E Pn      2012/12/19 09:14:44.2   0.6                          T                                        5160470
HYF   003.14 083.0 m E Sg      2012/12/19 09:15:34.1   0.3                          T                                        5160469
BGF   003.31 095.5 m E Pn      2012/12/19 09:14:45.9  -0.1                          T   001.0                                5142964
BGF   003.31 095.5 m E Pg      2012/12/19 09:14:56.1  -0.6                          T                                        5160468
BGF   003.31 095.5 m E Sn      2012/12/19 09:15:23.7   0.1                          T                                        5160467
BGF   003.31 095.5 m E Sg      2012/12/19 09:15:39.2  -0.1                          T   001.0       32.1  .37 Ml 3.4         5142965
LFF   002.76 136.5 m E Pg      2012/12/19 09:14:46.2  -0.3                          T                                        5143011
LFF   002.76 136.5 m E Sn      2012/12/19 09:15:10.0  -0.3                          T   001.0                                5142977
LFF   002.76 136.5 m E Sg      2012/12/19 09:15:22.9   0.8                          T   001.0       18.1  .31 Ml 3.0         5142978
CAF   003.46 124.9 m E Pn      2012/12/19 09:14:48.0  -0.1                          T                                        5143010
CAF   003.46 124.9 m E Sn      2012/12/19 09:15:25.8  -1.3                          T   001.0                                5142966
CAF   003.46 124.9 m E Sg      2012/12/19 09:15:43.6  -0.3                          T   001.0        6.4  .26 Ml 2.9         5142967
RJF   002.93 123.6 m E Pg      2012/12/19 09:14:49.8   0.2                          T                                        5143009
RJF   002.93 123.6 m E Sn      2012/12/19 09:15:12.8  -1.5                          T                                        5160466
RJF   002.93 123.6 m E Sg      2012/12/19 09:15:27.0  -0.2                          T   001.0       15.6  .24 Ml 2.9         5142961
AVF   003.63 091.0 m E Pn      2012/12/19 09:14:51.2   0.9                          T   001.0                                5142962
AVF   003.63 091.0 m E Sn      2012/12/19 09:15:30.7  -0.4                          T                                        5160476
AVF   003.63 091.0 m E Sg      2012/12/19 09:15:48.7  -0.5                          T                2.9  .21 Ml 2.7         5160475
SSF   003.72 086.7 m E Pn      2012/12/19 09:14:52.0   0.5                          T                                        5160485
SSF   003.72 086.7 m E Sn      2012/12/19 09:15:33.5   0.1                          T   001.0                                5142983
SSF   003.72 086.7 m E Sg      2012/12/19 09:15:50.7  -1.4                          T   001.0       15.6  .56 Ml 3.1         5142984
LOR   003.97 083.7 m E Pn      2012/12/19 09:14:55.0   0.1 264.2  -3.7              T                                        5160487
LOR   003.97 083.7 m E Pg      2012/12/19 09:15:08.9   0.2 265.1  -2.8              T                                        5160484
LOR   003.97 083.7 m E Sn      2012/12/19 09:15:38.4  -0.7 260.1  -7.8              T   001.0                                5142979
LOR   003.97 083.7 m E Sg      2012/12/19 09:15:59.0  -0.7 261.0  -7.0              T   001.0       12.0  .46 Ml 3.1         5142980
SMF   003.98 092.7 m E Pn      2012/12/19 09:14:55.4   0.2                          T                                        5160474
SMF   003.98 092.7 m E Pg      2012/12/19 09:15:09.2   0.2                          T                                        5160473
SMF   003.98 092.7 m E Sn      2012/12/19 09:15:39.0  -0.5                          T                                        5160472
SMF   003.98 092.7 m E Sg      2012/12/19 09:15:59.3  -0.8                          T                2.6  .20 Ml 2.8         5160471
EPF   004.26 156.9 m E Pn      2012/12/19 09:14:58.4  -0.6                          T                                        5160462
EPF   004.26 156.9 m E Pg      2012/12/19 09:15:13.8  -0.5                          T                                        5160461
EPF   004.26 156.9 m E Sn      2012/12/19 09:15:45.9  -0.3                          T                                        5160460
EPF   004.26 156.9 m E Sg      2012/12/19 09:16:08.6  -0.4                          T                3.1  .24 Ml 2.8         5160459
MTLF  004.67 139.6 m E Pn      2012/12/19 09:15:04.7   0.2                          T                                        5160457
MTLF  004.67 139.6 m E Pg      2012/12/19 09:15:21.8   0.0                          T                                        5160458
MTLF  004.67 139.6 m E Sn      2012/12/19 09:15:56.2   0.1                          T                                        5160456
MTLF  004.67 139.6 m E Sg      2012/12/19 09:16:21.5  -0.2                          T                 .8  .20 Ml 2.4         5160455
SFTF  004.88 072.9 m E Pn      2012/12/19 09:15:07.2  -0.1 254.0  -4.1              T                                        5160479
SFTF  004.88 072.9 m E Sn      2012/12/19 09:16:00.8  -0.1                          T                                        5160478
SFTF  004.88 072.9 m E Sg      2012/12/19 09:16:27.4  -0.7 250.1  -7.9              T                2.1  .28 Ml 2.7         5160477
SJPF  003.90 172.3 m E Pg      2012/12/19 09:15:07.6   0.1                          T                                        5160465
SJPF  003.90 172.3 m E Sn      2012/12/19 09:15:37.3  -0.1                          T                                        5160464
SJPF  003.90 172.3 m E Sg      2012/12/19 09:15:56.6  -0.9                          T   001.0        1.7  .25 Ml 2.5         5142997
BAIF  005.12 050.7 m E Pn      2012/12/19 09:15:10.4  -0.1                          T                                        5160481
ETSF  004.19 166.0 m E Pg      2012/12/19 09:15:12.8  -0.2                          T                                        5160463
ETSF  004.19 166.0 m E Sn      2012/12/19 09:15:44.6   0.0                          T   001.0         .9  .24 Ml 2.3         5142987
GIVF  005.47 052.7 m E Pn      2012/12/19 09:15:15.3   0.0                          T   001.0                                5142988
HAU   005.71 076.6 m E Pn      2012/12/19 09:15:18.7   0.1                          T                                        5160480
HAU   005.71 076.6 m E Sn      2012/12/19 09:16:20.9   0.1                          T                                        5160483
HAU   005.71 076.6 m E Sg      2012/12/19 09:16:54.4   0.4                          T                1.9  .23 Ml 2.7         5160482
VIVF  005.08 112.3 m E Pg      2012/12/19 09:15:28.9  -0.3                          T                                        5160454
VIVF  005.08 112.3 m E Sn      2012/12/19 09:16:06.0   0.3                          T                                        5160453
VIVF  005.08 112.3 m E Sg      2012/12/19 09:16:34.1  -0.2                          T                2.6  .32 Ml 2.8         5160452

.
EVENT     288753
    Date      Time       Latitude Longitude    Depth    Ndef Nsta Gap    Mag1  N    Mag2  N    Mag3  N   Author         ID
       rms   OT_Error      Smajor Sminor Az        Err   mdist  Mdist     Err        Err        Err      Quality

2012/12/19 15:02:26.5     42.8446   -1.4456      2.0      47   10 067  Ml 2.6  9  Md 2.6  2              bulletin    288853
                                                                                                         _ldg
      0.75   +-  0.13       2.2    2.1   37.09 +-  0.0    0.11   4.81   +-0.2      +-0.1                 m i ke

PYRENEES
Sta     Dist  EvAz     Phase      Date       Time     TRes  Azim  AzRes  Slow  SRes Def   SNR       Amp   Per   Mag1   Mag2       ID
SJPF  000.31 031.0 m E Pg      2012/12/19 15:02:32.2  -0.4                          T                                        5143248
SJPF  000.31 031.0 m E Sg      2012/12/19 15:02:37.0   0.2                          T              107.2  .23        Md 2.7  5143247
ETSF  000.65 085.0 m E Pg      2012/12/19 15:02:38.0  -0.9                          T                                        5143246
ETSF  000.65 085.0 m E Sg      2012/12/19 15:02:47.3  -0.2                          T               22.3  .22        Md 2.5  5143245
EPF   001.32 081.3 m E Pn      2012/12/19 15:02:50.1  -0.3                          T                                        5143244
EPF   001.32 081.3 m E Sg      2012/12/19 15:03:09.2   0.9                          T               30.2  .37 Ml 2.9         5143243
LFF   002.62 036.3 m E Pn      2012/12/19 15:03:08.1   0.2                          T                                        5143283
LFF   002.62 036.3 m E Sn      2012/12/19 15:03:38.1  -0.3                          T                                        5143282
LFF   002.62 036.3 m E Sg      2012/12/19 15:03:47.9  -1.0                          T                7.2  .30 Ml 2.5         5160525
MTLF  002.73 078.3 m E Pn      2012/12/19 15:03:09.8   0.4                          T                                        5143281
MTLF  002.73 078.3 m E Pg      2012/12/19 15:03:17.1   0.0                          T                                        5160531
MTLF  002.73 078.3 m E Sn      2012/12/19 15:03:40.6  -0.5                          T                5.1  .45 Ml 2.4         5143280
CAF   003.28 049.5 m E Pn      2012/12/19 15:03:17.1   0.1                          T                                        5143286
CAF   003.28 049.5 m E Pg      2012/12/19 15:03:27.8   0.5                          T                                        5160524
CAF   003.28 049.5 m E Sn      2012/12/19 15:03:53.9  -0.4                          T                2.2  .23 Ml 2.5         5143287
RJF   003.26 039.9 m E Pn      2012/12/19 15:03:18.3   1.7                          T                                        5143285
RJF   003.26 039.9 m E Sn      2012/12/19 15:03:53.2  -0.5                          T                                        5143284
RJF   003.26 039.9 m E Sg      2012/12/19 15:04:08.3  -0.3                          T                3.2  .22 Ml 2.3         5160530
MFF   003.87 013.4 m E Pn      2012/12/19 15:03:25.3   0.3                          T                                        5160529
MFF   003.87 013.4 m E Pg      2012/12/19 15:03:39.1   1.1                          T                                        5160528
MFF   003.87 013.4 m E Sn      2012/12/19 15:04:08.4   0.1                          T                                        5160527
MFF   003.87 013.4 m E Sg      2012/12/19 15:04:27.5  -0.3                          T                2.3  .29 Ml 2.7         5160526
LASF  004.05 070.5 m E Pn      2012/12/19 15:03:27.1  -0.4                          T                                        5143279
LASF  004.05 070.5 m E Sn      2012/12/19 15:04:11.9  -0.8                          T                                        5143278
LASF  004.05 070.5 m E Sg      2012/12/19 15:04:32.5  -1.0                          T                 .9  .19 Ml 2.3         5143277
BGF   004.81 038.0 m E Pn      2012/12/19 15:03:38.7   1.0                          T                                        5143276
BGF   004.81 038.0 m E Sn      2012/12/19 15:04:30.3  -0.4                          T                5.4  .38 Ml 3.0         5143275

.
EVENT     288783
    Date      Time       Latitude Longitude    Depth    Ndef Nsta Gap    Mag1  N    Mag2  N    Mag3  N   Author         ID
       rms   OT_Error      Smajor Sminor Az        Err   mdist  Mdist     Err        Err        Err      Quality

2012/12/19 16:24:53.5     38.0528   -3.2851      2.0      13    3 091  Ml 2.8  3                         bulletin    288883
                                                                                                         _ldg
      0.45   +-  0.17       3.1    2.4  179.05 +-  0.0    0.59   5.69   +-0.1                            m i ke

SPAIN
Sta     Dist  EvAz     Phase      Date       Time     TRes  Azim  AzRes  Slow  SRes Def   SNR       Amp   Per   Mag1   Mag2       ID
ETSF  005.27 022.4 m E Pn      2012/12/19 16:26:11.1  -0.1                          T                                        5143406
ETSF  005.27 022.4 m E Sn      2012/12/19 16:27:09.1   0.2                          T                3.2  .33 Ml 2.9         5143405
SJPF  005.29 016.6 m E Pn      2012/12/19 16:26:11.7   0.3                          T                                        5143404
SJPF  005.29 016.6 m E Sn      2012/12/19 16:27:08.9  -0.5                          T                1.7  .19 Ml 2.9         5143403
EPF   005.69 027.9 m E Pn      2012/12/19 16:26:17.2   0.3                          T                                        5143402
EPF   005.69 027.9 m E Sn      2012/12/19 16:27:19.3   0.4                          T                1.2  .24 Ml 2.7         5143401

.
