BEGIN GSE2.0
MSG_TYPE DATA
MSG_ID 20-APR-1209:40:42  FRA_NDC
E-MAIL
DATA_TYPE BULLETIN
Reviewed Bulletin (REB) # P2012-015  from French NDC for regional phases     PERIOD 11 APR 2012 TO 17 APR 2012 S M., J-P S
EVENT     273307
    Date      Time       Latitude Longitude    Depth    Ndef Nsta Gap    Mag1  N    Mag2  N    Mag3  N   Author         ID
       rms   OT_Error      Smajor Sminor Az        Err   mdist  Mdist     Err        Err        Err      Quality

2012/04/11 01:19:38.9     41.9819   -2.1544      2.0      44    3 057  Ml 2.5  3  Md 2.2  2              js067245    273327

      0.74   +-  0.09       2.1    1.4  141.92 +-  0.0    0.90   3.75   +-0.0      +-0.0                 m i ke

SPAIN
Sta     Dist  EvAz     Phase      Date       Time     TRes  Azim  AzRes  Slow  SRes Def   SNR       Amp   Per   Mag1   Mag2       ID
SJPF  001.32 031.0 m E Pg      2012/04/11 01:20:03.4  -0.2                          T                                        4908315
SJPF  001.32 031.0 m E Sn      2012/04/11 01:20:19.7  -0.2                          T                                        4908314
SJPF  001.32 031.0 m E Sg      2012/04/11 01:20:21.0   0.3                          T               10.9  .32 Ml 2.5 Md 2.2  4910279
ETSF  001.49 051.7 m E Pg      2012/04/11 01:20:06.0  -0.9                          T                                        4908313
ETSF  001.49 051.7 m E Sg      2012/04/11 01:20:26.9   0.7                          T                7.6  .25 Ml 2.5 Md 2.2  4910280
EPF   002.12 059.6 m E Pn      2012/04/11 01:20:13.3  -0.3                          T                                        4908310
EPF   002.12 059.6 m E Pg      2012/04/11 01:20:18.1  -0.2                          T                                        4910281
EPF   002.12 059.6 m E Sg      2012/04/11 01:20:45.4  -0.3                          T                3.1  .19 Ml 2.4         4908309

.
EVENT     273308
    Date      Time       Latitude Longitude    Depth    Ndef Nsta Gap    Mag1  N    Mag2  N    Mag3  N   Author         ID
       rms   OT_Error      Smajor Sminor Az        Err   mdist  Mdist     Err        Err        Err      Quality

2012/04/11 03:11:14.3     43.1197    -.8682      2.0      20    3 173  Ml 1.8  1  Md 1.8  2              js067245    273328

      0.74   +-  0.20       4.8    2.2    8.64 +-  0.0    0.13   2.80   +-         +-0.0                 m i ke

PYRENEES
Sta     Dist  EvAz     Phase      Date       Time     TRes  Azim  AzRes  Slow  SRes Def   SNR       Amp   Per   Mag1   Mag2       ID
SJPF  000.26 268.7 m E Pg      2012/04/11 03:11:19.8   0.3                          T                                        4908323
SJPF  000.26 268.7 m E Sg      2012/04/11 03:11:24.4   1.4                          T               23.9  .22        Md 1.8  4908322
ETSF  000.32 134.2 m E Pg      2012/04/11 03:11:20.1  -0.5                          T                                        4908327
ETSF  000.32 134.2 m E Sg      2012/04/11 03:11:24.7  -0.1                          T               36.2  .18        Md 1.7  4908326
EPF   000.89 095.4 m E Pg      2012/04/11 03:11:31.5   0.4                          T                                        4908325
EPF   000.89 095.4 m E Sg      2012/04/11 03:11:43.4   0.7                          T                2.0  .19 Ml 1.8         4908324

.
EVENT     273309
    Date      Time       Latitude Longitude    Depth    Ndef Nsta Gap    Mag1  N    Mag2  N    Mag3  N   Author         ID
       rms   OT_Error      Smajor Sminor Az        Err   mdist  Mdist     Err        Err        Err      Quality

2012/04/11 04:41:12.3     48.1573    7.9800       .0 f     7    4 307  Ml 1.8  2  Md 1.8  2              js067245    273329

      0.32   +-  0.52       8.3    5.7   97.72 +-  0.0    0.53   1.33   +-0.2      +-0.1                 m i km

FRANCE
Sta     Dist  EvAz     Phase      Date       Time     TRes  Azim  AzRes  Slow  SRes Def   SNR       Amp   Per   Mag1   Mag2       ID
CDF   000.53 298.7 m E Pg      2012/04/11 04:41:22.9   0.0                          T                                        4910295
CDF   000.53 298.7 m E Sg      2012/04/11 04:41:30.2   0.1                          T                3.9  .27        Md 1.7  4910292
HINF  000.83 246.2 m E Pg      2012/04/11 04:41:28.2   0.0                          T                                        4910317
HINF  000.83 246.2 m E Sg      2012/04/11 04:41:39.1  -0.2                          T                4.2  .34        Md 1.8  4910294
HAU   001.10 262.7 m E Pg      2012/04/11 04:41:34.1   0.8                          T                                        4910316
HAU   001.10 262.7 m E Sg      2012/04/11 04:41:48.5   0.7                          T                4.5  .38 Ml 1.7         4910293
THEF  001.33 273.8 m E Sg      2012/04/11 04:41:54.3  -0.6                          T                2.5  .27 Ml 1.9         4910315

.
EVENT     273310
    Date      Time       Latitude Longitude    Depth    Ndef Nsta Gap    Mag1  N    Mag2  N    Mag3  N   Author         ID
       rms   OT_Error      Smajor Sminor Az        Err   mdist  Mdist     Err        Err        Err      Quality

2012/04/11 04:53:39.7     42.7885    2.5269      2.0       9    3 242  Ml 1.6  2  Md 1.8  1              js067245    273330

      1.19   +-  0.67      11.0    6.0  157.91 +-  0.0    0.60   1.62   +-0.0      +-                    m i ke

PYRENEES
Sta     Dist  EvAz     Phase      Date       Time     TRes  Azim  AzRes  Slow  SRes Def   SNR       Amp   Per   Mag1   Mag2       ID
MTLF  000.60 337.8 m E Pg      2012/04/11 04:53:51.1   0.1                          T                                        4912415
MTLF  000.60 337.8 m E Pn      2012/04/11 04:53:53.9   0.3                          T                                        4912416
MTLF  000.60 337.8 m E Sg      2012/04/11 04:53:59.1   0.3                          T                                        4912417
MTLF  000.60 337.8 m E Sn      2012/04/11 04:54:03.4   0.1                          T                4.9  .20        Md 1.8  4912418
EPF   001.62 279.3 m E Sg      2012/04/11 04:54:29.1  -1.9                          T                 .8  .26 Ml 1.5         4912410
LASF  001.61 036.5 m E Sg      2012/04/11 04:54:29.7  -0.8                          T                 .6  .21 Ml 1.6         4912411

.
EVENT     273343
    Date      Time       Latitude Longitude    Depth    Ndef Nsta Gap    Mag1  N    Mag2  N    Mag3  N   Author         ID
       rms   OT_Error      Smajor Sminor Az        Err   mdist  Mdist     Err        Err        Err      Quality

2012/04/11 07:13:27.8     43.4557    3.3533       .0 f     9    5 226  Ml 2.1  2  Md 2.0  2              js067245    273363

      0.61   +-  0.50      12.1    4.1  149.55 +-  0.0    0.72   2.24   +-0.2      +-0.1                 m i km

NEAR SOUTH COAST OF FRANCE
Sta     Dist  EvAz     Phase      Date       Time     TRes  Azim  AzRes  Slow  SRes Def   SNR       Amp   Per   Mag1   Mag2       ID
LASF  000.72 030.3 m E Pg      2012/04/11 07:13:41.6   0.0                          T                                        4910427
LASF  000.72 030.3 m E Sg      2012/04/11 07:13:52.0   0.8                          T               10.9  .29        Md 2.1  4910426
MTLF  000.84 262.5 m E Pg      2012/04/11 07:13:43.5  -0.3                          T                                        4910424
MTLF  000.84 262.5 m E Sg      2012/04/11 07:13:56.3   1.5                          T                6.1  .24        Md 2.0  4910425
CAF   001.74 328.2 m E Pg      2012/04/11 07:13:59.7  -0.7                          T                                        4910423
CAF   001.74 328.2 m E Sg      2012/04/11 07:14:23.8   0.7                          T                                        4910422
VIVF  001.69 033.7 m E Pg      2012/04/11 07:13:59.8   0.2                          T                                        4910419
VIVF  001.69 033.7 m E Sg      2012/04/11 07:14:21.5  -0.1                          T                2.7  .32 Ml 2.0         4910421
EPF   002.24 260.1 m E Sg      2012/04/11 07:14:39.2   0.4                          T                2.6  .27 Ml 2.3         4910420

.
EVENT     273344
    Date      Time       Latitude Longitude    Depth    Ndef Nsta Gap    Mag1  N    Mag2  N    Mag3  N   Author         ID
       rms   OT_Error      Smajor Sminor Az        Err   mdist  Mdist     Err        Err        Err      Quality

2012/04/11 08:28:56.4     45.5776    3.2219       .0 f     9    5 190  Ml 2.1  4  Md 1.9  2              js067245    273364

      0.48   +-  0.36       6.7    4.3   36.70 +-  0.0    0.62   1.25   +-0.3      +-0.0                 m i km

FRANCE
Sta     Dist  EvAz     Phase      Date       Time     TRes  Azim  AzRes  Slow  SRes Def   SNR       Amp   Per   Mag1   Mag2       ID
BGF   001.01 345.2 m E Pg      2012/04/11 08:29:15.4  -0.3                          T                                        4910439
BGF   001.01 345.2 m E Sg      2012/04/11 08:29:30.2   1.2                          T               26.7  .45 Ml 2.6         4910440
TCF   001.00 315.5 m E Pg      2012/04/11 08:29:15.8   0.3                          T                                        4910433
TCF   001.00 315.5 m E Sg      2012/04/11 08:29:28.8   0.1                          T                3.8  .20 Ml 2.1 Md 1.8  4910432
SMF   001.15 021.7 m E Pg      2012/04/11 08:29:18.4   0.2                          T                                        4910438
SMF   001.15 021.7 m E Sg      2012/04/11 08:29:33.8   0.5                          T                3.2  .27 Ml 2.0         4910437
AVF   001.22 004.2 m E Pg      2012/04/11 08:29:18.9  -0.5                          T                                        4910435
AVF   001.22 004.2 m E Sg      2012/04/11 08:29:35.3   0.0                          T                3.1  .34 Ml 1.9         4910436
VIVF  001.25 124.6 m E Sg      2012/04/11 08:29:36.7   0.2                          T                                        4910434

.
EVENT     273345
    Date      Time       Latitude Longitude    Depth    Ndef Nsta Gap    Mag1  N    Mag2  N    Mag3  N   Author         ID
       rms   OT_Error      Smajor Sminor Az        Err   mdist  Mdist     Err        Err        Err      Quality

2012/04/11 08:46:09.5     45.8746    4.6412       .0 f    24   12 083  Ml 2.4 12  Md 2.1  1              js067245    273365

      0.47   +-  0.09       2.4    1.3   39.55 +-  0.0    0.95   1.88   +-0.2      +-                    m i km

FRANCE
Sta     Dist  EvAz     Phase      Date       Time     TRes  Azim  AzRes  Slow  SRes Def   SNR       Amp   Per   Mag1   Mag2       ID
SMF   000.95 324.5 m E Pg      2012/04/11 08:46:27.6   0.0                          T                                        4910452
SMF   000.95 324.5 m E Sg      2012/04/11 08:46:40.8   0.8                          T               23.8  .36 Ml 2.6 Md 2.1  4910451
CABF  001.25 053.2 m E Pg      2012/04/11 08:46:34.0   0.9                          T                                        4910448
CABF  001.25 053.2 m E Sg      2012/04/11 08:46:50.5   1.1                          T                4.7  .31 Ml 2.1         4910447
AVF   001.28 316.2 m E Pg      2012/04/11 08:46:34.2   0.6                          T                                        4910449
AVF   001.28 316.2 m E Sg      2012/04/11 08:46:50.7   0.4                          T                                        4910450
SSF   001.42 326.9 m E Pg      2012/04/11 08:46:36.0  -0.3                          T                                        4910446
SSF   001.42 326.9 m E Sg      2012/04/11 08:46:54.6  -0.2                          T               10.2  .41 Ml 2.5         4910445
BGF   001.42 299.4 m E Pg      2012/04/11 08:46:36.3   0.0                          T                                        4910460
BGF   001.42 299.4 m E Sg      2012/04/11 08:46:54.8   0.0                          T               16.1  .30 Ml 2.7         4910457
LOR   001.50 339.1 m E Pg      2012/04/11 08:46:37.2  -0.4 159.0  0.5               T                                        4910443
LOR   001.50 339.1 m E Sg      2012/04/11 08:46:56.3  -0.8                          T               10.6  .32 Ml 2.6         4910444
LPL   001.51 103.0 m E Pg      2012/04/11 08:46:38.0  -0.1                          T                                        4910454
LPG   001.53 103.5 m E Pg      2012/04/11 08:46:38.4  -0.1                          T                                        4910455
LPG   001.53 103.5 m E Sg      2012/04/11 08:46:59.3   0.9                          T                2.5  .23 Ml 2.1         4910456
VIVF  001.02 178.7 m E Sg      2012/04/11 08:46:42.3   0.0                          T               24.0  .56 Ml 2.5         4910468
TCF   001.74 284.6 m E Pg      2012/04/11 08:46:42.6   0.4                          T                                        4910461
TCF   001.74 284.6 m E Sg      2012/04/11 08:47:04.6  -0.2                          T                5.4  .44 Ml 2.3         4910462
ORIF  001.29 137.2 m E Sg      2012/04/11 08:46:50.8  -0.2                          T                7.3  .42 Ml 2.2         4910453
LASF  001.88 197.5 m E Sg      2012/04/11 08:47:08.4  -0.8                          T                                        4910467

.
EVENT     273347
    Date      Time       Latitude Longitude    Depth    Ndef Nsta Gap    Mag1  N    Mag2  N    Mag3  N   Author         ID
       rms   OT_Error      Smajor Sminor Az        Err   mdist  Mdist     Err        Err        Err      Quality

2012/04/11 09:04:22.4     47.2000    3.6864       .0 f    16    8 125  Ml 2.0  4  Md 1.3  2              js067245    273367

      0.27   +-  0.07       1.5    1.1  126.82 +-  0.0    0.14   1.36   +-0.2      +-0.0                 m i km

FRANCE
Sta     Dist  EvAz     Phase      Date       Time     TRes  Azim  AzRes  Slow  SRes Def   SNR       Amp   Per   Mag1   Mag2       ID
LOR   000.14 059.8 m E Pg      2012/04/11 09:04:25.4  -0.2 239.5  -0.4              T                                        4910471
LOR   000.14 059.8 m E Sg      2012/04/11 09:04:27.4  -0.2                          T               69.0  .38        Md 1.4  4910470
SSF   000.19 221.7 m E Pg      2012/04/11 09:04:26.3  -0.2                          T                                        4910472
SSF   000.19 221.7 m E Sg      2012/04/11 09:04:29.0  -0.2                          T              106.4  .62        Md 1.3  4910469
AVF   000.47 209.3 m E Pg      2012/04/11 09:04:31.8   0.2                          T                                        4910476
AVF   000.47 209.3 m E Sg      2012/04/11 09:04:38.1   0.1                          T                                        4910475
SMF   000.56 169.1 m E Pg      2012/04/11 09:04:33.5   0.1                          T                                        4910477
HYF   000.72 275.9 m E Pg      2012/04/11 09:04:36.1  -0.1                          T                                        4910478
BGF   000.86 222.2 m E Pg      2012/04/11 09:04:39.4   0.5                          T                                        4910486
BGF   000.86 222.2 m E Sg      2012/04/11 09:04:50.4   0.1                          T                4.4  .24 Ml 2.0         4910485
TCF   001.36 228.6 m E Pg      2012/04/11 09:04:47.8  -0.4                          T                                        4910484
TCF   001.36 228.6 m E Sg      2012/04/11 09:05:05.5  -0.5                          T                1.0  .19 Ml 1.7         4910483
SFTF  001.36 041.7 m E Pg      2012/04/11 09:04:48.5   0.4                          T                                        4910481
SFTF  001.36 041.7 m E Sg      2012/04/11 09:05:06.0   0.2                          T                2.9  .19 Ml 2.2         4910482

.
EVENT     273349
    Date      Time       Latitude Longitude    Depth    Ndef Nsta Gap    Mag1  N    Mag2  N    Mag3  N   Author         ID
       rms   OT_Error      Smajor Sminor Az        Err   mdist  Mdist     Err        Err        Err      Quality

2012/04/11 09:47:03.8     46.9444    2.5190       .0 f     6    3 206  Ml 2.1  1  Md 2.1  2              js067245    273369

      1.29   +-  0.81      20.7    6.3   94.83 +-  0.0    0.33   0.97   +-         +-0.1                 m i km

FRANCE
Sta     Dist  EvAz     Phase      Date       Time     TRes  Azim  AzRes  Slow  SRes Def   SNR       Amp   Per   Mag1   Mag2       ID
HYF   000.33 014.2 m E Pg      2012/04/11 09:47:11.8   1.3                          T                                        4912431
HYF   000.33 014.2 m E Sn      2012/04/11 09:47:22.7  -2.6                          T                                Md 2.2  4912432
BGF   000.45 149.7 m E Pg      2012/04/11 09:47:12.1  -0.4                          T                                        4910494
BGF   000.45 149.7 m E Sg      2012/04/11 09:47:19.4   0.7                          T               13.8  .40        Md 2.0  4910493
LOR   000.97 070.0 m E Pg      2012/04/11 09:47:21.4  -0.9 251.3  0.3               T                                        4910491
LOR   000.97 070.0 m E Sg      2012/04/11 09:47:37.5   2.5 250.5  -0.5              T                7.2  .35 Ml 2.1         4910492

.
EVENT     273577
    Date      Time       Latitude Longitude    Depth    Ndef Nsta Gap    Mag1  N    Mag2  N    Mag3  N   Author         ID
       rms   OT_Error      Smajor Sminor Az        Err   mdist  Mdist     Err        Err        Err      Quality

2012/04/11 09:49:57.4     43.0997    5.3673       .0 f     6    3 295  Ml 2.3  3  Md 1.8  2              bulletin    273597
                                                                                                         _ldg
      0.36   +-  0.68      13.0    5.8   37.67 +-  0.0    0.87   1.04   +-0.3      +-0.0                 m i ke

NEAR SOUTH COAST OF FRANCE
Sta     Dist  EvAz     Phase      Date       Time     TRes  Azim  AzRes  Slow  SRes Def   SNR       Amp   Per   Mag1   Mag2       ID
LMR   000.87 073.9 m E Pg      2012/04/11 09:50:13.7  -0.3                          T                                        4910737
LMR   000.87 073.9 m E Sg      2012/04/11 09:50:24.5  -0.9                          T                7.7  .26 Ml 2.2 Md 1.8  4910736
SMRF  000.89 009.7 m E Pg      2012/04/11 09:50:14.2  -0.2                          T                                        4911444
SMRF  000.89 009.7 m E Sg      2012/04/11 09:50:26.4   0.2                          T                6.2  .34 Ml 2.0 Md 1.8  4911443
FRF   001.04 063.3 m E Pg      2012/04/11 09:50:17.4   0.2                          T                                        4910739
FRF   001.04 063.3 m E Sg      2012/04/11 09:50:30.8  -0.1                          T               14.6  .24 Ml 2.7         4910738

.
