EVENT     281132
    Date      Time       Latitude Longitude    Depth    Ndef Nsta Gap    Mag1  N    Mag2  N    Mag3  N   Author         ID
       rms   OT_Error      Smajor Sminor Az        Err   mdist  Mdist     Err        Err        Err      Quality

2012/08/11 13:24:12.5     45.6368    2.9071      2.0      40   13 088  Ml 2.1 13  Md 2.3  3              bulletin    281232
                                                                                                         _ldg
      0.22   +-  0.03        .8     .6   95.13 +-  0.0    0.49   2.35   +-0.2      +-0.0                 m i ke

FRANCE
Sta     Dist  EvAz     Phase      Date       Time     TRes  Azim  AzRes  Slow  SRes Def   SNR       Amp   Per   Mag1   Mag2       ID
TCF   000.81 323.5 m E Pg      2012/08/11 13:24:27.9   0.0                          T                                        5044424
TCF   000.81 323.5 m E P       2012/08/11 13:24:29.5  -0.1                          T                                        5046945
TCF   000.81 323.5 m E Sg      2012/08/11 13:24:38.5   0.0                          T                3.6  .16        Md 2.3  5044418
CAF   000.93 220.2 m E Pg      2012/08/11 13:24:29.6  -0.3                          T                                        5052789
CAF   000.93 220.2 m E Pn      2012/08/11 13:24:31.0   0.0                          T                                        5044419
CAF   000.93 220.2 m E Sg      2012/08/11 13:24:41.6  -0.4                          T                6.7  .38 Ml 2.0         5044413
BGF   000.92 357.4 m E Pg      2012/08/11 13:24:29.6  -0.2                          T                                        5052790
BGF   000.92 357.4 m E Pn      2012/08/11 13:24:30.9   0.0                          T                                        5044421
BGF   000.92 357.4 m E Sg      2012/08/11 13:24:41.7  -0.1                          T               12.4  .28 Ml 2.4 Md 2.4  5044415
RJF   001.03 251.7 m E Pg      2012/08/11 13:24:32.0   0.1                          T                                        5044420
RJF   001.03 251.7 m E Sg      2012/08/11 13:24:45.3   0.0                          T               10.1  .31 Ml 2.0         5044414
SMF   001.20 032.4 m E Pn      2012/08/11 13:24:34.5  -0.2                          T                                        5044422
SMF   001.20 032.4 m E P       2012/08/11 13:24:36.2  -0.1                          T                                        5052791
SMF   001.20 032.4 m E Sn      2012/08/11 13:24:50.5  -0.1                          T                4.5  .28 Ml 2.1         5044416
AVF   001.19 014.8 m E Pn      2012/08/11 13:24:34.6   0.1                          T                                        5044423
AVF   001.19 014.8 m E Sn      2012/08/11 13:24:50.3  -0.2                          T                6.0  .34 Ml 2.2         5044417
VIVF  001.47 121.4 m E Pn      2012/08/11 13:24:38.0  -0.4                          T                                        5044432
VIVF  001.47 121.4 m E Pg      2012/08/11 13:24:40.1   0.1                          T                                        5046951
VIVF  001.47 121.4 m E Sn      2012/08/11 13:24:57.0  -0.1                          T                                        5044428
VIVF  001.47 121.4 m E Sg      2012/08/11 13:24:59.0   0.0                          T                2.0  .20 Ml 2.0         5046950
SSF   001.48 016.0 m E Pn      2012/08/11 13:24:38.5   0.0                          T                                        5044438
SSF   001.48 016.0 m E Pg      2012/08/11 13:24:40.2   0.0                          T                                        5052797
SSF   001.48 016.0 m E Sn      2012/08/11 13:24:57.1  -0.2                          T                                        5044436
SSF   001.48 016.0 m E Sg      2012/08/11 13:24:59.4   0.0                          T                4.6  .54 Ml 2.0         5046944
LFF   001.68 246.3 m E Pn      2012/08/11 13:24:41.5   0.3                          T                                        5044433
LFF   001.68 246.3 m E Sn      2012/08/11 13:25:01.1  -0.9                          T                                        5044434
LFF   001.68 246.3 m E Sg      2012/08/11 13:25:05.6   0.1                          T                3.8  .28 Ml 2.1         5046946
LASF  001.70 156.3 m E Pn      2012/08/11 13:24:41.9   0.4                          T                                        5044431
LASF  001.70 156.3 m E Pg      2012/08/11 13:24:44.4   0.2                          T                                        5046948
LASF  001.70 156.3 m E Sn      2012/08/11 13:25:02.5  -0.1                          T                                        5044429
LASF  001.70 156.3 m E Sg      2012/08/11 13:25:06.0  -0.1                          T                4.7  .34 Ml 2.3         5046949
LOR   001.76 021.6 m E Pn      2012/08/11 13:24:42.3   0.0 200.8  -1.5              T                                        5044425
LOR   001.76 021.6 m E Sn      2012/08/11 13:25:03.8  -0.1                          T                                        5044426
LOR   001.76 021.6 m E Sg      2012/08/11 13:25:08.0   0.1                          T                1.9  .18 Ml 2.2         5052796
MFF   002.33 295.5 m E Pn      2012/08/11 13:24:50.0  -0.1                          T                                        5044437
MFF   002.33 295.5 m E Sn      2012/08/11 13:25:17.5  -0.1                          T                 .5  .17 Ml 1.9         5044435
MFF   002.33 295.5 m E Sg      2012/08/11 13:25:26.0   0.1                          T                1.4  .25 Ml 2.2         5052795
MTLF  002.35 192.4 m E Pn      2012/08/11 13:24:50.4   0.2                          T                                        5044430
MTLF  002.35 192.4 m E Sn      2012/08/11 13:25:17.7  -0.2                          T                                        5044427
MTLF  002.35 192.4 m E Sg      2012/08/11 13:25:26.2  -0.1                          T                 .4  .19 Ml 1.6         5046947

.
EVENT     281134
    Date      Time       Latitude Longitude    Depth    Ndef Nsta Gap    Mag1  N    Mag2  N    Mag3  N   Author         ID
       rms   OT_Error      Smajor Sminor Az        Err   mdist  Mdist     Err        Err        Err      Quality

2012/08/11 17:15:11.8     44.4815    6.7434      2.0     116   29 037  Ml 2.9 26  Md 2.7  6              bulletin    281234
                                                                                                         _ldg
      0.81   +-  0.05       1.3     .9   49.75 +-  0.0    0.05   5.84   +-0.3      +-0.1                 m i ke

FRANCE
Sta     Dist  EvAz     Phase      Date       Time     TRes  Azim  AzRes  Slow  SRes Def   SNR       Amp   Per   Mag1   Mag2       ID
MBDF  000.25 004.6 m E Pg      2012/08/11 17:15:16.5  -0.5                          T   001.0                                5044481
MBDF  000.25 004.6 m E Sg      2012/08/11 17:15:20.4   0.1                          T              558.5  .36        Md 2.7  5044485
ORIF  000.75 305.6 m E Pg      2012/08/11 17:15:24.9  -1.2                          T   001.0                                5044484
ORIF  000.75 305.6 m E Sg      2012/08/11 17:15:34.6  -1.5                          T   001.0      165.5  .24        Md 2.7  5044439
SBF   000.79 140.9 m E Pg      2012/08/11 17:15:26.9   0.0                          T   001.0                                5044469
SBF   000.79 140.9 m E Sg      2012/08/11 17:15:37.2   0.0                          T   001.0      107.6  .23        Md 2.8  5044470
FRF   000.92 184.4 m E Pg      2012/08/11 17:15:28.8  -0.3                          T   001.0                                5044452
FRF   000.92 184.4 m E Sg      2012/08/11 17:15:41.1  -0.1                          T   001.0      109.6  .18 Ml 3.6         5044453
SMRF  000.98 239.4 m E Pg      2012/08/11 17:15:30.3   0.0                          T   001.0                                5044443
SMRF  000.98 239.4 m E Sg      2012/08/11 17:15:43.2   0.2                          T   001.0       87.4  .26 Ml 3.3         5044444
LPG   001.02 000.3 m E Pg      2012/08/11 17:15:30.4  -0.8                          T   001.0                                5044463
LPG   001.02 000.3 m E Sg      2012/08/11 17:15:44.1  -0.3                          T   001.0       76.8  .42 Ml 3.1 Md 2.7  5044464
LPL   001.03 359.6 m E Pg      2012/08/11 17:15:30.6  -1.0                          T   001.0                                5044465
LPL   001.03 359.6 m E Sg      2012/08/11 17:15:44.7  -0.2                          T   001.0       40.2  .34 Ml 2.9 Md 2.7  5044466
LMR   001.16 188.5 m E Pn      2012/08/11 17:15:33.4   0.0                          T   001.0                                5044457
LMR   001.16 188.5 m E Sg      2012/08/11 17:15:48.5   0.0                          T   001.0       87.3  .26 Ml 3.4         5044458
VIVF  001.52 284.9 m E Pn      2012/08/11 17:15:38.6   0.2                          T   001.0                                5044440
VIVF  001.52 284.9 m E Pg      2012/08/11 17:15:40.2   0.0                          T                                        5046282
VIVF  001.52 284.9 m E Sn      2012/08/11 17:15:57.8   0.2                          T   001.0       19.6  .26 Ml 2.9         5044442
LASF  002.11 259.9 m E Pn      2012/08/11 17:15:46.5   0.1                          T   001.0                                5044455
LASF  002.11 259.9 m E Pg      2012/08/11 17:15:51.2   0.1                          T                                        5046281
LASF  002.11 259.9 m E Sn      2012/08/11 17:16:11.8   0.1                          T   001.0                                5044456
LASF  002.11 259.9 m E Sg      2012/08/11 17:16:18.7   0.3                          T               11.8  .48 Ml 2.6         5046280
CABF  002.18 348.0 m E Pn      2012/08/11 17:15:49.4   2.0                          T   001.0                                5044478
CABF  002.18 348.0 m E Sn      2012/08/11 17:16:13.6   0.2                          T                                        5044496
CABF  002.18 348.0 m E Sg      2012/08/11 17:16:21.0   0.5                          T               28.4  .56 Ml 2.9         5046269
PGF   002.54 138.9 m E Pn      2012/08/11 17:15:52.4   0.1                          T   001.0                                5044467
PGF   002.54 138.9 m E Sn      2012/08/11 17:16:21.7  -0.2                          T   001.0       14.1  .26 Ml 3.3         5044468
SMF   002.97 317.7 m E Pn      2012/08/11 17:15:58.6   0.4                          T   001.0                                5044471
SMF   002.97 317.7 m E Pg      2012/08/11 17:16:07.9   1.0                          T                                        5046273
SMF   002.97 317.7 m E Sn      2012/08/11 17:16:32.1  -0.1                          T   001.0        8.1  .34 Ml 2.8         5044472
AVF   003.32 315.3 m E Pn      2012/08/11 17:16:02.9   0.2                          T   001.0                                5044445
AVF   003.32 315.3 m E Pg      2012/08/11 17:16:13.5   0.3                          T                                        5046271
AVF   003.32 315.3 m E Sn      2012/08/11 17:16:39.9  -0.5                          T   001.0                                5044446
AVF   003.32 315.3 m E Sg      2012/08/11 17:16:55.5  -0.3                          T                5.5  .33 Ml 2.7         5046272
CAF   003.37 279.2 m E Pn      2012/08/11 17:16:03.7   0.2                          T   001.0                                5044448
CAF   003.37 279.2 m E Sn      2012/08/11 17:16:42.3   0.6                          T                1.9  .21 Ml 2.5         5046277
HINF  003.34 001.3 m E Pn      2012/08/11 17:16:04.5   1.4                          T   001.0                                5044479
HINF  003.34 001.3 m E Sn      2012/08/11 17:16:41.7   0.7                          T   001.0                                5044480
HINF  003.34 001.3 m E Sg      2012/08/11 17:16:56.5   0.0                          T                5.4  .42 Ml 2.6         5046268
MTLF  003.46 252.4 m E Pn      2012/08/11 17:16:04.8   0.0                          T   001.0                                5044482
MTLF  003.46 252.4 m E Pg      2012/08/11 17:16:16.1   0.2                          T                                        5046279
MTLF  003.46 252.4 m E Sn      2012/08/11 17:16:44.1   0.2                          T   001.0                                5044483
MTLF  003.46 252.4 m E Sg      2012/08/11 17:17:00.4  -0.1                          T                  1  .24 Ml 2.1         5046278
BGF   003.44 308.5 m E Pn      2012/08/11 17:16:05.2   0.8                          T   001.0                                5044447
BGF   003.44 308.5 m E Pg      2012/08/11 17:16:15.4  -0.1                          T                                        5046275
BGF   003.44 308.5 m E Sn      2012/08/11 17:16:43.2  -0.1                          T                                        5044494
BGF   003.44 308.5 m E Sg      2012/08/11 17:16:59.5  -0.1                          T               19.9  .36 Ml 3.3         5046274
LOR   003.44 325.2 m E Pn      2012/08/11 17:16:05.8   1.3 146.3  3.2               T   001.0                                5044459
LOR   003.44 325.2 m E Sn      2012/08/11 17:16:44.3   0.8 155.9  12.8              T   001.0        9.3  .42 Ml 2.9         5044460
SSF   003.43 319.9 m E Pn      2012/08/11 17:16:06.1   1.7                          T   001.0                                5044473
SSF   003.43 319.9 m E Sn      2012/08/11 17:16:42.8  -0.4                          T   001.0                                5044474
SSF   003.43 319.9 m E Sg      2012/08/11 17:16:59.8   0.3                          T   001.0        8.0  .36 Ml 3.0         5044475
HAU   003.54 355.7 m E Pn      2012/08/11 17:16:07.5   1.6                          T   001.0                                5044454
HAU   003.54 355.7 m E Sn      2012/08/11 17:16:46.4   0.7                          T                                        5044489
HAU   003.54 355.7 m E Sg      2012/08/11 17:17:03.1   0.3                          T                6.0  .32 Ml 2.6         5046267
TCF   003.67 301.1 m E Pn      2012/08/11 17:16:08.6   1.0                          T   001.0                                5044476
TCF   003.67 301.1 m E Sn      2012/08/11 17:16:47.9  -1.1                          T                                        5044495
TCF   003.67 301.1 m E Sg      2012/08/11 17:17:07.4   0.4                          T                3.7  .40 Ml 2.6         5046270
RJF   003.80 284.3 m E Pn      2012/08/11 17:16:09.8   0.3                          T                                        5044493
SFTF  003.91 343.0 m E Pn      2012/08/11 17:16:11.6   0.8                          T                                        5044490
SFTF  003.91 343.0 m E Sn      2012/08/11 17:16:55.1   0.5                          T               15.6  .44 Ml 3.2         5044491
CDF   003.95 005.2 m E Pn      2012/08/11 17:16:12.3   0.7                          T   001.0                                5044450
CDF   003.95 005.2 m E Sn      2012/08/11 17:16:56.1   0.4                          T   001.0        3.3  .30 Ml 2.8         5044451
PAGF  004.14 350.6 m E Pn      2012/08/11 17:16:14.6   0.7 170.1  0.3               T                                        5044486
PAGF  004.14 350.6 m E Sn      2012/08/11 17:16:59.9  -0.1                          T               11.0  .58 Ml 3.0         5044492
LFF   004.30 278.2 m E Pn      2012/08/11 17:16:16.7   0.5                          T                                        5046276
MFF   005.28 296.1 m E Pn      2012/08/11 17:16:30.4   0.8                          T                                        5044487
BAIF  005.84 343.7 m E Pn      2012/08/11 17:16:38.7   1.6                          T   001.0                                5044477
BAIF  005.84 343.7 m E Sn      2012/08/11 17:17:36.8  -3.9                          T                1.5  .29 Ml 2.8         5044488

.
EVENT     281196
    Date      Time       Latitude Longitude    Depth    Ndef Nsta Gap    Mag1  N    Mag2  N    Mag3  N   Author         ID
       rms   OT_Error      Smajor Sminor Az        Err   mdist  Mdist     Err        Err        Err      Quality

2012/08/11 18:07:58.7     42.4868    2.0628      6.0 f    24    3 063  Ml 1.7  4  Md 1.8  2              bulletin    281296
                                                                                                         _ldg
      0.29   +-  0.05       1.1     .9   24.75 +-  0.0    0.07   2.06   +-0.1      +-0.0                 m i ke

PYRENEES
Sta     Dist  EvAz     Phase      Date       Time     TRes  Azim  AzRes  Slow  SRes Def   SNR       Amp   Per   Mag1   Mag2       ID
MTLF  000.86 007.5 m E Pg      2012/08/11 18:08:14.9  -0.1                          T                                        5046284
MTLF  000.86 007.5 m E Sg      2012/08/11 18:08:25.9  -0.3                          T                1.2  .16 Ml 1.6 Md 1.8  5046283
EPF   001.38 293.8 m E Pn      2012/08/11 18:08:23.1   0.2                          T                                        5046290
EPF   001.38 293.8 m E Sn      2012/08/11 18:08:41.0   0.6                          T                1.2  .29 Ml 1.6 Md 1.9  5046289
LASF  002.06 038.9 m E Pn      2012/08/11 18:08:32.4   0.2                          T                                        5046288
LASF  002.06 038.9 m E Sn      2012/08/11 18:08:57.1   0.5                          T                1.1  .33 Ml 1.7         5046287

.
