EVENT     290044
    Date      Time       Latitude Longitude    Depth    Ndef Nsta Gap    Mag1  N    Mag2  N    Mag3  N   Author         ID
       rms   OT_Error      Smajor Sminor Az        Err   mdist  Mdist     Err        Err        Err      Quality

2013/01/11 01:48:07.0     44.7375    2.8808      8.0 f    43   15 066  Ml 1.7 13  Md 1.9  1              bulletin    290144
                                                                                                         _ldg
      0.33   +-  0.06       1.4    1.1  113.13 +-  0.0    0.61   3.38   +-0.2      +-                    m i ke

FRANCE
Sta     Dist  EvAz     Phase      Date       Time     TRes  Azim  AzRes  Slow  SRes Def   SNR       Amp   Per   Mag1   Mag2       ID
CAF   000.61 288.2 m E Pg      2013/01/11 01:48:18.6  -0.2                          T                                        5183088
CAF   000.61 288.2 m E Pn      2013/01/11 01:48:20.4  -0.2                          T                                        5164394
CAF   000.61 288.2 m E Sg      2013/01/11 01:48:26.7  -0.1                          T                1.8  .16        Md 1.9  5164393
LASF  000.96 133.0 m E Pg      2013/01/11 01:48:25.0  -0.2                          T                                        5164390
LASF  000.96 133.0 m E Sg      2013/01/11 01:48:36.8  -0.9                          T                 .6  .19 Ml 1.3         5164389
RJF   001.12 300.8 m E Pn      2013/01/11 01:48:27.3  -0.1                          T                                        5164392
RJF   001.12 300.8 m E Pg      2013/01/11 01:48:28.2   0.1                          T                                        5183087
RJF   001.12 300.8 m E Sg      2013/01/11 01:48:43.0   0.3                          T                3.2  .20 Ml 1.8         5164391
VIVF  001.28 084.1 m E Pn      2013/01/11 01:48:29.9   0.2                          T                                        5164403
VIVF  001.28 084.1 m E Sn      2013/01/11 01:48:46.2   0.2                          T                2.1  .19 Ml 2.0         5164388
MTLF  001.48 199.1 m E Pn      2013/01/11 01:48:32.1  -0.1                          T                                        5164406
MTLF  001.48 199.1 m E Pg      2013/01/11 01:48:34.3  -0.3                          T                                        5164405
MTLF  001.48 199.1 m E Sn      2013/01/11 01:48:51.3   0.7                          T                 .7  .21 Ml 1.5         5164404
LFF   001.54 278.3 m E Pn      2013/01/11 01:48:33.4   0.3                          T                                        5164428
LFF   001.54 278.3 m E Pg      2013/01/11 01:48:35.4  -0.2                          T                                        5164427
LFF   001.54 278.3 m E Sn      2013/01/11 01:48:51.9  -0.1                          T                                        5164426
LFF   001.54 278.3 m E Sg      2013/01/11 01:48:55.6   0.1                          T                2.3  .23 Ml 1.9         5164425
TCF   001.62 343.3 m E Pn      2013/01/11 01:48:34.9   0.6                          T                                        5164411
TCF   001.62 343.3 m E Pg      2013/01/11 01:48:36.9  -0.4                          T                                        5164410
TCF   001.62 343.3 m E Sg      2013/01/11 01:48:58.3   0.1                          T                1.4  .17 Ml 2.1         5164409
BGF   001.82 359.3 m E Pn      2013/01/11 01:48:37.4   0.4                          T                                        5164422
BGF   001.82 359.3 m E Sn      2013/01/11 01:48:59.2   0.4                          T                                        5164421
BGF   001.82 359.3 m E Sg      2013/01/11 01:49:03.7  -0.7                          T                1.8  .20 Ml 2.1         5164420
SMF   002.02 019.1 m E Pn      2013/01/11 01:48:40.1   0.4                          T                                        5164418
SMF   002.02 019.1 m E Pg      2013/01/11 01:48:44.8   0.2                          T                                        5164417
SMF   002.02 019.1 m E Sn      2013/01/11 01:49:05.2   1.5                          T                                        5164416
SMF   002.02 019.1 m E Sg      2013/01/11 01:49:11.2   0.4                          T                 .7  .19 Ml 1.7         5164415
AVF   002.08 009.0 m E Pn      2013/01/11 01:48:40.6   0.2                          T                                        5164414
AVF   002.08 009.0 m E Pg      2013/01/11 01:48:45.1  -0.6                          T                                        5164413
AVF   002.08 009.0 m E Sg      2013/01/11 01:49:11.7  -0.8                          T                 .5  .22 Ml 1.6         5164412
EPF   002.51 228.0 m E Pn      2013/01/11 01:48:46.7   0.3                          T                                        5164402
EPF   002.51 228.0 m E Pg      2013/01/11 01:48:53.7   0.0                          T                                        5164401
EPF   002.51 228.0 m E Sn      2013/01/11 01:49:15.2  -0.1                          T                                        5164400
EPF   002.51 228.0 m E Sg      2013/01/11 01:49:25.9   0.0                          T                 .4  .16 Ml 1.7         5164399
HYF   002.54 356.3 m E Pn      2013/01/11 01:48:47.6   0.8                          T                                        5164423
HYF   002.54 356.3 m E Pg      2013/01/11 01:48:53.9  -0.3                          T                                        5164419
MFF   002.82 312.4 m E Pn      2013/01/11 01:48:50.3  -0.3                          T                                        5164408
MFF   002.82 312.4 m E Sn      2013/01/11 01:49:23.3   0.5                          T                 .5  .23 Ml 1.9         5164407
ETSF  003.09 234.8 m E Pn      2013/01/11 01:48:54.6   0.2                          T                                        5164398
ETSF  003.09 234.8 m E Pg      2013/01/11 01:49:04.2  -0.3                          T                                        5164397
ETSF  003.09 234.8 m E Sn      2013/01/11 01:49:29.8   0.4                          T                                        5164396
ETSF  003.09 234.8 m E Sg      2013/01/11 01:49:44.4   0.1                          T                 .3  .27 Ml 1.5         5164395
SJPF  003.38 242.7 m E Sn      2013/01/11 01:49:36.9   0.7                          T                 .2  .16 Ml 1.5         5164424

.
EVENT     291218
    Date      Time       Latitude Longitude    Depth    Ndef Nsta Gap    Mag1  N    Mag2  N    Mag3  N   Author         ID
       rms   OT_Error      Smajor Sminor Az        Err   mdist  Mdist     Err        Err        Err      Quality

2013/01/11 11:07:11.1     42.9224     .4169     15.0      15    4 101  Ml 1.4  2  Md 1.5  2              bulletin    291318
                                                                                                         _ldg
      0.26   +-  0.05       1.4     .8   26.87 +-  0.0    0.12   1.54   +-0.1      +-0.0                 m i ke

PYRENEES
Sta     Dist  EvAz     Phase      Date       Time     TRes  Azim  AzRes  Slow  SRes Def   SNR       Amp   Per   Mag1   Mag2       ID
EPF   000.12 332.4 m E Pg      2013/01/11 11:07:14.9   0.1                          T                                        5183125
EPF   000.12 332.4 m E Sg      2013/01/11 11:07:16.8  -0.5                          T               38.5  .20        Md 1.4  5183126
ETSF  000.72 268.4 m E Pg      2013/01/11 11:07:25.2   0.3                          T                                        5183123
ETSF  000.72 268.4 m E Sg      2013/01/11 11:07:34.1  -0.4                          T                 .9  .18        Md 1.5  5183124
MTLF  001.38 071.8 m E Pg      2013/01/11 11:07:37.0   0.0                          T                                        5183129
MTLF  001.38 071.8 m E Sg      2013/01/11 11:07:55.1   0.1                          T                 .6  .22 Ml 1.4         5183130
SJPF  001.22 279.6 m E Sg      2013/01/11 11:07:50.0   0.1                          T                 .6  .22 Ml 1.3         5183131

.
EVENT     290082
    Date      Time       Latitude Longitude    Depth    Ndef Nsta Gap    Mag1  N    Mag2  N    Mag3  N   Author         ID
       rms   OT_Error      Smajor Sminor Az        Err   mdist  Mdist     Err        Err        Err      Quality

2013/01/11 11:29:24.8     43.8987   11.8557     25.0      41   18 132  Ml 2.9  7                         bulletin    290182
                                                                                                         _ldg
      0.46   +-  0.12       3.4    2.3   65.22 +-  0.0    0.11   8.03   +-0.4                            m i ke

CENTRAL ITALY
Sta     Dist  EvAz     Phase      Date       Time     TRes  Azim  AzRes  Slow  SRes Def   SNR       Amp   Per   Mag1   Mag2       ID
PGF   002.49 238.1 m E Pn      2013/01/11 11:30:01.0  -1.0                          T                                        5164325
SBF   003.20 270.9 m E Pn      2013/01/11 11:30:11.3  -0.3                          T                                        5164324
SBF   003.20 270.9 m E Sn      2013/01/11 11:30:46.1  -0.4                          T                9.0  .32 Ml 2.9         5164360
MBDF  003.74 284.5 m E Pn      2013/01/11 11:30:18.8  -0.3                          T                                        5164356
MBDF  003.74 284.5 m E Sn      2013/01/11 11:30:59.8   0.2                          T                                        5164353
LMR   003.92 263.6 m E Pn      2013/01/11 11:30:21.3  -0.1                          T                                        5164323
LPG   003.98 295.5 m E Pn      2013/01/11 11:30:22.7   0.2                          T                                        5164359
LPG   003.98 295.5 m E Sn      2013/01/11 11:31:03.4  -2.0                          T                3.0  .31 Ml 2.6         5164354
LPL   003.99 295.7 m E Pn      2013/01/11 11:30:22.8   0.2                          T                                        5164358
ORIF  004.40 285.5 m E Pn      2013/01/11 11:30:28.0   0.0                          T                                        5164357
SMRF  004.54 273.1 m E P       2013/01/11 11:30:33.9   0.1                          T                                        5164361
CABF  004.89 305.7 m E Pn      2013/01/11 11:30:34.9   0.1                          T                                        5164322
CABF  004.89 305.7 m E Sn      2013/01/11 11:31:26.9  -0.1                          T                 .3  .16 Ml 2.1         5164362
HINF  005.25 320.0 m E Pn      2013/01/11 11:30:40.0   0.5                          T                                        5164310
HINF  005.25 320.0 m E Sn      2013/01/11 11:31:36.3   0.8                          T                3.9  .30 Ml 3.0         5164309
CDF   005.52 326.4 m E Pn      2013/01/11 11:30:43.8   0.5                          T                                        5164312
CDF   005.52 326.4 m E Sn      2013/01/11 11:31:40.8  -1.3                          T                3.0  .27 Ml 3.1         5164307
HAU   005.62 318.9 m E Pn      2013/01/11 11:30:44.8   0.2                          T                                        5164311
HAU   005.62 318.9 m E Sn      2013/01/11 11:31:44.4   0.1                          T                4.1  .27 Ml 3.0         5164308
LOR   006.54 303.8 m E Pn      2013/01/11 11:30:57.1   0.0                          T                                        5164350
MEZF  006.59 316.7 m E Pn      2013/01/11 11:30:57.4  -0.4                          T                                        5164348
MEZF  006.59 316.7 m E Sn      2013/01/11 11:32:07.8   0.3                          T                5.5  .39 Ml 3.3         5164347
SSF   006.67 301.2 m E Pn      2013/01/11 11:30:58.9   0.1                          T                                        5164349
BGF   006.89 295.8 m E Pn      2013/01/11 11:31:04.5   2.6                          T                                        5164355
CAF   007.09 281.7 m E Pn      2013/01/11 11:31:04.6   0.0                          T                                        5164352
LFF   008.03 281.3 m E Pn      2013/01/11 11:31:17.2  -0.1                          T                                        5164351

.
EVENT     290110
    Date      Time       Latitude Longitude    Depth    Ndef Nsta Gap    Mag1  N    Mag2  N    Mag3  N   Author         ID
       rms   OT_Error      Smajor Sminor Az        Err   mdist  Mdist     Err        Err        Err      Quality

2013/01/11 13:03:05.4     46.2272    7.1762      2.0      26    8 098  Ml 2.0  7  Md 1.9  1              bulletin    290210
                                                                                                         _ldg
      0.22   +-  0.04       1.2     .7   48.02 +-  0.0    0.22   2.70   +-0.3      +-                    m i ke

SWITZERLAND
Sta     Dist  EvAz     Phase      Date       Time     TRes  Azim  AzRes  Slow  SRes Def   SNR       Amp   Per   Mag1   Mag2       ID
CABF  000.85 297.4 m E Pg      2013/01/11 13:03:21.6   0.2                          T                                        5164549
CABF  000.85 297.4 m E Sg      2013/01/11 13:03:32.7   0.3                          T                  1  .17        Md 1.9  5164548
HINF  001.61 352.2 m E Pn      2013/01/11 13:03:33.4   0.3                          T                                        5164547
HINF  001.61 352.2 m E Pg      2013/01/11 13:03:35.3  -0.1                          T                                        5164546
HINF  001.61 352.2 m E Sn      2013/01/11 13:03:53.3   0.1                          T                                        5164545
HINF  001.61 352.2 m E Sg      2013/01/11 13:03:56.4   0.3                          T                2.3  .16 Ml 2.2         5164544
HAU   001.87 342.7 m E Pn      2013/01/11 13:03:36.6   0.0                          T                                        5164543
HAU   001.87 342.7 m E Sn      2013/01/11 13:03:59.4   0.0                          T                                        5164542
HAU   001.87 342.7 m E Sg      2013/01/11 13:04:03.9  -0.3                          T                1.7  .22 Ml 1.8         5164541
SFTF  002.46 324.4 m E Pn      2013/01/11 13:03:44.4  -0.2                          T                                        5164540
SFTF  002.46 324.4 m E Sg      2013/01/11 13:04:22.4  -0.2                          T                2.2  .30 Ml 2.2         5164539
LOR   002.51 295.7 m E Pn      2013/01/11 13:03:45.3   0.0                          T                                        5164536
LOR   002.51 295.7 m E Sg      2013/01/11 13:04:24.5   0.3                          T                1.1  .23 Ml 2.0         5164535
PAGF  002.53 337.6 m E Pn      2013/01/11 13:03:45.8   0.1                          T                                        5164552
PAGF  002.53 337.6 m E Pg      2013/01/11 13:03:52.4   0.1                          T                                        5164551
PAGF  002.53 337.6 m E Sn      2013/01/11 13:04:15.5   0.3                          T                1.9  .28 Ml 2.2         5164550
SSF   002.66 289.6 m E Pn      2013/01/11 13:03:47.5   0.1                          T                                        5164558
SSF   002.66 289.6 m E Sn      2013/01/11 13:04:18.2  -0.2                          T                 .2  .17 Ml 1.4         5164557
MEZF  002.70 328.4 m E Pn      2013/01/11 13:03:47.7  -0.2                          T                                        5164556
MEZF  002.70 328.4 m E Pg      2013/01/11 13:03:55.0  -0.4                          T                                        5164555
MEZF  002.70 328.4 m E Sn      2013/01/11 13:04:19.1   0.0                          T                                        5164554
MEZF  002.70 328.4 m E Sg      2013/01/11 13:04:29.9  -0.1                          T                1.9  .23 Ml 2.3         5164553

.
EVENT     290090
    Date      Time       Latitude Longitude    Depth    Ndef Nsta Gap    Mag1  N    Mag2  N    Mag3  N   Author         ID
       rms   OT_Error      Smajor Sminor Az        Err   mdist  Mdist     Err        Err        Err      Quality

2013/01/11 13:03:52.2     42.8873    -.9231      3.0 f    16    7 228  Ml 1.7  5  Md 1.4  2              bulletin    290190
                                                                                                         _ldg
      0.17   +-  0.11       2.4    1.1   21.85 +-  0.0    0.27   3.68   +-0.3      +-0.1                 m i ke

PYRENEES
Sta     Dist  EvAz     Phase      Date       Time     TRes  Azim  AzRes  Slow  SRes Def   SNR       Amp   Per   Mag1   Mag2       ID
ETSF  000.27 087.5 m E Pg      2013/01/11 13:03:57.4  -0.2                          T                                        5164459
ETSF  000.27 087.5 m E Sg      2013/01/11 13:04:01.4   0.2                          T                3.3  .21        Md 1.5  5164458
SJPF  000.32 315.7 m E Pg      2013/01/11 13:03:58.3  -0.1                          T                                        5164457
SJPF  000.32 315.7 m E Sg      2013/01/11 13:04:02.6   0.0                          T                2.5  .22        Md 1.4  5164456
EPF   000.94 080.8 m E Pg      2013/01/11 13:04:10.0   0.2                          T                                        5164461
EPF   000.94 080.8 m E Sg      2013/01/11 13:04:21.7  -0.4                          T                 .7  .25 Ml 1.2         5164460
MTLF  002.34 077.8 m E Pn      2013/01/11 13:04:29.9   0.1                          T                                        5164470
MTLF  002.34 077.8 m E Sn      2013/01/11 13:04:57.4   0.1                          T                 .3  .21 Ml 1.4         5164469
LFF   002.38 029.8 m E Pn      2013/01/11 13:04:30.3   0.1                          T                                        5164465
LFF   002.38 029.8 m E Pg      2013/01/11 13:04:36.2   0.0                          T                                        5164464
LFF   002.38 029.8 m E Sn      2013/01/11 13:04:58.6   0.4                          T                                        5164463
LFF   002.38 029.8 m E Sg      2013/01/11 13:05:06.8  -0.1                          T                2.6  .27 Ml 2.1         5164462
CAF   002.97 045.6 m E Pn      2013/01/11 13:04:39.1   0.8                          T                                        5164471
CAF   002.97 045.6 m E Sn      2013/01/11 13:05:12.0  -0.3                          T                 .6  .24 Ml 1.8         5164466
LASF  003.68 069.5 m E Pn      2013/01/11 13:04:47.9  -0.1                          T                                        5164468
LASF  003.68 069.5 m E Sn      2013/01/11 13:05:29.1  -0.1                          T                 .5  .26 Ml 1.8         5164467

.
