EVENT     276852
    Date      Time       Latitude Longitude    Depth    Ndef Nsta Gap    Mag1  N    Mag2  N    Mag3  N   Author         ID
       rms   OT_Error      Smajor Sminor Az        Err   mdist  Mdist     Err        Err        Err      Quality

2012/05/24 15:09:50.7     45.0310    5.7521      2.0      21   10 157  Ml 2.2  5  Md 2.1  1              bulletin    276952
                                                                                                         _ldg
      1.02   +-  0.20       3.4    2.1  150.60 +-  0.0    0.14   1.78   +-0.3      +-                    m i ke

FRANCE
Sta     Dist  EvAz     Phase      Date       Time     TRes  Azim  AzRes  Slow  SRes Def   SNR       Amp   Per   Mag1   Mag2       ID
ORIF  000.14 141.1 m E Pg      2012/05/24 15:09:53.5  -0.3                          T                                Md 2.1  4964014
ORIF  000.14 141.1 m E Sg      2012/05/24 15:09:55.6  -0.3                          T              258.2  .18                4964013
MBDF  000.79 112.4 m E Pg      2012/05/24 15:10:05.1  -0.6                          T                                        4964011
MBDF  000.79 112.4 m E Sg      2012/05/24 15:10:15.1  -0.9                          T                8.7  .22                4964012
VIVF  000.79 257.5 m E Pg      2012/05/24 15:10:05.5  -0.1                          T                                        4964010
VIVF  000.79 257.5 m E Sg      2012/05/24 15:10:15.2  -0.6                          T                7.2  .20                4964009
LPL   000.85 054.6 m E Pg      2012/05/24 15:10:07.4   0.5                          T                                        4964007
LPL   000.85 054.6 m E Sg      2012/05/24 15:10:18.6   0.7                          T                4.6  .28                4964008
LPG   000.85 056.2 m E Pg      2012/05/24 15:10:09.1   2.1                          T                                        4964006
LPG   000.85 056.2 m E Sg      2012/05/24 15:10:18.0   0.0                          T                5.3  .22                4964005
SMRF  001.06 186.9 m E Pg      2012/05/24 15:10:10.7   0.0                          T                                        4989929
SMRF  001.06 186.9 m E Sn      2012/05/24 15:10:25.5   0.0                          T                3.3  .31 Ml 1.9         4989930
FRF   001.60 156.1 m E Pg      2012/05/24 15:10:21.2   0.6                          T                                        4964003
FRF   001.60 156.1 m E Sg      2012/05/24 15:10:42.6   1.3                          T                5.5  .28 Ml 2.4         4964004
LASF  001.66 235.5 m E Pg      2012/05/24 15:10:21.7   0.1                          T                                        4989927
LASF  001.66 235.5 m E Sg      2012/05/24 15:10:43.3   0.3                          T                1.4  .26 Ml 1.8         4989928
LMR   001.78 161.9 m E Pg      2012/05/24 15:10:23.3  -0.5                          T                                        4964002
LMR   001.78 161.9 m E Sg      2012/05/24 15:10:47.4   0.6                          T                2.6  .21 Ml 2.3         4964001
SBF   001.68 133.5 m E Sg      2012/05/24 15:10:45.6   1.9                          T                4.0  .22 Ml 2.4         4964000

.
EVENT     276853
    Date      Time       Latitude Longitude    Depth    Ndef Nsta Gap    Mag1  N    Mag2  N    Mag3  N   Author         ID
       rms   OT_Error      Smajor Sminor Az        Err   mdist  Mdist     Err        Err        Err      Quality

2012/05/24 16:11:14.7     46.2207    6.9833       .0 f    19    8 106  Ml 2.0  5  Md 1.8  3              bulletin    276953
                                                                                                         _ldg
      0.29   +-  0.08       1.3    1.2   69.80 +-  0.0    0.17   2.12   +-0.2      +-0.1                 m i km

SWITZERLAND
Sta     Dist  EvAz     Phase      Date       Time     TRes  Azim  AzRes  Slow  SRes Def   SNR       Amp   Per   Mag1   Mag2       ID
LPL   000.73 194.1 m E Pg      2012/05/24 16:11:28.7  -0.3                          T                                        4964022
LPL   000.73 194.1 m E Sg      2012/05/24 16:11:38.8   0.2                          T                7.0  .54        Md 1.8  4964026
CABF  000.73 302.5 m E Pg      2012/05/24 16:11:29.0   0.1                          T                                        4989935
CABF  000.73 302.5 m E Sg      2012/05/24 16:11:38.5  -0.1                          T               20.2  .80        Md 1.8  4964027
LPG   000.74 192.7 m E Pg      2012/05/24 16:11:29.4   0.1                          T                                        4964024
LPG   000.74 192.7 m E Sg      2012/05/24 16:11:39.1  -0.1                          T                2.2  .19        Md 1.9  4964020
MBDF  001.50 185.8 m E Pg      2012/05/24 16:11:43.2   0.0                          T                                        4989933
MBDF  001.50 185.8 m E Sg      2012/05/24 16:12:02.8   0.1                          T                7.2  .62 Ml 2.1         4989934
ORIF  001.52 211.1 m E Pg      2012/05/24 16:11:43.5   0.1                          T                                        4964023
ORIF  001.52 211.1 m E Sg      2012/05/24 16:12:04.1   1.0                          T                2.6  .26 Ml 2.0         4964021
HINF  001.60 356.9 m E Sg      2012/05/24 16:12:05.8   0.1                          T                 .9  .19 Ml 1.8         4989937
HAU   001.84 346.6 m E Sg      2012/05/24 16:12:13.3   0.2                          T                2.7  .25 Ml 2.0         4989936
VIVF  002.12 230.8 m E Sg      2012/05/24 16:12:21.9   0.0                          T                3.8  .38 Ml 2.2         4964025

.
EVENT     276854
    Date      Time       Latitude Longitude    Depth    Ndef Nsta Gap    Mag1  N    Mag2  N    Mag3  N   Author         ID
       rms   OT_Error      Smajor Sminor Az        Err   mdist  Mdist     Err        Err        Err      Quality

2012/05/24 16:19:32.0     44.5651    7.1666      5.0 f    26    6 109  Ml 1.7  5  Md 1.7  1              bulletin    276954
                                                                                                         _ldg
      0.52   +-  0.10       2.6    1.5   65.77 +-  0.0    0.08   1.32   +-0.1      +-                    m i ke

NORTHERN ITALY
Sta     Dist  EvAz     Phase      Date       Time     TRes  Azim  AzRes  Slow  SRes Def   SNR       Amp   Per   Mag1   Mag2       ID
MBDF  000.33 300.0 m E Pg      2012/05/24 16:19:38.1  -0.5                          T                                        4964039
MBDF  000.33 300.0 m E Sg      2012/05/24 16:19:42.8  -0.2                          T               38.3  .50        Md 1.7  4964038
ORIF  000.98 291.5 m E Pg      2012/05/24 16:19:50.5   0.0                          T                                        4964036
ORIF  000.98 291.5 m E Sg      2012/05/24 16:20:02.5  -0.8                          T                1.3  .20 Ml 1.6         4964037
LPG   000.98 342.6 m E Pg      2012/05/24 16:19:51.2   0.5                          T                                        4964032
LPG   000.98 342.6 m E Sg      2012/05/24 16:20:02.4  -1.1                          T                2.3  .33 Ml 1.7         4964033
LPL   001.00 342.2 m E Pg      2012/05/24 16:19:51.7   0.7                          T                                        4964035
LPL   001.00 342.2 m E Sg      2012/05/24 16:20:05.0   1.0                          T                2.6  .28 Ml 1.8         4964034
FRF   001.07 200.6 m E Pg      2012/05/24 16:19:52.8   0.7                          T                                        4964031
FRF   001.07 200.6 m E Sg      2012/05/24 16:20:07.2   1.2                          T                1.5  .18 Ml 1.8         4964030
LMR   001.32 201.3 m E Pg      2012/05/24 16:19:57.3   0.7                          T                                        4964028
LMR   001.32 201.3 m E Sg      2012/05/24 16:20:14.3   0.6                          T                1.7  .24 Ml 1.8         4964029

.
EVENT     276855
    Date      Time       Latitude Longitude    Depth    Ndef Nsta Gap    Mag1  N    Mag2  N    Mag3  N   Author         ID
       rms   OT_Error      Smajor Sminor Az        Err   mdist  Mdist     Err        Err        Err      Quality

2012/05/24 16:41:02.1     46.9722     .6136      5.0 f    28   12 093  Ml 2.4 10  Md 2.4  2              bulletin    276955
                                                                                                         _ldg
      0.96   +-  0.12       2.9    2.5   31.29 +-  0.0    0.64   2.28   +-0.3      +-0.3                 m i ke

FRANCE
Sta     Dist  EvAz     Phase      Date       Time     TRes  Azim  AzRes  Slow  SRes Def   SNR       Amp   Per   Mag1   Mag2       ID
MFF   000.64 234.9 m E Pg      2012/05/24 16:41:13.9  -0.3                          T                                        4964044
MFF   000.64 234.9 m E Sg      2012/05/24 16:41:23.1   0.4                          T                7.3  .26        Md 2.1  4964063
TCF   001.30 121.3 m E Pn      2012/05/24 16:41:25.7   0.5                          T                                        4964053
TCF   001.30 121.3 m E Sn      2012/05/24 16:41:42.9   0.9                          T               10.7  .28 Ml 2.6 Md 2.6  4964052
HYF   001.41 077.2 m E Pn      2012/05/24 16:41:27.1   0.2                          T                                        4964059
HYF   001.41 077.2 m E Sn      2012/05/24 16:41:45.2   0.4                          T                                        4964058
BGF   001.59 104.3 m E Pn      2012/05/24 16:41:30.0   0.8                          T                                        4964056
BGF   001.59 104.3 m E Sn      2012/05/24 16:41:49.5   0.5                          T               22.2  .26 Ml 3.0         4964057
LDF   001.70 343.3 m E Pn      2012/05/24 16:41:30.5  -0.1                          T                                        4964046
LDF   001.70 343.3 m E Sn      2012/05/24 16:41:51.1  -0.4                          T                2.6  .21 Ml 2.2         4964048
GRR   001.73 325.5 m E Pn      2012/05/24 16:41:31.4   0.2                          T                                        4964045
GRR   001.73 325.5 m E Sn      2012/05/24 16:41:52.7   0.4                          T                8.2  .34 Ml 2.4         4964049
AVF   001.89 094.5 m E Pn      2012/05/24 16:41:32.6  -0.7                          T                                        4964060
AVF   001.89 094.5 m E Sn      2012/05/24 16:41:56.6   0.6                          T                2.5  .22 Ml 2.2         4964051
SSF   001.98 086.4 m E Pn      2012/05/24 16:41:33.9  -0.7                          T                                        4964041
SSF   001.98 086.4 m E Sn      2012/05/24 16:41:58.2  -0.1                          T                3.7  .34 Ml 2.3         4964061
FLN   001.94 338.0 m E Pn      2012/05/24 16:41:34.7   0.7                          T                                        4964055
FLN   001.94 338.0 m E Sg      2012/05/24 16:42:02.5  -0.6                          T                2.2  .17 Ml 2.1         4989945
RJF   001.78 159.1 m E Pg      2012/05/24 16:41:35.2  -0.2                          T                                        4989943
RJF   001.78 159.1 m E Sg      2012/05/24 16:41:58.2  -0.1                          T               11.8  .52 Ml 2.2         4989944
SMF   002.24 097.2 m E Pn      2012/05/24 16:41:38.6   0.5                          T                                        4964040
SMF   002.24 097.2 m E Pg      2012/05/24 16:41:42.6  -1.2                          T                                        4989951
SMF   002.24 097.2 m E Sg      2012/05/24 16:42:09.2  -3.4                          T                2.1  .18 Ml 2.3         4964062
CAF   002.28 153.2 m E Pn      2012/05/24 16:41:38.9   0.1                          T                                        4989941
CAF   002.28 153.2 m E Pg      2012/05/24 16:41:44.2  -0.3                          T                                        4989940
CAF   002.28 153.2 m E Sg      2012/05/24 16:42:14.1   0.1                          T                6.1  .39 Ml 2.5         4989942

.
EVENT     276856
    Date      Time       Latitude Longitude    Depth    Ndef Nsta Gap    Mag1  N    Mag2  N    Mag3  N   Author         ID
       rms   OT_Error      Smajor Sminor Az        Err   mdist  Mdist     Err        Err        Err      Quality

2012/05/24 18:08:23.5     44.8214   11.1601      2.0      38   13 184  Ml 2.9 13                         bulletin    276956
                                                                                                         _ldg
      0.56   +-  0.17       4.2    2.3  116.25 +-  0.0    1.03   5.44   +-0.2                            m i ke

NORTHERN ITALY
Sta     Dist  EvAz     Phase      Date       Time     TRes  Azim  AzRes  Slow  SRes Def   SNR       Amp   Per   Mag1   Mag2       ID
PGF   002.76 215.3 m E Pn      2012/05/24 18:09:07.5   0.5                          T                                        4964071
PGF   002.76 215.3 m E Sn      2012/05/24 18:09:38.2  -0.7                          T                9.6  .31 Ml 3.1         4964070
SBF   002.84 251.6 m E Pn      2012/05/24 18:09:08.2   0.2                          T                                        4964077
SBF   002.84 251.6 m E Sn      2012/05/24 18:09:40.6  -0.2                          T               19.4  .40 Ml 3.1         4964072
MBDF  003.13 269.8 m E Pn      2012/05/24 18:09:12.6   0.6                          T                                        4990351
MBDF  003.13 269.8 m E Sn      2012/05/24 18:09:46.7  -1.1                          T                7.1  .42 Ml 2.7         4990346
LPG   003.19 283.8 m E Pn      2012/05/24 18:09:13.8   0.7                          T                                        4964069
LPG   003.19 283.8 m E Sn      2012/05/24 18:09:49.4   0.0                          T                7.6  .56 Ml 2.6         4990348
FRF   003.48 250.4 m E Pn      2012/05/24 18:09:17.1   0.4                          T                                        4964075
FRF   003.48 250.4 m E Sn      2012/05/24 18:09:55.7  -0.3                          T                8.2  .22 Ml 3.1         4964074
LMR   003.67 247.7 m E Pn      2012/05/24 18:09:19.7   0.5                          T                                        4964076
LMR   003.67 247.7 m E Sn      2012/05/24 18:10:00.2  -0.2                          T                9.2  .38 Ml 3.0         4964073
ORIF  003.76 273.3 m E Pn      2012/05/24 18:09:20.6   0.1                          T                                        4964068
HINF  004.23 316.6 m E Pn      2012/05/24 18:09:27.3   0.4                          T                                        4964066
HINF  004.23 316.6 m E Sn      2012/05/24 18:10:13.4  -0.6                          T                3.3  .22 Ml 2.9         4990354
SMRF  004.09 260.0 m E P       2012/05/24 18:09:28.3  -0.2                          T                                        4990350
SMRF  004.09 260.0 m E Sn      2012/05/24 18:10:09.7  -1.0                          T                1.9  .40 Ml 2.4         4990349
CDF   004.48 324.7 m E Pn      2012/05/24 18:09:30.5   0.1                          T                                        4964064
CDF   004.48 324.7 m E Sn      2012/05/24 18:10:19.3  -0.7                          T                3.2  .29 Ml 2.9         4990355
HAU   004.61 315.4 m E Pn      2012/05/24 18:09:32.0   0.0                          T                                        4964067
HAU   004.61 315.4 m E Sn      2012/05/24 18:10:21.8  -1.2                          T               11.9  .32 Ml 3.1         4964065
SMF   005.44 292.2 m E Pn      2012/05/24 18:09:43.5   0.2                          T                                        4990353
SMF   005.44 292.2 m E Sn      2012/05/24 18:10:42.1  -0.7                          T                2.0  .27 Ml 2.8         4990352
LPL   003.21 284.1 m E Sn      2012/05/24 18:09:49.0  -0.8                          T                5.4  .38 Ml 2.6         4990347

.
EVENT     276857
    Date      Time       Latitude Longitude    Depth    Ndef Nsta Gap    Mag1  N    Mag2  N    Mag3  N   Author         ID
       rms   OT_Error      Smajor Sminor Az        Err   mdist  Mdist     Err        Err        Err      Quality

2012/05/24 18:16:44.3     44.5092    6.7041      2.0      29    7 068  Ml 1.9  3  Md 2.0  2              bulletin    276957
                                                                                                         _ldg
      0.41   +-  0.09       1.8    1.3   71.08 +-  0.0    0.08   1.18   +-0.4      +-0.1                 m i ke

FRANCE
Sta     Dist  EvAz     Phase      Date       Time     TRes  Azim  AzRes  Slow  SRes Def   SNR       Amp   Per   Mag1   Mag2       ID
MBDF  000.22 012.4 m E Pg      2012/05/24 18:16:48.8  -0.2                          T                                Md 1.9  4964112
MBDF  000.22 012.4 m E Sg      2012/05/24 18:16:51.6  -0.4                          T                5.5  .28                4964114
ORIF  000.72 305.1 m E Pg      2012/05/24 18:16:57.6  -0.4                          T                                Md 2.0  4964111
ORIF  000.72 305.1 m E Sg      2012/05/24 18:17:06.9  -0.4                          T                2.6  .24                4964107
SBF   000.83 140.6 m E Pg      2012/05/24 18:17:00.2   0.1                          T                                        4964103
SBF   000.83 140.6 m E Sg      2012/05/24 18:17:11.4   0.5                          T                2.4  .23                4964101
FRF   000.95 182.5 m E Pg      2012/05/24 18:17:02.3   0.2                          T                                        4964110
FRF   000.95 182.5 m E Sg      2012/05/24 18:17:15.0   0.5                          T                6.2  .24 Ml 2.2         4964106
LPG   000.99 001.9 m E Pg      2012/05/24 18:17:03.3   0.1                          T                                        4964102
LPG   000.99 001.9 m E Sg      2012/05/24 18:17:15.5  -0.5                          T                3.7  .68 Ml 1.5         4964113
SMRF  000.97 237.1 m E Pg      2012/05/24 18:17:03.4   0.8                          T                                        4964108
SMRF  000.97 237.1 m E Sn      2012/05/24 18:17:17.1   0.1                          T                                        4964104
LMR   001.18 186.9 m E Pg      2012/05/24 18:17:06.8   0.4                          T                                        4964109
LMR   001.18 186.9 m E Sg      2012/05/24 18:17:22.3   0.6                          T                2.7  .34 Ml 1.8         4964105

.
