EVENT     285472
    Date      Time       Latitude Longitude    Depth    Ndef Nsta Gap    Mag1  N    Mag2  N    Mag3  N   Author         ID
       rms   OT_Error      Smajor Sminor Az        Err   mdist  Mdist     Err        Err        Err      Quality

2012/10/20 22:45:22.1     47.0012    7.1693      8.0 f   100   21 032  Ml 2.6 18  Md 2.7  3              bulletin    285572
                                                                                                         _ldg
      0.48   +-  0.05       1.1    1.0   64.02 +-  0.0    0.27   3.74   +-0.3      +-0.1                 m i ke

SWITZERLAND
Sta     Dist  EvAz     Phase      Date       Time     TRes  Azim  AzRes  Slow  SRes Def   SNR       Amp   Per   Mag1   Mag2       ID
HINF  000.84 345.4 m E Pg      2012/10/20 22:45:37.8  -0.2                          T   001.0                                5101709
HINF  000.84 345.4 m E Pn      2012/10/20 22:45:38.9   0.2                          T   001.0                                5101710
HINF  000.84 345.4 m E Sg      2012/10/20 22:45:48.4  -0.7                          T   001.0       46.9  .24                5101711
HINF  000.84 345.4 m E Sn      2012/10/20 22:45:51.0   0.4                          T               49.0  .24        Md 2.8  5101832
CABF  000.84 242.7 m E Pn      2012/10/20 22:45:38.5  -0.3                          T   001.0                                5101707
CABF  000.84 242.7 m E Sg      2012/10/20 22:45:48.9  -0.1                          T   001.0         31  .28                5101708
CABF  000.84 242.7 m E Sn      2012/10/20 22:45:51.2   0.6                          T               24.1  .25        Md 2.8  5101831
CDF   001.41 002.9 m E Pn      2012/10/20 22:45:46.9   0.3                          T   001.0                                5101690
CDF   001.41 002.9 m E Sn      2012/10/20 22:46:03.9  -0.4                          T   001.0                                5101691
CDF   001.41 002.9 m E Sg      2012/10/20 22:46:04.0  -1.9                          T   001.0       20.5  .36 Ml 2.9         5101692
LPL   001.52 191.7 m E Pn      2012/10/20 22:45:48.9   0.7                          T   001.0                                5101700
LPL   001.52 191.7 m E Pg      2012/10/20 22:45:50.4  -0.2                          T   001.0                                5101701
LPL   001.52 191.7 m E Sn      2012/10/20 22:46:07.8   0.9                          T                                        5101807
LPL   001.52 191.7 m E Sg      2012/10/20 22:46:09.9  -0.3                          T   001.0       17.0  .40 Ml 2.7 Md 2.6  5101702
LPG   001.53 191.1 m E Pg      2012/10/20 22:45:50.7  -0.3                          T   001.0                                5101698
LPG   001.53 191.1 m E Sn      2012/10/20 22:46:08.3   1.0                          T                                        5101806
LPG   001.53 191.1 m E Sg      2012/10/20 22:46:10.0   0.2                          T   001.0        8.2  .26 Ml 2.6         5101699
PAGF  001.83 328.5 m E Pn      2012/10/20 22:45:52.4   0.2                          T                                        5101824
PAGF  001.83 328.5 m E Pg      2012/10/20 22:45:55.9  -0.3                          T                                        5101825
PAGF  001.83 328.5 m E Sn      2012/10/20 22:46:14.6   0.4                          T                                        5101823
PAGF  001.83 328.5 m E Sg      2012/10/20 22:46:19.4  -0.5                          T               19.9  .61 Ml 2.7         5101822
SFTF  001.88 310.7 m E Pn      2012/10/20 22:45:53.2   0.4                          T                                        5101830
SFTF  001.88 310.7 m E Pg      2012/10/20 22:45:56.6  -0.4                          T                                        5101829
SFTF  001.88 310.7 m E Sn      2012/10/20 22:46:15.9   0.6                          T                                        5101828
SFTF  001.88 310.7 m E Sg      2012/10/20 22:46:20.6  -0.7                          T                7.8  .26 Ml 2.7         5101827
LOR   002.28 278.0 m E Pn      2012/10/20 22:45:58.4   0.2                          T                                        5101820
LOR   002.28 278.0 m E Pg      2012/10/20 22:46:03.9  -0.5                          T   001.0                                5101696
LOR   002.28 278.0 m E Sn      2012/10/20 22:46:25.5   0.7                          T                                        5101821
LOR   002.28 278.0 m E Sg      2012/10/20 22:46:33.2  -0.5                          T   001.0        9.8  .22 Ml 2.9         5101697
ORIF  002.27 203.8 m E Pn      2012/10/20 22:45:58.7   0.5                          T                                        5101804
ORIF  002.27 203.8 m E Pg      2012/10/20 22:46:04.2  -0.1                          T                                        5101805
ORIF  002.27 203.8 m E Sn      2012/10/20 22:46:25.0   1.3                          T   001.0                                5101717
ORIF  002.27 203.8 m E Sg      2012/10/20 22:46:33.5  -0.1                          T   001.0       11.3  .28 Ml 2.9         5101718
SMF   002.31 262.4 m E Pn      2012/10/20 22:45:58.9   0.2                          T                                        5101817
SMF   002.31 262.4 m E Pg      2012/10/20 22:46:05.3   0.2                          T   001.0                                5101703
SMF   002.31 262.4 m E Sn      2012/10/20 22:46:26.4   0.8                          T                                        5101816
SMF   002.31 262.4 m E Sg      2012/10/20 22:46:34.6  -0.2                          T                9.6  .20 Ml 3.0         5101815
MBDF  002.29 187.1 m E Pn      2012/10/20 22:45:59.1   0.5                          T                                        5101803
MBDF  002.29 187.1 m E Pg      2012/10/20 22:46:04.8  -0.1                          T   001.0                                5101712
MBDF  002.29 187.1 m E Sn      2012/10/20 22:46:26.1   0.8                          T   001.0                                5101713
MBDF  002.29 187.1 m E Sg      2012/10/20 22:46:34.2  -0.1                          T   001.0       10.2  .53 Ml 2.5         5101714
MEZF  002.07 317.2 m E Pg      2012/10/20 22:45:59.9  -0.7                          T   001.0                                5101715
MEZF  002.07 317.2 m E Sn      2012/10/20 22:46:20.5   0.6                          T                                        5101826
MEZF  002.07 317.2 m E Sg      2012/10/20 22:46:26.7  -0.6                          T   001.0       19.3  .40 Ml 2.9         5101716
SSF   002.51 272.7 m E Pn      2012/10/20 22:46:01.5   0.2                          T                                        5101819
SSF   002.51 272.7 m E Pg      2012/10/20 22:46:07.9  -0.7                          T   001.0                                5101704
SSF   002.51 272.7 m E Sn      2012/10/20 22:46:30.3   0.0                          T                                        5101818
SSF   002.51 272.7 m E Sg      2012/10/20 22:46:40.7  -0.2                          T   001.0        8.2  .37 Ml 2.8         5101705
VIVF  002.76 220.0 m E Pn      2012/10/20 22:46:05.2   0.3                          T                                        5101801
VIVF  002.76 220.0 m E Pg      2012/10/20 22:46:13.1  -0.2                          T                                        5101802
VIVF  002.76 220.0 m E Sn      2012/10/20 22:46:37.1   0.7                          T   001.0                                5101719
VIVF  002.76 220.0 m E Sg      2012/10/20 22:46:48.4  -0.5                          T   001.0        6.5  .30 Ml 2.7         5101720
BGF   003.00 263.1 m E Pn      2012/10/20 22:46:08.3   0.2                          T                                        5101808
BGF   003.00 263.1 m E Pg      2012/10/20 22:46:17.1  -0.7                          T                                        5101809
BGF   003.00 263.1 m E Sn      2012/10/20 22:46:42.7   0.6                          T                                        5101810
BGF   003.00 263.1 m E Sg      2012/10/20 22:46:55.9  -0.5                          T   001.0       12.8  .34 Ml 3.0         5101689
HYF   003.10 276.6 m E Pn      2012/10/20 22:46:09.9   0.4                          T                                        5101814
HYF   003.10 276.6 m E Pg      2012/10/20 22:46:19.2  -0.5                          T                                        5101813
HYF   003.10 276.6 m E Sn      2012/10/20 22:46:45.0   0.4                          T                                        5101812
HYF   003.10 276.6 m E Sg      2012/10/20 22:46:58.8  -0.7                          T                                        5101811
AVF   002.63 266.8 m E Pg      2012/10/20 22:46:11.5   0.7                          T   001.0                                5101687
AVF   002.63 266.8 m E Sg      2012/10/20 22:46:44.1  -0.4                          T   001.0        3.1  .28 Ml 2.4         5101688
GIVF  003.47 334.2 m E Pn      2012/10/20 22:46:15.0   0.6                          T                                        5101797
GIVF  003.47 334.2 m E Pg      2012/10/20 22:46:25.9  -0.5                          T                                        5101796
GIVF  003.47 334.2 m E Sn      2012/10/20 22:46:54.3   1.0                          T                                        5101795
GIVF  003.47 334.2 m E Sg      2012/10/20 22:47:10.5  -0.5                          T                2.0  .21 Ml 2.5         5101794
TCF   003.49 260.0 m E Pn      2012/10/20 22:46:15.2   0.4                          T                                        5101800
TCF   003.49 260.0 m E Sn      2012/10/20 22:46:54.5   0.7                          T                                        5101799
TCF   003.49 260.0 m E Sg      2012/10/20 22:47:11.0  -0.6                          T                3.2  .26 Ml 2.7         5101798
BAIF  003.64 328.3 m E Pn      2012/10/20 22:46:17.1   0.4                          T                                        5101793
BAIF  003.64 328.3 m E Sn      2012/10/20 22:46:57.8   0.5                          T   001.0                                5101706
BAIF  003.64 328.3 m E Sg      2012/10/20 22:47:15.1  -1.1                          T                 .2  .17 Ml 1.6         5101792
LASF  003.74 219.7 m E Pn      2012/10/20 22:46:18.0  -0.1                          T   001.0                                5101693
LASF  003.74 219.7 m E Sn      2012/10/20 22:47:00.1   0.4                          T   001.0                                5101694
LASF  003.74 219.7 m E Sg      2012/10/20 22:47:19.0  -0.3                          T   001.0        2.0  .33 Ml 2.4         5101695

.
EVENT     285478
    Date      Time       Latitude Longitude    Depth    Ndef Nsta Gap    Mag1  N    Mag2  N    Mag3  N   Author         ID
       rms   OT_Error      Smajor Sminor Az        Err   mdist  Mdist     Err        Err        Err      Quality

2012/10/21 05:11:33.2     42.9139    -.7351      2.0       7    3 202             Md 1.1  2              bulletin    285578
                                                                                                         _ldg
      0.15   +-  0.18      10.2    1.4   14.04 +-  0.0    0.13   0.80              +-0.4                 m i ke

PYRENEES
Sta     Dist  EvAz     Phase      Date       Time     TRes  Azim  AzRes  Slow  SRes Def   SNR       Amp   Per   Mag1   Mag2       ID
ETSF  000.13 096.7 m E Pg      2012/10/21 05:11:35.9  -0.2                          T                                        5101839
ETSF  000.13 096.7 m E Sg      2012/10/21 05:11:38.2   0.2                          T                6.4  .18        Md 1.4  5101838
SJPF  000.41 299.2 m E Pg      2012/10/21 05:11:41.0  -0.1                          T                                        5101834
SJPF  000.41 299.2 m E Sg      2012/10/21 05:11:46.7   0.1                          T                1.9  .24        Md  .9  5101835
EPF   000.80 081.2 m E Pg      2012/10/21 05:11:48.2   0.0                          T                                        5101836
EPF   000.80 081.2 m E Pn      2012/10/21 05:11:50.1   0.2                          T                                        5101833
EPF   000.80 081.2 m E Sg      2012/10/21 05:11:58.5  -0.2                          T                  1  .18                5101837

.
EVENT     285481
    Date      Time       Latitude Longitude    Depth    Ndef Nsta Gap    Mag1  N    Mag2  N    Mag3  N   Author         ID
       rms   OT_Error      Smajor Sminor Az        Err   mdist  Mdist     Err        Err        Err      Quality

2012/10/21 10:20:52.0     42.8683    -.0358      5.0 f    22    4 125  Ml 1.2  3  Md 1.4  2              bulletin    285581
                                                                                                         _ldg
      0.31   +-  0.06       1.5     .9   21.45 +-  0.0    0.23   1.72   +-0.1      +-0.0                 m i ke

PYRENEES
Sta     Dist  EvAz     Phase      Date       Time     TRes  Azim  AzRes  Slow  SRes Def   SNR       Amp   Per   Mag1   Mag2       ID
EPF   000.32 059.5 m E Pg      2012/10/21 10:20:58.4   0.0                          T                                        5101849
EPF   000.32 059.5 m E Sg      2012/10/21 10:21:02.9   0.2                          T                5.0  .16        Md 1.4  5101848
ETSF  000.39 274.7 m E Pg      2012/10/21 10:20:59.4  -0.2                          T                                        5101847
ETSF  000.39 274.7 m E Sg      2012/10/21 10:21:04.9   0.1                          T               10.8  .22        Md 1.4  5101846
SJPF  000.91 286.1 m E Pg      2012/10/21 10:21:09.1   0.0                          T                                        5101843
SJPF  000.91 286.1 m E Sg      2012/10/21 10:21:21.4   0.5                          T                 .5  .19 Ml 1.2         5101842
MTLF  001.72 073.3 m E Pn      2012/10/21 10:21:20.8   0.0                          T                                        5101845
MTLF  001.72 073.3 m E Sn      2012/10/21 10:21:42.1   0.3                          T                 .1  .17 Ml 1.0         5101844

.
EVENT     285482
    Date      Time       Latitude Longitude    Depth    Ndef Nsta Gap    Mag1  N    Mag2  N    Mag3  N   Author         ID
       rms   OT_Error      Smajor Sminor Az        Err   mdist  Mdist     Err        Err        Err      Quality

2012/10/21 10:48:47.4     43.1333    -.6742     10.0      32    6 096  Ml 1.9  2  Md 1.9  3              bulletin    285582
                                                                                                         _ldg
      1.06   +-  0.15       3.7    2.4  177.97 +-  0.0    0.05   2.68   +-0.2      +-0.3                 m i ke

PYRENEES
Sta     Dist  EvAz     Phase      Date       Time     TRes  Azim  AzRes  Slow  SRes Def   SNR       Amp   Per   Mag1   Mag2       ID
ETSF  000.25 160.2 m E Pg      2012/10/21 10:48:52.1  -0.6                          T                                        5101857
ETSF  000.25 160.2 m E Sg      2012/10/21 10:48:55.7  -0.6                          T               24.5  .29        Md 2.2  5101856
SJPF  000.40 267.4 m E Pg      2012/10/21 10:48:55.4   0.1                          T                                        5101855
SJPF  000.40 267.4 m E Sg      2012/10/21 10:49:01.3   0.4                          T               10.2  .23        Md 1.8  5101850
EPF   000.75 097.5 m E Pn      2012/10/21 10:49:01.0  -1.6                          T                                        5101854
EPF   000.75 097.5 m E Pg      2012/10/21 10:49:02.5   0.8                          T                                        5101852
EPF   000.75 097.5 m E Sn      2012/10/21 10:49:11.0  -2.3                          T                                        5101851
EPF   000.75 097.5 m E Sg      2012/10/21 10:49:13.1   1.5                          T                2.9  .20        Md 1.7  5101853
MTLF  002.12 083.4 m E Pn      2012/10/21 10:49:20.4  -0.8                          T                                        5101866
MTLF  002.12 083.4 m E Pg      2012/10/21 10:49:26.7  -0.2                          T                                        5101869
MTLF  002.12 083.4 m E Sn      2012/10/21 10:49:44.7  -1.4                          T                                        5101865
MTLF  002.12 083.4 m E Sg      2012/10/21 10:49:54.6   0.3                          T                                        5101870
LFF   002.07 029.0 m E Pn      2012/10/21 10:49:20.4  -0.1                          T                                        5101864
LFF   002.07 029.0 m E Pg      2012/10/21 10:49:27.7   1.8                          T                                        5101863
LFF   002.07 029.0 m E Sn      2012/10/21 10:49:44.6  -0.3                          T                                        5101862
LFF   002.07 029.0 m E Sg      2012/10/21 10:49:55.2   2.5                          T                2.9  .26 Ml 2.1         5101861
RJF   002.68 035.2 m E Pn      2012/10/21 10:49:28.7  -0.1                          T                                        5101860
RJF   002.68 035.2 m E Sn      2012/10/21 10:49:59.0  -0.4                          T                                        5101859
RJF   002.68 035.2 m E Sg      2012/10/21 10:50:14.1   2.5                          T                 .9  .17 Ml 1.8         5101858

.
