EVENT     266184
    Date      Time       Latitude Longitude    Depth    Ndef Nsta Gap    Mag1  N    Mag2  N    Mag3  N   Author         ID
       rms   OT_Error      Smajor Sminor Az        Err   mdist  Mdist     Err        Err        Err      Quality

2011/11/10 17:19:36.4     43.8122    7.4291      2.0      66   20 097  Ml 2.9 16  Md 2.9  4              js067245    266204

      1.09   +-  0.12       2.4    1.7  163.43 +-  0.0    0.05   6.03   +-0.4      +-0.2                 m i ke

NEAR SOUTH COAST OF FRANCE
Sta     Dist  EvAz     Phase      Date       Time     TRes  Azim  AzRes  Slow  SRes Def   SNR       Amp   Per   Mag1   Mag2       ID
SBF   000.05 005.0 m E Pg      2011/11/10 17:19:37.7  -0.2                          T   001.0                                4784615
SBF   000.05 005.0 m E Sg      2011/11/10 17:19:38.6  -0.2                          T             7619.5  .18        Md 2.8  4785566
FRF   000.62 246.4 m E Pg      2011/11/10 17:19:48.3   0.1                          T   001.0                                4784600
FRF   000.62 246.4 m E Sg      2011/11/10 17:19:56.0  -0.3                          T   001.0       53.9  .20        Md 2.8  4784601
FRF   000.62 246.4 m E Sn      2011/11/10 17:20:00.5  -0.1                          T                                        4785568
LMR   000.82 234.7 m E Pg      2011/11/10 17:19:52.1   0.2                          T   001.0                                4784606
LMR   000.82 234.7 m E Pn      2011/11/10 17:19:53.3   0.0                          T                                        4785567
LMR   000.82 234.7 m E Sg      2011/11/10 17:20:02.4  -0.2                          T   001.0      159.0  .22        Md 3.0  4784607
LMR   000.82 234.7 m E Sn      2011/11/10 17:20:05.5   0.1                          T                                        4785558
MBDF  001.03 332.9 m E Pg      2011/11/10 17:19:54.9  -1.0                          T   001.0                                4784622
MBDF  001.03 332.9 m E Sg      2011/11/10 17:20:08.6  -0.6                          T               32.0  .27 Ml 2.9         4785561
SMRF  001.35 277.6 m E Pg      2011/11/10 17:20:01.5  -0.1                          T   001.0                                4784595
SMRF  001.35 277.6 m E Sn      2011/11/10 17:20:17.9  -0.2                          T   001.0      115.8  .32 Ml 3.5         4784596
SMRF  001.35 277.6 m E Sg      2011/11/10 17:20:18.9  -0.2                          T              123.7  .33 Ml 3.5         4785556
SMRF  001.35 277.6 m E S       2011/11/10 17:20:20.7  -0.5                          T                                        4785569
PGF   001.71 137.2 m E Pn      2011/11/10 17:20:04.4  -1.2                          T   001.0                                4784613
PGF   001.71 137.2 m E Sn      2011/11/10 17:20:24.7  -2.0                          T   001.0        6.0  .20 Ml 2.8         4784614
ORIF  001.57 315.4 m E Pn      2011/11/10 17:20:05.0   1.3                          T   001.0                                4784624
ORIF  001.57 315.4 m E Pg      2011/11/10 17:20:06.6   0.8                          T                                        4785557
ORIF  001.57 315.4 m E Sn      2011/11/10 17:20:22.9  -0.4                          T   001.0                                4784625
ORIF  001.57 315.4 m E Sg      2011/11/10 17:20:26.3   0.4                          T   001.0       50.3  .32 Ml 3.3         4784626
LPG   001.75 344.2 m E Pn      2011/11/10 17:20:06.2  -0.2                          T   001.0                                4784609
LPG   001.75 344.2 m E Pg      2011/11/10 17:20:08.6  -0.8                          T                                        4785560
LPG   001.75 344.2 m E Sg      2011/11/10 17:20:32.1   0.1                          T               12.2  .30 Ml 2.8         4785555
LPL   001.78 344.0 m E Pn      2011/11/10 17:20:07.7   1.0                          T   001.0                                4784610
LPL   001.78 344.0 m E Pg      2011/11/10 17:20:08.5  -1.2                          T                                        4785559
LPL   001.78 344.0 m E Sg      2011/11/10 17:20:32.8   0.2                          T               11.9  .40 Ml 2.6         4785554
VIVF  002.24 298.8 m E Pn      2011/11/10 17:20:13.1   0.4                          T   001.0                                4784627
VIVF  002.24 298.8 m E Pg      2011/11/10 17:20:17.6  -0.4                          T                                        4785562
VIVF  002.24 298.8 m E Sn      2011/11/10 17:20:39.4   0.1                          T                                        4785564
VIVF  002.24 298.8 m E Sg      2011/11/10 17:20:46.3  -0.4                          T               19.3  .30 Ml 3.1 Md 3.1  4785563
LASF  002.59 277.1 m E Pn      2011/11/10 17:20:17.6   0.1                          T   001.0                                4784603
LASF  002.59 277.1 m E Pg      2011/11/10 17:20:24.5  -0.1                          T   001.0                                4784604
LASF  002.59 277.1 m E Sn      2011/11/10 17:20:47.5  -0.3                          T   001.0        3.7  .20 Ml 2.6         4784605
CABF  002.96 341.8 m E Pn      2011/11/10 17:20:23.4   0.9                          T   001.0                                4784619
CABF  002.96 341.8 m E Sn      2011/11/10 17:20:57.1   0.6                          T   001.0        6.3  .60 Ml 2.4         4784620
MTLF  003.82 264.7 m E Pn      2011/11/10 17:20:34.8   0.6                          T   001.0                                4784623
MTLF  003.82 264.7 m E Sn      2011/11/10 17:21:18.0   1.0                          T                                        4785565
CAF   004.00 288.0 m E Pn      2011/11/10 17:20:37.4   0.6                          T   001.0                                4784598
BGF   004.25 311.9 m E Pn      2011/11/10 17:20:39.5  -0.5                          T   001.0                                4784597
SMF   003.80 319.4 m E Sn      2011/11/10 17:21:17.7   1.1                          T   001.0                                4784616
SMF   003.80 319.4 m E Sg      2011/11/10 17:21:34.7  -0.9                          T   001.0        4.7  .40 Ml 2.7         4784617
HINF  004.03 354.5 m E Sn      2011/11/10 17:21:22.4   0.3                          T   001.0        1.8  .32 Ml 2.4         4784621
SSF   004.26 321.0 m E Sn      2011/11/10 17:21:28.0   0.4                          T   001.0        2.4  .36 Ml 2.6         4784618
LOR   004.27 325.3 m E Sn      2011/11/10 17:21:28.7   0.9                          T   001.0          3  .44 Ml 2.6         4784608
MFF   006.03 300.2 m E Sn      2011/11/10 17:22:10.9   0.9                          T   001.0        2.8  .60 Ml 2.9         4784612

.
EVENT     266186
    Date      Time       Latitude Longitude    Depth    Ndef Nsta Gap    Mag1  N    Mag2  N    Mag3  N   Author         ID
       rms   OT_Error      Smajor Sminor Az        Err   mdist  Mdist     Err        Err        Err      Quality

2011/11/10 23:16:02.4     44.9995    6.4423     15.0      21    9 117  Ml 1.6  4  Md 1.9  4              js067245    266206

      0.47   +-  0.07       1.4    1.1  105.70 +-  0.0    0.36   1.67   +-0.3      +-0.2                 m i ke

FRANCE
Sta     Dist  EvAz     Phase      Date       Time     TRes  Azim  AzRes  Slow  SRes Def   SNR       Amp   Per   Mag1   Mag2       ID
MBDF  000.36 139.2 m E Pg      2011/11/10 23:16:09.8  -0.2                          T                                        4785635
MBDF  000.36 139.2 m E Sg      2011/11/10 23:16:15.4   0.3                          T                3.4  .26        Md 1.6  4785636
ORIF  000.41 258.7 m E Pg      2011/11/10 23:16:10.9   0.1                          T                                        4785580
ORIF  000.41 258.7 m E Sg      2011/11/10 23:16:15.9  -0.5                          T                2.9  .23        Md 2.0  4785598
LPG   000.54 023.6 m E Pg      2011/11/10 23:16:13.7   0.2                          T                                        4785578
LPG   000.54 023.6 m E Sg      2011/11/10 23:16:20.3  -0.5                          T                1.9  .24        Md 1.9  4785596
LPG   000.54 023.6 m E Sn      2011/11/10 23:16:23.0   0.1                          T                                        4785594
LPL   000.56 021.5 m E Pg      2011/11/10 23:16:13.8   0.2                          T                                        4785579
LPL   000.56 021.5 m E Sg      2011/11/10 23:16:20.4  -0.7                          T                2.5  .22        Md 1.9  4785597
LPL   000.56 021.5 m E Sn      2011/11/10 23:16:23.5   0.5                          T                                        4785595
SMRF  001.20 211.5 m E Pg      2011/11/10 23:16:25.0   0.1                          T                                        4785643
SMRF  001.20 211.5 m E Sg      2011/11/10 23:16:40.7   0.1                          T                 .7  .29 Ml 1.3         4785641
VIVF  001.27 264.1 m E Pg      2011/11/10 23:16:26.4   0.1                          T                                        4785634
VIVF  001.27 264.1 m E Sg      2011/11/10 23:16:42.5  -0.1                          T                1.2  .30 Ml 1.5         4785637
SBF   001.34 147.6 m E Pg      2011/11/10 23:16:27.3  -0.4                          T                                        4785642
FRF   001.45 174.1 m E Pg      2011/11/10 23:16:29.5   0.0                          T                                        4785644
FRF   001.45 174.1 m E Sg      2011/11/10 23:16:48.3   0.1                          T                1.8  .27 Ml 1.9         4785639
LMR   001.67 178.3 m E Pg      2011/11/10 23:16:33.6   0.0                          T                                        4785638
LMR   001.67 178.3 m E Sg      2011/11/10 23:16:55.2   0.1                          T                1.0  .22 Ml 1.8         4785640

.
EVENT     266188
    Date      Time       Latitude Longitude    Depth    Ndef Nsta Gap    Mag1  N    Mag2  N    Mag3  N   Author         ID
       rms   OT_Error      Smajor Sminor Az        Err   mdist  Mdist     Err        Err        Err      Quality

2011/11/11 01:20:25.3     46.0429   -1.3677      7.0 f    35   15 149  Ml 2.0 17  Md 2.2  1              js067245    266208

      1.21   +-  0.16       3.1    2.1   64.80 +-  0.0    1.01   3.35   +-0.3      +-                    m i ke

FRANCE
Sta     Dist  EvAz     Phase      Date       Time     TRes  Azim  AzRes  Slow  SRes Def   SNR       Amp   Per   Mag1   Mag2       ID
MFF   001.01 056.1 m E Pn      2011/11/11 01:20:44.6   0.2                          T                                        4785604
MFF   001.01 056.1 m E Pg      2011/11/11 01:20:45.2   0.8                          T                                        4785671
MFF   001.01 056.1 m E Sg      2011/11/11 01:20:57.9   0.3                          T                6.6  .33 Ml 2.3 Md 2.2  4785670
LFF   001.85 125.9 m E Pn      2011/11/11 01:20:55.8   0.1                          T                                        4785664
LFF   001.85 125.9 m E Sg      2011/11/11 01:21:22.9  -0.6                          T                2.9  .28 Ml 2.0         4785672
RJF   002.15 109.0 m E Pn      2011/11/11 01:21:00.1   0.2                          T                                        4785659
RJF   002.15 109.0 m E P       2011/11/11 01:21:02.9   0.6                          T                                        4785599
RJF   002.15 109.0 m E Sg      2011/11/11 01:21:33.2   0.1                          T                2.2  .17 Ml 2.0         4785673
TCF   002.50 083.1 m E Pn      2011/11/11 01:21:04.8   0.1                          T                                        4785683
TCF   002.50 083.1 m E Pg      2011/11/11 01:21:11.1  -0.6                          T                                        4785682
TCF   002.50 083.1 m E Sn      2011/11/11 01:21:32.5  -1.0                          T                                        4785684
TCF   002.50 083.1 m E Sg      2011/11/11 01:21:43.7  -0.2                          T                2.1  .24 Ml 2.3         4785685
QUIF  002.24 327.4 m E Pg      2011/11/11 01:21:06.2  -0.7                          T                                        4785603
QUIF  002.24 327.4 m E Sg      2011/11/11 01:21:35.6  -0.2                          T                2.6  .18 Ml 2.4         4785676
CAF   002.66 113.6 m E Pn      2011/11/11 01:21:06.9   0.0                          T                                        4785662
CAF   002.66 113.6 m E Pg      2011/11/11 01:21:14.7   0.0                          T                                        4785663
CAF   002.66 113.6 m E Sg      2011/11/11 01:21:49.0   0.0                          T                1.3  .22 Ml 2.1         4785665
SGMF  002.36 340.3 m E Pg      2011/11/11 01:21:09.2   0.1                          T                                        4785656
SGMF  002.36 340.3 m E Sg      2011/11/11 01:21:38.1  -1.3                          T                 .5  .17 Ml 1.7         4785677
GRR   002.37 008.2 m E Pg      2011/11/11 01:21:09.4   0.0                          T                                        4785658
GRR   002.37 008.2 m E Sg      2011/11/11 01:21:39.8  -0.1                          T                1.2  .24 Ml 1.8         4785675
SJPF  002.93 178.0 m E Pn      2011/11/11 01:21:10.5   0.0                          T                                        4785660
SJPF  002.93 178.0 m E Pg      2011/11/11 01:21:20.0   0.3                          T                                        4785661
SJPF  002.93 178.0 m E Sg      2011/11/11 01:21:57.8   0.4                          T                 .5  .23 Ml 1.7         4785666
LDF   002.69 017.9 m E Pg      2011/11/11 01:21:15.1  -0.1                          T                                        4785657
LDF   002.69 017.9 m E Sg      2011/11/11 01:21:51.9   2.1                          T                 .7  .26 Ml 1.7         4785674
BGF   002.97 078.5 m E Pg      2011/11/11 01:21:19.9  -0.4                          T                                        4785653
BGF   002.97 078.5 m E Sg      2011/11/11 01:21:58.6   0.2                          T                6.2  .32 Ml 2.7         4785680
ROSF  002.64 331.2 m E Sg      2011/11/11 01:21:47.7  -0.5                          T                 .5  .17 Ml 1.8         4785678
FLN   002.79 012.1 m E Sg      2011/11/11 01:21:52.6  -0.3                          T                1.2  .24 Ml 1.9         4785652
ETSF  003.20 169.3 m E Sg      2011/11/11 01:22:06.1   0.4                          T                 .4  .19 Ml 1.8         4785651
AVF   003.35 075.4 m E Sg      2011/11/11 01:22:08.6  -1.8                          T                 .5  .20 Ml 1.9         4785681

.
EVENT     266187
    Date      Time       Latitude Longitude    Depth    Ndef Nsta Gap    Mag1  N    Mag2  N    Mag3  N   Author         ID
       rms   OT_Error      Smajor Sminor Az        Err   mdist  Mdist     Err        Err        Err      Quality

2011/11/11 02:48:10.9     41.1723    1.2265      7.0 f    40    4 091  Ml 2.0  4  Md 2.3  2              js067245    266207

      0.39   +-  0.07       1.4    1.1  135.50 +-  0.0    0.04   2.66   +-0.2      +-0.1                 m i ke

SPAIN
Sta     Dist  EvAz     Phase      Date       Time     TRes  Azim  AzRes  Slow  SRes Def   SNR       Amp   Per   Mag1   Mag2       ID
EPF   001.97 340.7 m E Pn      2011/11/11 02:48:43.0   0.0                          T                                        4785731
EPF   001.97 340.7 m E Pg      2011/11/11 02:48:47.9   0.3                          T                                        4785727
EPF   001.97 340.7 m E Sg      2011/11/11 02:49:13.3   0.3                          T                2.4  .20 Ml 2.3 Md 2.2  4785730
ETSF  002.18 323.0 m E P       2011/11/11 02:48:48.1  -0.1                          T                                        4785726
ETSF  002.18 323.0 m E Pg      2011/11/11 02:48:51.1  -0.3                          T                                        4785724
ETSF  002.18 323.0 m E Sg      2011/11/11 02:49:19.6   0.1                          T                1.9  .30 Ml 2.0 Md 2.4  4785725
MTLF  002.29 018.4 m E Pg      2011/11/11 02:48:53.8   0.5                          T                                        4785728
MTLF  002.29 018.4 m E Sg      2011/11/11 02:49:22.3  -0.6                          T                  1  .25 Ml 1.9         4785729
SJPF  002.66 317.6 m E Sg      2011/11/11 02:49:34.5   0.0                          T                 .8  .27 Ml 1.8         4786615

.
EVENT     266218
    Date      Time       Latitude Longitude    Depth    Ndef Nsta Gap    Mag1  N    Mag2  N    Mag3  N   Author         ID
       rms   OT_Error      Smajor Sminor Az        Err   mdist  Mdist     Err        Err        Err      Quality

2011/11/11 03:23:31.6     43.6137    6.6054      2.0      11    4 130             Md 1.4  2              js067245    266238

      0.40   +-  0.12       3.1    2.6  168.84 +-  0.0    0.06   0.83              +-0.1                 m i ke

NEAR SOUTH COAST OF FRANCE
Sta     Dist  EvAz     Phase      Date       Time     TRes  Azim  AzRes  Slow  SRes Def   SNR       Amp   Per   Mag1   Mag2       ID
FRF   000.06 150.4 m E Pg      2011/11/11 03:23:33.0  -0.2                          T                                        4785778
FRF   000.06 150.4 m E Sg      2011/11/11 03:23:35.0   0.8                          T                5.9  .26        Md 1.3  4785777
LMR   000.29 194.1 m E Pg      2011/11/11 03:23:36.8  -0.4                          T                                        4785775
LMR   000.29 194.1 m E Sg      2011/11/11 03:23:41.9   0.8                          T                1.1  .17        Md 1.5  4785776
SBF   000.65 067.2 m E Pg      2011/11/11 03:23:44.1   0.1                          T                                        4785774
SBF   000.65 067.2 m E Pn      2011/11/11 03:23:46.5   0.1                          T                                        4785768
SBF   000.65 067.2 m E Sg      2011/11/11 03:23:52.1  -0.5                          T                1.4  .23                4785773
SBF   000.65 067.2 m E Sn      2011/11/11 03:23:56.8   0.2                          T                                        4785772
SMRF  000.83 296.3 m E Pg      2011/11/11 03:23:47.5   0.2                          T                                        4785771
SMRF  000.83 296.3 m E Sg      2011/11/11 03:23:57.4  -0.6                          T                 .5  .18                4785769
SMRF  000.83 296.3 m E Sn      2011/11/11 03:24:01.3   0.4                          T                                        4785770

.
