EVENT     262554
    Date      Time       Latitude Longitude    Depth    Ndef Nsta Gap    Mag1  N    Mag2  N    Mag3  N   Author         ID
       rms   OT_Error      Smajor Sminor Az        Err   mdist  Mdist     Err        Err        Err      Quality

2011/08/15 12:56:21.6     42.7535     .0666      2.0       7    3 218  Ml 1.2  1  Md 1.3  2              js067245    262554

      0.28   +-  0.36       9.1    2.5  165.91 +-  0.0    0.34   3.85   +-         +-0.1                 m i ke

PYRENEES
Sta     Dist  EvAz     Phase      Date       Time     TRes  Azim  AzRes  Slow  SRes Def   SNR       Amp   Per   Mag1   Mag2       ID
EPF   000.34 035.9 m E Pg      2011/08/15 12:56:28.3   0.0                          T                                        4738438
EPF   000.34 035.9 m E Sg      2011/08/15 12:56:32.8   0.0                          T                2.5  .25        Md 1.3  4738436
ETSF  000.48 287.7 m E Pg      2011/08/15 12:56:31.1   0.2                          T                                        4738439
ETSF  000.48 287.7 m E Sg      2011/08/15 12:56:36.5  -0.7                          T                2.1  .17        Md 1.4  4738437
MTLF  001.68 068.8 m E Sg      2011/08/15 12:57:14.4  -0.2                          T                 .3  .24 Ml 1.2         4738433

.
EVENT     262555
    Date      Time       Latitude Longitude    Depth    Ndef Nsta Gap    Mag1  N    Mag2  N    Mag3  N   Author         ID
       rms   OT_Error      Smajor Sminor Az        Err   mdist  Mdist     Err        Err        Err      Quality

2011/08/15 13:08:33.4     43.0859   17.7432      2.0     191   15 040  Ml 3.4  5                         js067245    262555

      0.91   +-  0.07       2.0    1.6  163.45 +-  0.0    0.58  35.75   +-0.2                            m i ke

NORTHWESTERN BALKAN PEN.
Sta     Dist  EvAz     Phase      Date       Time     TRes  Azim  AzRes  Slow  SRes Def   SNR       Amp   Per   Mag1   Mag2       ID
PTF   004.93 282.5 m E P       2011/08/15 13:09:49.0  -0.4                          T                                        4736859
PGF   006.45 268.2 m E Pn      2011/08/15 13:10:07.2   0.0                          T                                        4738493
PGF   006.45 268.2 m E P       2011/08/15 13:10:12.1   0.1                          T                                        4738492
SBF   007.54 279.4 m E Pn      2011/08/15 13:10:22.1   0.2                          T                                        4738494
MBDF  008.09 285.4 m E P       2011/08/15 13:10:35.1   0.1                          T                                        4738499
MBDF  008.09 285.4 m E Sn      2011/08/15 13:11:56.7   0.4                          T                1.9  .26 Ml 3.3         4738489
LMR   008.21 275.6 m E P       2011/08/15 13:10:36.5   0.0                          T                                        4738495
LMR   008.21 275.6 m E Sn      2011/08/15 13:12:00.2   1.3                          T                1.4  .31 Ml 3.1         4738488
LPG   008.25 290.8 m E P       2011/08/15 13:10:37.6   0.2                          T                                        4738496
LPL   008.26 290.9 m E P       2011/08/15 13:10:37.7   0.2                          T                                        4738497
ORIF  008.75 286.2 m E Pn      2011/08/15 13:10:38.9   0.4                          T                                        4738498
HINF  009.00 305.5 m E P       2011/08/15 13:10:47.9   0.5                          T                                        4738502
CDF   009.05 309.7 m E P       2011/08/15 13:10:48.3   0.1                          T                                        4738504
VIVF  009.59 285.1 m E Pn      2011/08/15 13:10:50.3   0.4                          T                                        4738500
HAU   009.38 305.5 m E P       2011/08/15 13:10:53.0   0.2                          T                                        4738503
LOR   010.65 297.9 m E Pn      2011/08/15 13:11:05.3   0.9                          T                                        4738506
LOR   010.65 297.9 m E Sn      2011/08/15 13:12:58.3   0.9                          T                3.1  .39 Ml 3.7         4738491
AVF   010.85 294.9 m E Pn      2011/08/15 13:11:07.4   0.4                          T                                        4738501
SSF   010.82 296.4 m E P       2011/08/15 13:11:12.1  -0.4                          T                                        4738505
SSF   010.82 296.4 m E Sn      2011/08/15 13:13:01.3  -0.1                          T                 .5  .19 Ml 3.4         4738490

.
EVENT     262558
    Date      Time       Latitude Longitude    Depth    Ndef Nsta Gap    Mag1  N    Mag2  N    Mag3  N   Author         ID
       rms   OT_Error      Smajor Sminor Az        Err   mdist  Mdist     Err        Err        Err      Quality

2011/08/15 14:49:31.9     43.0736    -.1947      2.0       7    4 167  Ml 1.2  1  Md 1.4  2              js067245    262558

      0.15   +-  0.06       3.2     .8  174.46 +-  0.0    0.32   1.78   +-         +-0.1                 m i ke

PYRENEES
Sta     Dist  EvAz     Phase      Date       Time     TRes  Azim  AzRes  Slow  SRes Def   SNR       Amp   Per   Mag1   Mag2       ID
ETSF  000.32 236.9 m E Pg      2011/08/15 14:49:38.1  -0.1                          T                                        4738599
ETSF  000.32 236.9 m E Sg      2011/08/15 14:49:42.5   0.0                          T                1.7  .23        Md 1.4  4738598
EPF   000.39 096.1 m E Pg      2011/08/15 14:49:39.4  -0.1                          T                                        4738595
EPF   000.39 096.1 m E Sg      2011/08/15 14:49:44.4  -0.3                          T                1.0  .20        Md 1.3  4738597
SJPF  000.76 273.4 m E Pg      2011/08/15 14:49:46.0  -0.1                          T                                        4738594
SJPF  000.76 273.4 m E Sg      2011/08/15 14:49:56.1   0.1                          T                 .2  .21                4738596
MTLF  001.78 080.6 m E Sg      2011/08/15 14:50:28.2   0.1                          T                 .2  .17 Ml 1.2         4738593

.
EVENT     262560
    Date      Time       Latitude Longitude    Depth    Ndef Nsta Gap    Mag1  N    Mag2  N    Mag3  N   Author         ID
       rms   OT_Error      Smajor Sminor Az        Err   mdist  Mdist     Err        Err        Err      Quality

2011/08/15 23:26:54.2     42.8573    -.2880      2.0       7    4 207  Ml 1.1  1  Md 1.2  3              js067245    262560

      0.18   +-  0.28      13.9    1.4  177.80 +-  0.0    0.20   1.90   +-         +-0.2                 m i ke

PYRENEES
Sta     Dist  EvAz     Phase      Date       Time     TRes  Azim  AzRes  Slow  SRes Def   SNR       Amp   Per   Mag1   Mag2       ID
ETSF  000.20 281.8 m E Pg      2011/08/15 23:26:58.3  -0.2                          T                                        4738606
ETSF  000.20 281.8 m E Sg      2011/08/15 23:27:01.6   0.3                          T                2.1  .20        Md 1.3  4738604
EPF   000.49 069.2 m E Pg      2011/08/15 23:27:03.9   0.2                          T                                        4738605
EPF   000.49 069.2 m E Sg      2011/08/15 23:27:09.9  -0.3                          T                1.3  .24        Md 1.3  4738603
SJPF  000.73 290.7 m E Pg      2011/08/15 23:27:08.0  -0.1                          T                                        4738602
SJPF  000.73 290.7 m E Sg      2011/08/15 23:27:17.7   0.0                          T                 .3  .19        Md 1.0  4738601
MTLF  001.90 074.4 m E Sg      2011/08/15 23:27:53.9  -0.1                          T                 .2  .19 Ml 1.1         4738600

.
EVENT     262567
    Date      Time       Latitude Longitude    Depth    Ndef Nsta Gap    Mag1  N    Mag2  N    Mag3  N   Author         ID
       rms   OT_Error      Smajor Sminor Az        Err   mdist  Mdist     Err        Err        Err      Quality

2011/08/16 00:32:15.8     37.5471  -14.6376     30.0      40    5 308  Ml 3.4  3                         js067245    262567

      1.08   +-  0.63      13.2    9.6   34.02 +-  0.0    4.65  14.55   +-0.0                            m i ke

NORTH ATLANTIC OCEAN
Sta     Dist  EvAz     Phase      Date       Time     TRes  Azim  AzRes  Slow  SRes Def   SNR       Amp   Per   Mag1   Mag2       ID
SJPF  011.64 057.3 m E P       2011/08/16 00:35:02.2  -0.7                          T                                        4738611
SJPF  011.64 057.3 m E Sn      2011/08/16 00:37:02.0   2.9                          T                 .7  .24 Ml 3.4         4738608
ETSF  012.01 059.2 m E P       2011/08/16 00:35:07.2  -0.8                          T                                        4738610
ETSF  012.01 059.2 m E Sn      2011/08/16 00:37:08.9   0.9                          T                 .5  .24 Ml 3.3         4738607
EPF   012.67 059.7 m E P       2011/08/16 00:35:16.2  -0.7                          T                                        4738609
EPF   012.67 059.7 m E Sn      2011/08/16 00:37:22.7  -1.1                          T                 .6  .26 Ml 3.4         4738635
MFF   014.04 045.3 m E P       2011/08/16 00:35:34.9   0.1                          T                                        4738637
CAF   014.55 054.3 m E P       2011/08/16 00:35:41.5  -0.1                          T                                        4738636

.
EVENT     263658
    Date      Time       Latitude Longitude    Depth    Ndef Nsta Gap    Mag1  N    Mag2  N    Mag3  N   Author         ID
       rms   OT_Error      Smajor Sminor Az        Err   mdist  Mdist     Err        Err        Err      Quality

2011/08/16 01:02:45.6     43.1540   -1.0765     20.0 f    11    3 174  Ml 1.0  1  Md 1.0  2              js067245    263658

      0.15   +-  0.07       1.9     .9    4.13 +-  0.0    0.12   1.04   +-         +-0.1                 m i ke

PYRENEES
Sta     Dist  EvAz     Phase      Date       Time     TRes  Azim  AzRes  Slow  SRes Def   SNR       Amp   Per   Mag1   Mag2       ID
SJPF  000.12 249.5 m E Pg      2011/08/16 01:02:49.8  -0.1                          T                                        4746320
SJPF  000.12 249.5 m E Sg      2011/08/16 01:02:52.6  -0.2                          T                 .1  .23        Md 1.0  4746321
ETSF  000.46 123.8 m E Pg      2011/08/16 01:02:54.8  -0.3                          T                                        4746318
ETSF  000.46 123.8 m E Sg      2011/08/16 01:03:01.5   0.0                          T                 .2  .22        Md 1.1  4746319
EPF   001.04 096.3 m E Sg      2011/08/16 01:03:19.2  -0.1                          T                 .3  .23 Ml 1           4746317

.
EVENT     262566
    Date      Time       Latitude Longitude    Depth    Ndef Nsta Gap    Mag1  N    Mag2  N    Mag3  N   Author         ID
       rms   OT_Error      Smajor Sminor Az        Err   mdist  Mdist     Err        Err        Err      Quality

2011/08/16 02:41:53.4     47.7841    5.3362     15.0      26   12 091  Ml 1.5  8  Md 1.6  4              js067245    262566

      0.45   +-  0.06       1.5     .8  145.40 +-  0.0    0.47   1.68   +-0.2      +-0.1                 m i ke

FRANCE
Sta     Dist  EvAz     Phase      Date       Time     TRes  Azim  AzRes  Slow  SRes Def   SNR       Amp   Per   Mag1   Mag2       ID
SFTF  000.47 334.7 m E Pg      2011/08/16 02:42:02.9   0.3 157.7  3.2               T                                        4738653
SFTF  000.47 334.7 m E Sg      2011/08/16 02:42:08.1  -0.9                          T                2.4  .19        Md 1.8  4738650
THEF  000.63 044.6 m E Pg      2011/08/16 02:42:05.9   0.4                          T                                        4746333
THEF  000.63 044.6 m E Sg      2011/08/16 02:42:14.3   0.4                          T                4.5  .16        Md 1.7  4746329
HAU   000.72 071.6 m E Pg      2011/08/16 02:42:06.8  -0.4                          T                                        4746332
HAU   000.72 071.6 m E Pn      2011/08/16 02:42:07.7   0.2                          T                                        4738652
HAU   000.72 071.6 m E Sg      2011/08/16 02:42:16.0  -0.7                          T                1.3  .20        Md 1.7  4738649
MEZF  000.74 345.3 m E Pg      2011/08/16 02:42:07.6   0.0 164.7  -0.4              T                                        4738651
MEZF  000.74 345.3 m E Sg      2011/08/16 02:42:17.4   0.0                          T                 .7  .19        Md 1.5  4738646
PAGF  000.81 018.5 m E Pg      2011/08/16 02:42:08.6  -0.3                          T                                        4738647
PAGF  000.81 018.5 m E Sg      2011/08/16 02:42:19.7   0.1                          T                 .4  .21                4738648
HINF  001.02 087.6 m E Pg      2011/08/16 02:42:12.8   0.0                          T                                        4738644
HINF  001.02 087.6 m E Sg      2011/08/16 02:42:26.3   0.1                          T                 .9  .20 Ml 1.5         4738645
LOR   001.13 243.3 m E Pn      2011/08/16 02:42:12.9  -0.2                          T                                        4738640
LOR   001.13 243.3 m E Pg      2011/08/16 02:42:14.9   0.3  66.1  3.9               T                                        4746328
LOR   001.13 243.3 m E Sg      2011/08/16 02:42:29.1  -0.2                          T                1.5  .24 Ml 1.7         4738641
CDF   001.44 063.5 m E Pg      2011/08/16 02:42:20.5   0.0                          T                                        4738642
CDF   001.44 063.5 m E Sg      2011/08/16 02:42:39.3   0.0                          T                 .6  .21 Ml 1.6         4738643
SMF   001.53 222.4 m E Pg      2011/08/16 02:42:21.9  -0.1                          T                                        4746334
SMF   001.53 222.4 m E Sg      2011/08/16 02:42:41.6  -0.2                          T                1.2  .20 Ml 1.8         4746335
AVF   001.68 234.4 m E Pg      2011/08/16 02:42:24.8   0.1                          T                                        4746330
AVF   001.68 234.4 m E Sg      2011/08/16 02:42:46.2  -0.1                          T                 .6  .20 Ml 1.6         4746331
CABF  001.28 156.1 m E Sg      2011/08/16 02:42:34.5   0.3                          T                 .3  .25 Ml 1.1         4746336
SSF   001.44 240.5 m E Sg      2011/08/16 02:42:38.9   0.0                          T                 .4  .20 Ml 1.4         4746337

.
EVENT     262590
    Date      Time       Latitude Longitude    Depth    Ndef Nsta Gap    Mag1  N    Mag2  N    Mag3  N   Author         ID
       rms   OT_Error      Smajor Sminor Az        Err   mdist  Mdist     Err        Err        Err      Quality

2011/08/16 08:42:31.3     48.7552    5.9949       .0 f    13    7 223  Ml 2.2  3  Md 2.1  1              js067245    262590

      0.67   +-  0.20       3.5    1.8   11.85 +-  0.0    0.27   2.15   +-0.0      +-                    m i km

FRANCE
Sta     Dist  EvAz     Phase      Date       Time     TRes  Azim  AzRes  Slow  SRes Def   SNR       Amp   Per   Mag1   Mag2       ID
PAGF  000.27 221.9 m E Pg      2011/08/16 08:42:36.5  -0.4  46.4  4.7               T                                        4746343
PAGF  000.27 221.9 m E Sg      2011/08/16 08:42:41.6   0.9  37.9  -3.8              T               14.5  .53        Md 2.1  4746344
HAU   000.79 162.4 m E Pg      2011/08/16 08:42:46.3  -0.1                          T                                        4746340
HAU   000.79 162.4 m E Sg      2011/08/16 08:42:57.3   0.4                          T                                        4746341
HAU   000.79 162.4 m E Sn      2011/08/16 08:42:59.8  -0.4                          T                                        4746342
SFTF  000.84 229.5 m E Pg      2011/08/16 08:42:47.3  -0.1                          T                                        4746348
SFTF  000.84 229.5 m E Sn      2011/08/16 08:43:01.4  -0.2  46.2  -2.6              T                7.6  .39                4746349
CDF   000.92 111.5 m E Pg      2011/08/16 08:42:48.9  -0.1                          T                                        4746345
CDF   000.92 111.5 m E Sg      2011/08/16 08:43:01.1   0.1                          T                9.3  .46 Ml 2.2         4746346
HINF  001.10 148.3 m E Pg      2011/08/16 08:42:52.6   0.3                          T                                        4746338
HINF  001.10 148.3 m E Sg      2011/08/16 08:43:07.0   0.3                          T               13.0  .52 Ml 2.3         4746339
MEZF  000.68 248.3 m E Sg      2011/08/16 08:42:53.4   0.0                          T               11.2  .32                4746350
CABF  002.15 178.3 m E Sg      2011/08/16 08:43:39.5   0.1                          T                6.6  .59 Ml 2.3         4746347

.
EVENT     262604
    Date      Time       Latitude Longitude    Depth    Ndef Nsta Gap    Mag1  N    Mag2  N    Mag3  N   Author         ID
       rms   OT_Error      Smajor Sminor Az        Err   mdist  Mdist     Err        Err        Err      Quality

2011/08/16 11:18:32.0     44.6141    6.7200      2.0      10    4 164  Ml 2.0  2  Md 2.0  2              js067245    262604

      0.06   +-  0.03        .7     .5   75.43 +-  0.0    0.12   1.29   +-0.1      +-0.0                 m i ke

FRANCE
Sta     Dist  EvAz     Phase      Date       Time     TRes  Azim  AzRes  Slow  SRes Def   SNR       Amp   Per   Mag1   Mag2       ID
MBDF  000.12 018.0 m E Pg      2011/08/16 11:18:34.7   0.0                          T                                        4738692
MBDF  000.12 018.0 m E Sg      2011/08/16 11:18:36.5   0.0                          T               26.1  .21        Md 2.0  4738690
ORIF  000.67 297.2 m E Pg      2011/08/16 11:18:44.9   0.0                          T                                        4738691
ORIF  000.67 297.2 m E Sg      2011/08/16 11:18:53.6   0.0                          T                2.2  .21        Md 2.0  4738689
FRF   001.05 182.9 m E Pn      2011/08/16 11:18:52.3   0.1                          T                                        4738685
FRF   001.05 182.9 m E Sn      2011/08/16 11:19:06.5  -0.1                          T                2.7  .20 Ml 2.0         4738687
LMR   001.29 186.9 m E Pn      2011/08/16 11:18:55.3  -0.1                          T                                        4738686
LMR   001.29 186.9 m E Sn      2011/08/16 11:19:12.1  -0.1                          T                3.6  .27 Ml 2.1         4738688

.
