EVENT     297806
    Date      Time       Latitude Longitude    Depth    Ndef Nsta Gap    Mag1  N    Mag2  N    Mag3  N   Author         ID
       rms   OT_Error      Smajor Sminor Az        Err   mdist  Mdist     Err        Err        Err      Quality

2013/05/10 22:08:35.4     43.3590    6.6158      4.0 f    18    8 138  Ml 1.4  6  Md 1.4  2              bulletin    297906
                                                                                                         _ldg
      0.23   +-  0.07       1.3    1.1  158.32 +-  0.0    0.08   2.14   +-0.4      +-0.1                 m i ke

NEAR SOUTH COAST OF FRANCE
Sta     Dist  EvAz     Phase      Date       Time     TRes  Azim  AzRes  Slow  SRes Def   SNR       Amp   Per   Mag1   Mag2       ID
LMR   000.08 252.1 m E Pg      2013/05/10 22:08:37.4   0.0                          T                                        5278691
LMR   000.08 252.1 m E Sg      2013/05/10 22:08:39.3   0.5                          T                8.5  .19        Md 1.4  5278690
FRF   000.20 006.4 m E Pg      2013/05/10 22:08:39.4  -0.1                          T                                        5278688
FRF   000.20 006.4 m E Sg      2013/05/10 22:08:42.8   0.4                          T                4.9  .19        Md 1.3  5278689
SBF   000.78 049.5 m E Pg      2013/05/10 22:08:50.2   0.0                          T                                        5278687
SBF   000.78 049.5 m E Sg      2013/05/10 22:09:00.2  -0.1                          T               13.2  .28                5278686
SMRF  000.97 309.6 m E Pg      2013/05/10 22:08:53.1  -0.6                          T                                        5290015
SMRF  000.97 309.6 m E P       2013/05/10 22:08:55.4  -0.2                          T                                        5278694
SMRF  000.97 309.6 m E Sg      2013/05/10 22:09:06.6   0.2                          T                 .8  .24 Ml 1.3         5278693
MBDF  001.37 004.6 m E Pg      2013/05/10 22:09:01.3   0.1                          T                                        5290014
MBDF  001.37 004.6 m E Sg      2013/05/10 22:09:18.9   0.0                          T                2.3  .27 Ml 1.9         5283241
LASF  002.12 290.7 m E Pn      2013/05/10 22:09:09.7  -0.2                          T                                        5283240
LASF  002.12 290.7 m E Sn      2013/05/10 22:09:35.6   0.4                          T                 .2  .24 Ml 1.2         5283239
LPG   002.14 002.6 m E Pn      2013/05/10 22:09:11.0   0.5                          T                                        5283238
LPG   002.14 002.6 m E Sn      2013/05/10 22:09:36.0   0.1                          T                 .4  .29 Ml 1.4         5283237
ORIF  001.65 341.5 m E Sg      2013/05/10 22:09:27.5   0.1                          T                1.0  .24 Ml 1.7         5290013

.
EVENT     299457
    Date      Time       Latitude Longitude    Depth    Ndef Nsta Gap    Mag1  N    Mag2  N    Mag3  N   Author         ID
       rms   OT_Error      Smajor Sminor Az        Err   mdist  Mdist     Err        Err        Err      Quality

2013/05/10 22:27:24.6     44.4311    7.2380     10.0      30    7 128  Ml 1.4  4  Md 1.6  1              bulletin    299557
                                                                                                         _ldg
      0.25   +-  0.05       1.3     .7   69.41 +-  0.0    0.07   1.28   +-0.4      +-                    m i ke

NORTHERN ITALY
Sta     Dist  EvAz     Phase      Date       Time     TRes  Azim  AzRes  Slow  SRes Def   SNR       Amp   Per   Mag1   Mag2       ID
MBDF  000.45 311.7 m E Pg      2013/05/10 22:27:33.3  -0.2                          T                                        5290073
MBDF  000.45 311.7 m E Sg      2013/05/10 22:27:39.6   0.2                          T                2.9  .20        Md 1.6  5290064
SBF   000.59 165.9 m E Pg      2013/05/10 22:27:35.8   0.0                          T                                        5290070
SBF   000.59 165.9 m E Sg      2013/05/10 22:27:43.7   0.1                          T                1.9  .21                5290069
FRF   000.97 206.3 m E Pg      2013/05/10 22:27:42.6  -0.2                          T                                        5290074
FRF   000.97 206.3 m E P       2013/05/10 22:27:43.7  -0.4                          T                                        5290075
FRF   000.97 206.3 m E Sg      2013/05/10 22:27:55.4   0.0                          T                2.2  .19 Ml 1.9         5290067
LPL   001.14 341.9 m E Pg      2013/05/10 22:27:46.3   0.0                          T                                        5290072
LMR   001.22 205.9 m E Pg      2013/05/10 22:27:47.5   0.1                          T                                        5290071
LMR   001.22 205.9 m E Sg      2013/05/10 22:28:03.3   0.2                          T                  1  .22 Ml 1.6         5290068
LPG   001.12 342.2 m E Sg      2013/05/10 22:28:00.4  -0.2                          T                 .2  .15 Ml 1.0         5290065
SMRF  001.28 249.7 m E Sg      2013/05/10 22:28:05.3   0.1                          T                 .3  .19 Ml 1.1         5290066

.
EVENT     297809
    Date      Time       Latitude Longitude    Depth    Ndef Nsta Gap    Mag1  N    Mag2  N    Mag3  N   Author         ID
       rms   OT_Error      Smajor Sminor Az        Err   mdist  Mdist     Err        Err        Err      Quality

2013/05/10 23:38:22.1     42.5428     .9879      3.0 f    32    4 085  Ml 1.5  3  Md 1.7  1              bulletin    297909
                                                                                                         _ldg
      0.38   +-  0.06       1.2    1.0   19.96 +-  0.0    0.20   2.59   +-0.3      +-                    m i ke

PYRENEES
Sta     Dist  EvAz     Phase      Date       Time     TRes  Azim  AzRes  Slow  SRes Def   SNR       Amp   Per   Mag1   Mag2       ID
EPF   000.68 315.8 m E Pg      2013/05/10 23:38:35.2   0.1                          T                                        5278775
EPF   000.68 315.8 m E Sg      2013/05/10 23:38:43.5  -0.4                          T                3.6  .34        Md 1.7  5278774
ETSF  001.19 287.8 m E Pg      2013/05/10 23:38:43.9  -0.6                          T                                        5278780
ETSF  001.19 287.8 m E Sg      2013/05/10 23:39:00.0   0.1                          T                1.7  .24 Ml 1.8         5278779
MTLF  001.20 048.1 m E Pg      2013/05/10 23:38:44.4  -0.2                          T                                        5278778
MTLF  001.20 048.1 m E Sg      2013/05/10 23:38:59.8  -0.4                          T                 .3  .17 Ml 1.2         5278773
LASF  002.59 052.8 m E Pn      2013/05/10 23:39:02.9  -0.2                          T                                        5278777
LASF  002.59 052.8 m E Sn      2013/05/10 23:39:33.1  -0.2                          T                 .3  .19 Ml 1.5         5278776

.
EVENT     297807
    Date      Time       Latitude Longitude    Depth    Ndef Nsta Gap    Mag1  N    Mag2  N    Mag3  N   Author         ID
       rms   OT_Error      Smajor Sminor Az        Err   mdist  Mdist     Err        Err        Err      Quality

2013/05/11 01:28:17.3     45.0546    5.9263      2.0     107   28 021  Ml 2.5 20  Md 2.5  3              bulletin    297907
                                                                                                         _ldg
      0.75   +-  0.05       1.3    1.0   47.66 +-  0.0    0.14   5.14   +-0.3      +-0.0                 m i ke

FRANCE
Sta     Dist  EvAz     Phase      Date       Time     TRes  Azim  AzRes  Slow  SRes Def   SNR       Amp   Per   Mag1   Mag2       ID
ORIF  000.14 193.6 m E Pg      2013/05/11 01:28:19.6  -0.8                          T   001.0                                5278633
ORIF  000.14 193.6 m E Sg      2013/05/11 01:28:21.6  -0.7                          T              230.6  .20        Md 2.5  5278677
MBDF  000.68 118.3 m E Pg      2013/05/11 01:28:30.2  -0.2                          T                                        5291167
MBDF  000.68 118.3 m E P       2013/05/11 01:28:32.1   0.2                          T   001.0                                5278671
MBDF  000.68 118.3 m E Sg      2013/05/11 01:28:39.3   0.0                          T   001.0       36.7  .24        Md 2.5  5278632
LPL   000.73 050.7 m E Pg      2013/05/11 01:28:30.7  -0.7                          T   001.0                                5278656
LPL   000.73 050.7 m E Sg      2013/05/11 01:28:39.5  -1.4                          T               10.5  .25        Md 2.6  5278676
LPG   000.73 052.5 m E Pg      2013/05/11 01:28:30.8  -0.7                          T   001.0                                5278654
LPG   000.73 052.5 m E Sg      2013/05/11 01:28:40.6  -0.4                          T   001.0       13.2  .22                5278655
VIVF  000.91 257.9 m E Pg      2013/05/11 01:28:34.3  -0.2                          T   001.0                                5278634
VIVF  000.91 257.9 m E Pn      2013/05/11 01:28:35.4  -0.1                          T   001.0                                5278672
VIVF  000.91 257.9 m E Sg      2013/05/11 01:28:46.2  -0.1                          T   001.0                                5278673
VIVF  000.91 257.9 m E Sn      2013/05/11 01:28:48.6   0.1                          T               15.0  .26 Ml 2.5         5291162
SMRF  001.11 193.2 m E P       2013/05/11 01:28:39.9   0.1                          T                                        5278674
SMRF  001.11 193.2 m E Sg      2013/05/11 01:28:52.2  -0.2                          T               25.0  .49 Ml 2.6         5278675
CABF  001.56 004.1 m E Pn      2013/05/11 01:28:44.6   0.1                          T   001.0                                5278667
CABF  001.56 004.1 m E Pg      2013/05/11 01:28:46.4  -0.1                          T   001.0                                5278668
CABF  001.56 004.1 m E Sg      2013/05/11 01:29:06.8   0.2                          T   001.0       14.0  .47 Ml 2.5         5278669
FRF   001.58 160.6 m E Pn      2013/05/11 01:28:44.7   0.1                          T   001.0                                5278643
FRF   001.58 160.6 m E Pg      2013/05/11 01:28:46.8   0.0                          T                                        5291166
FRF   001.58 160.6 m E Sg      2013/05/11 01:29:07.2   0.1                          T   001.0        7.1  .18 Ml 2.7         5278644
LASF  001.77 237.2 m E Pn      2013/05/11 01:28:46.9  -0.4                          T   001.0                                5278647
LASF  001.77 237.2 m E P       2013/05/11 01:28:49.2  -0.1                          T                                        5291169
LASF  001.77 237.2 m E Pg      2013/05/11 01:28:50.4   0.1                          T                                        5291168
LASF  001.77 237.2 m E Sn      2013/05/11 01:29:08.9  -0.2                          T                                        5291161
LASF  001.77 237.2 m E Sg      2013/05/11 01:29:13.0  -0.1                          T               10.0  .64 Ml 2.4         5278678
SBF   001.61 137.3 m E Pg      2013/05/11 01:28:47.3   0.0                          T                                        5291164
SBF   001.61 137.3 m E Sg      2013/05/11 01:29:08.4   0.3                          T   001.0       51.2  .40 Ml 3.2         5278658
LMR   001.77 166.1 m E Pn      2013/05/11 01:28:47.4   0.2                          T   001.0                                5278648
LMR   001.77 166.1 m E Pg      2013/05/11 01:28:50.2   0.0                          T                                        5291165
LMR   001.77 166.1 m E Sg      2013/05/11 01:29:12.9  -0.2                          T   001.0        7.6  .23 Ml 2.7         5278649
SMF   002.16 318.2 m E Pn      2013/05/11 01:28:52.7   0.2                          T   001.0                                5278659
SMF   002.16 318.2 m E Pg      2013/05/11 01:28:57.2  -0.2                          T                                        5291173
SMF   002.16 318.2 m E Sn      2013/05/11 01:29:18.1  -0.2                          T                                        5291156
SMF   002.16 318.2 m E Sg      2013/05/11 01:29:24.9  -0.2                          T   001.0        3.0  .28 Ml 2.3         5278660
AVF   002.50 314.9 m E Pn      2013/05/11 01:28:57.3   0.2                          T   001.0                                5278635
AVF   002.50 314.9 m E Pg      2013/05/11 01:29:03.1  -0.5                          T   001.0                                5278636
AVF   002.50 314.9 m E Sg      2013/05/11 01:29:35.6  -0.2                          T   001.0       17.2  .70 Ml 2.7         5278637
BGF   002.63 306.0 m E Pn      2013/05/11 01:28:58.0   0.1                          T   001.0                                5278638
BGF   002.63 306.0 m E Pg      2013/05/11 01:29:05.6  -0.4                          T                                        5291171
BGF   002.63 306.0 m E Sg      2013/05/11 01:29:40.1   0.3                          T   001.0       22.1  .54 Ml 3.0         5278639
SSF   002.62 320.8 m E Pn      2013/05/11 01:28:59.3   0.5                          T   001.0                                5278661
SSF   002.62 320.8 m E Pg      2013/05/11 01:29:06.0   0.1                          T   001.0                                5278662
SSF   002.62 320.8 m E Sg      2013/05/11 01:29:39.8   0.2                          T   001.0        2.4  .30 Ml 2.3         5278663
LOR   002.64 327.8 m E Pn      2013/05/11 01:28:59.4   0.3 147.4  1.1               T   001.0                                5278650
LOR   002.64 327.8 m E Pg      2013/05/11 01:29:06.3   0.1 145.8  -0.4              T   001.0                                5278651
LOR   002.64 327.8 m E Sn      2013/05/11 01:29:30.0   0.2 155.7  9.4               T   001.0                                5278652
LOR   002.64 327.8 m E Sg      2013/05/11 01:29:39.8  -0.3 157.0  10.8              T   001.0        2.2  .28 Ml 2.3         5278653
CAF   002.74 268.7 m E Pn      2013/05/11 01:29:01.2   0.7                          T   001.0                                5278640
CAF   002.74 268.7 m E Sn      2013/05/11 01:29:32.2  -0.1                          T                                        5291159
CAF   002.74 268.7 m E Sg      2013/05/11 01:29:43.5   0.0                          T   001.0        1.0  .25 Ml 2.0         5278641
HINF  002.84 012.7 m E Pn      2013/05/11 01:29:02.0   0.3                          T                                        5278679
HINF  002.84 012.7 m E Pg      2013/05/11 01:29:10.0   0.1                          T                                        5291174
HINF  002.84 012.7 m E Sg      2013/05/11 01:29:46.1  -0.3                          T   001.0        5.2  .43 Ml 2.5         5278670
TCF   002.88 296.7 m E Pn      2013/05/11 01:29:02.4   0.1                          T   001.0                                5278664
TCF   002.88 296.7 m E Pg      2013/05/11 01:29:10.7  -0.1                          T                                        5291178
TCF   002.88 296.7 m E Sg      2013/05/11 01:29:47.7  -0.1                          T   001.0        3.4  .49 Ml 2.3         5278665
HAU   002.97 005.5 m E Pn      2013/05/11 01:29:03.3  -0.2                          T   001.0                                5278645
HAU   002.97 005.5 m E Pg      2013/05/11 01:29:12.2  -0.1                          T                                        5278682
HAU   002.97 005.5 m E Sg      2013/05/11 01:29:49.9  -0.5                          T   001.0        3.5  .26 Ml 2.3         5278646
MTLF  003.17 238.6 m E Pn      2013/05/11 01:29:07.0   0.7                          T                                        5278683
MTLF  003.17 238.6 m E Sn      2013/05/11 01:29:42.2  -0.2                          T                 .5  .24 Ml 1.8         5291160
HYF   003.18 315.3 m E P       2013/05/11 01:29:09.5   0.1                          T                                        5291172
HYF   003.18 315.3 m E Sg      2013/05/11 01:29:57.0  -0.1                          T                                        5291157
PGF   003.35 137.3 m E Pn      2013/05/11 01:29:09.5   0.7                          T                                        5291163
CDF   003.48 015.0 m E Pn      2013/05/11 01:29:10.1  -0.6                          T   001.0                                5278642
CDF   003.48 015.0 m E Pg      2013/05/11 01:29:22.6   0.7                          T                                        5278681
CDF   003.48 015.0 m E Sg      2013/05/11 01:30:06.7   0.0                          T                2.6  .48 Ml 2.4         5291155
PAGF  003.50 357.8 m E Pn      2013/05/11 01:29:10.6  -0.2 178.1  0.5               T                                        5278680
PAGF  003.50 357.8 m E Pg      2013/05/11 01:29:22.6   0.4                          T                                        5291177
SFTF  003.21 349.3 m E Pg      2013/05/11 01:29:17.1   0.3 169.5  0.8               T                                        5291175
MEZF  003.50 350.4 m E Pg      2013/05/11 01:29:22.0  -0.1 166.0  -3.8              T                                        5291176
MEZF  003.50 350.4 m E Sn      2013/05/11 01:30:07.0  16.7                          T                2.4  .34 Ml 2.4         5291154
BAIF  005.14 347.5 m E Pn      2013/05/11 01:29:33.9   0.9                          T   001.0                                5278666

.
EVENT     297808
    Date      Time       Latitude Longitude    Depth    Ndef Nsta Gap    Mag1  N    Mag2  N    Mag3  N   Author         ID
       rms   OT_Error      Smajor Sminor Az        Err   mdist  Mdist     Err        Err        Err      Quality

2013/05/11 06:07:33.8     43.0085   -1.8667      2.0      15    3 129  Ml 1.4  2  Md 1.6  1              bulletin    297908
                                                                                                         _ldg
      0.39   +-  0.12       2.5    2.0    3.10 +-  0.0    0.32   2.19   +-0.0      +-                    m i ke

PYRENEES
Sta     Dist  EvAz     Phase      Date       Time     TRes  Azim  AzRes  Slow  SRes Def   SNR       Amp   Per   Mag1   Mag2       ID
SJPF  000.48 077.2 m E Pg      2013/05/11 06:07:42.8  -0.2                          T                                        5278736
SJPF  000.48 077.2 m E Sg      2013/05/11 06:07:49.4   0.0                          T                3.4  .21        Md 1.6  5278735
ETSF  000.97 096.1 m E Pg      2013/05/11 06:07:51.3  -0.7                          T                                        5278737
ETSF  000.97 096.1 m E Sg      2013/05/11 06:08:04.3  -0.2                          T                 .9  .23 Ml 1.4         5278739
EPF   001.62 088.5 m E Pn      2013/05/11 06:08:01.9   0.2                          T                                        5278734
EPF   001.62 088.5 m E Sn      2013/05/11 06:08:21.4  -0.5                          T                 .6  .26 Ml 1.4         5278738

.
