EVENT     289305
    Date      Time       Latitude Longitude    Depth    Ndef Nsta Gap    Mag1  N    Mag2  N    Mag3  N   Author         ID
       rms   OT_Error      Smajor Sminor Az        Err   mdist  Mdist     Err        Err        Err      Quality

2013/01/01 06:10:07.3     43.0668    -.2110      2.0     197   38 052  Ml 3.4 38  Md 3.3  2              bulletin    289405
                                                                                                         _ldg
      0.73   +-  0.04        .8     .8   76.08 +-  0.0    0.12   7.63   +-0.4      +-0.0                 m i ke

PYRENEES
Sta     Dist  EvAz     Phase      Date       Time     TRes  Azim  AzRes  Slow  SRes Def   SNR       Amp   Per   Mag1   Mag2       ID
ETSF  000.31 236.8 m E Pg      2013/01/01 06:10:12.8  -0.5                          T                                        5152139
ETSF  000.31 236.8 m E Sg      2013/01/01 06:10:16.8  -0.6                          T             3008.5  .26        Md 3.3  5152138
EPF   000.41 095.0 m E Pg      2013/01/01 06:10:14.9  -0.2                          T                                        5152137
EPF   000.41 095.0 m E Sg      2013/01/01 06:10:20.8   0.2                          T              937.6  .40        Md 3.3  5152136
SJPF  000.74 273.9 m E Pg      2013/01/01 06:10:20.9  -0.4                          T                                        5152133
SJPF  000.74 273.9 m E Sg      2013/01/01 06:10:31.2   0.1                          T              288.6  .24                5152132
MTLF  001.80 080.4 m E Pn      2013/01/01 06:10:37.3  -0.3                          T                                        5152123
MTLF  001.80 080.4 m E Pg      2013/01/01 06:10:40.6   0.0                          T                                        5152135
MTLF  001.80 080.4 m E Sg      2013/01/01 06:11:03.8   0.0                          T               73.4  .26 Ml 3.6         5152134
LFF   001.99 019.8 m E Pn      2013/01/01 06:10:39.7  -0.5                          T                                        5152128
LFF   001.99 019.8 m E Pg      2013/01/01 06:10:44.7   0.4                          T                                        5152129
LFF   001.99 019.8 m E Sg      2013/01/01 06:11:11.2   1.2                          T              354.4  .36 Ml 4.0         5152127
CAF   002.48 040.7 m E Pn      2013/01/01 06:10:46.1  -0.7                          T                                        5152131
CAF   002.48 040.7 m E Pg      2013/01/01 06:10:53.5   0.2                          T                                        5152130
CAF   002.48 040.7 m E Sg      2013/01/01 06:11:25.6   0.4                          T              102.7  .32 Ml 3.8         5174287
RJF   002.56 028.5 m E Pn      2013/01/01 06:10:46.7  -1.3                          T                                        5152126
RJF   002.56 028.5 m E Pg      2013/01/01 06:10:54.5  -0.2                          T                                        5152125
RJF   002.56 028.5 m E Sg      2013/01/01 06:11:27.8   0.1                          T              116.7  .24 Ml 3.7         5152124
LASF  003.12 069.8 m E Pn      2013/01/01 06:10:55.5  -0.1                          T                                        5152122
LASF  003.12 069.8 m E Pg      2013/01/01 06:11:04.9  -0.3                          T                                        5152121
LASF  003.12 069.8 m E Sn      2013/01/01 06:11:30.9  -0.4                          T                                        5152120
LASF  003.12 069.8 m E Sg      2013/01/01 06:11:45.7   0.4                          T               25.7  .26 Ml 3.4         5152119
MFF   003.54 000.7 m E Pn      2013/01/01 06:11:01.5   0.3                          T                                        5152071
MFF   003.54 000.7 m E Pg      2013/01/01 06:11:12.7   0.0                          T                                        5152070
MFF   003.54 000.7 m E Sn      2013/01/01 06:11:41.5   0.4                          T                                        5152069
MFF   003.54 000.7 m E Sg      2013/01/01 06:11:57.9  -0.2                          T               41.1  .24 Ml 4.0         5152068
TCF   003.65 027.4 m E Pn      2013/01/01 06:11:03.0   0.1                          T                                        5152075
TCF   003.65 027.4 m E Pg      2013/01/01 06:11:15.0   0.0                          T                                        5152074
TCF   003.65 027.4 m E Sn      2013/01/01 06:11:44.3   0.3                          T                                        5152073
TCF   003.65 027.4 m E Sg      2013/01/01 06:12:02.1   0.2                          T               36.6  .26 Ml 3.8         5152072
VIVF  003.95 061.4 m E Pn      2013/01/01 06:11:07.1   0.1                          T                                        5152117
VIVF  003.95 061.4 m E Pg      2013/01/01 06:11:20.4  -0.1                          T                                        5152118
VIVF  003.95 061.4 m E Sn      2013/01/01 06:11:51.4   0.3                          T                                        5152116
VIVF  003.95 061.4 m E Sg      2013/01/01 06:12:11.0  -0.2                          T               21.5  .32 Ml 3.5         5152115
BGF   004.11 030.9 m E Pn      2013/01/01 06:11:09.8   0.7                          T                                        5152090
BGF   004.11 030.9 m E Pg      2013/01/01 06:11:23.5   0.2                          T                                        5152091
BGF   004.11 030.9 m E Sn      2013/01/01 06:11:54.5  -0.4                          T                                        5152089
BGF   004.11 030.9 m E Sg      2013/01/01 06:12:15.6  -0.6                          T              102.7  .32 Ml 4.2         5152088
SMRF  004.31 075.8 m E Pn      2013/01/01 06:11:11.9   0.2                          T                                        5152105
SMRF  004.31 075.8 m E Pg      2013/01/01 06:11:27.1   0.2                          T                                        5152106
SMRF  004.31 075.8 m E Sg      2013/01/01 06:12:23.2   1.0                          T                4.6  .24 Ml 3.0         5152104
AVF   004.50 033.0 m E Pn      2013/01/01 06:11:14.2  -0.1                          T                                        5152079
AVF   004.50 033.0 m E Pg      2013/01/01 06:11:30.5   0.0                          T                                        5152078
AVF   004.50 033.0 m E Sn      2013/01/01 06:12:04.7   0.5                          T                                        5152077
AVF   004.50 033.0 m E Sg      2013/01/01 06:12:29.2   1.0                          T               28.3  .40 Ml 3.6         5152076
SMF   004.59 037.4 m E Pn      2013/01/01 06:11:15.5  -0.1                          T                                        5152083
SMF   004.59 037.4 m E Pg      2013/01/01 06:11:32.9   0.7                          T                                        5152082
SMF   004.59 037.4 m E Sn      2013/01/01 06:12:06.5   0.1                          T                                        5152081
SMF   004.59 037.4 m E Sg      2013/01/01 06:12:31.9   0.8                          T                7.9  .30 Ml 3.2         5152080
HYF   004.66 024.6 m E Pn      2013/01/01 06:11:16.7   0.2                          T                                        5152087
HYF   004.66 024.6 m E Pg      2013/01/01 06:11:33.6   0.1                          T                                        5152086
HYF   004.66 024.6 m E Sn      2013/01/01 06:12:07.8  -0.2                          T                                        5152085
HYF   004.66 024.6 m E Sg      2013/01/01 06:12:34.5   1.2                          T                                        5152084
SSF   004.78 032.1 m E Pn      2013/01/01 06:11:18.4   0.2                          T                                        5152023
SSF   004.78 032.1 m E Pg      2013/01/01 06:11:35.6  -0.1                          T                                        5152022
SSF   004.78 032.1 m E Sn      2013/01/01 06:12:11.4   0.5                          T                                        5152021
SSF   004.78 032.1 m E Sg      2013/01/01 06:12:36.9  -0.2                          T               22.0  .39 Ml 3.7         5152020
ORIF  004.77 065.1 m E Pn      2013/01/01 06:11:18.4   0.3                          T                                        5152114
ORIF  004.77 065.1 m E Pg      2013/01/01 06:11:35.8   0.2                          T                                        5152113
ORIF  004.77 065.1 m E Sn      2013/01/01 06:12:10.1  -0.6                          T                                        5152112
ORIF  004.77 065.1 m E Sg      2013/01/01 06:12:36.5  -0.2                          T                2.8  .34 Ml 2.7         5152111
LMR   004.92 084.6 m E Pn      2013/01/01 06:11:20.5   0.4                          T                                        5152095
LMR   004.92 084.6 m E Pg      2013/01/01 06:11:37.8  -0.5                          T                                        5152092
LMR   004.92 084.6 m E Sn      2013/01/01 06:12:14.2   0.1                          T                                        5152093
LMR   004.92 084.6 m E Sg      2013/01/01 06:12:40.6  -0.7                          T                1.9  .21 Ml 2.8         5152094
LOR   005.09 033.0 m E Pn      2013/01/01 06:11:22.5   0.1 213.0  -2.8              T                                        5152019
LOR   005.09 033.0 m E Pg      2013/01/01 06:11:41.7   0.3 215.6  -0.3              T                                        5152018
LOR   005.09 033.0 m E Sn      2013/01/01 06:12:20.0   1.7                          T                                        5152017
LOR   005.09 033.0 m E Sg      2013/01/01 06:12:46.1  -0.6 221.0  5.2               T               15.3  .32 Ml 3.6         5152016
QUIF  005.28 337.8 m E Pn      2013/01/01 06:11:24.5  -0.4                          T                                        5152067
QUIF  005.28 337.8 m E Pg      2013/01/01 06:11:44.7   0.0                          T                                        5152066
QUIF  005.28 337.8 m E Sn      2013/01/01 06:12:22.6  -0.1                          T                                        5152065
QUIF  005.28 337.8 m E Sg      2013/01/01 06:12:52.6   0.2                          T                9.2  .24 Ml 3.5         5152064
GRR   005.34 355.4 m E Pn      2013/01/01 06:11:25.3  -0.5                          T                                        5152056
GRR   005.34 355.4 m E Pg      2013/01/01 06:11:46.3   0.3                          T                                        5152055
GRR   005.34 355.4 m E Sn      2013/01/01 06:12:23.0  -1.3                          T                                        5152054
GRR   005.34 355.4 m E Sg      2013/01/01 06:12:54.6   0.1                          T                9.7  .25 Ml 3.4         5152053
MBDF  005.31 069.4 m E Pn      2013/01/01 06:11:26.0   0.5                          T                                        5152099
MBDF  005.31 069.4 m E Pg      2013/01/01 06:11:45.5  -0.1                          T                                        5152098
MBDF  005.31 069.4 m E Sn      2013/01/01 06:12:23.7  -0.1                          T                                        5152097
MBDF  005.31 069.4 m E Sg      2013/01/01 06:12:53.6  -0.1                          T                 .5  .21 Ml 2.4         5152096
SGMF  005.44 343.2 m E Pn      2013/01/01 06:11:27.0  -0.1                          T                                        5152063
SGMF  005.44 343.2 m E Sn      2013/01/01 06:12:26.0  -0.7                          T                                        5152062
SGMF  005.44 343.2 m E Sg      2013/01/01 06:12:56.9  -0.7                          T               13.9  .38 Ml 3.5         5152061
LDF   005.53 000.6 m E Pn      2013/01/01 06:11:27.7  -0.6                          T                                        5152052
LDF   005.53 000.6 m E Pg      2013/01/01 06:11:50.0   0.5                          T                                        5152051
LDF   005.53 000.6 m E Sn      2013/01/01 06:12:27.9  -0.8                          T                                        5152050
LDF   005.53 000.6 m E Sg      2013/01/01 06:13:00.9   0.6                          T               10.9  .29 Ml 3.5         5152049
LPL   005.55 061.5 m E Pn      2013/01/01 06:11:29.2   0.2                          T                                        5152110
LPL   005.55 061.5 m E Pg      2013/01/01 06:11:50.5   0.4                          T                                        5152109
LPL   005.55 061.5 m E Sn      2013/01/01 06:12:29.3  -0.3                          T                                        5152108
LPL   005.55 061.5 m E Sg      2013/01/01 06:13:01.7   0.4                          T                3.6  .38 Ml 3.0         5152107
LPG   005.56 061.7 m E Pn      2013/01/01 06:11:29.4   0.3                          T                                        5152100
LPG   005.56 061.7 m E Pg      2013/01/01 06:11:50.9   0.6                          T                                        5152101
LPG   005.56 061.7 m E Sn      2013/01/01 06:12:29.9   0.1                          T                                        5152103
LPG   005.56 061.7 m E Sg      2013/01/01 06:13:01.8   0.2                          T                2.6  .28 Ml 3.0         5152102
ROSF  005.69 338.9 m E Pn      2013/01/01 06:11:29.9  -0.6                          T                                        5152060
ROSF  005.69 338.9 m E Pg      2013/01/01 06:11:52.7   0.4                          T                                        5152059
ROSF  005.69 338.9 m E Sn      2013/01/01 06:12:32.4  -0.2                          T                                        5152058
ROSF  005.69 338.9 m E Sg      2013/01/01 06:13:05.3  -0.1                          T                6.1  .29 Ml 3.4         5152057
FLN   005.70 358.2 m E Pn      2013/01/01 06:11:30.4  -0.3 178.3  0.3               T                                        5152048
FLN   005.70 358.2 m E Pg      2013/01/01 06:11:52.6   0.0 177.4  -0.6              T                                        5152047
FLN   005.70 358.2 m E Sn      2013/01/01 06:12:31.2  -1.6                          T                                        5152046
FLN   005.70 358.2 m E Sg      2013/01/01 06:13:06.1   0.5 173.7  -4.3              T                                        5152045
CABF  005.71 049.5 m E Pn      2013/01/01 06:11:31.0   0.0                          T                                        5152044
CABF  005.71 049.5 m E Pg      2013/01/01 06:11:53.6   0.7                          T                                        5152043
CABF  005.71 049.5 m E Sn      2013/01/01 06:12:33.5   0.3                          T                                        5152042
CABF  005.71 049.5 m E Sg      2013/01/01 06:13:05.5  -0.7                          T                4.5  .30 Ml 3.2         5152041
SBF   005.62 079.3 m E Pn      2013/01/01 06:11:31.1   1.4                          T                                        5152012
SBF   005.62 079.3 m E Sn      2013/01/01 06:12:30.6  -0.5                          T                                        5152011
SBF   005.62 079.3 m E Sg      2013/01/01 06:13:02.7  -0.6                          T               13.7  .78 Ml 3.3         5152010
SFTF  006.32 033.8 m E Pn      2013/01/01 06:11:39.7   0.6                          T                                        5152040
SFTF  006.32 033.8 m E Pg      2013/01/01 06:12:03.8  -0.2                          T                                        5152039
SFTF  006.32 033.8 m E Sn      2013/01/01 06:12:47.6   0.0 222.9  5.4               T                                        5152038
SFTF  006.32 033.8 m E Sg      2013/01/01 06:13:25.6   0.6 213.3  -4.3              T               11.0  .42 Ml 3.6         5152037
MEZF  006.56 032.3 m E Pn      2013/01/01 06:11:41.6  -0.8                          T                                        5152029
MEZF  006.56 032.3 m E Sg      2013/01/01 06:13:33.6   1.0                          T               12.4  .46 Ml 3.6         5152028
HAU   006.75 040.7 m E Pn      2013/01/01 06:11:45.4   0.3                          T                                        5152036
HAU   006.75 040.7 m E Pg      2013/01/01 06:12:10.6  -1.4                          T                                        5152035
HAU   006.75 040.7 m E Sn      2013/01/01 06:12:56.9  -1.1                          T                                        5152034
HAU   006.75 040.7 m E Sg      2013/01/01 06:13:39.2   0.7                          T                4.9  .30 Ml 3.2         5152033
PAGF  006.88 035.0 m E Pn      2013/01/01 06:11:46.5  -0.2                          T                                        5152025
PAGF  006.88 035.0 m E Pg      2013/01/01 06:12:13.9  -0.4                          T                                        5152024
PAGF  006.88 035.0 m E Sn      2013/01/01 06:13:01.3   0.3                          T                                        5152026
PAGF  006.88 035.0 m E Sg      2013/01/01 06:13:42.7   0.3 219.7  0.5               T                4.4  .23 Ml 3.5         5152027
BAIF  007.63 022.0 m E Pn      2013/01/01 06:11:56.5  -0.3                          T                                        5152015
BAIF  007.63 022.0 m E Pg      2013/01/01 06:12:27.9  -0.2                          T                                        5152014
BAIF  007.63 022.0 m E Sg      2013/01/01 06:14:06.3   0.5                          T                6.0  .49 Ml 3.4         5152009
HINF  006.87 043.8 m E Pg      2013/01/01 06:12:13.4  -0.9                          T                                        5152030
HINF  006.87 043.8 m E Sn      2013/01/01 06:13:01.2   0.3                          T                                        5152031
HINF  006.87 043.8 m E Sg      2013/01/01 06:13:43.2   0.8                          T                4.4  .35 Ml 3.3         5152032
CDF   007.48 041.8 m E Sg      2013/01/01 06:14:00.4  -1.0                          T                3.2  .36 Ml 3.4         5152013

.
EVENT     289582
    Date      Time       Latitude Longitude    Depth    Ndef Nsta Gap    Mag1  N    Mag2  N    Mag3  N   Author         ID
       rms   OT_Error      Smajor Sminor Az        Err   mdist  Mdist     Err        Err        Err      Quality

2013/01/01 06:11:59.5     43.0176    -.2063      2.0       7    4 161  Ml 2.2  1  Md 1.8  2              bulletin    289682
                                                                                                         _ldg
      0.18   +-  0.08       5.4    1.2  173.70 +-  0.0    0.29   1.80   +-         +-0.4                 m i ke

PYRENEES
Sta     Dist  EvAz     Phase      Date       Time     TRes  Azim  AzRes  Slow  SRes Def   SNR       Amp   Per   Mag1   Mag2       ID
ETSF  000.29 245.5 m E Pg      2013/01/01 06:12:05.1  -0.1                          T                                        5168434
ETSF  000.29 245.5 m E Sg      2013/01/01 06:12:09.0  -0.1                          T               69.4  .24        Md 2.1  5168432
EPF   000.40 088.0 m E Pg      2013/01/01 06:12:07.1  -0.2                          T                                        5168433
EPF   000.40 088.0 m E Sg      2013/01/01 06:12:13.0   0.4                          T               13.5  .22        Md 1.5  5168431
SJPF  000.75 277.6 m E Pg      2013/01/01 06:12:13.7  -0.1                          T                                        5168429
SJPF  000.75 277.6 m E Sg      2013/01/01 06:12:23.6   0.1                          T                8.6  .24                5168430
MTLF  001.80 078.8 m E Sg      2013/01/01 06:12:56.3   0.0                          T                2.3  .23 Ml 2.2         5174291

.
