EVENT     300420
    Date      Time       Latitude Longitude    Depth    Ndef Nsta Gap    Mag1  N    Mag2  N    Mag3  N   Author         ID
       rms   OT_Error      Smajor Sminor Az        Err   mdist  Mdist     Err        Err        Err      Quality

2013/06/06 23:12:02.6     50.0961   18.4407      1.0 f    88   18 142  Ml 3.7 17                         bulletin    300520
                                                                                                         _ldg
      0.50   +-  0.10       3.2    1.3    8.67 +-  0.0    0.66  11.61   +-0.3                            m i sr

POLAND
Sta     Dist  EvAz     Phase      Date       Time     TRes  Azim  AzRes  Slow  SRes Def   SNR       Amp   Per   Mag1   Mag2       ID
CDF   007.50 261.3 m E Pn      2013/06/06 23:13:50.9   0.2                          T                                        5305077
CDF   007.50 261.3 m E Sn      2013/06/06 23:15:11.2  -0.3                          T                                        5305098
CDF   007.50 261.3 m E Sg      2013/06/06 23:15:57.3   0.1                          T               15.0  .52 Ml 3.9         5305097
HINF  007.96 257.8 m E Pn      2013/06/06 23:13:56.9   0.0                          T                                        5305068
HINF  007.96 257.8 m E Sn      2013/06/06 23:15:22.7   0.3                          T                                        5305088
HINF  007.96 257.8 m E Sg      2013/06/06 23:16:11.8   0.1                          T               16.2  .54 Ml 3.9         5305087
HAU   008.22 259.9 m E Pn      2013/06/06 23:14:00.6   0.2                          T                                        5305069
HAU   008.22 259.9 m E Sn      2013/06/06 23:15:28.0  -0.5                          T                                        5305090
HAU   008.22 259.9 m E Sg      2013/06/06 23:16:19.6   0.0                          T               16.7  .53 Ml 3.7         5305089
PAGF  008.45 264.4 m E Pn      2013/06/06 23:14:03.6   0.0                          T                                        5305072
PAGF  008.45 264.4 m E Sn      2013/06/06 23:15:34.3   0.2                          T                                        5305096
PAGF  008.45 264.4 m E Sg      2013/06/06 23:16:26.8   0.0                          T               16.5  .72 Ml 3.9         5305095
GIVF  008.76 275.3 m E Pn      2013/06/06 23:14:07.6  -0.1                          T                                        5305076
GIVF  008.76 275.3 m E Sn      2013/06/06 23:15:40.9  -0.5                          T                                        5305100
GIVF  008.76 275.3 m E Sg      2013/06/06 23:16:36.7   0.3                          T                4.0  .32 Ml 3.6         5305099
MEZF  008.90 264.8 m E Pn      2013/06/06 23:14:09.2  -0.4                          T                                        5305071
MEZF  008.90 264.8 m E Sn      2013/06/06 23:15:44.3  -0.4                          T                                        5305094
MEZF  008.90 264.8 m E Sg      2013/06/06 23:16:40.9   0.2                          T                4.4  .45 Ml 3.5         5305093
CABF  008.93 251.8 m E Pn      2013/06/06 23:14:10.6   0.3                          T                                        5305067
SFTF  008.99 263.0 m E Pn      2013/06/06 23:14:10.6  -0.3                          T                                        5305070
CABF  008.93 251.8 m E Sn      2013/06/06 23:15:44.6  -1.1                          T                                        5305086
SFTF  008.99 263.0 m E Sn      2013/06/06 23:15:46.0  -0.9                          T                                        5305092
CABF  008.93 251.8 m E Sg      2013/06/06 23:16:42.0   0.0                          T               21.6  .75 Ml 4.0         5305085
SFTF  008.99 263.0 m E Sg      2013/06/06 23:16:43.6   0.0                          T                7.8  .55 Ml 3.7         5305091
LPG   009.11 244.1 m E Pn      2013/06/06 23:14:13.2   0.3                          T                                        5305064
LPG   009.11 244.1 m E Sn      2013/06/06 23:15:50.8   0.6                          T                                        5305108
LPG   009.11 244.1 m E Sg      2013/06/06 23:16:47.4  -0.4                          T               23.7 1.11 Ml 3.9         5305107
BAIF  009.16 275.2 m E Pn      2013/06/06 23:14:13.3   0.2                          T                                        5305075
BAIF  009.16 275.2 m E Sn      2013/06/06 23:15:50.6  -0.3                          T                                        5305102
BAIF  009.16 275.2 m E Sg      2013/06/06 23:16:49.4   0.6                          T               10.5  .80 Ml 3.7         5305101
LPL   009.11 244.3 m E Pn      2013/06/06 23:14:13.4   0.5                          T                                        5305111
LPL   009.11 244.3 m E Sn      2013/06/06 23:15:49.9  -0.3                          T                                        5305110
LPL   009.11 244.3 m E Sg      2013/06/06 23:16:47.8   0.0                          T                 .6  .26 Ml 3.0         5305109
LOR   010.05 259.2 m E Pn      2013/06/06 23:14:24.9  -0.5                          T                                        5305073
LOR   010.05 259.2 m E Sn      2013/06/06 23:16:13.5   1.1                          T                                        5305106
LOR   010.05 259.2 m E Sg      2013/06/06 23:17:16.9   0.0                          T                4.7  .59 Ml 3.6         5305105
ORIF  009.95 243.4 m E P       2013/06/06 23:14:28.0  -1.9                          T                                        5305114
ORIF  009.95 243.4 m E Sn      2013/06/06 23:16:09.4  -0.6                          T                                        5305113
ORIF  009.95 243.4 m E Sg      2013/06/06 23:17:13.7   0.0                          T                1.6  .38 Ml 3.3         5305112
SMF   010.31 256.0 m E Pn      2013/06/06 23:14:28.7  -0.2                          T                                        5305066
SMF   010.31 256.0 m E Sn      2013/06/06 23:16:18.8   0.4                          T                                        5305082
SMF   010.31 256.0 m E Sg      2013/06/06 23:17:24.7  -0.1                          T                4.7  .48 Ml 3.8         5305081
SSF   010.35 258.7 m E Pn      2013/06/06 23:14:29.2  -0.2                          T                                        5305074
SSF   010.35 258.7 m E Sn      2013/06/06 23:16:18.1  -1.4                          T                                        5305104
SSF   010.35 258.7 m E Sg      2013/06/06 23:17:26.1  -0.1                          T                5.8  .60 Ml 3.9         5305103
AVF   010.56 257.5 m E Pn      2013/06/06 23:14:33.1   0.9                          T                                        5305078
AVF   010.56 257.5 m E Sn      2013/06/06 23:16:23.5  -0.8                          T                                        5305084
AVF   010.56 257.5 m E Sg      2013/06/06 23:17:32.5   0.0                          T                3.6  .59 Ml 3.6         5305083
BGF   010.97 257.1 m E Pn      2013/06/06 23:14:37.6  -0.2                          T                                        5305065
BGF   010.97 257.1 m E Sn      2013/06/06 23:16:34.2   0.0                          T                                        5305080
BGF   010.97 257.1 m E Sg      2013/06/06 23:17:45.4  -0.1                          T                8.3  .57 Ml 4.0         5305079
LASF  011.61 244.3 m E Pn      2013/06/06 23:14:46.4  -0.2                          T                                        5305117
LASF  011.61 244.3 m E Sn      2013/06/06 23:16:50.3   0.6                          T                                        5305116

.
EVENT     300423
    Date      Time       Latitude Longitude    Depth    Ndef Nsta Gap    Mag1  N    Mag2  N    Mag3  N   Author         ID
       rms   OT_Error      Smajor Sminor Az        Err   mdist  Mdist     Err        Err        Err      Quality

2013/06/06 23:30:17.8     43.8104   17.0579      2.0      37   15 089  Ml 3.0  4                         bulletin    300523
                                                                                                         _ldg
      0.63   +-  0.13       5.8    2.7   14.01 +-  0.0    0.94   9.89   +-0.2                            m i ke

NORTHWESTERN BALKAN PEN.
Sta     Dist  EvAz     Phase      Date       Time     TRes  Azim  AzRes  Slow  SRes Def   SNR       Amp   Per   Mag1   Mag2       ID
PGF   006.03 260.7 m E Pn      2013/06/06 23:31:45.7  -0.1                          T                                        5305258
SBF   006.96 273.8 m E Pn      2013/06/06 23:31:58.8   0.3                          T                                        5305259
SBF   006.96 273.8 m E Sn      2013/06/06 23:33:13.7   0.2                          T                1.3  .36 Ml 2.8         5307839
MBDF  007.44 280.6 m E Pn      2013/06/06 23:32:05.1   0.0                          T                                        5305250
LPL   007.56 286.6 m E Pn      2013/06/06 23:32:06.6  -0.2                          T                                        5307836
LPL   007.56 286.6 m E P       2013/06/06 23:32:12.0  -0.1                          T                                        5307835
LPL   007.56 286.6 m E Sn      2013/06/06 23:33:27.3  -0.8                          T                2.9  .38 Ml 3.2         5307834
LMR   007.68 270.1 m E Pn      2013/06/06 23:32:09.4   1.2                          T                                        5305260
ORIF  008.09 281.7 m E Pn      2013/06/06 23:32:14.1   0.2                          T                                        5305249
ORIF  008.09 281.7 m E Sn      2013/06/06 23:33:40.6   0.1                          T                1.9  .43 Ml 3.1         5307837
HINF  008.18 302.9 m E Pn      2013/06/06 23:32:14.4  -0.6                          T                                        5305253
CDF   008.21 307.5 m E Pn      2013/06/06 23:32:15.5   0.0                          T                                        5305255
CABF  008.24 293.7 m E Pn      2013/06/06 23:32:15.7  -0.2                          T                                        5305252
HAU   008.56 303.1 m E Pn      2013/06/06 23:32:20.1  -0.2                          T                                        5305257
PAGF  009.18 305.1 m E Pn      2013/06/06 23:32:28.4  -0.2                          T                                        5305254
LASF  009.53 276.2 m E Pn      2013/06/06 23:32:33.6   0.2                          T                                        5305251
LOR   009.89 295.1 m E Pn      2013/06/06 23:32:38.2  -0.1                          T                                        5305256
SMF   009.75 291.5 m E P       2013/06/06 23:32:42.3   0.1                          T                                        5305248
FRF   007.55 271.7 m E Sn      2013/06/06 23:33:27.8   0.1                          T                 .9  .29 Ml 2.8         5307838

.
EVENT     300536
    Date      Time       Latitude Longitude    Depth    Ndef Nsta Gap    Mag1  N    Mag2  N    Mag3  N   Author         ID
       rms   OT_Error      Smajor Sminor Az        Err   mdist  Mdist     Err        Err        Err      Quality

2013/06/06 23:40:32.6     43.0026    2.1637      8.0 f    15    3 094  Ml 1.2  2  Md 1.4  1              bulletin    300636
                                                                                                         _ldg
      0.23   +-  0.05       1.1     .9   88.56 +-  0.0    0.11   1.63   +-0.1      +-                    m i ke

FRANCE
Sta     Dist  EvAz     Phase      Date       Time     TRes  Azim  AzRes  Slow  SRes Def   SNR       Amp   Per   Mag1   Mag2       ID
MTLF  000.34 006.6 m E Pg      2013/06/06 23:40:39.2  -0.1                          T                                        5307840
MTLF  000.34 006.6 m E P       2013/06/06 23:40:40.5   0.0                          T                                        5307841
MTLF  000.34 006.6 m E Sg      2013/06/06 23:40:44.6   0.7                          T                 .5  .27        Md 1.4  5307842
EPF   001.34 271.8 m E Pg      2013/06/06 23:40:57.7   0.0                          T                                        5307843
EPF   001.34 271.8 m E Sg      2013/06/06 23:41:14.8  -0.2                          T                 .4  .23 Ml 1.2         5307844
LASF  001.63 048.4 m E Pg      2013/06/06 23:41:02.9  -0.2                          T                                        5307845
LASF  001.63 048.4 m E Sg      2013/06/06 23:41:24.1  -0.1                          T                 .4  .30 Ml 1.3         5307846

.
EVENT     300421
    Date      Time       Latitude Longitude    Depth    Ndef Nsta Gap    Mag1  N    Mag2  N    Mag3  N   Author         ID
       rms   OT_Error      Smajor Sminor Az        Err   mdist  Mdist     Err        Err        Err      Quality

2013/06/07 04:09:05.1     43.0843   -1.5658       .0 f     6    3 339  Ml 1.8  1  Md 1.6  2              bulletin    300521
                                                                                                         _ldg
      0.31   +-  0.55      16.9   10.0    4.78 +-  0.0    0.25   1.40   +-         +-0.3                 m i km

PYRENEES
Sta     Dist  EvAz     Phase      Date       Time     TRes  Azim  AzRes  Slow  SRes Def   SNR       Amp   Per   Mag1   Mag2       ID
SJPF  000.25 083.3 m E Pg      2013/06/07 04:09:10.3   0.0                          T                                        5305122
SJPF  000.25 083.3 m E Sg      2013/06/07 04:09:14.3   0.4                          T                8.1  .22        Md 1.8  5305120
ETSF  000.76 103.8 m E Pg      2013/06/07 04:09:19.0   0.2                          T                                        5305121
ETSF  000.76 103.8 m E Sg      2013/06/07 04:09:29.7  -0.2                          T                4.2  .26        Md 1.4  5305119
EPF   001.40 091.6 m E Pn      2013/06/07 04:09:30.3  -0.1                          T                                        5305118
EPF   001.40 091.6 m E Sn      2013/06/07 04:09:47.9  -0.7                          T                1.7  .26 Ml 1.8         5305123

.
EVENT     300432
    Date      Time       Latitude Longitude    Depth    Ndef Nsta Gap    Mag1  N    Mag2  N    Mag3  N   Author         ID
       rms   OT_Error      Smajor Sminor Az        Err   mdist  Mdist     Err        Err        Err      Quality

2013/06/07 06:50:47.7     42.9432    -.4896     15.1       6    3 153             Md 1.6  2              bulletin    300532
                                                                                                         _ldg
      0.22   +-  0.57      26.2    2.9    4.82 +-  6.5    0.07   0.61              +-0.2                 m i ke

PYRENEES
Sta     Dist  EvAz     Phase      Date       Time     TRes  Azim  AzRes  Slow  SRes Def   SNR       Amp   Per   Mag1   Mag2       ID
ETSF  000.07 228.9 m E Pg      2013/06/07 06:50:51.0   0.1                          T                                        5305367
ETSF  000.07 228.9 m E Sg      2013/06/07 06:50:52.9  -0.2                          T               41.6  .22        Md 1.5  5305365
SJPF  000.57 287.7 m E Pg      2013/06/07 06:50:58.9   0.1                          T                                        5305366
SJPF  000.57 287.7 m E Sg      2013/06/07 06:51:06.1  -0.3                          T                6.9  .22        Md 1.8  5305364
EPF   000.61 081.6 m E Pg      2013/06/07 06:50:59.5  -0.2                          T                                        5305368
EPF   000.61 081.6 m E Sg      2013/06/07 06:51:08.4   0.4                          T                5.8  .22                5305369

.
EVENT     300437
    Date      Time       Latitude Longitude    Depth    Ndef Nsta Gap    Mag1  N    Mag2  N    Mag3  N   Author         ID
       rms   OT_Error      Smajor Sminor Az        Err   mdist  Mdist     Err        Err        Err      Quality

2013/06/07 09:08:09.5     47.9723    6.6178       .0 f     9    6 121  Ml 1.8  3  Md 1.7  3              bulletin    300537
                                                                                                         _ldg
      0.47   +-  0.13       2.9    2.2  179.93 +-  0.0    0.18   1.99   +-0.4      +-0.1                 m i km

FRANCE
Sta     Dist  EvAz     Phase      Date       Time     TRes  Azim  AzRes  Slow  SRes Def   SNR       Amp   Per   Mag1   Mag2       ID
HAU   000.18 280.5 m E Pg      2013/06/07 09:08:13.3  -0.2                          T                                        5305439
HAU   000.18 280.5 m E Sg      2013/06/07 09:08:16.2   0.0                          T              181.7  .60        Md 1.8  5305435
HINF  000.22 134.4 m E Pg      2013/06/07 09:08:14.1  -0.1                          T                                        5305438
HINF  000.22 134.4 m E Sg      2013/06/07 09:08:17.1  -0.3                          T               69.1  .94        Md 1.7  5305436
CDF   000.62 044.8 m E Pg      2013/06/07 09:08:22.1   0.4                          T                                        5305437
CDF   000.62 044.8 m E Sg      2013/06/07 09:08:29.3  -0.7                          T               17.3  .88        Md 1.5  5305440
SFTF  001.08 283.0 m E Sn      2013/06/07 09:08:45.3  -0.1 105.4  3.5               T                6.6  .33 Ml 2.2         5307849
CABF  001.41 195.0 m E Sg      2013/06/07 09:08:55.1   0.5                          T                 .5  .25 Ml 1.3         5307848
LOR   001.99 250.3 m E Sg      2013/06/07 09:09:13.1   0.4                          T                1.5  .31 Ml 1.9         5307850

.
