BEGIN GSE2.0
MSG_TYPE DATA
MSG_ID 23-MAR-1110:10:07  FRA_NDC
E-MAIL
DATA_TYPE BULLETIN
Reviewed Bulletin (REB) # P2011-011  from French NDC for regional phases     PERIOD 16 MAR 2011 TO 22 MAR 2011 C M., J-P S
EVENT     257185
    Date      Time       Latitude Longitude    Depth    Ndef Nsta Gap    Mag1  N    Mag2  N    Mag3  N   Author         ID
       rms   OT_Error      Smajor Sminor Az        Err   mdist  Mdist     Err        Err        Err      Quality

2011/03/16 01:32:20.9     46.8391    2.9689      2.0      16    7 190  Ml 1.0  1  Md 1.2  3              js067245    257185

      0.22   +-  0.08       2.3     .8  137.27 +-  0.0    0.27   1.84   +-         +-0.1                 m i ke

FRANCE
Sta     Dist  EvAz     Phase      Date       Time     TRes  Azim  AzRes  Slow  SRes Def   SNR       Amp   Per   Mag1   Mag2       ID
AVF   000.27 100.3 m E Pg      2011/03/16 01:32:26.1   0.0                          T                                        4660490
AVF   000.27 100.3 m E Sg      2011/03/16 01:32:30.4   0.6                          T                3.1  .29        Md 1.3  4660486
BGF   000.29 196.7 m E Pg      2011/03/16 01:32:26.8   0.1                          T                                        4660489
BGF   000.29 196.7 m E Sg      2011/03/16 01:32:30.8   0.2                          T                4.1  .20        Md 1.2  4660485
SSF   000.43 058.6 m E Pg      2011/03/16 01:32:29.3   0.1                          T                                        4660482
SSF   000.43 058.6 m E Sg      2011/03/16 01:32:35.0   0.2                          T                3.0  .24        Md 1.1  4660483
SMF   000.63 107.6 m E Pg      2011/03/16 01:32:32.4  -0.5                          T                                        4660488
SMF   000.63 107.6 m E Sg      2011/03/16 01:32:40.9  -0.2                          T                1.6  .24                4660487
LOR   000.74 054.5 m E Pg      2011/03/16 01:32:35.0   0.0                          T                                        4660477
LOR   000.74 054.5 m E Sg      2011/03/16 01:32:44.7   0.0                          T                 .6  .20                4660478
TCF   000.76 223.8 m E Pg      2011/03/16 01:32:35.3   0.0                          T                                        4660481
TCF   000.76 223.8 m E Sg      2011/03/16 01:32:44.8  -0.4                          T                 .6  .22                4660480
RJF   001.84 213.9 m E Pn      2011/03/16 01:32:51.7  -0.1                          T                                        4660494
RJF   001.84 213.9 m E Sn      2011/03/16 01:33:14.0  -0.2                          T                 .4  .25 Ml 1.0         4660493

.
EVENT     257188
    Date      Time       Latitude Longitude    Depth    Ndef Nsta Gap    Mag1  N    Mag2  N    Mag3  N   Author         ID
       rms   OT_Error      Smajor Sminor Az        Err   mdist  Mdist     Err        Err        Err      Quality

2011/03/16 03:14:55.0     42.8027     .1935      2.0       6    3 254  Ml 1.6  1  Md 1.4  2              js067245    257188

      0.21   +-  0.41      11.3    2.4  152.19 +-  0.0    0.25   2.17   +-         +-0.1                 m i ke

PYRENEES
Sta     Dist  EvAz     Phase      Date       Time     TRes  Azim  AzRes  Slow  SRes Def   SNR       Amp   Per   Mag1   Mag2       ID
EPF   000.25 025.3 m E Pg      2011/03/16 03:14:59.9  -0.1                          T                                        4660500
EPF   000.25 025.3 m E Sg      2011/03/16 03:15:03.5   0.1                          T                4.6  .21        Md 1.5  4660499
ETSF  000.56 280.1 m E Pg      2011/03/16 03:15:05.4  -0.3                          T                                        4660497
ETSF  000.56 280.1 m E Sg      2011/03/16 03:15:13.0  -0.1                          T                4.6  .26        Md 1.4  4660498
LFF   002.17 010.3 m E Pn      2011/03/16 03:15:30.5   0.2                          T                                        4660495
LFF   002.17 010.3 m E Sn      2011/03/16 03:15:56.0  -0.2                          T                 .9  .27 Ml 1.6         4660496

.
EVENT     257207
    Date      Time       Latitude Longitude    Depth    Ndef Nsta Gap    Mag1  N    Mag2  N    Mag3  N   Author         ID
       rms   OT_Error      Smajor Sminor Az        Err   mdist  Mdist     Err        Err        Err      Quality

2011/03/16 07:51:38.2     47.5385    7.6901      2.0      15    6 109  Ml 2.2  6  Md 2.0  3              cm165940    257207

      0.20   +-  0.08       1.5    1.3   16.63 +-  0.0    0.20   2.89   +-0.3      +-0.0                 m i ke

SWITZERLAND
Sta     Dist  EvAz     Phase      Date       Time     TRes  Azim  AzRes  Slow  SRes Def   SNR       Amp   Per   Mag1   Mag2       ID
HINF  000.63 296.5 m E Pg      2011/03/16 07:51:50.6   0.4                          T                                        4660517
HINF  000.63 296.5 m E Sg      2011/03/16 07:51:58.1  -0.4                          T                6.8  .24        Md 2.0  4660516
CDF   000.92 342.5 m E Pg      2011/03/16 07:51:55.4  -0.2                          T                                        4660513
CDF   000.92 342.5 m E Sg      2011/03/16 07:52:07.4  -0.1                          T               15.2  .48 Ml 2.4 Md 2.0  4660507
HAU   001.02 297.8 m E Pg      2011/03/16 07:51:57.3  -0.1                          T                                        4660514
HAU   001.02 297.8 m E Sg      2011/03/16 07:52:10.3  -0.2                          T               15.8  .32 Ml 2.3 Md 2.0  4660515
CABF  001.44 230.3 m E Pg      2011/03/16 07:52:05.4   0.3                          T                                        4660512
CABF  001.44 230.3 m E Sg      2011/03/16 07:52:23.6   0.0                          T                1.6  .33 Ml 1.7         4660506
LOR   002.62 265.5 m E Pg      2011/03/16 07:52:26.6  -0.1                          T                                        4660511
LOR   002.62 265.5 m E Sg      2011/03/16 07:53:00.4   0.0                          T                1.4  .20 Ml 2.2         4660509
SSF   002.89 262.0 m E Pg      2011/03/16 07:52:31.6  -0.1                          T                                        4660510
SSF   002.89 262.0 m E Sg      2011/03/16 07:53:08.7  -0.1                          T                2.3  .29 Ml 2.4         4660508

.
EVENT     257213
    Date      Time       Latitude Longitude    Depth    Ndef Nsta Gap    Mag1  N    Mag2  N    Mag3  N   Author         ID
       rms   OT_Error      Smajor Sminor Az        Err   mdist  Mdist     Err        Err        Err      Quality

2011/03/16 11:37:52.3     44.3869   10.6130      2.0      47   18 087  Ml 2.6 20                         js067245    257213

      0.19   +-  0.06       1.3     .9   74.61 +-  0.0    0.15   5.65   +-0.3                            m i ke

NORTHERN ITALY
Sta     Dist  EvAz     Phase      Date       Time     TRes  Azim  AzRes  Slow  SRes Def   SNR       Amp   Per   Mag1   Mag2       ID
PGF   002.18 213.1 m E Pn      2011/03/16 11:38:27.7  -0.3                          T                                        4660651
PGF   002.18 213.1 m E Sn      2011/03/16 11:38:54.3   0.3                          T                2.4  .32 Ml 2.4         4660625
SBF   002.35 258.2 m E Pn      2011/03/16 11:38:30.2   0.0                          T                                        4660652
SBF   002.35 258.2 m E Sn      2011/03/16 11:38:57.8  -0.1                          T               32.5  .64 Ml 3.0         4660626
MBDF  002.77 278.4 m E Pn      2011/03/16 11:38:36.4   0.4                          T                                        4660659
MBDF  002.77 278.4 m E Sn      2011/03/16 11:39:07.9  -0.2                          T                8.1  .57 Ml 2.5         4660632
FRF   002.98 255.3 m E Pn      2011/03/16 11:38:38.7   0.0                          T                                        4660654
FRF   002.98 255.3 m E Sn      2011/03/16 11:39:13.0   0.0                          T               12.1  .49 Ml 2.9         4660628
LPG   002.96 293.4 m E Pn      2011/03/16 11:38:39.0   0.2                          T                                        4660656
LPG   002.96 293.4 m E Sn      2011/03/16 11:39:12.6  -0.2                          T                3.0  .39 Ml 2.3         4660629
LPL   002.98 293.6 m E Pn      2011/03/16 11:38:39.1   0.1                          T                                        4660657
LPL   002.98 293.6 m E Sn      2011/03/16 11:39:13.1  -0.1                          T                3.1  .32 Ml 2.4         4660630
LMR   003.15 251.9 m E Pn      2011/03/16 11:38:40.6  -0.4                          T                                        4660653
LMR   003.15 251.9 m E Sn      2011/03/16 11:39:17.0   0.0                          T                6.0  .27 Ml 2.8         4660627
ORIF  003.42 280.6 m E Pn      2011/03/16 11:38:45.5   0.7                          T                                        4660658
ORIF  003.42 280.6 m E Sn      2011/03/16 11:39:23.4  -0.1                          T                3.3  .49 Ml 2.4         4660631
SMRF  003.65 265.3 m E Pn      2011/03/16 11:38:48.9   1.1                          T                                        4660655
CABF  003.88 306.5 m E Pn      2011/03/16 11:38:50.8  -0.4                          T                                        4660650
CABF  003.88 306.5 m E Sn      2011/03/16 11:39:34.5  -0.1                          T                 .6  .20 Ml 2.1         4660635
HINF  004.31 324.0 m E Pn      2011/03/16 11:38:56.6  -0.4                          T                                        4660649
HINF  004.31 324.0 m E Sn      2011/03/16 11:39:44.7  -0.2                          T                2.3  .26 Ml 2.7         4660636
CDF   004.64 331.4 m E Pn      2011/03/16 11:39:01.5   0.1                          T                                        4660648
CDF   004.64 331.4 m E Sn      2011/03/16 11:39:52.6  -0.1                          T                1.8  .28 Ml 2.7         4660639
HAU   004.68 322.2 m E Pn      2011/03/16 11:39:01.8   0.0                          T                                        4660637
HAU   004.68 322.2 m E Sn      2011/03/16 11:39:53.3  -0.2                          T                6.4  .28 Ml 2.9         4660638
LANF  004.98 338.2 m E Pn      2011/03/16 11:39:06.1   0.1                          T                                        4660645
LANF  004.98 338.2 m E Sn      2011/03/16 11:40:00.8  -0.1                          T                1.7  .18 Ml 2.9         4660640
SMF   005.27 297.8 m E Pn      2011/03/16 11:39:10.1   0.3                          T                                        4660646
SMF   005.27 297.8 m E Sn      2011/03/16 11:40:07.5  -0.1                          T                4.1  .51 Ml 2.8         4660633
LOR   005.53 303.8 m E Pn      2011/03/16 11:39:13.4  -0.1                          T                                        4660644
LOR   005.53 303.8 m E Sn      2011/03/16 11:40:13.8  -0.1                          T                1.3  .39 Ml 2.5         4660642
AVF   005.63 297.8 m E Pn      2011/03/16 11:39:14.7  -0.1                          T                                        4660647
AVF   005.63 297.8 m E Sn      2011/03/16 11:40:16.2  -0.1                          T                 .3  .21 Ml 2.1         4660634
SSF   005.65 300.8 m E Pn      2011/03/16 11:39:15.2   0.1                          T                                        4660643
SSF   005.65 300.8 m E Sn      2011/03/16 11:40:16.6  -0.1                          T                4.3  .64 Ml 2.9         4660641

.
EVENT     257241
    Date      Time       Latitude Longitude    Depth    Ndef Nsta Gap    Mag1  N    Mag2  N    Mag3  N   Author         ID
       rms   OT_Error      Smajor Sminor Az        Err   mdist  Mdist     Err        Err        Err      Quality

2011/03/16 20:50:21.1     48.0767   -2.2108      2.0      14    6 185  Ml 2.1  3  Md 2.2  3              js067245    257241

      0.19   +-  0.06       2.1     .6  174.89 +-  0.0    0.29   1.49   +-0.1      +-0.1                 m i ke

FRANCE
Sta     Dist  EvAz     Phase      Date       Time     TRes  Azim  AzRes  Slow  SRes Def   SNR       Amp   Per   Mag1   Mag2       ID
SGMF  000.29 307.6 m E Pg      2011/03/16 20:50:26.8   0.0                          T                                        4660683
SGMF  000.29 307.6 m E Sg      2011/03/16 20:50:30.9   0.1                          T                2.4  .24        Md 2.2  4660679
QUIF  000.66 256.3 m E Pg      2011/03/16 20:50:33.6   0.0                          T                                        4660682
QUIF  000.66 256.3 m E Sg      2011/03/16 20:50:41.9  -0.3                          T                6.9  .24        Md 2.2  4660678
ROSF  000.76 290.5 m E Pg      2011/03/16 20:50:35.2  -0.1                          T                                        4660681
ROSF  000.76 290.5 m E Sg      2011/03/16 20:50:44.8  -0.5                          T                4.4  .26        Md 2.1  4660680
GRR   000.96 070.5 m E Pg      2011/03/16 20:50:39.0   0.0                          T                                        4660673
GRR   000.96 070.5 m E Sg      2011/03/16 20:50:51.3  -0.1                          T               11.6  .30 Ml 2.2         4660676
FLN   001.34 058.6 m E Pg      2011/03/16 20:50:45.9  -0.2                          T                                        4660675
FLN   001.34 058.6 m E Sg      2011/03/16 20:51:03.4   0.0                          T                3.5  .22 Ml 2.0         4660672
LDF   001.49 068.9 m E Pg      2011/03/16 20:50:48.8   0.0                          T                                        4660674
LDF   001.49 068.9 m E Sg      2011/03/16 20:51:07.9  -0.1                          T                3.3  .22 Ml 2.2         4660677

.
EVENT     257263
    Date      Time       Latitude Longitude    Depth    Ndef Nsta Gap    Mag1  N    Mag2  N    Mag3  N   Author         ID
       rms   OT_Error      Smajor Sminor Az        Err   mdist  Mdist     Err        Err        Err      Quality

2011/03/16 21:01:58.8     42.7724    2.5418      2.0      12    4 102  Ml 1.9  3                         cm165940    257263

      0.59   +-  0.14       3.0    2.6   79.37 +-  0.0    0.38   2.18   +-0.1                            m i ke

PYRENEES
Sta     Dist  EvAz     Phase      Date       Time     TRes  Azim  AzRes  Slow  SRes Def   SNR       Amp   Per   Mag1   Mag2       ID
MTLF  000.62 337.4 m E Pg      2011/03/16 21:02:10.5   0.0                          T                                        4660918
MTLF  000.62 337.4 m E Sg      2011/03/16 21:02:18.5   0.0                          T                2.4  .24                4660917
LASF  001.62 035.9 m E Pn      2011/03/16 21:02:26.7   0.1                          T                                        4660914
LASF  001.62 035.9 m E Sn      2011/03/16 21:02:46.8   0.0                          T                2.8  .37 Ml 2.0         4660913
EPF   001.64 279.8 m E Pn      2011/03/16 21:02:27.0   0.1                          T                                        4660915
EPF   001.64 279.8 m E Sn      2011/03/16 21:02:47.5   0.2                          T                1.6  .33 Ml 1.8         4660916
CAF   002.18 351.0 m E Pn      2011/03/16 21:02:34.4   0.1                          T                                        4660911
CAF   002.18 351.0 m E Sn      2011/03/16 21:03:00.5   0.2                          T                1.7  .29 Ml 2.0         4660912

.
EVENT     257234
    Date      Time       Latitude Longitude    Depth    Ndef Nsta Gap    Mag1  N    Mag2  N    Mag3  N   Author         ID
       rms   OT_Error      Smajor Sminor Az        Err   mdist  Mdist     Err        Err        Err      Quality

2011/03/16 21:40:55.4     44.4771    7.3491      2.0      18    8 196  Ml 1.8  7  Md 1.9  3              js067245    257234

      0.37   +-  0.17       3.5    1.6   78.90 +-  0.0    0.48   1.37   +-0.3      +-0.0                 m i ke

NORTHERN ITALY
Sta     Dist  EvAz     Phase      Date       Time     TRes  Azim  AzRes  Slow  SRes Def   SNR       Amp   Per   Mag1   Mag2       ID
MBDF  000.48 301.4 m E Pg      2011/03/16 21:41:05.2   0.5                          T                                        4660726
MBDF  000.48 301.4 m E Sg      2011/03/16 21:41:11.4   0.2                          T                5.0  .23        Md 1.9  4660718
SBF   000.62 174.2 m E Pg      2011/03/16 21:41:07.3   0.1                          T                                        4660719
SBF   000.62 174.2 m E Sg      2011/03/16 21:41:15.2   0.0                          T                2.0  .17        Md 1.9  4660711
FRF   001.05 209.2 m E Pg      2011/03/16 21:41:14.7  -0.3                          T                                        4660721
FRF   001.05 209.2 m E Sg      2011/03/16 21:41:28.3  -0.2                          T                4.2  .22 Ml 2.2 Md 2.0  4660713
LPG   001.11 337.6 m E Pg      2011/03/16 21:41:16.1  -0.3                          T                                        4660724
LPG   001.11 337.6 m E Sg      2011/03/16 21:41:30.3  -0.4                          T                1.0  .25 Ml 1.5         4660715
LPL   001.13 337.4 m E Pg      2011/03/16 21:41:16.9   0.2                          T                                        4660723
LPL   001.13 337.4 m E Sg      2011/03/16 21:41:30.9  -0.5                          T                1.0  .25 Ml 1.5         4660716
ORIF  001.14 293.3 m E Pg      2011/03/16 21:41:17.0   0.2                          T                                        4660725
ORIF  001.14 293.3 m E Sg      2011/03/16 21:41:30.5  -1.0                          T                2.0  .32 Ml 1.7         4660717
LMR   001.29 208.3 m E Pg      2011/03/16 21:41:19.3  -0.2                          T                                        4660720
LMR   001.29 208.3 m E Sg      2011/03/16 21:41:36.1  -0.2                          T                5.0  .25 Ml 2.3         4660712
SMRF  001.37 249.2 m E Pg      2011/03/16 21:41:21.3   0.4                          T                                        4660722
SMRF  001.37 249.2 m E Sg      2011/03/16 21:41:39.0   0.3                          T                1.6  .36 Ml 1.6         4660714

.
