EVENT     295006
    Date      Time       Latitude Longitude    Depth    Ndef Nsta Gap    Mag1  N    Mag2  N    Mag3  N   Author         ID
       rms   OT_Error      Smajor Sminor Az        Err   mdist  Mdist     Err        Err        Err      Quality

2013/03/30 02:51:24.3     44.5346    9.5991     16.0 f    32    7 122  Ml 1.9  7  Md 2.0  2              bulletin    295106
                                                                                                         _ldg
      0.16   +-  0.03        .9     .5   27.68 +-  0.0    0.23   2.68   +-0.2      +-0.1                 m i ke

NORTHERN ITALY
Sta     Dist  EvAz     Phase      Date       Time     TRes  Azim  AzRes  Slow  SRes Def   SNR       Amp   Per   Mag1   Mag2       ID
SBF   001.69 247.4 m E Pn      2013/03/30 02:51:51.7   0.0                          T                                        5240137
SBF   001.69 247.4 m E Pg      2013/03/30 02:51:56.0   0.0                          T                                        5240138
SBF   001.69 247.4 m E Sn      2013/03/30 02:52:11.7   0.0                          T                                        5240136
SBF   001.69 247.4 m E Sg      2013/03/30 02:52:18.0   0.0                          T                3.2  .24 Ml 2.3 Md 2.0  5240135
MBDF  002.03 276.4 m E Pn      2013/03/30 02:51:56.3  -0.1                          T                                        5240126
MBDF  002.03 276.4 m E Pg      2013/03/30 02:52:02.2  -0.1                          T                                        5240147
MBDF  002.03 276.4 m E Sn      2013/03/30 02:52:20.0   0.2                          T                                        5240127
MBDF  002.03 276.4 m E Sg      2013/03/30 02:52:28.3  -0.2                          T                1.4  .32 Ml 1.9 Md 1.9  5240128
LPG   002.24 296.5 m E Pn      2013/03/30 02:51:59.5   0.1                          T                                        5240143
LPG   002.24 296.5 m E Pg      2013/03/30 02:52:06.3   0.0                          T                                        5240148
LPG   002.24 296.5 m E Sn      2013/03/30 02:52:24.8  -0.2                          T                                        5240144
LPG   002.24 296.5 m E Sg      2013/03/30 02:52:35.5   0.3                          T                 .7  .32 Ml 1.6         5240142
FRF   002.34 246.5 m E P       2013/03/30 02:52:03.0   0.0                          T                                        5240141
FRF   002.34 246.5 m E Pg      2013/03/30 02:52:07.9   0.0                          T                                        5240140
FRF   002.34 246.5 m E Sn      2013/03/30 02:52:27.1   0.0                          T                 .9  .17 Ml 2.0         5240134
ORIF  002.68 279.5 m E Pn      2013/03/30 02:52:05.3   0.2                          T                                        5240130
ORIF  002.68 279.5 m E Pg      2013/03/30 02:52:14.1  -0.1                          T                                        5240132
ORIF  002.68 279.5 m E Sg      2013/03/30 02:52:48.7   0.0                          T                1.5  .40 Ml 1.9         5240129
LMR   002.53 242.8 m E P       2013/03/30 02:52:05.9   0.1                          T                                        5240139
LMR   002.53 242.8 m E Sn      2013/03/30 02:52:31.7   0.0                          T                1.3  .31 Ml 2.0         5240133
LPL   002.26 296.8 m E Pg      2013/03/30 02:52:06.8   0.2                          T                                        5240146
LPL   002.26 296.8 m E Sg      2013/03/30 02:52:35.0  -0.7                          T                 .6  .27 Ml 1.6         5240145

.
EVENT     295011
    Date      Time       Latitude Longitude    Depth    Ndef Nsta Gap    Mag1  N    Mag2  N    Mag3  N   Author         ID
       rms   OT_Error      Smajor Sminor Az        Err   mdist  Mdist     Err        Err        Err      Quality

2013/03/30 04:35:01.7     44.9347    6.8046      2.0 f    11    5 190  Ml 1.1  1  Md 1.1  3              bulletin    295111
                                                                                                         _ldg
      0.10   +-  0.02        .4     .2  104.19 +-  0.0    0.21   1.30   +-         +-0.2                 m i ke

FRANCE
Sta     Dist  EvAz     Phase      Date       Time     TRes  Azim  AzRes  Slow  SRes Def   SNR       Amp   Per   Mag1   Mag2       ID
MBDF  000.21 186.5 m E Pg      2013/03/30 04:35:06.0  -0.1                          T                                        5240270
MBDF  000.21 186.5 m E Sg      2013/03/30 04:35:09.1   0.1                          T                1.7  .20        Md 1.3  5240269
LPG   000.56 356.2 m E Pg      2013/03/30 04:35:12.8   0.0                          T                                        5240262
LPG   000.56 356.2 m E Sg      2013/03/30 04:35:20.2   0.0                          T                 .4  .16        Md  .9  5240264
LPL   000.58 355.0 m E Pg      2013/03/30 04:35:13.1   0.0                          T                                        5240266
LPL   000.58 355.0 m E Sg      2013/03/30 04:35:20.7   0.0                          T                 .4  .21        Md 1.1  5240267
ORIF  000.66 268.9 m E Pg      2013/03/30 04:35:14.2  -0.1                          T                                        5240268
ORIF  000.66 268.9 m E Sg      2013/03/30 04:35:22.8  -0.1                          T                 .7  .21                5240265
SMRF  001.30 223.0 m E Sg      2013/03/30 04:35:42.8  -0.1                          T                 .3  .21 Ml 1.1         5249220

.
EVENT     295000
    Date      Time       Latitude Longitude    Depth    Ndef Nsta Gap    Mag1  N    Mag2  N    Mag3  N   Author         ID
       rms   OT_Error      Smajor Sminor Az        Err   mdist  Mdist     Err        Err        Err      Quality

2013/03/30 06:06:15.8     45.4724    6.8238      2.0      10    5 238  Ml 1.0  2  Md 1.0  2              bulletin    295100
                                                                                                         _ldg
      0.17   +-  0.16       3.8    1.6   71.11 +-  0.0    0.06   1.64   +-0.0      +-0.1                 m i ke

FRANCE
Sta     Dist  EvAz     Phase      Date       Time     TRes  Azim  AzRes  Slow  SRes Def   SNR       Amp   Per   Mag1   Mag2       ID
LPG   000.06 296.5 m E Pg      2013/03/30 06:06:17.7   0.0                          T                                        5239842
LPG   000.06 296.5 m E Sg      2013/03/30 06:06:18.9   0.2                          T               13.4  .23        Md  .9  5239841
LPL   000.08 304.5 m E Pg      2013/03/30 06:06:18.1   0.1                          T                                        5239840
LPL   000.08 304.5 m E Sg      2013/03/30 06:06:19.3   0.1                          T                6.7  .25        Md 1.0  5239839
MBDF  000.75 182.9 m E Pg      2013/03/30 06:06:30.1   0.0                          T                                        5239846
MBDF  000.75 182.9 m E Sg      2013/03/30 06:06:40.2   0.4                          T                 .2  .18                5239845
ORIF  000.87 230.6 m E Pg      2013/03/30 06:06:33.1   0.8                          T                                        5239844
ORIF  000.87 230.6 m E Sg      2013/03/30 06:06:43.7   0.1                          T                 .4  .21 Ml 1.0         5239843
VIVF  001.64 248.7 m E Pn      2013/03/30 06:06:43.8  -0.3                          T                                        5239848
VIVF  001.64 248.7 m E Sn      2013/03/30 06:07:04.5   0.0                          T                 .2  .18 Ml 1.1         5239847

.
EVENT     295309
    Date      Time       Latitude Longitude    Depth    Ndef Nsta Gap    Mag1  N    Mag2  N    Mag3  N   Author         ID
       rms   OT_Error      Smajor Sminor Az        Err   mdist  Mdist     Err        Err        Err      Quality

2013/03/30 06:25:09.7     42.8611    2.0471     19.5      12    2 096  Ml 1.1  1  Md 1.3  2              bulletin    295409
                                                                                                         _ldg
      0.24   +-  0.14       1.9    1.5   74.71 +-  1.5    0.06   1.26   +-         +-0.3                 m i ke

PYRENEES
Sta     Dist  EvAz     Phase      Date       Time     TRes  Azim  AzRes  Slow  SRes Def   SNR       Amp   Per   Mag1   Mag2       ID
MTLF  000.50 014.5 m E Pg      2013/03/30 06:25:19.4  -0.3                          T                                        5249224
MTLF  000.50 014.5 m E Sg      2013/03/30 06:25:27.0   0.4                          T                 .4  .20        Md 1.5  5249225
EPF   001.26 278.3 m E Pg      2013/03/30 06:25:33.7   0.1                          T                                        5249222
EPF   001.26 278.3 m E Sg      2013/03/30 06:25:50.0  -0.2                          T                 .2  .12 Ml 1.1 Md 1.2  5249223

.
EVENT     295002
    Date      Time       Latitude Longitude    Depth    Ndef Nsta Gap    Mag1  N    Mag2  N    Mag3  N   Author         ID
       rms   OT_Error      Smajor Sminor Az        Err   mdist  Mdist     Err        Err        Err      Quality

2013/03/30 11:50:08.4     37.9879   -3.2175      4.0 f    40    3 072  Ml 3.0  4                         bulletin    295102
                                                                                                         _ldg
      1.11   +-  0.21       4.8    3.9  176.53 +-  0.0    0.22   6.76   +-0.1                            m i ke

SPAIN
Sta     Dist  EvAz     Phase      Date       Time     TRes  Azim  AzRes  Slow  SRes Def   SNR       Amp   Per   Mag1   Mag2       ID
ETSF  005.31 021.6 m E Pn      2013/03/30 11:51:26.1  -0.2                          T                                        5239934
ETSF  005.31 021.6 m E Sg      2013/03/30 11:52:54.6  -0.1                          T                2.4  .19 Ml 3.0         5239935
SJPF  005.34 015.9 m E Pn      2013/03/30 11:51:27.3   0.6                          T                                        5239937
SJPF  005.34 015.9 m E Sg      2013/03/30 11:52:54.7  -0.9                          T                2.3  .19 Ml 3.0         5239936
EPF   005.72 027.2 m E Pn      2013/03/30 11:51:32.5   0.6                          T                                        5239933
EPF   005.72 027.2 m E Sn      2013/03/30 11:52:34.9   0.7                          T                                        5239932
EPF   005.72 027.2 m E Sg      2013/03/30 11:53:06.0  -1.5                          T                2.0  .19 Ml 3.0         5239931

.
EVENT     295003
    Date      Time       Latitude Longitude    Depth    Ndef Nsta Gap    Mag1  N    Mag2  N    Mag3  N   Author         ID
       rms   OT_Error      Smajor Sminor Az        Err   mdist  Mdist     Err        Err        Err      Quality

2013/03/30 19:22:27.3     42.7110   -1.7048      2.0      48    9 082  Ml 2.7  8  Md 2.6  1              bulletin    295103
                                                                                                         _ldg
      0.64   +-  0.09       2.0    1.6  163.78 +-  0.0    0.11   5.03   +-0.3      +-                    m i ke

PYRENEES
Sta     Dist  EvAz     Phase      Date       Time     TRes  Azim  AzRes  Slow  SRes Def   SNR       Amp   Per   Mag1   Mag2       ID
SJPF  000.53 041.1 m E Pg      2013/03/30 19:22:36.9  -0.6                          T                                        5239980
SJPF  000.53 041.1 m E Sg      2013/03/30 19:22:44.5   0.0                          T              114.8  .38        Md 2.6  5239979
ETSF  000.86 077.1 m E Pg      2013/03/30 19:22:43.6   0.0                          T                                        5239978
ETSF  000.86 077.1 m E Sg      2013/03/30 19:22:54.7  -0.1                          T               37.9  .46 Ml 2.7         5239987
EPF   001.54 077.3 m E Pn      2013/03/30 19:22:55.6   1.5                          T                                        5239977
EPF   001.54 077.3 m E Sn      2013/03/30 19:23:13.9   0.4                          T                                        5239985
EPF   001.54 077.3 m E Sg      2013/03/30 19:23:16.6   0.7                          T               47.1  .64 Ml 2.9         5239986
LFF   002.84 037.6 m E Pn      2013/03/30 19:23:13.2   1.4                          T                                        5239983
LFF   002.84 037.6 m E Sg      2013/03/30 19:23:56.8   0.2                          T                6.1  .32 Ml 2.5         5249229
MTLF  002.94 076.3 m E Pn      2013/03/30 19:23:13.3   0.1                          T                                        5239984
MTLF  002.94 076.3 m E Sn      2013/03/30 19:23:47.0   0.0                          T                                        5249226
MTLF  002.94 076.3 m E Sg      2013/03/30 19:23:59.3  -0.4                          T                3.1  .32 Ml 2.4         5249227
RJF   003.48 040.8 m E Pn      2013/03/30 19:23:20.8   0.3                          T                                        5239982
RJF   003.48 040.8 m E Sn      2013/03/30 19:24:00.1   0.2                          T                5.1  .24 Ml 2.5         5249230
TCF   004.54 036.7 m E Pn      2013/03/30 19:23:35.4   0.4                          T                                        5249232
TCF   004.54 036.7 m E Sn      2013/03/30 19:24:25.4   0.1                          T                2.2  .28 Ml 2.7         5249231
BGF   005.03 038.6 m E Pn      2013/03/30 19:23:41.8   0.1                          T                                        5239981
BGF   005.03 038.6 m E Sn      2013/03/30 19:24:36.7  -0.3                          T               14.2  .42 Ml 3.4         5249233
CAF   003.51 049.7 m E Sn      2013/03/30 19:24:00.5  -0.2                          T                3.2  .24 Ml 2.7         5249228

.
