EVENT     269622
    Date      Time       Latitude Longitude    Depth    Ndef Nsta Gap    Mag1  N    Mag2  N    Mag3  N   Author         ID
       rms   OT_Error      Smajor Sminor Az        Err   mdist  Mdist     Err        Err        Err      Quality

2012/02/06 02:27:50.7     47.3623   15.2227      2.0      44   16 086  Ml 2.9  6                         js067245    269642

      0.76   +-  0.14       3.3    2.8   35.84 +-  0.0    0.23   8.99   +-0.2                            m i ke

AUSTRIA
Sta     Dist  EvAz     Phase      Date       Time     TRes  Azim  AzRes  Slow  SRes Def   SNR       Amp   Per   Mag1   Mag2       ID
CDF   005.45 284.0 m E Pn      2012/02/06 02:29:10.9   0.1                          T                                        4833016
CDF   005.45 284.0 m E Pg      2012/02/06 02:29:31.0  -0.5                          T                                        4833028
CDF   005.45 284.0 m E Sg      2012/02/06 02:30:40.7  -0.7                          T                4.9  .39 Ml 3.2         4833046
HINF  005.68 277.7 m E Pn      2012/02/06 02:29:14.1   0.1                          T                                        4833023
HINF  005.68 277.7 m E Pg      2012/02/06 02:29:35.8   0.0                          T                                        4833051
HINF  005.68 277.7 m E Sn      2012/02/06 02:30:14.4  -1.5                          T                2.7  .27 Ml 3.0         4833022
HINF  005.68 277.7 m E Sg      2012/02/06 02:30:49.1   0.5                          T                4.3  .50 Ml 3.0         4833042
HAU   006.03 279.4 m E Pn      2012/02/06 02:29:19.3   0.7                          T                                        4833018
HAU   006.03 279.4 m E Pg      2012/02/06 02:29:42.0  -0.1                          T                                        4833050
HAU   006.03 279.4 m E Sn      2012/02/06 02:30:24.7   0.5                          T                2.5  .31 Ml 2.8         4833017
HAU   006.03 279.4 m E Sg      2012/02/06 02:30:59.7   0.3                          T                3.1  .33 Ml 2.9         4833047
LPG   006.15 255.4 m E Pn      2012/02/06 02:29:20.9   0.3                          T                                        4833056
LPG   006.15 255.4 m E P       2012/02/06 02:29:25.7   0.5                          T                                        4833055
THEF  006.28 281.3 m E Pn      2012/02/06 02:29:22.3   0.2                          T                                        4833049
CABF  006.30 266.5 m E Pn      2012/02/06 02:29:22.6   0.2                          T                                        4833019
CABF  006.30 266.5 m E Pg      2012/02/06 02:29:46.2  -1.0                          T                                        4833048
CABF  006.30 266.5 m E Sn      2012/02/06 02:30:30.3  -0.4                          T                 .6  .23 Ml 2.6         4833021
PAGF  006.49 284.1 m E Pn      2012/02/06 02:29:24.6  -0.3                          T                                        4833058
PAGF  006.49 284.1 m E Pg      2012/02/06 02:29:50.6  -0.1                          T                                        4833057
LPL   006.15 255.6 m E P       2012/02/06 02:29:24.7  -0.5                          T                                        4833054
MBDF  006.45 249.0 m E Pn      2012/02/06 02:29:25.4   0.9                          T                                        4833025
MBDF  006.45 249.0 m E P       2012/02/06 02:29:29.7   0.5                          T                                        4833024
ORIF  006.94 252.8 m E P       2012/02/06 02:29:33.6  -2.5                          T                                        4833027
VIVF  007.75 255.0 m E Pn      2012/02/06 02:29:42.0  -0.1                          T                                        4833026
SSF   007.99 272.1 m E Pn      2012/02/06 02:29:45.0  -0.3                          T                                        4833045
BAIF  007.77 294.4 m E P       2012/02/06 02:29:46.7  -1.0                          T                                        4833043
AVF   008.13 270.3 m E Pn      2012/02/06 02:29:47.7   0.6                          T                                        4833020
BGF   008.51 269.1 m E Pn      2012/02/06 02:29:52.5   0.2                          T                                        4833052
TCF   008.99 267.9 m E Pn      2012/02/06 02:29:59.8   0.9                          T                                        4833044

.
EVENT     269833
    Date      Time       Latitude Longitude    Depth    Ndef Nsta Gap    Mag1  N    Mag2  N    Mag3  N   Author         ID
       rms   OT_Error      Smajor Sminor Az        Err   mdist  Mdist     Err        Err        Err      Quality

2012/02/06 09:59:56.5     46.0771   10.6624     10.0      27    4 056  Ml 2.3  2                         js067245    269853

      0.87   +-  0.17       3.6    3.2  111.66 +-  0.0    0.11   4.39   +-0.0                            m i ke

NORTHERN ITALY
Sta     Dist  EvAz     Phase      Date       Time     TRes  Azim  AzRes  Slow  SRes Def   SNR       Amp   Per   Mag1   Mag2       ID
MBDF  003.06 245.2 m E P       2012/02/06 10:00:45.4  -0.8                          T                                        4833078
MBDF  003.06 245.2 m E Sn      2012/02/06 10:01:17.0  -0.7                          T                2.4  .33 Ml 2.3         4833197
ORIF  003.56 252.7 m E P       2012/02/06 10:00:55.0   1.7                          T                                        4833077
VIVF  004.39 256.0 m E Pn      2012/02/06 10:01:00.7  -0.5                          T                                        4833075
VIVF  004.39 256.0 m E P       2012/02/06 10:01:05.0   0.0                          T                                        4833076
LPG   002.80 259.4 m E Sn      2012/02/06 10:01:10.6  -1.1                          T                                        4833074
LPG   002.80 259.4 m E Sg      2012/02/06 10:01:22.6  -2.1                          T                1.8  .21 Ml 2.3         4833073

.
EVENT     269705
    Date      Time       Latitude Longitude    Depth    Ndef Nsta Gap    Mag1  N    Mag2  N    Mag3  N   Author         ID
       rms   OT_Error      Smajor Sminor Az        Err   mdist  Mdist     Err        Err        Err      Quality

2012/02/06 10:48:15.6     42.9706    -.8373     10.0 f    21    3 103  Ml 2.0  2  Md 2.0  2              js067245    269725

      0.58   +-  0.12       2.8    1.7    5.29 +-  0.0    0.15   2.33   +-0.3      +-0.1                 m i ke

PYRENEES
Sta     Dist  EvAz     Phase      Date       Time     TRes  Azim  AzRes  Slow  SRes Def   SNR       Amp   Per   Mag1   Mag2       ID
SJPF  000.32 296.8 m E Pg      2012/02/06 10:48:22.1   0.1                          T                                        4833090
SJPF  000.32 296.8 m E Sg      2012/02/06 10:48:26.5   0.1                          T               59.7  .38        Md 1.9  4833089
EPF   000.87 085.6 m E Pg      2012/02/06 10:48:31.0  -1.0                          T                                        4833088
EPF   000.87 085.6 m E Sg      2012/02/06 10:48:42.8  -0.5                          T                5.8  .21 Ml 2.2 Md 2.1  4833087
MTLF  002.27 079.6 m E Sg      2012/02/06 10:49:26.8  -0.1                          T                 .8  .26 Ml 1.8         4833086

.
EVENT     269714
    Date      Time       Latitude Longitude    Depth    Ndef Nsta Gap    Mag1  N    Mag2  N    Mag3  N   Author         ID
       rms   OT_Error      Smajor Sminor Az        Err   mdist  Mdist     Err        Err        Err      Quality

2012/02/06 17:22:38.3     48.1027   -2.0071       .0 f    32   12 123  Ml 2.2  6  Md 1.9  3              js067245    269734

      1.03   +-  0.09       3.1    1.5    8.29 +-  0.0    0.40   4.05   +-0.1      +-0.0                 m i km

FRANCE
Sta     Dist  EvAz     Phase      Date       Time     TRes  Azim  AzRes  Slow  SRes Def   SNR       Amp   Per   Mag1   Mag2       ID
SGMF  000.40 292.6 m E Pg      2012/02/06 17:22:45.8  -0.3                          T                                        4833151
SGMF  000.40 292.6 m E Sg      2012/02/06 17:22:51.6  -0.1                          T                5.5  .28        Md 1.9  4833150
GRR   000.82 069.2 m E Pg      2012/02/06 17:22:53.7  -0.2                          T                                        4833146
GRR   000.82 069.2 m E Pn      2012/02/06 17:22:55.3  -0.3                          T                                        4833145
GRR   000.82 069.2 m E Sg      2012/02/06 17:23:04.6  -0.2                          T                3.5  .22                4833144
GRR   000.82 069.2 m E Sn      2012/02/06 17:23:07.3  -0.6                          T                                        4833143
QUIF  000.80 257.0 m E Pg      2012/02/06 17:22:53.7   0.2                          T                                        4833131
QUIF  000.80 257.0 m E Pn      2012/02/06 17:22:55.5   0.1                          T                                        4833130
QUIF  000.80 257.0 m E Sg      2012/02/06 17:23:04.3   0.2                          T               14.8  .28        Md 1.9  4833129
QUIF  000.80 257.0 m E Sn      2012/02/06 17:23:07.5   0.1                          T                                        4833128
ROSF  000.88 285.9 m E Pg      2012/02/06 17:22:54.7  -0.3                          T                                        4833149
ROSF  000.88 285.9 m E Pn      2012/02/06 17:22:56.4   0.0                          T                                        4833239
ROSF  000.88 285.9 m E P       2012/02/06 17:22:56.9   0.0                          T                                        4833148
ROSF  000.88 285.9 m E Sg      2012/02/06 17:23:06.6  -0.1                          T                4.5  .18 Ml 2.2 Md 1.9  4833139
ROSF  000.88 285.9 m E Sn      2012/02/06 17:23:09.2  -0.1                          T                                        4833138
FLN   001.21 056.4 m E Pg      2012/02/06 17:23:00.9  -0.2 232.4  -5.1              T                                        4833132
FLN   001.21 056.4 m E P       2012/02/06 17:23:02.2  -0.2 244.9  7.4               T                                        4833238
FLN   001.21 056.4 m E Sg      2012/02/06 17:23:16.7  -0.3                          T                5.0  .27 Ml 2.0         4833133
LDF   001.35 068.0 m E P       2012/02/06 17:23:04.1  -0.3                          T                                        4833153
LDF   001.35 068.0 m E Sg      2012/02/06 17:23:21.1  -0.3                          T                4.5  .26 Ml 2.2         4833152
MFF   001.96 139.2 m E Pg      2012/02/06 17:23:14.6  -0.4                          T                                        4833141
MFF   001.96 139.2 m E Sg      2012/02/06 17:23:40.1  -0.4                          T                2.1  .22 Ml 2.3         4833142
BGF   003.64 113.3 m E Pn      2012/02/06 17:23:34.9   0.8                          T                                        4833240
AVF   003.87 107.9 m E Pn      2012/02/06 17:23:37.6   0.5                          T                                        4833241
SSF   003.87 103.6 m E Pn      2012/02/06 17:23:37.9   0.6                          T                                        4833242
LOR   004.05 099.7 m E Pn      2012/02/06 17:23:40.1   0.5 276.7  -7.4              T                                        4833243
RJF   003.70 137.8 m E Sg      2012/02/06 17:24:33.1  -1.7                          T                1.4  .23 Ml 2.0         4833140

.
EVENT     269715
    Date      Time       Latitude Longitude    Depth    Ndef Nsta Gap    Mag1  N    Mag2  N    Mag3  N   Author         ID
       rms   OT_Error      Smajor Sminor Az        Err   mdist  Mdist     Err        Err        Err      Quality

2012/02/07 02:16:16.1     45.1478    5.8503      3.0 f    57   22 039  Ml 2.2 16  Md 2.2  5              js067245    269735

      0.62   +-  0.06       1.2    1.1   39.85 +-  0.0    0.12   3.41   +-0.2      +-0.0                 m i ke

FRANCE
Sta     Dist  EvAz     Phase      Date       Time     TRes  Azim  AzRes  Slow  SRes Def   SNR       Amp   Per   Mag1   Mag2       ID
ORIF  000.23 174.7 m E Pg      2012/02/07 02:16:20.2  -0.6                          T   001.0                                4832731
ORIF  000.23 174.7 m E Sg      2012/02/07 02:16:23.2  -0.8                          T               47.0  .22        Md 2.2  4833172
LPL   000.72 059.0 m E Pg      2012/02/07 02:16:29.6  -0.4                          T   001.0                                4832719
LPL   000.72 059.0 m E Sg      2012/02/07 02:16:39.4  -0.1                          T   001.0        4.0  .22        Md 2.2  4832720
LPG   000.73 060.9 m E Pg      2012/02/07 02:16:29.9  -0.2                          T   001.0                                4832717
LPG   000.73 060.9 m E Sg      2012/02/07 02:16:39.5  -0.1                          T   001.0        4.1  .18        Md 2.2  4832718
MBDF  000.78 122.4 m E Pg      2012/02/07 02:16:31.2   0.3                          T   001.0                                4832729
MBDF  000.78 122.4 m E Sg      2012/02/07 02:16:41.1   0.1                          T   001.0        5.5  .22        Md 2.2  4832730
VIVF  000.88 251.2 m E Pg      2012/02/07 02:16:33.2   0.5                          T   001.0                                4832732
VIVF  000.88 251.2 m E Sg      2012/02/07 02:16:44.3   0.0                          T   001.0        8.4  .20 Ml 2.4 Md 2.2  4832734
CABF  001.47 006.4 m E Pg      2012/02/07 02:16:43.8   0.2                          T   001.0                                4832724
CABF  001.47 006.4 m E Sg      2012/02/07 02:17:02.2  -0.5                          T   001.0        5.6  .29 Ml 2.3         4832726
FRF   001.69 159.9 m E Pg      2012/02/07 02:16:47.7   0.2                          T   001.0                                4832713
FRF   001.69 159.9 m E Sg      2012/02/07 02:17:09.2   0.0                          T                                        4833170
SBF   001.71 138.0 m E Pg      2012/02/07 02:16:49.6   1.5                          T                                        4833167
SBF   001.71 138.0 m E Sg      2012/02/07 02:17:10.3   0.2                          T                                        4833168
LASF  001.78 233.7 m E Pg      2012/02/07 02:16:49.8   0.5                          T                                        4833154
LASF  001.78 233.7 m E Sg      2012/02/07 02:17:12.4   0.2                          T                1.7  .28 Ml 1.9         4833155
LMR   001.87 165.1 m E Pg      2012/02/07 02:16:50.9   0.0                          T                                        4833166
LMR   001.87 165.1 m E Sn      2012/02/07 02:17:09.9  -0.2                          T                                        4833165
LMR   001.87 165.1 m E Sg      2012/02/07 02:17:14.4  -0.7                          T                                        4833169
SMF   002.05 317.6 m E Pg      2012/02/07 02:16:54.9   0.6                          T                                        4833182
SMF   002.05 317.6 m E Sg      2012/02/07 02:17:20.8   0.1                          T                6.0  .36 Ml 2.4         4833171
AVF   002.39 314.2 m E Pn      2012/02/07 02:16:55.8   1.4                          T                                        4833161
AVF   002.39 314.2 m E Pg      2012/02/07 02:17:01.8   1.3                          T                                        4833183
AVF   002.39 314.2 m E Sg      2012/02/07 02:17:30.1  -1.2                          T   001.0        2.3  .30 Ml 2.2         4832711
BGF   002.53 305.0 m E Pn      2012/02/07 02:16:56.0  -0.2                          T                                        4833162
BGF   002.53 305.0 m E Pg      2012/02/07 02:17:02.4  -0.6                          T                                        4833181
BGF   002.53 305.0 m E Sg      2012/02/07 02:17:35.6   0.1                          T   001.0       11.2  .38 Ml 2.8         4832712
LOR   002.53 327.6 m E Pg      2012/02/07 02:17:01.3  -1.8                          T                                        4833174
LOR   002.53 327.6 m E Sn      2012/02/07 02:17:25.1  -0.7                          T   001.0                                4832715
LOR   002.53 327.6 m E Sg      2012/02/07 02:17:35.6   0.0 149.1  2.9               T   001.0        2.1  .28 Ml 2.2         4832716
HAU   002.88 006.7 m E Pg      2012/02/07 02:17:08.8  -0.7                          T                                        4833160
HAU   002.88 006.7 m E Sg      2012/02/07 02:17:46.5   0.0                          T   001.0        3.0  .24 Ml 2.3         4832714
TCF   002.79 295.4 m E Sn      2012/02/07 02:17:32.3   0.2                          T                                        4833157
TCF   002.79 295.4 m E Sg      2012/02/07 02:17:44.0   0.2                          T                 .8  .23 Ml 1.9         4833158
SSF   002.51 320.4 m E Sg      2012/02/07 02:17:34.8  -0.3                          T   001.0        1.7  .21 Ml 2.3         4832722
CAF   002.69 266.6 m E Sg      2012/02/07 02:17:39.6  -1.1                          T                1.9  .38 Ml 2.1         4833179
HINF  002.76 014.2 m E Sg      2012/02/07 02:17:42.8   0.0                          T   001.0        1.9  .30 Ml 2.2         4832727
PAGF  003.41 358.6 m E Sn      2012/02/07 02:17:46.2  -0.6 174.4  -4.2              T                                        4833184
THEF  003.08 001.8 m E Sg      2012/02/07 02:17:54.3   1.4                          T                2.5  .21 Ml 2.5         4833159
CDF   003.41 016.2 m E Sg      2012/02/07 02:18:03.5   0.4                          T                 .7  .21 Ml 2.1         4833156

.
