EVENT     267895
    Date      Time       Latitude Longitude    Depth    Ndef Nsta Gap    Mag1  N    Mag2  N    Mag3  N   Author         ID
       rms   OT_Error      Smajor Sminor Az        Err   mdist  Mdist     Err        Err        Err      Quality

2011/12/28 03:41:08.6     47.1067    1.5442      3.0 f    37   13 113  Ml 2.1 13  Md 2.1  4              js067245    267915

      0.70   +-  0.07       1.6    1.1  167.98 +-  0.0    0.76   2.24   +-0.2      +-0.1                 m i ke

FRANCE
Sta     Dist  EvAz     Phase      Date       Time     TRes  Azim  AzRes  Slow  SRes Def   SNR       Amp   Per   Mag1   Mag2       ID
HYF   000.76 077.4 m E Pg      2011/12/28 03:41:22.9  -0.1                          T                                        4807853
HYF   000.76 077.4 m E P       2011/12/28 03:41:24.0  -0.6                          T                                        4807854
HYF   000.76 077.4 m E Pn      2011/12/28 03:41:25.0   0.3                          T                                        4807855
HYF   000.76 077.4 m E Sg      2011/12/28 03:41:32.7  -0.4                          T                                        4807834
HYF   000.76 077.4 m E Sn      2011/12/28 03:41:36.4   0.3                          T                                Md 2.2  4807835
TCF   000.94 150.5 m E Pg      2011/12/28 03:41:26.7   0.4                          T                                        4807860
TCF   000.94 150.5 m E Pn      2011/12/28 03:41:27.2   0.1                          T                                        4807861
TCF   000.94 150.5 m E Sg      2011/12/28 03:41:38.4  -0.1                          T                3.3  .17 Ml 2.1 Md 2.0  4807831
BGF   001.05 121.1 m E Pg      2011/12/28 03:41:28.1  -0.2                          T                                        4807851
BGF   001.05 121.1 m E Pn      2011/12/28 03:41:28.8   0.2                          T                                        4807852
BGF   001.05 121.1 m E Sg      2011/12/28 03:41:41.5  -0.4                          T                                        4807836
BGF   001.05 121.1 m E Sn      2011/12/28 03:41:42.9   0.1                          T               13.5  .32 Ml 2.5 Md 2.1  4807837
MFF   001.26 247.1 m E Pn      2011/12/28 03:41:31.6   0.1                          T                                        4807848
MFF   001.26 247.1 m E Pg      2011/12/28 03:41:32.3   0.0                          T                                        4807847
MFF   001.26 247.1 m E Sn      2011/12/28 03:41:47.9  -0.1                          T                2.7  .16 Ml 2.3         4807841
AVF   001.28 103.7 m E Pn      2011/12/28 03:41:31.8   0.1                          T                                        4807859
AVF   001.28 103.7 m E Pg      2011/12/28 03:41:32.4  -0.1                          T                                        4807858
AVF   001.28 103.7 m E Sg      2011/12/28 03:41:48.8  -0.3                          T                3.2  .24 Ml 2.1 Md 2.1  4807832
SSF   001.34 091.2 m E Pn      2011/12/28 03:41:32.7   0.1                          T                                        4807863
SSF   001.34 091.2 m E Pg      2011/12/28 03:41:33.5  -0.2                          T                                        4807862
SSF   001.34 091.2 m E Sg      2011/12/28 03:41:50.9  -0.1                          T                2.1  .20 Ml 2.1         4807830
LOR   001.59 083.3 m E Pn      2011/12/28 03:41:36.2   0.2 261.9  -3.1              T                                        4807865
LOR   001.59 083.3 m E Pg      2011/12/28 03:41:37.7  -0.5 259.7  -5.3              T                                        4807864
LOR   001.59 083.3 m E Sg      2011/12/28 03:41:58.6  -0.1 258.0  -7.0              T                3.5  .22 Ml 2.3         4807829
SMF   001.64 105.5 m E Pn      2011/12/28 03:41:36.8   0.1                          T                                        4807857
SMF   001.64 105.5 m E Pg      2011/12/28 03:41:38.9  -0.3                          T                                        4807856
SMF   001.64 105.5 m E Sg      2011/12/28 03:42:00.5   0.1                          T                1.4  .18 Ml 2.0         4807833
RJF   001.80 180.6 m E Pg      2011/12/28 03:41:42.1  -0.1                          T                                        4807846
RJF   001.80 180.6 m E Sg      2011/12/28 03:42:05.2  -0.2                          T                3.8  .22 Ml 2.1         4807844
CAF   002.21 170.4 m E Pg      2011/12/28 03:41:49.1  -0.7                          T                                        4807845
CAF   002.21 170.4 m E Sg      2011/12/28 03:42:18.2   0.0                          T                 .8  .19 Ml 1.9         4807843
LDF   001.86 323.6 m E Sg      2011/12/28 03:42:07.0  -0.3                          T                                        4807839
GRR   002.07 309.2 m E Sg      2011/12/28 03:42:13.6   0.0                          T                 .9  .20 Ml 1.8         4807840
LFF   002.24 194.8 m E Sg      2011/12/28 03:42:19.5   0.5                          T                2.3  .31 Ml 2.0         4807842

.
EVENT     267897
    Date      Time       Latitude Longitude    Depth    Ndef Nsta Gap    Mag1  N    Mag2  N    Mag3  N   Author         ID
       rms   OT_Error      Smajor Sminor Az        Err   mdist  Mdist     Err        Err        Err      Quality

2011/12/28 08:07:43.4     44.2727    7.4192      2.0      25    8 116  Ml 1.5  5  Md 1.7  2              js067245    267917

      0.27   +-  0.06       1.3     .9   52.58 +-  0.0    0.05   1.36   +-0.3      +-0.1                 m i ke

NORTHERN ITALY
Sta     Dist  EvAz     Phase      Date       Time     TRes  Azim  AzRes  Slow  SRes Def   SNR       Amp   Per   Mag1   Mag2       ID
SBF   000.41 178.4 m E Pg      2011/12/28 08:07:51.2  -0.1                          T                                        4807938
SBF   000.41 178.4 m E Sg      2011/12/28 08:07:57.1   0.3                          T                3.7  .20        Md 1.8  4807939
MBDF  000.65 314.6 m E Pg      2011/12/28 08:07:55.8  -0.1                          T                                        4807932
MBDF  000.65 314.6 m E Sg      2011/12/28 08:08:04.6   0.2                          T                1.6  .22        Md 1.6  4807930
FRF   000.90 218.4 m E Pg      2011/12/28 08:08:00.6   0.3                          T                                        4807936
FRF   000.90 218.4 m E Sn      2011/12/28 08:08:14.3  -0.1                          T                1.4  .18 Ml 1.7         4807926
LMR   001.15 215.4 m E Pg      2011/12/28 08:08:05.4   0.6                          T                                        4807937
LMR   001.15 215.4 m E Sn      2011/12/28 08:08:20.0  -0.1                          T                1.8  .25 Ml 1.8         4807925
LPG   001.31 339.0 m E Pn      2011/12/28 08:08:07.3  -0.1                          T                                        4807934
LPG   001.31 339.0 m E Sg      2011/12/28 08:08:25.3   0.0                          T                 .5  .24 Ml 1.3         4807927
ORIF  001.28 300.9 m E Pg      2011/12/28 08:08:07.3   0.0                          T                                        4807931
ORIF  001.28 300.9 m E Sg      2011/12/28 08:08:23.9   0.1                          T                 .4  .19 Ml 1.3         4807929
LPL   001.34 338.8 m E Pn      2011/12/28 08:08:07.7   0.1                          T                                        4807933
LPL   001.34 338.8 m E Sg      2011/12/28 08:08:26.0   0.2                          T                1.2  .24 Ml 1.7         4807928
SMRF  001.36 258.0 m E Pg      2011/12/28 08:08:08.7  -0.1                          T                                        4807935

.
EVENT     267899
    Date      Time       Latitude Longitude    Depth    Ndef Nsta Gap    Mag1  N    Mag2  N    Mag3  N   Author         ID
       rms   OT_Error      Smajor Sminor Az        Err   mdist  Mdist     Err        Err        Err      Quality

2011/12/28 12:05:48.3     50.3108    6.3337      2.0      16    5 064  Ml 2.1  5  Md 1.8  1              js067245    267919

      0.37   +-  0.06       1.2    1.2  145.22 +-  0.0    0.08   2.31   +-0.3      +-                    m i ke

GERMANY
Sta     Dist  EvAz     Phase      Date       Time     TRes  Azim  AzRes  Slow  SRes Def   SNR       Amp   Per   Mag1   Mag2       ID
GIVF  000.99 258.4 m E Pg      2011/12/28 12:06:07.0   0.1                          T                                        4807945
GIVF  000.99 258.4 m E Sg      2011/12/28 12:06:19.4  -0.4                          T                                        4807946
GIVF  000.99 258.4 m E Sn      2011/12/28 12:06:21.4   0.1                          T                7.4  .20 Ml 2.4 Md 1.8  4807947
BAIF  001.39 260.4 m E Pg      2011/12/28 12:06:14.2   0.0                          T                                        4807943
BAIF  001.39 260.4 m E Sg      2011/12/28 12:06:32.3   0.1                          T                5.8  .24 Ml 2.4         4807944
CDF   002.00 161.7 m E Sg      2011/12/28 12:06:51.3   0.0                          T                 .5  .20 Ml 1.7         4807942
SFTF  002.27 202.4 m E Sg      2011/12/28 12:06:59.7   0.0                          T                1.0  .19 Ml 2.0         4807941
HAU   002.31 179.8 m E Sg      2011/12/28 12:07:00.8  -0.1                          T                1.4  .22 Ml 1.8         4807940

.
EVENT     267915
    Date      Time       Latitude Longitude    Depth    Ndef Nsta Gap    Mag1  N    Mag2  N    Mag3  N   Author         ID
       rms   OT_Error      Smajor Sminor Az        Err   mdist  Mdist     Err        Err        Err      Quality

2011/12/28 13:00:06.2     44.1067    7.1505      2.0      15    5 071  Ml 1.1  2  Md 1.4  1              js067245    267935

      0.15   +-  0.04        .8     .7  113.34 +-  0.0    0.11   1.14   +-0.0      +-                    m i ke

NORTHERN ITALY
Sta     Dist  EvAz     Phase      Date       Time     TRes  Azim  AzRes  Slow  SRes Def   SNR       Amp   Per   Mag1   Mag2       ID
SBF   000.32 139.7 m E Pg      2011/12/28 13:00:12.4  -0.1                          T                                        4807956
SBF   000.32 139.7 m E Sg      2011/12/28 13:00:16.9   0.1                          T                1.3  .24        Md 1.4  4807949
FRF   000.66 213.9 m E Pg      2011/12/28 13:00:18.6  -0.1                          T                                        4807955
FRF   000.66 213.9 m E Sg      2011/12/28 13:00:27.3   0.1                          T                  1  .27                4807950
MBDF  000.68 336.5 m E Pg      2011/12/28 13:00:19.1  -0.1                          T                                        4807953
MBDF  000.68 336.5 m E Sg      2011/12/28 13:00:28.1   0.0                          T                 .5  .26                4807952
LMR   000.90 211.3 m E Pg      2011/12/28 13:00:23.1   0.0                          T                                        4807954
LMR   000.90 211.3 m E Sg      2011/12/28 13:00:34.9   0.0                          T                 .3  .18 Ml 1.1         4807951
SMRF  001.14 264.0 m E Sg      2011/12/28 13:00:42.5   0.1                          T                 .4  .20 Ml 1.1         4807948

.
EVENT     267901
    Date      Time       Latitude Longitude    Depth    Ndef Nsta Gap    Mag1  N    Mag2  N    Mag3  N   Author         ID
       rms   OT_Error      Smajor Sminor Az        Err   mdist  Mdist     Err        Err        Err      Quality

2011/12/28 13:19:52.6     46.2623    1.7403      5.0 f    33   13 105  Ml 2.3 11  Md 2.0  4              js067245    267921

      1.23   +-  0.08       2.0    1.4  149.19 +-  0.0    0.33   2.94   +-0.3      +-0.0                 m i ke

FRANCE
Sta     Dist  EvAz     Phase      Date       Time     TRes  Azim  AzRes  Slow  SRes Def   SNR       Amp   Per   Mag1   Mag2       ID
TCF   000.33 085.3 m E Pg      2011/12/28 13:19:59.1   0.0                          T                                        4807987
TCF   000.33 085.3 m E Sg      2011/12/28 13:20:03.2  -0.2                          T               23.6  .18        Md 2.1  4807988
BGF   000.82 068.5 m E Pg      2011/12/28 13:20:08.2   0.2                          T                                        4807976
BGF   000.82 068.5 m E Pn      2011/12/28 13:20:09.6   0.4                          T                                        4807977
BGF   000.82 068.5 m E Sg      2011/12/28 13:20:18.8   0.1                          T               10.4  .24        Md 2.0  4807961
RJF   000.97 189.4 m E Pg      2011/12/28 13:20:11.1   0.3                          T                                        4807971
RJF   000.97 189.4 m E Sg      2011/12/28 13:20:23.1  -0.3                          T               31.1  .24 Ml 2.6 Md 2.0  4807965
HYF   001.18 031.2 m E Pg      2011/12/28 13:20:14.8   0.1                          T                                        4807978
HYF   001.18 031.2 m E Sg      2011/12/28 13:20:29.7  -0.3                          T                                        4807960
AVF   001.23 064.0 m E Pn      2011/12/28 13:20:15.2   0.4                          T                                        4807982
AVF   001.23 064.0 m E Pg      2011/12/28 13:20:15.6   0.0                          T                                        4807981
AVF   001.23 064.0 m E Sg      2011/12/28 13:20:31.0  -0.5                          T                3.1  .29 Ml 1.9         4807958
CAF   001.36 170.2 m E Pn      2011/12/28 13:20:16.0  -0.6                          T                                        4807970
CAF   001.36 170.2 m E Pg      2011/12/28 13:20:17.7  -0.2                          T                                        4807969
CAF   001.36 170.2 m E Sg      2011/12/28 13:20:36.2   0.8                          T                9.2  .22 Ml 2.6         4807967
MFF   001.35 285.3 m E Pn      2011/12/28 13:20:16.6   0.2                          T                                        4807973
MFF   001.35 285.3 m E Pg      2011/12/28 13:20:17.7   0.0                          T                                        4807972
MFF   001.35 285.3 m E Sg      2011/12/28 13:20:34.3  -0.8                          T                6.5  .20 Ml 2.7         4807964
SSF   001.46 056.0 m E Pn      2011/12/28 13:20:18.3   0.5                          T                                        4807986
SSF   001.46 056.0 m E Pg      2011/12/28 13:20:19.6  -0.1                          T                                        4807985
SSF   001.46 056.0 m E Sg      2011/12/28 13:20:38.5   0.0                          T                3.2  .31 Ml 2.1         4807993
SMF   001.50 074.5 m E Pn      2011/12/28 13:20:18.6   0.1                          T                                        4807980
SMF   001.50 074.5 m E Pg      2011/12/28 13:20:20.4  -0.2                          T                                        4807979
SMF   001.50 074.5 m E Sg      2011/12/28 13:20:40.0   0.0                          T                4.1  .20 Ml 2.4         4807959
LFF   001.50 208.3 m E Pg      2011/12/28 13:20:20.4  -0.1                          T                                        4807968
LFF   001.50 208.3 m E Sg      2011/12/28 13:20:40.0   0.2                          T                7.2  .25 Ml 2.3         4807966
LOR   001.77 054.6 m E Pn      2011/12/28 13:20:21.4  -0.7 229.9  -6.2              T                                        4807984
LOR   001.77 054.6 m E Pg      2011/12/28 13:20:25.2  -0.4                          T                                        4807983
LOR   001.77 054.6 m E Sg      2011/12/28 13:20:47.8  -0.6 210.8  -25.3             T                2.9  .26 Ml 2.2         4807957
VIVF  002.49 123.3 m E Sg      2011/12/28 13:21:10.8  -0.2                          T                1.2  .20 Ml 2.1         4807992
MTLF  002.94 173.2 m E Sg      2011/12/28 13:21:24.9   0.0                          T                1.1  .25 Ml 2.0         4807991

.
EVENT     267902
    Date      Time       Latitude Longitude    Depth    Ndef Nsta Gap    Mag1  N    Mag2  N    Mag3  N   Author         ID
       rms   OT_Error      Smajor Sminor Az        Err   mdist  Mdist     Err        Err        Err      Quality

2011/12/28 13:57:14.8     45.0160    7.3963     10.0      41    9 131  Ml 2.1  7  Md 2.0  2              js067245    267922

      0.64   +-  0.10       2.3    1.2   87.20 +-  0.0    0.17   1.94   +-0.4      +-0.1                 m i ke

NORTHERN ITALY
Sta     Dist  EvAz     Phase      Date       Time     TRes  Azim  AzRes  Slow  SRes Def   SNR       Amp   Per   Mag1   Mag2       ID
MBDF  000.53 237.2 m E Pg      2011/12/28 13:57:25.9   0.7                          T                                        4808012
MBDF  000.53 237.2 m E Sg      2011/12/28 13:57:31.8  -0.5                          T               18.2  .31        Md 2.0  4807997
LPG   000.66 316.8 m E Pg      2011/12/28 13:57:27.9   0.1                          T                                        4808009
LPG   000.66 316.8 m E Sg      2011/12/28 13:57:35.9  -0.7                          T                                        4808000
LPG   000.66 316.8 m E Sn      2011/12/28 13:57:38.4  -0.6                          T               15.4  .20        Md 1.9  4808001
LPL   000.69 317.1 m E Pg      2011/12/28 13:57:28.2   0.0                          T                                        4808010
LPL   000.69 317.1 m E Sg      2011/12/28 13:57:36.5  -0.7                          T               27.2  .32                4807999
ORIF  001.08 265.3 m E Pg      2011/12/28 13:57:35.3   0.0                          T                                        4808011
ORIF  001.08 265.3 m E Sg      2011/12/28 13:57:48.7  -0.6                          T               13.6  .36 Ml 2.4         4807998
SBF   001.15 178.6 m E Pg      2011/12/28 13:57:36.5  -0.1                          T                                        4808006
SBF   001.15 178.6 m E Sg      2011/12/28 13:57:51.4  -0.2                          T                3.2  .24 Ml 2.0         4808005
FRF   001.55 200.6 m E Pg      2011/12/28 13:57:43.7  -0.1                          T                                        4808008
FRF   001.55 200.6 m E Sg      2011/12/28 13:58:04.0   0.2                          T                4.7  .28 Ml 2.3         4808003
LMR   001.80 201.1 m E Pg      2011/12/28 13:57:48.2  -0.2                          T                                        4808007
LMR   001.80 201.1 m E Sg      2011/12/28 13:58:11.4  -0.2                          T                1.0  .24 Ml 1.8         4808004
SMRF  001.67 232.1 m E Sg      2011/12/28 13:58:07.5   0.0                          T                 .5  .22 Ml 1.4         4808002
VIVF  001.94 266.2 m E Sg      2011/12/28 13:58:16.3   0.3                          T                2.2  .35 Ml 2.0         4807996

.
