EVENT     255935
    Date      Time       Latitude Longitude    Depth    Ndef Nsta Gap    Mag1  N    Mag2  N    Mag3  N   Author         ID
       rms   OT_Error      Smajor Sminor Az        Err   mdist  Mdist     Err        Err        Err      Quality

2011/02/14 06:02:58.2     32.1906   -6.1348     30.0     157   42 059  Ml 3.9  5                         js067245    255955

      1.49   +-  0.29       7.2    6.7   81.10 +-  0.0    0.30  86.59   +-0.6                            m i ke

MOROCCO
Sta     Dist  EvAz     Phase      Date       Time     TRes  Azim  AzRes  Slow  SRes Def   SNR       Amp   Per   Mag1   Mag2       ID
ETSF  011.56 020.9 m E Pn      2011/02/14 06:05:41.6   2.6                          T                                        4646812
ETSF  011.56 020.9 m E Sn      2011/02/14 06:07:41.9   2.1                          T                8.1  .39 Ml 4.3         4646778
SJPF  011.57 018.2 m E Pn      2011/02/14 06:05:42.5   3.5                          T                                        4646811
SJPF  011.57 018.2 m E Sn      2011/02/14 06:07:42.3   2.3                          T               23.6  .65 Ml 4.5         4646777
EPF   011.97 023.5 m E Pn      2011/02/14 06:05:46.5   2.1                          T                                        4646813
MTLF  012.93 028.3 m E Pn      2011/02/14 06:05:59.0   1.4                          T                                        4646809
LFF   013.81 020.9 m E Pn      2011/02/14 06:06:09.3  -0.1                          T                                        4646808
CAF   014.23 024.3 m E Pn      2011/02/14 06:06:16.3   1.1                          T                                        4646810
RJF   014.38 022.2 m E Pn      2011/02/14 06:06:17.3   0.1                          T                                        4646807
LMR   014.94 038.3 m E Pn      2011/02/14 06:06:23.8  -1.0                          T                                        4646821
SMRF  014.93 034.7 m E Pn      2011/02/14 06:06:23.9  -0.8                          T                                        4646819
FRF   015.17 037.9 m E Pn      2011/02/14 06:06:27.0  -0.9                          T                                        4646820
FRF   015.17 037.9 m E Sn      2011/02/14 06:09:06.2   0.4                          T                7.8  .68 Ml 4.2         4646779
MFF   015.11 016.0 m E Pn      2011/02/14 06:06:27.5   0.3                          T                                        4646806
VIVF  015.19 030.6 m E Pn      2011/02/14 06:06:28.0  -0.4                          T                                        4646814
TCF   015.48 022.2 m E Pn      2011/02/14 06:06:31.6  -0.6                          T                                        4646783
SBF   015.79 038.6 m E Pn      2011/02/14 06:06:35.6  -0.8                          T                                        4646822
ORIF  015.78 032.9 m E Pn      2011/02/14 06:06:35.9  -0.6                          T                                        4646816
PGF   015.84 045.0 m E Pn      2011/02/14 06:06:35.9  -1.3                          T                                        4646823
QUIF  015.87 007.3 m E Pn      2011/02/14 06:06:38.4   1.0                          T                                        4646802
BGF   015.92 023.1 m E Pn      2011/02/14 06:06:39.1   0.9                          T                                        4646798
MBDF  016.06 035.1 m E Pn      2011/02/14 06:06:39.8  -0.5                          T                                        4646815
AVF   016.30 023.8 m E Pn      2011/02/14 06:06:43.0  -0.3                          T                                        4646796
SMF   016.34 025.1 m E Pn      2011/02/14 06:06:43.5  -0.5                          T                                        4646797
SGMF  016.27 008.6 m E Pn      2011/02/14 06:06:44.1   1.2                          T                                        4646801
ROSF  016.27 006.8 m E Pn      2011/02/14 06:06:45.0   2.0                          T                                        4646800
HYF   016.48 021.5 m E Pn      2011/02/14 06:06:45.3  -0.5                          T                                        4646793
SSF   016.58 023.7 m E Pn      2011/02/14 06:06:46.8  -0.4                          T                                        4646782
LPG   016.62 033.3 m E Pn      2011/02/14 06:06:47.0  -1.1                          T                                        4646818
LPL   016.63 033.2 m E Pn      2011/02/14 06:06:47.8  -0.3                          T                                        4646817
GRR   016.67 012.3 m E Pn      2011/02/14 06:06:49.8   1.5                          T                                        4646805
LOR   016.88 024.0 m E Pn      2011/02/14 06:06:50.6  -0.7                          T                                        4646781
LOR   016.88 024.0 m E Sn      2011/02/14 06:09:48.7   1.9                          T                 .5  .39 Ml 3.1         4646780
LDF   017.00 013.8 m E Pn      2011/02/14 06:06:54.4   1.5                          T                                        4646804
FLN   017.09 012.8 m E Pn      2011/02/14 06:06:54.4   0.3                          T                                        4646803
CABF  017.19 029.6 m E Pn      2011/02/14 06:06:54.5  -1.1                          T                                        4646795
MEZF  018.36 024.2 m E Pn      2011/02/14 06:07:12.7   0.5                          T                                        4646790
HAU   018.42 027.3 m E Pn      2011/02/14 06:07:12.8  -0.2                          T                                        4646792
HINF  018.47 028.6 m E Pn      2011/02/14 06:07:13.6   0.0                          T                                        4646794
THEF  018.47 026.3 m E Pn      2011/02/14 06:07:13.7   0.1                          T                                        4646791
PAGF  018.64 025.3 m E Pn      2011/02/14 06:07:15.6   0.0                          T                                        4646789
CDF   019.11 028.2 m E Pn      2011/02/14 06:07:21.2  -0.1                          T                                        4646788
BAIF  019.44 020.3 m E Pn      2011/02/14 06:07:24.8  -0.1                          T                                        4646785
GIVF  019.67 021.3 m E Pn      2011/02/14 06:07:27.1  -0.3                          T                                        4646784
LANF  019.78 028.0 m E Pn      2011/02/14 06:07:27.6  -1.1                          T                                        4646787
RUP   020.08 025.6 m E Pn      2011/02/14 06:07:31.2  -0.8                          T                                        4646786

.
EVENT     255998
    Date      Time       Latitude Longitude    Depth    Ndef Nsta Gap    Mag1  N    Mag2  N    Mag3  N   Author         ID
       rms   OT_Error      Smajor Sminor Az        Err   mdist  Mdist     Err        Err        Err      Quality

2011/02/14 08:36:01.2     42.8588    -.1494      2.0       7    4 204  Ml 1.9  1  Md 1.7  2              js067245    256018

      0.17   +-  0.20       9.5    1.0  174.29 +-  0.0    0.30   1.80   +-         +-0.0                 m i ke

PYRENEES
Sta     Dist  EvAz     Phase      Date       Time     TRes  Azim  AzRes  Slow  SRes Def   SNR       Amp   Per   Mag1   Mag2       ID
ETSF  000.30 277.7 m E Pg      2011/02/14 08:36:07.3   0.0                          T                                        4647946
ETSF  000.30 277.7 m E Sg      2011/02/14 08:36:10.9  -0.5                          T               46.4  .30        Md 1.7  4647944
EPF   000.40 064.3 m E Pg      2011/02/14 08:36:09.0   0.0                          T                                        4647945
EPF   000.40 064.3 m E Sg      2011/02/14 08:36:14.1  -0.1                          T               18.4  .36        Md 1.7  4647943
SJPF  000.83 288.2 m E Pg      2011/02/14 08:36:16.8  -0.1                          T                                        4649669
SJPF  000.83 288.2 m E Sg      2011/02/14 08:36:27.8   0.1                          T                2.4  .22                4647941
MTLF  001.80 073.7 m E Sg      2011/02/14 08:36:57.8  -0.2                          T                1.4  .24 Ml 1.9         4647949

.
EVENT     255999
    Date      Time       Latitude Longitude    Depth    Ndef Nsta Gap    Mag1  N    Mag2  N    Mag3  N   Author         ID
       rms   OT_Error      Smajor Sminor Az        Err   mdist  Mdist     Err        Err        Err      Quality

2011/02/14 09:27:56.0     42.7944   -1.2461      2.0       6    3 284  Ml 1.6  1  Md 1.4  2              js067245    256019

      0.11   +-  0.21       4.5    1.5   38.58 +-  0.0    0.32   1.19   +-         +-0.1                 m i ke

PYRENEES
Sta     Dist  EvAz     Phase      Date       Time     TRes  Azim  AzRes  Slow  SRes Def   SNR       Amp   Per   Mag1   Mag2       ID
SJPF  000.32 002.8 m E Pg      2011/02/14 09:28:02.2   0.0                          T                                        4647956
SJPF  000.32 002.8 m E Sg      2011/02/14 09:28:06.4  -0.1                          T               14.2  .22        Md 1.4  4647952
ETSF  000.52 078.1 m E Pg      2011/02/14 09:28:05.7  -0.2                          T                                        4647955
ETSF  000.52 078.1 m E Sg      2011/02/14 09:28:12.6  -0.1                          T                4.3  .36        Md 1.5  4647953
EPF   001.19 078.0 m E Pg      2011/02/14 09:28:18.3   0.0                          T                                        4647951
EPF   001.19 078.0 m E Sg      2011/02/14 09:28:33.7   0.0                          T                 .9  .20 Ml 1.6         4647954

.
