BEGIN GSE2.0
MSG_TYPE DATA
MSG_ID 22-SEP-1114:30:24  FRA_NDC
E-MAIL
DATA_TYPE BULLETIN
Reviewed Bulletin (REB) # P2011-035  from French NDC for regional phases     PERIOD 31 AUG 2011 TO 06 SEP 2011 N P., J-P S.
EVENT     263360
    Date      Time       Latitude Longitude    Depth    Ndef Nsta Gap    Mag1  N    Mag2  N    Mag3  N   Author         ID
       rms   OT_Error      Smajor Sminor Az        Err   mdist  Mdist     Err        Err        Err      Quality

2011/08/31 04:53:04.1     48.1269   -3.0539      2.0      12    6 125  Ml 1.7  3  Md 1.7  3              js067245    263360

      0.89   +-  0.12       2.4    1.8  165.49 +-  0.0    0.22   2.01   +-0.0      +-0.1                 m i ke

FRANCE
Sta     Dist  EvAz     Phase      Date       Time     TRes  Azim  AzRes  Slow  SRes Def   SNR       Amp   Per   Mag1   Mag2       ID
QUIF  000.22 199.7 m E Pg      2011/08/31 04:53:08.9   0.4                          T                                        4743081
QUIF  000.22 199.7 m E Sg      2011/08/31 04:53:12.0   0.5                          T                2.6  .20        Md 1.8  4743080
ROSF  000.26 325.1 m E Pg      2011/08/31 04:53:09.0  -0.1                          T                                        4743083
ROSF  000.26 325.1 m E Sg      2011/08/31 04:53:12.3  -0.3                          T                5.2  .23        Md 1.7  4743078
SGMF  000.36 068.8 m E Pg      2011/08/31 04:53:11.0   0.1                          T                                        4743082
SGMF  000.36 068.8 m E Sg      2011/08/31 04:53:15.5  -0.3                          T                1.9  .21        Md 1.6  4743079
GRR   001.49 079.1 m E Pg      2011/08/31 04:53:31.5  -0.3                          T                                        4743089
GRR   001.49 079.1 m E Sg      2011/08/31 04:53:50.9  -0.2                          T                1.5  .22 Ml 1.7         4743090
FLN   001.83 068.7 m E Sg      2011/08/31 04:54:01.6   0.0                          T                1.2  .26 Ml 1.7         4743087
LDF   002.01 075.5 m E Sg      2011/08/31 04:54:07.0  -0.3                          T                 .7  .25 Ml 1.6         4743086

.
EVENT     263965
    Date      Time       Latitude Longitude    Depth    Ndef Nsta Gap    Mag1  N    Mag2  N    Mag3  N   Author         ID
       rms   OT_Error      Smajor Sminor Az        Err   mdist  Mdist     Err        Err        Err      Quality

2011/08/31 06:51:48.6     42.7539   -1.0763      2.0      23    3 085  Ml 1.0  1  Md 1.0  2              js067245    263966

      0.15   +-  0.04        .8     .6   52.93 +-  0.0    0.07   1.08   +-         +-0.3                 m i ke

PYRENEES
Sta     Dist  EvAz     Phase      Date       Time     TRes  Azim  AzRes  Slow  SRes Def   SNR       Amp   Per   Mag1   Mag2       ID
SJPF  000.38 343.1 m E Pg      2011/08/31 06:51:55.8  -0.1                          T                                        4755253
SJPF  000.38 343.1 m E Sg      2011/08/31 06:52:00.7  -0.1                          T                 .6  .23        Md 1.2  4755254
ETSF  000.41 069.0 m E Pg      2011/08/31 06:51:56.5   0.0                          T                                        4755251
ETSF  000.41 069.0 m E Sg      2011/08/31 06:52:01.8   0.0                          T                 .4  .28        Md  .7  4755252
EPF   001.08 074.7 m E Sg      2011/08/31 06:52:22.8   0.1                          T                 .3  .18 Ml 1.0         4755250

.
EVENT     263379
    Date      Time       Latitude Longitude    Depth    Ndef Nsta Gap    Mag1  N    Mag2  N    Mag3  N   Author         ID
       rms   OT_Error      Smajor Sminor Az        Err   mdist  Mdist     Err        Err        Err      Quality

2011/08/31 09:34:09.5     42.8430   -1.0816      2.0      41    5 070  Ml 2.0  2  Md 2.2  2              js067245    263379

      0.36   +-  0.06       1.2    1.0     .99 +-  0.0    0.11   3.80   +-0.2      +-0.1                 m i ke

PYRENEES
Sta     Dist  EvAz     Phase      Date       Time     TRes  Azim  AzRes  Slow  SRes Def   SNR       Amp   Per   Mag1   Mag2       ID
SJPF  000.29 338.8 m E Pg      2011/08/31 09:34:15.1  -0.1                          T                                        4743163
SJPF  000.29 338.8 m E Sg      2011/08/31 09:34:18.7  -0.4                          T               39.6  .30        Md 2.2  4743161
ETSF  000.39 081.6 m E Pg      2011/08/31 09:34:16.8  -0.2                          T                                        4743162
ETSF  000.39 081.6 m E Sg      2011/08/31 09:34:22.6   0.4                          T                8.7  .22        Md 2.1  4743160
EPF   001.06 079.4 m E Pg      2011/08/31 09:34:29.3  -0.1                          T                                        4743159
EPF   001.06 079.4 m E Sg      2011/08/31 09:34:43.1  -0.1                          T                5.4  .24 Ml 2.2         4743158
LASF  003.80 069.4 m E Pg      2011/08/31 09:35:19.4  -0.5                          T                                        4743156
LASF  003.80 069.4 m E Sg      2011/08/31 09:36:08.3  -0.4                          T                                        4743157
MTLF  002.47 077.2 m E Sg      2011/08/31 09:35:26.9  -0.1                          T                1.1  .31 Ml 1.9         4743155

.
EVENT     263382
    Date      Time       Latitude Longitude    Depth    Ndef Nsta Gap    Mag1  N    Mag2  N    Mag3  N   Author         ID
       rms   OT_Error      Smajor Sminor Az        Err   mdist  Mdist     Err        Err        Err      Quality

2011/08/31 16:34:33.4     48.0204     .2088      2.0      18    9 149  Ml 2.1  7  Md 2.1  2              js067245    263382

      0.48   +-  0.12       2.7    1.6   56.74 +-  0.0    0.61   2.35   +-0.4      +-0.1                 m i ke

FRANCE
Sta     Dist  EvAz     Phase      Date       Time     TRes  Azim  AzRes  Slow  SRes Def   SNR       Amp   Per   Mag1   Mag2       ID
LDF   000.61 339.1 m E Pg      2011/08/31 16:34:45.2   0.1                          T                                        4743179
LDF   000.61 339.1 m E Sg      2011/08/31 16:34:52.6  -0.5                          T                2.0  .21                4743173
GRR   000.80 297.7 m E Pg      2011/08/31 16:34:48.5   0.1                          T                                        4743180
GRR   000.80 297.7 m E Sg      2011/08/31 16:34:58.4  -0.6                          T               14.9  .23        Md 2.2  4743176
FLN   000.87 328.5 m E Pg      2011/08/31 16:34:49.9   0.1 150.5  2.5               T                                        4743178
FLN   000.87 328.5 m E Sg      2011/08/31 16:35:01.5   0.4 149.7  1.8               T                5.2  .17 Ml 2.1 Md 2.0  4743174
MFF   001.44 189.8 m E Pg      2011/08/31 16:35:00.8   0.5                          T                                        4743177
MFF   001.44 189.8 m E Sg      2011/08/31 16:35:19.2   0.4                          T                4.0  .17 Ml 2.6         4743175
SGMF  001.87 278.2 m E Pg      2011/08/31 16:35:07.6  -0.5                          T                                        4743168
SGMF  001.87 278.2 m E Sg      2011/08/31 16:35:32.4   0.2                          T                3.3  .26 Ml 2.3         4743172
QUIF  002.27 268.6 m E Pg      2011/08/31 16:35:15.4  -0.1                          T                                        4743170
QUIF  002.27 268.6 m E Sg      2011/08/31 16:35:44.2  -0.5                          T                 .8  .21 Ml 1.8         4743171
BGF   002.32 128.2 m E Pg      2011/08/31 16:35:16.4   0.0                          T                                        4743169
TCF   002.21 141.0 m E Sg      2011/08/31 16:35:41.8  -1.0                          T                1.0  .31 Ml 1.8         4743167
ROSF  002.35 279.0 m E Sg      2011/08/31 16:35:48.4   1.1                          T                 .4  .21 Ml 1.6         4755302

.
EVENT     263383
    Date      Time       Latitude Longitude    Depth    Ndef Nsta Gap    Mag1  N    Mag2  N    Mag3  N   Author         ID
       rms   OT_Error      Smajor Sminor Az        Err   mdist  Mdist     Err        Err        Err      Quality

2011/08/31 19:11:54.6     42.6873    2.1038     10.0      21   10 084  Ml 2.1  7  Md 2.2  1              js067245    263383

      0.79   +-  0.09       1.6    1.5  156.80 +-  0.0    0.03   3.47   +-0.3      +-                    m i ke

PYRENEES
Sta     Dist  EvAz     Phase      Date       Time     TRes  Azim  AzRes  Slow  SRes Def   SNR       Amp   Per   Mag1   Mag2       ID
MTLF  000.66 007.2 m E Pg      2011/08/31 19:12:07.0  -0.2                          T                                        4755304
MTLF  000.66 007.2 m E Pn      2011/08/31 19:12:08.4  -0.2                          T                                        4755305
MTLF  000.66 007.2 m E Sg      2011/08/31 19:12:15.7  -0.2                          T                                        4743199
MTLF  000.66 007.2 m E Sn      2011/08/31 19:12:18.0  -0.3                          T                8.0  .22        Md 2.2  4743195
EPF   001.34 285.4 m E Pn      2011/08/31 19:12:18.7   0.8                          T                                        4743193
EPF   001.34 285.4 m E Pg      2011/08/31 19:12:19.5  -0.3                          T                                        4743200
EPF   001.34 285.4 m E Sg      2011/08/31 19:12:36.8  -0.4                          T                3.2  .28 Ml 2.0         4743194
ETSF  001.97 277.0 m E Pg      2011/08/31 19:12:31.6   0.2                          T                                        4743198
ETSF  001.97 277.0 m E Sg      2011/08/31 19:12:56.4  -0.5                          T                3.2  .26 Ml 2.3         4743196
LFF   002.46 336.8 m E Pg      2011/08/31 19:12:40.3   0.0                          T                                        4743184
LFF   002.46 336.8 m E Sg      2011/08/31 19:13:11.7  -0.2                          T                7.0  .35 Ml 2.4         4743190
SJPF  002.48 281.0 m E Pg      2011/08/31 19:12:40.6  -0.2                          T                                        4743191
RJF   002.65 351.0 m E Pg      2011/08/31 19:12:44.0   0.1                          T                                        4743183
RJF   002.65 351.0 m E Sg      2011/08/31 19:13:17.7  -0.2                          T                2.1  .24 Ml 2.0         4743189
FRF   003.44 073.8 m E Pg      2011/08/31 19:12:58.6   0.2                          T                                        4743185
CAF   002.24 359.3 m E Sg      2011/08/31 19:13:04.7  -0.4                          T                2.3  .17 Ml 2.4         4743197
SMRF  002.84 061.9 m E Sg      2011/08/31 19:13:23.7  -0.2                          T                 .4  .20 Ml 1.7         4743186
VIVF  002.86 039.8 m E Sg      2011/08/31 19:13:24.2  -0.2                          T                1.7  .24 Ml 2.2         4743187

.
EVENT     263387
    Date      Time       Latitude Longitude    Depth    Ndef Nsta Gap    Mag1  N    Mag2  N    Mag3  N   Author         ID
       rms   OT_Error      Smajor Sminor Az        Err   mdist  Mdist     Err        Err        Err      Quality

2011/08/31 19:22:01.8     42.6912    2.0817     10.0      10    5 087  Ml 1.8  4  Md 1.8  1              js067245    263387

      0.82   +-  0.09       1.9    1.8   55.35 +-  0.0    0.04   2.47   +-0.2      +-                    m i ke

PYRENEES
Sta     Dist  EvAz     Phase      Date       Time     TRes  Azim  AzRes  Slow  SRes Def   SNR       Amp   Per   Mag1   Mag2       ID
MTLF  000.66 008.7 m E Pg      2011/08/31 19:22:14.5   0.2                          T                                        4743210
MTLF  000.66 008.7 m E Sg      2011/08/31 19:22:22.6  -0.4                          T                3.2  .26        Md 1.8  4743208
EPF   001.32 285.4 m E Pg      2011/08/31 19:22:26.7   0.1                          T                                        4743209
EPF   001.32 285.4 m E Sg      2011/08/31 19:22:43.3  -0.5                          T                1.4  .28 Ml 1.7         4743207
ETSF  001.95 277.0 m E Pg      2011/08/31 19:22:38.3   0.1                          T                                        4743205
ETSF  001.95 277.0 m E Sg      2011/08/31 19:23:03.1  -0.4                          T                 .8  .25 Ml 1.7         4743206
CAF   002.23 359.7 m E Sg      2011/08/31 19:23:11.3  -0.9                          T                1.3  .23 Ml 2.0         4743204
SJPF  002.47 281.0 m E Sg      2011/08/31 19:23:19.1  -0.2                          T                 .6  .24 Ml 1.7         4743203

.
EVENT     263385
    Date      Time       Latitude Longitude    Depth    Ndef Nsta Gap    Mag1  N    Mag2  N    Mag3  N   Author         ID
       rms   OT_Error      Smajor Sminor Az        Err   mdist  Mdist     Err        Err        Err      Quality

2011/09/01 02:50:30.4     46.3153    8.5596      9.0 f    64   19 059  Ml 2.6 20  Md 2.7  2              js067245    263385

      0.55   +-  0.08       1.7    1.2  147.77 +-  0.0    0.16   4.40   +-0.3      +-0.0                 m i ke

SWITZERLAND
Sta     Dist  EvAz     Phase      Date       Time     TRes  Azim  AzRes  Slow  SRes Def   SNR       Amp   Per   Mag1   Mag2       ID
LPL   001.51 238.6 m E P       2011/09/01 02:50:57.6  -0.5                          T                                        4755597
LPL   001.51 238.6 m E Pg      2011/09/01 02:50:58.9   0.1                          T                                        4743266
LPL   001.51 238.6 m E Sg      2011/09/01 02:51:18.6   0.4                          T               17.9  .42 Ml 2.7 Md 2.7  4743262
LPG   001.50 237.7 m E P       2011/09/01 02:50:57.8  -0.4                          T                                        4755598
LPG   001.50 237.7 m E Pg      2011/09/01 02:50:58.8   0.0                          T                                        4743265
LPG   001.50 237.7 m E Sg      2011/09/01 02:51:18.4   0.1                          T                7.4  .24 Ml 2.5         4743264
CABF  001.73 280.7 m E Pg      2011/09/01 02:51:02.8  -0.1                          T                                        4743216
CABF  001.73 280.7 m E Sg      2011/09/01 02:51:25.7   0.5                          T               22.7  .36 Ml 2.9 Md 2.7  4743212
HINF  001.90 322.8 m E P       2011/09/01 02:51:03.1  -0.5                          T                                        4755604
HINF  001.90 322.8 m E Pg      2011/09/01 02:51:06.2   0.4                          T                                        4743211
HINF  001.90 322.8 m E Sn      2011/09/01 02:51:24.4   0.4                          T                                        4743271
HINF  001.90 322.8 m E Sg      2011/09/01 02:51:30.3  -0.1                          T               12.2  .25 Ml 2.9         4743272
CDF   002.27 337.9 m E Pn      2011/09/01 02:51:07.9   1.4                          T                                        4743276
CDF   002.27 337.9 m E Pg      2011/09/01 02:51:13.1   0.4                          T                                        4743215
CDF   002.27 337.9 m E Sg      2011/09/01 02:51:42.0   0.0                          T                6.0  .28 Ml 2.7         4743277
HAU   002.27 319.1 m E P       2011/09/01 02:51:08.4  -0.4                          T                                        4755605
HAU   002.27 319.1 m E Pg      2011/09/01 02:51:12.3  -0.2                          T                                        4743275
HAU   002.27 319.1 m E Sn      2011/09/01 02:51:34.3   1.6                          T                                        4743273
HAU   002.27 319.1 m E Sg      2011/09/01 02:51:41.5  -0.2                          T               12.2  .27 Ml 2.7         4743274
ORIF  002.34 234.4 m E Pg      2011/09/01 02:51:13.5  -0.5                          T                                        4743267
ORIF  002.34 234.4 m E Sg      2011/09/01 02:51:44.1  -0.1                          T                8.8  .57 Ml 2.5         4755599
SBF   002.58 198.4 m E Pg      2011/09/01 02:51:17.7  -0.7                          T                                        4755593
SBF   002.58 198.4 m E Sg      2011/09/01 02:51:51.0  -0.5                          T                6.3  .46 Ml 2.5         4755596
PAGF  002.95 320.4 m E P       2011/09/01 02:51:18.3  -0.2                          T                                        4755603
PAGF  002.95 320.4 m E Pg      2011/09/01 02:51:25.2   0.0                          T                                        4743251
PAGF  002.95 320.4 m E Sg      2011/09/01 02:52:03.1   0.0                          T                 .8  .29 Ml 1.9         4743256
SFTF  003.05 309.5 m E P       2011/09/01 02:51:19.9  -0.1                          T                                        4755602
VIVF  003.09 243.3 m E P       2011/09/01 02:51:20.9   0.3                          T                                        4755600
VIVF  003.09 243.3 m E Pg      2011/09/01 02:51:28.6   0.8                          T                                        4743250
VIVF  003.09 243.3 m E Sg      2011/09/01 02:52:07.9   0.3                          T                3.2  .29 Ml 2.5         4743263
SMF   003.28 277.5 m E Pn      2011/09/01 02:51:20.9   0.8                          T                                        4743269
SMF   003.28 277.5 m E Pg      2011/09/01 02:51:31.3   0.2                          T                                        4743257
SMF   003.28 277.5 m E Sg      2011/09/01 02:52:12.8  -0.4                          T                3.7  .21 Ml 2.7         4743270
LOR   003.37 288.1 m E Pn      2011/09/01 02:51:22.3   1.0                          T                                        4743214
LOR   003.37 288.1 m E Pg      2011/09/01 02:51:33.1   0.3                          T                                        4743280
LOR   003.37 288.1 m E Sg      2011/09/01 02:52:14.5  -1.5                          T                3.8  .21 Ml 2.8         4743213
FRF   003.07 206.9 m E Pn      2011/09/01 02:51:27.1   9.9                          T                                        4755594
FRF   003.07 206.9 m E Sg      2011/09/01 02:52:06.8   0.0                          T                1.8  .30 Ml 2.3         4755595
AVF   003.62 279.4 m E Pn      2011/09/01 02:51:27.4   2.6                          T                                        4743258
AVF   003.62 279.4 m E Sg      2011/09/01 02:52:23.2  -0.8                          T                1.1  .26 Ml 2.2         4743259
BGF   003.96 275.6 m E P       2011/09/01 02:51:32.7  -0.1                          T                                        4755601
BGF   003.96 275.6 m E Pg      2011/09/01 02:51:43.5  -0.2                          T                                        4743268
BGF   003.96 275.6 m E Sg      2011/09/01 02:52:34.2  -0.2                          T                6.2  .38 Ml 2.8         4743260
TCF   004.40 271.9 m E Pn      2011/09/01 02:51:35.7   0.3                          T                                        4743252
TCF   004.40 271.9 m E Sg      2011/09/01 02:52:48.5   0.2                          T                1.4  .34 Ml 2.4         4743254
SSF   003.56 283.9 m E Pg      2011/09/01 02:51:36.5   0.2                          T                                        4743278
SSF   003.56 283.9 m E Sg      2011/09/01 02:52:21.2  -0.8                          T                4.3  .24 Ml 2.9         4743279
MEZF  003.23 313.8 m E Sg      2011/09/01 02:52:12.8   1.0                          T                4.0  .34 Ml 2.6         4743255

.
