EVENT     273397
    Date      Time       Latitude Longitude    Depth    Ndef Nsta Gap    Mag1  N    Mag2  N    Mag3  N   Author         ID
       rms   OT_Error      Smajor Sminor Az        Err   mdist  Mdist     Err        Err        Err      Quality

2012/04/11 21:17:14.8     41.5759    2.5892      4.0 f   163   34 098  Ml 3.2 23  Md 3.3  1              bulletin    273417
                                                                                                         _ldg
      0.80   +-  0.08       1.7    1.1  142.32 +-  0.0    0.22   7.93   +-0.3      +-                    m i ke

SPAIN
Sta     Dist  EvAz     Phase      Date       Time     TRes  Azim  AzRes  Slow  SRes Def   SNR       Amp   Per   Mag1   Mag2       ID
FBR   000.38 245.4 m E Pg      2012/04/11 21:17:22.3   0.1                          T                                        4908193
FBR   000.38 245.4 m E Sg      2012/04/11 21:17:27.7   0.4                          T                                        4908194
MTLF  001.79 351.3 m E Pn      2012/04/11 21:17:44.5  -0.1                          T                                        4907781
MTLF  001.79 351.3 m E P       2012/04/11 21:17:46.7  -0.1                          T                                        4912522
MTLF  001.79 351.3 m E Pg      2012/04/11 21:17:47.8  -0.2                          T                                        4912521
MTLF  001.79 351.3 m E Sn      2012/04/11 21:18:06.0  -0.4                          T                                        4912089
MTLF  001.79 351.3 m E Sg      2012/04/11 21:18:11.0   0.0                          T               27.3  .22 Ml 3.3 Md 3.3  4907780
EPF   002.21 311.8 m E Pn      2012/04/11 21:17:50.5   0.0                          T                                        4907782
EPF   002.21 311.8 m E P       2012/04/11 21:17:52.3  -0.6                          T                                        4912133
EPF   002.21 311.8 m E Pg      2012/04/11 21:17:55.7  -0.2                          T                                        4912519
EPF   002.21 311.8 m E Sg      2012/04/11 21:18:24.1  -0.3                          T              100.7  .22 Ml 3.9         4907783
LASF  002.67 020.0 m E Pn      2012/04/11 21:17:56.4  -0.3                          T                                        4907778
LASF  002.67 020.0 m E Sn      2012/04/11 21:18:26.8  -0.7                          T                                        4912520
LASF  002.67 020.0 m E Sg      2012/04/11 21:18:38.1  -0.4                          T               19.9  .30 Ml 3.2         4907779
ETSF  002.69 300.5 m E Pn      2012/04/11 21:17:57.8   0.8                          T                                        4907785
ETSF  002.69 300.5 m E Pg      2012/04/11 21:18:04.6  -0.1                          T                                        4912134
ETSF  002.69 300.5 m E Sg      2012/04/11 21:18:39.1  -0.1                          T               80.4  .38 Ml 3.7         4907784
SJPF  003.22 299.8 m E Pn      2012/04/11 21:18:05.5   1.3                          T                                        4907786
SJPF  003.22 299.8 m E Sg      2012/04/11 21:18:54.7  -1.0                          T               37.6  .32 Ml 3.5         4907787
SMRF  003.25 041.5 m E Pn      2012/04/11 21:18:05.6   0.9                          T                                        4912086
SMRF  003.25 041.5 m E Sg      2012/04/11 21:18:56.7  -0.1                          T               12.9  .26 Ml 3.2         4912087
CAF   003.37 353.6 m E Pn      2012/04/11 21:18:06.4   0.1                          T                                        4907789
CAF   003.37 353.6 m E Pg      2012/04/11 21:18:17.1  -0.1                          T                                        4912135
CAF   003.37 353.6 m E Sg      2012/04/11 21:19:00.3  -0.3                          T               14.7  .22 Ml 3.3         4907788
LMR   003.39 057.5 m E Pn      2012/04/11 21:18:06.7   0.2                          T                                        4912127
LMR   003.39 057.5 m E Sn      2012/04/11 21:18:43.7  -1.1                          T                7.5  .20 Ml 3.1         4912125
FRF   003.59 055.1 m E Pn      2012/04/11 21:18:09.4   0.1                          T                                        4912128
FRF   003.59 055.1 m E Sn      2012/04/11 21:18:49.5  -0.1                          T                2.7  .17 Ml 2.8         4912088
VIVF  003.62 024.2 m E Pn      2012/04/11 21:18:09.6   0.0                          T                                        4907813
VIVF  003.62 024.2 m E Sn      2012/04/11 21:18:49.9  -0.3                          T                                        4907812
VIVF  003.62 024.2 m E Sg      2012/04/11 21:19:08.3   0.1                          T               10.5  .26 Ml 3.2         4907811
LFF   003.62 338.7 m E Pn      2012/04/11 21:18:10.1   0.4                          T                                        4907790
LFF   003.62 338.7 m E Pg      2012/04/11 21:18:21.6  -0.3                          T                                        4912136
LFF   003.62 338.7 m E Sn      2012/04/11 21:18:50.7   0.4                          T                                        4912121
LFF   003.62 338.7 m E Sg      2012/04/11 21:19:08.5   0.1                          T               32.0  .24 Ml 3.5         4907791
RJF   003.81 348.5 m E Pn      2012/04/11 21:18:11.9  -0.3                          T                                        4907793
RJF   003.81 348.5 m E Pg      2012/04/11 21:18:24.8  -0.5                          T                                        4912090
RJF   003.81 348.5 m E Sg      2012/04/11 21:19:14.6   0.5                          T               11.8  .20 Ml 3.0         4907792
ORIF  004.12 034.6 m E Pn      2012/04/11 21:18:17.7   1.2                          T                                        4912131
ORIF  004.12 034.6 m E Sn      2012/04/11 21:19:02.6   0.4                          T                1.3  .25 Ml 2.4         4912145
SBF   004.24 055.8 m E Pn      2012/04/11 21:18:19.1   0.9                          T                                        4912126
SBF   004.24 055.8 m E Sn      2012/04/11 21:19:05.4   0.2                          T                9.6  .29 Ml 3.2         4912124
MBDF  004.39 042.8 m E Pn      2012/04/11 21:18:21.2   0.8                          T                                        4912132
TCF   004.72 356.8 m E Pn      2012/04/11 21:18:24.8   0.2                          T                                        4912106
TCF   004.72 356.8 m E Pg      2012/04/11 21:18:41.9  -0.2                          T                                        4912107
TCF   004.72 356.8 m E Sg      2012/04/11 21:19:42.8   0.2                          T                8.1  .39 Ml 3.2         4912108
PGF   004.87 076.4 m E Pn      2012/04/11 21:18:25.6  -1.2                          T                                        4912122
PGF   004.87 076.4 m E Sn      2012/04/11 21:19:18.6  -1.7                          T               18.9  .55 Ml 3.6         4912123
BGF   004.98 002.0 m E Pn      2012/04/11 21:18:28.7   0.5                          T                                        4912113
BGF   004.98 002.0 m E Pg      2012/04/11 21:18:46.6  -0.3                          T                                        4912112
BGF   004.98 002.0 m E Sg      2012/04/11 21:19:51.9   1.1                          T               18.4  .40 Ml 3.5         4912109
LPL   004.96 036.0 m E Pn      2012/04/11 21:18:29.0   0.8                          T                                        4912130
LPG   004.95 036.3 m E Pn      2012/04/11 21:18:29.2   1.1                          T                                        4912129
LPG   004.95 036.3 m E Sn      2012/04/11 21:19:22.0  -0.5                          T                                        4912085
SMF   005.15 009.7 m E Pn      2012/04/11 21:18:30.4  -0.1                          T                                        4912111
SMF   005.15 009.7 m E Sg      2012/04/11 21:19:55.3  -0.6                          T                3.4  .37 Ml 2.9         4912110
AVF   005.24 005.8 m E Pn      2012/04/11 21:18:32.7   1.0                          T                                        4912095
AVF   005.24 005.8 m E Pg      2012/04/11 21:18:53.3   1.6                          T                                        4912096
AVF   005.24 005.8 m E Sg      2012/04/11 21:19:58.3  -0.6                          T                3.2  .45 Ml 2.8         4912097
MFF   005.40 339.5 m E Pn      2012/04/11 21:18:34.1   0.3                          T                                        4912120
MFF   005.40 339.5 m E Pg      2012/04/11 21:18:54.5   0.0                          T                                        4912119
MFF   005.40 339.5 m E Sn      2012/04/11 21:19:33.4   0.6                          T                                        4912118
MFF   005.40 339.5 m E Sg      2012/04/11 21:20:03.0  -0.7                          T               10.7  .54 Ml 3.4         4912117
SSF   005.52 006.5 m E Pn      2012/04/11 21:18:35.8   0.3                          T                                        4912103
SSF   005.52 006.5 m E Pg      2012/04/11 21:18:57.0   0.1                          T                                        4912105
SSF   005.52 006.5 m E Sg      2012/04/11 21:20:08.2   0.5                          T                2.8  .32 Ml 3.0         4912104
CABF  005.63 025.4 m E Pn      2012/04/11 21:18:37.1   0.0                          T                                        4912099
CABF  005.63 025.4 m E Sg      2012/04/11 21:20:10.9  -0.1                          T                                        4912098
LOR   005.76 008.6 m E Pn      2012/04/11 21:18:39.2   0.4                          T                                        4912084
LOR   005.76 008.6 m E Pg      2012/04/11 21:19:01.4   0.1                          T                                        4912101
LOR   005.76 008.6 m E Sg      2012/04/11 21:20:15.8   0.6                          T                2.6  .35 Ml 2.9         4912102
HINF  006.94 024.5 m E Pn      2012/04/11 21:18:54.3  -0.6                          T                                        4912100
GRR   007.24 341.4 m E Pn      2012/04/11 21:18:58.4  -0.4                          T                                        4912116
LDF   007.27 345.6 m E Pn      2012/04/11 21:18:59.2  -0.2                          T                                        4912115
QUIF  007.55 329.1 m E Pn      2012/04/11 21:19:03.3   0.2                          T                                        4912093
QUIF  007.55 329.1 m E Sn      2012/04/11 21:20:25.1   1.0                          T                                        4912091
SGMF  007.61 333.1 m E Pn      2012/04/11 21:19:04.1   0.2                          T                                        4912094
SGMF  007.61 333.1 m E Sn      2012/04/11 21:20:25.6   0.1                          T                                        4912092
ROSF  007.93 330.4 m E Pn      2012/04/11 21:19:08.7   0.3                          T                                        4912114
HYF   005.69 000.3 m E Sg      2012/04/11 21:20:14.5   1.5                          T                                        4912146

.
EVENT     273398
    Date      Time       Latitude Longitude    Depth    Ndef Nsta Gap    Mag1  N    Mag2  N    Mag3  N   Author         ID
       rms   OT_Error      Smajor Sminor Az        Err   mdist  Mdist     Err        Err        Err      Quality

2012/04/12 04:04:28.5     44.3727   10.6848      2.0     140   29 031  Ml 3.5 22                         bulletin    273418
                                                                                                         _ldg
      1.24   +-  0.10       2.9    2.3   39.74 +-  0.0    0.20   7.93   +-0.2                            m i ke

NORTHERN ITALY
Sta     Dist  EvAz     Phase      Date       Time     TRes  Azim  AzRes  Slow  SRes Def   SNR       Amp   Per   Mag1   Mag2       ID
PGF   002.20 214.5 m E Pn      2012/04/12 04:05:03.1  -1.2                          T                                        4907834
PGF   002.20 214.5 m E Sn      2012/04/12 04:05:27.6  -2.9                          T               48.2  .39 Ml 3.6         4907835
SBF   002.40 258.8 m E Pn      2012/04/12 04:05:06.1  -0.9                          T                                        4907833
SBF   002.40 258.8 m E Sn      2012/04/12 04:05:34.9  -0.3                          T              139.3  .42 Ml 3.8         4907822
MBDF  002.82 278.6 m E Pn      2012/04/12 04:05:13.1   0.3                          T                                        4907826
MBDF  002.82 278.6 m E P       2012/04/12 04:05:15.8   0.2                          T                                        4912266
FRF   003.03 255.8 m E Pn      2012/04/12 04:05:14.7  -0.8                          T                                        4907831
FRF   003.03 255.8 m E Sn      2012/04/12 04:05:49.2  -1.0                          T               54.5  .38 Ml 3.6         4907837
LPG   003.01 293.3 m E Pn      2012/04/12 04:05:15.6   0.0                          T                                        4912268
LPG   003.01 293.3 m E P       2012/04/12 04:05:18.2  -0.3                          T                                        4907829
LPL   003.03 293.6 m E Pn      2012/04/12 04:05:16.1   0.3                          T                                        4907828
LPL   003.03 293.6 m E P       2012/04/12 04:05:19.6   0.9                          T                                        4912267
LMR   003.19 252.5 m E Pn      2012/04/12 04:05:16.6  -1.2                          T                                        4907832
LMR   003.19 252.5 m E Sn      2012/04/12 04:05:52.8  -1.3                          T               34.8  .27 Ml 3.6         4907821
ORIF  003.47 280.7 m E P       2012/04/12 04:05:24.0  -0.8                          T                                        4907827
ORIF  003.47 280.7 m E Sn      2012/04/12 04:06:02.5   1.5                          T               45.4  .58 Ml 3.4         4907836
SMRF  003.70 265.6 m E Pn      2012/04/12 04:05:25.7   1.0                          T                                        4907830
SMRF  003.70 265.6 m E Sn      2012/04/12 04:06:07.6   1.3                          T               22.5  .46 Ml 3.3         4907814
CABF  003.93 306.3 m E Pn      2012/04/12 04:05:29.5   1.5                          T                                        4907848
CABF  003.93 306.3 m E Sn      2012/04/12 04:06:14.3   2.4                          T               16.3  .48 Ml 3.2         4907816
HINF  004.36 323.6 m E Pn      2012/04/12 04:05:34.1   0.5                          T                                        4907849
HINF  004.36 323.6 m E Sn      2012/04/12 04:06:22.6   0.6                          T               35.8  .44 Ml 3.6         4907841
VIVF  004.32 278.5 m E Pn      2012/04/12 04:05:34.4   1.3                          T                                        4907825
CDF   004.68 330.9 m E Pn      2012/04/12 04:05:38.4   0.3                          T                                        4907855
CDF   004.68 330.9 m E Sn      2012/04/12 04:06:31.3   1.5                          T               13.2  .40 Ml 3.4         4907818
HAU   004.72 321.9 m E Pn      2012/04/12 04:05:39.4   0.8                          T                                        4907852
HAU   004.72 321.9 m E Sn      2012/04/12 04:06:31.3   0.7                          T               67.3  .48 Ml 3.7         4907840
LASF  004.92 268.9 m E Pn      2012/04/12 04:05:41.2  -0.1                          T                                        4907824
LANF  005.02 337.8 m E Pn      2012/04/12 04:05:43.8   1.2                          T                                        4907838
LANF  005.02 337.8 m E Sn      2012/04/12 04:06:39.3   1.5                          T               14.8  .34 Ml 3.5         4907839
THEF  005.04 321.5 m E Pn      2012/04/12 04:05:44.3   1.3                          T                                        4907853
SMF   005.32 297.7 m E Pn      2012/04/12 04:05:47.6   0.8                          T                                        4907846
SMF   005.32 297.7 m E P       2012/04/12 04:05:51.0   0.1                          T                                        4912265
SMF   005.32 297.7 m E Sn      2012/04/12 04:06:45.5   0.5                          T               16.1  .46 Ml 3.5         4907842
PAGF  005.41 322.4 m E Pn      2012/04/12 04:05:49.6   1.7 140.9  2.1               T                                        4907854
SFTF  005.48 316.4 m E Pn      2012/04/12 04:05:50.4   1.5 129.1  -3.2              T                                        4907851
SFTF  005.48 316.4 m E Sn      2012/04/12 04:06:50.7   2.0                          T               10.2  .44 Ml 3.3         4907819
LOR   005.58 303.7 m E Pn      2012/04/12 04:05:51.6   1.3 125.2  6.4               T                                        4907861
LOR   005.58 303.7 m E Sn      2012/04/12 04:06:52.7   1.5                          T               21.4  .42 Ml 3.7         4907860
MEZF  005.67 318.7 m E Pn      2012/04/12 04:05:52.8   1.3 140.3  5.7               T                                        4907850
SSF   005.70 300.7 m E Pn      2012/04/12 04:05:53.0   1.1                          T                                        4907857
SSF   005.70 300.7 m E Sn      2012/04/12 04:06:55.3   1.3                          T               11.7  .60 Ml 3.4         4907859
AVF   005.69 297.7 m E Pn      2012/04/12 04:05:53.1   1.4                          T                                        4907847
AVF   005.69 297.7 m E Sn      2012/04/12 04:06:55.8   2.1                          T                5.6  .44 Ml 3.1         4907817
BGF   005.93 294.4 m E Pn      2012/04/12 04:05:56.3   1.2                          T                                        4907844
BGF   005.93 294.4 m E Sn      2012/04/12 04:06:59.9   0.4                          T               21.5  .50 Ml 3.7         4907843
MTLF  006.21 263.4 m E Pn      2012/04/12 04:05:59.3   0.4                          T                                        4907823
MTLF  006.21 263.4 m E Sn      2012/04/12 04:07:06.4   0.1                          T                3.8  .43 Ml 3.1         4907815
CAF   006.18 278.1 m E Pn      2012/04/12 04:05:59.6   1.2                          T                                        4907820
TCF   006.27 290.7 m E Pn      2012/04/12 04:06:00.9   1.2                          T                                        4907856
TCF   006.27 290.7 m E Sn      2012/04/12 04:07:09.5   1.6                          T                7.7  .54 Ml 3.3         4907858
HYF   006.32 300.1 m E Pn      2012/04/12 04:06:02.5   2.1                          T                                        4907845

.
