EVENT     284885
    Date      Time       Latitude Longitude    Depth    Ndef Nsta Gap    Mag1  N    Mag2  N    Mag3  N   Author         ID
       rms   OT_Error      Smajor Sminor Az        Err   mdist  Mdist     Err        Err        Err      Quality

2012/10/11 00:40:53.9     43.0293    -.0588      2.0      44    8 095  Ml 1.7  7  Md 1.7  2              bulletin    284985
                                                                                                         _ldg
      0.43   +-  0.04        .9     .7  167.23 +-  0.0    0.29   4.09   +-0.4      +-0.1                 m i ke

PYRENEES
Sta     Dist  EvAz     Phase      Date       Time     TRes  Azim  AzRes  Slow  SRes Def   SNR       Amp   Per   Mag1   Mag2       ID
EPF   000.29 089.7 m E Pg      2012/10/11 00:40:59.6   0.0                          T                                        5094652
EPF   000.29 089.7 m E Sg      2012/10/11 00:41:03.6   0.0                          T               10.4  .26        Md 1.6  5094649
ETSF  000.39 250.6 m E Pg      2012/10/11 00:41:01.6   0.2                          T                                        5094651
ETSF  000.39 250.6 m E Sg      2012/10/11 00:41:07.0   0.3                          T                8.2  .20        Md 1.7  5094650
SJPF  000.86 276.0 m E Pg      2012/10/11 00:41:10.0   0.0                          T                                        5094648
SJPF  000.86 276.0 m E Sg      2012/10/11 00:41:21.1  -0.2                          T                1.3  .22 Ml 1.5         5094646
MTLF  001.69 078.6 m E Pn      2012/10/11 00:41:22.9   0.2                          T                                        5094645
MTLF  001.69 078.6 m E Pg      2012/10/11 00:41:25.5   0.1                          T                                        5094644
MTLF  001.69 078.6 m E Sn      2012/10/11 00:41:43.6  -0.1                          T                                        5094643
MTLF  001.69 078.6 m E Sg      2012/10/11 00:41:47.4   0.2                          T                 .3  .19 Ml 1.4         5094642
LFF   001.99 016.5 m E Pn      2012/10/11 00:41:27.0   0.2                          T                                        5094641
LFF   001.99 016.5 m E Pg      2012/10/11 00:41:31.0   0.1                          T                                        5094640
LFF   001.99 016.5 m E Sn      2012/10/11 00:41:50.9   0.0                          T                                        5094639
LFF   001.99 016.5 m E Sg      2012/10/11 00:41:56.7   0.1                          T                1.7  .29 Ml 1.8         5094638
CAF   002.44 038.2 m E Pn      2012/10/11 00:41:32.9   0.0                          T                                        5094637
CAF   002.44 038.2 m E Pg      2012/10/11 00:41:38.9  -0.3                          T                                        5094636
CAF   002.44 038.2 m E Sn      2012/10/11 00:42:01.4  -0.1                          T                                        5094635
CAF   002.44 038.2 m E Sg      2012/10/11 00:42:10.4  -0.1                          T                 .4  .17 Ml 1.7         5094634
RJF   002.54 025.9 m E Pn      2012/10/11 00:41:34.3   0.0                          T                                        5094633
RJF   002.54 025.9 m E Pg      2012/10/11 00:41:40.8  -0.2                          T                                        5094632
RJF   002.54 025.9 m E Sn      2012/10/11 00:42:03.8  -0.1                          T                                        5094631
RJF   002.54 025.9 m E Sg      2012/10/11 00:42:13.8   0.1                          T                 .4  .18 Ml 1.4         5094630
BGF   004.09 029.4 m E Sn      2012/10/11 00:42:40.7  -0.3                          T                                        5094629
BGF   004.09 029.4 m E Sg      2012/10/11 00:43:02.1   0.1                          T                1.0  .17 Ml 2.4         5094628

.
EVENT     284886
    Date      Time       Latitude Longitude    Depth    Ndef Nsta Gap    Mag1  N    Mag2  N    Mag3  N   Author         ID
       rms   OT_Error      Smajor Sminor Az        Err   mdist  Mdist     Err        Err        Err      Quality

2012/10/11 00:42:51.7     44.4480    7.1591     11.0 f    26    6 091  Ml 1.1  5  Md 1.5  1              bulletin    284986
                                                                                                         _ldg
      0.22   +-  0.04       1.0     .7   69.30 +-  0.0    0.07   1.23   +-0.1      +-                    m i ke

NORTHERN ITALY
Sta     Dist  EvAz     Phase      Date       Time     TRes  Azim  AzRes  Slow  SRes Def   SNR       Amp   Per   Mag1   Mag2       ID
MBDF  000.39 315.3 m E Pg      2012/10/11 00:42:59.5  -0.2                          T                                        5094664
MBDF  000.39 315.3 m E Sg      2012/10/11 00:43:05.0  -0.1                          T                6.2  .44        Md 1.5  5094663
SBF   000.62 161.1 m E Pg      2012/10/11 00:43:03.6   0.0                          T                                        5096426
SBF   000.62 161.1 m E Sg      2012/10/11 00:43:11.6  -0.1                          T                1.4  .21                5096427
FRF   000.96 202.8 m E Pg      2012/10/11 00:43:10.6   0.8                          T                                        5094659
FRF   000.96 202.8 m E Sg      2012/10/11 00:43:22.0   0.7                          T                 .7  .21 Ml 1.3         5094658
ORIF  001.03 297.7 m E Pg      2012/10/11 00:43:11.1   0.0                          T                                        5094662
ORIF  001.03 297.7 m E Sg      2012/10/11 00:43:24.6   0.1                          T                 .3  .22 Ml 1           5094661
LPL   001.11 344.3 m E Pg      2012/10/11 00:43:13.0   0.2                          T                                        5094660
LPL   001.11 344.3 m E Sg      2012/10/11 00:43:27.0  -0.3                          T                 .8  .37 Ml 1.2         5094655
SMRF  001.23 248.0 m E Pg      2012/10/11 00:43:14.9   0.1                          T                                        5096428
SMRF  001.23 248.0 m E Sg      2012/10/11 00:43:31.2   0.3                          T                 .4  .22 Ml 1.1         5094657

.
EVENT     284936
    Date      Time       Latitude Longitude    Depth    Ndef Nsta Gap    Mag1  N    Mag2  N    Mag3  N   Author         ID
       rms   OT_Error      Smajor Sminor Az        Err   mdist  Mdist     Err        Err        Err      Quality

2012/10/11 10:11:13.0     43.5188    6.5758       .0 f    21    7 127  Ml 1.8  5                         bulletin    285036
                                                                                                         _ldg
      0.31   +-  0.10       2.1    1.8  132.31 +-  0.0    0.07   2.00   +-0.3                            m i km

NEAR SOUTH COAST OF FRANCE
Sta     Dist  EvAz     Phase      Date       Time     TRes  Azim  AzRes  Slow  SRes Def   SNR       Amp   Per   Mag1   Mag2       ID
FRF   000.07 050.9 m E Pg      2012/10/11 10:11:14.3  -0.3                          T                                        5095274
FRF   000.07 050.9 m E Sg      2012/10/11 10:11:15.5  -0.3                          T              107.5  .21                5095273
LMR   000.19 194.7 m E Pg      2012/10/11 10:11:17.0   0.0                          T                                        5095272
LMR   000.19 194.7 m E Sg      2012/10/11 10:11:20.1   0.2                          T                5.5  .16                5095271
SBF   000.71 060.8 m E Pg      2012/10/11 10:11:27.1   0.3                          T                                        5095270
SBF   000.71 060.8 m E Sg      2012/10/11 10:11:36.2  -0.1                          T               10.3  .21                5095269
SMRF  000.86 302.6 m E Pg      2012/10/11 10:11:29.6   0.2                          T                                        5095285
SMRF  000.86 302.6 m E Sg      2012/10/11 10:11:40.8   0.1                          T                3.7  .22 Ml 2.0         5095284
MBDF  001.22 006.6 m E Pg      2012/10/11 10:11:35.9  -0.3                          T                                        5095283
MBDF  001.22 006.6 m E Sg      2012/10/11 10:11:51.9  -0.2                          T                 .7  .22 Ml 1.4         5095282
ORIF  001.49 340.6 m E Pn      2012/10/11 10:11:39.8   0.2                          T                                        5095281
ORIF  001.49 340.6 m E Sn      2012/10/11 10:11:58.3  -0.4                          T                 .9  .22 Ml 1.6         5095280
LPL   002.00 003.2 m E Pn      2012/10/11 10:11:46.3  -0.5                          T                                        5095279
LPL   002.00 003.2 m E Sn      2012/10/11 10:12:11.1   0.0                          T                3.3  .30 Ml 2.2         5095278

.
EVENT     284937
    Date      Time       Latitude Longitude    Depth    Ndef Nsta Gap    Mag1  N    Mag2  N    Mag3  N   Author         ID
       rms   OT_Error      Smajor Sminor Az        Err   mdist  Mdist     Err        Err        Err      Quality

2012/10/11 10:14:10.4     43.4530    6.7945       .0 f    21    7 180  Ml 1.4  4  Md 1.7  3              bulletin    285037
                                                                                                         _ldg
      0.35   +-  0.19       3.8    1.9  169.07 +-  0.0    0.15   2.06   +-0.2      +-0.1                 m i km

NEAR SOUTH COAST OF FRANCE
Sta     Dist  EvAz     Phase      Date       Time     TRes  Azim  AzRes  Slow  SRes Def   SNR       Amp   Per   Mag1   Mag2       ID
FRF   000.15 315.1 m E Pg      2012/10/11 10:14:13.0  -0.8                          T                                        5095293
FRF   000.15 315.1 m E Sg      2012/10/11 10:14:15.2  -1.0                          T                3.5  .18        Md 1.6  5095292
LMR   000.24 240.3 m E Pg      2012/10/11 10:14:14.3  -1.1                          T                                        5095291
LMR   000.24 240.3 m E Sg      2012/10/11 10:14:18.0  -0.8                          T                2.6  .18        Md 1.6  5095290
SBF   000.62 048.4 m E Pg      2012/10/11 10:14:22.5  -0.1                          T                                        5095289
SBF   000.62 048.4 m E Sg      2012/10/11 10:14:30.3  -0.6                          T                2.0  .20        Md 1.8  5095288
SMRF  001.03 301.0 m E Pg      2012/10/11 10:14:30.2   0.2                          T                                        5095303
SMRF  001.03 301.0 m E Sg      2012/10/11 10:14:43.0  -0.6                          T                 .4  .18 Ml 1.2         5095302
MBDF  001.27 359.3 m E Pg      2012/10/11 10:14:34.6  -0.1                          T                                        5095301
MBDF  001.27 359.3 m E Sg      2012/10/11 10:14:50.9  -0.5                          T                1.2  .39 Ml 1.4         5095300
ORIF  001.61 336.1 m E Pn      2012/10/11 10:14:38.5  -0.1                          T                                        5095297
ORIF  001.61 336.1 m E Sn      2012/10/11 10:14:58.8  -0.2                          T                 .7  .28 Ml 1.5         5095296
LPL   002.06 358.8 m E Pn      2012/10/11 10:14:45.1   0.1                          T                                        5095299
LPL   002.06 358.8 m E Sn      2012/10/11 10:15:09.9  -0.2                          T                1.1  .35 Ml 1.7         5095298

.
