EVENT     265022
    Date      Time       Latitude Longitude    Depth    Ndef Nsta Gap    Mag1  N    Mag2  N    Mag3  N   Author         ID
       rms   OT_Error      Smajor Sminor Az        Err   mdist  Mdist     Err        Err        Err      Quality

2011/10/13 11:15:52.0     38.0722     .4916      2.0     108   24 123  Ml 3.6 10  Md 3.6  2              js067245    265042

      0.80   +-  0.14       3.4    1.7  141.82 +-  0.0    1.16  10.53   +-0.2      +-0.0                 m i ke

SPAIN
Sta     Dist  EvAz     Phase      Date       Time     TRes  Azim  AzRes  Slow  SRes Def   SNR       Amp   Per   Mag1   Mag2       ID
ETSF  004.89 350.9 m E Pn      2011/10/13 11:17:05.8   1.3                          T   001.0                                4769862
ETSF  004.89 350.9 m E Sn      2011/10/13 11:17:57.8  -0.5                          T               27.7  .48 Ml 3.6 Md 3.5  4770092
EPF   004.95 358.7 m E Pn      2011/10/13 11:17:05.9   0.5                          T   001.0                                4769850
EPF   004.95 358.7 m E Sn      2011/10/13 11:17:58.7  -1.1                          T               20.8  .38 Ml 3.6         4770090
SJPF  005.20 346.0 m E Pn      2011/10/13 11:17:09.6   0.9                          T   001.0                                4769865
SJPF  005.20 346.0 m E Sn      2011/10/13 11:18:06.4   0.6                          T               23.7  .48 Ml 3.6 Md 3.6  4770091
MTLF  005.42 013.4 m E Pn      2011/10/13 11:17:10.8  -0.9                          T   001.0                                4769864
MTLF  005.42 013.4 m E Sn      2011/10/13 11:18:11.2   0.2                          T               16.1  .48 Ml 3.5         4771261
LASF  006.51 021.9 m E Pn      2011/10/13 11:17:26.4  -0.2                          T   001.0                                4769853
LFF   006.86 001.5 m E Pn      2011/10/13 11:17:31.6   0.3                          T   001.0                                4769855
CAF   006.95 009.3 m E Pn      2011/10/13 11:17:32.7   0.2                          T   001.0                                4769849
CAF   006.95 009.3 m E Sn      2011/10/13 11:18:47.4  -0.1                          T               15.9  .52 Ml 3.7         4771260
SMRF  007.04 031.5 m E Pn      2011/10/13 11:17:34.1   0.4                          T   001.0                                4769867
LMR   006.96 039.1 m E Pn      2011/10/13 11:17:34.4   1.7                          T   001.0                                4769856
LMR   006.96 039.1 m E Sn      2011/10/13 11:18:45.8  -2.0                          T               12.5  .34 Ml 3.8         4771254
RJF   007.27 005.7 m E Pn      2011/10/13 11:17:36.6  -0.2                          T   001.0                                4769847
RJF   007.27 005.7 m E Sn      2011/10/13 11:18:56.5   1.4                          T                8.3  .49 Ml 3.2         4771259
VIVF  007.47 023.5 m E Pn      2011/10/13 11:17:37.6  -2.0                          T   001.0                                4769866
FRF   007.20 038.5 m E Pn      2011/10/13 11:17:38.1   2.3                          T                                        4771255
SBF   007.81 040.0 m E Pn      2011/10/13 11:17:45.9   1.7                          T   001.0                                4769859
PGF   007.89 052.8 m E Pn      2011/10/13 11:17:47.4   2.0                          T   001.0                                4769858
TCF   008.31 008.3 m E Pn      2011/10/13 11:17:50.3  -0.7                          T   001.0                                4769861
TCF   008.31 008.3 m E Sn      2011/10/13 11:19:20.0   0.0                          T                6.8  .52 Ml 3.6         4771249
MFF   008.54 357.0 m E Pn      2011/10/13 11:17:54.0  -0.1                          T   001.0                                4769857
MFF   008.54 357.0 m E Sn      2011/10/13 11:19:23.3  -2.1                          T                5.3  .40 Ml 3.8         4771251
BGF   008.66 010.9 m E Pn      2011/10/13 11:17:55.3  -0.4                          T                                        4771258
SMF   008.92 015.1 m E Pn      2011/10/13 11:18:00.2   0.9                          T   001.0                                4769860
SMF   008.92 015.1 m E P       2011/10/13 11:18:06.1   1.1                          T                                        4771250
AVF   008.96 012.7 m E Pn      2011/10/13 11:18:00.5   0.6                          T   001.0                                4769848
LPG   008.77 030.2 m E P       2011/10/13 11:18:03.4   0.2                          T                                        4771253
SSF   009.25 012.9 m E Pn      2011/10/13 11:18:04.3   0.5                          T                                        4771256
LOR   009.52 014.0 m E P       2011/10/13 11:18:14.0   0.7 193.3  -3.0              T                                        4771257
LDF   010.53 357.8 m E Pn      2011/10/13 11:18:21.6   0.4                          T   001.0                                4769854
ORIF  007.94 028.9 m E Sn      2011/10/13 11:19:09.4  -2.0                          T                9.8  .72 Ml 3.5         4771252

.
EVENT     265043
    Date      Time       Latitude Longitude    Depth    Ndef Nsta Gap    Mag1  N    Mag2  N    Mag3  N   Author         ID
       rms   OT_Error      Smajor Sminor Az        Err   mdist  Mdist     Err        Err        Err      Quality

2011/10/13 14:56:21.3     44.0691    8.1371      3.0 f    31   10 187  Ml 2.5 10  Md 2.5  1              js067245    265063

      2.43   +-  0.29       6.1    3.7   49.19 +-  0.0    0.55   3.08   +-0.4      +-                    m i ke

NORTHERN ITALY
Sta     Dist  EvAz     Phase      Date       Time     TRes  Azim  AzRes  Slow  SRes Def   SNR       Amp   Per   Mag1   Mag2       ID
SBF   000.55 248.1 m E Pg      2011/10/13 14:56:31.9   0.1                          T                                        4773577
SBF   000.55 248.1 m E Sg      2011/10/13 14:56:39.2   0.2                          T              144.7  .22        Md 2.5  4771302
MBDF  001.18 304.4 m E Pn      2011/10/13 14:56:42.8  -0.4                          T                                        4773568
MBDF  001.18 304.4 m E Pg      2011/10/13 14:56:43.2  -0.4                          T                                        4773567
MBDF  001.18 304.4 m E Sg      2011/10/13 14:56:58.6  -0.2                          T               39.1  .68 Ml 2.7         4773584
FRF   001.19 245.3 m E Pg      2011/10/13 14:56:43.7   0.1                          T                                        4773576
FRF   001.19 245.3 m E Sg      2011/10/13 14:56:58.9  -0.1                          T               46.6  .21 Ml 3.3         4771300
PGF   001.65 157.2 m E Pn      2011/10/13 14:56:49.9   0.4                          T                                        4773575
PGF   001.65 157.2 m E Sn      2011/10/13 14:57:10.1   0.2                          T                3.2  .23 Ml 2.5         4773569
LPL   001.76 325.8 m E Pg      2011/10/13 14:56:53.9  -0.4                          T                                        4773558
LPL   001.76 325.8 m E Sg      2011/10/13 14:57:16.9   0.0                          T                4.1  .38 Ml 2.2         4773565
SMRF  001.85 268.0 m E P       2011/10/13 14:56:54.5   0.1                          T                                        4773557
SMRF  001.85 268.0 m E Sg      2011/10/13 14:57:19.7   0.1                          T               15.7  .32 Ml 2.9         4773564
ORIF  001.82 298.5 m E Pg      2011/10/13 14:56:55.1  -0.3                          T                                        4773559
ORIF  001.82 298.5 m E Sg      2011/10/13 14:57:18.9   0.1                          T                5.6  .33 Ml 2.4         4773566
VIVF  002.60 288.8 m E Pn      2011/10/13 14:57:02.5   0.1                          T                                        4773560
VIVF  002.60 288.8 m E Sn      2011/10/13 14:57:33.1   0.4                          T                1.5  .24 Ml 2.1         4773563
VIVF  002.60 288.8 m E Sg      2011/10/13 14:57:43.2   0.2                          T                1.4  .26 Ml 2.1         4773562
LMR   001.39 238.7 m E Sn      2011/10/13 14:57:03.5  -0.1                          T                                        4771289
LMR   001.39 238.7 m E Sg      2011/10/13 14:57:05.5   0.3                          T               16.3  .19 Ml 2.9         4773556
LASF  003.08 271.6 m E Pn      2011/10/13 14:57:09.0   0.0                          T                                        4773561

.
EVENT     265045
    Date      Time       Latitude Longitude    Depth    Ndef Nsta Gap    Mag1  N    Mag2  N    Mag3  N   Author         ID
       rms   OT_Error      Smajor Sminor Az        Err   mdist  Mdist     Err        Err        Err      Quality

2011/10/13 23:17:51.2     43.0842    -.4195      2.0      31    7 094  Ml 1.8  4  Md 1.9  3              js067245    265065

      0.45   +-  0.06       1.6    1.0  178.75 +-  0.0    0.02   2.62   +-0.1      +-0.1                 m i ke

PYRENEES
Sta     Dist  EvAz     Phase      Date       Time     TRes  Azim  AzRes  Slow  SRes Def   SNR       Amp   Per   Mag1   Mag2       ID
ETSF  000.21 209.0 m E Pg      2011/10/13 23:17:54.9  -0.7                          T                                        4771315
ETSF  000.21 209.0 m E Sg      2011/10/13 23:17:57.7  -0.8                          T               13.3  .24        Md 2.0  4771312
EPF   000.56 095.3 m E Pg      2011/10/13 23:18:02.0   0.1                          T                                        4771313
EPF   000.56 095.3 m E Sg      2011/10/13 23:18:09.5   0.2                          T                4.9  .20        Md 1.9  4771311
SJPF  000.59 273.1 m E Pg      2011/10/13 23:18:02.4  -0.1                          T                                        4771314
SJPF  000.59 273.1 m E Sg      2011/10/13 23:18:10.1  -0.1                          T                2.5  .23        Md 1.9  4771305
MTLF  001.94 081.5 m E Pg      2011/10/13 23:18:27.4   0.0                          T                                        4773585
MTLF  001.94 081.5 m E Sg      2011/10/13 23:18:52.9   0.4                          T                 .8  .27 Ml 1.7         4771310
LFF   002.03 023.9 m E Pg      2011/10/13 23:18:28.9  -0.1                          T                                        4773591
LFF   002.03 023.9 m E Sg      2011/10/13 23:18:55.2   0.0                          T                2.5  .34 Ml 1.9         4773589
CAF   002.57 043.4 m E Pg      2011/10/13 23:18:38.9  -0.1                          T                                        4773586
CAF   002.57 043.4 m E Sg      2011/10/13 23:19:12.3   0.3                          T                 .6  .18 Ml 1.8         4773590
RJF   002.62 031.4 m E Pg      2011/10/13 23:18:39.4  -0.4                          T                                        4773587
RJF   002.62 031.4 m E Sg      2011/10/13 23:19:13.7   0.2                          T                1.2  .21 Ml 1.7         4773588

.
EVENT     265046
    Date      Time       Latitude Longitude    Depth    Ndef Nsta Gap    Mag1  N    Mag2  N    Mag3  N   Author         ID
       rms   OT_Error      Smajor Sminor Az        Err   mdist  Mdist     Err        Err        Err      Quality

2011/10/13 23:30:30.5     48.3083    6.6888      6.0 f    11    6 143  Ml 1.8  1  Md 1.6  3              js067245    265066

      0.25   +-  0.09       2.0    1.4     .17 +-  0.0    0.38   1.11   +-         +-0.1                 m i ke

FRANCE
Sta     Dist  EvAz     Phase      Date       Time     TRes  Azim  AzRes  Slow  SRes Def   SNR       Amp   Per   Mag1   Mag2       ID
HAU   000.38 217.1 m E Pg      2011/10/13 23:30:37.8  -0.1                          T                                        4771331
HAU   000.38 217.1 m E Sg      2011/10/13 23:30:42.6  -0.5                          T                2.5  .20        Md 1.7  4771326
CDF   000.41 074.9 m E Pg      2011/10/13 23:30:38.4  -0.1                          T                                        4771334
CDF   000.41 074.9 m E Sg      2011/10/13 23:30:43.8  -0.1                          T                3.6  .30        Md 1.5  4771333
HINF  000.50 167.3 m E Pg      2011/10/13 23:30:40.5   0.2                          T                                        4771330
HINF  000.50 167.3 m E Sg      2011/10/13 23:30:47.2   0.3                          T                5.4  .20                4771332
HINF  000.50 167.3 m E Sn      2011/10/13 23:30:50.2  -0.1                          T                                Md 1.6  4773592
SFTF  001.11 265.3 m E Pg      2011/10/13 23:30:51.4   0.2                          T                                        4771329
SFTF  001.11 265.3 m E Sg      2011/10/13 23:31:06.0   0.4                          T                2.1  .27 Ml 1.8         4771327
PAGF  000.69 291.4 m E Sg      2011/10/13 23:30:52.4  -0.1                          T                 .3  .22                4771328
MEZF  001.11 280.7 m E Sg      2011/10/13 23:31:05.1  -0.5                          T                                        4771335

.
EVENT     265047
    Date      Time       Latitude Longitude    Depth    Ndef Nsta Gap    Mag1  N    Mag2  N    Mag3  N   Author         ID
       rms   OT_Error      Smajor Sminor Az        Err   mdist  Mdist     Err        Err        Err      Quality

2011/10/14 04:15:44.8     51.5499   16.2581      1.0 f    94   24 066  Ml 4.3 16                         js067245    265067

      1.03   +-  0.17       4.6    2.5    5.41 +-  0.0    0.71  18.57   +-0.2                            m i sr

POLAND
Sta     Dist  EvAz     Phase      Date       Time     TRes  Azim  AzRes  Slow  SRes Def   SNR       Amp   Per   Mag1   Mag2       ID
LANF  006.00 247.9 m E Pn      2011/10/14 04:17:13.4   1.0                          T                                        4771384
LANF  006.00 247.9 m E Pg      2011/10/14 04:17:36.7   1.0                          T                                        4771383
LANF  006.00 247.9 m E Sg      2011/10/14 04:18:53.6   1.0                          T              239.0  .96 Ml 4.5         4771398
RUP   006.14 256.1 m E P       2011/10/14 04:17:17.0  -1.9                          T                                        4771395
RUP   006.14 256.1 m E Pg      2011/10/14 04:17:38.5   0.3                          T                                        4771396
RUP   006.14 256.1 m E Sg      2011/10/14 04:18:55.2  -1.7                          T                                        4771397
CDF   006.59 245.0 m E Pn      2011/10/14 04:17:21.5   1.0                          T                                        4771354
CDF   006.59 245.0 m E Sg      2011/10/14 04:19:11.5   0.4                          T               95.4  .86 Ml 4.3         4771399
HAU   007.33 244.9 m E Pn      2011/10/14 04:17:30.8   0.3                          T                                        4771355
HAU   007.33 244.9 m E Pg      2011/10/14 04:18:00.4   0.2                          T                                        4771366
HAU   007.33 244.9 m E Sg      2011/10/14 04:19:36.4   2.3                          T               51.4  .74 Ml 3.9         4771385
SFTF  007.98 249.6 m E Pn      2011/10/14 04:17:40.0   0.6                          T                                        4771889
SFTF  007.98 249.6 m E Pg      2011/10/14 04:18:11.6  -0.6                          T                                        4771888
SFTF  007.98 249.6 m E Sg      2011/10/14 04:19:56.2   1.7                          T              242.6 1.48 Ml 4.6         4771387
LPL   008.74 230.0 m E Pn      2011/10/14 04:17:50.5   0.6                          T                                        4771890
LOR   009.15 246.9 m E Pn      2011/10/14 04:17:56.2   1.0                          T                                        4771378
LOR   009.15 246.9 m E Pg      2011/10/14 04:18:36.0   2.3                          T                                        4771368
LOR   009.15 246.9 m E Sg      2011/10/14 04:20:32.8   2.0                          T               36.9 1.02 Ml 4.2         4771373
SSF   009.46 246.6 m E Pn      2011/10/14 04:18:00.0   0.5                          T                                        4771377
SSF   009.46 246.6 m E Sg      2011/10/14 04:20:42.5   2.0                          T               21.8  .72 Ml 4.2         4771379
SMF   009.51 243.8 m E Pn      2011/10/14 04:18:00.2   0.1                          T                                        4771375
SMF   009.51 243.8 m E Pg      2011/10/14 04:18:40.7   0.5                          T                                        4771365
MBDF  009.31 226.6 m E P       2011/10/14 04:18:03.4   0.0                          T                                        4771394
AVF   009.70 245.6 m E Pn      2011/10/14 04:18:04.0   1.3                          T                                        4771376
AVF   009.70 245.6 m E Sg      2011/10/14 04:20:48.1   0.1                          T               22.6  .84 Ml 4.1         4771388
ORIF  009.58 230.2 m E P       2011/10/14 04:18:04.8  -2.2                          T                                        4771886
SBF   009.72 221.1 m E P       2011/10/14 04:18:06.4  -2.5                          T                                        4771391
FRF   010.29 222.8 m E Pn      2011/10/14 04:18:10.6  -0.2                          T                                        4771374
FRF   010.29 222.8 m E P       2011/10/14 04:18:15.6  -1.1                          T                                        4771393
LMR   010.53 222.5 m E P       2011/10/14 04:18:18.6  -1.5                          T                                        4771392
CABF  008.30 237.4 m E Pg      2011/10/14 04:18:18.9   0.7                          T                                        4771887
CABF  008.30 237.4 m E Sg      2011/10/14 04:20:03.2  -1.4                          T              232.6 1.28 Ml 4.7         4771389
HINF  007.15 242.2 m E Sg      2011/10/14 04:19:27.7  -0.9                          T               61.3  .76 Ml 4.2         4771390
PAGF  007.41 250.3 m E Sg      2011/10/14 04:19:36.5  -0.2                          T               38.0 1.20 Ml 3.8         4771372
GIVF  007.39 263.2 m E Sg      2011/10/14 04:19:38.1   2.2                          T               83.1 1.03 Ml 4.2         4771381
BAIF  007.78 263.7 m E Sg      2011/10/14 04:19:49.1   1.0                          T               58.3 1.03 Ml 4.1         4771382
MEZF  007.84 251.5 m E Sg      2011/10/14 04:19:50.4   0.6                          T               51.4  .90 Ml 4.1         4771386
HYF   009.85 249.6 m E Sg      2011/10/14 04:20:52.3  -0.6                          T                                        4771371
BGF   010.12 245.7 m E Sg      2011/10/14 04:21:01.0   0.0                          T               21.7  .64 Ml 4.3         4771369
TCF   010.63 245.8 m E Sg      2011/10/14 04:21:18.6   1.4                          T               34.5 1.21 Ml 4.3         4771380

.
