EVENT     256429
    Date      Time       Latitude Longitude    Depth    Ndef Nsta Gap    Mag1  N    Mag2  N    Mag3  N   Author         ID
       rms   OT_Error      Smajor Sminor Az        Err   mdist  Mdist     Err        Err        Err      Quality

2011/02/27 02:23:40.4     50.3376    7.8244     12.0 f    40   10 079  Ml 2.4 11                         js067245    256449

      0.61   +-  0.08       1.5    1.3   57.36 +-  0.0    0.11   4.35   +-0.2                            m i ke

GERMANY
Sta     Dist  EvAz     Phase      Date       Time     TRes  Azim  AzRes  Slow  SRes Def   SNR       Amp   Per   Mag1   Mag2       ID
CDF   001.96 190.7 m E Pn      2011/02/27 02:24:12.0   0.1                          T                                        4654794
CDF   001.96 190.7 m E Pg      2011/02/27 02:24:15.7  -1.4                          T                                        4654786
CDF   001.96 190.7 m E Sg      2011/02/27 02:24:41.8  -0.5                          T                4.5  .28 Ml 2.5         4654783
GIVF  001.94 264.2 m E Pn      2011/02/27 02:24:12.4   0.9                          T                                        4654790
GIVF  001.94 264.2 m E Sg      2011/02/27 02:24:41.3  -0.3                          T               12.0  .38 Ml 2.7         4654785
PAGF  002.25 218.3 m E Pn      2011/02/27 02:24:16.7   0.9                          T                                        4654782
PAGF  002.25 218.3 m E Pg      2011/02/27 02:24:21.9  -0.3  46.4  9.7               T                                        4654787
PAGF  002.25 218.3 m E Sg      2011/02/27 02:24:50.6  -0.6                          T                 .7  .23 Ml 1.8         4654776
BAIF  002.34 264.5 m E Pn      2011/02/27 02:24:17.8   0.8                          T                                        4654789
BAIF  002.34 264.5 m E Sg      2011/02/27 02:24:53.3  -0.7                          T                6.2  .33 Ml 2.6         4654784
HAU   002.53 203.1 m E Pn      2011/02/27 02:24:20.0   0.5                          T                                        4654793
HAU   002.53 203.1 m E Pg      2011/02/27 02:24:27.2  -0.2                          T                                        4654788
HAU   002.53 203.1 m E Sg      2011/02/27 02:24:59.4  -0.5                          T                2.7  .22 Ml 2.2         4654773
MEZF  002.58 225.6 m E Pn      2011/02/27 02:24:21.1   0.9                          T                                        4654791
MEZF  002.58 225.6 m E Pg      2011/02/27 02:24:27.6  -0.7  35.0  -8.5              T                                        4654770
MEZF  002.58 225.6 m E Sg      2011/02/27 02:25:01.2  -0.3                          T                3.5  .28 Ml 2.4         4654775
HINF  002.60 194.6 m E Pn      2011/02/27 02:24:21.4   0.8                          T                                        4654792
HINF  002.60 194.6 m E Pg      2011/02/27 02:24:28.4  -0.4                          T                                        4654768
HINF  002.60 194.6 m E Sg      2011/02/27 02:25:01.7  -0.6                          T                3.7  .28 Ml 2.5         4654772
SFTF  002.81 221.6 m E Pn      2011/02/27 02:24:24.1   0.8                          T                                        4654781
SFTF  002.81 221.6 m E Pg      2011/02/27 02:24:32.3  -0.2                          T                                        4654769
SFTF  002.81 221.6 m E Sg      2011/02/27 02:25:08.1  -0.5                          T                3.7  .28 Ml 2.5         4654774
LOR   004.04 222.0 m E Pn      2011/02/27 02:24:40.1   0.0  39.8  0.8               T                                        4654780
LOR   004.04 222.0 m E Pg      2011/02/27 02:24:54.5  -0.7  42.6  3.6               T                                        4654767
LOR   004.04 222.0 m E Sn      2011/02/27 02:25:25.0   0.5                          T                                        4654778
LOR   004.04 222.0 m E Sg      2011/02/27 02:25:46.6  -0.4                          T                2.8  .42 Ml 2.5         4654777
SSF   004.35 222.7 m E Pn      2011/02/27 02:24:44.7   0.4                          T                                        4654779
SSF   004.35 222.7 m E Pg      2011/02/27 02:25:00.8  -0.1                          T                                        4654766
SSF   004.35 222.7 m E Sg      2011/02/27 02:25:56.3  -0.4                          T                2.6  .50 Ml 2.5         4654771

.
EVENT     256436
    Date      Time       Latitude Longitude    Depth    Ndef Nsta Gap    Mag1  N    Mag2  N    Mag3  N   Author         ID
       rms   OT_Error      Smajor Sminor Az        Err   mdist  Mdist     Err        Err        Err      Quality

2011/02/27 02:45:11.4     42.2219   20.6935     30.0      37   17 160                                    js067245    256456

                                               +-         1.03  13.19                                    m i ke

NORTHWESTERN BALKAN PEN.
Sta     Dist  EvAz     Phase      Date       Time     TRes  Azim  AzRes  Slow  SRes Def   SNR       Amp   Per   Mag1   Mag2       ID
PGF   008.66 276.1 m E Pn      2011/02/27 02:47:12.7   0.0                          T                                        4654813
SBF   009.85 284.1 m E Pn      2011/02/27 02:47:28.7  -0.1                          T                                        4654814
SBF   009.85 284.1 m E Sn      2011/02/27 02:49:13.3   1.4                          T               33.0  .84                4654800
FRF   010.40 282.1 m E Pn      2011/02/27 02:47:36.1   0.0                          T                                        4654795
MBDF  010.43 288.6 m E Pn      2011/02/27 02:47:36.8   0.0                          T                                        4654817
LMR   010.49 280.9 m E Pn      2011/02/27 02:47:37.2  -0.2                          T                                        4654815
LPG   010.59 292.7 m E Pn      2011/02/27 02:47:38.7  -0.4                          T                                        4654798
LPG   010.59 292.7 m E Sn      2011/02/27 02:49:31.1   1.2                          T                5.4  .70                4654801
LPL   010.60 292.8 m E Pn      2011/02/27 02:47:39.3   0.0                          T                                        4654799
LPL   010.60 292.8 m E Sn      2011/02/27 02:49:31.6   1.4                          T                4.4  .48                4654802
ORIF  011.08 289.1 m E Pn      2011/02/27 02:47:45.5  -0.1                          T                                        4654797
SMRF  011.20 284.1 m E Pn      2011/02/27 02:47:47.1   0.0                          T                                        4654816
HINF  011.27 304.4 m E Pn      2011/02/27 02:47:47.9  -0.3                          T                                        4654809
HINF  011.27 304.4 m E Sn      2011/02/27 02:49:47.2   1.2                          T                3.3  .48                4654803
CDF   011.29 307.8 m E Pn      2011/02/27 02:47:48.1  -0.2                          T                                        4654807
CABF  011.33 297.7 m E Pn      2011/02/27 02:47:48.8  -0.1                          T                                        4654810
HAU   011.66 304.6 m E Pn      2011/02/27 02:47:53.3  -0.1                          T                                        4654808
HAU   011.66 304.6 m E Sn      2011/02/27 02:49:56.4   1.1                          T                5.6  .62                4654804
VIVF  011.92 288.2 m E Pn      2011/02/27 02:47:57.2   0.2                          T                                        4654796
SMF   012.83 295.9 m E Pn      2011/02/27 02:48:09.3   0.0                          T                                        4654812
LOR   012.98 298.6 m E Pn      2011/02/27 02:48:11.1  -0.3 117.4  10.7              T                                        4654806
LOR   012.98 298.6 m E Sn      2011/02/27 02:50:27.9   1.1                          T                2.7  .59                4654805
AVF   013.19 296.2 m E Pn      2011/02/27 02:48:13.8  -0.3                          T                                        4654811

.
EVENT     256427
    Date      Time       Latitude Longitude    Depth    Ndef Nsta Gap    Mag1  N    Mag2  N    Mag3  N   Author         ID
       rms   OT_Error      Smajor Sminor Az        Err   mdist  Mdist     Err        Err        Err      Quality

2011/02/27 02:51:05.8     44.5115    7.2454      2.0      18    8 187  Ml 1.5  7  Md 1.5  2              js067245    256447

      0.10   +-  0.04        .9     .4   77.59 +-  0.0    0.40   1.31   +-0.4      +-0.3                 m i ke

NORTHERN ITALY
Sta     Dist  EvAz     Phase      Date       Time     TRes  Azim  AzRes  Slow  SRes Def   SNR       Amp   Per   Mag1   Mag2       ID
MBDF  000.40 302.6 m E Pg      2011/02/27 02:51:13.6  -0.2                          T                                        4654839
MBDF  000.40 302.6 m E Sg      2011/02/27 02:51:19.3   0.2                          T                3.1  .26        Md 1.7  4654833
SBF   000.66 168.0 m E Pg      2011/02/27 02:51:18.4   0.0                          T                                        4654824
SBF   000.66 168.0 m E Sg      2011/02/27 02:51:27.1   0.0                          T                3.8  .27        Md 1.3  4654834
FRF   001.04 204.6 m E Pg      2011/02/27 02:51:25.4   0.0                          T                                        4654838
FRF   001.04 204.6 m E Sg      2011/02/27 02:51:38.8  -0.1                          T                2.2  .19 Ml 1.9         4654836
ORIF  001.06 293.2 m E Pg      2011/02/27 02:51:25.6  -0.1                          T                                        4654828
ORIF  001.06 293.2 m E Sg      2011/02/27 02:51:39.5   0.1                          T                 .4  .25 Ml 1           4654832
LPG   001.05 340.6 m E Pg      2011/02/27 02:51:25.8   0.0                          T                                        4654826
LPG   001.05 340.6 m E Sg      2011/02/27 02:51:39.4   0.0                          T                 .5  .22 Ml 1.2         4654830
LPL   001.07 340.3 m E Pg      2011/02/27 02:51:26.2   0.1                          T                                        4654827
LPL   001.07 340.3 m E Sg      2011/02/27 02:51:40.0   0.0                          T                2.2  .44 Ml 1.5         4654831
LMR   001.29 204.6 m E Pg      2011/02/27 02:51:30.0   0.1                          T                                        4654837
LMR   001.29 204.6 m E Sg      2011/02/27 02:51:46.7   0.1                          T                2.6  .25 Ml 2.0         4654835
SMRF  001.31 246.5 m E Pg      2011/02/27 02:51:30.4   0.0                          T                                        4654825
SMRF  001.31 246.5 m E Sg      2011/02/27 02:51:47.6   0.2                          T                 .9  .25 Ml 1.5         4654829

.
EVENT     256432
    Date      Time       Latitude Longitude    Depth    Ndef Nsta Gap    Mag1  N    Mag2  N    Mag3  N   Author         ID
       rms   OT_Error      Smajor Sminor Az        Err   mdist  Mdist     Err        Err        Err      Quality

2011/02/27 04:46:45.7     43.0711     .0840      2.0      14    6 170  Ml 1.6  6  Md 1.6  3              js067245    256452

      0.10   +-  0.05       1.0     .6    1.51 +-  0.0    0.19   2.46   +-0.2      +-0.1                 m i ke

FRANCE
Sta     Dist  EvAz     Phase      Date       Time     TRes  Azim  AzRes  Slow  SRes Def   SNR       Amp   Per   Mag1   Mag2       ID
EPF   000.19 102.2 m E Pg      2011/02/27 04:46:49.6  -0.1                          T                                        4654853
EPF   000.19 102.2 m E Sg      2011/02/27 04:46:52.5   0.2                          T                5.4  .18        Md 1.6  4654852
SJPF  000.96 273.0 m E Pg      2011/02/27 04:47:03.8   0.0                          T                                        4654847
SJPF  000.96 273.0 m E Sg      2011/02/27 04:47:16.1  -0.1                          T                 .6  .22 Ml 1.3 Md 1.7  4654851
MTLF  001.58 079.5 m E Pg      2011/02/27 04:47:15.3   0.1                          T                                        4654843
MTLF  001.58 079.5 m E Sg      2011/02/27 04:47:35.6   0.0                          T                 .9  .21 Ml 1.7 Md 1.5  4654842
LFF   001.93 014.0 m E Pg      2011/02/27 04:47:21.5  -0.1                          T                                        4654846
LFF   001.93 014.0 m E Sg      2011/02/27 04:47:46.4   0.1                          T                2.4  .33 Ml 1.9         4654850
RJF   002.46 024.3 m E Pn      2011/02/27 04:47:25.2   0.2                          T                                        4654845
RJF   002.46 024.3 m E Sg      2011/02/27 04:48:02.9  -0.1                          T                 .9  .33 Ml 1.4         4654849
CAF   002.34 036.9 m E Pg      2011/02/27 04:47:29.2  -0.1                          T                                        4654844
CAF   002.34 036.9 m E Sg      2011/02/27 04:47:59.3  -0.1                          T                 .7  .29 Ml 1.7         4654848

.
EVENT     256428
    Date      Time       Latitude Longitude    Depth    Ndef Nsta Gap    Mag1  N    Mag2  N    Mag3  N   Author         ID
       rms   OT_Error      Smajor Sminor Az        Err   mdist  Mdist     Err        Err        Err      Quality

2011/02/27 07:55:09.1     46.4344    2.6041      3.0 f    31   12 085  Ml 2.1 10  Md 2.2  3              js067245    256448

      0.49   +-  0.04        .9     .7  129.05 +-  0.0    0.21   2.14   +-0.2      +-0.0                 m i ke

FRANCE
Sta     Dist  EvAz     Phase      Date       Time     TRes  Azim  AzRes  Slow  SRes Def   SNR       Amp   Per   Mag1   Mag2       ID
BGF   000.21 053.5 m E Pg      2011/02/27 07:55:13.7   0.4                          T                                        4654875
BGF   000.21 053.5 m E Sg      2011/02/27 07:55:16.7   0.6                          T              278.2  .40        Md 2.2  4654872
TCF   000.31 241.9 m E Pg      2011/02/27 07:55:15.4   0.2                          T                                        4654877
TCF   000.31 241.9 m E Sg      2011/02/27 07:55:19.4   0.0                          T               15.9  .18        Md 2.2  4654856
AVF   000.63 055.1 m E Pg      2011/02/27 07:55:20.8  -0.1                          T                                        4655706
AVF   000.63 055.1 m E Pn      2011/02/27 07:55:22.9  -0.4                          T                                        4654873
AVF   000.63 055.1 m E Sg      2011/02/27 07:55:28.7  -0.5                          T                3.9  .16                4654870
HYF   000.83 001.7 m E Pg      2011/02/27 07:55:24.7  -0.1                          T                                        4654868
HYF   000.83 001.7 m E Sg      2011/02/27 07:55:35.6  -0.1                          T                                        4654858
SMF   000.88 075.7 m E Pg      2011/02/27 07:55:25.6   0.0                          T                                        4655705
SMF   000.88 075.7 m E Pn      2011/02/27 07:55:26.6  -0.1                          T                                        4654869
SMF   000.88 075.7 m E Sg      2011/02/27 07:55:37.2   0.2                          T                4.4  .20 Ml 2.1         4654857
SSF   000.88 044.3 m E Pg      2011/02/27 07:55:25.7   0.0                          T                                        4655707
SSF   000.88 044.3 m E Pn      2011/02/27 07:55:26.8   0.1                          T                                        4654867
SSF   000.88 044.3 m E Sg      2011/02/27 07:55:37.2   0.0                          T                7.3  .22 Ml 2.4         4654855
LOR   001.20 045.5 m E Pg      2011/02/27 07:55:31.4  -0.1 223.5  -2.9              T                                        4654876
LOR   001.20 045.5 m E Sg      2011/02/27 07:55:46.7  -0.3 216.6  -9.8              T                3.2  .17 Ml 2.2         4654854
RJF   001.36 214.3 m E Pg      2011/02/27 07:55:34.5   0.0                          T                                        4654865
RJF   001.36 214.3 m E Sg      2011/02/27 07:55:52.0  -0.1                          T                5.6  .36 Ml 1.8         4654861
CAF   001.56 194.3 m E Pg      2011/02/27 07:55:37.9  -0.2                          T                                        4655704
CAF   001.56 194.3 m E Sg      2011/02/27 07:55:58.3   0.1                          T                3.6  .16 Ml 2.4         4654860
MFF   001.91 276.0 m E Pn      2011/02/27 07:55:40.6   0.0                          T                                        4654863
MFF   001.91 276.0 m E Sg      2011/02/27 07:56:08.7  -0.4                          T                1.8  .24 Ml 2.2         4654862
VIVF  002.14 136.7 m E Pn      2011/02/27 07:55:44.1   0.1                          T                                        4654882
VIVF  002.14 136.7 m E Sg      2011/02/27 07:56:16.5  -0.1                          T                1.4  .27 Ml 2.0         4654883
LFF   001.99 221.8 m E Pg      2011/02/27 07:55:46.0   0.0                          T                                        4654864
LFF   001.99 221.8 m E Sg      2011/02/27 07:56:11.4  -0.1                          T                1.7  .21 Ml 1.9         4654859

.
EVENT     256435
    Date      Time       Latitude Longitude    Depth    Ndef Nsta Gap    Mag1  N    Mag2  N    Mag3  N   Author         ID
       rms   OT_Error      Smajor Sminor Az        Err   mdist  Mdist     Err        Err        Err      Quality

2011/02/27 11:05:20.3     45.8337    7.4553      2.0      15    5 133  Ml 1.4  3  Md 1.3  2              js067245    256455

      0.24   +-  0.07       1.9     .9  138.48 +-  0.0    0.25   2.19   +-0.1      +-0.1                 m i ke

NORTHERN ITALY
Sta     Dist  EvAz     Phase      Date       Time     TRes  Azim  AzRes  Slow  SRes Def   SNR       Amp   Per   Mag1   Mag2       ID
LPL   000.60 238.2 m E Pg      2011/02/27 11:05:31.7  -0.1                          T                                        4654894
LPL   000.60 238.2 m E Sg      2011/02/27 11:05:39.6  -0.1                          T                4.0  .23        Md 1.3  4654893
LPG   000.60 236.0 m E Pg      2011/02/27 11:05:32.0   0.1                          T                                        4654895
LPG   000.60 236.0 m E Sg      2011/02/27 11:05:39.8   0.0                          T                3.4  .18        Md 1.3  4654892
MBDF  001.21 203.8 m E P       2011/02/27 11:05:43.7  -0.7                          T                                        4654888
MBDF  001.21 203.8 m E Sg      2011/02/27 11:05:58.7   0.0                          T                 .8  .20 Ml 1.5         4654891
VIVF  002.19 244.5 m E Pg      2011/02/27 11:06:00.3  -0.7                          T                                        4654889
VIVF  002.19 244.5 m E Sn      2011/02/27 11:06:21.5  -0.5                          T                 .4  .26 Ml 1.4         4654890
ORIF  001.44 231.1 m E Sg      2011/02/27 11:06:05.3  -0.5                          T                 .6  .29 Ml 1.3         4654887

.
