EVENT     285483
    Date      Time       Latitude Longitude    Depth    Ndef Nsta Gap    Mag1  N    Mag2  N    Mag3  N   Author         ID
       rms   OT_Error      Smajor Sminor Az        Err   mdist  Mdist     Err        Err        Err      Quality

2012/10/21 11:15:10.3     35.1466   -5.7171     20.0 f    81   11 230  Ml 3.6  5                         bulletin    285583
                                                                                                         _ldg
      0.64   +-  0.24       4.9    2.6    4.99 +-  0.0    0.80  14.15   +-0.2                            m i ke

STRAIT OF GIBRALTAR
Sta     Dist  EvAz     Phase      Date       Time     TRes  Azim  AzRes  Slow  SRes Def   SNR       Amp   Per   Mag1   Mag2       ID
SJPF  008.69 022.3 m E Pn      2012/10/21 11:17:12.7   0.3                          T                                        5102011
SJPF  008.69 022.3 m E Sn      2012/10/21 11:18:43.9  -0.1                          T                2.0  .21 Ml 3.5         5102007
ETSF  008.72 025.8 m E Pn      2012/10/21 11:17:13.5   0.7                          T                                        5102010
ETSF  008.72 025.8 m E Sn      2012/10/21 11:18:44.5  -0.3                          T                1.8  .21 Ml 3.5         5102008
EPF   009.17 029.0 m E Pn      2012/10/21 11:17:19.4   0.4                          T                                        5102009
EPF   009.17 029.0 m E Sn      2012/10/21 11:18:55.4  -0.1                          T                1.7  .22 Ml 3.5         5102006
LFF   010.96 024.8 m E Pn      2012/10/21 11:17:44.1   0.9                          T                                        5102005
LFF   010.96 024.8 m E Sn      2012/10/21 11:19:37.3  -0.9                          T                2.2  .34 Ml 3.5         5102004
MFF   012.19 018.5 m E Pn      2012/10/21 11:18:00.2   0.2                          T                                        5101999
QUIF  012.90 007.7 m E Pn      2012/10/21 11:18:09.8   0.1                          T                                        5102003
QUIF  012.90 007.7 m E Sn      2012/10/21 11:20:24.0  -0.7                          T                2.8  .35 Ml 4.0         5102002
ROSF  013.30 007.1 m E Pn      2012/10/21 11:18:15.5   0.3                          T                                        5102000
SGMF  013.31 009.2 m E Pn      2012/10/21 11:18:15.5   0.2                          T                                        5102001
GRR   013.71 013.8 m E Pn      2012/10/21 11:18:20.4  -0.4                          T                                        5115693
LDF   014.06 015.5 m E Pn      2012/10/21 11:18:25.4  -0.1                          T                                        5115694
FLN   014.15 014.3 m E Pn      2012/10/21 11:18:26.1  -0.6                          T                                        5115695

.
EVENT     285488
    Date      Time       Latitude Longitude    Depth    Ndef Nsta Gap    Mag1  N    Mag2  N    Mag3  N   Author         ID
       rms   OT_Error      Smajor Sminor Az        Err   mdist  Mdist     Err        Err        Err      Quality

2012/10/21 13:00:09.1     45.6421    2.9457      2.0      39   12 090  Ml 2.0 13  Md 1.9  4              bulletin    285588
                                                                                                         _ldg
      0.40   +-  0.04        .9     .7   99.10 +-  0.0    0.49   2.36   +-0.2      +-0.1                 m i ke

FRANCE
Sta     Dist  EvAz     Phase      Date       Time     TRes  Azim  AzRes  Slow  SRes Def   SNR       Amp   Per   Mag1   Mag2       ID
TCF   000.83 321.8 m E Pg      2012/10/21 13:00:24.7   0.0                          T                                        5101918
TCF   000.83 321.8 m E Sg      2012/10/21 13:00:34.6  -0.9                          T                3.9  .24        Md 1.9  5101905
BGF   000.92 355.7 m E Pg      2012/10/21 13:00:26.0  -0.4                          T                                        5116374
BGF   000.92 355.7 m E Pn      2012/10/21 13:00:27.5   0.0                          T                                        5101915
BGF   000.92 355.7 m E Sg      2012/10/21 13:00:38.7   0.4                          T                9.1  .32 Ml 2.2         5101908
CAF   000.95 221.3 m E Pg      2012/10/21 13:00:26.9  -0.1                          T                                        5101914
CAF   000.95 221.3 m E Pn      2012/10/21 13:00:27.9   0.0                          T                                        5102244
CAF   000.95 221.3 m E Sg      2012/10/21 13:00:39.3   0.0                          T                3.5  .18 Ml 2.1         5101911
RJF   001.06 251.9 m E Pn      2012/10/21 13:00:29.4   0.0                          T                                        5102247
RJF   001.06 251.9 m E Sg      2012/10/21 13:00:42.8   0.0                          T                4.5  .28 Ml 1.7         5101909
AVF   001.18 013.7 m E Pg      2012/10/21 13:00:31.1  -0.1                          T                                        5101917
AVF   001.18 013.7 m E Sg      2012/10/21 13:00:46.4  -0.1                          T                4.0  .25 Ml 2.1 Md 2.0  5101906
SMF   001.18 031.5 m E Pg      2012/10/21 13:00:31.3   0.1                          T                                        5101916
SMF   001.18 031.5 m E Sg      2012/10/21 13:00:46.8   0.3                          T                3.3  .26 Ml 2.0 Md 2.0  5101907
VIVF  001.45 122.2 m E Pg      2012/10/21 13:00:36.2  -0.1                          T                                        5101913
VIVF  001.45 122.2 m E Sn      2012/10/21 13:00:53.2   0.0                          T                                        5101912
VIVF  001.45 122.2 m E Sg      2012/10/21 13:00:54.9  -0.1                          T                2.3  .24 Ml 2.0         5102239
SSF   001.47 015.1 m E Pg      2012/10/21 13:00:36.7   0.2                          T                                        5101920
SSF   001.47 015.1 m E Sn      2012/10/21 13:00:53.9   0.2                          T                                        5102248
SSF   001.47 015.1 m E Sg      2012/10/21 13:00:55.8   0.2                          T                1.1  .16 Ml 1.9         5101921
LASF  001.69 157.2 m E Pn      2012/10/21 13:00:38.0  -0.1                          T                                        5102242
LASF  001.69 157.2 m E Pg      2012/10/21 13:00:40.7   0.0                          T                                        5102243
LASF  001.69 157.2 m E Sn      2012/10/21 13:00:58.8  -0.3                          T                                        5102241
LASF  001.69 157.2 m E Sg      2012/10/21 13:01:02.4  -0.2                          T                 .7  .18 Ml 1.7         5102240
LFF   001.71 246.5 m E Pn      2012/10/21 13:00:38.1   0.0                          T                                        5102246
LFF   001.71 246.5 m E Sn      2012/10/21 13:00:59.4   0.1                          T                                        5102245
LFF   001.71 246.5 m E Sg      2012/10/21 13:01:03.0   0.0                          T                3.3  .22 Ml 2.1         5101910
LOR   001.74 020.9 m E Pn      2012/10/21 13:00:39.3   0.6 201.4  -0.2              T                                        5102249
LOR   001.74 020.9 m E Sn      2012/10/21 13:01:00.3   0.0                          T                                        5102234
LOR   001.74 020.9 m E Sg      2012/10/21 13:01:04.2   0.1 198.7  -2.9              T                2.4  .20 Ml 2.2         5101919
MFF   002.35 295.2 m E Pn      2012/10/21 13:00:47.4   0.4                          T                                        5102237
MFF   002.35 295.2 m E Pg      2012/10/21 13:00:53.2   0.4                          T                                        5102236
MFF   002.35 295.2 m E Sn      2012/10/21 13:01:14.3  -0.5                          T                                        5102238
MFF   002.35 295.2 m E Sg      2012/10/21 13:01:23.2   0.1                          T                 .8  .18 Ml 2.1         5102235

.
EVENT     285496
    Date      Time       Latitude Longitude    Depth    Ndef Nsta Gap    Mag1  N    Mag2  N    Mag3  N   Author         ID
       rms   OT_Error      Smajor Sminor Az        Err   mdist  Mdist     Err        Err        Err      Quality

2012/10/21 21:41:27.8     46.3909    6.2834     15.0      24    9 142  Ml 1.8  7  Md 1.7  1              bulletin    285596
                                                                                                         _ldg
      0.26   +-  0.06       1.7     .9   78.99 +-  0.0    0.26   2.13   +-0.4      +-                    m i ke

SWITZERLAND
Sta     Dist  EvAz     Phase      Date       Time     TRes  Azim  AzRes  Slow  SRes Def   SNR       Amp   Per   Mag1   Mag2       ID
CABF  000.26 328.5 m E Pg      2012/10/21 21:41:33.9   0.3                          T                                        5101927
CABF  000.26 328.5 m E Sg      2012/10/21 21:41:37.5   0.0                          T                2.5  .23        Md 1.7  5101926
LPL   000.93 160.1 m E Pn      2012/10/21 21:41:45.0   0.0                          T                                        5109365
LPL   000.93 160.1 m E Pg      2012/10/21 21:41:46.5   0.8                          T                                        5101929
LPL   000.93 160.1 m E Sn      2012/10/21 21:41:57.3   0.0                          T                 .9  .19 Ml 1.5         5101928
HINF  001.48 015.1 m E Pg      2012/10/21 21:41:55.5   0.0                          T                                        5101925
HINF  001.48 015.1 m E Sn      2012/10/21 21:42:10.3   0.1                          T                                        5109358
HINF  001.48 015.1 m E Sg      2012/10/21 21:42:14.8   0.1                          T                6.1  .28 Ml 2.4         5101924
MBDF  001.70 168.2 m E Pn      2012/10/21 21:41:55.5   0.1                          T                                        5109368
MBDF  001.70 168.2 m E Pg      2012/10/21 21:41:59.7   0.0                          T                                        5109367
MBDF  001.70 168.2 m E Sg      2012/10/21 21:42:21.7   0.0                          T                 .3  .20 Ml 1.2         5109366
ORIF  001.50 191.0 m E Pg      2012/10/21 21:41:55.9  -0.1                          T                                        5101923
ORIF  001.50 191.0 m E Sg      2012/10/21 21:42:15.4  -0.1                          T                3.5  .26 Ml 2.2         5101922
LOR   001.88 298.7 m E Pn      2012/10/21 21:41:57.2  -0.6                          T                                        5109362
LOR   001.88 298.7 m E Pg      2012/10/21 21:42:03.0   0.1                          T                                        5109363
LOR   001.88 298.7 m E Sg      2012/10/21 21:42:27.2   0.0                          T                 .6  .19 Ml 1.7         5109364
VIVF  001.91 216.9 m E Pn      2012/10/21 21:41:57.5  -0.7                          T                                        5109371
VIVF  001.91 216.9 m E Sn      2012/10/21 21:42:18.9  -1.5                          T                                        5109370
VIVF  001.91 216.9 m E Sg      2012/10/21 21:42:28.1   0.2                          T                1.7  .28 Ml 2.0         5109369
SSF   002.02 290.4 m E Pn      2012/10/21 21:41:59.9   0.2                          T                                        5109361
SSF   002.02 290.4 m E Sg      2012/10/21 21:42:31.6  -0.1                          T                 .7  .23 Ml 1.8         5109360
CDF   002.13 018.1 m E Pn      2012/10/21 21:42:01.3   0.0                          T                                        5109359

.
EVENT     285517
    Date      Time       Latitude Longitude    Depth    Ndef Nsta Gap    Mag1  N    Mag2  N    Mag3  N   Author         ID
       rms   OT_Error      Smajor Sminor Az        Err   mdist  Mdist     Err        Err        Err      Quality

2012/10/22 04:13:41.4     42.3882     .7151      9.0 f    30    4 096  Ml 1.5  3  Md 1.7  1              bulletin    285617
                                                                                                         _ldg
      0.43   +-  0.07       1.5    1.2   33.58 +-  0.0    0.08   1.60   +-0.3      +-                    m i ke

PYRENEES
Sta     Dist  EvAz     Phase      Date       Time     TRes  Azim  AzRes  Slow  SRes Def   SNR       Amp   Per   Mag1   Mag2       ID
EPF   000.70 336.8 m E Pg      2012/10/22 04:13:54.2  -0.6                          T                                        5102109
EPF   000.70 336.8 m E Sg      2012/10/22 04:14:03.4  -0.6                          T                1.6  .18        Md 1.7  5102108
ETSF  001.07 298.9 m E Pg      2012/10/22 04:14:01.5  -0.1                          T                                        5102106
ETSF  001.07 298.9 m E Sg      2012/10/22 04:14:15.7   0.2                          T                1.5  .25 Ml 1.6         5102105
MTLF  001.46 048.7 m E Pn      2012/10/22 04:14:07.6   1.3                          T                                        5102101
MTLF  001.46 048.7 m E Pg      2012/10/22 04:14:09.2   0.5                          T                                        5102107
MTLF  001.46 048.7 m E Sg      2012/10/22 04:14:27.8   0.2                          T                 .4  .29 Ml 1.2         5102110
SJPF  001.60 297.5 m E Pg      2012/10/22 04:14:11.7   0.4                          T                                        5102103
SJPF  001.60 297.5 m E Sg      2012/10/22 04:14:32.2   0.2                          T                 .8  .23 Ml 1.6         5102104

.
EVENT     285543
    Date      Time       Latitude Longitude    Depth    Ndef Nsta Gap    Mag1  N    Mag2  N    Mag3  N   Author         ID
       rms   OT_Error      Smajor Sminor Az        Err   mdist  Mdist     Err        Err        Err      Quality

2012/10/22 09:15:02.7     44.4143    7.4350      8.0 f    34    7 097  Ml 2.0  6  Md 2.0  3              bulletin    285643
                                                                                                         _ldg
      0.46   +-  0.09       2.0    1.3   59.53 +-  0.0    0.16   2.69   +-0.3      +-0.1                 m i ke

NORTHERN ITALY
Sta     Dist  EvAz     Phase      Date       Time     TRes  Azim  AzRes  Slow  SRes Def   SNR       Amp   Per   Mag1   Mag2       ID
SBF   000.55 180.0 m E Pg      2012/10/22 09:15:13.2  -0.1                          T                                        5102279
SBF   000.55 180.0 m E Sg      2012/10/22 09:15:21.1   0.5                          T                6.7  .16        Md 1.9  5102269
MBDF  000.57 303.6 m E Pg      2012/10/22 09:15:13.3  -0.5                          T                                        5102280
MBDF  000.57 303.6 m E Sg      2012/10/22 09:15:21.5   0.3                          T                4.8  .18        Md 1.9  5102278
FRF   001.03 214.0 m E Pg      2012/10/22 09:15:22.4   0.4                          T                                        5102271
FRF   001.03 214.0 m E Sg      2012/10/22 09:15:35.3   0.0                          T                6.3  .20 Ml 2.4 Md 2.1  5102270
ORIF  001.22 295.0 m E Pg      2012/10/22 09:15:25.7   0.0                          T                                        5102277
ORIF  001.22 295.0 m E Sg      2012/10/22 09:15:41.4   0.0                          T                1.5  .22 Ml 1.7         5102274
LPL   001.21 335.9 m E Pg      2012/10/22 09:15:26.1   0.5                          T                                        5102273
LPL   001.21 335.9 m E Sg      2012/10/22 09:15:41.8   0.5                          T                3.8  .28 Ml 2.0         5102272
LMR   001.27 212.1 m E Pg      2012/10/22 09:15:26.1  -0.3                          T                                        5102276
LMR   001.27 212.1 m E Sg      2012/10/22 09:15:43.0   0.1                          T                3.9  .19 Ml 2.3         5102275
SMRF  001.41 252.5 m E Pg      2012/10/22 09:15:29.3   0.3                          T                                        5102268
SMRF  001.41 252.5 m E Sg      2012/10/22 09:15:46.8  -0.5                          T                1.5  .29 Ml 1.7         5102267

.
EVENT     285581
    Date      Time       Latitude Longitude    Depth    Ndef Nsta Gap    Mag1  N    Mag2  N    Mag3  N   Author         ID
       rms   OT_Error      Smajor Sminor Az        Err   mdist  Mdist     Err        Err        Err      Quality

2012/10/22 12:50:35.8     43.0811    9.4926     25.0      12    7 263  Ml 2.3  2  Md 2.5  1              bulletin    285681
                                                                                                         _ldg
      0.91   +-  0.76      15.9    7.5   77.50 +-  0.0    0.64   4.21   +-0.0      +-                    m i ke

CORSICA, FRANCE
Sta     Dist  EvAz     Phase      Date       Time     TRes  Azim  AzRes  Slow  SRes Def   SNR       Amp   Per   Mag1   Mag2       ID
PGF   000.64 214.4 m E Pg      2012/10/22 12:50:49.2   0.4                          T                                        5102502
PGF   000.64 214.4 m E Sg      2012/10/22 12:50:56.2  -1.5                          T              128.7 1.40        Md 2.5  5102520
SBF   001.69 298.3 m E Pn      2012/10/22 12:51:00.9  -1.2                          T                                        5102496
FRF   002.13 284.0 m E Pn      2012/10/22 12:51:08.4   0.4                          T                                        5102500
FRF   002.13 284.0 m E Sn      2012/10/22 12:51:31.7  -0.2                          T                4.3  .44 Ml 2.3         5115728
LMR   002.20 277.6 m E Pn      2012/10/22 12:51:09.8   0.9                          T                                        5102501
LMR   002.20 277.6 m E Sg      2012/10/22 12:51:45.7   0.5                          T                6.3  .61 Ml 2.3         5115727
MBDF  002.56 310.8 m E Pn      2012/10/22 12:51:12.3  -1.8                          T                                        5102516
SMRF  002.99 288.8 m E Pn      2012/10/22 12:51:21.0   1.3                          T                                        5102499
LASF  004.21 285.6 m E Pn      2012/10/22 12:51:36.0  -0.4                          T                                        5115729

.
