EVENT     286225
    Date      Time       Latitude Longitude    Depth    Ndef Nsta Gap    Mag1  N    Mag2  N    Mag3  N   Author         ID
       rms   OT_Error      Smajor Sminor Az        Err   mdist  Mdist     Err        Err        Err      Quality

2012/11/05 00:14:18.5     43.8145   -6.3834     20.0 f   107   23 138  Ml 3.0 25                         bulletin    286325
                                                                                                         _ldg
      1.55   +-  0.15       3.9    2.3  130.36 +-  0.0    0.74   8.00   +-0.2                            m i ke

SPAIN
Sta     Dist  EvAz     Phase      Date       Time     TRes  Azim  AzRes  Slow  SRes Def   SNR       Amp   Per   Mag1   Mag2       ID
SJPF  003.82 098.8 m E Pn      2012/11/05 00:15:14.9   0.6                          T                                        5109627
SJPF  003.82 098.8 m E Sn      2012/11/05 00:15:55.5  -0.4                          T                3.3  .23 Ml 2.8         5109616
ETSF  004.34 100.2 m E Pn      2012/11/05 00:15:22.5   0.9                          T                                        5109626
ETSF  004.34 100.2 m E Sn      2012/11/05 00:16:08.2  -0.3                          T                5.7  .30 Ml 3.0         5109617
QUIF  004.68 027.6 m E Pn      2012/11/05 00:15:25.4  -0.6                          T                                        5109641
QUIF  004.68 027.6 m E Sn      2012/11/05 00:16:13.3  -3.1                          T                                        5109640
ROSF  005.01 024.5 m E Pn      2012/11/05 00:15:29.8  -0.7                          T                                        5109610
ROSF  005.01 024.5 m E Sn      2012/11/05 00:16:21.6  -2.8                          T                3.1  .17 Ml 3.1         5109609
EPF   004.96 096.8 m E Pn      2012/11/05 00:15:30.6   0.7                          T                                        5109625
EPF   004.96 096.8 m E P       2012/11/05 00:15:34.1   0.0                          T                                        5120387
EPF   004.96 096.8 m E Sn      2012/11/05 00:16:23.5   0.3                          T                1.0  .14 Ml 2.7         5109618
SGMF  005.18 029.6 m E Pn      2012/11/05 00:15:32.1  -0.7                          T                                        5109611
SGMF  005.18 029.6 m E Sn      2012/11/05 00:16:25.5  -2.8                          T                2.5  .16 Ml 3.1         5109608
MFF   005.21 055.5 m E Pn      2012/11/05 00:15:33.3   0.0                          T                                        5109639
MFF   005.21 055.5 m E Sn      2012/11/05 00:16:27.0  -2.2                          T                4.0  .25 Ml 3.3         5109638
LFF   005.23 075.1 m E Pn      2012/11/05 00:15:34.4   1.0                          T                                        5109628
LFF   005.23 075.1 m E Sn      2012/11/05 00:16:28.6  -1.0                          T                2.1  .21 Ml 2.7         5109614
GRR   005.97 038.1 m E Pn      2012/11/05 00:15:42.7  -0.9                          T                                        5120389
GRR   005.97 038.1 m E Sn      2012/11/05 00:16:45.1  -2.2                          T                4.4  .25 Ml 3.2         5120388
RJF   005.84 072.5 m E Pn      2012/11/05 00:15:43.2   1.4                          T                                        5109631
RJF   005.84 072.5 m E Sn      2012/11/05 00:16:43.4  -0.8                          T                3.2  .23 Ml 2.9         5109630
CAF   006.16 076.7 m E Pn      2012/11/05 00:15:45.7  -0.5                          T                                        5109629
CAF   006.16 076.7 m E Sn      2012/11/05 00:16:50.9  -0.9                          T                 .7  .13 Ml 2.9         5109615
MTLF  006.27 091.4 m E Pn      2012/11/05 00:15:48.0   0.4                          T                                        5109624
MTLF  006.27 091.4 m E Sn      2012/11/05 00:16:53.7  -0.7                          T                 .9  .16 Ml 2.9         5109619
FLN   006.42 037.5 m E Pn      2012/11/05 00:15:49.0  -0.7 217.9  -3.8              T                                        5109605
FLN   006.42 037.5 m E Sn      2012/11/05 00:16:55.6  -2.4 222.5  0.8               T                1.1  .17 Ml 2.8         5109604
LDF   006.46 040.1 m E Pn      2012/11/05 00:15:49.3  -0.9                          T                                        5109607
LDF   006.46 040.1 m E Sn      2012/11/05 00:16:56.6  -2.4                          T                1.4  .17 Ml 3.1         5109606
TCF   006.57 064.9 m E Pn      2012/11/05 00:15:52.5   0.7                          T                                        5109637
TCF   006.57 064.9 m E Sn      2012/11/05 00:16:58.2  -3.5                          T                6.2  .30 Ml 3.5         5109636
BGF   007.07 064.0 m E Pn      2012/11/05 00:15:59.6   1.0                          T                                        5109632
BGF   007.07 064.0 m E Sn      2012/11/05 00:17:12.5  -1.2                          T                5.0  .31 Ml 3.5         5109613
HYF   007.21 058.3 m E Pn      2012/11/05 00:16:00.4  -0.1                          T                                        5120390
LASF  007.40 084.4 m E Pn      2012/11/05 00:16:03.0   0.0                          T                                        5109623
LASF  007.40 084.4 m E Sn      2012/11/05 00:17:18.8  -2.6                          T                1.5  .24 Ml 3.1         5109620
AVF   007.48 063.2 m E Pn      2012/11/05 00:16:04.7   0.6                          T                                        5109635
AVF   007.48 063.2 m E Sn      2012/11/05 00:17:19.9  -3.4                          T                 .8  .23 Ml 2.9         5109634
SSF   007.68 061.5 m E Pn      2012/11/05 00:16:06.2  -0.6                          T                                        5109602
SSF   007.68 061.5 m E Sn      2012/11/05 00:17:24.9  -3.2                          T                1.1  .26 Ml 3.1         5109601
SMF   007.75 065.0 m E Pn      2012/11/05 00:16:09.4   1.5                          T                                        5109633
SMF   007.75 065.0 m E Sn      2012/11/05 00:17:29.3  -0.6                          T                1.0  .20 Ml 3.1         5109612
VIVF  008.00 078.7 m E Pn      2012/11/05 00:16:11.2  -0.1                          T                                        5109622
VIVF  008.00 078.7 m E Sn      2012/11/05 00:17:36.0   0.3                          T                 .7  .23 Ml 2.9         5109621
LOR   007.98 060.8 m E Pn      2012/11/05 00:16:11.2   0.2 239.9  -8.2              T                                        5109603
LOR   007.98 060.8 m E Sn      2012/11/05 00:17:33.0  -2.3 242.2  -5.9              T                 .6  .18 Ml 2.9         5109600

.
EVENT     286226
    Date      Time       Latitude Longitude    Depth    Ndef Nsta Gap    Mag1  N    Mag2  N    Mag3  N   Author         ID
       rms   OT_Error      Smajor Sminor Az        Err   mdist  Mdist     Err        Err        Err      Quality

2012/11/05 04:03:16.7     44.4818    7.2840      6.0 f    86   19 046  Ml 2.6 19  Md 2.6  2              bulletin    286326
                                                                                                         _ldg
      0.95   +-  0.11       2.7    1.9   57.41 +-  0.0    0.03   4.04   +-0.4      +-0.0                 m i ke

NORTHERN ITALY
Sta     Dist  EvAz     Phase      Date       Time     TRes  Azim  AzRes  Slow  SRes Def   SNR       Amp   Per   Mag1   Mag2       ID
MBDF  000.44 304.0 m E Pg      2012/11/05 04:03:24.6  -0.7                          T                                        5109728
MBDF  000.44 304.0 m E Sg      2012/11/05 04:03:30.3  -1.0                          T              224.9  .26        Md 2.6  5109727
SBF   000.63 170.0 m E Pg      2012/11/05 04:03:28.2  -0.5                          T   001.0                                5109695
SBF   000.63 170.0 m E Sg      2012/11/05 04:03:36.3  -0.7                          T               39.3  .16        Md 2.6  5109723
FRF   001.03 206.7 m E Pg      2012/11/05 04:03:35.6  -0.4                          T   001.0                                5109687
FRF   001.03 206.7 m E Sg      2012/11/05 04:03:48.9  -0.5                          T   001.0       65.7  .20 Ml 3.4         5109688
LPG   001.08 339.8 m E Pg      2012/11/05 04:03:36.6  -0.8                          T                                        5109725
LPG   001.08 339.8 m E Sg      2012/11/05 04:03:50.4  -1.1                          T               34.2  .22 Ml 3.0         5109724
LPL   001.11 339.5 m E Pg      2012/11/05 04:03:36.9  -0.7                          T   001.0                                5109693
LPL   001.11 339.5 m E Sg      2012/11/05 04:03:51.0  -1.1                          T               34.0  .22 Ml 3.0         5109726
SMRF  001.33 248.2 m E Pg      2012/11/05 04:03:42.1   0.5                          T   001.0                                5109714
SMRF  001.33 248.2 m E Sg      2012/11/05 04:04:00.2   1.4                          T   001.0       49.8  .32 Ml 3.1         5109715
VIVF  001.90 282.3 m E Pn      2012/11/05 04:03:49.8   1.8                          T   001.0                                5109712
VIVF  001.90 282.3 m E Sn      2012/11/05 04:04:11.1   0.3                          T   001.0        2.3  .22 Ml 2.2         5109713
VIVF  001.90 282.3 m E Sg      2012/11/05 04:04:17.1   0.5                          T                6.0  .26 Ml 2.5         5120393
PGF   002.30 146.6 m E Pn      2012/11/05 04:03:54.9   1.4                          T                                        5109722
PGF   002.30 146.6 m E Sn      2012/11/05 04:04:19.7  -0.7                          T   001.0        5.8  .21 Ml 3.0         5109694
LASF  002.49 261.8 m E Pn      2012/11/05 04:03:57.3   1.2                          T   001.0                                5109689
LASF  002.49 261.8 m E Sn      2012/11/05 04:04:27.0   2.0                          T   001.0        2.0  .21 Ml 2.3         5109690
HINF  003.35 355.0 m E Pn      2012/11/05 04:04:09.0   1.3                          T   001.0                                5109706
HINF  003.35 355.0 m E Sn      2012/11/05 04:04:45.8   0.3                          T   001.0        4.0  .38 Ml 2.5         5109707
HINF  003.35 355.0 m E Sg      2012/11/05 04:05:02.0   0.2                          T   001.0        1.5  .25 Ml 2.3         5109708
SMF   003.24 313.0 m E Pn      2012/11/05 04:04:09.0   2.8                          T   001.0                                5109696
SMF   003.24 313.0 m E Sn      2012/11/05 04:04:43.3   0.4                          T   001.0        3.0  .29 Ml 2.5         5109697
LOR   003.67 320.6 m E Pn      2012/11/05 04:04:13.3   1.3                          T   001.0                                5109692
LOR   003.67 320.6 m E Sn      2012/11/05 04:04:53.4   0.2                          T                2.3  .30 Ml 2.5         5109718
AVF   003.60 311.3 m E Pn      2012/11/05 04:04:13.6   2.6                          T   001.0                                5109681
SSF   003.69 315.6 m E Pn      2012/11/05 04:04:14.8   2.5                          T   001.0                                5109699
SSF   003.69 315.6 m E Sn      2012/11/05 04:04:54.0   0.4                          T   001.0        1.1  .26 Ml 2.3         5109700
CAF   003.75 278.6 m E Pn      2012/11/05 04:04:15.4   2.3                          T   001.0                                5109684
CAF   003.75 278.6 m E Sn      2012/11/05 04:04:55.2   0.3                          T   001.0         .7  .22 Ml 2.1         5109685
BGF   003.75 305.2 m E Pn      2012/11/05 04:04:15.7   2.6                          T   001.0                                5109682
MTLF  003.83 254.5 m E Pn      2012/11/05 04:04:15.8   1.6                          T   001.0                                5109709
MTLF  003.83 254.5 m E Sn      2012/11/05 04:04:57.2   0.3                          T   001.0        1.2  .30 Ml 2.2         5109710
MTLF  003.83 254.5 m E Sg      2012/11/05 04:05:17.4   0.5                          T   001.0         .9  .30 Ml 2.1         5109711
CDF   003.93 359.9 m E Pn      2012/11/05 04:04:16.5   0.8                          T   001.0                                5109686
CDF   003.93 359.9 m E Sn      2012/11/05 04:05:00.0   0.7                          T                1.4  .23 Ml 2.5         5109719
SFTF  004.04 338.1 m E Pn      2012/11/05 04:04:20.3   3.3                          T                                        5109721
SFTF  004.04 338.1 m E Sn      2012/11/05 04:05:02.1   0.3                          T                2.7  .19 Ml 2.8         5109720
SFTF  004.04 338.1 m E Sg      2012/11/05 04:05:23.0  -0.1                          T                1.4  .24 Ml 2.4         5120392

.
EVENT     286227
    Date      Time       Latitude Longitude    Depth    Ndef Nsta Gap    Mag1  N    Mag2  N    Mag3  N   Author         ID
       rms   OT_Error      Smajor Sminor Az        Err   mdist  Mdist     Err        Err        Err      Quality

2012/11/05 06:20:49.8     48.3879    7.7664     14.0 f    59   18 029  Ml 2.9 15  Md 3.0  2              bulletin    286327
                                                                                                         _ldg
      0.72   +-  0.04       1.0     .8  126.05 +-  0.0    0.19   5.28   +-0.3      +-0.1                 m i ke

FRANCE
Sta     Dist  EvAz     Phase      Date       Time     TRes  Azim  AzRes  Slow  SRes Def   SNR       Amp   Per   Mag1   Mag2       ID
CDF   000.33 274.4 m E Pg      2012/11/05 06:20:56.5  -0.1                          T   001.0                                5109733
CDF   000.33 274.4 m E Sg      2012/11/05 06:21:00.8  -0.6                          T   001.0      173.5  .28        Md 3.1  5109734
HINF  000.84 227.3 m E Pg      2012/11/05 06:21:05.8   0.1                          T   001.0                                5109748
HINF  000.84 227.3 m E Sg      2012/11/05 06:21:16.9   0.2                          T   001.0      162.4  .24        Md 2.9  5109749
PAGF  001.37 277.8 m E Pg      2012/11/05 06:21:15.7   0.2 111.4  15.1              T                                        5120418
PAGF  001.37 277.8 m E Sg      2012/11/05 06:21:33.3   0.1  95.7  -0.6              T               42.0  .31 Ml 3.1         5120419
SFTF  001.83 265.3 m E Pn      2012/11/05 06:21:19.1  -0.1                          T                                        5120415
SFTF  001.83 265.3 m E Pg      2012/11/05 06:21:24.0   0.1  89.4  6.2               T                                        5120414
SFTF  001.83 265.3 m E Sn      2012/11/05 06:21:40.8   0.0                          T                                        5120417
SFTF  001.83 265.3 m E Sg      2012/11/05 06:21:47.5   0.0                          T               23.2  .32 Ml 3.0         5120416
CABF  002.11 213.3 m E Pn      2012/11/05 06:21:23.1   0.0                          T                                        5120413
CABF  002.11 213.3 m E Pg      2012/11/05 06:21:28.4  -0.7                          T                                        5120412
CABF  002.11 213.3 m E Sg      2012/11/05 06:21:56.1  -0.3                          T   001.0         12  .24 Ml 2.9         5109745
GIVF  002.58 312.8 m E Pn      2012/11/05 06:21:30.2   0.9                          T   001.0                                5109746
GIVF  002.58 312.8 m E Pg      2012/11/05 06:21:37.4  -0.3                          T                                        5120420
GIVF  002.58 312.8 m E Sg      2012/11/05 06:22:07.0  -2.9                          T   001.0          9  .28 Ml 2.8         5109747
LOR   002.86 248.4 m E Pn      2012/11/05 06:21:32.5  -0.7  75.2  9.7               T   001.0                                5109735
LOR   002.86 248.4 m E Pg      2012/11/05 06:21:43.1   0.3  71.9  6.4               T                                        5120422
LOR   002.86 248.4 m E Sg      2012/11/05 06:22:18.8  -0.8  79.9  14.3              T   001.0       13.2  .24 Ml 3.1         5109736
LPG   002.97 193.9 m E Pn      2012/11/05 06:21:35.1   0.0                          T                                        5120405
LPG   002.97 193.9 m E Pg      2012/11/05 06:21:44.9  -0.4                          T                                        5120404
LPG   002.97 193.9 m E Sg      2012/11/05 06:22:22.6  -1.0                          T   001.0        3.9  .26 Ml 2.6         5109737
SMF   003.18 238.2 m E Pn      2012/11/05 06:21:36.7  -0.8                          T   001.0                                5109740
SMF   003.18 238.2 m E Pg      2012/11/05 06:21:49.5   0.8                          T                                        5120409
SMF   003.18 238.2 m E Sg      2012/11/05 06:22:29.3  -0.3                          T               21.5  .30 Ml 3.3         5120410
SSF   003.17 246.8 m E Pn      2012/11/05 06:21:36.9  -0.5                          T   001.0                                5109741
SSF   003.17 246.8 m E Pg      2012/11/05 06:21:49.3   0.8                          T                                        5120421
SSF   003.17 246.8 m E Sn      2012/11/05 06:22:13.5   0.8                          T   001.0                                5109742
SSF   003.17 246.8 m E Sg      2012/11/05 06:22:27.6  -1.6                          T   001.0        6.2  .20 Ml 3.0         5109743
AVF   003.39 243.5 m E Pn      2012/11/05 06:21:39.9  -0.4                          T   001.0                                5109730
AVF   003.39 243.5 m E Pg      2012/11/05 06:21:53.4   0.9                          T                                        5120411
AVF   003.39 243.5 m E Sg      2012/11/05 06:22:35.4  -0.7                          T   001.0        7.8  .44 Ml 2.8         5109731
LPL   002.96 194.2 m E Pg      2012/11/05 06:21:44.8  -0.1                          T                                        5120403
LPL   002.96 194.2 m E Sn      2012/11/05 06:22:07.9  -0.1                          T   001.0                                5109738
LPL   002.96 194.2 m E Sg      2012/11/05 06:22:22.4  -0.6                          T   001.0        2.2  .23 Ml 2.4         5109739
VIVF  004.13 212.2 m E Pn      2012/11/05 06:21:50.3  -0.1                          T                                        5120402
VIVF  004.13 212.2 m E Sg      2012/11/05 06:22:58.3  -0.8                          T   001.0        3.9  .25 Ml 2.9         5109751
HYF   003.63 253.9 m E Pg      2012/11/05 06:21:57.1   0.1                          T                                        5120407
HYF   003.63 253.9 m E Sg      2012/11/05 06:22:42.6  -1.1                          T                                        5120408
BGF   003.81 243.1 m E Pg      2012/11/05 06:22:00.6   0.3                          T                                        5120406
BGF   003.81 243.1 m E Sg      2012/11/05 06:22:48.7  -0.4                          T   001.0       19.5  .32 Ml 3.4         5109732
BAIF  002.87 307.0 m E Sg      2012/11/05 06:22:16.1  -3.8                          T   001.0        5.4  .28 Ml 2.7         5109744
MBDF  003.73 191.0 m E Sg      2012/11/05 06:22:46.5  -0.3                          T   001.0        1.1  .23 Ml 2.3         5109750
RJF   005.28 236.6 m E Sg      2012/11/05 06:23:35.3   0.1                          T   001.0        6.6  .56 Ml 2.7         5109729

.
