EVENT     256791
    Date      Time       Latitude Longitude    Depth    Ndef Nsta Gap    Mag1  N    Mag2  N    Mag3  N   Author         ID
       rms   OT_Error      Smajor Sminor Az        Err   mdist  Mdist     Err        Err        Err      Quality

2011/03/07 19:25:02.6     45.6329   -1.0122      2.0      16    7 232  Ml 2.1  9  Md 2.4  3              js067245    256791

      0.20   +-  0.14       2.3    1.2   89.92 +-  0.0    1.14   2.84   +-0.2      +-0.0                 m i ke

FRANCE
Sta     Dist  EvAz     Phase      Date       Time     TRes  Azim  AzRes  Slow  SRes Def   SNR       Amp   Per   Mag1   Mag2       ID
MFF   001.14 031.6 m E Pg      2011/03/07 19:25:23.9   0.0                          T                                        4657707
MFF   001.14 031.6 m E Sg      2011/03/07 19:25:39.2   0.4                          T                3.6  .29 Ml 2.1 Md 2.4  4657706
LFF   001.42 118.6 m E Pg      2011/03/07 19:25:29.3   0.3                          T                                        4657710
LFF   001.42 118.6 m E Sg      2011/03/07 19:25:47.4   0.1                          T                2.9  .29 Ml 1.8 Md 2.3  4657718
RJF   001.81 099.6 m E Pg      2011/03/07 19:25:36.2  -0.1                          T                                        4657711
RJF   001.81 099.6 m E Sg      2011/03/07 19:25:59.5   0.0                          T                2.4  .29 Ml 1.7 Md 2.4  4657705
CAF   002.28 106.9 m E Pg      2011/03/07 19:25:45.0   0.0                          T                                        4657709
CAF   002.28 106.9 m E Sg      2011/03/07 19:26:14.2  -0.2                          T                1.6  .26 Ml 2.1         4657704
TCF   002.34 072.6 m E Pg      2011/03/07 19:25:46.1   0.0                          T                                        4657714
TCF   002.34 072.6 m E Sg      2011/03/07 19:26:16.3   0.1                          T                1.0  .28 Ml 1.9         4657715
EPF   002.78 159.1 m E Pg      2011/03/07 19:25:54.0  -0.1                          T                                        4657708
EPF   002.78 159.1 m E Sg      2011/03/07 19:26:30.0   0.2                          T                2.0  .32 Ml 2.2         4657703
BGF   002.84 069.6 m E Pg      2011/03/07 19:25:54.8  -0.4                          T                                        4657713
BGF   002.84 069.6 m E Sg      2011/03/07 19:26:31.7  -0.1                          T                4.7  .37 Ml 2.5         4657716

.
EVENT     256788
    Date      Time       Latitude Longitude    Depth    Ndef Nsta Gap    Mag1  N    Mag2  N    Mag3  N   Author         ID
       rms   OT_Error      Smajor Sminor Az        Err   mdist  Mdist     Err        Err        Err      Quality

2011/03/07 20:45:50.6     49.7607    3.7321      2.0     113   35 085  Ml 2.9 36  Md 2.9  3              js067245    256788

      0.61   +-  0.09       1.8    1.4  155.17 +-  0.0    0.43   5.69   +-0.3      +-0.3                 m i ke

FRANCE
Sta     Dist  EvAz     Phase      Date       Time     TRes  Azim  AzRes  Slow  SRes Def   SNR       Amp   Per   Mag1   Mag2       ID
BAIF  000.43 045.6 m E Pg      2011/03/07 20:46:01.0   2.1                          T                                        4657726
BAIF  000.43 045.6 m E Sg      2011/03/07 20:46:06.3   1.8                          T              100.3  .20        Md 2.7  4657721
GIVF  000.78 063.7 m E Pg      2011/03/07 20:46:07.0   1.6                          T                                        4657725
GIVF  000.78 063.7 m E Sg      2011/03/07 20:46:15.8   0.2                          T               72.9  .34        Md 2.7  4657813
MEZF  001.53 145.0 m E Pn      2011/03/07 20:46:18.3   1.0                          T                                        4657804
MEZF  001.53 145.0 m E Pg      2011/03/07 20:46:20.2   1.1                          T                                        4657724
MEZF  001.53 145.0 m E Sg      2011/03/07 20:46:38.8  -0.1                          T               27.8  .20 Ml 3.2 Md 3.2  4657769
PAGF  001.78 131.9 m E Pn      2011/03/07 20:46:20.9   0.3                          T                                        4657805
PAGF  001.78 131.9 m E Pg      2011/03/07 20:46:25.4   1.7                          T                                        4657723
PAGF  001.78 131.9 m E Sg      2011/03/07 20:46:46.8   0.1                          T                3.2  .18 Ml 2.4         4657770
SFTF  001.78 150.6 m E Pn      2011/03/07 20:46:21.4   0.7                          T                                        4657803
SFTF  001.78 150.6 m E Pg      2011/03/07 20:46:24.1   0.3                          T                                        4657722
SFTF  001.78 150.6 m E Sg      2011/03/07 20:46:46.5  -0.2                          T               41.9  .19 Ml 3.5         4657768
THEF  002.14 135.0 m E Pn      2011/03/07 20:46:25.5  -0.1                          T                                        4657802
THEF  002.14 135.0 m E Pg      2011/03/07 20:46:31.2   0.8                          T                                        4657738
THEF  002.14 135.0 m E Sg      2011/03/07 20:46:57.9   0.0                          T               27.9  .23 Ml 3.3         4657766
RUP   002.16 090.3 m E Pn      2011/03/07 20:46:25.5  -0.4                          T                                        4657778
RUP   002.16 090.3 m E Pg      2011/03/07 20:46:31.8   1.0                          T                                        4657779
RUP   002.16 090.3 m E Sg      2011/03/07 20:46:59.4   0.8                          T                                        4657811
HAU   002.46 134.5 m E Pn      2011/03/07 20:46:29.9  -0.1                          T                                        4657801
HAU   002.46 134.5 m E Pg      2011/03/07 20:46:36.4   0.0                          T                                        4657737
HAU   002.46 134.5 m E Sg      2011/03/07 20:47:08.0   0.0                          T               16.8  .24 Ml 2.9         4657767
LOR   002.50 178.0 m E Pn      2011/03/07 20:46:30.2  -0.3                          T                                        4657809
LOR   002.50 178.0 m E Pg      2011/03/07 20:46:39.4   2.4                          T                                        4657810
LOR   002.50 178.0 m E Sg      2011/03/07 20:47:08.4  -0.6                          T               20.5  .24 Ml 3.3         4657812
HYF   002.60 196.7 m E Pn      2011/03/07 20:46:31.6  -0.3                          T                                        4657733
HYF   002.60 196.7 m E Pg      2011/03/07 20:46:38.8   0.0                          T                                        4657734
HYF   002.60 196.7 m E Sg      2011/03/07 20:47:11.7  -0.5                          T                                        4657761
SSF   002.71 183.3 m E Pn      2011/03/07 20:46:33.0  -0.2                          T                                        4657808
SSF   002.71 183.3 m E Pg      2011/03/07 20:46:41.0   0.1                          T                                        4657740
SSF   002.71 183.3 m E Sg      2011/03/07 20:47:14.9  -0.7                          T               17.0  .43 Ml 3.0         4657777
CDF   002.69 118.7 m E Pn      2011/03/07 20:46:34.0   0.8                          T                                        4657806
CDF   002.69 118.7 m E Pg      2011/03/07 20:46:40.7   0.0                          T                                        4657771
CDF   002.69 118.7 m E Sg      2011/03/07 20:47:15.7   0.4                          T                9.1  .32 Ml 2.9         4657774
LDF   002.79 246.7 m E Pn      2011/03/07 20:46:34.8   0.4                          T                                        4657791
LDF   002.79 246.7 m E Pg      2011/03/07 20:46:42.4   0.1                          T                                        4657728
LDF   002.79 246.7 m E Sg      2011/03/07 20:47:17.8  -0.3                          T                9.4  .20 Ml 3.0         4657754
LANF  002.77 104.8 m E Pn      2011/03/07 20:46:34.8   0.6                          T                                        4657772
LANF  002.77 104.8 m E Pg      2011/03/07 20:46:42.7   0.6                          T                                        4657773
LANF  002.77 104.8 m E Sg      2011/03/07 20:47:18.4   0.6                          T               12.9  .31 Ml 3.0         4657775
HINF  002.84 132.1 m E Pn      2011/03/07 20:46:35.9   0.8                          T                                        4657800
HINF  002.84 132.1 m E Pg      2011/03/07 20:46:42.3  -1.0                          T                                        4657736
HINF  002.84 132.1 m E Sg      2011/03/07 20:47:19.8   0.1                          T                7.3  .26 Ml 2.8         4657765
FLN   002.94 251.7 m E Pn      2011/03/07 20:46:37.1   0.7                          T                                        4657792
FLN   002.94 251.7 m E Pg      2011/03/07 20:46:45.0  -0.1                          T                                        4657729
FLN   002.94 251.7 m E Sg      2011/03/07 20:47:22.7  -0.1                          T               15.9  .22 Ml 3.1         4657755
AVF   002.98 185.0 m E Pn      2011/03/07 20:46:37.4   0.3                          T                                        4657798
AVF   002.98 185.0 m E Pg      2011/03/07 20:46:45.1  -0.8                          T                                        4657735
AVF   002.98 185.0 m E Sg      2011/03/07 20:47:23.6  -0.6                          T                5.1  .26 Ml 2.7         4657763
SMF   003.12 178.6 m E Pn      2011/03/07 20:46:38.8  -0.2                          T                                        4657797
SMF   003.12 178.6 m E Sg      2011/03/07 20:47:27.9  -0.6                          T               17.1  .26 Ml 3.3         4657762
BGF   003.26 190.8 m E Pn      2011/03/07 20:46:41.2   0.4                          T                                        4657796
BGF   003.26 190.8 m E Pg      2011/03/07 20:46:51.0  -0.1                          T                                        4657732
BGF   003.26 190.8 m E Sg      2011/03/07 20:47:32.1  -0.8                          T               41.4  .42 Ml 3.5         4657760
GRR   003.32 247.3 m E Pn      2011/03/07 20:46:42.2   0.6                          T                                        4657790
GRR   003.32 247.3 m E Pg      2011/03/07 20:46:52.2   0.2                          T                                        4657727
GRR   003.32 247.3 m E Sg      2011/03/07 20:47:34.4  -0.2                          T               10.9  .22 Ml 3.1         4657753
CABF  003.52 152.5 m E Pn      2011/03/07 20:46:45.2   0.7                          T                                        4657799
CABF  003.52 152.5 m E Sg      2011/03/07 20:47:41.0  -0.3                          T               19.9  .62 Ml 3.1         4657764
TCF   003.62 197.0 m E Pn      2011/03/07 20:46:46.0   0.2                          T                                        4657807
TCF   003.62 197.0 m E Pg      2011/03/07 20:46:58.2   0.4                          T                                        4657739
TCF   003.62 197.0 m E Sg      2011/03/07 20:47:43.6  -0.7                          T                5.5  .27 Ml 2.9         4657776
MFF   004.09 220.8 m E Pn      2011/03/07 20:46:52.2   0.0                          T                                        4657789
MFF   004.09 220.8 m E Sg      2011/03/07 20:47:58.2  -0.5                          T                3.8  .31 Ml 2.9         4657752
SGMF  004.41 252.4 m E Pn      2011/03/07 20:46:56.9   0.5                          T                                        4657794
SGMF  004.41 252.4 m E Sn      2011/03/07 20:47:41.4  -3.8                          T                6.2  .44 Ml 2.9         4657781
SGMF  004.41 252.4 m E Sg      2011/03/07 20:48:08.5  -0.2                          T                                        4657757
RJF   004.70 199.4 m E Pn      2011/03/07 20:47:00.3  -0.2                          T                                        4657741
RJF   004.70 199.4 m E Sg      2011/03/07 20:48:17.3  -0.7                          T                2.7  .26 Ml 2.5         4657751
LPL   004.71 153.3 m E Pn      2011/03/07 20:47:01.2   0.4                          T                                        4657785
LPL   004.71 153.3 m E Sg      2011/03/07 20:48:18.1  -0.2                          T                3.1  .55 Ml 2.6         4657744
LPG   004.73 153.3 m E Pn      2011/03/07 20:47:01.2   0.0                          T                                        4657784
LPG   004.73 153.3 m E Sg      2011/03/07 20:48:18.7  -0.4                          T                1.2  .26 Ml 2.5         4657743
ROSF  004.82 255.5 m E Pn      2011/03/07 20:47:02.2   0.1                          T                                        4657730
ROSF  004.82 255.5 m E Sg      2011/03/07 20:48:21.7   0.0                          T                6.4  .49 Ml 2.9         4657758
QUIF  004.91 250.6 m E Pn      2011/03/07 20:47:03.6   0.3                          T                                        4657793
QUIF  004.91 250.6 m E Sn      2011/03/07 20:47:54.7  -2.7                          T                                        4657780
QUIF  004.91 250.6 m E Sg      2011/03/07 20:48:24.2  -0.3                          T                3.8  .31 Ml 2.9         4657756
VIVF  004.95 172.2 m E Pn      2011/03/07 20:47:04.0   0.2                          T                                        4657787
VIVF  004.95 172.2 m E Sg      2011/03/07 20:48:25.2  -0.5                          T                5.4  .41 Ml 3.0         4657747
CAF   004.97 193.8 m E Pn      2011/03/07 20:47:04.2   0.1                          T                                        4657742
CAF   004.97 193.8 m E Sg      2011/03/07 20:48:25.6  -0.6                          T                1.7  .20 Ml 2.8         4657749
ORIF  005.06 162.4 m E Pn      2011/03/07 20:47:04.6  -0.8                          T                                        4657786
ORIF  005.06 162.4 m E Sg      2011/03/07 20:48:28.6  -0.6                          T                 .9  .28 Ml 2.4         4657745
LFF   005.23 204.0 m E Pn      2011/03/07 20:47:07.4  -0.3                          T                                        4657788
LFF   005.23 204.0 m E Sg      2011/03/07 20:48:33.9  -0.6                          T                3.9  .39 Ml 2.8         4657750
MBDF  005.44 156.5 m E Pn      2011/03/07 20:47:10.9   0.1                          T                                        4657783
MBDF  005.44 156.5 m E Sg      2011/03/07 20:48:40.7  -0.5                          T                 .6  .25 Ml 2.4         4657746
LASF  005.69 179.1 m E Pn      2011/03/07 20:47:14.5   0.6                          T                                        4657782
LASF  005.69 179.1 m E Sg      2011/03/07 20:48:48.1  -0.6                          T                  1  .26 Ml 2.6         4657748

.
EVENT     256792
    Date      Time       Latitude Longitude    Depth    Ndef Nsta Gap    Mag1  N    Mag2  N    Mag3  N   Author         ID
       rms   OT_Error      Smajor Sminor Az        Err   mdist  Mdist     Err        Err        Err      Quality

2011/03/08 00:35:52.3     48.8460   -1.0352      2.0      18    7 210  Ml 1.9  6  Md 1.8  3              js067245    256792

      0.16   +-  0.09       1.9     .8    3.67 +-  0.0    0.38   2.32   +-0.1      +-0.0                 m i ke

FRANCE
Sta     Dist  EvAz     Phase      Date       Time     TRes  Azim  AzRes  Slow  SRes Def   SNR       Amp   Per   Mag1   Mag2       ID
FLN   000.38 102.7 m E Pg      2011/03/08 00:35:59.7   0.1                          T                                        4657836
FLN   000.38 102.7 m E Sg      2011/03/08 00:36:04.6   0.1                          T               26.7  .20        Md 1.9  4657833
GRR   000.47 165.6 m E Pg      2011/03/08 00:36:02.2   0.8                          T                                        4657834
GRR   000.47 165.6 m E Sg      2011/03/08 00:36:07.5  -0.1                          T               10.8  .24        Md 1.8  4657831
LDF   000.66 112.3 m E Pg      2011/03/08 00:36:04.7   0.0                          T                                        4657835
LDF   000.66 112.3 m E Sg      2011/03/08 00:36:13.0  -0.3                          T                2.0  .24        Md 1.8  4657832
SGMF  001.17 240.2 m E Pg      2011/03/08 00:36:14.2   0.0                          T                                        4657824
SGMF  001.17 240.2 m E Sg      2011/03/08 00:36:29.4   0.1                          T                2.1  .23 Ml 1.8         4657830
ROSF  001.57 251.9 m E Pg      2011/03/08 00:36:21.2  -0.3                          T                                        4657823
ROSF  001.57 251.9 m E Sg      2011/03/08 00:36:42.0   0.1                          T                1.6  .21 Ml 2.0         4657828
QUIF  001.70 237.6 m E Pg      2011/03/08 00:36:24.2   0.3                          T                                        4657825
QUIF  001.70 237.6 m E Sg      2011/03/08 00:36:45.8   0.1                          T                  1  .23 Ml 1.7         4657829
MFF   002.32 164.7 m E Pg      2011/03/08 00:36:35.6   0.1                          T                                        4657826
MFF   002.32 164.7 m E Sg      2011/03/08 00:37:05.2  -0.1                          T                 .9  .25 Ml 2.0         4657827

.
