EVENT     284302
    Date      Time       Latitude Longitude    Depth    Ndef Nsta Gap    Mag1  N    Mag2  N    Mag3  N   Author         ID
       rms   OT_Error      Smajor Sminor Az        Err   mdist  Mdist     Err        Err        Err      Quality

2012/10/03 16:03:40.9     48.2128   -3.1070       .0 f    14    6 130  Ml 2.2  3  Md 2.0  4              bulletin    284403
                                                                                                         _ldg
      0.39   +-  0.08       1.6    1.1  162.29 +-  0.0    0.17   2.03   +-0.1      +-0.1                 m i km

FRANCE
Sta     Dist  EvAz     Phase      Date       Time     TRes  Azim  AzRes  Slow  SRes Def   SNR       Amp   Per   Mag1   Mag2       ID
ROSF  000.17 318.1 m E Pg      2012/10/03 16:03:44.7   0.2                          T                                        5083421
ROSF  000.17 318.1 m E Sg      2012/10/03 16:03:46.1  -0.9                          T              230.3  .98        Md 2.0  5083418
QUIF  000.30 187.6 m E Pg      2012/10/03 16:03:47.0   0.0                          T                                        5083419
QUIF  000.30 187.6 m E Sg      2012/10/03 16:03:50.9  -0.3                          T              164.1  .88        Md 1.9  5083416
SGMF  000.37 083.4 m E Pg      2012/10/03 16:03:48.1  -0.2                          T                                        5083420
SGMF  000.37 083.4 m E Sg      2012/10/03 16:03:52.6  -0.8                          T              219.9 1.46        Md 2.0  5083417
GRR   001.51 082.5 m E Pg      2012/10/03 16:04:09.5   0.2                          T                                        5091597
GRR   001.51 082.5 m E Sg      2012/10/03 16:04:29.4   0.4                          T                6.5  .31 Ml 2.2         5083412
LDF   002.03 078.0 m E Pn      2012/10/03 16:04:14.7   0.0                          T                                        5091596
LDF   002.03 078.0 m E Sg      2012/10/03 16:04:45.2   0.1                          T                4.1  .29 Ml 2.3         5091593
FLN   001.83 071.5 m E Pg      2012/10/03 16:04:15.3   0.1                          T                                        5091595
FLN   001.83 071.5 m E Sg      2012/10/03 16:04:39.0   0.0                          T                3.4  .30 Ml 2.1         5091594

.
EVENT     284303
    Date      Time       Latitude Longitude    Depth    Ndef Nsta Gap    Mag1  N    Mag2  N    Mag3  N   Author         ID
       rms   OT_Error      Smajor Sminor Az        Err   mdist  Mdist     Err        Err        Err      Quality

2012/10/03 17:14:09.5     44.8376    9.6082     30.0      26    7 121                                    bulletin    284404
                                                                                                         _ldg
                                               +-         0.13   3.92                                    m i ke

NORTHERN ITALY
Sta     Dist  EvAz     Phase      Date       Time     TRes  Azim  AzRes  Slow  SRes Def   SNR       Amp   Per   Mag1   Mag2       ID
SBF   001.84 238.8 m E P       2012/10/03 17:14:39.8   0.2                          T                                        5091622
SBF   001.84 238.8 m E Sn      2012/10/03 17:14:59.0   0.1                          T                8.3  .35                5091618
MBDF  002.02 267.9 m E Pn      2012/10/03 17:14:40.5  -0.1                          T                                        5091623
MBDF  002.02 267.9 m E Sn      2012/10/03 17:15:03.3  -0.1                          T                4.4  .35                5091615
PGF   002.33 191.1 m E P       2012/10/03 17:14:46.5  -0.2                          T                                        5091621
PGF   002.33 191.1 m E Sn      2012/10/03 17:15:10.7   0.0                          T                1.7  .24                5091619
FRF   002.48 240.1 m E P       2012/10/03 17:14:48.7  -0.1                          T                                        5091620
FRF   002.48 240.1 m E Sn      2012/10/03 17:15:14.5   0.3                          T                2.4  .25                5091616
CABF  003.04 307.0 m E Pn      2012/10/03 17:14:54.0  -0.3                          T                                        5091624
CDF   003.92 336.6 m E P       2012/10/03 17:15:09.5   0.2                          T                                        5091625
CDF   003.92 336.6 m E Sn      2012/10/03 17:15:48.6   0.1                          T                4.0  .42                5091614
LMR   002.69 237.1 m E Sn      2012/10/03 17:15:18.8  -0.3                          T                4.4  .43                5091617

.
EVENT     284304
    Date      Time       Latitude Longitude    Depth    Ndef Nsta Gap    Mag1  N    Mag2  N    Mag3  N   Author         ID
       rms   OT_Error      Smajor Sminor Az        Err   mdist  Mdist     Err        Err        Err      Quality

2012/10/03 17:18:01.9     44.7907    9.9376     30.0      58   21 068                                    bulletin    284405
                                                                                                         _ldg
                                               +-         0.27   5.75                                    m i ke

NORTHERN ITALY
Sta     Dist  EvAz     Phase      Date       Time     TRes  Azim  AzRes  Slow  SRes Def   SNR       Amp   Per   Mag1   Mag2       ID
SBF   002.02 243.6 m E Pg      2012/10/03 17:18:32.0  -0.8                          T                                        5083442
SBF   002.02 243.6 m E Sn      2012/10/03 17:18:56.1   0.5                          T              338.1  .50                5083438
MBDF  002.26 269.5 m E Pg      2012/10/03 17:18:35.8  -0.3                          T                                        5083449
MBDF  002.26 269.5 m E Sg      2012/10/03 17:19:03.9   2.6                          T              139.1  .58                5083432
LPG   002.36 288.5 m E Pg      2012/10/03 17:18:36.3  -1.4                          T                                        5083446
LPG   002.36 288.5 m E Sg      2012/10/03 17:19:06.9   2.9                          T               58.7  .34                5083435
LPL   002.38 288.9 m E Pg      2012/10/03 17:18:36.9  -0.9                          T                                        5083447
LPL   002.38 288.9 m E Sg      2012/10/03 17:19:06.9   2.5                          T               59.8  .44                5083434
PGF   002.34 197.2 m E Pg      2012/10/03 17:18:37.2   0.0                          T                                        5083441
PGF   002.34 197.2 m E Sg      2012/10/03 17:19:04.6   1.3                          T               29.9  .26                5083440
FRF   002.67 243.7 m E Pn      2012/10/03 17:18:40.8  -0.7                          T                                        5083444
FRF   002.67 243.7 m E Sn      2012/10/03 17:19:11.4   0.5                          T               55.0  .30                5083437
LMR   002.87 240.7 m E Pn      2012/10/03 17:18:43.2  -1.0                          T                                        5083443
LMR   002.87 240.7 m E Sn      2012/10/03 17:19:15.0  -0.7                          T               50.7  .30                5083439
ORIF  002.89 274.0 m E Pn      2012/10/03 17:18:45.3   0.8                          T                                        5083448
ORIF  002.89 274.0 m E Sn      2012/10/03 17:19:20.0   3.7                          T               96.3  .48                5083433
CABF  003.25 305.4 m E Pn      2012/10/03 17:18:50.0   0.5                          T                                        5083455
SMRF  003.23 256.9 m E Pn      2012/10/03 17:18:50.3   1.2                          T                                        5083445
SMRF  003.23 256.9 m E Sn      2012/10/03 17:19:28.8   4.4                          T               39.1  .42                5083436
HINF  003.71 325.9 m E Pn      2012/10/03 17:18:55.6   0.0                          T                                        5083456
HINF  003.71 325.9 m E Sn      2012/10/03 17:19:37.1   1.4                          T               20.8  .24                5083425
VIVF  003.75 272.8 m E Pn      2012/10/03 17:18:56.4   0.2                          T                                        5083450
VIVF  003.75 272.8 m E Sn      2012/10/03 17:19:38.1   1.4                          T               12.7  .32                5083431
CDF   004.06 334.1 m E Pn      2012/10/03 17:19:00.5   0.0                          T                                        5083458
CDF   004.06 334.1 m E Sn      2012/10/03 17:19:45.2   1.0                          T               50.0  .34                5083424
LASF  004.41 262.8 m E Pn      2012/10/03 17:19:05.3   0.1                          T                                        5083451
LASF  004.41 262.8 m E Sn      2012/10/03 17:19:54.5   1.9                          T               16.5  .52                5083430
SMF   004.65 295.6 m E Pn      2012/10/03 17:19:08.3  -0.2                          T                                        5083453
SMF   004.65 295.6 m E Sn      2012/10/03 17:19:58.7   0.4                          T               18.0  .38                5083426
SFTF  004.81 317.0 m E Pn      2012/10/03 17:19:11.6   1.1                          T                                        5083457
LOR   004.90 302.5 m E Pn      2012/10/03 17:19:12.0   0.1                          T                                        5083459
LOR   004.90 302.5 m E Sn      2012/10/03 17:20:06.5   2.2                          T               25.6  .32                5083423
AVF   005.02 295.8 m E Pn      2012/10/03 17:19:13.2  -0.2                          T                                        5083454
SSF   005.03 299.1 m E Pn      2012/10/03 17:19:13.4  -0.1                          T                                        5083460
SSF   005.03 299.1 m E Sn      2012/10/03 17:20:07.8   0.5                          T               13.8  .62                5083422
BGF   005.27 292.1 m E Pn      2012/10/03 17:19:17.0   0.1                          T                                        5083452
BGF   005.27 292.1 m E Sn      2012/10/03 17:20:14.9   1.8                          T               36.3  .40                5083427
MTLF  005.75 258.1 m E Pn      2012/10/03 17:19:24.1   0.8                          T                                        5083429
MTLF  005.75 258.1 m E Sn      2012/10/03 17:20:27.0   2.6                          T               10.9  .74                5083428

.
EVENT     284306
    Date      Time       Latitude Longitude    Depth    Ndef Nsta Gap    Mag1  N    Mag2  N    Mag3  N   Author         ID
       rms   OT_Error      Smajor Sminor Az        Err   mdist  Mdist     Err        Err        Err      Quality

2012/10/03 17:58:41.3     44.7327    9.6880     20.0 f    50   14 132  Ml 2.8 14                         bulletin    284407
                                                                                                         _ldg
      0.69   +-  0.19       4.3    3.0  114.77 +-  0.0    1.00   5.13   +-0.2                            m i ke

NORTHERN ITALY
Sta     Dist  EvAz     Phase      Date       Time     TRes  Azim  AzRes  Slow  SRes Def   SNR       Amp   Per   Mag1   Mag2       ID
SBF   001.84 242.5 m E P       2012/10/03 17:59:12.2  -0.2                          T                                        5091633
SBF   001.84 242.5 m E Sn      2012/10/03 17:59:30.1  -1.3                          T                                        5091631
SBF   001.84 242.5 m E Sg      2012/10/03 17:59:37.9  -1.6                          T               25.9  .26 Ml 3.2         5083494
MBDF  002.08 270.9 m E P       2012/10/03 17:59:15.7  -0.3                          T                                        5091637
MBDF  002.08 270.9 m E Pg      2012/10/03 17:59:20.2   0.0                          T                                        5083503
MBDF  002.08 270.9 m E Sn      2012/10/03 17:59:36.8  -0.5                          T                                        5091627
MBDF  002.08 270.9 m E Sg      2012/10/03 17:59:47.0  -0.1                          T               18.2  .46 Ml 2.8         5083485
PGF   002.24 193.1 m E P       2012/10/03 17:59:17.2  -1.0                          T                                        5091632
PGF   002.24 193.1 m E Sn      2012/10/03 17:59:39.4  -1.7                          T                8.5  .30 Ml 2.9         5083493
LPL   002.23 291.6 m E P       2012/10/03 17:59:17.4  -0.9                          T                                        5083499
LPL   002.23 291.6 m E Sn      2012/10/03 17:59:41.0  -0.1                          T                6.5  .23 Ml 2.7         5091628
LPG   002.22 291.2 m E P       2012/10/03 17:59:17.9  -0.3                          T                                        5091636
LPG   002.22 291.2 m E Sn      2012/10/03 17:59:40.4  -0.3                          T                                        5091629
LPG   002.22 291.2 m E Sg      2012/10/03 17:59:52.0   0.4                          T               11.5  .38 Ml 2.7         5091630
LMR   002.69 239.7 m E P       2012/10/03 17:59:23.4  -1.1                          T                                        5091634
LMR   002.69 239.7 m E Sn      2012/10/03 17:59:50.4  -1.1                          T               13.6  .46 Ml 2.9         5083492
ORIF  002.72 275.3 m E P       2012/10/03 17:59:25.6   0.6                          T                                        5083502
ORIF  002.72 275.3 m E Sn      2012/10/03 17:59:52.3  -0.2                          T                7.3  .38 Ml 2.6         5083483
SMRF  003.05 257.1 m E P       2012/10/03 17:59:30.2   0.5                          T                                        5091635
SMRF  003.05 257.1 m E Sn      2012/10/03 17:59:59.4  -0.9                          T                3.1  .36 Ml 2.4         5083482
CABF  003.15 307.9 m E P       2012/10/03 17:59:31.1  -0.1                          T                                        5083487
CABF  003.15 307.9 m E Sn      2012/10/03 18:00:02.7   0.0                          T                4.5  .29 Ml 2.7         5083486
HINF  003.66 328.5 m E Pn      2012/10/03 17:59:36.1   1.1                          T                                        5083489
HINF  003.66 328.5 m E Sn      2012/10/03 18:00:15.1   0.2                          T               11.4  .48 Ml 2.9         5083488
VIVF  003.57 273.7 m E P       2012/10/03 17:59:36.8  -0.4                          T                                        5083496
CDF   004.04 336.5 m E Pn      2012/10/03 17:59:40.9   0.7                          T                                        5083491
CDF   004.04 336.5 m E Sn      2012/10/03 18:00:24.4   0.3                          T                9.0  .32 Ml 3.2         5083490
LASF  004.23 263.1 m E P       2012/10/03 17:59:45.6  -0.8                          T                                        5083495
BGF   005.13 293.2 m E Pn      2012/10/03 17:59:56.8   1.8                          T                                        5091638
BGF   005.13 293.2 m E Sn      2012/10/03 18:00:50.5   0.5                          T                6.7  .41 Ml 3.1         5091626

.
EVENT     284434
    Date      Time       Latitude Longitude    Depth    Ndef Nsta Gap    Mag1  N    Mag2  N    Mag3  N   Author         ID
       rms   OT_Error      Smajor Sminor Az        Err   mdist  Mdist     Err        Err        Err      Quality

2012/10/03 20:12:15.8     42.9747   -1.4140      5.0 f    12    3 207  Ml 1.2  1  Md 1.3  2              bulletin    284535
                                                                                                         _ldg
      0.29   +-  0.14       2.9    1.6   62.18 +-  0.0    0.11   1.29   +-         +-0.1                 m i ke

PYRENEES
Sta     Dist  EvAz     Phase      Date       Time     TRes  Azim  AzRes  Slow  SRes Def   SNR       Amp   Per   Mag1   Mag2       ID
SJPF  000.20 044.9 m E Pg      2012/10/03 20:12:19.9   0.0                          T                                        5084393
SJPF  000.20 044.9 m E Sg      2012/10/03 20:12:21.8  -1.0                          T                3.6  .14        Md 1.4  5084392
ETSF  000.63 096.6 m E Pg      2012/10/03 20:12:28.1   0.2                          T                                        5084397
ETSF  000.63 096.6 m E Sg      2012/10/03 20:12:36.0  -0.3                          T                 .2  .18        Md 1.2  5084396
EPF   001.29 086.9 m E Pn      2012/10/03 20:12:39.1   0.2                          T                                        5084395
EPF   001.29 086.9 m E Sn      2012/10/03 20:12:56.2   0.6                          T                 .5  .26 Ml 1.2         5084394

.
EVENT     284417
    Date      Time       Latitude Longitude    Depth    Ndef Nsta Gap    Mag1  N    Mag2  N    Mag3  N   Author         ID
       rms   OT_Error      Smajor Sminor Az        Err   mdist  Mdist     Err        Err        Err      Quality

2012/10/03 23:02:00.9     47.5823    7.5979      4.0 f    29    5 031  Ml 1.6  4  Md 1.7  1              bulletin    284518
                                                                                                         _ldg
      0.41   +-  0.06       1.2    1.1    9.00 +-  0.0    0.01   2.56   +-0.1      +-                    m i ke

SWITZERLAND
Sta     Dist  EvAz     Phase      Date       Time     TRes  Azim  AzRes  Slow  SRes Def   SNR       Amp   Per   Mag1   Mag2       ID
HINF  000.56 295.3 m E Pg      2012/10/03 23:02:11.4  -0.1                          T                                        5084270
HINF  000.56 295.3 m E Sg      2012/10/03 23:02:18.6  -0.3                          T                3.4  .17        Md 1.7  5084269
CDF   000.86 345.5 m E Pg      2012/10/03 23:02:17.1   0.0                          T                                        5084319
CDF   000.86 345.5 m E Sg      2012/10/03 23:02:28.2  -0.1                          T                1.7  .25 Ml 1.7         5084268
CABF  001.42 227.3 m E Pn      2012/10/03 23:02:25.6  -0.2                          T                                        5084318
CABF  001.42 227.3 m E Sn      2012/10/03 23:02:44.3   0.4                          T                 .9  .22 Ml 1.6         5084317
SFTF  001.83 290.8 m E Pn      2012/10/03 23:02:31.2  -0.2                          T                                        5084322
SFTF  001.83 290.8 m E Sn      2012/10/03 23:02:54.0   0.3                          T                 .7  .24 Ml 1.6         5084321
LOR   002.56 264.3 m E Sn      2012/10/03 23:03:11.1   0.0                          T                 .3  .22 Ml 1.4         5084320

.
