EVENT     267921
    Date      Time       Latitude Longitude    Depth    Ndef Nsta Gap    Mag1  N    Mag2  N    Mag3  N   Author         ID
       rms   OT_Error      Smajor Sminor Az        Err   mdist  Mdist     Err        Err        Err      Quality

2011/12/28 14:53:02.8     44.4812    6.8784      3.0 f    18    5 100  Ml 1.4  3  Md 1.5  1              js067245    267941

      0.15   +-  0.04        .9     .6   89.39 +-  0.0    0.16   1.18   +-0.1      +-                    m i ke

FRANCE
Sta     Dist  EvAz     Phase      Date       Time     TRes  Azim  AzRes  Slow  SRes Def   SNR       Amp   Per   Mag1   Mag2       ID
MBDF  000.26 342.8 m E Pg      2011/12/28 14:53:08.1   0.0                          T                                        4808019
MBDF  000.26 342.8 m E Sg      2011/12/28 14:53:11.4  -0.2                          T                2.2  .22        Md 1.5  4808020
SBF   000.74 146.8 m E Pg      2011/12/28 14:53:16.8   0.0                          T                                        4808015
SBF   000.74 146.8 m E Sg      2011/12/28 14:53:26.2  -0.2                          T                 .8  .19                4808016
FRF   000.94 190.4 m E Pg      2011/12/28 14:53:20.4   0.0                          T                                        4808017
FRF   000.94 190.4 m E Sg      2011/12/28 14:53:32.5   0.0                          T                 .9  .19 Ml 1.5         4808018
SMRF  001.06 242.1 m E Sn      2011/12/28 14:53:37.6   0.2                          T                 .9  .28 Ml 1.3         4808013
LMR   001.18 193.2 m E Sg      2011/12/28 14:53:40.2   0.1                          T                 .4  .20 Ml 1.2         4808014

.
EVENT     267903
    Date      Time       Latitude Longitude    Depth    Ndef Nsta Gap    Mag1  N    Mag2  N    Mag3  N   Author         ID
       rms   OT_Error      Smajor Sminor Az        Err   mdist  Mdist     Err        Err        Err      Quality

2011/12/28 15:27:55.7     46.2910    6.7751      2.0      10    4 222  Ml 1.2  2  Md 1.4  2              js067245    267923

      0.11   +-  0.10       2.1     .6  132.63 +-  0.0    0.10   1.56   +-0.3      +-0.1                 m i ke

SWITZERLAND
Sta     Dist  EvAz     Phase      Date       Time     TRes  Azim  AzRes  Slow  SRes Def   SNR       Amp   Per   Mag1   Mag2       ID
LPL   000.78 182.2 m E Pg      2011/12/28 15:28:10.4  -0.2                          T                                        4808025
LPL   000.78 182.2 m E Sg      2011/12/28 15:28:20.7   0.0                          T                 .9  .18        Md 1.3  4808026
LPG   000.79 181.2 m E Pg      2011/12/28 15:28:10.9  -0.1                          T                                        4808023
LPG   000.79 181.2 m E Sg      2011/12/28 15:28:21.3  -0.1                          T                1.4  .32        Md 1.4  4808024
ORIF  001.51 204.9 m E Sg      2011/12/28 15:28:43.6   0.2                          T                 .5  .22 Ml 1.4         4808021
MBDF  001.56 180.1 m E Sg      2011/12/28 15:28:45.3   0.1                          T                 .2  .22 Ml 1.0         4808022

.
EVENT     267904
    Date      Time       Latitude Longitude    Depth    Ndef Nsta Gap    Mag1  N    Mag2  N    Mag3  N   Author         ID
       rms   OT_Error      Smajor Sminor Az        Err   mdist  Mdist     Err        Err        Err      Quality

2011/12/28 16:37:50.5     44.3870    7.0335      2.0      30    9 051  Ml 1.8  7  Md 1.8  2              js067245    267924

      0.21   +-  0.04        .8     .6   75.97 +-  0.0    0.13   1.75   +-0.4      +-0.0                 m i ke

NORTHERN ITALY
Sta     Dist  EvAz     Phase      Date       Time     TRes  Azim  AzRes  Slow  SRes Def   SNR       Amp   Per   Mag1   Mag2       ID
MBDF  000.39 331.2 m E Pg      2011/12/28 16:37:57.9  -0.3                          T                                        4808044
MBDF  000.39 331.2 m E Sg      2011/12/28 16:38:03.6   0.3                          T               12.0  .29        Md 1.8  4808028
SBF   000.60 150.9 m E Pg      2011/12/28 16:38:02.0   0.0                          T                                        4808037
SBF   000.60 150.9 m E Sg      2011/12/28 16:38:09.7  -0.1                          T                4.8  .27        Md 1.8  4808036
FRF   000.87 198.8 m E Pg      2011/12/28 16:38:07.2   0.3                          T                                        4808039
FRF   000.87 198.8 m E Sg      2011/12/28 16:38:17.8  -0.4                          T                7.8  .24 Ml 2.3         4808034
ORIF  000.98 303.2 m E Pg      2011/12/28 16:38:09.0   0.0                          T                                        4808043
ORIF  000.98 303.2 m E Sg      2011/12/28 16:38:21.8   0.1                          T                1.3  .25 Ml 1.5         4808029
SMRF  001.13 249.1 m E Pg      2011/12/28 16:38:11.5  -0.1                          T                                        4808040
SMRF  001.13 249.1 m E Sn      2011/12/28 16:38:26.6  -0.3                          T               10.2  .42 Ml 2.3         4808033
SMRF  001.13 249.1 m E S       2011/12/28 16:38:29.9   0.3                          T                                        4808031
LMR   001.12 200.0 m E Pg      2011/12/28 16:38:11.9   0.4                          T                                        4808038
LMR   001.12 200.0 m E Sg      2011/12/28 16:38:25.7  -0.3                          T                4.7  .26 Ml 2.2         4808035
LPG   001.13 349.9 m E Pg      2011/12/28 16:38:12.1   0.1                          T                                        4808041
LPG   001.13 349.9 m E Sg      2011/12/28 16:38:26.6   0.0                          T                1.8  .29 Ml 1.7         4808032
LPL   001.15 349.4 m E Pg      2011/12/28 16:38:12.2  -0.1                          T                                        4808042
LPL   001.15 349.4 m E Sg      2011/12/28 16:38:27.4   0.2                          T                1.2  .24 Ml 1.6         4808030
VIVF  001.75 286.4 m E Sg      2011/12/28 16:38:45.4  -0.3                          T                 .3  .18 Ml 1.4         4808027

.
EVENT     267906
    Date      Time       Latitude Longitude    Depth    Ndef Nsta Gap    Mag1  N    Mag2  N    Mag3  N   Author         ID
       rms   OT_Error      Smajor Sminor Az        Err   mdist  Mdist     Err        Err        Err      Quality

2011/12/28 20:04:24.6     42.6872     .6924      2.0      28    6 044  Ml 2.0  5  Md 2.3  1              js067245    267926

      0.44   +-  0.07       1.5    1.3   28.89 +-  0.0    0.37   2.68   +-0.1      +-                    m i ke

PYRENEES
Sta     Dist  EvAz     Phase      Date       Time     TRes  Azim  AzRes  Slow  SRes Def   SNR       Amp   Per   Mag1   Mag2       ID
EPF   000.43 323.0 m E Pg      2011/12/28 20:04:32.5  -0.4                          T                                        4808045
EPF   000.43 323.0 m E Sg      2011/12/28 20:04:38.3  -0.3                          T               13.0  .18        Md 2.3  4808046
ETSF  000.95 283.3 m E Pg      2011/12/28 20:04:42.3  -0.1                          T                                        4808263
ETSF  000.95 283.3 m E Sg      2011/12/28 20:04:54.6  -0.1                          T                3.5  .20 Ml 2.0         4808264
MTLF  001.30 059.2 m E Pg      2011/12/28 20:04:48.8   0.0                          T                                        4808261
MTLF  001.30 059.2 m E Sg      2011/12/28 20:05:05.6   0.1                          T                5.2  .26 Ml 2.2         4808262
LFF   002.25 000.9 m E Pn      2011/12/28 20:05:01.0  -0.1                          T                                        4808258
LFF   002.25 000.9 m E Sg      2011/12/28 20:05:35.4   0.1                          T                3.1  .35 Ml 2.0         4808255
RJF   002.68 012.5 m E Pn      2011/12/28 20:05:06.7  -0.2                          T                                        4808260
RJF   002.68 012.5 m E Pg      2011/12/28 20:05:14.5   0.1                          T                                        4808259
RJF   002.68 012.5 m E Sg      2011/12/28 20:05:49.3   0.4                          T                1.7  .24 Ml 1.9         4808254
CAF   002.45 023.5 m E Pg      2011/12/28 20:05:09.8  -0.2                          T                                        4808257
CAF   002.45 023.5 m E Sg      2011/12/28 20:05:41.4  -0.2                          T                 .9  .20 Ml 1.9         4808256

.
EVENT     267907
    Date      Time       Latitude Longitude    Depth    Ndef Nsta Gap    Mag1  N    Mag2  N    Mag3  N   Author         ID
       rms   OT_Error      Smajor Sminor Az        Err   mdist  Mdist     Err        Err        Err      Quality

2011/12/29 01:08:47.7     46.5484   -2.6146      7.0 f    52   16 196  Ml 2.5 20  Md 2.8  2              js067245    267927

      0.91   +-  0.14       3.0    1.3   48.41 +-  0.0    1.42   4.50   +-0.1      +-0.1                 m i ke

BAY OF BISCAY
Sta     Dist  EvAz     Phase      Date       Time     TRes  Azim  AzRes  Slow  SRes Def   SNR       Amp   Per   Mag1   Mag2       ID
QUIF  001.42 344.9 m E Pn      2011/12/29 01:09:12.2   0.0                          T   001.0                                4805746
QUIF  001.42 344.9 m E Pg      2011/12/29 01:09:14.2   0.0                          T                                        4808284
QUIF  001.42 344.9 m E Sg      2011/12/29 01:09:33.7   1.2                          T   001.0        5.7  .20 Ml 2.5 Md 2.7  4805747
SGMF  001.71 001.3 m E Pn      2011/12/29 01:09:16.5   0.3                          T   001.0                                4805750
SGMF  001.71 001.3 m E Pg      2011/12/29 01:09:19.4  -0.1                          T                                        4808283
SGMF  001.71 001.3 m E Sg      2011/12/29 01:09:41.4  -0.2                          T   001.0        7.4  .24 Ml 2.6         4805751
MFF   001.70 087.3 m E Pn      2011/12/29 01:09:16.7   0.6                          T   001.0                                4805740
MFF   001.70 087.3 m E Pg      2011/12/29 01:09:19.3  -0.2                          T                                        4808279
MFF   001.70 087.3 m E Sn      2011/12/29 01:09:36.4  -0.5                          T   001.0        4.8  .28 Ml 2.5 Md 2.8  4805741
MFF   001.70 087.3 m E Sg      2011/12/29 01:09:41.5   0.1                          T                2.6  .17 Ml 2.5         4808292
ROSF  001.84 346.2 m E Pn      2011/12/29 01:09:18.1   0.0                          T                                        4808282
ROSF  001.84 346.2 m E Pg      2011/12/29 01:09:21.9  -0.1                          T                                        4808281
ROSF  001.84 346.2 m E Sn      2011/12/29 01:09:40.4   0.2                          T   001.0        7.4  .44 Ml 2.4         4805749
ROSF  001.84 346.2 m E Sg      2011/12/29 01:09:46.9   1.1                          T   001.0        5.9  .26 Ml 2.5         4805748
GRR   002.19 032.3 m E Pg      2011/12/29 01:09:28.3  -0.1                          T   001.0                                4805733
GRR   002.19 032.3 m E Sn      2011/12/29 01:09:48.5   0.0                          T                                        4808294
GRR   002.19 032.3 m E Sg      2011/12/29 01:09:56.9   0.2                          T   001.0        4.2  .24 Ml 2.4         4805734
LDF   002.65 038.6 m E Pn      2011/12/29 01:09:29.3   0.2                          T   001.0                                4805735
LDF   002.65 038.6 m E Pg      2011/12/29 01:09:37.1   0.2                          T                                        4808303
LDF   002.65 038.6 m E Sn      2011/12/29 01:09:59.4  -0.2                          T   001.0                                4805736
LDF   002.65 038.6 m E Sg      2011/12/29 01:10:09.5  -1.5                          T   001.0        4.2  .36 Ml 2.4         4805737
FLN   002.64 032.3 m E P       2011/12/29 01:09:31.5  -0.1                          T                                        4808302
FLN   002.64 032.3 m E Pg      2011/12/29 01:09:36.7   0.0 220.3  6.4               T                                        4808301
FLN   002.64 032.3 m E Sn      2011/12/29 01:09:59.9   0.6 213.3  -0.6              T   001.0                                4805731
FLN   002.64 032.3 m E Sg      2011/12/29 01:10:09.5  -1.2                          T   001.0        4.2  .32 Ml 2.3         4805732
LFF   002.85 123.2 m E Pn      2011/12/29 01:09:31.8   0.1                          T   001.0                                4805738
LFF   002.85 123.2 m E Sg      2011/12/29 01:10:17.5   0.4                          T   001.0        9.3  .52 Ml 2.5         4805739
TCF   003.35 092.7 m E Pn      2011/12/29 01:09:38.2  -0.4                          T                                        4808300
TCF   003.35 092.7 m E P       2011/12/29 01:09:41.7   0.0                          T                                        4808299
TCF   003.35 092.7 m E Pg      2011/12/29 01:09:49.5  -0.3                          T                                        4808298
TCF   003.35 092.7 m E Sn      2011/12/29 01:10:16.0  -0.2                          T   001.0                                4805744
TCF   003.35 092.7 m E Sg      2011/12/29 01:10:33.1   0.3                          T   001.0        3.3  .52 Ml 2.3         4805745
CAF   003.66 114.7 m E Pn      2011/12/29 01:09:42.9   0.1                          T   001.0                                4805727
CAF   003.66 114.7 m E Sn      2011/12/29 01:10:22.5  -1.1                          T   001.0                                4805728
CAF   003.66 114.7 m E Sg      2011/12/29 01:10:42.1  -0.3                          T   001.0        1.7  .24 Ml 2.4         4805729
BGF   003.77 087.9 m E Pn      2011/12/29 01:09:45.2   0.9                          T   001.0                                4805724
BGF   003.77 087.9 m E Sn      2011/12/29 01:10:26.6   0.4                          T   001.0                                4805725
BGF   003.77 087.9 m E Sg      2011/12/29 01:10:47.6   1.7                          T   001.0        5.6  .40 Ml 2.7         4805726
AVF   004.12 084.5 m E Pn      2011/12/29 01:09:48.9  -0.1                          T   001.0                                4805723
SSF   004.23 080.8 m E Pn      2011/12/29 01:09:49.9  -0.7                          T   001.0                                4805742
SSF   004.23 080.8 m E Sn      2011/12/29 01:10:37.6   0.2                          T   001.0        5.4  .88 Ml 2.6         4805743
LOR   004.50 078.4 m E Pg      2011/12/29 01:10:10.7  -0.2 259.2  -4.0              T                                        4808297
RJF   003.14 111.9 m E Sn      2011/12/29 01:10:11.1  -0.2                          T                                        4808277
RJF   003.14 111.9 m E Sg      2011/12/29 01:10:27.4   1.1                          T                3.4  .24 Ml 2.3         4808278
EPF   004.10 148.1 m E Sn      2011/12/29 01:10:34.1  -0.1                          T   001.0        1.8  .36 Ml 2.4         4805730
EPF   004.10 148.1 m E Sg      2011/12/29 01:10:56.2   0.0                          T                  1  .22 Ml 2.3         4808293

.
EVENT     267912
    Date      Time       Latitude Longitude    Depth    Ndef Nsta Gap    Mag1  N    Mag2  N    Mag3  N   Author         ID
       rms   OT_Error      Smajor Sminor Az        Err   mdist  Mdist     Err        Err        Err      Quality

2011/12/29 04:30:34.1     48.5292   -4.7675     15.0      16    7 323  Ml 2.2  8  Md 2.0  1              js067245    267932

      0.57   +-  0.34       6.3    4.7  177.24 +-  0.0    1.01   3.68   +-0.2      +-                    m i ke

FRANCE
Sta     Dist  EvAz     Phase      Date       Time     TRes  Azim  AzRes  Slow  SRes Def   SNR       Amp   Per   Mag1   Mag2       ID
ROSF  001.01 100.4 m E Pg      2011/12/29 04:30:53.0  -0.2                          T                                        4808326
ROSF  001.01 100.4 m E Sg      2011/12/29 04:31:07.3   0.7                          T                6.6  .29 Ml 2.2 Md 2.0  4808327
QUIF  001.23 119.2 m E Pn      2011/12/29 04:30:55.4   0.2                          T                                        4808322
QUIF  001.23 119.2 m E Pg      2011/12/29 04:30:56.9  -0.4                          T                                        4808334
QUIF  001.23 119.2 m E Sg      2011/12/29 04:31:13.1  -0.3                          T                8.2  .21 Ml 2.5         4808323
SGMF  001.50 099.8 m E Pg      2011/12/29 04:31:01.9  -0.3                          T                                        4808324
SGMF  001.50 099.8 m E Sn      2011/12/29 04:31:17.5   0.5                          T                                        4808333
SGMF  001.50 099.8 m E Sg      2011/12/29 04:31:21.5  -0.1                          T                5.0  .29 Ml 2.3         4808325
GRR   002.61 091.6 m E Pn      2011/12/29 04:31:14.2   0.3                          T                                        4808332
GRR   002.61 091.6 m E Pg      2011/12/29 04:31:22.9   0.4                          T                                        4808318
GRR   002.61 091.6 m E Sg      2011/12/29 04:31:55.8  -0.3                          T                2.0  .18 Ml 2.2         4808321
FLN   002.85 083.7 m E Sg      2011/12/29 04:32:03.4  -0.3                          T                 .7  .18 Ml 1.8         4808319
LDF   003.09 087.1 m E Sg      2011/12/29 04:32:10.9  -0.1                          T                1.6  .25 Ml 2.2         4808320
MFF   003.68 119.9 m E Sg      2011/12/29 04:32:29.4   0.0                          T                1.7  .37 Ml 2.4         4808335

.
