BEGIN GSE2.0
MSG_TYPE DATA
MSG_ID 17-FEB-1109:11:12  FRA_NDC
E-MAIL
DATA_TYPE BULLETIN
Reviewed Bulletin (REB) # P2011-006  from French NDC for regional phases     PERIOD 09 FEB 2011 TO 15 FEB 2011 C M., J-P S
EVENT     255817
    Date      Time       Latitude Longitude    Depth    Ndef Nsta Gap    Mag1  N    Mag2  N    Mag3  N   Author         ID
       rms   OT_Error      Smajor Sminor Az        Err   mdist  Mdist     Err        Err        Err      Quality

2011/02/09 00:45:20.2     43.9897   15.7687      2.0     100   18 047  Ml 3.1 17                         js067245    255837

      0.78   +-  0.11       2.7    2.3  153.28 +-  0.0    1.27   8.97   +-0.3                            m i ke

ADRIATIC SEA
Sta     Dist  EvAz     Phase      Date       Time     TRes  Azim  AzRes  Slow  SRes Def   SNR       Amp   Per   Mag1   Mag2       ID
PGF   005.15 256.1 m E Pn      2011/02/09 00:46:36.4   0.1                          T                                        4644974
PGF   005.15 256.1 m E Sn      2011/02/09 00:47:32.8   0.0                          T                2.4  .45 Ml 2.9         4644943
SBF   006.02 271.7 m E Pn      2011/02/09 00:46:48.1   0.0                          T                                        4644973
SBF   006.02 271.7 m E Sn      2011/02/09 00:47:53.5   0.0                          T               30.3  .96 Ml 3.6         4644944
MBDF  006.49 279.6 m E Pn      2011/02/09 00:46:54.6   0.0                          T                                        4644966
MBDF  006.49 279.6 m E Sn      2011/02/09 00:48:05.1   0.1                          T                9.0  .80 Ml 3.2         4644950
FRF   006.62 269.4 m E Pn      2011/02/09 00:46:56.1   0.0                          T                                        4644971
LPG   006.60 286.3 m E Pn      2011/02/09 00:46:56.1  -0.1                          T                                        4644969
LPG   006.60 286.3 m E Sn      2011/02/09 00:48:07.6  -0.1                          T               18.2  .90 Ml 3.5         4644947
FRF   006.62 269.4 m E Sn      2011/02/09 00:48:07.6  -0.1                          T                1.9  .31 Ml 3.0         4644946
LPL   006.61 286.5 m E Pn      2011/02/09 00:46:56.3  -0.1                          T                                        4644968
LPL   006.61 286.5 m E Sn      2011/02/09 00:48:08.1   0.2                          T                3.5  .46 Ml 3.1         4644948
LMR   006.75 267.6 m E Pn      2011/02/09 00:46:58.0   0.1                          T                                        4644972
LMR   006.75 267.6 m E Sn      2011/02/09 00:48:10.9   0.1                          T                1.4  .31 Ml 2.9         4644945
ORIF  007.14 280.9 m E Pn      2011/02/09 00:47:03.3  -0.1                          T                                        4644967
ORIF  007.14 280.9 m E Sn      2011/02/09 00:48:20.4   0.1                          T                5.7  .52 Ml 3.3         4644949
HINF  007.30 304.7 m E Pn      2011/02/09 00:47:05.7   0.1                          T                                        4644962
HINF  007.30 304.7 m E Sn      2011/02/09 00:48:23.9  -0.3                          T                1.5  .35 Ml 2.9         4644953
CABF  007.31 294.4 m E Pn      2011/02/09 00:47:05.7   0.0                          T                                        4644963
CABF  007.31 294.4 m E Sn      2011/02/09 00:48:24.5   0.0                          T                1.5  .52 Ml 2.8         4644952
SMRF  007.35 273.4 m E Pn      2011/02/09 00:47:06.1  -0.1                          T                                        4644970
CDF   007.37 309.9 m E Pn      2011/02/09 00:47:06.4   0.0                          T                                        4644961
CDF   007.37 309.9 m E Sn      2011/02/09 00:48:25.7  -0.1                          T                 .8  .38 Ml 2.7         4644954
LANF  007.42 315.0 m E Pn      2011/02/09 00:47:07.0  -0.1                          T                                        4644960
LANF  007.42 315.0 m E Sn      2011/02/09 00:48:27.0   0.0                          T                1.8  .22 Ml 3.2         4644955
HAU   007.69 304.8 m E Pn      2011/02/09 00:47:10.7  -0.1                          T                                        4644959
VIVF  007.99 280.1 m E Pn      2011/02/09 00:47:14.8  -0.1                          T                                        4644965
THEF  008.00 305.4 m E Pn      2011/02/09 00:47:15.0   0.0                          T                                        4644958
SMF   008.81 291.7 m E Pn      2011/02/09 00:47:26.2   0.1                          T                                        4644964
SMF   008.81 291.7 m E Sn      2011/02/09 00:49:00.1  -0.2                          T                2.0  .39 Ml 3.2         4644951
LOR   008.97 295.6 m E Pn      2011/02/09 00:47:28.1   0.0 112.9  5.8               T                                        4644957
LOR   008.97 295.6 m E Sn      2011/02/09 00:49:04.0   0.1                          T                3.1  .40 Ml 3.4         4644956

.
EVENT     255820
    Date      Time       Latitude Longitude    Depth    Ndef Nsta Gap    Mag1  N    Mag2  N    Mag3  N   Author         ID
       rms   OT_Error      Smajor Sminor Az        Err   mdist  Mdist     Err        Err        Err      Quality

2011/02/09 01:23:47.0     47.3927   -3.3200     15.0      19    7 253  Ml 1.9  8  Md 1.8  3              js067245    255840

      0.79   +-  0.21       3.7    1.7   54.62 +-  0.0    0.53   2.46   +-0.2      +-0.0                 m i ke

FRANCE
Sta     Dist  EvAz     Phase      Date       Time     TRes  Azim  AzRes  Slow  SRes Def   SNR       Amp   Per   Mag1   Mag2       ID
QUIF  000.53 011.2 m E Pg      2011/02/09 01:23:57.6   0.1                          T                                        4645023
QUIF  000.53 011.2 m E Sg      2011/02/09 01:24:04.5  -0.2                          T               10.2  .20        Md 1.8  4645018
ROSF  000.94 001.9 m E Pg      2011/02/09 01:24:04.9   0.0                          T                                        4645021
ROSF  000.94 001.9 m E Sg      2011/02/09 01:24:16.5  -0.8                          T                6.4  .28 Ml 2.1 Md 1.7  4645020
SGMF  001.00 030.5 m E Pn      2011/02/09 01:24:05.0   0.0                          T                                        4645022
SGMF  001.00 030.5 m E Pg      2011/02/09 01:24:06.3   0.3                          T                                        4645749
SGMF  001.00 030.5 m E Sg      2011/02/09 01:24:19.5   0.4                          T                2.3  .32 Ml 1.7 Md 1.8  4645019
GRR   001.93 058.1 m E Pg      2011/02/09 01:24:23.1   0.1                          T                                        4645038
GRR   001.93 058.1 m E Sg      2011/02/09 01:24:47.3  -0.7                          T                1.4  .20 Ml 1.9         4645037
MFF   002.31 108.8 m E Pg      2011/02/09 01:24:30.1   0.1                          T                                        4645033
MFF   002.31 108.8 m E Sg      2011/02/09 01:24:59.5  -0.3                          T                 .9  .25 Ml 2.0         4645034
FLN   002.35 053.2 m E Pg      2011/02/09 01:24:30.7   0.1 235.6  0.3               T                                        4645031
FLN   002.35 053.2 m E Sg      2011/02/09 01:25:00.8  -0.1                          T                1.2  .22 Ml 1.8         4645035
LDF   002.46 059.6 m E Pg      2011/02/09 01:24:32.8   0.1                          T                                        4645032
LDF   002.46 059.6 m E Sg      2011/02/09 01:25:04.1  -0.4                          T                 .9  .22 Ml 1.9         4645036

.
EVENT     255822
    Date      Time       Latitude Longitude    Depth    Ndef Nsta Gap    Mag1  N    Mag2  N    Mag3  N   Author         ID
       rms   OT_Error      Smajor Sminor Az        Err   mdist  Mdist     Err        Err        Err      Quality

2011/02/09 03:40:36.6     46.4346    1.9386      3.0 f    32   13 112  Ml 2.0 12  Md 1.9  3              js067245    255842

      0.24   +-  0.05       1.0     .7  143.71 +-  0.0    0.24   2.72   +-0.2      +-0.0                 m i ke

FRANCE
Sta     Dist  EvAz     Phase      Date       Time     TRes  Azim  AzRes  Slow  SRes Def   SNR       Amp   Per   Mag1   Mag2       ID
TCF   000.24 127.8 m E Pg      2011/02/09 03:40:41.6   0.2                          T                                        4645058
TCF   000.24 127.8 m E Sg      2011/02/09 03:40:45.0   0.3                          T                8.4  .18        Md 1.9  4645046
BGF   000.64 078.6 m E Pg      2011/02/09 03:40:49.0   0.3                          T                                        4645054
BGF   000.64 078.6 m E Sg      2011/02/09 03:40:57.1   0.0                          T               10.6  .22        Md 1.9  4645042
HYF   000.96 029.7 m E Pg      2011/02/09 03:40:55.0   0.4                          T                                        4645053
HYF   000.96 029.7 m E Sg      2011/02/09 03:41:07.5   0.4                          T                                        4645043
AVF   001.04 069.4 m E Pg      2011/02/09 03:40:56.1   0.1                          T                                        4645052
AVF   001.04 069.4 m E Sg      2011/02/09 03:41:09.3  -0.2                          T                3.7  .24 Ml 2.0         4645045
RJF   001.17 194.8 m E Pn      2011/02/09 03:40:58.1   0.0                          T                                        4645050
RJF   001.17 194.8 m E Pg      2011/02/09 03:40:58.6   0.1                          T                                        4645750
RJF   001.17 194.8 m E Sg      2011/02/09 03:41:13.6   0.0                          T                5.5  .24 Ml 1.9         4645082
SSF   001.25 059.2 m E Pg      2011/02/09 03:40:59.4  -0.5                          T                                        4645057
SSF   001.25 059.2 m E Sg      2011/02/09 03:41:15.8  -0.2                          T                2.6  .18 Ml 2.2         4645047
SMF   001.33 080.2 m E Pg      2011/02/09 03:41:00.4  -1.1                          T                                        4645051
SMF   001.33 080.2 m E Sg      2011/02/09 03:41:18.5  -0.2                          T                1.9  .22 Ml 1.9         4645044
CAF   001.51 176.6 m E Pn      2011/02/09 03:41:03.0   0.1                          T                                        4645049
CAF   001.51 176.6 m E Pg      2011/02/09 03:41:04.6  -0.2                          T                                        4645751
CAF   001.51 176.6 m E Sg      2011/02/09 03:41:24.2  -0.2                          T                3.2  .18 Ml 2.3         4645080
MFF   001.45 277.4 m E Pg      2011/02/09 03:41:03.5  -0.1                          T                                        4645086
MFF   001.45 277.4 m E Sg      2011/02/09 03:41:22.2  -0.1                          T                2.2  .32 Ml 2.0         4645083
LOR   001.56 057.0 m E Pg      2011/02/09 03:41:05.8   0.1 231.5  -6.9              T                                        4645056
LOR   001.56 057.0 m E Sg      2011/02/09 03:41:25.5  -0.3 237.6  -0.8              T                3.8  .26 Ml 2.2         4645048
LFF   001.72 209.8 m E Pg      2011/02/09 03:41:08.6   0.1                          T                                        4645085
LFF   001.72 209.8 m E Sg      2011/02/09 03:41:30.6   0.0                          T               10.6  .51 Ml 2.3         4645081
VIVF  002.48 128.5 m E Pg      2011/02/09 03:41:22.4  -0.3                          T                                        4645084
VIVF  002.48 128.5 m E Sg      2011/02/09 03:41:54.4  -0.3                          T                1.1  .28 Ml 1.9         4645079
LASF  002.72 149.4 m E Pg      2011/02/09 03:41:27.0  -0.1                          T                                        4645077
LASF  002.72 149.4 m E Sg      2011/02/09 03:42:02.1   0.1                          T                 .9  .33 Ml 1.8         4645078

.
EVENT     255818
    Date      Time       Latitude Longitude    Depth    Ndef Nsta Gap    Mag1  N    Mag2  N    Mag3  N   Author         ID
       rms   OT_Error      Smajor Sminor Az        Err   mdist  Mdist     Err        Err        Err      Quality

2011/02/09 07:13:10.0     44.3405   11.5755     10.0 f    19    7 167  Ml 2.5  8                         js067245    255838

      0.62   +-  0.18       4.0    2.7   59.68 +-  0.0    0.09   3.80   +-0.4                            m i ke

NORTHERN ITALY
Sta     Dist  EvAz     Phase      Date       Time     TRes  Azim  AzRes  Slow  SRes Def   SNR       Amp   Per   Mag1   Mag2       ID
PGF   002.59 227.2 m E Pn      2011/02/09 07:13:50.3   0.0                          T                                        4645126
PGF   002.59 227.2 m E Sn      2011/02/09 07:14:20.2   0.2                          T               10.3  .46 Ml 2.9         4645125
SBF   003.02 262.3 m E Pn      2011/02/09 07:13:56.2   0.1                          T                                        4645120
SBF   003.02 262.3 m E Sn      2011/02/09 07:14:29.9  -0.2                          T               10.3  .41 Ml 2.8         4645123
MBDF  003.46 278.1 m E Pn      2011/02/09 07:14:02.2   0.0                          T                                        4645118
MBDF  003.46 278.1 m E Sn      2011/02/09 07:14:40.4  -0.3                          T                1.8  .35 Ml 2.2         4645115
LPG   003.62 290.3 m E Pn      2011/02/09 07:14:04.5   0.0                          T                                        4645116
LPG   003.62 290.3 m E Sn      2011/02/09 07:14:44.6  -0.1                          T                1.6  .52 Ml 2.1         4645113
FRF   003.64 259.4 m E Pn      2011/02/09 07:14:04.5   0.0                          T                                        4645119
FRF   003.64 259.4 m E Sn      2011/02/09 07:14:44.9   0.0                          T               10.1  .55 Ml 2.9         4645124
LPL   003.64 290.6 m E Pn      2011/02/09 07:14:04.7   0.0                          T                                        4645117
LPL   003.64 290.6 m E Sn      2011/02/09 07:14:45.0  -0.1                          T                  1  .26 Ml 2.1         4645114
LMR   003.80 256.4 m E Pn      2011/02/09 07:14:06.1  -0.5                          T                                        4645121
LMR   003.80 256.4 m E Sn      2011/02/09 07:14:48.7   0.0                          T                3.6  .39 Ml 2.6         4645122

.
EVENT     255908
    Date      Time       Latitude Longitude    Depth    Ndef Nsta Gap    Mag1  N    Mag2  N    Mag3  N   Author         ID
       rms   OT_Error      Smajor Sminor Az        Err   mdist  Mdist     Err        Err        Err      Quality

2011/02/09 11:05:44.9     43.0492     .3754       .0 f     8    4 163  Ml 1.7  2  Md 1.8  1              js067245    255928

      0.21   +-  0.06       2.8     .8    5.19 +-  0.0    0.03   1.38   +-0.4      +-                    m i km

FRANCE
Sta     Dist  EvAz     Phase      Date       Time     TRes  Azim  AzRes  Slow  SRes Def   SNR       Amp   Per   Mag1   Mag2       ID
EPF   000.03 234.0 m E Pg      2011/02/09 11:05:45.8   0.0                          T                                        4645764
EPF   000.03 234.0 m E Sg      2011/02/09 11:05:46.1  -0.2                          T              648.6  .20        Md 1.8  4645765
ETSF  000.70 257.9 m E Pg      2011/02/09 11:05:58.3  -0.1                          T                                        4645762
ETSF  000.70 257.9 m E Sg      2011/02/09 11:06:07.4  -0.4                          T                4.4  .24                4645763
SJPF  001.17 273.7 m E Pg      2011/02/09 11:06:07.0   0.0                          T                                        4645758
SJPF  001.17 273.7 m E Sg      2011/02/09 11:06:22.3  -0.2                          T                 .9  .26 Ml 1.4         4645759
MTLF  001.38 077.2 m E Pg      2011/02/09 11:06:10.6  -0.2                          T                                        4645760
MTLF  001.38 077.2 m E Sg      2011/02/09 11:06:28.9   0.0                          T                2.3  .20 Ml 2.1         4645761

.
EVENT     255824
    Date      Time       Latitude Longitude    Depth    Ndef Nsta Gap    Mag1  N    Mag2  N    Mag3  N   Author         ID
       rms   OT_Error      Smajor Sminor Az        Err   mdist  Mdist     Err        Err        Err      Quality

2011/02/09 11:37:22.0     35.8630   -4.4450     30.0      54    4 158  Ml 3.9  2                         js067245    255844

      1.25   +-  0.38       9.9    5.4    9.36 +-  0.0    0.75   8.06   +-0.6                            m i ke

STRAIT OF GIBRALTAR
Sta     Dist  EvAz     Phase      Date       Time     TRes  Azim  AzRes  Slow  SRes Def   SNR       Amp   Per   Mag1   Mag2       ID
EVOP  003.96 313.3 m E Pn      2011/02/09 11:38:20.1   0.9                          T                                        4645172
EVOP  003.96 313.3 m E Sn      2011/02/09 11:39:01.6  -0.3                          T              139.9  .30 Ml 4.3         4645171
SJPF  007.66 018.0 m E P       2011/02/09 11:39:14.1  -0.2                          T                                        4645176
SJPF  007.66 018.0 m E Sn      2011/02/09 11:40:30.8   0.7                          T                6.2  .54 Ml 3.4         4645173
ETSF  007.64 022.0 m E P       2011/02/09 11:39:14.3   0.1                          T                                        4645175
EPF   008.06 025.9 m E P       2011/02/09 11:39:19.2  -0.7                          T                                        4645177

.
EVENT     255843
    Date      Time       Latitude Longitude    Depth    Ndef Nsta Gap    Mag1  N    Mag2  N    Mag3  N   Author         ID
       rms   OT_Error      Smajor Sminor Az        Err   mdist  Mdist     Err        Err        Err      Quality

2011/02/09 12:18:00.0     36.9873   -4.8016      2.0      50    4 108  Ml 3.1  4                         js067245    255863

      0.61   +-  0.12       2.5    1.8    8.48 +-  0.0    0.42   7.21   +-0.7                            m i ke

STRAIT OF GIBRALTAR
Sta     Dist  EvAz     Phase      Date       Time     TRes  Azim  AzRes  Slow  SRes Def   SNR       Amp   Per   Mag1   Mag2       ID
EVOP  003.05 301.3 m E Pn      2011/02/09 12:18:46.6  -0.7                          T                                        4645331
EVOP  003.05 301.3 m E Pg      2011/02/09 12:18:56.7   0.2                          T                                        4645329
EVOP  003.05 301.3 m E Sg      2011/02/09 12:19:35.4  -0.2                          T              140.5  .36 Ml 4.0         4645330
SJPF  006.70 023.0 m E Pn      2011/02/09 12:19:37.2   0.1                          T                                        4645328
SJPF  006.70 023.0 m E Sn      2011/02/09 12:20:49.8   0.1                          T                 .8  .33 Ml 2.6         4645334
ETSF  006.74 027.6 m E Pn      2011/02/09 12:19:37.9   0.1                          T                                        4645327
ETSF  006.74 027.6 m E Sn      2011/02/09 12:20:50.7   0.0                          T                1.1  .33 Ml 2.7         4645333
EPF   007.21 031.6 m E Pn      2011/02/09 12:19:44.2   0.2                          T                                        4645326
EPF   007.21 031.6 m E Sn      2011/02/09 12:21:01.7   0.0                          T                2.5  .50 Ml 3.0         4645332

.
