EVENT     289157
    Date      Time       Latitude Longitude    Depth    Ndef Nsta Gap    Mag1  N    Mag2  N    Mag3  N   Author         ID
       rms   OT_Error      Smajor Sminor Az        Err   mdist  Mdist     Err        Err        Err      Quality

2012/12/30 09:53:03.8     44.8452    7.2088     10.0      40    8 098  Ml 2.2  6  Md 2.2  4              bulletin    289257
                                                                                                         _ldg
      0.35   +-  0.05       1.2     .8   65.75 +-  0.0    0.04   1.80   +-0.3      +-0.2                 m i ke

NORTHERN ITALY
Sta     Dist  EvAz     Phase      Date       Time     TRes  Azim  AzRes  Slow  SRes Def   SNR       Amp   Per   Mag1   Mag2       ID
MBDF  000.33 249.4 m E Pg      2012/12/30 09:53:10.8   0.2                          T                                        5148344
MBDF  000.33 249.4 m E Sg      2012/12/30 09:53:14.9  -0.3                          T               21.7  .17        Md 2.3  5148346
LPG   000.73 333.8 m E Pg      2012/12/30 09:53:17.9  -0.1                          T                                        5148341
LPG   000.73 333.8 m E Sg      2012/12/30 09:53:26.9  -0.6                          T               16.7  .20        Md 2.1  5148373
LPL   000.75 333.5 m E Pg      2012/12/30 09:53:18.4   0.1                          T                                        5148342
LPL   000.75 333.5 m E Sg      2012/12/30 09:53:27.8  -0.4                          T               15.4  .17        Md 2.0  5148345
SBF   001.00 170.5 m E Pg      2012/12/30 09:53:22.1  -0.5                          T                                        5148375
SBF   001.00 170.5 m E Sg      2012/12/30 09:53:35.5   0.0                          T                9.2  .20 Ml 2.5         5148374
ORIF  000.95 274.9 m E Pg      2012/12/30 09:53:22.1   0.3                          T                                        5148343
ORIF  000.95 274.9 m E Sg      2012/12/30 09:53:33.0  -1.1                          T                4.1  .21 Ml 2.1 Md 2.3  5148377
SMRF  001.46 234.0 m E Pg      2012/12/30 09:53:31.2   0.1                          T                                        5148339
SMRF  001.46 234.0 m E Sg      2012/12/30 09:53:50.3   0.4                          T                1.6  .26 Ml 1.8         5148378
LMR   001.59 198.7 m E Pg      2012/12/30 09:53:33.1  -0.3                          T                                        5148340
LMR   001.59 198.7 m E Sg      2012/12/30 09:53:54.3   0.3                          T                4.3  .22 Ml 2.4         5148379
VIVF  001.80 271.2 m E Pn      2012/12/30 09:53:33.1  -0.1                          T                                        5148383
VIVF  001.80 271.2 m E Pg      2012/12/30 09:53:37.4   0.0                          T                                        5148382
VIVF  001.80 271.2 m E Sn      2012/12/30 09:53:54.6  -0.2                          T                                        5148381
VIVF  001.80 271.2 m E Sg      2012/12/30 09:54:00.6   0.0                          T                1.1  .18 Ml 2.0         5148380

.
EVENT     289158
    Date      Time       Latitude Longitude    Depth    Ndef Nsta Gap    Mag1  N    Mag2  N    Mag3  N   Author         ID
       rms   OT_Error      Smajor Sminor Az        Err   mdist  Mdist     Err        Err        Err      Quality

2012/12/30 10:26:04.2     45.1242    6.5068      2.0      14    7 129  Ml 1.9  2  Md 1.8  3              bulletin    289258
                                                                                                         _ldg
      0.48   +-  0.14       3.5    2.2  110.58 +-  0.0    0.41   1.79   +-0.1      +-0.1                 m i ke

FRANCE
Sta     Dist  EvAz     Phase      Date       Time     TRes  Azim  AzRes  Slow  SRes Def   SNR       Amp   Per   Mag1   Mag2       ID
LPL   000.42 022.0 m E Pg      2012/12/30 10:26:12.5  -0.2                          T                                        5148412
LPL   000.42 022.0 m E Sg      2012/12/30 10:26:18.2  -0.1                          T                4.6  .22                5148402
LPG   000.41 024.7 m E Pg      2012/12/30 10:26:12.6   0.1                          T                                        5148406
LPG   000.41 024.7 m E Sg      2012/12/30 10:26:17.9  -0.1                          T                3.6  .16        Md 1.8  5148401
ORIF  000.49 245.4 m E Pg      2012/12/30 10:26:12.7  -1.0                          T                                        5148407
ORIF  000.49 245.4 m E Sg      2012/12/30 10:26:18.7  -1.4                          T                6.8  .20        Md 1.8  5148403
MBDF  000.44 154.6 m E Pg      2012/12/30 10:26:12.8  -0.1                          T                                        5148408
MBDF  000.44 154.6 m E Sg      2012/12/30 10:26:19.3   0.6                          T                6.2  .17        Md 1.7  5148404
VIVF  001.33 259.0 m E Pg      2012/12/30 10:26:29.6   0.5                          T                                        5148405
VIVF  001.33 259.0 m E Sg      2012/12/30 10:26:46.0  -0.3                          T                2.2  .22 Ml 2.0         5148411
SMRF  001.33 210.4 m E Pg      2012/12/30 10:26:30.1   1.1                          T                                        5148410
SMRF  001.33 210.4 m E Sg      2012/12/30 10:26:46.9   0.6                          T                                        5148409
LMR   001.79 179.9 m E Pg      2012/12/30 10:26:37.4  -0.1                          T                                        5148413
LMR   001.79 179.9 m E Sg      2012/12/30 10:27:00.0  -0.6                          T                 .8  .21 Ml 1.8         5148414

.
EVENT     289159
    Date      Time       Latitude Longitude    Depth    Ndef Nsta Gap    Mag1  N    Mag2  N    Mag3  N   Author         ID
       rms   OT_Error      Smajor Sminor Az        Err   mdist  Mdist     Err        Err        Err      Quality

2012/12/30 13:25:50.9     43.1929   -1.4810      2.0       6    3 343  Ml 1.3  1  Md 1.3  2              bulletin    289259
                                                                                                         _ldg
      0.33   +-  0.60      17.1   10.0   18.53 +-  0.0    0.20   1.34   +-         +-0.1                 m i ke

PYRENEES
Sta     Dist  EvAz     Phase      Date       Time     TRes  Azim  AzRes  Slow  SRes Def   SNR       Amp   Per   Mag1   Mag2       ID
SJPF  000.20 112.9 m E Pg      2012/12/30 13:25:54.7  -0.3                          T                                        5148528
SJPF  000.20 112.9 m E Sg      2012/12/30 13:25:58.3   0.5                          T                5.7  .17        Md 1.3  5148527
ETSF  000.74 113.2 m E Pg      2012/12/30 13:26:05.0   0.2                          T                                        5148526
ETSF  000.74 113.2 m E Sg      2012/12/30 13:26:13.9  -0.6                          T                 .8  .21        Md 1.4  5148525
EPF   001.34 096.3 m E Pg      2012/12/30 13:26:15.8  -0.2                          T                                        5168088
EPF   001.34 096.3 m E Sg      2012/12/30 13:26:33.0  -0.4                          T                 .5  .22 Ml 1.3         5168087

.
EVENT     289161
    Date      Time       Latitude Longitude    Depth    Ndef Nsta Gap    Mag1  N    Mag2  N    Mag3  N   Author         ID
       rms   OT_Error      Smajor Sminor Az        Err   mdist  Mdist     Err        Err        Err      Quality

2012/12/30 16:09:26.5     42.9037    -.5541      2.0       7    4 143  Ml 1.5  1  Md 1.1  3              bulletin    289261
                                                                                                         _ldg
      0.23   +-  0.14       8.4    1.9    3.58 +-  0.0    0.01   2.08   +-         +-0.0                 m i ke

PYRENEES
Sta     Dist  EvAz     Phase      Date       Time     TRes  Azim  AzRes  Slow  SRes Def   SNR       Amp   Per   Mag1   Mag2       ID
ETSF  000.01 216.5 m E Pg      2012/12/30 16:09:27.3   0.0                          T                                        5148534
ETSF  000.01 216.5 m E Sg      2012/12/30 16:09:27.9   0.3                          T               80.0  .20        Md 1.1  5148533
SJPF  000.53 293.3 m E Pg      2012/12/30 16:09:36.9   0.2                          T                                        5148535
SJPF  000.53 293.3 m E Sg      2012/12/30 16:09:43.2  -0.5                          T                 .5  .16        Md 1.1  5148536
EPF   000.67 078.8 m E Pg      2012/12/30 16:09:39.1  -0.1                          T                                        5148532
EPF   000.67 078.8 m E Sg      2012/12/30 16:09:48.2   0.3                          T                2.3  .19        Md 1.0  5148531
MTLF  002.08 076.9 m E Sg      2012/12/30 16:10:31.8   0.0                          T                 .5  .24 Ml 1.5         5172660

.
EVENT     289162
    Date      Time       Latitude Longitude    Depth    Ndef Nsta Gap    Mag1  N    Mag2  N    Mag3  N   Author         ID
       rms   OT_Error      Smajor Sminor Az        Err   mdist  Mdist     Err        Err        Err      Quality

2012/12/30 16:47:21.8     43.0059    -.2116      2.0       7    4 160  Ml 1.2  1  Md 1.0  3              bulletin    289262
                                                                                                         _ldg
      0.17   +-  0.08       5.4    1.2  173.63 +-  0.0    0.28   1.81   +-         +-0.2                 m i ke

PYRENEES
Sta     Dist  EvAz     Phase      Date       Time     TRes  Azim  AzRes  Slow  SRes Def   SNR       Amp   Per   Mag1   Mag2       ID
ETSF  000.28 247.3 m E Pg      2012/12/30 16:47:27.2  -0.1                          T                                        5148542
ETSF  000.28 247.3 m E Sg      2012/12/30 16:47:31.4   0.3                          T                6.9  .21        Md 1.1  5148541
EPF   000.41 086.4 m E Pg      2012/12/30 16:47:29.5  -0.1                          T                                        5148540
EPF   000.41 086.4 m E Sg      2012/12/30 16:47:35.3   0.2                          T                1.2  .21        Md 1.2  5148539
SJPF  000.75 278.6 m E Pg      2012/12/30 16:47:36.0   0.0                          T                                        5148537
SJPF  000.75 278.6 m E Sg      2012/12/30 16:47:45.7   0.0                          T                 .9  .22        Md  .8  5148538
MTLF  001.81 078.5 m E Sg      2012/12/30 16:48:19.0   0.2                          T                 .2  .22 Ml 1.2         5172664

.
EVENT     289163
    Date      Time       Latitude Longitude    Depth    Ndef Nsta Gap    Mag1  N    Mag2  N    Mag3  N   Author         ID
       rms   OT_Error      Smajor Sminor Az        Err   mdist  Mdist     Err        Err        Err      Quality

2012/12/30 19:01:04.8     42.6546   -2.4406      9.0 f     9    3 343  Ml 2.2  3  Md 2.3  2              bulletin    289263
                                                                                                         _ldg
      0.38   +-  0.57      22.5    9.4  160.39 +-  0.0    1.00   2.08   +-0.1      +-0.1                 m i ke

SPAIN
Sta     Dist  EvAz     Phase      Date       Time     TRes  Azim  AzRes  Slow  SRes Def   SNR       Amp   Per   Mag1   Mag2       ID
SJPF  001.00 062.4 m E Pg      2012/12/30 19:01:23.4  -0.3                          T                                        5148548
SJPF  001.00 062.4 m E Sg      2012/12/30 19:01:37.4   0.6                          T                6.9  .38 Ml 2.1 Md 2.2  5148543
ETSF  001.41 079.4 m E Pn      2012/12/30 19:01:29.6   0.5                          T                                        5148547
ETSF  001.41 079.4 m E Pg      2012/12/30 19:01:31.9   0.8                          T                                        5168091
ETSF  001.41 079.4 m E Sg      2012/12/30 19:01:49.2  -0.1                          T                4.5  .27 Ml 2.2 Md 2.4  5148544
EPF   002.08 078.7 m E Pn      2012/12/30 19:01:37.9  -0.3                          T                                        5148549
EPF   002.08 078.7 m E Pg      2012/12/30 19:01:42.6  -0.9                          T                                        5148546
EPF   002.08 078.7 m E Sn      2012/12/30 19:02:02.8   0.2                          T                                        5148550
EPF   002.08 078.7 m E Sg      2012/12/30 19:02:10.0  -0.3                          T                3.1  .29 Ml 2.3         5148545

.
EVENT     289164
    Date      Time       Latitude Longitude    Depth    Ndef Nsta Gap    Mag1  N    Mag2  N    Mag3  N   Author         ID
       rms   OT_Error      Smajor Sminor Az        Err   mdist  Mdist     Err        Err        Err      Quality

2012/12/30 19:36:47.3     43.0583    -.2158      2.0      10    6 144  Ml 1.2  2  Md 1.4  2              bulletin    289264
                                                                                                         _ldg
      0.31   +-  0.12       3.4    1.8  158.71 +-  0.0    0.30   2.57   +-0.0      +-0.1                 m i ke

PYRENEES
Sta     Dist  EvAz     Phase      Date       Time     TRes  Azim  AzRes  Slow  SRes Def   SNR       Amp   Per   Mag1   Mag2       ID
ETSF  000.30 237.8 m E Pg      2012/12/30 19:36:52.9  -0.3                          T                                        5148556
ETSF  000.30 237.8 m E Sg      2012/12/30 19:36:57.0  -0.3                          T               14.8  .22        Md 1.5  5148554
EPF   000.41 093.7 m E Pg      2012/12/30 19:36:55.1  -0.1                          T                                        5148555
EPF   000.41 093.7 m E Sg      2012/12/30 19:37:01.1   0.4                          T                2.8  .18        Md 1.3  5148551
SJPF  000.74 274.6 m E Pg      2012/12/30 19:37:01.7   0.4                          T                                        5148553
SJPF  000.74 274.6 m E Sg      2012/12/30 19:37:11.3   0.3                          T                 .9  .19                5148552
LFF   002.00 019.8 m E Pg      2012/12/30 19:37:24.3  -0.2                          T                                        5168302
LFF   002.00 019.8 m E Sg      2012/12/30 19:37:50.2  -0.1                          T                                        5168303
MTLF  001.80 080.1 m E Sg      2012/12/30 19:37:44.7   0.6                          T                 .2  .16 Ml 1.2         5168304
RJF   002.57 028.4 m E Sg      2012/12/30 19:38:07.8  -0.2                          T                 .3  .21 Ml 1.2         5168301

.
EVENT     289165
    Date      Time       Latitude Longitude    Depth    Ndef Nsta Gap    Mag1  N    Mag2  N    Mag3  N   Author         ID
       rms   OT_Error      Smajor Sminor Az        Err   mdist  Mdist     Err        Err        Err      Quality

2012/12/30 19:46:57.3     43.0909    -.2187      2.0      33    8 101  Ml 2.2  6  Md 2.2  2              bulletin    289265
                                                                                                         _ldg
      0.99   +-  0.10       2.2    1.6  177.26 +-  0.0    0.13   3.12   +-0.2      +-0.1                 m i ke

PYRENEES
Sta     Dist  EvAz     Phase      Date       Time     TRes  Azim  AzRes  Slow  SRes Def   SNR       Amp   Per   Mag1   Mag2       ID
ETSF  000.32 232.5 m E Pg      2012/12/30 19:47:02.7  -0.9                          T                                        5148572
ETSF  000.32 232.5 m E Sg      2012/12/30 19:47:06.8  -1.0                          T              100.1  .22        Md 2.3  5148571
EPF   000.41 098.2 m E Pg      2012/12/30 19:47:04.8  -0.5                          T                                        5148570
EPF   000.41 098.2 m E Sg      2012/12/30 19:47:11.0   0.2                          T               20.6  .20        Md 2.1  5148569
SJPF  000.74 272.1 m E Pg      2012/12/30 19:47:11.4   0.2                          T                                        5148568
SJPF  000.74 272.1 m E Sg      2012/12/30 19:47:21.1   0.2                          T                8.3  .24                5148566
MTLF  001.80 081.2 m E Pn      2012/12/30 19:47:28.0   0.4                          T                                        5148567
MTLF  001.80 081.2 m E Pg      2012/12/30 19:47:30.8   0.1                          T                                        5148604
MTLF  001.80 081.2 m E Sg      2012/12/30 19:47:54.2   0.2                          T                2.9  .26 Ml 2.2         5148562
LFF   001.97 020.2 m E Pg      2012/12/30 19:47:34.3   0.3                          T                                        5148603
LFF   001.97 020.2 m E Sn      2012/12/30 19:47:54.1   0.3                          T                                        5148564
LFF   001.97 020.2 m E Sg      2012/12/30 19:47:59.7   0.4                          T                9.2  .37 Ml 2.4         5148602
CAF   002.47 041.1 m E Pg      2012/12/30 19:47:42.8  -0.3                          T                                        5148576
CAF   002.47 041.1 m E Sg      2012/12/30 19:48:15.1   0.3                          T                3.0  .20 Ml 2.5         5168306
RJF   002.54 028.8 m E Pg      2012/12/30 19:47:44.1  -0.3                          T                                        5148601
RJF   002.54 028.8 m E Sg      2012/12/30 19:48:17.5   0.4                          T                2.0  .19 Ml 2.0         5148600
LASF  003.12 070.2 m E Sg      2012/12/30 19:48:35.2   0.0                          T                1.6  .32 Ml 2.2         5168305

.
EVENT     289166
    Date      Time       Latitude Longitude    Depth    Ndef Nsta Gap    Mag1  N    Mag2  N    Mag3  N   Author         ID
       rms   OT_Error      Smajor Sminor Az        Err   mdist  Mdist     Err        Err        Err      Quality

2012/12/30 19:48:12.4     43.0529    -.2145      2.0       7    4 145  Ml 1.8  1  Md 1.5  2              bulletin    289266
                                                                                                         _ldg
      0.35   +-  0.17       6.2    2.8  169.14 +-  0.0    0.30   2.01   +-         +-0.0                 m i ke

PYRENEES
Sta     Dist  EvAz     Phase      Date       Time     TRes  Azim  AzRes  Slow  SRes Def   SNR       Amp   Per   Mag1   Mag2       ID
ETSF  000.30 238.8 m E Pg      2012/12/30 19:48:18.0  -0.3                          T                                        5148610
ETSF  000.30 238.8 m E Sg      2012/12/30 19:48:22.0  -0.2                          T               21.4  .20        Md 1.5  5148609
EPF   000.41 093.0 m E Pg      2012/12/30 19:48:20.1  -0.2                          T                                        5148608
EPF   000.41 093.0 m E Sg      2012/12/30 19:48:26.4   0.6                          T                4.9  .28        Md 1.5  5148607
SJPF  000.74 275.0 m E Pg      2012/12/30 19:48:26.8   0.3                          T                                        5148606
SJPF  000.74 275.0 m E Sg      2012/12/30 19:48:36.4   0.3                          T                1.7  .21                5148605
LFF   002.01 019.7 m E Sg      2012/12/30 19:49:15.1  -0.5                          T                1.4  .22 Ml 1.8         5168309

.
