EVENT     257764
    Date      Time       Latitude Longitude    Depth    Ndef Nsta Gap    Mag1  N    Mag2  N    Mag3  N   Author         ID
       rms   OT_Error      Smajor Sminor Az        Err   mdist  Mdist     Err        Err        Err      Quality

2011/03/30 13:02:43.5     47.5744    7.8193     10.0 f    22   11 209  Ml 2.6  9  Md 2.4  3              js067245    257764

      0.31   +-  0.14       2.4    1.2  122.47 +-  0.0    0.24   3.53   +-0.2      +-0.0                 m i ke

SWITZERLAND
Sta     Dist  EvAz     Phase      Date       Time     TRes  Azim  AzRes  Slow  SRes Def   SNR       Amp   Per   Mag1   Mag2       ID
HINF  000.70 290.7 m E Pg      2011/03/30 13:02:56.9   0.1                          T                                        4666621
HINF  000.70 290.7 m E Sg      2011/03/30 13:03:04.5  -1.5                          T               34.3  .28        Md 2.4  4666614
CDF   000.91 336.7 m E Pg      2011/03/30 13:03:01.0   0.2                          T                                        4666622
CDF   000.91 336.7 m E Sg      2011/03/30 13:03:12.2  -0.6                          T               15.7  .24 Ml 2.7 Md 2.4  4666617
HAU   001.08 294.0 m E Pg      2011/03/30 13:03:03.4  -0.4                          T                                        4666620
HAU   001.08 294.0 m E Sg      2011/03/30 13:03:17.7  -0.2                          T               45.7  .34 Ml 2.8 Md 2.4  4666615
THEF  001.39 298.7 m E Pg      2011/03/30 13:03:09.0  -0.5                          T                                        4666618
THEF  001.39 298.7 m E Sg      2011/03/30 13:03:26.9  -0.6                          T               17.0  .24 Ml 2.8         4666616
CABF  001.53 231.5 m E Pg      2011/03/30 13:03:11.9  -0.2                          T                                        4666619
CABF  001.53 231.5 m E Sg      2011/03/30 13:03:31.6  -0.2                          T                3.4  .20 Ml 2.3         4666613
RUP   002.19 347.0 m E Pg      2011/03/30 13:03:24.2   0.0                          T                                        4666608
RUP   002.19 347.0 m E Sg      2011/03/30 13:03:52.8   0.4                          T                                        4666607
LOR   002.71 265.0 m E Pg      2011/03/30 13:03:34.0   0.3                          T                                        4666610
LOR   002.71 265.0 m E Sg      2011/03/30 13:04:09.0   0.4                          T                7.7  .24 Ml 2.9         4666612
SMF   002.87 252.6 m E Pg      2011/03/30 13:03:36.6  -0.2                          T                                        4668851
SMF   002.87 252.6 m E Sg      2011/03/30 13:04:13.5  -0.2                          T                2.2  .19 Ml 2.5         4668852
SSF   002.98 261.7 m E Pg      2011/03/30 13:03:38.9   0.2                          T                                        4666609
SSF   002.98 261.7 m E Sg      2011/03/30 13:04:17.3   0.3                          T                1.5  .20 Ml 2.4         4666611
MEZF  002.08 297.6 m E Sg      2011/03/30 13:03:48.5  -0.3                          T                8.3  .34 Ml 2.6         4668849
HYF   003.53 266.9 m E Sg      2011/03/30 13:04:34.1  -0.1                          T                                        4668850

.
EVENT     257774
    Date      Time       Latitude Longitude    Depth    Ndef Nsta Gap    Mag1  N    Mag2  N    Mag3  N   Author         ID
       rms   OT_Error      Smajor Sminor Az        Err   mdist  Mdist     Err        Err        Err      Quality

2011/03/30 14:25:49.3     46.2050    2.8305      3.0 f    20    9 143  Ml 1.7  6  Md 1.7  3              js067245    257774

      1.39   +-  0.09       3.1    1.2  126.08 +-  0.0    0.09   1.94   +-0.2      +-0.1                 m i ke

FRANCE
Sta     Dist  EvAz     Phase      Date       Time     TRes  Azim  AzRes  Slow  SRes Def   SNR       Amp   Per   Mag1   Mag2       ID
BGF   000.35 001.8 m E Pg      2011/03/30 14:25:56.2   0.0                          T                                        4666635
BGF   000.35 001.8 m E Sg      2011/03/30 14:26:00.7  -0.1                          T                6.5  .22        Md 1.7  4666632
TCF   000.44 281.1 m E Pg      2011/03/30 14:25:57.4  -0.3                          T                                        4666644
TCF   000.44 281.1 m E Sg      2011/03/30 14:26:04.0   0.5                          T                1.9  .23        Md 1.7  4666639
AVF   000.69 031.4 m E Pg      2011/03/30 14:26:02.2  -0.1                          T                                        4666634
AVF   000.69 031.4 m E Sg      2011/03/30 14:26:11.2   0.0                          T                1.7  .18                4666633
SMF   000.83 057.4 m E Pg      2011/03/30 14:26:04.9   0.1                          T                                        4666629
SMF   000.83 057.4 m E Sg      2011/03/30 14:26:15.8   0.2                          T                1.3  .19                4666630
SSF   000.98 028.3 m E Pg      2011/03/30 14:26:07.6   0.0                          T                                        4666643
SSF   000.98 028.3 m E Sg      2011/03/30 14:26:20.0  -0.2                          T                1.6  .29 Ml 1.6         4666640
LOR   001.28 033.3 m E Pg      2011/03/30 14:26:12.9  -0.3 211.2  -2.8              T                                        4666642
LOR   001.28 033.3 m E Sg      2011/03/30 14:26:29.8   0.1 238.9  24.9              T                  1  .19 Ml 1.7         4666641
RJF   001.29 226.1 m E Pg      2011/03/30 14:26:13.1  -0.2                          T                                        4666628
RJF   001.29 226.1 m E Sg      2011/03/30 14:26:29.7  -0.3                          T                2.0  .26 Ml 1.5         4666626
CAF   001.39 203.1 m E Pg      2011/03/30 14:26:15.1  -0.1                          T                                        4666627
CAF   001.39 203.1 m E Sg      2011/03/30 14:26:33.0  -0.2                          T                1.1  .20 Ml 1.7         4666625
LFF   001.94 230.0 m E Pn      2011/03/30 14:26:21.2  -0.1                          T                                        4666646
LFF   001.94 230.0 m E Sn      2011/03/30 14:26:44.9   0.1                          T                7.3  .47 Ml 2.2         4666645

.
EVENT     257773
    Date      Time       Latitude Longitude    Depth    Ndef Nsta Gap    Mag1  N    Mag2  N    Mag3  N   Author         ID
       rms   OT_Error      Smajor Sminor Az        Err   mdist  Mdist     Err        Err        Err      Quality

2011/03/30 14:41:40.0     47.8625   -3.4822     15.0      17    7 258  Ml 2.5  4  Md 2.6  3              js067245    257773

      1.28   +-  0.31       5.0    2.9   53.35 +-  0.0    0.22   2.60   +-0.2      +-0.0                 m i ke

FRANCE
Sta     Dist  EvAz     Phase      Date       Time     TRes  Azim  AzRes  Slow  SRes Def   SNR       Amp   Per   Mag1   Mag2       ID
QUIF  000.22 075.6 m E Pg      2011/03/30 14:41:44.9  -0.1                          T                                        4666660
QUIF  000.22 075.6 m E Sg      2011/03/30 14:41:48.4  -0.1                          T              118.1  .20        Md 2.7  4666657
ROSF  000.49 016.4 m E Pg      2011/03/30 14:41:49.7   0.0                          T                                        4666658
ROSF  000.49 016.4 m E Sg      2011/03/30 14:41:56.4   0.0                          T               28.0  .16        Md 2.6  4666656
SGMF  000.73 057.4 m E Pg      2011/03/30 14:41:53.6  -0.4                          T                                        4668854
SGMF  000.73 057.4 m E Pn      2011/03/30 14:41:54.4   0.1                          T                                        4666659
SGMF  000.73 057.4 m E Sg      2011/03/30 14:42:04.0   0.3                          T               39.9  .24        Md 2.6  4666655
GRR   001.83 072.4 m E Pg      2011/03/30 14:42:13.6  -0.5                          T                                        4668853
GRR   001.83 072.4 m E Sg      2011/03/30 14:42:38.5   0.7                          T                4.6  .18 Ml 2.4         4666648
FLN   002.20 064.7 m E Pg      2011/03/30 14:42:20.9   0.2 248.0  1.1               T                                        4666651
FLN   002.20 064.7 m E Sg      2011/03/30 14:42:49.8   0.7                          T                4.5  .24 Ml 2.4         4666650
LDF   002.36 070.7 m E Pg      2011/03/30 14:42:23.8  -0.1                          T                                        4666652
LDF   002.36 070.7 m E Sg      2011/03/30 14:42:54.9   0.6                          T                5.3  .27 Ml 2.6         4666649
MFF   002.60 117.8 m E Pg      2011/03/30 14:42:28.4   0.2                          T                                        4666654
MFF   002.60 117.8 m E Sg      2011/03/30 14:43:01.9   0.2                          T                5.2  .26 Ml 2.8         4666647

.
EVENT     257775
    Date      Time       Latitude Longitude    Depth    Ndef Nsta Gap    Mag1  N    Mag2  N    Mag3  N   Author         ID
       rms   OT_Error      Smajor Sminor Az        Err   mdist  Mdist     Err        Err        Err      Quality

2011/03/30 22:13:22.8     43.0836    -.9482      2.0      20    3 160  Ml 1.4  1  Md 1.5  3              js067245    257775

      0.23   +-  0.06       1.2     .8    2.60 +-  0.0    0.18   0.95   +-         +-0.1                 m i ke

PYRENEES
Sta     Dist  EvAz     Phase      Date       Time     TRes  Azim  AzRes  Slow  SRes Def   SNR       Amp   Per   Mag1   Mag2       ID
SJPF  000.20 278.4 m E Pg      2011/03/30 22:13:26.6  -0.3                          T                                        4666668
SJPF  000.20 278.4 m E Sg      2011/03/30 22:13:29.8   0.1                          T                9.3  .26        Md 1.6  4666666
ETSF  000.34 122.8 m E Pg      2011/03/30 22:13:28.7  -0.7                          T                                        4666667
ETSF  000.34 122.8 m E Sg      2011/03/30 22:13:33.5  -0.5                          T                3.8  .20        Md 1.5  4666665
EPF   000.95 092.8 m E Pg      2011/03/30 22:13:40.5  -0.1                          T                                        4666663
EPF   000.95 092.8 m E Sg      2011/03/30 22:13:52.7  -0.2                          T                1.2  .31 Ml 1.4 Md 1.4  4666664

.
EVENT     257776
    Date      Time       Latitude Longitude    Depth    Ndef Nsta Gap    Mag1  N    Mag2  N    Mag3  N   Author         ID
       rms   OT_Error      Smajor Sminor Az        Err   mdist  Mdist     Err        Err        Err      Quality

2011/03/30 23:37:33.4     45.7499    7.0851      2.0      53   17 131  Ml 2.0 17  Md 2.1  3              js067245    257776

      0.19   +-  0.03        .8     .5   99.36 +-  0.0    0.04   3.05   +-0.3      +-0.1                 m i ke

NORTHERN ITALY
Sta     Dist  EvAz     Phase      Date       Time     TRes  Azim  AzRes  Slow  SRes Def   SNR       Amp   Per   Mag1   Mag2       ID
LPL   000.34 226.8 m E Pg      2011/03/30 23:37:40.3   0.0                          T                                        4666723
LPL   000.34 226.8 m E Sg      2011/03/30 23:37:44.7  -0.2                          T               19.7  .26        Md 2.0  4666713
LPG   000.34 223.0 m E Pg      2011/03/30 23:37:40.4   0.0                          T                                        4666722
LPG   000.34 223.0 m E Sg      2011/03/30 23:37:44.8  -0.2                          T               23.7  .16        Md 2.1  4666712
MBDF  001.05 192.3 m E Pg      2011/03/30 23:37:53.4   0.1                          T                                        4666720
MBDF  001.05 192.3 m E Sg      2011/03/30 23:38:06.9   0.1                          T                7.4  .36 Ml 2.1 Md 2.1  4666715
ORIF  001.19 226.1 m E Pg      2011/03/30 23:37:55.5  -0.2                          T                                        4666719
ORIF  001.19 226.1 m E Sg      2011/03/30 23:38:11.1  -0.1                          T                3.9  .37 Ml 1.9         4666714
CABF  001.11 321.5 m E P       2011/03/30 23:37:56.1   0.1                          T                                        4666721
CABF  001.11 321.5 m E Sg      2011/03/30 23:38:08.6   0.1                          T                7.0  .22 Ml 2.4         4666716
VIVF  001.92 243.2 m E Pn      2011/03/30 23:38:05.5   0.0                          T                                        4666708
VIVF  001.92 243.2 m E Pg      2011/03/30 23:38:09.2   0.0                          T                                        4668890
VIVF  001.92 243.2 m E Sg      2011/03/30 23:38:33.9   0.0                          T                2.8  .24 Ml 2.3         4666699
HINF  002.07 355.7 m E Pn      2011/03/30 23:38:07.5   0.0                          T                                        4666707
HINF  002.07 355.7 m E Pg      2011/03/30 23:38:12.0   0.0                          T                                        4668892
HINF  002.07 355.7 m E Sg      2011/03/30 23:38:38.7   0.0                          T                1.8  .21 Ml 2.2         4666694
SBF   001.90 172.4 m E Pg      2011/03/30 23:38:08.9   0.0                          T                                        4666717
SBF   001.90 172.4 m E Sg      2011/03/30 23:38:33.8   0.4                          T                7.4  .46 Ml 2.4         4666710
HAU   002.31 347.6 m E Pn      2011/03/30 23:38:10.5  -0.2                          T                                        4666706
HAU   002.31 347.6 m E P       2011/03/30 23:38:13.4   0.2                          T                                        4668895
HAU   002.31 347.6 m E Pg      2011/03/30 23:38:16.4   0.1                          T                                        4668893
HAU   002.31 347.6 m E Sg      2011/03/30 23:38:46.1   0.0                          T                4.0  .46 Ml 2.0         4666693
SMRF  002.07 211.7 m E Pg      2011/03/30 23:38:12.3   0.3                          T                                        4666709
SMRF  002.07 211.7 m E Sg      2011/03/30 23:38:38.9   0.2                          T                 .3  .25 Ml 1.3         4666698
SMF   002.42 292.8 m E P       2011/03/30 23:38:14.7  -0.1                          T                                        4666705
SMF   002.42 292.8 m E Sg      2011/03/30 23:38:49.6   0.0                          T                2.1  .22 Ml 2.3         4666695
FRF   002.21 188.3 m E Pg      2011/03/30 23:38:15.1   0.6                          T                                        4666718
FRF   002.21 188.3 m E Sg      2011/03/30 23:38:43.0   0.1                          T                2.7  .42 Ml 2.1         4666711
CDF   002.67 002.7 m E Pn      2011/03/30 23:38:15.5  -0.1                          T                                        4668894
LOR   002.70 305.4 m E Pn      2011/03/30 23:38:16.4   0.4                          T                                        4666704
LOR   002.70 305.4 m E Pg      2011/03/30 23:38:23.2  -0.2                          T                                        4668896
LOR   002.70 305.4 m E Sg      2011/03/30 23:38:58.1   0.0                          T                 .8  .26 Ml 1.9         4666692
AVF   002.79 293.2 m E Pn      2011/03/30 23:38:17.0  -0.2                          T                                        4666700
AVF   002.79 293.2 m E Sg      2011/03/30 23:39:01.3   0.3                          T                 .9  .25 Ml 1.9         4668891
LMR   002.45 189.9 m E Pg      2011/03/30 23:38:18.8   0.0                          T                                        4666690
LMR   002.45 189.9 m E Sg      2011/03/30 23:38:50.0  -0.4                          T                  1  .29 Ml 1.9         4666689
BGF   003.05 286.9 m E Pn      2011/03/30 23:38:21.5   0.7                          T                                        4666701
BGF   003.05 286.9 m E Sg      2011/03/30 23:39:09.3   0.0                          T                2.7  .41 Ml 2.3         4666696

.
EVENT     257794
    Date      Time       Latitude Longitude    Depth    Ndef Nsta Gap    Mag1  N    Mag2  N    Mag3  N   Author         ID
       rms   OT_Error      Smajor Sminor Az        Err   mdist  Mdist     Err        Err        Err      Quality

2011/03/31 10:07:12.3     48.3854    7.3687       .0 f    16    6 185  Ml 2.4  1  Md 2.1  2              js067245    257794

      2.21   +-  0.38      10.7    5.3  133.17 +-  0.0    0.07   1.57   +-         +-0.2                 m i km

FRANCE
Sta     Dist  EvAz     Phase      Date       Time     TRes  Azim  AzRes  Slow  SRes Def   SNR       Amp   Per   Mag1   Mag2       ID
CDF   000.07 293.6 m E Pg      2011/03/31 10:07:14.7   0.5                          T                                        4668910
CDF   000.07 293.6 m E Sg      2011/03/31 10:07:16.3   1.0                          T              748.8  .44        Md 2.3  4668911
LANF  000.66 025.7 m E Pg      2011/03/31 10:07:25.0  -0.1                          T                                        4668907
LANF  000.66 025.7 m E Pn      2011/03/31 10:07:27.1  -0.5                          T                                        4668909
LANF  000.66 025.7 m E Sg      2011/03/31 10:07:33.2  -0.8                          T                                        4668908
HINF  000.67 211.5 m E Pg      2011/03/31 10:07:26.5   1.2                          T                                        4668912
HINF  000.67 211.5 m E Pn      2011/03/31 10:07:27.7   0.1                          T                                        4668905
HINF  000.67 211.5 m E Sn      2011/03/31 10:07:39.2   0.9                          T               58.1  .36        Md 2.0  4668906
HAU   000.78 241.3 m E Pg      2011/03/31 10:07:27.6   0.2                          T                                        4668897
HAU   000.78 241.3 m E Pn      2011/03/31 10:07:29.1  -0.1                          T                                        4668898
HAU   000.78 241.3 m E Sg      2011/03/31 10:07:37.3  -0.5                          T               21.9  .34                4668904
THEF  000.93 260.8 m E Pg      2011/03/31 10:07:29.7  -0.4                          T                                        4668899
THEF  000.93 260.8 m E Sg      2011/03/31 10:07:41.6  -0.8                          T                                        4668903
SFTF  001.57 264.3 m E Pn      2011/03/31 10:07:39.2  -0.7                          T                                        4668901
SFTF  001.57 264.3 m E Pg      2011/03/31 10:07:42.0   0.2 106.8  24.3              T                                        4668900
SFTF  001.57 264.3 m E Sg      2011/03/31 10:08:01.2  -1.0                          T                5.5  .26 Ml 2.4         4668902

.
