EVENT     284998
    Date      Time       Latitude Longitude    Depth    Ndef Nsta Gap    Mag1  N    Mag2  N    Mag3  N   Author         ID
       rms   OT_Error      Smajor Sminor Az        Err   mdist  Mdist     Err        Err        Err      Quality

2012/10/13 04:33:45.0     43.0573    -.1398      3.0 f   212   40 052  Ml 3.9 47  Md 3.6  3              bulletin    285098
                                                                                                         _ldg
      0.94   +-  0.05       1.2    1.0  132.51 +-  0.0    0.08   8.90   +-0.4      +-0.1                 m i ke

PYRENEES
Sta     Dist  EvAz     Phase      Date       Time     TRes  Azim  AzRes  Slow  SRes Def   SNR       Amp   Per   Mag1   Mag2       ID
ETSF  000.35 242.9 m E Pg      2012/10/13 04:33:50.4  -1.4                          T   001.0                                5096673
ETSF  000.35 242.9 m E Sg      2012/10/13 04:33:54.5  -1.9                          T             4860.2  .38        Md 3.6  5096696
EPF   000.35 094.2 m E Pg      2012/10/13 04:33:51.8  -0.1                          T   001.0                                5096647
EPF   000.35 094.2 m E Sg      2012/10/13 04:33:57.0   0.4                          T   001.0     2274.9  .28        Md 3.6  5096648
SJPF  000.80 274.4 m E Pg      2012/10/13 04:33:58.6  -1.4                          T   001.0                                5096688
SJPF  000.80 274.4 m E Sg      2012/10/13 04:34:09.6  -0.8                          T              707.4  .20        Md 3.5  5096694
MTLF  001.75 079.9 m E Pn      2012/10/13 04:34:14.8   0.4                          T   001.0                                5096675
MTLF  001.75 079.9 m E Pg      2012/10/13 04:34:17.8   0.3                          T                                        5112830
MTLF  001.75 079.9 m E Sn      2012/10/13 04:34:36.2   0.3                          T   001.0       98.9  .22 Ml 3.8         5096677
MTLF  001.75 079.9 m E Sg      2012/10/13 04:34:40.3   0.3                          T               98.9  .22 Ml 3.8         5096716
LFF   001.99 018.3 m E Pn      2012/10/13 04:34:17.2  -0.5                          T   001.0                                5096659
LFF   001.99 018.3 m E Pg      2012/10/13 04:34:22.2   0.3                          T                                        5112828
LFF   001.99 018.3 m E Sn      2012/10/13 04:34:41.4  -0.2                          T   001.0      642.4  .30 Ml 4.4         5096660
LFF   001.99 018.3 m E Sg      2012/10/13 04:34:48.1   0.6                          T              654.9  .31 Ml 4.4         5096717
CAF   002.45 039.7 m E Pn      2012/10/13 04:34:23.1  -1.0                          T   001.0                                5096643
CAF   002.45 039.7 m E Pg      2012/10/13 04:34:30.8   0.3                          T                                        5112829
CAF   002.45 039.7 m E Sn      2012/10/13 04:34:51.9  -0.9                          T   001.0      206.9  .32 Ml 4.1         5096645
CAF   002.45 039.7 m E Sg      2012/10/13 04:35:03.1   1.0                          T              206.9  .32 Ml 4.1         5096718
RJF   002.54 027.4 m E Pn      2012/10/13 04:34:24.5  -0.7                          T   001.0                                5096636
RJF   002.54 027.4 m E Pg      2012/10/13 04:34:31.9  -0.3                          T                                        5112827
RJF   002.54 027.4 m E Sn      2012/10/13 04:34:55.0   0.1                          T   001.0      237.7  .22 Ml 4.0         5096637
RJF   002.54 027.4 m E Sg      2012/10/13 04:35:06.7   1.9                          T              237.7  .22 Ml 4.0         5096719
LASF  003.08 069.3 m E Pn      2012/10/13 04:34:32.0  -0.6                          T   001.0                                5096656
LASF  003.08 069.3 m E Pg      2012/10/13 04:34:42.2   0.2                          T                                        5112831
LASF  003.08 069.3 m E Sn      2012/10/13 04:35:07.2  -0.6                          T               66.5  .26 Ml 3.9         5096695
LASF  003.08 069.3 m E Sg      2012/10/13 04:35:22.7   1.1                          T              123.6  .46 Ml 3.9         5096702
MFF   003.54 359.9 m E Pn      2012/10/13 04:34:38.7  -0.2                          T   001.0                                5096628
MFF   003.54 359.9 m E Pg      2012/10/13 04:34:50.6   0.0                          T                                        5112826
MFF   003.54 359.9 m E Sn      2012/10/13 04:35:18.4  -0.4                          T   001.0                                5096629
MFF   003.54 359.9 m E Sg      2012/10/13 04:35:35.2  -0.9                          T   001.0      219.4  .50 Ml 4.4         5096630
TCF   003.64 026.6 m E Pn      2012/10/13 04:34:39.9  -0.4                          T   001.0                                5096669
TCF   003.64 026.6 m E Pg      2012/10/13 04:34:52.9   0.5                          T                                        5112841
TCF   003.64 026.6 m E Sn      2012/10/13 04:35:21.4   0.2                          T                                        5112814
TCF   003.64 026.6 m E Sg      2012/10/13 04:35:39.7   0.6                          T   001.0       93.0  .28 Ml 4.1         5096670
VIVF  003.91 061.0 m E Pn      2012/10/13 04:34:43.9   0.0                          T   001.0                                5096689
VIVF  003.91 061.0 m E P       2012/10/13 04:34:48.2   0.8                          T                                        5112833
VIVF  003.91 061.0 m E Pg      2012/10/13 04:34:58.2   0.8                          T                                        5112832
VIVF  003.91 061.0 m E Sg      2012/10/13 04:35:47.3  -0.3                          T   001.0       41.2  .36 Ml 3.7         5096690
BGF   004.09 030.2 m E Pn      2012/10/13 04:34:45.9  -0.5                          T   001.0                                5096641
BGF   004.09 030.2 m E Pg      2012/10/13 04:35:00.8   0.0                          T                                        5112825
BGF   004.09 030.2 m E Sn      2012/10/13 04:35:33.1   1.1                          T   001.0      346.4  .36 Ml 4.7         5096642
BGF   004.09 030.2 m E Sg      2012/10/13 04:35:53.5   0.2                          T              346.4  .36 Ml 4.7         5096703
SMRF  004.26 075.6 m E Pn      2012/10/13 04:34:49.8   1.1                          T   001.0                                5096691
SMRF  004.26 075.6 m E Pg      2012/10/13 04:35:04.0   0.2                          T                                        5112834
SMRF  004.26 075.6 m E Sg      2012/10/13 04:35:59.5   1.1                          T   001.0       22.8  .48 Ml 3.4         5096692
AVF   004.48 032.4 m E Pn      2012/10/13 04:34:51.3  -0.4                          T   001.0                                5096639
AVF   004.48 032.4 m E Pg      2012/10/13 04:35:08.0   0.2                          T                                        5112822
AVF   004.48 032.4 m E Sg      2012/10/13 04:36:05.9   0.6                          T   001.0       47.9  .30 Ml 4.0         5096640
SMF   004.57 036.9 m E Pn      2012/10/13 04:34:52.5  -0.4                          T   001.0                                5096633
SMF   004.57 036.9 m E Pg      2012/10/13 04:35:09.9   0.4                          T                                        5112823
SMF   004.57 036.9 m E Sn      2012/10/13 04:35:43.5   0.1                          T   001.0       39.1  .40 Ml 3.8         5096634
SMF   004.57 036.9 m E Sg      2012/10/13 04:36:09.3   1.2                          T               62.3  .46 Ml 3.9         5096705
HYF   004.65 024.1 m E Pn      2012/10/13 04:34:54.5   0.6                          T                                        5096693
HYF   004.65 024.1 m E Pg      2012/10/13 04:35:10.9   0.0                          T                                        5112824
HYF   004.65 024.1 m E Sg      2012/10/13 04:36:11.0   0.5                          T                                        5096704
SSF   004.76 031.6 m E Pn      2012/10/13 04:34:55.6   0.1                          T   001.0                                5096635
SSF   004.76 031.6 m E Pg      2012/10/13 04:35:13.4   0.3                          T                                        5112817
SSF   004.76 031.6 m E Sn      2012/10/13 04:35:47.9  -0.1                          T                                        5112815
SSF   004.76 031.6 m E Sg      2012/10/13 04:36:15.4   1.2                          T   001.0      129.9  .52 Ml 4.3         5096668
ORIF  004.73 064.8 m E Pn      2012/10/13 04:34:56.8   1.7                          T   001.0                                5096679
ORIF  004.73 064.8 m E Sn      2012/10/13 04:35:48.7   1.5                          T   001.0                                5096680
ORIF  004.73 064.8 m E Sg      2012/10/13 04:36:16.3   3.2                          T   001.0       30.1  .88 Ml 3.3         5096681
LMR   004.87 084.5 m E Pn      2012/10/13 04:34:58.1   1.2                          T   001.0                                5096662
LMR   004.87 084.5 m E Sn      2012/10/13 04:35:49.7  -0.8                          T   001.0       19.1  .88 Ml 3.2         5096663
FRF   004.98 081.9 m E Pn      2012/10/13 04:35:00.0   1.5                          T   001.0                                5096651
FRF   004.98 081.9 m E Pg      2012/10/13 04:35:17.5   0.5                          T                                        5112835
FRF   004.98 081.9 m E Sn      2012/10/13 04:35:53.3   0.2                          T   001.0       11.3  .56 Ml 3.2         5096652
FRF   004.98 081.9 m E Sg      2012/10/13 04:36:20.8   0.0                          T               12.2  .51 Ml 3.3         5112807
LOR   005.07 032.5 m E Pn      2012/10/13 04:35:00.2   0.5 216.6  1.2               T   001.0                                5096664
LOR   005.07 032.5 m E Pg      2012/10/13 04:35:18.8   0.0 215.7  0.4               T                                        5112816
LOR   005.07 032.5 m E Sg      2012/10/13 04:36:24.1   0.3 206.6  -8.8              T   001.0       51.3  .40 Ml 4.0         5096665
QUIF  005.30 337.4 m E Pn      2012/10/13 04:35:02.0  -0.8                          T   001.0                                5096682
QUIF  005.30 337.4 m E Sn      2012/10/13 04:36:00.3  -0.5                          T                                        5112810
QUIF  005.30 337.4 m E Sg      2012/10/13 04:36:29.9  -1.1                          T               49.0  .50 Ml 3.9         5096706
GRR   005.36 354.9 m E Pn      2012/10/13 04:35:03.6   0.1                          T   001.0                                5096653
GRR   005.36 354.9 m E Sn      2012/10/13 04:35:59.3  -2.8                          T   001.0                                5096654
GRR   005.36 354.9 m E Sg      2012/10/13 04:36:33.1   0.5                          T   001.0       36.7  .37 Ml 3.8         5096655
SGMF  005.47 342.8 m E Pn      2012/10/13 04:35:04.8  -0.3                          T   001.0                                5096685
SGMF  005.47 342.8 m E Sn      2012/10/13 04:36:04.0  -0.7                          T   001.0                                5096686
SGMF  005.47 342.8 m E Sg      2012/10/13 04:36:33.9  -2.2                          T   001.0       53.5  .51 Ml 4.0         5096687
LDF   005.54 000.1 m E Pn      2012/10/13 04:35:04.8  -1.2                          T   001.0                                5096657
LDF   005.54 000.1 m E Sn      2012/10/13 04:36:06.0  -0.4                          T                                        5112809
LDF   005.54 000.1 m E Sg      2012/10/13 04:36:39.1   0.8                          T   001.0       72.8  .48 Ml 4.1         5096658
SBF   005.57 079.1 m E Pn      2012/10/13 04:35:06.7   0.1                          T                                        5112837
SBF   005.57 079.1 m E Pg      2012/10/13 04:35:27.9  -0.1                          T                                        5112836
ROSF  005.72 338.5 m E Pn      2012/10/13 04:35:07.4  -1.0                          T   001.0                                5096683
ROSF  005.72 338.5 m E Sn      2012/10/13 04:36:10.6  -0.1                          T                                        5112811
ROSF  005.72 338.5 m E Sg      2012/10/13 04:36:44.9   1.0                          T   001.0       42.2  .48 Ml 4.0         5096684
CABF  005.68 049.1 m E Pn      2012/10/13 04:35:07.9  -0.2                          T   001.0                                5096672
CABF  005.68 049.1 m E Pg      2012/10/13 04:35:30.6   0.6                          T                                        5112821
CABF  005.68 049.1 m E Sg      2012/10/13 04:36:43.2   0.5                          T               89.0  .92 Ml 4.0         5096708
FLN   005.71 357.7 m E Pn      2012/10/13 04:35:08.4   0.0 177.4  0.0               T   001.0                                5096649
FLN   005.71 357.7 m E Sn      2012/10/13 04:36:10.3  -0.3                          T   001.0       10.8  .24 Ml 3.5         5096650
FLN   005.71 357.7 m E Sg      2012/10/13 04:36:44.7   0.9 166.1  -11.4             T               60.1  .64 Ml 3.9         5096707
LPL   005.51 061.2 m E P       2012/10/13 04:35:08.5  -1.8                          T   001.0                                5096666
LPL   005.51 061.2 m E Sg      2012/10/13 04:36:37.6  -0.2                          T   001.0        8.3  .41 Ml 3.3         5096627
HINF  006.84 043.5 m E Pn      2012/10/13 04:35:23.4  -0.4                          T                                        5112820
HINF  006.84 043.5 m E Pg      2012/10/13 04:35:51.4   0.0                          T                                        5112819
HINF  006.84 043.5 m E Sg      2012/10/13 04:37:19.1   0.0                          T               10.7  .40 Ml 3.7         5096709
PGF   006.74 091.2 m E Pn      2012/10/13 04:35:24.1   1.5                          T   001.0                                5096631
PGF   006.74 091.2 m E Sn      2012/10/13 04:36:35.9   0.5                          T   001.0        5.5  .31 Ml 3.7         5096632
BAIF  007.62 021.6 m E Pn      2012/10/13 04:35:34.3   0.0                          T   001.0                                5096671
BAIF  007.62 021.6 m E Sg      2012/10/13 04:37:43.7   0.6                          T               12.0  .58 Ml 3.7         5096715
GIVF  007.83 024.1 m E Pn      2012/10/13 04:35:37.5   0.2                          T   001.0                                5096674
GIVF  007.83 024.1 m E Sn      2012/10/13 04:37:01.2  -0.1                          T                                        5112813
GIVF  007.83 024.1 m E Sg      2012/10/13 04:37:49.9   0.1                          T               27.0  .61 Ml 4.0         5096714
MEZF  006.54 031.9 m E Pg      2012/10/13 04:35:45.9   0.0 210.2  -5.4              T                                        5112818
MEZF  006.54 031.9 m E Sg      2012/10/13 04:37:09.3  -0.4                          T               44.1  .48 Ml 4.1         5096711
MBDF  005.27 069.2 m E Sg      2012/10/13 04:36:31.2   1.2                          T               11.8  .64 Ml 3.2         5112808
LPG   005.52 061.4 m E Sg      2012/10/13 04:36:37.4  -0.6                          T                6.3  .32 Ml 3.3         5096701
SFTF  006.30 033.4 m E Sg      2012/10/13 04:37:02.4   0.3                          T               66.0  .74 Ml 4.1         5096710
PAGF  006.86 034.7 m E Sg      2012/10/13 04:37:20.0   0.6                          T               44.8  .59 Ml 4.1         5096712
CDF   007.45 041.5 m E Sg      2012/10/13 04:37:38.6   0.4                          T               13.9  .50 Ml 3.9         5096713

.
EVENT     284999
    Date      Time       Latitude Longitude    Depth    Ndef Nsta Gap    Mag1  N    Mag2  N    Mag3  N   Author         ID
       rms   OT_Error      Smajor Sminor Az        Err   mdist  Mdist     Err        Err        Err      Quality

2012/10/13 04:38:57.6     43.0558    -.1890      2.0      10    5 146  Ml 1.2  1  Md 1.1  2              bulletin    285099
                                                                                                         _ldg
      0.33   +-  0.12       6.1    2.0  170.20 +-  0.0    0.31   2.56   +-         +-0.1                 m i ke

PYRENEES
Sta     Dist  EvAz     Phase      Date       Time     TRes  Azim  AzRes  Slow  SRes Def   SNR       Amp   Per   Mag1   Mag2       ID
ETSF  000.31 240.1 m E Pg      2012/10/13 04:39:03.6  -0.2                          T                                        5096728
ETSF  000.31 240.1 m E Sg      2012/10/13 04:39:07.7  -0.4                          T                3.0  .26        Md 1.2  5096725
EPF   000.39 093.6 m E Pg      2012/10/13 04:39:05.0  -0.2                          T                                        5096727
EPF   000.39 093.6 m E Sg      2012/10/13 04:39:10.2  -0.1                          T                1.8  .26        Md 1.1  5096726
SJPF  000.76 274.7 m E Pg      2012/10/13 04:39:11.9  -0.1                          T                                        5096721
SJPF  000.76 274.7 m E Sg      2012/10/13 04:39:22.8   0.9                          T                 .7  .32                5096720
MTLF  001.78 080.0 m E Pn      2012/10/13 04:39:28.0   0.4                          T                                        5096724
MTLF  001.78 080.0 m E Pg      2012/10/13 04:39:31.0   0.2                          T                                        5112875
MTLF  001.78 080.0 m E Sg      2012/10/13 04:39:53.5  -0.2                          T                 .2  .21 Ml 1.2         5096723
RJF   002.56 028.0 m E Pn      2012/10/13 04:39:37.9  -0.4                          T                                        5096722

.
EVENT     285000
    Date      Time       Latitude Longitude    Depth    Ndef Nsta Gap    Mag1  N    Mag2  N    Mag3  N   Author         ID
       rms   OT_Error      Smajor Sminor Az        Err   mdist  Mdist     Err        Err        Err      Quality

2012/10/13 04:40:45.5     43.0322    -.1819      2.0       7    4 162  Ml 0.9  1  Md 1.2  2              bulletin    285100
                                                                                                         _ldg
      0.27   +-  0.12       8.2    1.9  174.07 +-  0.0    0.31   1.78   +-         +-0.1                 m i ke

PYRENEES
Sta     Dist  EvAz     Phase      Date       Time     TRes  Azim  AzRes  Slow  SRes Def   SNR       Amp   Per   Mag1   Mag2       ID
ETSF  000.31 244.4 m E Pg      2012/10/13 04:40:51.6   0.0                          T                                        5096736
ETSF  000.31 244.4 m E Sg      2012/10/13 04:40:55.7  -0.1                          T                5.5  .30        Md 1.3  5096735
EPF   000.38 090.1 m E Pg      2012/10/13 04:40:53.0   0.0                          T                                        5096733
EPF   000.38 090.1 m E Sg      2012/10/13 04:40:58.2   0.2                          T                1.9  .20        Md 1.1  5096734
SJPF  000.77 276.4 m E Pg      2012/10/13 04:40:59.8  -0.2                          T                                        5096732
SJPF  000.77 276.4 m E Sg      2012/10/13 04:41:10.8   0.8                          T                 .4  .21                5096731
MTLF  001.78 079.2 m E Sg      2012/10/13 04:41:41.5  -0.1                          T                 .2  .25 Ml  .9         5112876

.
