EVENT     279476
    Date      Time       Latitude Longitude    Depth    Ndef Nsta Gap    Mag1  N    Mag2  N    Mag3  N   Author         ID
       rms   OT_Error      Smajor Sminor Az        Err   mdist  Mdist     Err        Err        Err      Quality

2012/07/13 04:30:04.3     44.5503    7.2718      5.0 f    31    9 148  Ml 1.6  6  Md 1.6  1              bulletin    279576
                                                                                                         _ldg
      0.27   +-  0.06       1.3     .7   47.39 +-  0.0    0.13   1.88   +-0.1      +-                    m i ke

NORTHERN ITALY
Sta     Dist  EvAz     Phase      Date       Time     TRes  Azim  AzRes  Slow  SRes Def   SNR       Amp   Per   Mag1   Mag2       ID
MBDF  000.40 296.5 m E Pg      2012/07/13 04:30:12.5   0.3                          T                                        5025502
MBDF  000.40 296.5 m E Sg      2012/07/13 04:30:17.6   0.0                          T                9.0  .22        Md 1.6  5025503
SBF   000.70 170.2 m E Pg      2012/07/13 04:30:17.8   0.2                          T                                        5025507
SBF   000.70 170.2 m E Sg      2012/07/13 04:30:26.6  -0.2                          T                3.4  .22                5025506
LPL   001.04 338.6 m E Pg      2012/07/13 04:30:23.3  -0.8                          T                                        5025498
LPL   001.04 338.6 m E Sg      2012/07/13 04:30:36.8  -0.8                          T                1.3  .23 Ml 1.6         5025500
LPG   001.02 338.9 m E Pg      2012/07/13 04:30:23.9   0.2                          T                                        5025497
ORIF  001.06 290.8 m E Pg      2012/07/13 04:30:24.5   0.2                          T                                        5025501
ORIF  001.06 290.8 m E Sg      2012/07/13 04:30:37.2  -0.8                          T                1.4  .22 Ml 1.6         5025509
FRF   001.09 204.7 m E Pg      2012/07/13 04:30:25.0   0.2                          T                                        5025499
FRF   001.09 204.7 m E Sg      2012/07/13 04:30:39.0   0.2                          T                1.1  .22 Ml 1.6         5025508
LMR   001.34 204.6 m E Pg      2012/07/13 04:30:29.0  -0.3                          T                                        5029211
LMR   001.34 204.6 m E Sg      2012/07/13 04:30:46.5   0.0                          T                1.1  .17 Ml 1.8         5025504
SMRF  001.35 245.4 m E Pg      2012/07/13 04:30:29.4  -0.2                          T                                        5029212
SMRF  001.35 245.4 m E Sg      2012/07/13 04:30:47.4   0.4                          T                1.2  .29 Ml 1.6         5029213
VIVF  001.88 280.3 m E Pn      2012/07/13 04:30:35.7   0.2                          T                                        5025511
VIVF  001.88 280.3 m E Sn      2012/07/13 04:30:57.2  -0.9                          T                 .8  .38 Ml 1.5         5025510

.
EVENT     279640
    Date      Time       Latitude Longitude    Depth    Ndef Nsta Gap    Mag1  N    Mag2  N    Mag3  N   Author         ID
       rms   OT_Error      Smajor Sminor Az        Err   mdist  Mdist     Err        Err        Err      Quality

2012/07/13 05:20:42.4     42.6963    1.1677     10.0      23    5 061  Ml 1.5  4  Md 1.7  1              bulletin    279740
                                                                                                         _ldg
      0.26   +-  0.04        .9     .7   15.99 +-  0.0    0.12   2.40   +-0.2      +-                    m i ke

PYRENEES
Sta     Dist  EvAz     Phase      Date       Time     TRes  Azim  AzRes  Slow  SRes Def   SNR       Amp   Per   Mag1   Mag2       ID
EPF   000.69 299.0 m E Pg      2012/07/13 05:20:55.6  -0.1                          T                                        5028305
EPF   000.69 299.0 m E Sg      2012/07/13 05:21:04.6  -0.3                          T                2.2  .23        Md 1.7  5028306
MTLF  001.00 049.7 m E Pg      2012/07/13 05:21:01.3   0.0                          T                                        5028299
MTLF  001.00 049.7 m E Sg      2012/07/13 05:21:14.3  -0.1                          T                 .7  .27 Ml 1.3         5028304
ETSF  001.29 279.6 m E Sg      2012/07/13 05:21:22.8  -0.5                          T                1.6  .35 Ml 1.6         5028303
LASF  002.40 054.0 m E Pg      2012/07/13 05:21:26.7  -0.2                          T                                        5028300
LASF  002.40 054.0 m E Sg      2012/07/13 05:21:58.0   0.1                          T                 .9  .28 Ml 1.8         5028301
SJPF  001.81 284.1 m E Sg      2012/07/13 05:21:39.4   0.0                          T                 .7  .32 Ml 1.5         5028302

.
EVENT     279487
    Date      Time       Latitude Longitude    Depth    Ndef Nsta Gap    Mag1  N    Mag2  N    Mag3  N   Author         ID
       rms   OT_Error      Smajor Sminor Az        Err   mdist  Mdist     Err        Err        Err      Quality

2012/07/13 05:47:36.1     47.6545    6.2230       .0 f    15    8 119  Ml 1.8  2  Md 2.1  2              bulletin    279587
                                                                                                         _ldg
      0.30   +-  0.09       1.7    1.5   88.39 +-  0.0    0.36   1.16   +-0.0      +-0.0                 m i km

FRANCE
Sta     Dist  EvAz     Phase      Date       Time     TRes  Azim  AzRes  Slow  SRes Def   SNR       Amp   Per   Mag1   Mag2       ID
HAU   000.36 013.4 m E Pg      2012/07/13 05:47:43.2  -0.2                          T                                        5025690
HAU   000.36 013.4 m E Sg      2012/07/13 05:47:48.8   0.3                          T                                Md 2.0  5025694
HINF  000.46 068.9 m E Pg      2012/07/13 05:47:45.2   0.0                          T                                        5025689
HINF  000.46 068.9 m E Sg      2012/07/13 05:47:51.5   0.1                          T                                        5025697
THEF  000.59 345.1 m E Pg      2012/07/13 05:47:47.4  -0.3                          T                                        5025687
THEF  000.59 345.1 m E Sg      2012/07/13 05:47:56.6   0.9                          T                                Md 2.1  5025686
SFTF  000.97 305.1 m E Pg      2012/07/13 05:47:54.7   0.2 125.3  1.1               T                                        5025691
SFTF  000.97 305.1 m E Sg      2012/07/13 05:48:07.1  -0.3                          T                2.6  .24 Ml 1.8         5025696
PAGF  000.96 339.9 m E Pg      2012/07/13 05:47:55.5   1.1                          T                                        5025692
CDF   001.04 042.6 m E Pg      2012/07/13 05:47:55.9  -0.1                          T                                        5025699
CDF   001.04 042.6 m E Sn      2012/07/13 05:48:11.1   0.0                          T                                        5025698
CABF  001.05 185.1 m E Pg      2012/07/13 05:47:56.3   0.2                          T                                        5025688
CABF  001.05 185.1 m E Sg      2012/07/13 05:48:09.7  -0.2                          T                                        5025685
MEZF  001.16 317.6 m E Pg      2012/07/13 05:47:57.3  -0.7                          T                                        5025693
MEZF  001.16 317.6 m E Sg      2012/07/13 05:48:13.1  -0.1                          T                1.7  .18 Ml 1.9         5025695

.
EVENT     279478
    Date      Time       Latitude Longitude    Depth    Ndef Nsta Gap    Mag1  N    Mag2  N    Mag3  N   Author         ID
       rms   OT_Error      Smajor Sminor Az        Err   mdist  Mdist     Err        Err        Err      Quality

2012/07/13 06:09:50.4     44.4858    6.6973      2.0      67   11 055  Ml 3.0  8  Md 3.0  2              bulletin    279578
                                                                                                         _ldg
      0.34   +-  0.04       1.0     .8   57.80 +-  0.0    0.07   3.43   +-0.2      +-0.0                 m i ke

FRANCE
Sta     Dist  EvAz     Phase      Date       Time     TRes  Azim  AzRes  Slow  SRes Def   SNR       Amp   Per   Mag1   Mag2       ID
MBDF  000.25 012.4 m E Pg      2012/07/13 06:09:55.5   0.0                          T                                        5025558
MBDF  000.25 012.4 m E Sg      2012/07/13 06:09:58.9   0.0                          T                                Md 3.0  5025564
ORIF  000.73 306.9 m E Pg      2012/07/13 06:10:04.0  -0.3                          T                                        5025557
ORIF  000.73 306.9 m E Sg      2012/07/13 06:10:14.0   0.3                          T                                Md 2.9  5025582
SBF   000.82 139.3 m E Pg      2012/07/13 06:10:05.8  -0.2                          T                                        5025554
FRF   000.93 182.3 m E Pg      2012/07/13 06:10:07.8   0.0                          T                                        5025555
FRF   000.93 182.3 m E Sn      2012/07/13 06:10:21.1  -0.8                          T               54.8  .22 Ml 3.2         5025576
LPL   001.03 001.4 m E Pg      2012/07/13 06:10:09.3  -0.7                          T                                        5025580
LPL   001.03 001.4 m E Pn      2012/07/13 06:10:10.1  -0.5                          T                                        5025579
LPL   001.03 001.4 m E Sn      2012/07/13 06:10:24.3  -0.5                          T               26.3  .30 Ml 2.8         5025578
LPG   001.01 002.2 m E Pg      2012/07/13 06:10:10.0   0.2                          T                                        5025577
LPG   001.01 002.2 m E Sn      2012/07/13 06:10:23.8  -0.5                          T               40.8  .29 Ml 3.0         5025573
SMRF  000.95 238.1 m E P       2012/07/13 06:10:10.2  -0.3                          T                                        5025559
SMRF  000.95 238.1 m E Sn      2012/07/13 06:10:22.4  -0.3                          T               95.5  .29 Ml 3.3         5025574
LMR   001.16 186.8 m E Pn      2012/07/13 06:10:11.5  -0.5                          T                                        5025553
LMR   001.16 186.8 m E P       2012/07/13 06:10:13.3  -0.4                          T                                        5025563
LMR   001.16 186.8 m E Sn      2012/07/13 06:10:26.7  -0.8                          T               39.4  .22 Ml 3.2         5025575
VIVF  001.49 285.1 m E Pn      2012/07/13 06:10:16.3  -0.3                          T                                        5025560
VIVF  001.49 285.1 m E Pg      2012/07/13 06:10:17.5  -0.8                          T                                        5025556
VIVF  001.49 285.1 m E Sn      2012/07/13 06:10:35.3  -0.2                          T               16.0  .27 Ml 2.8         5025581
LASF  002.08 259.6 m E Pn      2012/07/13 06:10:24.4  -0.2                          T                                        5025561
LASF  002.08 259.6 m E P       2012/07/13 06:10:26.4  -0.4                          T                                        5025562
PGF   002.56 138.4 m E Pn      2012/07/13 06:10:30.4  -0.8                          T                                        5025572
PGF   002.56 138.4 m E P       2012/07/13 06:10:32.1  -1.7                          T                                        5025571
PGF   002.56 138.4 m E Sn      2012/07/13 06:11:00.1  -1.0                          T                7.6  .24 Ml 3.1         5025570

.
EVENT     279481
    Date      Time       Latitude Longitude    Depth    Ndef Nsta Gap    Mag1  N    Mag2  N    Mag3  N   Author         ID
       rms   OT_Error      Smajor Sminor Az        Err   mdist  Mdist     Err        Err        Err      Quality

2012/07/13 06:20:53.5     44.5090    6.6847      2.0      24    7 074  Ml 1.6  4  Md 1.8  3              bulletin    279581
                                                                                                         _ldg
      0.35   +-  0.07       1.6    1.1   43.03 +-  0.0    0.10   1.18   +-0.1      +-0.1                 m i ke

FRANCE
Sta     Dist  EvAz     Phase      Date       Time     TRes  Azim  AzRes  Slow  SRes Def   SNR       Amp   Per   Mag1   Mag2       ID
MBDF  000.23 015.8 m E Pg      2012/07/13 06:20:58.3   0.1                          T                                        5025701
MBDF  000.23 015.8 m E Sg      2012/07/13 06:21:01.4   0.1                          T                                Md 1.9  5025712
ORIF  000.70 305.8 m E Pg      2012/07/13 06:21:06.5  -0.4                          T                                        5025700
ORIF  000.70 305.8 m E Sg      2012/07/13 06:21:15.5  -0.6                          T                                Md 1.7  5025711
SBF   000.84 139.8 m E Pg      2012/07/13 06:21:09.9   0.5                          T                                        5025703
SBF   000.84 139.8 m E Sg      2012/07/13 06:21:20.1  -0.3                          T                                Md 1.7  5025704
FRF   000.95 181.7 m E Pg      2012/07/13 06:21:11.5   0.3                          T                                        5025707
FRF   000.95 181.7 m E Sg      2012/07/13 06:21:23.6   0.1                          T                2.1  .21 Ml 1.8         5025706
SMRF  000.96 236.6 m E Pg      2012/07/13 06:21:11.8   0.3                          T                                        5025709
SMRF  000.96 236.6 m E Sg      2012/07/13 06:21:23.8  -0.2                          T                1.3  .26 Ml 1.5         5025708
LPL   001.01 001.9 m E Pg      2012/07/13 06:21:12.7   0.1                          T                                        5025723
LPL   001.01 001.9 m E Sg      2012/07/13 06:21:26.4   0.7                          T                1.5  .27 Ml 1.5         5025710
LMR   001.18 186.2 m E Pg      2012/07/13 06:21:16.4   0.9                          T                                        5025702
LMR   001.18 186.2 m E Sg      2012/07/13 06:21:31.2   0.3                          T                1.1  .22 Ml 1.6         5025705

.
EVENT     279482
    Date      Time       Latitude Longitude    Depth    Ndef Nsta Gap    Mag1  N    Mag2  N    Mag3  N   Author         ID
       rms   OT_Error      Smajor Sminor Az        Err   mdist  Mdist     Err        Err        Err      Quality

2012/07/13 06:25:03.5     44.5936    7.3016      2.0      10    5 195  Ml 1.4  3  Md 1.4  1              bulletin    279582
                                                                                                         _ldg
      0.31   +-  0.19       4.9    2.2   61.11 +-  0.0    0.40   1.89   +-0.0      +-                    m i ke

NORTHERN ITALY
Sta     Dist  EvAz     Phase      Date       Time     TRes  Azim  AzRes  Slow  SRes Def   SNR       Amp   Per   Mag1   Mag2       ID
MBDF  000.40 289.6 m E Pg      2012/07/13 06:25:11.8   0.3                          T                                        5025729
MBDF  000.40 289.6 m E Sg      2012/07/13 06:25:16.9   0.1                          T                8.1  .24        Md 1.4  5025728
SBF   000.74 172.5 m E Pg      2012/07/13 06:25:17.8   0.3                          T                                        5025732
SBF   000.74 172.5 m E Sg      2012/07/13 06:25:26.2  -0.9                          T                                        5025731
LPL   001.01 336.6 m E Pg      2012/07/13 06:25:22.6  -0.1                          T                                        5025733
LPL   001.01 336.6 m E Sg      2012/07/13 06:25:35.7  -0.1                          T                 .9  .20 Ml 1.4         5025741
ORIF  001.06 288.3 m E Pg      2012/07/13 06:25:23.5  -0.1                          T                                        5025726
ORIF  001.06 288.3 m E Sg      2012/07/13 06:25:37.2  -0.2                          T                 .7  .19 Ml 1.4         5025727
VIVF  001.89 278.9 m E Pn      2012/07/13 06:25:35.0  -0.2                          T                                        5025725
VIVF  001.89 278.9 m E Sn      2012/07/13 06:25:58.2   0.0                          T                 .4  .23 Ml 1.4         5025742

.
EVENT     279506
    Date      Time       Latitude Longitude    Depth    Ndef Nsta Gap    Mag1  N    Mag2  N    Mag3  N   Author         ID
       rms   OT_Error      Smajor Sminor Az        Err   mdist  Mdist     Err        Err        Err      Quality

2012/07/13 10:11:06.7     44.9166   11.4142      2.0      26    8 144  Ml 2.7  7                         bulletin    279606
                                                                                                         _ldg
      0.48   +-  0.15       3.4    2.7  101.81 +-  0.0    0.26   4.79   +-0.2                            m i ke

NORTHERN ITALY
Sta     Dist  EvAz     Phase      Date       Time     TRes  Azim  AzRes  Slow  SRes Def   SNR       Amp   Per   Mag1   Mag2       ID
PGF   002.94 217.3 m E Pn      2012/07/13 10:11:53.1   0.4                          T                                        5026293
PGF   002.94 217.3 m E Sn      2012/07/13 10:12:26.3  -0.3                          T                1.9  .26 Ml 2.5         5026294
SBF   003.04 251.1 m E Pn      2012/07/13 10:11:54.0   0.0                          T                                        5026292
SBF   003.04 251.1 m E Sn      2012/07/13 10:12:28.8   0.0                          T                9.5  .35 Ml 2.9         5026287
MBDF  003.31 268.3 m E Pn      2012/07/13 10:11:57.9   0.1                          T                                        5029241
MBDF  003.31 268.3 m E P       2012/07/13 10:12:01.2   0.3                          T                                        5026286
MBDF  003.31 268.3 m E Sn      2012/07/13 10:12:35.6   0.2                          T                2.5  .29 Ml 2.4         5029240
FRF   003.68 250.1 m E Pn      2012/07/13 10:12:03.4   0.7                          T                                        5026290
FRF   003.68 250.1 m E Sn      2012/07/13 10:12:44.8   0.7                          T                2.5  .24 Ml 2.6         5026289
LMR   003.87 247.6 m E Pn      2012/07/13 10:12:04.7  -0.5                          T                                        5026291
LMR   003.87 247.6 m E Sn      2012/07/13 10:12:48.1  -0.4                          T                4.5  .37 Ml 2.7         5026288
HINF  004.29 314.2 m E Pn      2012/07/13 10:12:10.4  -0.5                          T                                        5029244
HINF  004.29 314.2 m E Sn      2012/07/13 10:12:58.7   0.1                          T                5.1  .42 Ml 2.8         5029243
CDF   004.51 322.3 m E Pn      2012/07/13 10:12:13.9  -0.1                          T                                        5029246
CDF   004.51 322.3 m E Sn      2012/07/13 10:13:03.7  -0.3                          T                1.6  .20 Ml 2.8         5029245
VIVF  004.79 271.6 m E Pn      2012/07/13 10:12:17.6  -0.2                          T                                        5029242
VIVF  004.79 271.6 m E P       2012/07/13 10:12:21.8   0.1                          T                                        5026285

.
