EVENT     257081
    Date      Time       Latitude Longitude    Depth    Ndef Nsta Gap    Mag1  N    Mag2  N    Mag3  N   Author         ID
       rms   OT_Error      Smajor Sminor Az        Err   mdist  Mdist     Err        Err        Err      Quality

2011/03/11 21:08:46.3     43.1341    -.4368      2.0      92   22 062  Ml 2.8 23  Md 2.6  3              js067245    257081

      0.45   +-  0.05       1.1     .9  130.02 +-  0.0    0.20   5.63   +-0.2      +-0.0                 m i ke

PYRENEES
Sta     Dist  EvAz     Phase      Date       Time     TRes  Azim  AzRes  Slow  SRes Def   SNR       Amp   Per   Mag1   Mag2       ID
ETSF  000.25 200.9 m E Pg      2011/03/11 21:08:50.5  -0.8                          T                                        4659221
ETSF  000.25 200.9 m E Sg      2011/03/11 21:08:53.0  -1.8                          T              254.7  .20        Md 2.6  4659216
SJPF  000.58 268.2 m E Pg      2011/03/11 21:08:56.5  -0.8                          T                                        4659220
SJPF  000.58 268.2 m E Sg      2011/03/11 21:09:04.2  -0.7                          T               39.7  .36        Md 2.6  4659192
EPF   000.58 100.1 m E Pg      2011/03/11 21:08:56.9  -0.5                          T                                        4659219
EPF   000.58 100.1 m E Sg      2011/03/11 21:09:04.6  -0.3                          T               62.0  .28        Md 2.6  4659191
MTLF  001.95 083.0 m E Pn      2011/03/11 21:09:18.0  -0.6                          T                                        4659276
MTLF  001.95 083.0 m E Pg      2011/03/11 21:09:22.3  -0.3                          T                                        4659213
MTLF  001.95 083.0 m E Sg      2011/03/11 21:09:47.6  -0.1                          T               10.4  .22 Ml 2.9         4659190
LFF   001.99 024.8 m E Pn      2011/03/11 21:09:19.2   0.0                          T                                        4659278
LFF   001.99 024.8 m E Pg      2011/03/11 21:09:23.6   0.3                          T                                        4659218
LFF   001.99 024.8 m E Sg      2011/03/11 21:09:49.5   0.5                          T               21.8  .24 Ml 3.0         4659194
CAF   002.54 044.3 m E Pn      2011/03/11 21:09:26.3  -0.4                          T                                        4659277
CAF   002.54 044.3 m E Pg      2011/03/11 21:09:33.4  -0.1                          T                                        4659215
CAF   002.54 044.3 m E Sg      2011/03/11 21:10:06.5   0.3                          T                9.6  .24 Ml 2.9         4659193
RJF   002.58 032.2 m E Pn      2011/03/11 21:09:27.4   0.1                          T                                        4659279
RJF   002.58 032.2 m E Pg      2011/03/11 21:09:34.1  -0.1                          T                                        4659217
RJF   002.58 032.2 m E Sg      2011/03/11 21:10:07.8   0.3                          T               11.1  .18 Ml 2.8         4659195
LASF  003.26 071.7 m E Pn      2011/03/11 21:09:36.0  -0.4                          T                                        4659275
LASF  003.26 071.7 m E Pg      2011/03/11 21:09:46.3  -0.3                          T                                        4659212
LASF  003.26 071.7 m E Sg      2011/03/11 21:10:28.7   0.2                          T                7.1  .32 Ml 2.8         4659189
MFF   003.47 003.3 m E Pn      2011/03/11 21:09:39.6   0.3                          T                                        4659280
MFF   003.47 003.3 m E Pg      2011/03/11 21:09:50.7   0.1                          T                                        4659214
MFF   003.47 003.3 m E Sg      2011/03/11 21:10:35.6   0.4                          T                3.3  .22 Ml 2.9         4659196
TCF   003.67 030.0 m E Pn      2011/03/11 21:09:42.6   0.4                          T                                        4659285
TCF   003.67 030.0 m E Pg      2011/03/11 21:09:54.1  -0.2                          T                                        4659206
TCF   003.67 030.0 m E Sg      2011/03/11 21:10:41.9   0.4                          T                4.7  .20 Ml 3.0         4659201
VIVF  004.07 063.2 m E Pn      2011/03/11 21:09:46.9  -0.6                          T                                        4659274
VIVF  004.07 063.2 m E Pg      2011/03/11 21:10:01.5  -0.2                          T                                        4659211
VIVF  004.07 063.2 m E Sg      2011/03/11 21:10:53.8   0.0                          T                4.7  .41 Ml 2.7         4659188
BGF   004.14 033.2 m E Pn      2011/03/11 21:09:48.3  -0.2                          T                                        4659282
BGF   004.14 033.2 m E Pg      2011/03/11 21:10:03.0   0.0                          T                                        4659209
BGF   004.14 033.2 m E Sg      2011/03/11 21:10:56.6   0.5                          T               17.3  .40 Ml 3.3         4659198
AVF   004.54 035.0 m E Pn      2011/03/11 21:09:53.8  -0.1                          T                                        4659284
AVF   004.54 035.0 m E Pg      2011/03/11 21:10:10.3   0.1                          T                                        4659208
AVF   004.54 035.0 m E Sg      2011/03/11 21:11:08.8   0.4                          T                1.9  .28 Ml 2.6         4659200
SMF   004.64 039.4 m E Pn      2011/03/11 21:09:55.0  -0.3                          T                                        4659283
SMF   004.64 039.4 m E Pg      2011/03/11 21:10:12.3   0.2                          T                                        4659207
SMF   004.64 039.4 m E Sg      2011/03/11 21:11:12.1   0.3                          T                2.3  .34 Ml 2.6         4659199
SSF   004.82 034.0 m E Pn      2011/03/11 21:09:57.2  -0.5                          T                                        4659286
SSF   004.82 034.0 m E Pg      2011/03/11 21:10:15.7   0.3                          T                                        4659205
SSF   004.82 034.0 m E Sg      2011/03/11 21:11:17.4   0.2                          T                4.2  .47 Ml 2.9         4659202
LOR   005.13 034.8 m E Pn      2011/03/11 21:10:01.7  -0.3                          T                                        4659287
LOR   005.13 034.8 m E Pg      2011/03/11 21:10:21.2   0.1                          T                                        4659204
LOR   005.13 034.8 m E Sg      2011/03/11 21:11:27.2   0.3                          T                2.2  .35 Ml 2.7         4659203
QUIF  005.15 339.1 m E Pn      2011/03/11 21:10:02.3   0.1                          T                                        4659270
QUIF  005.15 339.1 m E Sn      2011/03/11 21:10:58.7   0.0                          T                                        4659266
QUIF  005.15 339.1 m E Sg      2011/03/11 21:11:27.9   0.3                          T                2.4  .44 Ml 2.7         4659260
GRR   005.26 356.9 m E Pn      2011/03/11 21:10:03.6  -0.1                          T                                        4659273
GRR   005.26 356.9 m E Sn      2011/03/11 21:11:01.3  -0.1                          T                                        4659265
GRR   005.26 356.9 m E Sg      2011/03/11 21:11:31.5   0.4                          T                 .9  .18 Ml 2.5         4659257
SGMF  005.33 344.6 m E Pn      2011/03/11 21:10:04.6   0.0                          T                                        4659269
SGMF  005.33 344.6 m E Sn      2011/03/11 21:11:03.0   0.0                          T                                        4659267
SGMF  005.33 344.6 m E Sg      2011/03/11 21:11:33.6   0.4                          T                1.4  .31 Ml 2.6         4659261
LDF   005.46 002.2 m E Pn      2011/03/11 21:10:06.3  -0.2                          T                                        4659272
LDF   005.46 002.2 m E Sn      2011/03/11 21:11:06.3   0.1                          T                                        4659264
LDF   005.46 002.2 m E Sg      2011/03/11 21:11:37.7   0.4                          T                3.7  .49 Ml 2.8         4659258
ROSF  005.57 340.1 m E Pn      2011/03/11 21:10:07.6  -0.3                          T                                        4659268
ROSF  005.57 340.1 m E Sg      2011/03/11 21:11:40.8   0.2                          T                 .8  .32 Ml 2.4         4659262
FLN   005.63 359.7 m E Pn      2011/03/11 21:10:08.5  -0.3                          T                                        4659271
FLN   005.63 359.7 m E Sn      2011/03/11 21:11:09.9  -0.2                          T                                        4659263
FLN   005.63 359.7 m E Sg      2011/03/11 21:11:42.7   0.2                          T                1.9  .31 Ml 2.6         4659259

.
EVENT     257082
    Date      Time       Latitude Longitude    Depth    Ndef Nsta Gap    Mag1  N    Mag2  N    Mag3  N   Author         ID
       rms   OT_Error      Smajor Sminor Az        Err   mdist  Mdist     Err        Err        Err      Quality

2011/03/11 21:43:50.8     45.4686    6.9971      2.0      10    4 267  Ml 1.1  2  Md 1.4  3              js067245    257082

      0.09   +-  0.11       1.9     .9   60.82 +-  0.0    0.18   0.96   +-0.1      +-0.0                 m i ke

FRANCE
Sta     Dist  EvAz     Phase      Date       Time     TRes  Azim  AzRes  Slow  SRes Def   SNR       Amp   Per   Mag1   Mag2       ID
LPG   000.18 279.6 m E Pg      2011/03/11 21:43:54.7   0.0                          T                                        4659338
LPG   000.18 279.6 m E Sg      2011/03/11 21:43:57.0  -0.1                          T                8.7  .21        Md 1.4  4659337
LPL   000.19 284.5 m E Pg      2011/03/11 21:43:54.8  -0.1                          T                                        4659339
LPL   000.19 284.5 m E Sg      2011/03/11 21:43:57.6   0.0                          T                6.2  .36        Md 1.4  4659336
MBDF  000.76 192.2 m E Pg      2011/03/11 21:44:05.2   0.0                          T                                        4659334
MBDF  000.76 192.2 m E Sg      2011/03/11 21:44:15.0  -0.1                          T                1.8  .37        Md 1.3  4659335
ORIF  000.96 235.5 m E Pg      2011/03/11 21:44:09.1   0.1                          T                                        4659333
ORIF  000.96 235.5 m E Sg      2011/03/11 21:44:21.3  -0.2                          T                 .4  .24 Ml 1.0         4659332

.
EVENT     257083
    Date      Time       Latitude Longitude    Depth    Ndef Nsta Gap    Mag1  N    Mag2  N    Mag3  N   Author         ID
       rms   OT_Error      Smajor Sminor Az        Err   mdist  Mdist     Err        Err        Err      Quality

2011/03/11 23:41:57.0     44.9903    5.5700      2.0      20    9 071  Ml 1.6  7  Md 1.7  3              js067245    257083

      0.19   +-  0.05       1.2     .8  165.22 +-  0.0    0.23   2.05   +-0.3      +-0.1                 m i ke

FRANCE
Sta     Dist  EvAz     Phase      Date       Time     TRes  Azim  AzRes  Slow  SRes Def   SNR       Amp   Per   Mag1   Mag2       ID
ORIF  000.23 108.0 m E Pg      2011/03/11 23:42:01.4  -0.3                          T                                        4659359
ORIF  000.23 108.0 m E Sg      2011/03/11 23:42:05.3   0.4                          T               37.9  .33        Md 1.7  4659355
VIVF  000.65 258.4 m E Pg      2011/03/11 23:42:09.6   0.2                          T                                        4659358
VIVF  000.65 258.4 m E Sg      2011/03/11 23:42:17.9   0.0                          T                4.2  .24        Md 1.7  4659354
MBDF  000.89 106.7 m E Pg      2011/03/11 23:42:14.2   0.2                          T                                        4659351
MBDF  000.89 106.7 m E Sg      2011/03/11 23:42:25.7   0.1                          T                1.6  .21 Ml 1.6 Md 1.6  4659346
LPL   000.98 056.9 m E Pg      2011/03/11 23:42:15.7   0.2                          T                                        4659352
LPL   000.98 056.9 m E Sg      2011/03/11 23:42:28.2   0.0                          T                  1  .26 Ml 1.4         4659345
LPG   000.98 058.3 m E Pg      2011/03/11 23:42:15.9   0.2                          T                                        4659356
LPG   000.98 058.3 m E Sg      2011/03/11 23:42:28.3  -0.1                          T                2.2  .43 Ml 1.5         4659344
SMRF  001.01 179.8 m E Pg      2011/03/11 23:42:16.0   0.0                          T                                        4659349
SMRF  001.01 179.8 m E Sg      2011/03/11 23:42:29.5   0.3                          T                 .5  .26 Ml 1.1         4659343
LASF  001.53 233.9 m E Pg      2011/03/11 23:42:25.4  -0.1                          T                                        4659357
LASF  001.53 233.9 m E Sg      2011/03/11 23:42:45.3   0.1                          T                1.4  .25 Ml 1.8         4659353
CABF  001.66 012.4 m E Pn      2011/03/11 23:42:25.4  -0.1                          T                                        4659350
CABF  001.66 012.4 m E Sn      2011/03/11 23:42:45.9  -0.2                          T                1.5  .32 Ml 1.8         4659340
SMF   002.05 324.5 m E Pn      2011/03/11 23:42:30.8   0.1                          T                                        4659348
SMF   002.05 324.5 m E Sn      2011/03/11 23:42:55.1  -0.3                          T                1.3  .21 Ml 2.0         4659347

.
EVENT     257086
    Date      Time       Latitude Longitude    Depth    Ndef Nsta Gap    Mag1  N    Mag2  N    Mag3  N   Author         ID
       rms   OT_Error      Smajor Sminor Az        Err   mdist  Mdist     Err        Err        Err      Quality

2011/03/12 03:14:02.6     45.1503    5.6422      2.0       9    4 230  Ml 1.8  1                         js067245    257086

      0.11   +-  0.13       3.1     .9    6.61 +-  0.0    0.29   1.67   +-                               m i ke

FRANCE
Sta     Dist  EvAz     Phase      Date       Time     TRes  Azim  AzRes  Slow  SRes Def   SNR       Amp   Per   Mag1   Mag2       ID
ORIF  000.29 143.9 m E Pg      2011/03/12 03:14:08.5   0.1                          T                                        4659369
ORIF  000.29 143.9 m E Sg      2011/03/12 03:14:12.4   0.1                          T                8.6  .24                4659363
VIVF  000.75 247.2 m E Pg      2011/03/12 03:14:17.0   0.2                          T                                        4659367
VIVF  000.75 247.2 m E Sg      2011/03/12 03:14:26.5  -0.1                          T                2.7  .18                4659364
MBDF  000.91 117.4 m E Pg      2011/03/12 03:14:19.8  -0.1                          T                                        4659366
LASF  001.67 230.5 m E Pg      2011/03/12 03:14:33.6  -0.1                          T                                        4659368
LASF  001.67 230.5 m E Sg      2011/03/12 03:14:55.1  -0.1                          T                1.3  .25 Ml 1.8         4659365

.
