EVENT     286186
    Date      Time       Latitude Longitude    Depth    Ndef Nsta Gap    Mag1  N    Mag2  N    Mag3  N   Author         ID
       rms   OT_Error      Smajor Sminor Az        Err   mdist  Mdist     Err        Err        Err      Quality

2012/11/01 17:41:31.4     44.3517    7.2590      5.0 f    24    5 104  Ml 1.4  3  Md 1.5  2              bulletin    286286
                                                                                                         _ldg
      0.21   +-  0.05       1.0     .8   60.73 +-  0.0    0.12   1.27   +-0.4      +-0.1                 m i ke

NORTHERN ITALY
Sta     Dist  EvAz     Phase      Date       Time     TRes  Azim  AzRes  Slow  SRes Def   SNR       Amp   Per   Mag1   Mag2       ID
SBF   000.50 165.4 m E Pg      2012/11/01 17:41:41.1   0.0                          T                                        5107917
SBF   000.50 165.4 m E Sg      2012/11/01 17:41:47.9   0.0                          T                2.5  .22        Md 1.5  5107916
MBDF  000.51 317.3 m E Pg      2012/11/01 17:41:41.6   0.1                          T                                        5107921
MBDF  000.51 317.3 m E Sg      2012/11/01 17:41:48.4   0.2                          T                1.9  .19        Md 1.4  5107922
FRF   000.91 209.4 m E Pg      2012/11/01 17:41:48.3  -0.2                          T                                        5107920
FRF   000.91 209.4 m E Sg      2012/11/01 17:42:00.4   0.1                          T                 .7  .18 Ml 1.4         5107915
LMR   001.15 208.3 m E Pg      2012/11/01 17:41:53.0   0.0                          T                                        5107919
LMR   001.15 208.3 m E Sg      2012/11/01 17:42:07.8  -0.1                          T                1.4  .19 Ml 1.8         5107918
SMRF  001.27 253.4 m E Pg      2012/11/01 17:41:55.2   0.0                          T                                        5107913
SMRF  001.27 253.4 m E Sg      2012/11/01 17:42:11.4  -0.2                          T                 .2  .13 Ml 1.0         5107914

.
EVENT     286176
    Date      Time       Latitude Longitude    Depth    Ndef Nsta Gap    Mag1  N    Mag2  N    Mag3  N   Author         ID
       rms   OT_Error      Smajor Sminor Az        Err   mdist  Mdist     Err        Err        Err      Quality

2012/11/01 21:50:59.1     37.1270  -13.0361     20.0 f    49    3 298  Ml 3.3  3                         bulletin    286276
                                                                                                         _ldg
      1.04   +-  0.48       9.4    8.0   37.54 +-  0.0    3.36  12.82   +-0.1                            m i ke

NORTH ATLANTIC OCEAN
Sta     Dist  EvAz     Phase      Date       Time     TRes  Azim  AzRes  Slow  SRes Def   SNR       Amp   Per   Mag1   Mag2       ID
SJPF  010.84 052.9 m E Pn      2012/11/01 21:53:30.9   0.4                          T                                        5107427
SJPF  010.84 052.9 m E Sn      2012/11/01 21:55:23.9  -0.3                          T                1.2  .58 Ml 3.2         5107423
ETSF  011.17 055.1 m E Pn      2012/11/01 21:53:35.7   0.7                          T                                        5107426
ETSF  011.17 055.1 m E Sn      2012/11/01 21:55:32.8   0.7                          T                1.3  .43 Ml 3.4         5107424
EPF   011.82 055.9 m E Pn      2012/11/01 21:53:45.3   1.5                          T                                        5107425
EPF   011.82 055.9 m E Sn      2012/11/01 21:55:47.8   0.1                          T                 .5  .26 Ml 3.3         5107422

.
EVENT     286177
    Date      Time       Latitude Longitude    Depth    Ndef Nsta Gap    Mag1  N    Mag2  N    Mag3  N   Author         ID
       rms   OT_Error      Smajor Sminor Az        Err   mdist  Mdist     Err        Err        Err      Quality

2012/11/01 22:10:12.0     37.2062  -12.9862     20.0 f    43    3 302  Ml 3.6  3                         bulletin    286277
                                                                                                         _ldg
      1.30   +-  0.66      12.2   11.6   59.53 +-  0.0    3.32  11.74   +-0.1                            m i ke

NORTH ATLANTIC OCEAN
Sta     Dist  EvAz     Phase      Date       Time     TRes  Azim  AzRes  Slow  SRes Def   SNR       Amp   Per   Mag1   Mag2       ID
SJPF  010.76 053.1 m E Pn      2012/11/01 22:12:42.9   0.6                          T                                        5107433
SJPF  010.76 053.1 m E Sn      2012/11/01 22:14:34.6  -0.6                          T                  1  .18 Ml 3.6         5107428
ETSF  011.09 055.3 m E Pn      2012/11/01 22:12:47.8   1.0                          T                                        5107432
ETSF  011.09 055.3 m E Sn      2012/11/01 22:14:38.9  -4.2                          T                1.4  .33 Ml 3.5         5107430
EPF   011.74 056.2 m E Pn      2012/11/01 22:12:57.3   1.6                          T                                        5107431
EPF   011.74 056.2 m E Sn      2012/11/01 22:14:48.6 -10.1                          T                1.4  .25 Ml 3.7         5107429

.
EVENT     286178
    Date      Time       Latitude Longitude    Depth    Ndef Nsta Gap    Mag1  N    Mag2  N    Mag3  N   Author         ID
       rms   OT_Error      Smajor Sminor Az        Err   mdist  Mdist     Err        Err        Err      Quality

2012/11/01 22:11:56.2     37.1999  -13.1930     20.0 f    42    3 303  Ml 2.9  3                         bulletin    286278
                                                                                                         _ldg
      1.29   +-  0.65      11.8   11.5   76.10 +-  0.0    3.49  11.88   +-0.4                            m i ke

NORTH ATLANTIC OCEAN
Sta     Dist  EvAz     Phase      Date       Time     TRes  Azim  AzRes  Slow  SRes Def   SNR       Amp   Per   Mag1   Mag2       ID
SJPF  010.89 053.5 m E Pn      2012/11/01 22:14:28.9   0.5                          T                                        5107439
SJPF  010.89 053.5 m E Sn      2012/11/01 22:16:22.5  -0.1                          T                 .3  .32 Ml 2.9         5107436
ETSF  011.23 055.6 m E Pn      2012/11/01 22:14:34.1   1.2                          T                                        5107438
ETSF  011.23 055.6 m E Sn      2012/11/01 22:16:30.3  -0.4                          T                 .1  .17 Ml 2.6         5107435
EPF   011.88 056.5 m E Pn      2012/11/01 22:14:43.0   1.1                          T                                        5107437
EPF   011.88 056.5 m E Sn      2012/11/01 22:16:45.3  -1.0                          T                 .8  .33 Ml 3.3         5107434

.
EVENT     286179
    Date      Time       Latitude Longitude    Depth    Ndef Nsta Gap    Mag1  N    Mag2  N    Mag3  N   Author         ID
       rms   OT_Error      Smajor Sminor Az        Err   mdist  Mdist     Err        Err        Err      Quality

2012/11/02 03:01:48.7     44.5202   10.4673     10.0      62   15 069  Ml 2.6 13  Md 2.6  3              bulletin    286279
                                                                                                         _ldg
      0.63   +-  0.07       1.6    1.4   91.94 +-  0.0    0.11   6.12   +-0.4      +-0.1                 m i ke

NORTHERN ITALY
Sta     Dist  EvAz     Phase      Date       Time     TRes  Azim  AzRes  Slow  SRes Def   SNR       Amp   Per   Mag1   Mag2       ID
PGF   002.24 208.9 m E Pn      2012/11/02 03:02:24.2  -0.1                          T                                        5107614
PGF   002.24 208.9 m E Sn      2012/11/02 03:02:49.8  -0.5                          T                5.0  .28 Ml 2.7 Md 2.6  5107613
SBF   002.28 254.3 m E Pn      2012/11/02 03:02:25.2   0.5                          T                                        5107616
SBF   002.28 254.3 m E Pg      2012/11/02 03:02:31.3   0.2                          T                                        5107615
SBF   002.28 254.3 m E Sn      2012/11/02 03:02:50.9  -0.3                          T               20.4  .42 Ml 3.0 Md 2.6  5107612
MBDF  002.65 275.8 m E Pn      2012/11/02 03:02:30.3   0.4                          T                                        5107600
MBDF  002.65 275.8 m E Sn      2012/11/02 03:02:59.9  -0.2                          T                                        5107599
MBDF  002.65 275.8 m E Sg      2012/11/02 03:03:12.3   0.2                          T                3.4  .26 Ml 2.5 Md 2.8  5107587
LPG   002.81 291.6 m E Pn      2012/11/02 03:02:32.1  -0.2                          T                                        5107605
LPG   002.81 291.6 m E Pg      2012/11/02 03:02:41.6   0.3                          T                                        5107604
LPG   002.81 291.6 m E Sn      2012/11/02 03:03:03.7  -0.5                          T                4.2  .23 Ml 2.6         5107603
FRF   002.92 252.1 m E Pn      2012/11/02 03:02:34.1   0.8                          T                                        5107609
FRF   002.92 252.1 m E Sn      2012/11/02 03:03:06.1  -0.3                          T                6.7  .27 Ml 2.8         5107608
LPL   002.83 291.9 m E P       2012/11/02 03:02:35.4   0.1                          T                                        5107602
LPL   002.83 291.9 m E Sn      2012/11/02 03:03:03.7  -0.8                          T                                        5107601
LMR   003.10 248.9 m E Pn      2012/11/02 03:02:36.1   0.3                          T                                        5107611
LMR   003.10 248.9 m E Sn      2012/11/02 03:03:10.2  -0.4                          T                3.7  .24 Ml 2.6         5107610
SMRF  003.56 262.9 m E Pn      2012/11/02 03:02:43.9   1.8                          T                                        5107607
SMRF  003.56 262.9 m E Sn      2012/11/02 03:03:21.1  -0.6                          T                 .6  .26 Ml 2.0         5107606
CABF  003.72 305.7 m E Pn      2012/11/02 03:02:44.5   0.1                          T                                        5107595
CABF  003.72 305.7 m E Sn      2012/11/02 03:03:25.3  -0.4                          T                2.3  .33 Ml 2.4         5107594
HINF  004.14 324.0 m E Pn      2012/11/02 03:02:50.0  -0.2                          T                                        5107597
HINF  004.14 324.0 m E Sn      2012/11/02 03:03:35.2  -0.6                          T                4.9  .23 Ml 3.0         5107596
VIVF  004.15 276.7 m E Pn      2012/11/02 03:02:50.2   0.1                          T                                        5107589
VIVF  004.15 276.7 m E Sn      2012/11/02 03:03:35.3  -0.5                          T                 .9  .30 Ml 2.1         5107588
CDF   004.47 331.6 m E Pn      2012/11/02 03:02:54.6  -0.1                          T                                        5107593
CDF   004.47 331.6 m E Sn      2012/11/02 03:03:43.2  -0.5                          T                4.1  .25 Ml 3.1         5107592
LASF  004.77 267.0 m E Pn      2012/11/02 03:02:58.0  -0.6                          T                                        5107586
LASF  004.77 267.0 m E Pg      2012/11/02 03:03:16.9   0.0                          T                                        5107585
LASF  004.77 267.0 m E Sn      2012/11/02 03:03:50.8   0.3                          T                 .6  .26 Ml 2.2         5107584
LOR   005.37 303.1 m E Pn      2012/11/02 03:03:06.9   0.2 123.6  5.3               T                                        5107591
LOR   005.37 303.1 m E Sn      2012/11/02 03:04:05.5   0.5 129.2  10.8              T                8.2  .40 Ml 3.3         5107590
HYF   006.12 299.5 m E Pn      2012/11/02 03:03:16.7  -0.2                          T                                        5107598

.
EVENT     286185
    Date      Time       Latitude Longitude    Depth    Ndef Nsta Gap    Mag1  N    Mag2  N    Mag3  N   Author         ID
       rms   OT_Error      Smajor Sminor Az        Err   mdist  Mdist     Err        Err        Err      Quality

2012/11/02 11:56:15.6     44.3201    9.9330     10.0 f    21    6 173  Ml 2.0  6                         bulletin    286285
                                                                                                         _ldg
      0.39   +-  0.12       3.3    1.5   24.25 +-  0.0    0.28   2.67   +-0.4                            m i ke

NORTHERN ITALY
Sta     Dist  EvAz     Phase      Date       Time     TRes  Azim  AzRes  Slow  SRes Def   SNR       Amp   Per   Mag1   Mag2       ID
SBF   001.86 256.6 m E Pn      2012/11/02 11:56:45.9   0.0                          T                                        5107932
SBF   001.86 256.6 m E Sn      2012/11/02 11:57:08.3   0.3                          T                5.8  .25 Ml 2.5         5107925
PGF   001.90 201.3 m E Pn      2012/11/02 11:56:46.7   0.2                          T                                        5107933
PGF   001.90 201.3 m E Sn      2012/11/02 11:57:09.5   0.5                          T                1.1  .20 Ml 2.2         5107924
MBDF  002.30 281.3 m E Pn      2012/11/02 11:56:52.2   0.2                          T                                        5107929
MBDF  002.30 281.3 m E Sn      2012/11/02 11:57:19.4   0.7                          T                 .5  .18 Ml 1.7         5107928
FRF   002.49 253.4 m E Pn      2012/11/02 11:56:54.6   0.1                          T                                        5107931
FRF   002.49 253.4 m E Sn      2012/11/02 11:57:23.4   0.3                          T                1.2  .22 Ml 2.1         5107930
LMR   002.67 249.5 m E Pn      2012/11/02 11:56:57.0   0.2                          T                                        5107926
LMR   002.67 249.5 m E Sn      2012/11/02 11:57:27.8   0.5                          T                1.2  .19 Ml 2.2         5107927
LPG   002.55 298.6 m E Sn      2012/11/02 11:57:25.2   0.4                          T                 .3  .18 Ml 1.6         5107923

.
EVENT     286466
    Date      Time       Latitude Longitude    Depth    Ndef Nsta Gap    Mag1  N    Mag2  N    Mag3  N   Author         ID
       rms   OT_Error      Smajor Sminor Az        Err   mdist  Mdist     Err        Err        Err      Quality

2012/11/02 13:21:59.3     42.4826    2.0637     10.0      18    4 073  Ml 1.7  4  Md 1.6  1              bulletin    286566
                                                                                                         _ldg
      0.25   +-  0.05       1.4    1.0   16.83 +-  0.0    0.07   2.06   +-0.1      +-                    m i ke

PYRENEES
Sta     Dist  EvAz     Phase      Date       Time     TRes  Azim  AzRes  Slow  SRes Def   SNR       Amp   Per   Mag1   Mag2       ID
MTLF  000.87 007.5 m E Pg      2012/11/02 13:22:15.8   0.2                          T                                        5118756
MTLF  000.87 007.5 m E Sn      2012/11/02 13:22:27.6  -0.3                          T                1.6  .22 Ml 1.6 Md 1.6  5118757
EPF   001.38 293.9 m E Pg      2012/11/02 13:22:25.0  -0.2                          T                                        5118754
EPF   001.38 293.9 m E Sg      2012/11/02 13:22:43.4   0.4                          T                2.3  .37 Ml 1.8         5118755
ETSF  001.98 283.0 m E Sg      2012/11/02 13:23:01.7   0.1                          T                 .6  .23 Ml 1.6         5118753
LASF  002.06 038.8 m E Sg      2012/11/02 13:23:04.2  -0.1                          T                 .6  .21 Ml 1.7         5118752

.
EVENT     286218
    Date      Time       Latitude Longitude    Depth    Ndef Nsta Gap    Mag1  N    Mag2  N    Mag3  N   Author         ID
       rms   OT_Error      Smajor Sminor Az        Err   mdist  Mdist     Err        Err        Err      Quality

2012/11/02 15:55:41.3     51.1755    5.9144     18.0 f    30    4 170  Ml 2.4  4  Md 2.4  2              bulletin    286318
                                                                                                         _ldg
      0.37   +-  0.16       2.9    2.2  166.57 +-  0.0    0.16   4.41   +-0.3      +-0.1                 m i ke

THE NETHERLANDS
Sta     Dist  EvAz     Phase      Date       Time     TRes  Azim  AzRes  Slow  SRes Def   SNR       Amp   Per   Mag1   Mag2       ID
GIVF  001.28 213.3 m E Pn      2012/11/02 15:56:03.1   0.3                          T                                        5109226
GIVF  001.28 213.3 m E Sn      2012/11/02 15:56:18.6   0.2                          T               20.1  .30 Ml 2.8 Md 2.3  5109225
BAIF  001.56 224.9 m E Pn      2012/11/02 15:56:06.6   0.0                          T                                        5109223
BAIF  001.56 224.9 m E Pg      2012/11/02 15:56:10.5   0.0                          T                                        5118876
BAIF  001.56 224.9 m E Sn      2012/11/02 15:56:25.2   0.1                          T                8.3  .42 Ml 2.4 Md 2.4  5109224
CDF   002.90 161.8 m E Pn      2012/11/02 15:56:25.0   0.0                          T                                        5118874
CDF   002.90 161.8 m E Pg      2012/11/02 15:56:35.4   0.0                          T                                        5118873
CDF   002.90 161.8 m E Sg      2012/11/02 15:57:13.0   0.3                          T                1.1  .27 Ml 2.1         5118875
SSF   004.41 201.9 m E Pn      2012/11/02 15:56:45.6   0.2                          T                                        5109222
SSF   004.41 201.9 m E Sn      2012/11/02 15:57:33.8   0.5                          T                 .5  .20 Ml 2.3         5109221

.
EVENT     286219
    Date      Time       Latitude Longitude    Depth    Ndef Nsta Gap    Mag1  N    Mag2  N    Mag3  N   Author         ID
       rms   OT_Error      Smajor Sminor Az        Err   mdist  Mdist     Err        Err        Err      Quality

2012/11/02 15:57:48.0     51.1466    5.9433     18.0 f    36    4 156  Ml 2.4  6  Md 2.4  2              bulletin    286319
                                                                                                         _ldg
      0.61   +-  0.20       4.1    3.3  142.23 +-  0.0    0.15   4.39   +-0.3      +-0.0                 m i ke

THE NETHERLANDS
Sta     Dist  EvAz     Phase      Date       Time     TRes  Azim  AzRes  Slow  SRes Def   SNR       Amp   Per   Mag1   Mag2       ID
GIVF  001.27 214.7 m E Pn      2012/11/02 15:58:09.6   0.4                          T                                        5109238
GIVF  001.27 214.7 m E Sn      2012/11/02 15:58:25.4   0.7                          T                                Md 2.4  5109234
GIVF  001.27 214.7 m E Sg      2012/11/02 15:58:27.4  -0.8                          T               20.1  .24 Ml 2.9         5109237
BAIF  001.55 226.1 m E Pn      2012/11/02 15:58:13.6   0.5                          T                                        5109236
BAIF  001.55 226.1 m E Sn      2012/11/02 15:58:31.6   0.1                          T                5.0  .30 Ml 2.3         5109233
BAIF  001.55 226.1 m E Sg      2012/11/02 15:58:37.0  -0.2                          T                6.0  .38 Ml 2.3 Md 2.4  5109235
LOR   004.12 200.2 m E Pn      2012/11/02 15:58:48.2   0.2                          T                                        5109229
LOR   004.12 200.2 m E Sn      2012/11/02 15:59:32.9   0.1                          T                 .9  .22 Ml 2.3         5109230
SSF   004.39 202.3 m E Pn      2012/11/02 15:58:52.4   0.6                          T                                        5109232
SSF   004.39 202.3 m E Sn      2012/11/02 15:59:40.8   1.5                          T                1.0  .25 Ml 2.5         5109231

.
