BEGIN GSE2.0
MSG_TYPE DATA
MSG_ID 02-MAY-1212:00:45  FRA_NDC
E-MAIL
DATA_TYPE BULLETIN
Reviewed Bulletin (REB) # P2012-016  from French NDC for regional phases     PERIOD 18 APR 2012 TO 24 APR 2012 S M., J-P S
EVENT     273890
    Date      Time       Latitude Longitude    Depth    Ndef Nsta Gap    Mag1  N    Mag2  N    Mag3  N   Author         ID
       rms   OT_Error      Smajor Sminor Az        Err   mdist  Mdist     Err        Err        Err      Quality

2012/04/18 02:20:44.8     41.5546   -1.5625      2.0      23    3 115  Ml 1.6  3                         bulletin    273910
                                                                                                         _ldg
      0.39   +-  0.10       2.0    1.3  102.56 +-  0.0    0.82   2.92   +-0.2                            m i ke

SPAIN
Sta     Dist  EvAz     Phase      Date       Time     TRes  Azim  AzRes  Slow  SRes Def   SNR       Amp   Per   Mag1   Mag2       ID
ETSF  001.54 028.7 m E Pg      2012/04/18 02:21:13.6   0.1                          T                                        4917718
ETSF  001.54 028.7 m E Sg      2012/04/18 02:21:33.0  -0.3                          T                 .4  .19 Ml 1.4         4917721
SJPF  001.58 009.0 m E Pg      2012/04/18 02:21:14.3   0.1                          T                                        4917719
SJPF  001.58 009.0 m E Sg      2012/04/18 02:21:34.2  -0.4                          T                 .9  .30 Ml 1.5         4917720
EPF   002.04 043.1 m E Pn      2012/04/18 02:21:18.8   0.3                          T                                        4917723
EPF   002.04 043.1 m E Pg      2012/04/18 02:21:22.6  -0.2                          T                                        4917717
EPF   002.04 043.1 m E Sg      2012/04/18 02:21:49.0  -0.1                          T                 .8  .18 Ml 1.8         4917722

.
EVENT     273876
    Date      Time       Latitude Longitude    Depth    Ndef Nsta Gap    Mag1  N    Mag2  N    Mag3  N   Author         ID
       rms   OT_Error      Smajor Sminor Az        Err   mdist  Mdist     Err        Err        Err      Quality

2012/04/18 06:16:58.7     47.8371   -1.3076       .0 f    15    7 127  Ml 2.3  5  Md 1.7  1              bulletin    273896
                                                                                                         _ldg
      0.28   +-  0.09       2.0    1.4  167.42 +-  0.0    0.63   1.47   +-0.3      +-                    m i km

FRANCE
Sta     Dist  EvAz     Phase      Date       Time     TRes  Azim  AzRes  Slow  SRes Def   SNR       Amp   Per   Mag1   Mag2       ID
GRR   000.63 028.5 m E Pg      2012/04/18 06:17:11.0   0.1                          T                                        4917732
GRR   000.63 028.5 m E Sg      2012/04/18 06:17:18.9  -0.4                          T                1.5  .20        Md 1.7  4917733
SGMF  000.94 296.9 m E Pg      2012/04/18 06:17:16.7   0.1                          T                                        4914967
SGMF  000.94 296.9 m E Pn      2012/04/18 06:17:17.6   0.0                          T                                        4917731
SGMF  000.94 296.9 m E Sn      2012/04/18 06:17:31.2   0.0                          T                6.9  .31 Ml 2.1         4914966
FLN   001.08 030.5 m E Pg      2012/04/18 06:17:19.2   0.1                          T                                        4914963
FLN   001.08 030.5 m E Sg      2012/04/18 06:17:32.9  -0.4                          T                6.6  .29 Ml 2.0         4914962
LDF   001.10 045.9 m E Pg      2012/04/18 06:17:19.6   0.1                          T                                        4914965
LDF   001.10 045.9 m E Sg      2012/04/18 06:17:33.8  -0.1                          T               13.7  .23 Ml 2.6         4914964
QUIF  001.25 274.3 m E Pg      2012/04/18 06:17:22.8   0.4                          T                                        4914961
QUIF  001.25 274.3 m E Sg      2012/04/18 06:17:37.8  -0.9                          T                2.9  .26 Ml 2.0         4914960
ROSF  001.41 291.5 m E Pg      2012/04/18 06:17:25.1  -0.2                          T                                        4914958
ROSF  001.41 291.5 m E Sg      2012/04/18 06:17:43.6  -0.1                          T                                        4917730
MFF   001.47 146.9 m E Pg      2012/04/18 06:17:26.2  -0.2                          T                                        4914957
MFF   001.47 146.9 m E Sn      2012/04/18 06:17:43.9   0.1                          T                6.7  .34 Ml 2.5         4914956

.
EVENT     273884
    Date      Time       Latitude Longitude    Depth    Ndef Nsta Gap    Mag1  N    Mag2  N    Mag3  N   Author         ID
       rms   OT_Error      Smajor Sminor Az        Err   mdist  Mdist     Err        Err        Err      Quality

2012/04/18 07:06:35.6     47.0926    2.9976       .0 f    10    5 241             Md 1.6  2              bulletin    273904
                                                                                                         _ldg
      0.14   +-  0.14       2.5    1.2  133.14 +-  0.0    0.35   0.73              +-0.0                 m i km

FRANCE
Sta     Dist  EvAz     Phase      Date       Time     TRes  Azim  AzRes  Slow  SRes Def   SNR       Amp   Per   Mag1   Mag2       ID
SSF   000.35 094.9 m E Pg      2012/04/18 07:06:42.6   0.0                          T                                        4914984
SSF   000.35 094.9 m E Sg      2012/04/18 07:06:47.4  -0.1                          T                8.3  .40        Md 1.6  4914983
AVF   000.39 141.0 m E Pg      2012/04/18 07:06:43.5   0.2                          T                                        4914980
AVF   000.39 141.0 m E Sg      2012/04/18 07:06:49.0   0.3                          T                1.3  .25                4914979
BGF   000.54 191.0 m E Pg      2012/04/18 07:06:46.3   0.0                          T                                        4914978
BGF   000.54 191.0 m E Sg      2012/04/18 07:06:53.4  -0.2                          T               11.4  .40                4914977
LOR   000.61 073.0 m E Pg      2012/04/18 07:06:47.5   0.0                          T                                        4914981
LOR   000.61 073.0 m E Sg      2012/04/18 07:06:55.9   0.2                          T                4.3  .32        Md 1.6  4914982
SMF   000.73 127.4 m E Pg      2012/04/18 07:06:49.5  -0.2                          T                                        4914976
SMF   000.73 127.4 m E Sg      2012/04/18 07:06:59.3  -0.1                          T                                        4914975

.
EVENT     273885
    Date      Time       Latitude Longitude    Depth    Ndef Nsta Gap    Mag1  N    Mag2  N    Mag3  N   Author         ID
       rms   OT_Error      Smajor Sminor Az        Err   mdist  Mdist     Err        Err        Err      Quality

2012/04/18 07:21:39.2     43.8111    7.5303       .0 f     8    3 290  Ml 2.1  2  Md 1.7  1              bulletin    273905
                                                                                                         _ldg
      0.32   +-  0.46       8.7    4.5   85.95 +-  0.0    0.09   1.42   +-0.0      +-                    m i km

NEAR SOUTH COAST OF FRANCE
Sta     Dist  EvAz     Phase      Date       Time     TRes  Azim  AzRes  Slow  SRes Def   SNR       Amp   Per   Mag1   Mag2       ID
SBF   000.09 307.1 m E Pg      2012/04/18 07:21:41.4   0.0                          T                                        4915048
SBF   000.09 307.1 m E Sg      2012/04/18 07:21:43.0   0.1                          T              226.4  .24        Md 1.7  4915047
LMR   000.88 237.6 m E Pg      2012/04/18 07:21:56.4   0.4                          T                                        4915046
LMR   000.88 237.6 m E Pn      2012/04/18 07:21:57.3  -0.1                          T                                        4915040
LMR   000.88 237.6 m E Sg      2012/04/18 07:22:07.1  -0.6                          T                4.8  .22 Ml 2.1         4917745
LMR   000.88 237.6 m E Sn      2012/04/18 07:22:10.2  -0.2                          T                                        4915045
SMRF  001.42 277.3 m E Pg      2012/04/18 07:22:05.8  -0.3                          T                                        4915044
SMRF  001.42 277.3 m E Sg      2012/04/18 07:22:25.2   0.5                          T                3.1  .26 Ml 2.1         4915043

.
EVENT     273887
    Date      Time       Latitude Longitude    Depth    Ndef Nsta Gap    Mag1  N    Mag2  N    Mag3  N   Author         ID
       rms   OT_Error      Smajor Sminor Az        Err   mdist  Mdist     Err        Err        Err      Quality

2012/04/18 07:40:14.7     44.3622    7.5355       .0 f    17    6 172  Ml 2.4  5  Md 1.7  2              bulletin    273907
                                                                                                         _ldg
      1.03   +-  0.27       5.6    3.2   67.55 +-  0.0    0.25   1.46   +-0.2      +-0.1                 m i km

NORTHERN ITALY
Sta     Dist  EvAz     Phase      Date       Time     TRes  Azim  AzRes  Slow  SRes Def   SNR       Amp   Per   Mag1   Mag2       ID
SBF   000.50 188.3 m E Pg      2012/04/18 07:40:24.9   0.2                          T                                        4915071
SBF   000.50 188.3 m E Sg      2012/04/18 07:40:31.5  -0.1                          T               27.4  .36        Md 1.8  4915070
MBDF  000.66 304.0 m E Pg      2012/04/18 07:40:27.8   0.1                          T                                        4915067
MBDF  000.66 304.0 m E Sg      2012/04/18 07:40:37.4   1.0                          T               14.4  .36        Md 1.7  4915066
FRF   001.03 219.0 m E Pg      2012/04/18 07:40:34.4   0.2                          T                                        4915063
FRF   001.03 219.0 m E Sg      2012/04/18 07:40:49.2   1.5                          T                8.7  .30 Ml 2.3         4915062
LMR   001.27 216.2 m E Pg      2012/04/18 07:40:38.1  -0.6                          T                                        4915069
LMR   001.27 216.2 m E Sg      2012/04/18 07:40:54.5  -0.8                          T               17.9  .30 Ml 2.7         4915068
ORIF  001.31 295.8 m E Pg      2012/04/18 07:40:39.0  -0.5                          T                                        4917770
ORIF  001.31 295.8 m E Sg      2012/04/18 07:40:57.0   0.4                          T                6.6  .36 Ml 2.2         4917769
SMRF  001.46 255.4 m E Pg      2012/04/18 07:40:43.4   1.1                          T                                        4915065
SMRF  001.46 255.4 m E Sg      2012/04/18 07:41:02.6   1.2                          T                9.5  .40 Ml 2.4         4915064

.
EVENT     273888
    Date      Time       Latitude Longitude    Depth    Ndef Nsta Gap    Mag1  N    Mag2  N    Mag3  N   Author         ID
       rms   OT_Error      Smajor Sminor Az        Err   mdist  Mdist     Err        Err        Err      Quality

2012/04/18 08:02:29.3     43.3816    6.0658       .0 f     8    4 231  Ml 2.3  1  Md 1.6  2              bulletin    273908
                                                                                                         _ldg
      0.35   +-  0.33       8.4    2.9   25.76 +-  0.0    0.33   1.10   +-         +-0.1                 m i km

NEAR SOUTH COAST OF FRANCE
Sta     Dist  EvAz     Phase      Date       Time     TRes  Azim  AzRes  Slow  SRes Def   SNR       Amp   Per   Mag1   Mag2       ID
LMR   000.33 098.2 m E Pg      2012/04/18 08:02:35.9   0.0                          T                                        4915092
LMR   000.33 098.2 m E Sg      2012/04/18 08:02:40.7   0.2                          T                9.9  .22        Md 1.6  4915091
FRF   000.46 066.9 m E Pg      2012/04/18 08:02:38.1  -0.3                          T                                        4915090
FRF   000.46 066.9 m E Sg      2012/04/18 08:02:44.0  -0.6                          T                6.8  .31        Md 1.6  4915089
SMRF  000.69 329.3 m E Pg      2012/04/18 08:02:42.8   0.1                          T                                        4917777
SMRF  000.69 329.3 m E Sg      2012/04/18 08:02:51.8  -0.2                          T                2.2  .24                4917776
SBF   001.10 063.7 m E P       2012/04/18 08:02:52.1   0.0                          T                                        4917774
SBF   001.10 063.7 m E Sg      2012/04/18 08:03:05.8   0.9                          T                7.2  .24 Ml 2.3         4917775

.
EVENT     273892
    Date      Time       Latitude Longitude    Depth    Ndef Nsta Gap    Mag1  N    Mag2  N    Mag3  N   Author         ID
       rms   OT_Error      Smajor Sminor Az        Err   mdist  Mdist     Err        Err        Err      Quality

2012/04/18 08:30:45.3     45.5732    3.1852       .0 f    18    9 107  Ml 2.1  9  Md 1.8  1              bulletin    273912
                                                                                                         _ldg
      0.27   +-  0.08       1.5    1.2   98.16 +-  0.0    0.61   1.76   +-0.3      +-                    m i km

FRANCE
Sta     Dist  EvAz     Phase      Date       Time     TRes  Azim  AzRes  Slow  SRes Def   SNR       Amp   Per   Mag1   Mag2       ID
TCF   000.99 316.8 m E Pg      2012/04/18 08:31:04.1   0.0                          T                                        4915258
TCF   000.99 316.8 m E Sg      2012/04/18 08:31:17.2   0.1                          T                3.5  .22 Ml 2.1         4915257
TCF   000.99 316.8 m E Sn      2012/04/18 08:31:18.9  -0.1                          T                                        4917778
CAF   001.02 231.1 m E Pg      2012/04/18 08:31:04.6  -0.2                          T                                        4917782
CAF   001.02 231.1 m E Sg      2012/04/18 08:31:19.0   0.8                          T                2.1  .18 Ml 1.9         4917783
BGF   001.01 346.7 m E Pg      2012/04/18 08:31:04.6   0.1                          T                                        4915264
BGF   001.01 346.7 m E Sg      2012/04/18 08:31:18.5   0.6                          T               25.7  .39 Ml 2.6         4915261
SMF   001.17 022.8 m E Pg      2012/04/18 08:31:07.5   0.2                          T                                        4915263
SMF   001.17 022.8 m E Sg      2012/04/18 08:31:22.9   0.2                          T                4.6  .23 Ml 2.2         4915260
AVF   001.22 005.4 m E Pg      2012/04/18 08:31:08.3  -0.1                          T                                        4915262
AVF   001.22 005.4 m E Sg      2012/04/18 08:31:24.7   0.3                          T                2.6  .27 Ml 1.9         4915259
VIVF  001.27 123.8 m E Pg      2012/04/18 08:31:09.4   0.0                          T                                        4917781
VIVF  001.27 123.8 m E Sg      2012/04/18 08:31:26.0  -0.1                          T                3.8  .29 Ml 2.1         4917780
SSF   001.51 008.4 m E Pg      2012/04/18 08:31:13.5  -0.1                          T                                        4915255
SSF   001.51 008.4 m E Sg      2012/04/18 08:31:33.5   0.3                          T                2.9  .29 Ml 2.1         4915256
LOR   001.76 015.1 m E Pg      2012/04/18 08:31:18.4   0.1                          T                                        4915254
LOR   001.76 015.1 m E Sg      2012/04/18 08:31:40.6  -0.6                          T                1.5  .27 Ml 1.9         4915253
RJF   001.21 257.7 m E Sg      2012/04/18 08:31:24.1   0.2                          T                6.1  .38 Ml 1.8         4917779

.
EVENT     273894
    Date      Time       Latitude Longitude    Depth    Ndef Nsta Gap    Mag1  N    Mag2  N    Mag3  N   Author         ID
       rms   OT_Error      Smajor Sminor Az        Err   mdist  Mdist     Err        Err        Err      Quality

2012/04/18 09:01:36.9     49.5643    6.3886       .0 f    18    8 191  Ml 2.3  8                         bulletin    273914
                                                                                                         _ldg
      0.33   +-  0.13       2.6    1.6   42.19 +-  0.0    1.10   1.78   +-0.3                            m i km

GERMANY
Sta     Dist  EvAz     Phase      Date       Time     TRes  Azim  AzRes  Slow  SRes Def   SNR       Amp   Per   Mag1   Mag2       ID
PAGF  001.10 203.6 m E Pg      2012/04/18 09:01:57.8   0.1                          T                                        4915846
PAGF  001.10 203.6 m E Sg      2012/04/18 09:02:12.9   0.7                          T                1.5  .23 Ml 1.7         4915847
LANF  001.10 121.7 m E Pg      2012/04/18 09:01:58.0   0.2                          T                                        4915848
LANF  001.10 121.7 m E Sg      2012/04/18 09:02:12.1   0.0                          T               17.3  .33 Ml 2.6         4915841
CDF   001.29 152.8 m E Pg      2012/04/18 09:02:01.3  -0.1                          T                                        4915835
CDF   001.29 152.8 m E Sg      2012/04/18 09:02:17.9  -0.5                          T               12.1  .38 Ml 2.6         4915829
THEF  001.36 191.2 m E Pg      2012/04/18 09:02:02.6   0.0                          T                                        4915844
THEF  001.36 191.2 m E Sg      2012/04/18 09:02:20.7   0.3                          T                7.3  .26 Ml 2.4         4915837
BAIF  001.50 290.2 m E Pn      2012/04/18 09:02:03.6   0.1                          T                                        4917784
BAIF  001.50 290.2 m E Pg      2012/04/18 09:02:04.8  -0.2                          T                                        4915843
BAIF  001.50 290.2 m E Sg      2012/04/18 09:02:23.9  -0.7                          T                4.3  .28 Ml 2.2         4915842
SFTF  001.63 213.7 m E Pn      2012/04/18 09:02:05.6   0.3                          T                                        4915838
SFTF  001.63 213.7 m E Pg      2012/04/18 09:02:07.7   0.3                          T                                        4915845
SFTF  001.63 213.7 m E Sg      2012/04/18 09:02:28.7   0.0                          T                8.2  .36 Ml 2.4         4915850
HAU   001.56 181.0 m E Pg      2012/04/18 09:02:06.1  -0.2                          T                                        4915834
HAU   001.56 181.0 m E Sg      2012/04/18 09:02:25.7  -0.9                          T               13.5  .36 Ml 2.4         4915828
HINF  001.78 169.8 m E Pg      2012/04/18 09:02:10.3   0.0                          T                                        4915833
HINF  001.78 169.8 m E Sg      2012/04/18 09:02:32.8  -0.5                          T                1.1  .20 Ml 1.9         4915849

.
