EVENT     267120
    Date      Time       Latitude Longitude    Depth    Ndef Nsta Gap    Mag1  N    Mag2  N    Mag3  N   Author         ID
       rms   OT_Error      Smajor Sminor Az        Err   mdist  Mdist     Err        Err        Err      Quality

2011/12/05 16:00:10.7     48.0733    6.5679     15.0      23   11 089  Ml 1.8  4  Md 1.7  3              js067245    267140

      0.55   +-  0.06       1.3    1.1  161.32 +-  0.0    0.16   2.00   +-0.3      +-0.1                 m i ke

FRANCE
Sta     Dist  EvAz     Phase      Date       Time     TRes  Azim  AzRes  Slow  SRes Def   SNR       Amp   Per   Mag1   Mag2       ID
HAU   000.16 245.4 m E Pg      2011/12/05 16:00:14.9   0.0                          T                                        4795410
HAU   000.16 245.4 m E Sg      2011/12/05 16:00:17.6  -0.2                          T                6.8  .22        Md 1.7  4795408
HINF  000.32 143.1 m E Pg      2011/12/05 16:00:17.5   0.0                          T                                        4795407
HINF  000.32 143.1 m E Pn      2011/12/05 16:00:17.9  -0.2                          T                                        4795406
HINF  000.32 143.1 m E Sg      2011/12/05 16:00:22.0  -0.1                          T                3.3  .20        Md 1.5  4795409
THEF  000.41 292.2 m E Pg      2011/12/05 16:00:18.9  -0.2                          T                                        4795405
THEF  000.41 292.2 m E Sg      2011/12/05 16:00:24.4  -0.4                          T                2.8  .18        Md 1.8  4795402
CDF   000.58 054.1 m E Pg      2011/12/05 16:00:22.2   0.0                          T                                        4795401
CDF   000.58 054.1 m E Pn      2011/12/05 16:00:23.1   0.0                          T                                        4795400
CDF   000.58 054.1 m E Sg      2011/12/05 16:00:30.1   0.1                          T                1.0  .21                4795404
PAGF  000.74 310.9 m E Pg      2011/12/05 16:00:24.8  -0.1 124.1  -6.1              T                                        4795399
PAGF  000.74 310.9 m E Pn      2011/12/05 16:00:25.1   0.0                          T                                        4795398
PAGF  000.74 310.9 m E Sg      2011/12/05 16:00:35.2   0.5                          T                 .9  .28                4795397
LANF  001.23 041.7 m E Pg      2011/12/05 16:00:33.9   0.1                          T                                        4795394
LANF  001.23 041.7 m E Sg      2011/12/05 16:00:50.1   0.4                          T                3.3  .20 Ml 2.1         4795396
CABF  001.50 192.8 m E Pg      2011/12/05 16:00:39.2   0.3                          T                                        4795802
CABF  001.50 192.8 m E Sg      2011/12/05 16:00:57.9  -0.4                          T                 .4  .12 Ml 1.5         4795803
SFTF  001.03 277.9 m E Sg      2011/12/05 16:00:43.6  -0.2                          T                 .8  .18 Ml 1.5         4795403
MEZF  001.10 293.5 m E Sg      2011/12/05 16:00:46.3   0.5                          T                3.1  .23 Ml 2.0         4795411
LOR   002.00 247.3 m E Pg      2011/12/05 16:00:48.2   0.2  67.9  2.7               T                                        4795804
RUP   001.66 011.1 m E Sg      2011/12/05 16:01:02.9  -0.4                          T                                        4795395

.
EVENT     267119
    Date      Time       Latitude Longitude    Depth    Ndef Nsta Gap    Mag1  N    Mag2  N    Mag3  N   Author         ID
       rms   OT_Error      Smajor Sminor Az        Err   mdist  Mdist     Err        Err        Err      Quality

2011/12/05 16:00:28.1     48.0679    6.5623     15.0      58   23 039  Ml 2.4 17  Md 2.4  4              js067245    267139

      0.55   +-  0.04        .8     .7  155.25 +-  0.0    0.16   3.47   +-0.3      +-0.3                 m i ke

FRANCE
Sta     Dist  EvAz     Phase      Date       Time     TRes  Azim  AzRes  Slow  SRes Def   SNR       Amp   Per   Mag1   Mag2       ID
HAU   000.16 246.6 m E Pg      2011/12/05 16:00:32.3   0.1                          T                                        4795270
HAU   000.16 246.6 m E Sg      2011/12/05 16:00:35.0   0.0                          T              143.9  .22        Md 2.8  4795269
HINF  000.32 142.0 m E Pg      2011/12/05 16:00:34.9   0.1                          T                                        4795256
HINF  000.32 142.0 m E Pn      2011/12/05 16:00:35.3   0.0                          T                                        4795385
HINF  000.32 142.0 m E Sg      2011/12/05 16:00:39.4   0.0                          T               54.5  .22        Md 2.4  4795257
THEF  000.41 293.1 m E Pg      2011/12/05 16:00:36.6   0.2                          T                                        4795267
THEF  000.41 293.1 m E Pn      2011/12/05 16:00:37.9   0.2                          T                                        4795386
THEF  000.41 293.1 m E Sg      2011/12/05 16:00:41.9  -0.3                          T               80.8  .27        Md 2.5  4795268
CDF   000.59 053.9 m E Pg      2011/12/05 16:00:39.6   0.0                          T                                        4795266
CDF   000.59 053.9 m E Pn      2011/12/05 16:00:40.5   0.0                          T                                        4795387
CDF   000.59 053.9 m E Sg      2011/12/05 16:00:47.5   0.0                          T               13.5  .24                4795265
CDF   000.59 053.9 m E Sn      2011/12/05 16:00:49.1  -0.1                          T                                Md 2.1  4795389
PAGF  000.74 311.4 m E Pg      2011/12/05 16:00:42.3   0.0 130.7  0.0               T                                        4795264
PAGF  000.74 311.4 m E Pn      2011/12/05 16:00:42.5   0.0                          T                                        4795388
PAGF  000.74 311.4 m E Sg      2011/12/05 16:00:52.6   0.5 138.8  8.0               T                5.5  .23                4795263
SFTF  001.03 278.2 m E Pn      2011/12/05 16:00:46.5   0.0  99.2  2.1               T                                        4795260
SFTF  001.03 278.2 m E Pg      2011/12/05 16:00:47.5   0.0                          T                                        4795801
SFTF  001.03 278.2 m E Sg      2011/12/05 16:01:01.0   0.0                          T               15.4  .18 Ml 2.8         4795261
MEZF  001.10 293.9 m E Pg      2011/12/05 16:00:48.7  -0.1 114.7  1.9               T                                        4795800
MEZF  001.10 293.9 m E Sg      2011/12/05 16:01:03.7   0.6                          T                8.1  .16 Ml 2.6         4795262
LANF  001.23 041.7 m E Pg      2011/12/05 16:00:51.3   0.1                          T                                        4795259
LANF  001.23 041.7 m E Sn      2011/12/05 16:01:04.3  -0.2                          T                                        4795390
LANF  001.23 041.7 m E Sg      2011/12/05 16:01:07.6   0.3                          T               11.6  .23 Ml 2.6         4795258
CABF  001.49 192.7 m E Pn      2011/12/05 16:00:53.0   0.1                          T                                        4795244
CABF  001.49 192.7 m E Pg      2011/12/05 16:00:56.6   0.5                          T                                        4795245
CABF  001.49 192.7 m E Sg      2011/12/05 16:01:15.4  -0.1                          T                6.1  .24 Ml 2.4         4795253
RUP   001.67 011.2 m E Pn      2011/12/05 16:00:55.1  -0.1                          T                                        4795375
RUP   001.67 011.2 m E Pg      2011/12/05 16:00:59.4   0.1                          T                                        4795246
RUP   001.67 011.2 m E Sg      2011/12/05 16:01:20.3  -0.6                          T                                        4795247
LOR   001.99 247.4 m E Pn      2011/12/05 16:00:59.2  -0.4                          T                                        4795393
LOR   001.99 247.4 m E Pg      2011/12/05 16:01:05.6   0.4  68.0  2.6               T                                        4795250
LOR   001.99 247.4 m E Sn      2011/12/05 16:01:22.9   0.1                          T                                        4795391
LOR   001.99 247.4 m E Sg      2011/12/05 16:01:30.4  -0.6  76.5  11.2              T                6.9  .20 Ml 2.7         4795249
SSF   002.30 245.2 m E Pn      2011/12/05 16:01:03.2  -0.6                          T                                        4795392
SSF   002.30 245.2 m E Pg      2011/12/05 16:01:11.2   0.3                          T                                        4795243
SSF   002.30 245.2 m E Sg      2011/12/05 16:01:39.4  -1.1                          T                5.9  .32 Ml 2.6         4795248
SMF   002.33 233.4 m E Pn      2011/12/05 16:01:03.9  -0.3                          T                                        4795798
SMF   002.33 233.4 m E Pg      2011/12/05 16:01:11.6   0.2                          T                                        4795255
SMF   002.33 233.4 m E Sg      2011/12/05 16:01:41.4  -0.2                          T                7.2  .22 Ml 2.8         4795254
AVF   002.53 240.8 m E Pn      2011/12/05 16:01:06.1  -0.7                          T                                        4795252
AVF   002.53 240.8 m E Pg      2011/12/05 16:01:15.2   0.2                          T                                        4795799
AVF   002.53 240.8 m E Sg      2011/12/05 16:01:46.3  -1.2                          T                2.1  .22 Ml 2.3         4795251
LPG   002.57 177.0 m E Pn      2011/12/05 16:01:08.8   0.9                          T                                        4795378
LPG   002.57 177.0 m E Sg      2011/12/05 16:01:49.5   0.1                          T                1.6  .29 Ml 2.1         4795379
HYF   002.77 254.7 m E Pg      2011/12/05 16:01:19.4   0.0                          T                                        4795797
BGF   002.95 240.5 m E Pg      2011/12/05 16:01:23.0   0.3                          T                                        4795381
BGF   002.95 240.5 m E Sg      2011/12/05 16:02:00.3  -0.3                          T                4.5  .28 Ml 2.6         4795384
GIVF  002.34 331.3 m E Sn      2011/12/05 16:01:30.7  -0.2                          T                                        4795793
GIVF  002.34 331.3 m E Sg      2011/12/05 16:01:41.4  -0.2                          T                2.4  .21 Ml 2.4         4795794
TCF   003.46 240.7 m E Pg      2011/12/05 16:01:32.1  -0.2                          T                                        4795373
TCF   003.46 240.7 m E Sg      2011/12/05 16:02:16.6  -0.1                          T                1.7  .24 Ml 2.4         4795374
BAIF  002.52 323.0 m E Sn      2011/12/05 16:01:35.1  -0.3                          T                                        4795796
BAIF  002.52 323.0 m E Sg      2011/12/05 16:01:47.4   0.0                          T                2.2  .23 Ml 2.3         4795795
LPL   002.56 177.3 m E Sg      2011/12/05 16:01:48.8   0.1                          T                 .6  .23 Ml 1.7         4795792
ORIF  003.19 188.8 m E Sg      2011/12/05 16:02:08.3   0.1                          T                 .5  .13 Ml 2.0         4795377
VIVF  003.47 202.8 m E Sg      2011/12/05 16:02:17.3   0.4                          T                1.4  .28 Ml 2.2         4795376

.
