EVENT     268233
    Date      Time       Latitude Longitude    Depth    Ndef Nsta Gap    Mag1  N    Mag2  N    Mag3  N   Author         ID
       rms   OT_Error      Smajor Sminor Az        Err   mdist  Mdist     Err        Err        Err      Quality

2012/01/06 15:37:55.1     52.0518   17.5503     10.0 f   118   17 037  Ml 4.0 11                         js067245    268253

      0.94   +-  0.11       3.0    2.1  175.13 +-  0.0    1.23  70.41   +-0.2                            m i ke

POLAND
Sta     Dist  EvAz     Phase      Date       Time     TRes  Azim  AzRes  Slow  SRes Def   SNR       Amp   Per   Mag1   Mag2       ID
LANF  006.93 247.5 m E P       2012/01/06 15:39:38.0  -1.5                          T                                        4813517
LANF  006.93 247.5 m E Sg      2012/01/06 15:41:32.3   0.2                          T                                        4813486
HINF  008.10 242.6 m E Pn      2012/01/06 15:39:49.9  -0.5                          T                                        4813504
HINF  008.10 242.6 m E P       2012/01/06 15:39:55.0  -0.8                          T                                        4813503
HINF  008.10 242.6 m E Sg      2012/01/06 15:42:08.5   0.1                          T               29.8  .79 Ml 4.0         4813491
GIVF  008.25 261.3 m E Pn      2012/01/06 15:39:52.1  -0.3                          T                                        4813509
GIVF  008.25 261.3 m E P       2012/01/06 15:39:57.7  -0.1                          T                                        4813510
HAU   008.27 245.1 m E Pn      2012/01/06 15:39:52.3  -0.3                          T                                        4813506
HAU   008.27 245.1 m E P       2012/01/06 15:39:57.8  -0.4                          T                                        4813505
HAU   008.27 245.1 m E Sg      2012/01/06 15:42:14.7   0.9                          T               28.1  .68 Ml 3.9         4813490
BAIF  008.64 261.9 m E Pn      2012/01/06 15:39:57.5  -0.2                          T                                        4813515
BAIF  008.64 261.9 m E P       2012/01/06 15:40:03.0  -0.3                          T                                        4813516
PAGF  008.34 249.8 m E P       2012/01/06 15:39:58.8  -0.3                          T                                        4813508
PAGF  008.34 249.8 m E Sg      2012/01/06 15:42:15.7  -0.3                          T               17.2 1.14 Ml 3.7         4813487
SFTF  008.91 249.3 m E P       2012/01/06 15:40:06.7  -0.4                          T                                        4813507
SFTF  008.91 249.3 m E Sg      2012/01/06 15:42:34.9   1.2                          T               31.9  .94 Ml 4.1         4813488
CABF  009.25 238.5 m E P       2012/01/06 15:40:11.2  -0.7                          T                                        4813502
CABF  009.25 238.5 m E Sg      2012/01/06 15:42:43.9  -0.6                          T              136.1 1.46 Ml 4.6         4813493
LPG   009.68 231.6 m E P       2012/01/06 15:40:16.7  -1.4                          T                                        4813497
LPG   009.68 231.6 m E Sg      2012/01/06 15:42:58.7   0.6                          T               23.3  .98 Ml 4.1         4813496
LPL   009.68 231.7 m E P       2012/01/06 15:40:17.3  -0.6                          T                                        4813498
LPL   009.68 231.7 m E Sg      2012/01/06 15:42:58.6   0.7                          T               20.2 1.09 Ml 3.9         4813495
LOR   010.08 247.0 m E Pn      2012/01/06 15:40:19.7   2.4                          T                                        4813514
LOR   010.08 247.0 m E P       2012/01/06 15:40:23.4   0.1                          T                                        4813513
LOR   010.08 247.0 m E Sg      2012/01/06 15:43:10.6   0.3                          T               11.9  .77 Ml 3.9         4813485
SSF   010.40 246.8 m E Pn      2012/01/06 15:40:21.1  -0.5                          T                                        4813512
SSF   010.40 246.8 m E P       2012/01/06 15:40:27.3  -0.2                          T                                        4813511
MBDF  010.24 228.6 m E P       2012/01/06 15:40:25.7   0.0                          T                                        4813500
SMF   010.45 244.2 m E P       2012/01/06 15:40:26.8  -1.4                          T                                        4813501
SMF   010.45 244.2 m E Sg      2012/01/06 15:43:22.2   0.5                          T               12.2  .76 Ml 4.0         4813492
VIVF  011.17 234.9 m E Pn      2012/01/06 15:40:31.6  -0.5                          T                                        4813499
THEF  008.35 247.3 m E Sg      2012/01/06 15:42:16.4   0.1                          T               51.0 1.28 Ml 4.1         4813489
BGF   011.06 246.0 m E Sg      2012/01/06 15:43:41.1   0.4                          T               10.5  .62 Ml 4.1         4813494

.
EVENT     268246
    Date      Time       Latitude Longitude    Depth    Ndef Nsta Gap    Mag1  N    Mag2  N    Mag3  N   Author         ID
       rms   OT_Error      Smajor Sminor Az        Err   mdist  Mdist     Err        Err        Err      Quality

2012/01/06 16:14:55.2     43.1945    -.6321      2.0      20    3 172  Ml 2.0  1  Md 1.9  2              js067245    268266

      0.44   +-  0.16       4.0    1.5  176.89 +-  0.0    0.30   2.24   +-         +-0.2                 m i ke

PYRENEES
Sta     Dist  EvAz     Phase      Date       Time     TRes  Azim  AzRes  Slow  SRes Def   SNR       Amp   Per   Mag1   Mag2       ID
ETSF  000.30 169.7 m E Pg      2012/01/06 16:15:00.9  -0.3                          T                                        4812156
ETSF  000.30 169.7 m E Sg      2012/01/06 16:15:04.4  -0.9                          T               91.9  .26        Md 2.1  4812155
EPF   000.73 102.7 m E Pg      2012/01/06 16:15:09.2   0.1                          T                                        4812153
EPF   000.73 102.7 m E Sg      2012/01/06 16:15:19.0   0.4                          T                6.1  .20        Md 1.8  4812154
MTLF  002.09 085.0 m E Pg      2012/01/06 16:15:34.0   0.0                          T                                        4812151
MTLF  002.09 085.0 m E Sg      2012/01/06 16:16:00.4  -0.5                          T                1.9  .29 Ml 2.0         4812152

.
EVENT     268247
    Date      Time       Latitude Longitude    Depth    Ndef Nsta Gap    Mag1  N    Mag2  N    Mag3  N   Author         ID
       rms   OT_Error      Smajor Sminor Az        Err   mdist  Mdist     Err        Err        Err      Quality

2012/01/06 17:09:19.5     46.2872    7.2043      8.0 f    31   10 049  Ml 2.1  7  Md 2.1  3              js067245    268267

      0.25   +-  0.04        .9     .8  112.94 +-  0.0    0.07   2.50   +-0.2      +-0.1                 m i ke

SWITZERLAND
Sta     Dist  EvAz     Phase      Date       Time     TRes  Azim  AzRes  Slow  SRes Def   SNR       Amp   Per   Mag1   Mag2       ID
LPL   000.84 203.3 m E Pg      2012/01/06 17:09:36.0   0.4                          T                                        4812192
LPL   000.84 203.3 m E Sg      2012/01/06 17:09:45.9  -0.6                          T                1.9  .26        Md 2.0  4812177
LPG   000.85 202.0 m E Pg      2012/01/06 17:09:36.2   0.3                          T                                        4812193
LPG   000.85 202.0 m E Sg      2012/01/06 17:09:47.0   0.0                          T                                Md 2.2  4812182
LPG   000.85 202.0 m E Sn      2012/01/06 17:09:48.8   0.4                          T                                        4812181
CABF  000.84 293.2 m E Pg      2012/01/06 17:09:36.2   0.8                          T                                        4812188
CABF  000.84 293.2 m E Sg      2012/01/06 17:09:46.4   0.1                          T                3.9  .26        Md 2.1  4812187
HINF  001.55 351.2 m E Pg      2012/01/06 17:09:48.7   0.3                          T                                        4812190
HINF  001.55 351.2 m E Sg      2012/01/06 17:10:08.7   0.3                          T                2.0  .19 Ml 2.1         4812191
ORIF  001.65 214.7 m E Pg      2012/01/06 17:09:51.0   0.6                          T                                        4812185
ORIF  001.65 214.7 m E Sg      2012/01/06 17:10:11.9   0.1                          T                1.2  .23 Ml 1.8         4812184
LOR   002.50 294.3 m E Pg      2012/01/06 17:10:05.7  -0.1                          T                                        4812178
LOR   002.50 294.3 m E Sg      2012/01/06 17:10:38.2   0.1                          T                 .7  .24 Ml 1.8         4812179
HAU   001.82 341.5 m E Sg      2012/01/06 17:10:16.5  -0.2                          T                5.2  .32 Ml 2.2         4812189
THEF  002.11 337.4 m E Sg      2012/01/06 17:10:26.3   0.4                          T                3.4  .26 Ml 2.3         4812186
VIVF  002.28 232.1 m E Sg      2012/01/06 17:10:31.6   0.3                          T                2.8  .29 Ml 2.2         4812183
SFTF  002.42 323.2 m E Sg      2012/01/06 17:10:35.4  -0.1                          T                3.2  .25 Ml 2.4         4812180

.
EVENT     268248
    Date      Time       Latitude Longitude    Depth    Ndef Nsta Gap    Mag1  N    Mag2  N    Mag3  N   Author         ID
       rms   OT_Error      Smajor Sminor Az        Err   mdist  Mdist     Err        Err        Err      Quality

2012/01/06 17:48:33.4     42.2573    2.1435      2.0      14    4 085  Ml 2.1  4  Md 2.0  1              js067245    268268

      1.48   +-  0.13       2.5    2.1  131.59 +-  0.0    0.25   2.67   +-0.1      +-                    m i ke

PYRENEES
Sta     Dist  EvAz     Phase      Date       Time     TRes  Azim  AzRes  Slow  SRes Def   SNR       Amp   Per   Mag1   Mag2       ID
MTLF  001.08 002.9 m E Pg      2012/01/06 17:48:53.7   0.0                          T                                        4812201
MTLF  001.08 002.9 m E Sg      2012/01/06 17:49:07.4  -0.3                          T                2.6  .22 Ml 1.9 Md 2.0  4812202
EPF   001.54 300.7 m E Sg      2012/01/06 17:49:21.7  -0.3                          T                2.7  .25 Ml 2.1         4812197
ETSF  002.10 288.7 m E Sg      2012/01/06 17:49:39.6   0.2                          T                2.2  .24 Ml 2.2         4812196
CAF   002.67 358.8 m E Sg      2012/01/06 17:49:57.6   0.4                          T                1.4  .18 Ml 2.3         4812200

.
EVENT     268250
    Date      Time       Latitude Longitude    Depth    Ndef Nsta Gap    Mag1  N    Mag2  N    Mag3  N   Author         ID
       rms   OT_Error      Smajor Sminor Az        Err   mdist  Mdist     Err        Err        Err      Quality

2012/01/06 23:46:56.9     51.5698    6.8433      1.0 f    44   20 152  Ml 2.7 13                         js067245    268270

      0.63   +-  0.13       2.5    2.2  134.38 +-  0.0    0.24   7.44   +-0.3                            m i sr

GERMANY
Sta     Dist  EvAz     Phase      Date       Time     TRes  Azim  AzRes  Slow  SRes Def   SNR       Amp   Per   Mag1   Mag2       ID
GIVF  001.95 221.9 m E Pn      2012/01/06 23:47:29.0  -0.4                          T                                        4812254
GIVF  001.95 221.9 m E Sg      2012/01/06 23:47:58.0  -0.3                          T               18.7  .30 Ml 3.0         4812243
BAIF  002.25 228.9 m E Pn      2012/01/06 23:47:34.3   0.8                          T                                        4812253
BAIF  002.25 228.9 m E Sg      2012/01/06 23:48:07.6  -0.2                          T               16.8  .72 Ml 2.6         4812242
PAGF  003.10 193.9 m E Pn      2012/01/06 23:47:45.0  -0.1                          T                                        4812260
PAGF  003.10 193.9 m E Pg      2012/01/06 23:47:54.9   0.5                          T                                        4812259
PAGF  003.10 193.9 m E Sg      2012/01/06 23:48:34.2  -0.1                          T                1.6  .43 Ml 2.0         4812249
MEZF  003.28 201.3 m E Pn      2012/01/06 23:47:47.6   0.1  17.9  -2.0              T                                        4812261
MEZF  003.28 201.3 m E Sg      2012/01/06 23:48:39.7  -0.2                          T                8.3  .44 Ml 2.8         4812262
SFTF  003.56 199.8 m E Pg      2012/01/06 23:48:02.9   0.0                          T                                        4812276
SFTF  003.56 199.8 m E Sg      2012/01/06 23:48:48.1  -0.6                          T                2.9  .29 Ml 2.6         4812250
LOR   004.73 205.5 m E Pn      2012/01/06 23:48:07.8   0.6  21.2  -2.0              T                                        4812271
LOR   004.73 205.5 m E Pg      2012/01/06 23:48:23.8  -0.5                          T                                        4812246
LOR   004.73 205.5 m E Sn      2012/01/06 23:48:57.9  -1.5                          T                                        4812248
LOR   004.73 205.5 m E Sg      2012/01/06 23:49:24.6  -0.4                          T                3.3  .34 Ml 2.8         4812247
SSF   005.01 207.1 m E Pn      2012/01/06 23:48:11.2   0.1                          T                                        4812252
SSF   005.01 207.1 m E Sg      2012/01/06 23:49:34.5   0.7                          T                3.2  .44 Ml 2.8         4812277
HYF   005.10 214.1 m E Pn      2012/01/06 23:48:12.6   0.2                          T                                        4812278
SMF   005.31 203.0 m E Pn      2012/01/06 23:48:15.1   0.0                          T                                        4812240
AVF   005.30 206.9 m E Pn      2012/01/06 23:48:15.3   0.3                          T                                        4812241
LDF   005.38 239.1 m E Pn      2012/01/06 23:48:16.3   0.2                          T                                        4812237
LDF   005.38 239.1 m E Sn      2012/01/06 23:49:15.3   0.2                          T                1.0  .22 Ml 2.6         4812255
FLN   005.48 242.0 m E Pn      2012/01/06 23:48:17.4   0.0  61.7  5.3               T                                        4812238
FLN   005.48 242.0 m E Sn      2012/01/06 23:49:17.1  -0.3                          T                1.7  .26 Ml 2.7         4812274
BGF   005.66 209.2 m E Pn      2012/01/06 23:48:19.9   0.0                          T                                        4812239
BGF   005.66 209.2 m E Sg      2012/01/06 23:49:54.2   0.0                          T                8.1  .50 Ml 3.2         4812275
GRR   005.90 240.3 m E Pn      2012/01/06 23:48:23.4   0.2                          T                                        4812236
GRR   005.90 240.3 m E Sn      2012/01/06 23:49:26.0  -1.5                          T                2.8  .24 Ml 3.0         4812235
TCF   006.10 211.8 m E Pn      2012/01/06 23:48:26.2   0.2                          T                                        4812263
MFF   006.76 225.4 m E Pn      2012/01/06 23:48:35.0   0.0                          T                                        4812273
MFF   006.76 225.4 m E Sn      2012/01/06 23:49:45.8  -2.3                          T                 .4  .24 Ml 2.6         4812272
SGMF  006.92 245.0 m E Pn      2012/01/06 23:48:36.4  -0.6                          T                                        4812257
QUIF  007.44 244.5 m E Pn      2012/01/06 23:48:43.7  -0.4                          T                                        4812256
THEF  003.39 189.6 m E Sg      2012/01/06 23:48:43.9   0.7                          T                4.1  .30 Ml 2.7         4812258
HAU   003.58 185.3 m E Sg      2012/01/06 23:48:49.6   0.3                          T                                        4812279

.
EVENT     268252
    Date      Time       Latitude Longitude    Depth    Ndef Nsta Gap    Mag1  N    Mag2  N    Mag3  N   Author         ID
       rms   OT_Error      Smajor Sminor Az        Err   mdist  Mdist     Err        Err        Err      Quality

2012/01/07 02:01:08.8     45.1113    7.1013      2.0      24    5 086  Ml 1.4  2  Md 1.5  4              js067245    268272

      0.38   +-  0.07       1.5    1.1  108.92 +-  0.0    0.12   1.58   +-0.1      +-0.1                 m i ke

NORTHERN ITALY
Sta     Dist  EvAz     Phase      Date       Time     TRes  Azim  AzRes  Slow  SRes Def   SNR       Amp   Per   Mag1   Mag2       ID
MBDF  000.45 211.5 m E Pg      2012/01/07 02:01:17.5   0.0                          T                                        4812283
MBDF  000.45 211.5 m E Sg      2012/01/07 02:01:23.2  -0.3                          T                4.5  .22        Md 1.4  4812290
LPL   000.48 327.4 m E Pg      2012/01/07 02:01:18.2  -0.1                          T                                        4812287
LPL   000.48 327.4 m E Sg      2012/01/07 02:01:24.4  -0.2                          T                5.8  .28        Md 1.5  4812282
LPG   000.46 327.5 m E Pg      2012/01/07 02:01:18.3   0.4                          T                                        4812280
LPG   000.46 327.5 m E Sg      2012/01/07 02:01:23.7  -0.2                          T                7.8  .24        Md 1.4  4812281
ORIF  000.89 257.9 m E Pg      2012/01/07 02:01:25.8   0.2                          T                                        4812288
ORIF  000.89 257.9 m E Sg      2012/01/07 02:01:36.7  -0.4                          T                 .9  .23 Ml 1.4 Md 1.5  4812289
FRF   001.58 192.0 m E Pg      2012/01/07 02:01:38.5   0.2                          T                                        4812286

.
