EVENT     256701
    Date      Time       Latitude Longitude    Depth    Ndef Nsta Gap    Mag1  N    Mag2  N    Mag3  N   Author         ID
       rms   OT_Error      Smajor Sminor Az        Err   mdist  Mdist     Err        Err        Err      Quality

2011/03/06 16:30:47.0     42.8656     .2295      2.0       8    3 202  Ml 1.6  2  Md 1.5  3              js067245    256701

      0.08   +-  0.05       1.7     .6  169.02 +-  0.0    0.18   1.53   +-0.1      +-0.1                 m i ke

PYRENEES
Sta     Dist  EvAz     Phase      Date       Time     TRes  Azim  AzRes  Slow  SRes Def   SNR       Amp   Per   Mag1   Mag2       ID
EPF   000.18 026.2 m E Pg      2011/03/06 16:30:50.8   0.0                          T                                        4657581
EPF   000.18 026.2 m E Sg      2011/03/06 16:30:53.4   0.0                          T                8.8  .18        Md 1.6  4657579
ETSF  000.58 273.5 m E Pg      2011/03/06 16:30:58.1   0.0                          T                                        4657582
ETSF  000.58 273.5 m E Sg      2011/03/06 16:31:05.6  -0.2                          T                3.3  .34        Md 1.5  4657580
MTLF  001.53 071.2 m E Pg      2011/03/06 16:31:15.6   0.1                          T                                        4657577
MTLF  001.53 071.2 m E Sg      2011/03/06 16:31:35.2  -0.1                          T                 .7  .22 Ml 1.6 Md 1.5  4657578

.
EVENT     256702
    Date      Time       Latitude Longitude    Depth    Ndef Nsta Gap    Mag1  N    Mag2  N    Mag3  N   Author         ID
       rms   OT_Error      Smajor Sminor Az        Err   mdist  Mdist     Err        Err        Err      Quality

2011/03/06 16:46:40.7     43.1576    -.0949      2.0      12    6 121  Ml 1.9  3  Md 1.8  3              js067245    256702

      0.13   +-  0.03       1.0     .6  148.61 +-  0.0    0.34   2.44   +-0.1      +-0.0                 m i ke

PYRENEES
Sta     Dist  EvAz     Phase      Date       Time     TRes  Azim  AzRes  Slow  SRes Def   SNR       Amp   Per   Mag1   Mag2       ID
EPF   000.34 111.6 m E Pg      2011/03/06 16:46:47.5   0.0                          T                                        4657593
EPF   000.34 111.6 m E Sg      2011/03/06 16:46:51.8  -0.3                          T                7.8  .20        Md 1.8  4657592
ETSF  000.43 232.9 m E Pg      2011/03/06 16:46:48.9  -0.1                          T                                        4657594
ETSF  000.43 232.9 m E Sg      2011/03/06 16:46:54.3  -0.4                          T                5.9  .20        Md 1.8  4657591
SJPF  000.83 267.3 m E Pg      2011/03/06 16:46:56.3  -0.1                          T                                        4657583
SJPF  000.83 267.3 m E Sg      2011/03/06 16:47:07.4   0.2                          T                1.9  .23        Md 1.8  4657590
LFF   001.88 018.4 m E Pn      2011/03/06 16:47:12.1   0.0                          T                                        4657585
LFF   001.88 018.4 m E Sg      2011/03/06 16:47:40.0   0.1                          T                2.2  .19 Ml 2.1         4657588
CAF   002.36 040.6 m E Pn      2011/03/06 16:47:18.6  -0.1                          T                                        4657584
CAF   002.36 040.6 m E Sg      2011/03/06 16:47:54.7  -0.1                          T                1.3  .31 Ml 1.9         4657589
RJF   002.44 027.8 m E Pn      2011/03/06 16:47:19.8   0.0                          T                                        4657586
RJF   002.44 027.8 m E Sg      2011/03/06 16:47:57.4   0.0                          T                3.5  .49 Ml 1.8         4657587

.
EVENT     256692
    Date      Time       Latitude Longitude    Depth    Ndef Nsta Gap    Mag1  N    Mag2  N    Mag3  N   Author         ID
       rms   OT_Error      Smajor Sminor Az        Err   mdist  Mdist     Err        Err        Err      Quality

2011/03/06 17:35:59.4     46.3250    1.4965      2.0      39   16 084  Ml 2.2 19  Md 2.1  3              js067245    256692

      0.29   +-  0.04        .9     .8   18.22 +-  0.0    0.50   3.40   +-0.3      +-0.0                 m i ke

FRANCE
Sta     Dist  EvAz     Phase      Date       Time     TRes  Azim  AzRes  Slow  SRes Def   SNR       Amp   Per   Mag1   Mag2       ID
TCF   000.50 094.0 m E Pg      2011/03/06 17:36:09.1   0.2                          T                                        4656930
TCF   000.50 094.0 m E Sg      2011/03/06 17:36:15.2  -0.2                          T               16.9  .14        Md 2.1  4656926
BGF   000.96 075.5 m E Pg      2011/03/06 17:36:18.1   0.6                          T                                        4656929
BGF   000.96 075.5 m E Sg      2011/03/06 17:36:29.1  -0.9                          T               32.4  .32 Ml 2.8 Md 2.1  4656925
RJF   001.02 179.2 m E Pg      2011/03/06 17:36:18.5  -0.1                          T                                        4656950
RJF   001.02 179.2 m E Sg      2011/03/06 17:36:31.2  -0.6                          T               17.7  .22 Ml 2.4         4656955
MFF   001.17 284.3 m E Pg      2011/03/06 17:36:21.2  -0.1                          T                                        4656949
MFF   001.17 284.3 m E Sg      2011/03/06 17:36:36.0  -0.4                          T                5.5  .18 Ml 2.5         4656956
AVF   001.36 069.3 m E Pg      2011/03/06 17:36:24.3  -0.5                          T                                        4656927
AVF   001.36 069.3 m E Sg      2011/03/06 17:36:42.2  -0.2                          T                4.1  .26 Ml 2.2         4656923
CAF   001.46 163.9 m E Pg      2011/03/06 17:36:26.3  -0.3                          T                                        4656952
CAF   001.46 163.9 m E Sg      2011/03/06 17:36:44.8  -0.6                          T                4.5  .18 Ml 2.4         4656953
SSF   001.57 061.2 m E Pn      2011/03/06 17:36:26.8   0.3                          T                                        4656959
SSF   001.57 061.2 m E Pg      2011/03/06 17:36:28.5  -0.1                          T                                        4656961
SSF   001.57 061.2 m E Sg      2011/03/06 17:36:48.8   0.0                          T                2.1  .30 Ml 2.0         4656957
LFF   001.48 201.2 m E Pg      2011/03/06 17:36:27.1   0.1                          T                                        4656951
LFF   001.48 201.2 m E Sg      2011/03/06 17:36:46.0  -0.2                          T                7.9  .32 Ml 2.3         4656954
SMF   001.65 078.0 m E Pg      2011/03/06 17:36:30.2   0.1                          T                                        4656962
SMF   001.65 078.0 m E Sg      2011/03/06 17:36:50.7  -0.8                          T                2.9  .22 Ml 2.2         4656963
LOR   001.88 059.0 m E Pg      2011/03/06 17:36:34.1  -0.2                          T                                        4656960
LOR   001.88 059.0 m E Sg      2011/03/06 17:36:57.5  -1.1                          T                2.9  .32 Ml 2.1         4656958
LDF   002.52 334.8 m E Pn      2011/03/06 17:36:39.6   0.0                          T                                        4656948
LDF   002.52 334.8 m E Sg      2011/03/06 17:37:18.7   0.1                          T                 .9  .25 Ml 1.9         4656944
GRR   002.61 323.1 m E Pn      2011/03/06 17:36:40.7   0.0                          T                                        4656946
GRR   002.61 323.1 m E Sg      2011/03/06 17:37:21.4   0.0                          T                2.3  .34 Ml 2.0         4656943
VIVF  002.67 122.2 m E Pn      2011/03/06 17:36:41.6   0.0                          T                                        4656939
VIVF  002.67 122.2 m E Sg      2011/03/06 17:37:23.2  -0.1                          T                1.1  .20 Ml 2.1         4656940
FLN   002.78 331.9 m E Pn      2011/03/06 17:36:43.1   0.0                          T                                        4656947
FLN   002.78 331.9 m E Sg      2011/03/06 17:37:26.8   0.0                          T                1.5  .34 Ml 1.9         4656945
MTLF  003.03 170.0 m E Pn      2011/03/06 17:36:46.2  -0.2                          T                                        4656938
MTLF  003.03 170.0 m E Sg      2011/03/06 17:37:34.3  -0.1                          T                1.6  .35 Ml 2.1         4656942
EPF   003.40 194.5 m E Pn      2011/03/06 17:36:51.5   0.0                          T                                        4656937
EPF   003.40 194.5 m E Sg      2011/03/06 17:37:46.0   0.0                          T                1.2  .26 Ml 2.2         4656941

.
EVENT     256693
    Date      Time       Latitude Longitude    Depth    Ndef Nsta Gap    Mag1  N    Mag2  N    Mag3  N   Author         ID
       rms   OT_Error      Smajor Sminor Az        Err   mdist  Mdist     Err        Err        Err      Quality

2011/03/06 19:33:42.8     45.9930    6.8974      2.0      12    5 309  Ml 1.5  4  Md 1.3  3              js067245    256693

      0.08   +-  0.10       1.5    1.1   34.19 +-  0.0    0.49   1.94   +-0.3      +-0.1                 m i ke

FRANCE
Sta     Dist  EvAz     Phase      Date       Time     TRes  Azim  AzRes  Slow  SRes Def   SNR       Amp   Per   Mag1   Mag2       ID
LPL   000.49 193.7 m E Pg      2011/03/06 19:33:52.4  -0.1                          T                                        4657606
LPL   000.49 193.7 m E Sg      2011/03/06 19:33:59.0   0.0                          T                2.2  .30        Md 1.3  4657604
LPG   000.51 191.7 m E Pg      2011/03/06 19:33:52.8  -0.1                          T                                        4657605
LPG   000.51 191.7 m E Sg      2011/03/06 19:33:59.5   0.0                          T                2.8  .28        Md 1.3  4657603
MBDF  001.27 184.1 m E Pg      2011/03/06 19:34:06.8   0.1                          T                                        4657598
MBDF  001.27 184.1 m E Sg      2011/03/06 19:34:23.1  -0.1                          T                 .4  .24 Ml 1.2 Md 1.2  4657599
ORIF  001.29 214.0 m E Pg      2011/03/06 19:34:07.1   0.0                          T                                        4657597
ORIF  001.29 214.0 m E Sg      2011/03/06 19:34:23.8   0.0                          T                 .6  .22 Ml 1.4         4657602
VIVF  001.94 234.8 m E Pg      2011/03/06 19:34:18.8  -0.1                          T                                        4657600
VIVF  001.94 234.8 m E Sg      2011/03/06 19:34:43.7  -0.2                          T                1.5  .28 Ml 1.9         4657601

.
EVENT     256694
    Date      Time       Latitude Longitude    Depth    Ndef Nsta Gap    Mag1  N    Mag2  N    Mag3  N   Author         ID
       rms   OT_Error      Smajor Sminor Az        Err   mdist  Mdist     Err        Err        Err      Quality

2011/03/06 21:02:12.2     46.2175    8.2451      2.0      63   21 122  Ml 2.2 23  Md 2.3  3              js067245    256694

      0.15   +-  0.03        .6     .4  115.07 +-  0.0    0.16   3.43   +-0.2      +-0.0                 m i ke

SWITZERLAND
Sta     Dist  EvAz     Phase      Date       Time     TRes  Azim  AzRes  Slow  SRes Def   SNR       Amp   Per   Mag1   Mag2       ID
LPL   001.27 237.0 m E Pg      2011/03/06 21:02:35.5  -0.6                          T                                        4657662
LPL   001.27 237.0 m E Sg      2011/03/06 21:02:52.3  -0.3                          T                6.5  .32 Ml 2.2 Md 2.2  4657640
LPG   001.27 235.9 m E Pg      2011/03/06 21:02:35.7  -0.5                          T                                        4657661
LPG   001.27 235.9 m E Sg      2011/03/06 21:02:52.2  -0.4                          T                7.0  .32 Ml 2.3 Md 2.3  4657641
CABF  001.54 285.6 m E Pg      2011/03/06 21:02:41.1   0.1                          T                                        4657656
CABF  001.54 285.6 m E Sg      2011/03/06 21:03:01.0   0.0                          T                4.0  .27 Ml 2.2 Md 2.3  4657630
HINF  001.86 329.7 m E Pn      2011/03/06 21:02:43.4   0.0                          T                                        4657644
HINF  001.86 329.7 m E Pg      2011/03/06 21:02:46.7  -0.1                          T                                        4657655
HINF  001.86 329.7 m E Sg      2011/03/06 21:03:10.8  -0.1                          T                4.4  .22 Ml 2.5         4657629
MBDF  001.82 215.3 m E Pg      2011/03/06 21:02:46.1   0.0                          T                                        4657659
MBDF  001.82 215.3 m E Sg      2011/03/06 21:03:09.5   0.0                          T                5.8  .58 Ml 2.2         4657638
HAU   002.21 324.8 m E Pn      2011/03/06 21:02:48.0  -0.1                          T                                        4657645
HAU   002.21 324.8 m E Pg      2011/03/06 21:02:53.4   0.2                          T                                        4657654
HAU   002.21 324.8 m E Sg      2011/03/06 21:03:21.6   0.0                          T                5.8  .28 Ml 2.3         4657628
CDF   002.29 343.6 m E Pn      2011/03/06 21:02:49.2  -0.1                          T                                        4657647
CDF   002.29 343.6 m E Pg      2011/03/06 21:02:54.9   0.0                          T                                        4657652
CDF   002.29 343.6 m E Sg      2011/03/06 21:03:24.3  -0.1                          T                1.9  .35 Ml 2.1         4657622
ORIF  002.11 232.8 m E Pg      2011/03/06 21:02:51.5   0.1                          T                                        4657660
ORIF  002.11 232.8 m E Sg      2011/03/06 21:03:18.7   0.1                          T                2.5  .43 Ml 2.0         4657639
THEF  002.53 323.5 m E Pn      2011/03/06 21:02:52.5   0.0                          T                                        4657646
THEF  002.53 323.5 m E Pg      2011/03/06 21:02:58.9  -0.2                          T                                        4657653
THEF  002.53 323.5 m E Sg      2011/03/06 21:03:31.7   0.0                          T                6.4  .30 Ml 2.6         4657627
LANF  002.78 354.0 m E Pn      2011/03/06 21:02:55.8  -0.1                          T                                        4657619
LANF  002.78 354.0 m E Pg      2011/03/06 21:03:03.8   0.0                          T                                        4657618
LANF  002.78 354.0 m E Sg      2011/03/06 21:03:39.5   0.0                          T                1.2  .22 Ml 2.1         4657617
VIVF  002.86 242.8 m E Pn      2011/03/06 21:02:57.1   0.2                          T                                        4657635
VIVF  002.86 242.8 m E Pg      2011/03/06 21:03:04.9  -0.2                          T                                        4657636
VIVF  002.86 242.8 m E Sg      2011/03/06 21:03:41.7  -0.2                          T                1.9  .37 Ml 2.1         4657637
SBF   002.42 194.0 m E Pg      2011/03/06 21:02:57.3   0.1                          T                                        4657643
SBF   002.42 194.0 m E Sg      2011/03/06 21:03:28.5   0.1                          T                1.9  .33 Ml 2.1         4657642
PAGF  002.90 324.7 m E Pn      2011/03/06 21:02:57.4   0.0                          T                                        4657615
PAGF  002.90 324.7 m E Sg      2011/03/06 21:03:43.2   0.0                          T                1.3  .51 Ml 1.8         4657616
SFTF  002.95 313.5 m E Pn      2011/03/06 21:02:58.2   0.0                          T                                        4657624
SFTF  002.95 313.5 m E Sg      2011/03/06 21:03:44.8  -0.1                          T                2.8  .34 Ml 2.3         4657626
SMF   003.08 279.6 m E Pn      2011/03/06 21:02:59.8  -0.1                          T                                        4657633
SMF   003.08 279.6 m E Pg      2011/03/06 21:03:09.1   0.0                          T                                        4657614
SMF   003.08 279.6 m E Sg      2011/03/06 21:03:48.7   0.0                          T                1.2  .20 Ml 2.2         4657632
MEZF  003.15 317.6 m E Pn      2011/03/06 21:03:00.8   0.0                          T                                        4657623
MEZF  003.15 317.6 m E Sg      2011/03/06 21:03:50.9  -0.1                          T                4.1  .38 Ml 2.5         4657625
LOR   003.19 290.8 m E Pn      2011/03/06 21:03:01.5   0.0                          T                                        4657649
LOR   003.19 290.8 m E Pg      2011/03/06 21:03:11.8   0.4                          T                                        4657651
LOR   003.19 290.8 m E Sg      2011/03/06 21:03:52.5   0.1                          T                1.7  .24 Ml 2.3         4657621
SSF   003.37 286.2 m E Pn      2011/03/06 21:03:04.1   0.2                          T                                        4657648
SSF   003.37 286.2 m E Pg      2011/03/06 21:03:14.6   0.0                          T                                        4657650
SSF   003.37 286.2 m E Sg      2011/03/06 21:03:57.9   0.0                          T                1.5  .28 Ml 2.3         4657620
AVF   003.43 281.4 m E Pn      2011/03/06 21:03:04.4  -0.2                          T                                        4657634
AVF   003.43 281.4 m E Sg      2011/03/06 21:03:59.7   0.0                          T                1.1  .42 Ml 2.0         4657631
FRF   002.89 203.7 m E Pg      2011/03/06 21:03:05.7   0.0                          T                                        4657657
FRF   002.89 203.7 m E Sg      2011/03/06 21:03:42.9   0.0                          T                1.3  .32 Ml 2.0         4657612
SMRF  002.93 221.1 m E Pg      2011/03/06 21:03:06.8   0.2                          T                                        4657658
SMRF  002.93 221.1 m E Sg      2011/03/06 21:03:44.2   0.0                          T                 .3  .17 Ml 1.7         4657613

.
EVENT     256708
    Date      Time       Latitude Longitude    Depth    Ndef Nsta Gap    Mag1  N    Mag2  N    Mag3  N   Author         ID
       rms   OT_Error      Smajor Sminor Az        Err   mdist  Mdist     Err        Err        Err      Quality

2011/03/07 03:49:04.1     43.1197    -.1750      2.0       8    3 172  Ml 1.1  1  Md 1.4  3              cm165940    256708

      0.61   +-  0.23       9.4    2.6    3.92 +-  0.0    0.39   2.36   +-         +-0.0                 m i ke

PYRENEES
Sta     Dist  EvAz     Phase      Date       Time     TRes  Azim  AzRes  Slow  SRes Def   SNR       Amp   Per   Mag1   Mag2       ID
EPF   000.39 103.1 m E Pg      2011/03/07 03:49:11.2  -0.5                          T                                        4657676
EPF   000.39 103.1 m E Sg      2011/03/07 03:49:16.4  -0.3                          T                3.2  .30        Md 1.4  4657675
SJPF  000.77 269.9 m E Pg      2011/03/07 03:49:18.6   0.0                          T                                        4657671
SJPF  000.77 269.9 m E Sg      2011/03/07 03:49:29.0   0.4                          T                 .4  .19        Md 1.4  4657674
MTLF  001.76 082.0 m E Pg      2011/03/07 03:49:36.6  -0.3                          T                                        4657672
MTLF  001.76 082.0 m E Sg      2011/03/07 03:49:58.0  -0.6                          T                 .2  .20 Ml 1.1 Md 1.4  4657673

.
