EVENT     286656
    Date      Time       Latitude Longitude    Depth    Ndef Nsta Gap    Mag1  N    Mag2  N    Mag3  N   Author         ID
       rms   OT_Error      Smajor Sminor Az        Err   mdist  Mdist     Err        Err        Err      Quality

2012/11/11 22:08:55.2     46.2248   -4.4230     25.0      57   18 237  Ml 2.6 15                         bulletin    286756
                                                                                                         _ldg
      0.48   +-  0.19       3.4    1.8   71.71 +-  0.0    1.90   5.73   +-0.4                            m i ke

BAY OF BISCAY
Sta     Dist  EvAz     Phase      Date       Time     TRes  Azim  AzRes  Slow  SRes Def   SNR       Amp   Per   Mag1   Mag2       ID
QUIF  001.90 026.5 m E Pn      2012/11/11 22:09:24.5   0.3                          T                                        5114691
QUIF  001.90 026.5 m E Pg      2012/11/11 22:09:30.0  -0.6                          T                                        5114687
QUIF  001.90 026.5 m E Sn      2012/11/11 22:09:45.7   0.0                          T                                        5114727
QUIF  001.90 026.5 m E Sg      2012/11/11 22:09:55.3   0.1                          T                5.0  .20 Ml 2.6         5114717
ROSF  002.25 019.9 m E Pn      2012/11/11 22:09:29.3   0.2                          T                                        5114689
ROSF  002.25 019.9 m E Pg      2012/11/11 22:09:36.5  -0.6                          T                                        5114685
ROSF  002.25 019.9 m E Sn      2012/11/11 22:09:54.5   0.3                          T                                        5114724
ROSF  002.25 019.9 m E Sg      2012/11/11 22:10:05.7  -0.6                          T                8.6  .25 Ml 2.8         5114719
SGMF  002.40 031.4 m E Pn      2012/11/11 22:09:31.2   0.2                          T                                        5114690
SGMF  002.40 031.4 m E Pg      2012/11/11 22:09:39.7  -0.1                          T                                        5114686
SGMF  002.40 031.4 m E Sn      2012/11/11 22:09:57.4  -0.2                          T                                        5114725
SGMF  002.40 031.4 m E Sg      2012/11/11 22:10:10.2  -0.6                          T                3.7  .21 Ml 2.5         5114718
MFF   002.98 081.2 m E Pn      2012/11/11 22:09:39.2   0.2                          T                                        5114688
MFF   002.98 081.2 m E Sn      2012/11/11 22:10:12.1   0.5                          T                                        5114726
MFF   002.98 081.2 m E Sg      2012/11/11 22:10:29.6   0.5                          T                2.1  .26 Ml 2.5         5114716
GRR   003.25 047.0 m E Pn      2012/11/11 22:09:43.5   0.8                          T                                        5114722
GRR   003.25 047.0 m E Pg      2012/11/11 22:09:55.4  -0.1                          T                                        5114721
GRR   003.25 047.0 m E Sn      2012/11/11 22:10:17.9  -0.2                          T                                        5114723
GRR   003.25 047.0 m E Sg      2012/11/11 22:10:37.0  -0.4                          T                1.9  .22 Ml 2.3         5114720
SJPF  003.86 142.6 m E Pn      2012/11/11 22:09:48.7  -2.3                          T                                        5114706
SJPF  003.86 142.6 m E Sn      2012/11/11 22:10:27.9  -4.7                          T                                        5114700
FLN   003.69 045.0 m E Pn      2012/11/11 22:09:49.1   0.6                          T                                        5114711
FLN   003.69 045.0 m E Pg      2012/11/11 22:10:03.1  -0.4                          T                                        5114710
FLN   003.69 045.0 m E Sn      2012/11/11 22:10:28.4   0.0                          T                                        5114709
FLN   003.69 045.0 m E Sg      2012/11/11 22:10:50.8  -0.1                          T                3.1  .39 Ml 2.3         5114708
LDF   003.76 049.4 m E Pn      2012/11/11 22:09:49.9   0.3                          T                                        5114712
LDF   003.76 049.4 m E Pg      2012/11/11 22:10:05.2   0.3                          T                                        5114713
LDF   003.76 049.4 m E Sn      2012/11/11 22:10:30.2  -0.1                          T                                        5114714
LDF   003.76 049.4 m E Sg      2012/11/11 22:10:52.3  -0.9                          T                1.5  .25 Ml 2.3         5114715
LFF   003.85 107.7 m E Pn      2012/11/11 22:09:50.1  -0.6                          T                                        5121192
LFF   003.85 107.7 m E Pg      2012/11/11 22:10:05.7  -0.8                          T                                        5121191
LFF   003.85 107.7 m E Sg      2012/11/11 22:10:56.1   0.2                          T                3.1  .37 Ml 2.4         5121178
RJF   004.26 100.4 m E Pn      2012/11/11 22:09:57.7   1.3                          T                                        5114705
RJF   004.26 100.4 m E Sn      2012/11/11 22:10:41.6  -0.5                          T                                        5114704
RJF   004.26 100.4 m E Sg      2012/11/11 22:11:08.8   0.0                          T                2.0  .35 Ml 2.1         5121179
CAF   004.74 103.6 m E Pn      2012/11/11 22:10:01.3  -1.6                          T                                        5114694
CAF   004.74 103.6 m E Sn      2012/11/11 22:10:53.8   0.2                          T                                        5114695
EPF   004.66 131.5 m E Pn      2012/11/11 22:10:01.8  -0.2                          T                                        5121180
EPF   004.66 131.5 m E Sn      2012/11/11 22:10:51.1  -0.9                          T                                        5114698
BGF   005.04 083.6 m E Pn      2012/11/11 22:10:07.6   0.6                          T                                        5114701
BGF   005.04 083.6 m E Sn      2012/11/11 22:11:00.9   0.1                          T                                        5114703
BGF   005.04 083.6 m E Sg      2012/11/11 22:11:33.0  -0.2                          T                3.5  .32 Ml 2.9         5114702
AVF   005.40 081.2 m E Pn      2012/11/11 22:10:12.2   0.3                          T                                        5114707
AVF   005.40 081.2 m E Sn      2012/11/11 22:11:10.2   0.8                          T                                        5114693
MTLF  005.54 119.0 m E Pn      2012/11/11 22:10:14.2   0.4                          T                                        5114696
MTLF  005.54 119.0 m E Sn      2012/11/11 22:11:11.9  -0.8                          T                 .8  .24 Ml 2.5         5114697
ETSF  004.32 138.9 m E Sn      2012/11/11 22:10:42.8  -0.9                          T                                        5114699
TCF   004.60 086.8 m E Sn      2012/11/11 22:10:50.3  -0.1                          T                                        5121176
TCF   004.60 086.8 m E Sg      2012/11/11 22:11:20.4   0.9                          T                 .9  .24 Ml 2.4         5121177
SMF   005.73 082.8 m E Sn      2012/11/11 22:11:18.1   0.8                          T                1.0  .26 Ml 2.6         5114692

.
EVENT     286657
    Date      Time       Latitude Longitude    Depth    Ndef Nsta Gap    Mag1  N    Mag2  N    Mag3  N   Author         ID
       rms   OT_Error      Smajor Sminor Az        Err   mdist  Mdist     Err        Err        Err      Quality

2012/11/12 01:16:25.0     44.6956    7.5851     10.0      32    8 103  Ml 1.7  4  Md 2.4  2              bulletin    286757
                                                                                                         _ldg
      0.35   +-  0.08       1.6    1.1   60.36 +-  0.0    0.27   1.61   +-0.4      +-0.1                 m i ke

NORTHERN ITALY
Sta     Dist  EvAz     Phase      Date       Time     TRes  Azim  AzRes  Slow  SRes Def   SNR       Amp   Per   Mag1   Mag2       ID
MBDF  000.58 273.4 m E Pg      2012/11/12 01:16:36.3   0.0                          T                                Md 2.3  5114750
MBDF  000.58 273.4 m E Sg      2012/11/12 01:16:44.1   0.1                          T                5.5  .20                5114745
SBF   000.84 187.4 m E Pg      2012/11/12 01:16:40.6  -0.4                          T                4.2  .20                5114738
SBF   000.84 187.4 m E Sg      2012/11/12 01:16:51.3  -0.5                          T              156.3 1.62        Md 2.4  5114737
LPL   001.02 324.0 m E Pg      2012/11/12 01:16:44.3  -0.1                          T                                        5114748
LPG   001.00 323.9 m E Pg      2012/11/12 01:16:44.4   0.3                          T                 .8  .22 Ml 1.3         5114749
LPG   001.00 323.9 m E Sg      2012/11/12 01:16:57.0   0.0                          T               68.6 1.98 Ml 2.4         5114741
ORIF  001.23 281.0 m E Pn      2012/11/12 01:16:47.4   0.6                          T                                        5114740
ORIF  001.23 281.0 m E Sn      2012/11/12 01:17:02.9   0.4                          T                 .9  .23 Ml 1.5         5114739
FRF   001.32 211.1 m E Pn      2012/11/12 01:16:47.8   0.0                          T                                        5114747
FRF   001.32 211.1 m E Sn      2012/11/12 01:17:04.6   0.2                          T                1.2  .19 Ml 1.8         5114746
LMR   001.57 210.1 m E Pn      2012/11/12 01:16:50.9  -0.2                          T                                        5114744
LMR   001.57 210.1 m E Sn      2012/11/12 01:17:10.6   0.3                          T                                        5114743
SMRF  001.61 244.2 m E Sn      2012/11/12 01:17:11.9   0.4                          T                                        5114742

.
EVENT     286658
    Date      Time       Latitude Longitude    Depth    Ndef Nsta Gap    Mag1  N    Mag2  N    Mag3  N   Author         ID
       rms   OT_Error      Smajor Sminor Az        Err   mdist  Mdist     Err        Err        Err      Quality

2012/11/12 03:57:47.7     44.8238    6.3704       .0 f    19    9 094  Ml 1.6  3  Md 1.1  1              bulletin    286758
                                                                                                         _ldg
      0.28   +-  0.06       1.4    1.3  103.07 +-  0.0    0.30   1.95   +-0.1      +-                    m i uk

FRANCE
Sta     Dist  EvAz     Phase      Date       Time     TRes  Azim  AzRes  Slow  SRes Def   SNR       Amp   Per   Mag1   Mag2       ID
MBDF  000.30 108.6 m E Pg      2012/11/12 03:57:53.8  -0.3                          T                                        5114764
MBDF  000.30 108.6 m E Sg      2012/11/12 03:57:58.2  -0.1                          T               12.0  .54        Md 1.1  5114760
ORIF  000.36 285.3 m E Pg      2012/11/12 03:57:54.9  -0.2                          T                                        5114772
ORIF  000.36 285.3 m E Sg      2012/11/12 03:58:00.5   0.4                          T                1.8  .29                5114769
LPG   000.73 021.7 m E Pg      2012/11/12 03:58:02.3   0.2                          T                                        5114770
LPG   000.73 021.7 m E Sg      2012/11/12 03:58:11.6  -0.1                          T                 .7  .25                5114768
LPL   000.74 020.2 m E Pg      2012/11/12 03:58:02.4   0.2                          T                                        5114771
LPL   000.74 020.2 m E Sg      2012/11/12 03:58:11.4  -0.6                          T                                        5114759
SMRF  001.02 214.2 m E Pg      2012/11/12 03:58:07.4   0.2                          T                                        5114767
SMRF  001.02 214.2 m E Sn      2012/11/12 03:58:22.2  -0.1                          T                2.0  .29 Ml 1.7         5114758
SBF   001.23 141.1 m E Pn      2012/11/12 03:58:10.7  -0.1                          T                                        5114773
FRF   001.28 171.0 m E Pn      2012/11/12 03:58:11.3   0.0                          T                                        5114766
FRF   001.28 171.0 m E Sn      2012/11/12 03:58:28.5   0.2                          T                1.5  .27 Ml 1.7         5114763
LMR   001.49 176.1 m E Pn      2012/11/12 03:58:14.5   0.2                          T                                        5114765
LMR   001.49 176.1 m E Sg      2012/11/12 03:58:35.2   0.0                          T                 .8  .33 Ml 1.5         5114762
LASF  001.95 248.3 m E Pn      2012/11/12 03:58:20.5   0.0                          T                                        5114774
LASF  001.95 248.3 m E Sn      2012/11/12 03:58:43.5  -0.9                          T                                        5114761

.
EVENT     286660
    Date      Time       Latitude Longitude    Depth    Ndef Nsta Gap    Mag1  N    Mag2  N    Mag3  N   Author         ID
       rms   OT_Error      Smajor Sminor Az        Err   mdist  Mdist     Err        Err        Err      Quality

2012/11/12 06:52:45.4     46.4943    7.3346      2.0      63   14 050  Ml 2.5 16  Md 2.5  1              bulletin    286760
                                                                                                         _ldg
      0.75   +-  0.07       1.6    1.3   43.27 +-  0.0    0.13   3.10   +-0.2      +-                    m i ke

SWITZERLAND
Sta     Dist  EvAz     Phase      Date       Time     TRes  Azim  AzRes  Slow  SRes Def   SNR       Amp   Per   Mag1   Mag2       ID
CABF  000.87 278.2 m E Pg      2012/11/12 06:53:02.5   0.7                          T                                        5114784
CABF  000.87 278.2 m E Sg      2012/11/12 06:53:13.1   0.0                          T               15.4  .19 Ml 2.7 Md 2.5  5114780
LPL   001.06 203.4 m E Pn      2012/11/12 06:53:05.0  -1.0                          T                                        5114804
LPL   001.06 203.4 m E Sg      2012/11/12 06:53:19.4   0.0                          T               14.3  .25 Ml 2.6         5114807
LPG   001.08 202.4 m E Pn      2012/11/12 06:53:05.8  -0.4                          T                                        5114803
LPG   001.08 202.4 m E Sg      2012/11/12 06:53:20.3   0.4                          T                7.2  .22 Ml 2.4         5114808
HINF  001.36 346.2 m E Pg      2012/11/12 06:53:10.2  -0.7                          T                                        5114782
HINF  001.36 346.2 m E Sg      2012/11/12 06:53:27.7  -0.8                          T               20.7  .24 Ml 2.9         5114779
CDF   001.92 358.8 m E Pn      2012/11/12 06:53:17.0  -0.4                          T                                        5114791
CDF   001.92 358.8 m E Pg      2012/11/12 06:53:22.1   0.9                          T                                        5114790
CDF   001.92 358.8 m E Sg      2012/11/12 06:53:45.9   0.0                          T                4.6  .27 Ml 2.5         5114787
ORIF  001.88 213.4 m E Pn      2012/11/12 06:53:17.1   0.2                          T                                        5114805
ORIF  001.88 213.4 m E Pg      2012/11/12 06:53:20.4   0.0                          T                                        5114801
ORIF  001.88 213.4 m E Sn      2012/11/12 06:53:40.0   0.3                          T                3.3  .29 Ml 2.2         5114809
ORIF  001.88 213.4 m E Sg      2012/11/12 06:53:44.6   0.0                          T                6.0  .36 Ml 2.4         5114810
MBDF  001.81 192.8 m E Pg      2012/11/12 06:53:19.3   0.1                          T                                        5114802
MBDF  001.81 192.8 m E Sg      2012/11/12 06:53:43.0   0.4                          T               14.3  .58 Ml 2.6         5114813
PAGF  002.33 332.7 m E Pn      2012/11/12 06:53:22.7  -0.2 156.5  5.0               T                                        5114786
PAGF  002.33 332.7 m E Pg      2012/11/12 06:53:29.1   0.4                          T                                        5114785
SMF   002.41 274.9 m E Pn      2012/11/12 06:53:24.0  -0.1                          T                                        5114800
SMF   002.41 274.9 m E Pg      2012/11/12 06:53:31.3   1.1                          T                                        5114799
SMF   002.41 274.9 m E Sn      2012/11/12 06:53:52.9   0.4                          T                1.9  .19 Ml 2.3         5114798
SMF   002.41 274.9 m E Sg      2012/11/12 06:54:00.6  -0.6                          T                6.5  .25 Ml 2.7         5114781
VIVF  002.48 229.7 m E Pn      2012/11/12 06:53:25.2   0.2                          T                                        5114812
VIVF  002.48 229.7 m E Sn      2012/11/12 06:53:55.3   1.1                          T                2.3  .25 Ml 2.3         5114814
VIVF  002.48 229.7 m E Sg      2012/11/12 06:54:04.0   0.6                          T                6.0  .28 Ml 2.6         5114811
LOR   002.51 289.3 m E Pn      2012/11/12 06:53:25.3   0.0 104.7  -2.0              T                                        5114793
LOR   002.51 289.3 m E Pg      2012/11/12 06:53:32.7   0.8                          T                                        5114792
LOR   002.51 289.3 m E Sn      2012/11/12 06:53:55.1   0.5                          T                3.9  .20 Ml 2.6         5114789
AVF   002.76 277.6 m E Pn      2012/11/12 06:53:28.7   0.0                          T                                        5114806
AVF   002.76 277.6 m E Pg      2012/11/12 06:53:37.2   0.7                          T                                        5114796
AVF   002.76 277.6 m E Sn      2012/11/12 06:53:59.8  -0.9                          T                1.4  .30 Ml 2.0         5114822
AVF   002.76 277.6 m E Sg      2012/11/12 06:54:12.3   0.3                          T                1.5  .19 Ml 2.3         5114821
SSF   002.69 283.6 m E Pn      2012/11/12 06:53:29.7   1.9                          T                                        5114795
SSF   002.69 283.6 m E Pg      2012/11/12 06:53:36.7   1.4                          T                                        5114794
SSF   002.69 283.6 m E Sg      2012/11/12 06:54:07.7  -2.2                          T                                        5114788
BGF   003.10 272.8 m E Pn      2012/11/12 06:53:33.5   0.1                          T                                        5114820
BGF   003.10 272.8 m E Sn      2012/11/12 06:54:08.9   0.1                          T                6.5  .29 Ml 2.8         5114819

.
