EVENT     280205
    Date      Time       Latitude Longitude    Depth    Ndef Nsta Gap    Mag1  N    Mag2  N    Mag3  N   Author         ID
       rms   OT_Error      Smajor Sminor Az        Err   mdist  Mdist     Err        Err        Err      Quality

2012/07/25 16:04:26.7     44.5002    6.6270      2.0      10    5 154  Ml 1.5  2  Md 1.3  1              bulletin    280305
                                                                                                         _ldg
      0.49   +-  0.22       5.8    3.6   97.13 +-  0.0    0.25   1.17   +-0.2      +-                    m i ke

FRANCE
Sta     Dist  EvAz     Phase      Date       Time     TRes  Azim  AzRes  Slow  SRes Def   SNR       Amp   Per   Mag1   Mag2       ID
MBDF  000.25 024.4 m E Pg      2012/07/25 16:04:31.6  -0.2                          T                                        5034289
MBDF  000.25 024.4 m E Sg      2012/07/25 16:04:35.0  -0.2                          T                4.6  .32        Md 1.3  5034283
ORIF  000.68 308.4 m E Pg      2012/07/25 16:04:40.0   0.3                          T                                        5039171
ORIF  000.68 308.4 m E Sg      2012/07/25 16:04:49.4   0.9                          T                1.6  .29                5034282
SMRF  000.92 235.6 m E Pg      2012/07/25 16:04:43.3  -0.8                          T                                        5039170
SMRF  000.92 235.6 m E Sg      2012/07/25 16:04:55.8  -0.2                          T                1.2  .29 Ml 1.4         5034284
FRF   000.94 179.1 m E Pg      2012/07/25 16:04:44.2  -0.1                          T                                        5034288
FRF   000.94 179.1 m E Sg      2012/07/25 16:04:58.8   2.3                          T                2.0  .29 Ml 1.7         5034287
LMR   001.17 184.2 m E Pg      2012/07/25 16:04:49.1   0.5                          T                                        5034285
LMR   001.17 184.2 m E Sg      2012/07/25 16:05:04.4   0.7                          T                                        5034286

.
EVENT     280081
    Date      Time       Latitude Longitude    Depth    Ndef Nsta Gap    Mag1  N    Mag2  N    Mag3  N   Author         ID
       rms   OT_Error      Smajor Sminor Az        Err   mdist  Mdist     Err        Err        Err      Quality

2012/07/25 18:34:30.0     43.0858    -.6434     10.0      11    3 171             Md 1.1  2              bulletin    280181
                                                                                                         _ldg
      0.21   +-  0.08       2.5    1.0   16.74 +-  0.0    0.04   0.74              +-0.1                 m i ke

PYRENEES
Sta     Dist  EvAz     Phase      Date       Time     TRes  Azim  AzRes  Slow  SRes Def   SNR       Amp   Per   Mag1   Mag2       ID
ETSF  000.20 161.7 m E Pg      2012/07/25 18:34:34.4   0.0                          T                                        5032615
ETSF  000.20 161.7 m E Sg      2012/07/25 18:34:37.3  -0.1                          T                5.1  .19        Md 1.2  5032614
SJPF  000.43 273.9 m E Pg      2012/07/25 18:34:38.4   0.1                          T                                        5032612
SJPF  000.43 273.9 m E Sg      2012/07/25 18:34:44.6   0.4                          T                2.2  .26        Md 1.1  5032613
EPF   000.72 094.1 m E Sg      2012/07/25 18:34:53.2  -0.1                          T                 .9  .25                5039176

.
EVENT     280082
    Date      Time       Latitude Longitude    Depth    Ndef Nsta Gap    Mag1  N    Mag2  N    Mag3  N   Author         ID
       rms   OT_Error      Smajor Sminor Az        Err   mdist  Mdist     Err        Err        Err      Quality

2012/07/25 20:14:26.5     43.0205    -.7001      2.0       6    3 165             Md 1.1  2              bulletin    280182
                                                                                                         _ldg
      0.22   +-  0.10       4.3    1.7   17.61 +-  0.0    0.16   0.76              +-0.1                 m i ke

PYRENEES
Sta     Dist  EvAz     Phase      Date       Time     TRes  Azim  AzRes  Slow  SRes Def   SNR       Amp   Per   Mag1   Mag2       ID
ETSF  000.16 139.6 m E Pg      2012/07/25 20:14:29.9   0.0                          T                                        5032768
ETSF  000.16 139.6 m E Sg      2012/07/25 20:14:32.0  -0.2                          T                6.6  .18        Md 1.1  5032766
SJPF  000.40 283.7 m E Pg      2012/07/25 20:14:34.1   0.0                          T                                        5032767
SJPF  000.40 283.7 m E Sg      2012/07/25 20:14:39.0  -0.4                          T                1.6  .30        Md 1.0  5032765
EPF   000.76 088.9 m E Pg      2012/07/25 20:14:41.0   0.1                          T                                        5032769
EPF   000.76 088.9 m E Sg      2012/07/25 20:14:50.5  -0.5                          T                 .4  .19                5032764

.
EVENT     280084
    Date      Time       Latitude Longitude    Depth    Ndef Nsta Gap    Mag1  N    Mag2  N    Mag3  N   Author         ID
       rms   OT_Error      Smajor Sminor Az        Err   mdist  Mdist     Err        Err        Err      Quality

2012/07/25 23:18:37.3     47.8371   -4.0963      5.0 f    14    6 325  Ml 1.7  4  Md 1.9  2              bulletin    280184
                                                                                                         _ldg
      1.48   +-  0.62      10.1    8.0   18.39 +-  0.0    0.63   2.76   +-0.2      +-0.0                 m i ke

FRANCE
Sta     Dist  EvAz     Phase      Date       Time     TRes  Azim  AzRes  Slow  SRes Def   SNR       Amp   Per   Mag1   Mag2       ID
QUIF  000.63 082.4 m E Pg      2012/07/25 23:18:49.3   0.0                          T                                        5032775
QUIF  000.63 082.4 m E Sg      2012/07/25 23:18:58.7   1.1                          T                4.4  .22        Md 2.0  5032772
ROSF  000.74 047.5 m E Pg      2012/07/25 23:18:51.4   0.1                          T                                        5039182
ROSF  000.74 047.5 m E Pn      2012/07/25 23:18:52.3  -0.6                          T                                        5032773
ROSF  000.74 047.5 m E Sg      2012/07/25 23:19:00.4  -0.7                          T                4.3  .23        Md 1.9  5032770
SGMF  001.11 067.4 m E Pg      2012/07/25 23:18:58.3   0.2                          T                                        5032774
SGMF  001.11 067.4 m E Sg      2012/07/25 23:19:12.3  -0.3                          T                2.4  .26 Ml 1.8         5032771
GRR   002.24 074.5 m E Pg      2012/07/25 23:19:18.7  -0.1                          T                                        5032776
GRR   002.24 074.5 m E Sg      2012/07/25 23:19:46.7  -1.0                          T                 .3  .17 Ml 1.4         5032777
LDF   002.76 072.6 m E Pg      2012/07/25 23:19:28.4  -0.1                          T                                        5039181
LDF   002.76 072.6 m E Sg      2012/07/25 23:20:03.9  -0.1                          T                 .7  .25 Ml 1.8         5039179
FLN   002.58 067.7 m E Sg      2012/07/25 23:19:59.1   0.7                          T                 .8  .21 Ml 1.7         5039180

.
EVENT     280085
    Date      Time       Latitude Longitude    Depth    Ndef Nsta Gap    Mag1  N    Mag2  N    Mag3  N   Author         ID
       rms   OT_Error      Smajor Sminor Az        Err   mdist  Mdist     Err        Err        Err      Quality

2012/07/26 00:46:14.6     43.0520    -.1807      2.0      26    7 098  Ml 1.9  4  Md 2.0  3              bulletin    280185
                                                                                                         _ldg
      0.54   +-  0.09       2.0    1.4  177.62 +-  0.0    0.32   2.56   +-0.2      +-0.2                 m i ke

PYRENEES
Sta     Dist  EvAz     Phase      Date       Time     TRes  Azim  AzRes  Slow  SRes Def   SNR       Amp   Per   Mag1   Mag2       ID
ETSF  000.32 241.2 m E Pg      2012/07/26 00:46:20.5  -0.4                          T                                        5032800
ETSF  000.32 241.2 m E Sg      2012/07/26 00:46:24.5  -0.7                          T               19.8  .22        Md 1.7  5032797
EPF   000.38 093.1 m E Pg      2012/07/26 00:46:22.0  -0.1                          T                                        5032799
EPF   000.38 093.1 m E Sg      2012/07/26 00:46:27.3   0.1                          T               14.1  .24        Md 2.1  5032796
SJPF  000.77 274.9 m E Pg      2012/07/26 00:46:29.2   0.1                          T                                        5032798
SJPF  000.77 274.9 m E Sg      2012/07/26 00:46:39.7   0.6                          T                2.8  .22        Md 2.0  5032795
MTLF  001.78 079.8 m E Pg      2012/07/26 00:46:47.8   0.1                          T                                        5032806
MTLF  001.78 079.8 m E Sg      2012/07/26 00:47:09.8  -0.8                          T                 .8  .19 Ml 1.8         5032805
LFF   002.00 019.1 m E Pg      2012/07/26 00:46:52.4   0.6                          T                                        5032804
LFF   002.00 019.1 m E Sg      2012/07/26 00:47:17.7   0.1                          T                3.4  .29 Ml 2.1         5032803
CAF   002.48 040.1 m E Pg      2012/07/26 00:47:00.3  -0.3                          T                                        5032808
CAF   002.48 040.1 m E Sg      2012/07/26 00:47:32.2  -0.2                          T                 .8  .20 Ml 1.9         5032807
RJF   002.56 027.9 m E Pg      2012/07/26 00:47:01.9  -0.2                          T                                        5032802
RJF   002.56 027.9 m E Sg      2012/07/26 00:47:35.2   0.1                          T                1.0  .17 Ml 1.8         5032801

.
EVENT     280087
    Date      Time       Latitude Longitude    Depth    Ndef Nsta Gap    Mag1  N    Mag2  N    Mag3  N   Author         ID
       rms   OT_Error      Smajor Sminor Az        Err   mdist  Mdist     Err        Err        Err      Quality

2012/07/26 03:10:40.7     36.1546   -4.5968     81.8      38    2 226  Ml 2.2  2                         bulletin    280187
                                                                                                         _ldg
      0.91   +-  0.44       9.8    4.4  172.58 +-  6.6    0.43   7.42   +-0.1                            m i ke

STRAIT OF GIBRALTAR
Sta     Dist  EvAz     Phase      Date       Time     TRes  Azim  AzRes  Slow  SRes Def   SNR       Amp   Per   Mag1   Mag2       ID
SJPF  007.42 019.5 m E Pn      2012/07/26 03:12:26.0   0.4                          T                                        5032881
SJPF  007.42 019.5 m E Sn      2012/07/26 03:13:44.2  -0.1                          T                 .2  .24 Ml 2.1         5032883
ETSF  007.42 023.6 m E P       2012/07/26 03:12:28.6   0.1                          T                                        5032880
ETSF  007.42 023.6 m E Sn      2012/07/26 03:13:44.7   0.2                          T                 .2  .21 Ml 2.3         5032882

.
EVENT     280088
    Date      Time       Latitude Longitude    Depth    Ndef Nsta Gap    Mag1  N    Mag2  N    Mag3  N   Author         ID
       rms   OT_Error      Smajor Sminor Az        Err   mdist  Mdist     Err        Err        Err      Quality

2012/07/26 03:51:44.1     47.4235   -2.2636      2.0      22    7 190  Ml 2.1  7  Md 2.2  4              bulletin    280188
                                                                                                         _ldg
      1.28   +-  0.31       6.9    3.7   36.03 +-  0.0    0.78   1.85   +-0.3      +-0.1                 m i ke

FRANCE
Sta     Dist  EvAz     Phase      Date       Time     TRes  Azim  AzRes  Slow  SRes Def   SNR       Amp   Per   Mag1   Mag2       ID
QUIF  000.78 309.3 m E Pg      2012/07/26 03:51:58.5  -0.3                          T                                        5032895
QUIF  000.78 309.3 m E Sg      2012/07/26 03:52:08.5  -0.5                          T                4.8  .18        Md 2.2  5032894
SGMF  000.85 346.7 m E Pg      2012/07/26 03:52:00.2   0.1                          T                                        5040436
SGMF  000.85 346.7 m E Pn      2012/07/26 03:52:00.5  -1.0                          T                                        5032893
SGMF  000.85 346.7 m E Sg      2012/07/26 03:52:11.1  -0.1                          T                1.4  .20        Md 2.3  5032892
ROSF  001.14 323.7 m E Pg      2012/07/26 03:52:05.5   0.1                          T                                        5040429
ROSF  001.14 323.7 m E Sg      2012/07/26 03:52:20.3   0.1                          T                1.5  .17 Ml 1.8 Md 2.2  5032888
GRR   001.35 043.9 m E Pg      2012/07/26 03:52:09.1  -0.1                          T                                        5040427
GRR   001.35 043.9 m E Pn      2012/07/26 03:52:09.4   1.1                          T                                        5032897
GRR   001.35 043.9 m E Sg      2012/07/26 03:52:26.4  -0.3                          T                2.6  .16 Ml 2.0 Md 2.1  5032896
MFF   001.67 118.8 m E Pn      2012/07/26 03:52:13.8   1.3                          T                                        5032891
MFF   001.67 118.8 m E Pg      2012/07/26 03:52:15.4   0.4                          T                                        5040435
MFF   001.67 118.8 m E Sg      2012/07/26 03:52:34.6  -2.0                          T                3.6  .22 Ml 2.5         5032890
FLN   001.79 041.1 m E Pg      2012/07/26 03:52:16.3  -1.1 220.6  -1.8              T                                        5040430
FLN   001.79 041.1 m E Sg      2012/07/26 03:52:39.5  -1.1 220.1  -2.3              T                1.5  .18 Ml 1.9         5032898
LDF   001.85 050.1 m E Pn      2012/07/26 03:52:16.6   1.5                          T                                        5032887
LDF   001.85 050.1 m E Pg      2012/07/26 03:52:17.8  -0.8                          T                                        5040428
LDF   001.85 050.1 m E Sg      2012/07/26 03:52:41.5  -0.9                          T                1.5  .22 Ml 2.0         5032886

.
EVENT     280215
    Date      Time       Latitude Longitude    Depth    Ndef Nsta Gap    Mag1  N    Mag2  N    Mag3  N   Author         ID
       rms   OT_Error      Smajor Sminor Az        Err   mdist  Mdist     Err        Err        Err      Quality

2012/07/26 04:41:03.4     42.9689    -.3354      2.0       6    3 164             Md 1.4  3              bulletin    280315
                                                                                                         _ldg
      0.12   +-  0.06       3.9    1.0  173.79 +-  0.0    0.18   0.67              +-0.3                 m i ke

PYRENEES
Sta     Dist  EvAz     Phase      Date       Time     TRes  Azim  AzRes  Slow  SRes Def   SNR       Amp   Per   Mag1   Mag2       ID
ETSF  000.18 246.9 m E Pg      2012/07/26 04:41:07.0  -0.1                          T                                        5034307
ETSF  000.18 246.9 m E Sg      2012/07/26 04:41:09.9   0.3                          T               14.4  .18        Md 1.8  5034304
EPF   000.50 082.7 m E Pg      2012/07/26 04:41:13.0   0.0                          T                                        5034306
EPF   000.50 082.7 m E Sg      2012/07/26 04:41:19.6   0.0                          T                6.1  .26        Md 1.3  5034305
SJPF  000.67 282.8 m E Pg      2012/07/26 04:41:16.0   0.0                          T                                        5034302
SJPF  000.67 282.8 m E Sg      2012/07/26 04:41:24.9   0.1                          T                2.2  .27        Md 1.2  5034303

.
EVENT     280097
    Date      Time       Latitude Longitude    Depth    Ndef Nsta Gap    Mag1  N    Mag2  N    Mag3  N   Author         ID
       rms   OT_Error      Smajor Sminor Az        Err   mdist  Mdist     Err        Err        Err      Quality

2012/07/26 07:33:07.2     47.2849   -2.1933       .0 f     8    4 275  Ml 2.2  4  Md 2.1  1              bulletin    280197
                                                                                                         _ldg
      0.33   +-  0.51       9.3    3.9    2.91 +-  0.0    0.91   1.42   +-0.2      +-                    m i km

FRANCE
Sta     Dist  EvAz     Phase      Date       Time     TRes  Azim  AzRes  Slow  SRes Def   SNR       Amp   Per   Mag1   Mag2       ID
QUIF  000.91 314.2 m E Pg      2012/07/26 07:33:24.8   0.2                          T                                        5032916
QUIF  000.91 314.2 m E Sg      2012/07/26 07:33:37.0   0.4                          T               60.6 1.16 Ml 2.5 Md 2.1  5032912
SGMF  001.00 345.9 m E Pg      2012/07/26 07:33:25.9  -0.3                          T                                        5032915
SGMF  001.00 345.9 m E Sg      2012/07/26 07:33:39.8   0.5                          T                6.3  .28 Ml 2.2         5032911
ROSF  001.28 325.7 m E Pg      2012/07/26 07:33:32.1   0.8                          T                                        5032914
ROSF  001.28 325.7 m E Sg      2012/07/26 07:33:47.4  -0.7                          T               20.1 1.02 Ml 2.2         5032910
GRR   001.42 038.7 m E Pg      2012/07/26 07:33:34.0   0.0                          T                                        5032913
GRR   001.42 038.7 m E Sg      2012/07/26 07:33:52.9   0.3                          T                8.3  .54 Ml 2.0         5032909

.
