EVENT     273033
    Date      Time       Latitude Longitude    Depth    Ndef Nsta Gap    Mag1  N    Mag2  N    Mag3  N   Author         ID
       rms   OT_Error      Smajor Sminor Az        Err   mdist  Mdist     Err        Err        Err      Quality

2012/04/04 08:41:41.5     46.8291    3.1133       .0 f    15    9 173  Ml 2.0  3  Md 1.9  6              bulletin    273053
                                                                                                         _ldg
      1.53   +-  0.30       8.1    3.6  140.29 +-  0.0    0.17   2.04   +-0.3      +-0.2                 m i km

FRANCE
Sta     Dist  EvAz     Phase      Date       Time     TRes  Azim  AzRes  Slow  SRes Def   SNR       Amp   Per   Mag1   Mag2       ID
AVF   000.17 103.1 m E Pg      2012/04/04 08:41:44.6  -0.6                          T                                        4901347
AVF   000.17 103.1 m E Sg      2012/04/04 08:41:47.6  -0.1                          T                                Md 1.9  4901346
SSF   000.36 049.0 m E Pg      2012/04/04 08:41:48.1  -0.6                          T                                        4901362
SSF   000.36 049.0 m E Sg      2012/04/04 08:41:52.4  -1.2                          T               10.6  .25        Md 1.7  4901363
BGF   000.33 214.2 m E Pg      2012/04/04 08:41:48.4   0.3                          T                                        4901343
BGF   000.33 214.2 m E Sg      2012/04/04 08:41:52.1  -0.6                          T                                Md 2.2  4901342
SMF   000.53 109.9 m E Pg      2012/04/04 08:41:51.6  -0.3                          T                                        4901344
SMF   000.53 109.9 m E Sg      2012/04/04 08:41:59.3   0.2                          T                                Md 2.2  4901345
LOR   000.67 049.0 m E Pg      2012/04/04 08:41:56.1   1.5 243.7  14.2              T                                        4901361
LOR   000.67 049.0 m E Sg      2012/04/04 08:42:03.8   0.3                          T                2.1  .28        Md 1.8  4901360
TCF   000.83 229.4 m E Pg      2012/04/04 08:41:57.0  -0.3                          T                                        4901364
TCF   000.83 229.4 m E Sg      2012/04/04 08:42:09.3   1.0                          T                1.1  .24        Md 2.0  4901365
RJF   001.89 216.7 m E Sg      2012/04/04 08:42:41.5   0.1                          T                2.1  .29 Ml 1.7         4910518
SFTF  001.90 042.8 m E Sg      2012/04/04 08:42:41.8   0.1                          T                5.6  .42 Ml 2.3         4910516
CAF   002.04 201.4 m E Sg      2012/04/04 08:42:46.4   0.2                          T                1.5  .29 Ml 1.9         4910517

.
EVENT     273036
    Date      Time       Latitude Longitude    Depth    Ndef Nsta Gap    Mag1  N    Mag2  N    Mag3  N   Author         ID
       rms   OT_Error      Smajor Sminor Az        Err   mdist  Mdist     Err        Err        Err      Quality

2012/04/04 09:07:08.3     45.5651    3.1785       .0 f    21   10 100  Ml 2.9  7                         bulletin    273056
                                                                                                         _ldg
      1.20   +-  0.17       4.0    2.7   93.54 +-  0.0    0.99   2.33   +-0.3                            m i km

FRANCE
Sta     Dist  EvAz     Phase      Date       Time     TRes  Azim  AzRes  Slow  SRes Def   SNR       Amp   Per   Mag1   Mag2       ID
TCF   000.99 317.3 m E Pg      2012/04/04 09:07:27.0  -0.2                          T                                        4901439
TCF   000.99 317.3 m E Sg      2012/04/04 09:07:41.0   0.8                          T               35.8  .44 Ml 2.8         4902200
BGF   001.02 347.0 m E Pg      2012/04/04 09:07:28.0   0.3                          T                                        4901434
BGF   001.02 347.0 m E Sg      2012/04/04 09:07:41.7   0.6                          T              185.2  .38 Ml 3.5         4902209
CAF   001.01 231.3 m E Pg      2012/04/04 09:07:28.1   0.5                          T                                        4901432
RJF   001.20 258.0 m E Pg      2012/04/04 09:07:29.8  -1.2                          T                                        4901433
RJF   001.20 258.0 m E Sg      2012/04/04 09:07:48.1   1.4                          T               29.5  .42 Ml 2.4         4902203
SMF   001.17 022.9 m E Pg      2012/04/04 09:07:30.6   0.1                          T                                        4901435
SMF   001.17 022.9 m E Sg      2012/04/04 09:07:45.5  -0.4                          T               38.6  .56 Ml 2.7         4902202
AVF   001.23 005.6 m E Pg      2012/04/04 09:07:31.1  -0.5                          T                                        4901436
AVF   001.23 005.6 m E Sg      2012/04/04 09:07:47.7   0.0                          T               31.0  .48 Ml 2.7         4902201
VIVF  001.27 123.3 m E Pg      2012/04/04 09:07:32.5   0.1                          T                                        4901430
VIVF  001.27 123.3 m E Sg      2012/04/04 09:07:48.6  -0.4                          T               42.4  .46 Ml 2.9         4902205
SSF   001.51 008.5 m E Pg      2012/04/04 09:07:37.4   0.6                          T                                        4901438
SSF   001.51 008.5 m E Sg      2012/04/04 09:07:56.7   0.1                          T               38.8  .56 Ml 3.0         4902211
LASF  001.57 161.8 m E Pg      2012/04/04 09:07:38.3   0.5                          T                                        4901431
LASF  001.57 161.8 m E Sg      2012/04/04 09:07:56.7  -1.5                          T                                        4902204
LOR   001.77 015.2 m E Sg      2012/04/04 09:08:04.6   0.1                          T                                        4902210

.
EVENT     273039
    Date      Time       Latitude Longitude    Depth    Ndef Nsta Gap    Mag1  N    Mag2  N    Mag3  N   Author         ID
       rms   OT_Error      Smajor Sminor Az        Err   mdist  Mdist     Err        Err        Err      Quality

2012/04/04 09:18:34.1     47.1675    4.4724       .0 f    11    5 296  Ml 2.2  2  Md 1.8  1              bulletin    273059
                                                                                                         _ldg
      0.27   +-  0.30       4.7    3.0   86.02 +-  0.0    0.43   1.27   +-0.0      +-                    m i km

FRANCE
Sta     Dist  EvAz     Phase      Date       Time     TRes  Azim  AzRes  Slow  SRes Def   SNR       Amp   Per   Mag1   Mag2       ID
LOR   000.43 283.8 m E Pg      2012/04/04 09:18:42.6   0.0 102.3  -1.0              T                                        4901483
LOR   000.43 283.8 m E Sg      2012/04/04 09:18:48.4  -0.2                          T              103.5  .88        Md 1.8  4901471
SMF   000.68 219.9 m E Pg      2012/04/04 09:18:47.0  -0.2                          T                                        4901480
SMF   000.68 219.9 m E Sg      2012/04/04 09:18:57.7   1.4                          T                6.4  .25                4901478
SSF   000.67 261.2 m E Pg      2012/04/04 09:18:47.0   0.0                          T                                        4901482
SSF   000.67 261.2 m E Sg      2012/04/04 09:18:56.4   0.4                          T                                        4901476
AVF   000.85 244.2 m E Pg      2012/04/04 09:18:50.5   0.1                          T                                        4901481
AVF   000.85 244.2 m E Sg      2012/04/04 09:19:01.4  -0.3                          T                                        4902218
AVF   000.85 244.2 m E Sn      2012/04/04 09:19:04.3  -0.3                          T                6.3  .24 Ml 2.2         4901479
BGF   001.27 241.9 m E Pg      2012/04/04 09:18:58.5   0.4                          T                                        4901496
BGF   001.27 241.9 m E Sg      2012/04/04 09:19:14.6  -0.2                          T                4.8  .31 Ml 2.1         4901495

.
EVENT     273038
    Date      Time       Latitude Longitude    Depth    Ndef Nsta Gap    Mag1  N    Mag2  N    Mag3  N   Author         ID
       rms   OT_Error      Smajor Sminor Az        Err   mdist  Mdist     Err        Err        Err      Quality

2012/04/04 10:08:10.4     43.9755    4.8266       .0 f    10    6 161  Ml 1.5  2                         bulletin    273058
                                                                                                         _ldg
      0.59   +-  0.26       7.2    4.1   28.23 +-  0.0    0.71   1.58   +-0.2                            m i km

NEAR SOUTH COAST OF FRANCE
Sta     Dist  EvAz     Phase      Date       Time     TRes  Azim  AzRes  Slow  SRes Def   SNR       Amp   Per   Mag1   Mag2       ID
LASF  000.71 278.5 m E Pg      2012/04/04 10:08:23.9  -0.2                          T                                        4901458
LASF  000.71 278.5 m E Sg      2012/04/04 10:08:34.1   0.7                          T                3.1  .25                4901457
VIVF  000.89 352.9 m E Pg      2012/04/04 10:08:26.9  -0.5                          T                                        4901463
VIVF  000.89 352.9 m E Sg      2012/04/04 10:08:38.4  -0.7                          T                2.0  .25 Ml 1.7         4901459
ORIF  001.21 038.3 m E Pg      2012/04/04 10:08:34.2   0.8                          T                                        4901468
FRF   001.38 106.8 m E Pg      2012/04/04 10:08:36.2  -0.2                          T                                        4901465
FRF   001.38 106.8 m E Sg      2012/04/04 10:08:53.3  -1.2                          T                                        4901461
LMR   001.38 117.1 m E Pg      2012/04/04 10:08:36.8   0.4                          T                                        4901464
LMR   001.38 117.1 m E Sg      2012/04/04 10:08:54.1  -0.3                          T                 .6  .23 Ml 1.4         4901460
MBDF  001.58 061.0 m E Sn      2012/04/04 10:08:54.4  -4.1                          T                                        4901469

.
EVENT     273041
    Date      Time       Latitude Longitude    Depth    Ndef Nsta Gap    Mag1  N    Mag2  N    Mag3  N   Author         ID
       rms   OT_Error      Smajor Sminor Az        Err   mdist  Mdist     Err        Err        Err      Quality

2012/04/04 10:17:29.9     46.5062    6.3330       .0 f    10    6 148  Ml 1.7  5  Md 2.0  1              js067245    273061

      0.18   +-  0.07       2.0    1.0   71.06 +-  0.0    0.20   2.02   +-0.1      +-                    m i km

SWITZERLAND
Sta     Dist  EvAz     Phase      Date       Time     TRes  Azim  AzRes  Slow  SRes Def   SNR       Amp   Per   Mag1   Mag2       ID
CABF  000.20 301.9 m E Pg      2012/04/04 10:17:34.2  -0.1                          T                                        4910258
CABF  000.20 301.9 m E Sg      2012/04/04 10:17:37.4   0.3                          T              223.0  .80        Md 2.0  4910259
LPL   001.03 164.2 m E Pg      2012/04/04 10:17:49.6   0.0                          T                                        4910252
LPL   001.03 164.2 m E Sg      2012/04/04 10:18:03.4   0.2                          T                1.5  .23 Ml 1.6         4910255
LPG   001.05 163.7 m E Pg      2012/04/04 10:17:50.1   0.0                          T                                        4910253
LPG   001.05 163.7 m E Sg      2012/04/04 10:18:03.9   0.0                          T                 .8  .16 Ml 1.5         4910254
VIVF  002.02 215.8 m E Pg      2012/04/04 10:18:07.8   0.1                          T                                        4910250
VIVF  002.02 215.8 m E Sn      2012/04/04 10:18:27.8  -0.4                          T                1.3  .31 Ml 1.8         4910251
HINF  001.36 015.0 m E Sg      2012/04/04 10:18:13.5   0.3                          T                1.8  .28 Ml 1.8         4910257
HAU   001.50 000.4 m E Sg      2012/04/04 10:18:17.5  -0.2                          T                2.2  .24 Ml 1.8         4910256

.
EVENT     273042
    Date      Time       Latitude Longitude    Depth    Ndef Nsta Gap    Mag1  N    Mag2  N    Mag3  N   Author         ID
       rms   OT_Error      Smajor Sminor Az        Err   mdist  Mdist     Err        Err        Err      Quality

2012/04/04 10:25:40.3     43.4550    2.1184       .0 f    11    5 104  Ml 1.9  4  Md 1.8  1              js067245    273062

      0.69   +-  0.07       1.3     .8  147.31 +-  0.0    0.13   2.04   +-0.1      +-                    m i km

FRANCE
Sta     Dist  EvAz     Phase      Date       Time     TRes  Azim  AzRes  Slow  SRes Def   SNR       Amp   Per   Mag1   Mag2       ID
MTLF  000.13 147.6 m E Pg      2012/04/04 10:25:43.3   0.0                          T                                        4910272
MTLF  000.13 147.6 m E Sg      2012/04/04 10:25:45.7   0.3                          T              128.8  .60        Md 1.8  4910273
EPF   001.37 252.5 m E Pg      2012/04/04 10:26:06.1   0.0                          T                                        4910266
EPF   001.37 252.5 m E Sg      2012/04/04 10:26:24.0   0.0                          T                5.5  .44 Ml 2.1         4910268
LASF  001.40 063.2 m E Pg      2012/04/04 10:26:06.7  -0.1                          T                                        4910263
LASF  001.40 063.2 m E Sg      2012/04/04 10:26:25.3   0.2                          T                1.4  .25 Ml 1.7         4910264
CAF   001.47 358.5 m E Pg      2012/04/04 10:26:08.0   0.0                          T                                        4910267
CAF   001.47 358.5 m E Sg      2012/04/04 10:26:27.4   0.2                          T                2.0  .27 Ml 1.9         4910271
ETSF  002.04 255.1 m E Sg      2012/04/04 10:26:44.6  -0.2                          T                1.4  .33 Ml 1.9         4910265

.
EVENT     273043
    Date      Time       Latitude Longitude    Depth    Ndef Nsta Gap    Mag1  N    Mag2  N    Mag3  N   Author         ID
       rms   OT_Error      Smajor Sminor Az        Err   mdist  Mdist     Err        Err        Err      Quality

2012/04/04 10:30:48.0     41.9687     .2964       .0 f     9    5 270  Ml 2.4  3                         bulletin    273063
                                                                                                         _ldg
      0.59   +-  0.88      16.3    6.2    1.99 +-  0.0    1.06   3.22   +-0.1                            m i km

SPAIN
Sta     Dist  EvAz     Phase      Date       Time     TRes  Azim  AzRes  Slow  SRes Def   SNR       Amp   Per   Mag1   Mag2       ID
EPF   001.06 001.7 m E Pg      2012/04/04 10:31:07.6  -0.6                          T                                        4901490
EPF   001.06 001.7 m E Sg      2012/04/04 10:31:23.5   1.3                          T                9.4  .27 Ml 2.4         4901486
ETSF  001.12 326.0 m E Pg      2012/04/04 10:31:09.8   0.4                          T                                        4901491
ETSF  001.12 326.0 m E Sg      2012/04/04 10:31:24.1  -0.1                          T                6.1  .25 Ml 2.3         4901487
SJPF  001.60 316.0 m E Pg      2012/04/04 10:31:18.0  -0.2                          T                                        4901488
SJPF  001.60 316.0 m E Sg      2012/04/04 10:31:39.2   0.1                          T                                        4901493
MTLF  001.97 045.3 m E Pg      2012/04/04 10:31:25.6   0.7                          T                                        4901489
MTLF  001.97 045.3 m E Sg      2012/04/04 10:31:49.7  -0.9                          T                7.6  .39 Ml 2.5         4901485
CAF   003.22 022.9 m E Pg      2012/04/04 10:31:47.7  -0.4                          T                                        4901492

.
EVENT     273044
    Date      Time       Latitude Longitude    Depth    Ndef Nsta Gap    Mag1  N    Mag2  N    Mag3  N   Author         ID
       rms   OT_Error      Smajor Sminor Az        Err   mdist  Mdist     Err        Err        Err      Quality

2012/04/04 11:23:24.7     45.9284    1.4062       .0 f    20    9 108  Ml 2.2  6  Md 2.1  2              bulletin    273064
                                                                                                         _ldg
      0.22   +-  0.06       1.4     .9  123.91 +-  0.0    0.63   1.84   +-0.3      +-0.1                 m i km

FRANCE
Sta     Dist  EvAz     Phase      Date       Time     TRes  Azim  AzRes  Slow  SRes Def   SNR       Amp   Per   Mag1   Mag2       ID
RJF   000.63 172.9 m E Pg      2012/04/04 11:23:37.0   0.1                          T                                        4901542
RJF   000.63 172.9 m E Sg      2012/04/04 11:23:45.3   0.0                          T                                Md 2.1  4901541
TCF   000.66 057.0 m E Pg      2012/04/04 11:23:37.5  -0.1                          T                                        4901515
TCF   000.66 057.0 m E Sg      2012/04/04 11:23:46.3  -0.2                          T                                Md 2.2  4901514
CAF   001.10 155.0 m E Pg      2012/04/04 11:23:45.4  -0.3                          T                                        4901502
CAF   001.10 155.0 m E Sg      2012/04/04 11:24:00.1  -0.1                          T                                        4901501
CAF   001.10 155.0 m E Sn      2012/04/04 11:24:01.2   0.0                          T                9.8  .31 Ml 2.4         4901538
LFF   001.09 205.6 m E Pg      2012/04/04 11:23:45.6   0.2                          T                                        4901503
LFF   001.09 205.6 m E Sn      2012/04/04 11:24:00.7  -0.2                          T               12.0  .38 Ml 2.2         4901504
BGF   001.18 057.3 m E Pg      2012/04/04 11:23:47.1   0.1                          T                                        4901511
BGF   001.18 057.3 m E Sg      2012/04/04 11:24:03.1   0.6                          T               12.1  .38 Ml 2.4         4901512
MFF   001.27 302.6 m E Pg      2012/04/04 11:23:48.6   0.0                          T                                        4901506
MFF   001.27 302.6 m E Sg      2012/04/04 11:24:05.2  -0.1                          T               10.8  .42 Ml 2.5         4901505
AVF   001.60 056.7 m E Pn      2012/04/04 11:23:53.0   0.4                          T                                        4901540
AVF   001.60 056.7 m E Pg      2012/04/04 11:23:54.7   0.0                          T                                        4901507
AVF   001.60 056.7 m E Sn      2012/04/04 11:24:13.0   0.1                          T                                        4901539
AVF   001.60 056.7 m E Sg      2012/04/04 11:24:15.2  -0.4                          T                1.0  .26 Ml 1.7         4901508
SSF   001.84 051.2 m E Pg      2012/04/04 11:23:58.9  -0.3                          T                                        4901513
SMF   001.83 066.1 m E Pg      2012/04/04 11:23:59.2   0.1                          T                                        4901510
SMF   001.83 066.1 m E Sg      2012/04/04 11:24:23.3   0.3                          T                1.5  .32 Ml 1.8         4901509

.
