EVENT     261215
    Date      Time       Latitude Longitude    Depth    Ndef Nsta Gap    Mag1  N    Mag2  N    Mag3  N   Author         ID
       rms   OT_Error      Smajor Sminor Az        Err   mdist  Mdist     Err        Err        Err      Quality

2011/07/08 12:56:05.1     41.9831    7.6491     25.0      15    7 230  Ml 2.6  8  Md 2.5  4              js067245    261215

      1.28   +-  0.62      15.6    5.8   11.01 +-  0.0    1.15   4.23   +-0.2      +-0.1                 m i ke

WESTERN MEDITERRANEAN SEA
Sta     Dist  EvAz     Phase      Date       Time     TRes  Azim  AzRes  Slow  SRes Def   SNR       Amp   Per   Mag1   Mag2       ID
PGF   001.15 060.1 m E Pn      2011/07/08 12:56:24.2   0.1                          T                                        4717700
PGF   001.15 060.1 m E Sn      2011/07/08 12:56:37.6  -0.4                          T               12.6  .17 Ml 3.0 Md 2.5  4717693
LMR   001.59 328.5 m E Pn      2011/07/08 12:56:29.6  -0.3                          T                                        4717699
LMR   001.59 328.5 m E Sn      2011/07/08 12:56:47.1  -1.2                          T                8.0  .18 Ml 2.7 Md 2.4  4717695
FRF   001.74 335.3 m E Pn      2011/07/08 12:56:31.8  -0.1                          T                                        4717698
FRF   001.74 335.3 m E Sn      2011/07/08 12:56:50.7  -1.2                          T                5.0  .16 Ml 2.7 Md 2.6  4717696
SBF   001.89 355.3 m E Pn      2011/07/08 12:56:34.1   0.1                          T                                        4717692
SBF   001.89 355.3 m E Sn      2011/07/08 12:56:54.4  -1.1                          T                4.4  .21 Ml 2.5 Md 2.5  4717694
SMRF  002.51 323.3 m E Pn      2011/07/08 12:56:43.6   1.2                          T                                        4717697
SMRF  002.51 323.3 m E Sn      2011/07/08 12:57:13.2   3.0                          T                2.0  .26 Ml 2.2         4723841
LASF  003.48 308.2 m E Pn      2011/07/08 12:56:55.3  -0.4                          T                                        4723844
LASF  003.48 308.2 m E Sn      2011/07/08 12:57:32.5  -1.0                          T                2.5  .28 Ml 2.5         4723843
MTLF  004.23 290.5 m E Sn      2011/07/08 12:57:50.8  -0.6                          T                2.7  .34 Ml 2.6         4723842

.
EVENT     261218
    Date      Time       Latitude Longitude    Depth    Ndef Nsta Gap    Mag1  N    Mag2  N    Mag3  N   Author         ID
       rms   OT_Error      Smajor Sminor Az        Err   mdist  Mdist     Err        Err        Err      Quality

2011/07/08 15:36:46.8     45.1936    5.9031      4.0 f    47   18 047  Ml 2.3 13  Md 2.2  6              js067245    261218

      0.53   +-  0.06       1.3    1.2   63.25 +-  0.0    0.12   3.04   +-0.2      +-0.2                 m i ke

FRANCE
Sta     Dist  EvAz     Phase      Date       Time     TRes  Azim  AzRes  Slow  SRes Def   SNR       Amp   Per   Mag1   Mag2       ID
ORIF  000.28 183.4 m E Pg      2011/07/08 15:36:51.7  -0.7                          T                                        4717718
ORIF  000.28 183.4 m E Sg      2011/07/08 15:36:55.1  -1.1                          T               37.6  .21        Md 2.3  4717712
LPL   000.67 060.8 m E Pg      2011/07/08 15:36:59.6  -0.2                          T                                        4717715
LPL   000.67 060.8 m E Sg      2011/07/08 15:37:08.4  -0.1                          T                4.7  .27                4723864
LPG   000.67 062.8 m E Pg      2011/07/08 15:36:59.7  -0.2                          T                                        4717719
LPG   000.67 062.8 m E Sg      2011/07/08 15:37:08.7   0.0                          T                5.6  .27                4723863
MBDF  000.77 126.8 m E Pg      2011/07/08 15:37:01.9   0.3                          T                                        4717717
MBDF  000.77 126.8 m E Sg      2011/07/08 15:37:11.8   0.1                          T               11.6  .23        Md 1.9  4717711
VIVF  000.94 249.3 m E Pg      2011/07/08 15:37:04.3  -0.1                          T                                        4717716
VIVF  000.94 249.3 m E Pn      2011/07/08 15:37:05.1  -0.1                          T                                        4723858
VIVF  000.94 249.3 m E Sg      2011/07/08 15:37:16.3  -0.3                          T               13.3  .20 Ml 2.6 Md 1.9  4717710
SMRF  001.24 191.0 m E Pg      2011/07/08 15:37:09.9  -0.1                          T                                        4723859
SMRF  001.24 191.0 m E P       2011/07/08 15:37:11.1   0.1                          T                                        4723860
SMRF  001.24 191.0 m E Sg      2011/07/08 15:37:26.2   0.1                          T                4.5  .34 Ml 2.1         4723862
CABF  001.42 005.1 m E Pg      2011/07/08 15:37:13.6   0.1                          T                                        4717706
CABF  001.42 005.1 m E Sg      2011/07/08 15:37:31.9   0.0                          T                3.6  .25 Ml 2.2         4717703
LASF  001.84 233.3 m E Pn      2011/07/08 15:37:17.4  -0.1                          T                                        4723856
LASF  001.84 233.3 m E Pg      2011/07/08 15:37:21.2   0.1                          T                                        4723857
LASF  001.84 233.3 m E Sg      2011/07/08 15:37:44.3  -0.4                          T                2.9  .28 Ml 2.2         4717707
SBF   001.72 140.0 m E Pg      2011/07/08 15:37:19.1   0.2                          T                                        4717713
SBF   001.72 140.0 m E Sg      2011/07/08 15:37:41.2   0.0                          T                5.5  .25 Ml 2.5         4723861
FRF   001.72 161.6 m E Pg      2011/07/08 15:37:19.4   0.7                          T                                        4717720
FRF   001.72 161.6 m E Sg      2011/07/08 15:37:41.1   0.1                          T                5.1  .27 Ml 2.4 Md 2.3  4717709
LMR   001.91 166.6 m E Pg      2011/07/08 15:37:22.3   0.0                          T                                        4717714
LMR   001.91 166.6 m E Sg      2011/07/08 15:37:47.0   0.1                          T                2.7  .23 Ml 2.3 Md 2.4  4717708
SMF   002.04 316.0 m E Pg      2011/07/08 15:37:25.2   0.3                          T                                        4717705
SMF   002.04 316.0 m E Sg      2011/07/08 15:37:50.6  -0.5                          T                4.3  .23 Ml 2.5         4717704
CAF   002.73 265.7 m E Pn      2011/07/08 15:37:31.1   1.4                          T                                        4723855
LOR   002.51 326.4 m E Pg      2011/07/08 15:37:33.0  -0.5                          T                                        4723853
LOR   002.51 326.4 m E Sg      2011/07/08 15:38:06.1   0.3                          T                2.0  .22 Ml 2.3         4723867
HAU   002.83 006.1 m E Pg      2011/07/08 15:37:39.1  -0.3                          T                                        4723854
HAU   002.83 006.1 m E Sg      2011/07/08 15:38:15.1  -0.6                          T                4.4  .28 Ml 2.4         4717701
AVF   002.39 312.8 m E Sg      2011/07/08 15:38:01.6  -0.4                          T                1.6  .23 Ml 2.2         4723865
HINF  002.70 013.7 m E Sg      2011/07/08 15:38:11.2  -0.6                          T                2.9  .27 Ml 2.4         4717702
THEF  003.04 001.1 m E Sg      2011/07/08 15:38:21.8  -0.3                          T                2.7  .19 Ml 2.6         4723866

.
EVENT     261219
    Date      Time       Latitude Longitude    Depth    Ndef Nsta Gap    Mag1  N    Mag2  N    Mag3  N   Author         ID
       rms   OT_Error      Smajor Sminor Az        Err   mdist  Mdist     Err        Err        Err      Quality

2011/07/08 16:40:28.8     43.5806    6.3098       .0 f    11    5 157  Ml 2.1  1  Md 2.1  3              js067245    261219

      0.24   +-  0.08       2.6    1.4   32.49 +-  0.0    0.25   1.37   +-         +-0.1                 m i km

NEAR SOUTH COAST OF FRANCE
Sta     Dist  EvAz     Phase      Date       Time     TRes  Azim  AzRes  Slow  SRes Def   SNR       Amp   Per   Mag1   Mag2       ID
FRF   000.25 094.5 m E Pg      2011/07/08 16:40:33.7  -0.2                          T                                        4717727
FRF   000.25 094.5 m E Sg      2011/07/08 16:40:37.9   0.5                          T               12.5  .27        Md 2.0  4717725
LMR   000.29 149.4 m E Pg      2011/07/08 16:40:34.4  -0.2                          T                                        4723883
LMR   000.29 149.4 m E Sg      2011/07/08 16:40:39.2   0.6                          T                4.2  .19        Md 2.1  4717722
SMRF  000.66 306.9 m E Pg      2011/07/08 16:40:41.5  -0.1                          T                                        4717728
SMRF  000.66 306.9 m E Pn      2011/07/08 16:40:44.1   0.1                          T                                        4717729
SMRF  000.66 306.9 m E Sn      2011/07/08 16:40:55.1   0.4                          T                1.2  .22                4717723
SBF   000.86 070.5 m E Pg      2011/07/08 16:40:45.2  -0.1                          T                                        4717726
SBF   000.86 070.5 m E Pn      2011/07/08 16:40:46.7  -0.1                          T                                        4717730
SBF   000.86 070.5 m E Sn      2011/07/08 16:40:59.9   0.4                          T                3.6  .15 Ml 2.1 Md 2.1  4717721
ORIF  001.37 347.1 m E Pg      2011/07/08 16:40:54.8   0.0                          T                                        4723882

.
EVENT     261221
    Date      Time       Latitude Longitude    Depth    Ndef Nsta Gap    Mag1  N    Mag2  N    Mag3  N   Author         ID
       rms   OT_Error      Smajor Sminor Az        Err   mdist  Mdist     Err        Err        Err      Quality

2011/07/08 17:27:34.7     41.9780    7.6899     30.0      47   18 222                                    js067245    261221

                                               +-         1.13   6.17                                    m i ke

WESTERN MEDITERRANEAN SEA
Sta     Dist  EvAz     Phase      Date       Time     TRes  Azim  AzRes  Slow  SRes Def   SNR       Amp   Per   Mag1   Mag2       ID
PGF   001.13 059.2 m E Pn      2011/07/08 17:27:53.4  -0.1                          T                                        4717761
PGF   001.13 059.2 m E Sn      2011/07/08 17:28:07.4   0.1                          T              165.1  .21                4717743
LMR   001.61 327.7 m E Pn      2011/07/08 17:27:59.0  -1.0                          T                                        4717760
LMR   001.61 327.7 m E Sn      2011/07/08 17:28:16.3  -2.3                          T              128.0  .31                4717741
FRF   001.76 334.5 m E Pn      2011/07/08 17:28:01.1  -0.9                          T                                        4717758
FRF   001.76 334.5 m E Sn      2011/07/08 17:28:19.6  -2.5                          T               33.1  .20                4717740
SBF   001.89 354.4 m E Pn      2011/07/08 17:28:02.9  -1.0                          T                                        4717759
SBF   001.89 354.4 m E Sn      2011/07/08 17:28:23.2  -2.2                          T               29.0  .20                4717742
SMRF  002.53 322.9 m E Pn      2011/07/08 17:28:13.8   1.3                          T                                        4717757
SMRF  002.53 322.9 m E Sn      2011/07/08 17:28:41.1   0.6                          T               14.9  .26                4717739
MBDF  002.83 346.6 m E Pn      2011/07/08 17:28:18.0   1.4                          T                                        4717753
MBDF  002.83 346.6 m E Sn      2011/07/08 17:28:47.9   0.1                          T               12.1  .26                4723889
ORIF  003.22 336.5 m E Pn      2011/07/08 17:28:22.9   1.0                          T                                        4717754
ORIF  003.22 336.5 m E Sn      2011/07/08 17:28:57.2   0.2                          T                6.0  .33                4717737
LASF  003.51 308.0 m E Pn      2011/07/08 17:28:25.5  -0.2                          T                                        4717751
LASF  003.51 308.0 m E Sn      2011/07/08 17:29:02.1  -1.6                          T               14.4  .26                4717736
VIVF  003.62 323.6 m E Pn      2011/07/08 17:28:27.0  -0.3                          T                                        4717752
LPG   003.58 349.4 m E P       2011/07/08 17:28:30.7   0.7                          T                                        4717756
LPG   003.58 349.4 m E Sn      2011/07/08 17:29:10.0   4.1                          T                5.9  .37                4723888
LPL   003.60 349.2 m E P       2011/07/08 17:28:30.8   0.6                          T                                        4717755
LPL   003.60 349.2 m E Sn      2011/07/08 17:29:09.7   3.4                          T                2.0  .27                4717738
MTLF  004.26 290.5 m E Pn      2011/07/08 17:28:35.1  -0.9                          T                                        4717750
MTLF  004.26 290.5 m E Sn      2011/07/08 17:29:20.6  -1.0                          T               12.3  .29                4717735
CABF  004.77 346.6 m E Pn      2011/07/08 17:28:44.9   1.8                          T                                        4717745
CAF   005.04 307.6 m E Pn      2011/07/08 17:28:46.9   0.3                          T                                        4717748
EPF   005.53 283.4 m E Pn      2011/07/08 17:28:53.0  -0.4                          T                                        4717749
EPF   005.53 283.4 m E Sn      2011/07/08 17:29:54.2   2.0                          T                7.8  .39                4717734
TCF   005.84 319.4 m E Pn      2011/07/08 17:28:57.6   0.1                          T                                        4717744
LFF   005.86 302.7 m E Pn      2011/07/08 17:28:57.8   0.1                          T                                        4717747
ETSF  006.17 281.3 m E Pn      2011/07/08 17:29:02.1   0.1                          T                                        4723890
ETSF  006.17 281.3 m E Sn      2011/07/08 17:30:09.7   2.2                          T                2.2  .24                4717733

.
EVENT     261229
    Date      Time       Latitude Longitude    Depth    Ndef Nsta Gap    Mag1  N    Mag2  N    Mag3  N   Author         ID
       rms   OT_Error      Smajor Sminor Az        Err   mdist  Mdist     Err        Err        Err      Quality

2011/07/09 00:30:52.0     46.8545    6.9209      2.0 f     9    6 238  Ml 1.6  5  Md 1.7  3              js067245    261229

      0.24   +-  0.25       5.5    1.7  115.53 +-  0.0    0.62   1.88   +-0.3      +-0.1                 m i ke

SWITZERLAND
Sta     Dist  EvAz     Phase      Date       Time     TRes  Azim  AzRes  Slow  SRes Def   SNR       Amp   Per   Mag1   Mag2       ID
CABF  000.62 247.3 m E Pg      2011/07/09 00:31:03.7  -0.1                          T                                        4718387
CABF  000.62 247.3 m E Sg      2011/07/09 00:31:12.6   0.5                          T                 .8  .21        Md 1.8  4718388
HINF  000.96 357.3 m E Pg      2011/07/09 00:31:10.2   0.1                          T                                        4718389
HINF  000.96 357.3 m E Sg      2011/07/09 00:31:23.1   0.5                          T                3.0  .18 Ml 2.0 Md 1.6  4718390
HAU   001.22 341.6 m E Pg      2011/07/09 00:31:14.6  -0.1                          T                                        4718391
HAU   001.22 341.6 m E Sg      2011/07/09 00:31:30.4   0.0                          T                2.6  .29 Ml 1.6 Md 1.7  4718392
THEF  001.51 335.8 m E Sg      2011/07/09 00:31:39.5  -0.1                          T                1.1  .20 Ml 1.8         4723893
CDF   001.58 008.6 m E Sg      2011/07/09 00:31:41.7  -0.1                          T                 .5  .19 Ml 1.6         4723892
PAGF  001.88 335.0 m E Sg      2011/07/09 00:31:51.0  -0.2                          T                 .2  .28 Ml 1.1         4723891

.
EVENT     261225
    Date      Time       Latitude Longitude    Depth    Ndef Nsta Gap    Mag1  N    Mag2  N    Mag3  N   Author         ID
       rms   OT_Error      Smajor Sminor Az        Err   mdist  Mdist     Err        Err        Err      Quality

2011/07/09 02:27:16.0     45.3394   14.8502      2.0      37   16 119  Ml 2.9  7                         js067245    261225

      1.06   +-  0.23       6.2    3.6  154.26 +-  0.0    0.33   8.13   +-0.3                            m i ke

NORTHWESTERN BALKAN PEN.
Sta     Dist  EvAz     Phase      Date       Time     TRes  Azim  AzRes  Slow  SRes Def   SNR       Amp   Per   Mag1   Mag2       ID
SBF   005.50 257.0 m E Pn      2011/07/09 02:28:36.7   0.0                          T                                        4723899
SBF   005.50 257.0 m E Sn      2011/07/09 02:29:36.9   0.1                          T                 .7  .15 Ml 2.7         4718436
MBDF  005.76 266.8 m E Pn      2011/07/09 02:28:39.8  -0.6                          T                                        4723900
MBDF  005.76 266.8 m E Sn      2011/07/09 02:29:43.0  -0.2                          T                2.7  .46 Ml 2.8         4723901
LPG   005.70 274.5 m E Pn      2011/07/09 02:28:40.3   0.5                          T                                        4718447
LPG   005.70 274.5 m E Sn      2011/07/09 02:29:42.4   0.4                          T                 .6  .15 Ml 2.6         4718438
LPL   005.72 274.7 m E Pn      2011/07/09 02:28:40.9   1.0                          T                                        4718448
CDF   006.03 303.3 m E Pn      2011/07/09 02:28:43.9  -0.2                          T                                        4723895
LMR   006.31 254.4 m E Pn      2011/07/09 02:28:45.5  -2.2                          T                                        4718446
CABF  006.24 284.9 m E Pn      2011/07/09 02:28:46.1  -0.7                          T                                        4718444
ORIF  006.36 269.4 m E Pn      2011/07/09 02:28:48.8   0.2                          T                                        4718449
ORIF  006.36 269.4 m E Sn      2011/07/09 02:29:58.8   1.3                          T                6.3  .50 Ml 3.3         4718441
HAU   006.43 297.5 m E Pn      2011/07/09 02:28:49.7   0.3                          T                                        4718445
SMRF  006.75 261.6 m E Pn      2011/07/09 02:28:53.3  -0.6                          T                                        4723898
VIVF  007.22 269.8 m E Pn      2011/07/09 02:28:59.1  -1.1                          T                                        4723897
SMF   007.78 283.6 m E Pn      2011/07/09 02:29:08.7   0.9                          T                                        4718442
SMF   007.78 283.6 m E Sn      2011/07/09 02:30:31.5   0.2                          T                2.2  .34 Ml 3.2         4718439
LOR   007.85 288.1 m E Pn      2011/07/09 02:29:09.1   0.3 115.0  14.8              T                                        4723896
AVF   008.13 284.4 m E Pn      2011/07/09 02:29:13.1   0.6                          T                                        4718443
HINF  006.04 297.1 m E Sn      2011/07/09 02:29:50.6   0.7                          T                3.4  .42 Ml 3.0         4718440
FRF   006.14 256.1 m E Sn      2011/07/09 02:29:52.0   0.0                          T                 .9  .24 Ml 2.7         4718437

.
