EVENT     270198
    Date      Time       Latitude Longitude    Depth    Ndef Nsta Gap    Mag1  N    Mag2  N    Mag3  N   Author         ID
       rms   OT_Error      Smajor Sminor Az        Err   mdist  Mdist     Err        Err        Err      Quality

2012/02/16 14:24:08.3     44.3045    7.4297       .0 f    26    8 085  Ml 2.0  6  Md 2.0  1              js067245    270218

      0.30   +-  0.05       1.1     .9   62.69 +-  0.0    0.08   1.37   +-0.3      +-                    m i km

NORTHERN ITALY
Sta     Dist  EvAz     Phase      Date       Time     TRes  Azim  AzRes  Slow  SRes Def   SNR       Amp   Per   Mag1   Mag2       ID
SBF   000.44 179.5 m E Pg      2012/02/16 14:24:17.2   0.1                          T                                        4839607
SBF   000.44 179.5 m E Sg      2012/02/16 14:24:23.0  -0.2                          T               15.8  .34        Md 2.0  4839608
MBDF  000.63 312.1 m E Pg      2012/02/16 14:24:20.9   0.1                          T                                        4839603
MBDF  000.63 312.1 m E Sg      2012/02/16 14:24:29.7   0.5                          T               13.6  .43                4839604
FRF   000.93 217.5 m E Pg      2012/02/16 14:24:26.2   0.1                          T                                        4839609
FRF   000.93 217.5 m E Sg      2012/02/16 14:24:38.5   0.0                          T                4.4  .25 Ml 2.1         4839610
LMR   001.18 214.8 m E Pg      2012/02/16 14:24:30.6   0.0                          T                                        4839605
LMR   001.18 214.8 m E Sn      2012/02/16 14:24:46.5   0.0                          T               13.4  .32 Ml 2.5         4839606
ORIF  001.27 299.5 m E Sg      2012/02/16 14:24:49.1   0.2                          T                2.8  .36 Ml 1.8         4839614
LPG   001.29 338.2 m E Sn      2012/02/16 14:24:49.4  -0.1                          T                1.6  .22 Ml 1.8         4839612
LPL   001.31 338.0 m E Sg      2012/02/16 14:24:50.5   0.1                          T                1.9  .22 Ml 1.9         4839613
SMRF  001.37 256.8 m E Sg      2012/02/16 14:24:52.6   0.3                          T                3.0  .29 Ml 2.0         4839611

.
EVENT     270217
    Date      Time       Latitude Longitude    Depth    Ndef Nsta Gap    Mag1  N    Mag2  N    Mag3  N   Author         ID
       rms   OT_Error      Smajor Sminor Az        Err   mdist  Mdist     Err        Err        Err      Quality

2012/02/16 18:14:45.4     48.1400   -3.0803      6.0 f    16    6 132  Ml 2.2  3  Md 2.1  3              js067245    270237

      1.12   +-  0.20       4.3    3.2  169.72 +-  0.0    0.23   2.02   +-0.1      +-0.1                 m i ke

FRANCE
Sta     Dist  EvAz     Phase      Date       Time     TRes  Azim  AzRes  Slow  SRes Def   SNR       Amp   Per   Mag1   Mag2       ID
ROSF  000.24 326.7 m E Pg      2012/02/16 18:14:50.3   0.1                          T                                        4839137
ROSF  000.24 326.7 m E Sg      2012/02/16 18:14:53.5   0.0                          T               11.4  .26        Md 2.2  4839138
QUIF  000.23 194.4 m E Pg      2012/02/16 18:14:50.4   0.3                          T                                        4839133
QUIF  000.23 194.4 m E Sg      2012/02/16 18:14:53.7   0.4                          T               27.8  .18        Md 2.0  4839134
SGMF  000.37 071.7 m E Pg      2012/02/16 18:14:52.8   0.2                          T                                        4839135
SGMF  000.37 071.7 m E Sg      2012/02/16 18:14:57.5   0.0                          T               14.4  .20        Md 2.0  4839136
GRR   001.51 079.7 m E Pg      2012/02/16 18:15:13.3  -0.2                          T                                        4839143
GRR   001.51 079.7 m E Sg      2012/02/16 18:15:32.3  -0.6                          T                4.9  .18 Ml 2.3         4839144
FLN   001.84 069.2 m E Pn      2012/02/16 18:15:14.7  -1.0                          T                                        4839140
FLN   001.84 069.2 m E Pg      2012/02/16 18:15:19.6  -0.1                          T                                        4839139
FLN   001.84 069.2 m E Sg      2012/02/16 18:15:42.2  -1.1                          T                2.9  .20 Ml 2.2         4839146
LDF   002.02 075.9 m E Pn      2012/02/16 18:15:19.5   1.1                          T                                        4839142
LDF   002.02 075.9 m E Pg      2012/02/16 18:15:23.1   0.1                          T                                        4839141
LDF   002.02 075.9 m E Sg      2012/02/16 18:15:48.1  -1.0                          T                2.1  .23 Ml 2.1         4839145

.
EVENT     270218
    Date      Time       Latitude Longitude    Depth    Ndef Nsta Gap    Mag1  N    Mag2  N    Mag3  N   Author         ID
       rms   OT_Error      Smajor Sminor Az        Err   mdist  Mdist     Err        Err        Err      Quality

2012/02/16 18:19:16.8     43.0330    -.2262      3.0 f    51    6 098  Ml 2.3  4  Md 2.4  2              js067245    270238

      0.44   +-  0.06       1.3    1.1  168.19 +-  0.0    0.22   3.15   +-0.2      +-0.2                 m i ke

PYRENEES
Sta     Dist  EvAz     Phase      Date       Time     TRes  Azim  AzRes  Slow  SRes Def   SNR       Amp   Per   Mag1   Mag2       ID
EPF   000.42 090.2 m E Pg      2012/02/16 18:19:24.4  -0.4                          T                                        4839189
EPF   000.42 090.2 m E Sg      2012/02/16 18:19:29.9  -0.4                          T               27.0  .18        Md 2.6  4839190
SJPF  000.74 276.6 m E Pg      2012/02/16 18:19:30.7   0.0                          T                                        4839187
SJPF  000.74 276.6 m E Sg      2012/02/16 18:19:41.2   0.9                          T               11.9  .22        Md 2.3  4839188
LFF   002.03 019.8 m E Pn      2012/02/16 18:19:49.9  -0.1                          T                                        4839203
LFF   002.03 019.8 m E Pg      2012/02/16 18:19:54.5   0.0                          T                                        4839202
LFF   002.03 019.8 m E Sn      2012/02/16 18:20:14.2  -0.2                          T                                        4839194
LFF   002.03 019.8 m E Sg      2012/02/16 18:20:20.1  -0.5                          T                7.9  .26 Ml 2.5         4839193
CAF   002.51 040.4 m E Pn      2012/02/16 18:19:56.7   0.0                          T                                        4839201
CAF   002.51 040.4 m E Pg      2012/02/16 18:20:03.3  -0.1                          T                                        4839200
CAF   002.51 040.4 m E Sn      2012/02/16 18:20:26.1   0.0                          T                                        4839196
CAF   002.51 040.4 m E Sg      2012/02/16 18:20:35.7  -0.1                          T                1.8  .15 Ml 2.4         4839195
RJF   002.59 028.3 m E Pn      2012/02/16 18:19:58.1   0.3                          T                                        4839205
RJF   002.59 028.3 m E Pg      2012/02/16 18:20:04.7  -0.2                          T                                        4839204
RJF   002.59 028.3 m E Sn      2012/02/16 18:20:28.0   0.1                          T                                        4839192
RJF   002.59 028.3 m E Sg      2012/02/16 18:20:38.3   0.1                          T                2.8  .22 Ml 2.1         4839191
LASF  003.15 069.3 m E Pn      2012/02/16 18:20:05.5   0.2                          T                                        4839199
LASF  003.15 069.3 m E Pg      2012/02/16 18:20:15.0  -0.1                          T                                        4839198
LASF  003.15 069.3 m E Sg      2012/02/16 18:20:55.6   0.1                          T                1.3  .24 Ml 2.2         4839197

.
EVENT     270219
    Date      Time       Latitude Longitude    Depth    Ndef Nsta Gap    Mag1  N    Mag2  N    Mag3  N   Author         ID
       rms   OT_Error      Smajor Sminor Az        Err   mdist  Mdist     Err        Err        Err      Quality

2012/02/16 18:25:10.4     42.0985    9.3940      2.0       8    4 334  Ml 1.7  3  Md 1.7  1              js067245    270239

      0.73   +-  0.75      11.9    9.2  127.40 +-  0.0    0.54   2.49   +-0.4      +-                    m i ke

CORSICA, FRANCE
Sta     Dist  EvAz     Phase      Date       Time     TRes  Azim  AzRes  Slow  SRes Def   SNR       Amp   Per   Mag1   Mag2       ID
PGF   000.54 327.1 m E Pg      2012/02/16 18:25:20.2  -0.5                          T                                        4839221
PGF   000.54 327.1 m E Sg      2012/02/16 18:25:27.4  -0.4                          T               17.2  .22        Md 1.7  4839222
LMR   002.46 301.1 m E Pn      2012/02/16 18:25:49.9   0.2                          T                                        4839220
LMR   002.46 301.1 m E Sn      2012/02/16 18:26:19.3   0.8                          T                 .4  .23 Ml 1.6         4839216
SBF   002.28 321.5 m E Sn      2012/02/16 18:26:14.1  -0.1                          T                1.5  .21 Ml 2.1         4839217
FRF   002.49 306.8 m E Sn      2012/02/16 18:26:20.6   1.3                          T                 .2  .18 Ml 1.4         4839215

.
EVENT     270222
    Date      Time       Latitude Longitude    Depth    Ndef Nsta Gap    Mag1  N    Mag2  N    Mag3  N   Author         ID
       rms   OT_Error      Smajor Sminor Az        Err   mdist  Mdist     Err        Err        Err      Quality

2012/02/16 18:31:41.4     42.1364    9.4394      2.0       9    4 338  Ml 1.8  3  Md 1.8  1              js067245    270242

      0.49   +-  0.48       8.1    6.7  109.72 +-  0.0    0.53   2.50   +-0.2      +-                    m i ke

CORSICA, FRANCE
Sta     Dist  EvAz     Phase      Date       Time     TRes  Azim  AzRes  Slow  SRes Def   SNR       Amp   Per   Mag1   Mag2       ID
PGF   000.53 321.8 m E Pg      2012/02/16 18:31:51.1  -0.4                          T                                        4839214
PGF   000.53 321.8 m E Sg      2012/02/16 18:31:58.4  -0.1                          T               21.7  .20        Md 1.8  4839213
LMR   002.47 300.0 m E Pn      2012/02/16 18:32:20.9   0.1                          T                                        4839212
LMR   002.47 300.0 m E Sn      2012/02/16 18:32:50.2   0.4                          T                 .8  .22 Ml 1.9         4839207
FRF   002.50 305.7 m E Pn      2012/02/16 18:32:21.5   0.3                          T                                        4839209
FRF   002.50 305.7 m E Sn      2012/02/16 18:32:51.6   1.1                          T                 .4  .23 Ml 1.6         4839206
SBF   002.27 320.2 m E Sn      2012/02/16 18:32:45.0   0.0                          T                 .7  .18 Ml 1.9         4839208

.
EVENT     270223
    Date      Time       Latitude Longitude    Depth    Ndef Nsta Gap    Mag1  N    Mag2  N    Mag3  N   Author         ID
       rms   OT_Error      Smajor Sminor Az        Err   mdist  Mdist     Err        Err        Err      Quality

2012/02/16 20:23:03.8     41.5759    2.5999      6.0 f    42    7 205  Ml 2.2  7                         js067245    270243

      0.48   +-  0.15       2.4    1.3  145.94 +-  0.0    0.22   3.81   +-0.2                            m i ke

SPAIN
Sta     Dist  EvAz     Phase      Date       Time     TRes  Azim  AzRes  Slow  SRes Def   SNR       Amp   Per   Mag1   Mag2       ID
EPF   002.22 311.7 m E P       2012/02/16 20:23:41.6  -0.2                          T                                        4839284
EPF   002.22 311.7 m E Pg      2012/02/16 20:23:45.0  -0.1                          T                                        4839283
EPF   002.22 311.7 m E Sg      2012/02/16 20:24:13.5  -0.1                          T                5.1  .25 Ml 2.6         4839274
LASF  002.66 019.9 m E Pg      2012/02/16 20:23:52.7  -0.5                          T                                        4839280
LASF  002.66 019.9 m E Sg      2012/02/16 20:24:27.1  -0.4                          T                1.2  .25 Ml 2.0         4839273
SJPF  003.22 299.7 m E P       2012/02/16 20:23:55.5  -0.7                          T                                        4839281
SJPF  003.22 299.7 m E Sg      2012/02/16 20:24:44.6  -0.4                          T                1.0  .24 Ml 2.1         4839275
CAF   003.37 353.5 m E Pg      2012/02/16 20:24:06.2  -0.1                          T                                        4839282
CAF   003.37 353.5 m E Sg      2012/02/16 20:24:49.4  -0.2                          T                1.5  .28 Ml 2.2         4839276
LFF   003.63 338.6 m E Pg      2012/02/16 20:24:10.9   0.0                          T                                        4839279
LFF   003.63 338.6 m E Sg      2012/02/16 20:24:57.6   0.1                          T                1.5  .26 Ml 2.2         4839277
VIVF  003.61 024.1 m E Sg      2012/02/16 20:24:57.0  -0.1                          T                1.4  .30 Ml 2.2         4839272
RJF   003.81 348.4 m E Sg      2012/02/16 20:25:03.2   0.0                          T                1.4  .28 Ml 2.0         4839278

.
EVENT     270224
    Date      Time       Latitude Longitude    Depth    Ndef Nsta Gap    Mag1  N    Mag2  N    Mag3  N   Author         ID
       rms   OT_Error      Smajor Sminor Az        Err   mdist  Mdist     Err        Err        Err      Quality

2012/02/16 21:12:17.9     42.1687    9.5542      2.0       7    4 340  Ml 1.7  3  Md 1.9  1              js067245    270244

      0.43   +-  0.46       6.8    4.7  135.20 +-  0.0    0.56   2.55   +-0.5      +-                    m i ke

CORSICA, FRANCE
Sta     Dist  EvAz     Phase      Date       Time     TRes  Azim  AzRes  Slow  SRes Def   SNR       Amp   Per   Mag1   Mag2       ID
PGF   000.56 312.9 m E Pg      2012/02/16 21:12:28.6  -0.1                          T                                        4839290
PGF   000.56 312.9 m E Sg      2012/02/16 21:12:35.9  -0.2                          T               20.1  .22        Md 1.9  4839291
SBF   002.30 318.2 m E Sn      2012/02/16 21:13:22.5   0.2                          T                2.0  .26 Ml 2.2         4839289
LMR   002.53 298.5 m E Sn      2012/02/16 21:13:27.7   0.0                          T                 .1  .19 Ml 1.1         4839288
FRF   002.55 304.0 m E Sn      2012/02/16 21:13:28.9   0.6                          T                 .6  .23 Ml 1.8         4839287

.
EVENT     270225
    Date      Time       Latitude Longitude    Depth    Ndef Nsta Gap    Mag1  N    Mag2  N    Mag3  N   Author         ID
       rms   OT_Error      Smajor Sminor Az        Err   mdist  Mdist     Err        Err        Err      Quality

2012/02/16 21:58:50.9     42.1842    9.5642      2.0       8    4 340  Ml 2.0  3  Md 1.9  1              js067245    270245

      1.32   +-  0.58       9.1    7.9  108.27 +-  0.0    0.55   2.55   +-0.2      +-                    m i ke

CORSICA, FRANCE
Sta     Dist  EvAz     Phase      Date       Time     TRes  Azim  AzRes  Slow  SRes Def   SNR       Amp   Per   Mag1   Mag2       ID
PGF   000.55 311.2 m E Pg      2012/02/16 21:59:01.5  -0.1                          T                                        4839295
PGF   000.55 311.2 m E Sg      2012/02/16 21:59:08.9   0.0                          T               64.6  .20        Md 1.9  4839296
LMR   002.53 298.1 m E Pn      2012/02/16 21:59:31.3   0.1                          T                                        4839294
LMR   002.53 298.1 m E Sn      2012/02/16 22:00:00.4  -0.2                          T                 .6  .20 Ml 1.8         4839298
SBF   002.29 317.8 m E Sn      2012/02/16 21:59:55.3   0.1                          T                2.4  .26 Ml 2.2         4839297
FRF   002.55 303.7 m E Sn      2012/02/16 22:00:01.7   0.5                          T                 .7  .19 Ml 2.0         4839299

.
EVENT     270226
    Date      Time       Latitude Longitude    Depth    Ndef Nsta Gap    Mag1  N    Mag2  N    Mag3  N   Author         ID
       rms   OT_Error      Smajor Sminor Az        Err   mdist  Mdist     Err        Err        Err      Quality

2012/02/17 00:00:44.3     48.1431   -3.0731      6.0 f    14    6 129  Ml 1.3  3  Md 1.3  3              js067245    270246

      1.08   +-  0.14       2.9    2.1  168.56 +-  0.0    0.23   2.02   +-0.3      +-0.2                 m i ke

FRANCE
Sta     Dist  EvAz     Phase      Date       Time     TRes  Azim  AzRes  Slow  SRes Def   SNR       Amp   Per   Mag1   Mag2       ID
ROSF  000.24 325.4 m E Pg      2012/02/17 00:00:49.2   0.1                          T                                        4839172
ROSF  000.24 325.4 m E Sg      2012/02/17 00:00:52.4   0.0                          T                2.5  .18        Md 1.4  4839167
QUIF  000.23 195.4 m E Pg      2012/02/17 00:00:49.2   0.2                          T                                        4839170
QUIF  000.23 195.4 m E Sg      2012/02/17 00:00:52.6   0.3                          T                4.8  .20        Md 1.5  4839169
SGMF  000.36 072.0 m E Pg      2012/02/17 00:00:51.6   0.2                          T                                        4839171
SGMF  000.36 072.0 m E Sg      2012/02/17 00:00:56.4   0.1                          T                3.2  .21        Md 1.1  4839168
GRR   001.50 079.8 m E Pg      2012/02/17 00:01:12.1  -0.1                          T                                        4839175
GRR   001.50 079.8 m E Sg      2012/02/17 00:01:31.2  -0.4                          T                1.2  .20 Ml 1.7         4839176
FLN   001.83 069.3 m E Pg      2012/02/17 00:01:18.4   0.0                          T                                        4839173
FLN   001.83 069.3 m E Sg      2012/02/17 00:01:41.1  -1.0                          T                 .3  .18 Ml 1.2         4839178
LDF   002.02 076.0 m E Pg      2012/02/17 00:01:22.0   0.2                          T                                        4839174
LDF   002.02 076.0 m E Sg      2012/02/17 00:01:46.9  -0.9                          T                 .2  .17 Ml 1.1         4839177

.
