EVENT     288790
    Date      Time       Latitude Longitude    Depth    Ndef Nsta Gap    Mag1  N    Mag2  N    Mag3  N   Author         ID
       rms   OT_Error      Smajor Sminor Az        Err   mdist  Mdist     Err        Err        Err      Quality

2012/12/20 02:31:17.6     49.2654    6.9345      1.0 f    20   10 222  Ml 1.8  8  Md 1.9  2              bulletin    288890
                                                                                                         _ldg
      0.26   +-  0.10       2.3    1.1   54.72 +-  0.0    0.88   3.18   +-0.2      +-0.2                 m i sr

GERMANY
Sta     Dist  EvAz     Phase      Date       Time     TRes  Azim  AzRes  Slow  SRes Def   SNR       Amp   Per   Mag1   Mag2       ID
CDF   000.88 165.1 m E Pg      2012/12/20 02:31:34.2  -0.1                          T                                        5162446
CDF   000.88 165.1 m E Pn      2012/12/20 02:31:35.4  -0.2                          T                                        5143476
CDF   000.88 165.1 m E Sg      2012/12/20 02:31:45.4  -0.4                          T                1.4  .20 Ml 1.7 Md 1.7  5143473
PAGF  001.07 228.8 m E Pn      2012/12/20 02:31:38.1   0.1  46.7  -1.1              T                                        5143477
PAGF  001.07 228.8 m E Sg      2012/12/20 02:31:51.3  -0.1  49.9  2.0               T                1.5  .18 Ml 1.8 Md 2.1  5143472
HAU   001.32 197.4 m E Pn      2012/12/20 02:31:41.5   0.0                          T                                        5143475
HAU   001.32 197.4 m E Sn      2012/12/20 02:31:58.2  -0.5                          T                1.3  .19 Ml 1.6         5143471
MEZF  001.46 239.1 m E Pn      2012/12/20 02:31:43.2  -0.2                          T                                        5160596
MEZF  001.46 239.1 m E Sn      2012/12/20 02:32:01.7  -0.3                          T                1.1  .21 Ml 1.8         5160595
HINF  001.45 182.2 m E Pn      2012/12/20 02:31:43.3   0.0                          T                                        5143474
HINF  001.45 182.2 m E Pg      2012/12/20 02:31:44.9   0.2                          T                                        5162445
HINF  001.45 182.2 m E Sn      2012/12/20 02:32:01.9   0.1                          T                1.0  .21 Ml 1.7         5143470
GIVF  001.61 302.2 m E Pn      2012/12/20 02:31:45.4   0.1                          T                                        5160592
GIVF  001.61 302.2 m E Sn      2012/12/20 02:32:04.9  -0.6                          T                2.2  .20 Ml 2.1         5160591
SFTF  001.64 230.5 m E Pn      2012/12/20 02:31:46.0   0.1                          T                                        5143480
SFTF  001.64 230.5 m E Sg      2012/12/20 02:32:09.3  -0.1  50.3  1.2               T                1.8  .20 Ml 2.1         5143469
BAIF  001.94 295.2 m E Pn      2012/12/20 02:31:49.9   0.0                          T                                        5160594
BAIF  001.94 295.2 m E Sn      2012/12/20 02:32:13.4  -0.1                          T                 .6  .27 Ml 1.5         5160593
LOR   002.87 227.0 m E Pn      2012/12/20 02:32:02.7   0.2                          T                                        5160589
SSF   003.18 227.4 m E Pn      2012/12/20 02:32:07.0   0.2                          T                                        5160590

.
EVENT     288819
    Date      Time       Latitude Longitude    Depth    Ndef Nsta Gap    Mag1  N    Mag2  N    Mag3  N   Author         ID
       rms   OT_Error      Smajor Sminor Az        Err   mdist  Mdist     Err        Err        Err      Quality

2012/12/20 10:18:23.3     44.7160    4.6464       .0 f    36   20 084  Ml 2.7 19  Md 2.7  2              bulletin    288919
                                                                                                         _ldg
      0.23   +-  0.04        .8     .7  174.12 +-  0.0    0.14   3.54   +-0.2      +-0.0                 m i km

FRANCE
Sta     Dist  EvAz     Phase      Date       Time     TRes  Azim  AzRes  Slow  SRes Def   SNR       Amp   Per   Mag1   Mag2       ID
VIVF  000.14 007.6 m E Pg      2012/12/20 10:18:26.1  -0.5                          T                                        5143737
VIVF  000.14 007.6 m E Sg      2012/12/20 10:18:28.8   0.1                          T              887.1  .74        Md 2.7  5143736
LASF  000.85 221.8 m E Pg      2012/12/20 10:18:39.7   0.0                          T                                        5162631
LASF  000.85 221.8 m E Pn      2012/12/20 10:18:41.0  -0.1                          T                                        5143733
LASF  000.85 221.8 m E Sn      2012/12/20 10:18:53.8   0.0                          T              114.6  .64        Md 2.7  5143732
ORIF  000.90 076.6 m E Pg      2012/12/20 10:18:40.7   0.1                          T                                        5143735
ORIF  000.90 076.6 m E Sn      2012/12/20 10:18:54.9  -0.1                          T               20.2  .55 Ml 2.3         5143734
SMRF  001.00 137.7 m E Pg      2012/12/20 10:18:42.3   0.0                          T                                        5143729
SMRF  001.00 137.7 m E Sn      2012/12/20 10:18:57.2   0.0                          T               57.8  .76 Ml 2.7         5143728
MBDF  001.51 088.8 m E Pg      2012/12/20 10:18:52.1   0.1                          T                                        5162632
MBDF  001.51 088.8 m E Sg      2012/12/20 10:19:11.7   0.0                          T               12.7  .64 Ml 2.3         5162635
LPL   001.68 060.8 m E Pg      2012/12/20 10:18:55.1   0.0                          T                                        5143731
LPL   001.68 060.8 m E Sg      2012/12/20 10:19:17.2   0.2                          T               25.8  .68 Ml 2.7         5143730
LPG   001.68 061.6 m E Pg      2012/12/20 10:18:55.2   0.0                          T                                        5143725
LPG   001.68 061.6 m E Sg      2012/12/20 10:19:16.6  -0.5                          T               19.9  .58 Ml 2.7         5143724
BGF   002.23 326.2 m E Pn      2012/12/20 10:18:59.9   0.0                          T                                        5162630
BGF   002.23 326.2 m E P       2012/12/20 10:19:01.9  -0.2                          T                                        5162629
BGF   002.23 326.2 m E Sg      2012/12/20 10:19:34.4   0.4                          T               18.7  .43 Ml 2.9         5162640
AVF   002.26 336.9 m E Pn      2012/12/20 10:19:00.4   0.1                          T                                        5162627
AVF   002.26 336.9 m E Sg      2012/12/20 10:19:35.1   0.2                          T               24.4  .72 Ml 2.8         5162642
SMF   002.01 344.0 m E Pg      2012/12/20 10:19:01.0   0.1                          T                                        5162628
SMF   002.01 344.0 m E Sg      2012/12/20 10:19:27.0   0.0                          T               21.5  .68 Ml 2.7         5162641
CABF  002.15 027.6 m E Pg      2012/12/20 10:19:03.6   0.1                          T                                        5162626
CABF  002.15 027.6 m E Sg      2012/12/20 10:19:31.1  -0.3                          T               27.0  .72 Ml 2.8         5162643
MTLF  002.23 232.7 m E Pg      2012/12/20 10:19:04.5  -0.4                          T                                        5143727
MTLF  002.23 232.7 m E Sg      2012/12/20 10:19:34.0   0.3                          T               20.8  .70 Ml 2.7         5143726
FRF   001.85 128.0 m E Sg      2012/12/20 10:19:22.1   0.2                          T               53.4 1.06 Ml 2.9         5162634
CAF   001.85 277.4 m E Sg      2012/12/20 10:19:22.2   0.2                          T               41.3  .72 Ml 2.9         5162637
SBF   002.18 112.1 m E Sg      2012/12/20 10:19:32.4   0.2                          T               27.9  .76 Ml 2.8         5162633
RJF   002.30 285.9 m E Sg      2012/12/20 10:19:36.3   0.3                          T               14.7  .65 Ml 2.3         5162639
TCF   002.33 313.4 m E Sg      2012/12/20 10:19:37.3   0.5                          T               25.0  .65 Ml 2.9         5162644
SSF   002.48 341.7 m E Sg      2012/12/20 10:19:41.5   0.0                          T               13.1  .64 Ml 2.7         5162645
LFF   002.79 276.0 m E Sg      2012/12/20 10:19:51.6   0.3                          T               30.3  .66 Ml 2.9         5162638
EPF   003.54 243.1 m E Sg      2012/12/20 10:20:15.1   0.3                          T               20.0  .94 Ml 2.9         5162636

.
EVENT     288822
    Date      Time       Latitude Longitude    Depth    Ndef Nsta Gap    Mag1  N    Mag2  N    Mag3  N   Author         ID
       rms   OT_Error      Smajor Sminor Az        Err   mdist  Mdist     Err        Err        Err      Quality

2012/12/20 10:36:32.3     44.3877    7.4062      5.0 f    28    6 127  Ml 1.6  5  Md 1.6  2              bulletin    288922
                                                                                                         _ldg
      0.32   +-  0.05       1.2     .6   61.45 +-  0.0    0.16   1.24   +-0.2      +-0.0                 m i ke

NORTHERN ITALY
Sta     Dist  EvAz     Phase      Date       Time     TRes  Azim  AzRes  Slow  SRes Def   SNR       Amp   Per   Mag1   Mag2       ID
SBF   000.52 177.7 m E Pg      2012/12/20 10:36:42.4   0.0                          T                                        5144047
SBF   000.52 177.7 m E Sg      2012/12/20 10:36:49.5   0.2                          T                3.8  .22        Md 1.6  5144046
MBDF  000.57 307.0 m E Pg      2012/12/20 10:36:43.4   0.1                          T                                        5144051
MBDF  000.57 307.0 m E Sg      2012/12/20 10:36:50.9   0.1                          T                2.2  .17        Md 1.7  5144050
ORIF  001.21 296.5 m E Pn      2012/12/20 10:36:54.5   0.1                          T                                        5160610
ORIF  001.21 296.5 m E Sg      2012/12/20 10:37:10.8   0.1                          T                 .6  .20 Ml 1.4         5160611
LMR   001.24 211.9 m E Pn      2012/12/20 10:36:54.8   0.2                          T                                        5144049
LMR   001.24 211.9 m E Sg      2012/12/20 10:37:11.5   0.1                          T                2.4  .20 Ml 2.0         5160614
LPL   001.23 337.3 m E Pg      2012/12/20 10:36:55.2  -0.3                          T                                        5160613
LPL   001.23 337.3 m E Sg      2012/12/20 10:37:11.4   0.1                          T                1.1  .23 Ml 1.6         5160612
LPG   001.20 337.5 m E Pg      2012/12/20 10:36:55.3   0.1                          T                                        5160609
LPG   001.20 337.5 m E Sg      2012/12/20 10:37:10.9   0.2                          T                1.1  .23 Ml 1.6         5160608

.
EVENT     288827
    Date      Time       Latitude Longitude    Depth    Ndef Nsta Gap    Mag1  N    Mag2  N    Mag3  N   Author         ID
       rms   OT_Error      Smajor Sminor Az        Err   mdist  Mdist     Err        Err        Err      Quality

2012/12/20 13:49:32.6     38.0407   -3.2812      3.0 f    49    4 048  Ml 3.2  5                         bulletin    288927
                                                                                                         _ldg
      0.77   +-  0.10       2.1    1.6  130.68 +-  0.0    0.29   6.74   +-0.3                            m i ke

SPAIN
Sta     Dist  EvAz     Phase      Date       Time     TRes  Azim  AzRes  Slow  SRes Def   SNR       Amp   Per   Mag1   Mag2       ID
ETSF  005.28 022.3 m E Pn      2012/12/20 13:50:50.6   0.3                          T                                        5160701
ETSF  005.28 022.3 m E Pg      2012/12/20 13:51:10.1  -0.2                          T                                        5160697
ETSF  005.28 022.3 m E Sn      2012/12/20 13:51:47.7  -0.3                          T                                        5160693
ETSF  005.28 022.3 m E Sg      2012/12/20 13:52:17.4  -0.6                          T                4.8  .29 Ml 3.2         5160692
SJPF  005.30 016.5 m E Pn      2012/12/20 13:50:52.3   1.8                          T                                        5160702
SJPF  005.30 016.5 m E Pg      2012/12/20 13:51:10.5  -0.2                          T                                        5160698
SJPF  005.30 016.5 m E Sn      2012/12/20 13:51:48.0  -0.6                          T                                        5160695
SJPF  005.30 016.5 m E Sg      2012/12/20 13:52:18.0  -0.7                          T               14.4  .45 Ml 3.4         5160694
EPF   005.70 027.8 m E Pn      2012/12/20 13:50:56.1   0.1                          T                                        5160700
EPF   005.70 027.8 m E Pg      2012/12/20 13:51:17.7  -0.3                          T                                        5160696
EPF   005.70 027.8 m E Sn      2012/12/20 13:51:57.3  -0.7                          T                                        5160691
EPF   005.70 027.8 m E Sg      2012/12/20 13:52:30.5  -0.5                          T               16.3  .50 Ml 3.5         5160690
MTLF  006.74 036.5 m E Pn      2012/12/20 13:51:10.0  -0.2                          T                                        5160699
MTLF  006.74 036.5 m E Sn      2012/12/20 13:52:22.6  -0.4                          T                                        5160688
MTLF  006.74 036.5 m E Sg      2012/12/20 13:53:02.9  -0.8                          T                2.0  .36 Ml 3.0         5160689

.
EVENT     288855
    Date      Time       Latitude Longitude    Depth    Ndef Nsta Gap    Mag1  N    Mag2  N    Mag3  N   Author         ID
       rms   OT_Error      Smajor Sminor Az        Err   mdist  Mdist     Err        Err        Err      Quality

2012/12/20 15:15:49.0     43.7274    7.5781     10.0      18    7 192  Ml 1.6  5  Md 1.5  1              bulletin    288955
                                                                                                         _ldg
      0.16   +-  0.06       1.3     .6  146.03 +-  0.0    0.15   1.89   +-0.2      +-                    m i ke

NEAR SOUTH COAST OF FRANCE
Sta     Dist  EvAz     Phase      Date       Time     TRes  Azim  AzRes  Slow  SRes Def   SNR       Amp   Per   Mag1   Mag2       ID
SBF   000.17 322.7 m E Pg      2012/12/20 15:15:52.8  -0.1                          T                                        5161113
SBF   000.17 322.7 m E Sg      2012/12/20 15:15:55.7   0.2                          T               58.2  .22        Md 1.5  5161112
FRF   000.70 256.5 m E Pg      2012/12/20 15:16:02.2   0.0                          T                                        5160714
FRF   000.70 256.5 m E Sg      2012/12/20 15:16:12.0   0.7                          T               14.9  .78                5161115
LMR   000.87 243.5 m E Pg      2012/12/20 15:16:05.4   0.0                          T                                        5160713
LMR   000.87 243.5 m E Sg      2012/12/20 15:16:16.8   0.0                          T                1.2  .18 Ml 1.6         5161114
MBDF  001.16 330.1 m E Pg      2012/12/20 15:16:10.8   0.0                          T                                        5161110
MBDF  001.16 330.1 m E Sg      2012/12/20 15:16:26.0   0.2                          T                 .7  .24 Ml 1.4         5161111
SMRF  001.47 280.4 m E Pn      2012/12/20 15:16:13.8  -0.2                          T                                        5161109
SMRF  001.47 280.4 m E Sn      2012/12/20 15:16:32.2   0.1                          T                1.4  .22 Ml 1.8         5161108
LPG   001.87 341.8 m E Pn      2012/12/20 15:16:19.6  -0.1                          T                                        5161106
LPG   001.87 341.8 m E Sn      2012/12/20 15:16:41.8  -0.1                          T                 .4  .18 Ml 1.5         5161104
LPL   001.89 341.6 m E Pn      2012/12/20 15:16:19.7  -0.1                          T                                        5161107
LPL   001.89 341.6 m E Sn      2012/12/20 15:16:42.2  -0.1                          T                1.1  .28 Ml 1.8         5161105

.
EVENT     288834
    Date      Time       Latitude Longitude    Depth    Ndef Nsta Gap    Mag1  N    Mag2  N    Mag3  N   Author         ID
       rms   OT_Error      Smajor Sminor Az        Err   mdist  Mdist     Err        Err        Err      Quality

2012/12/20 15:44:24.3     42.5999   -1.7336       .0 f    10    5 322  Ml 2.4  2  Md 2.3  3              bulletin    288934
                                                                                                         _ldg
      0.12   +-  0.15       3.0    1.9   17.14 +-  0.0    0.63   3.60   +-0.3      +-0.1                 m i km

PYRENEES
Sta     Dist  EvAz     Phase      Date       Time     TRes  Azim  AzRes  Slow  SRes Def   SNR       Amp   Per   Mag1   Mag2       ID
SJPF  000.63 035.9 m E Pg      2012/12/20 15:44:36.6   0.0                          T                                        5144181
SJPF  000.63 035.9 m E Pn      2012/12/20 15:44:39.2   0.0                          T                                        5161268
SJPF  000.63 035.9 m E Sg      2012/12/20 15:44:45.1   0.1                          T               22.8  .24        Md 2.2  5144178
ETSF  000.92 070.6 m E Pg      2012/12/20 15:44:41.9   0.1                          T                                        5144180
ETSF  000.92 070.6 m E Sg      2012/12/20 15:44:53.7  -0.2                          T                7.6  .32 Ml 2.2 Md 2.4  5144177
EPF   001.59 073.6 m E Pg      2012/12/20 15:44:54.1   0.0                          T                                        5144179
EPF   001.59 073.6 m E Sn      2012/12/20 15:45:11.9  -0.3                          T                                        5161267
EPF   001.59 073.6 m E Sg      2012/12/20 15:45:14.9   0.1                          T                9.2  .30 Ml 2.6 Md 2.2  5144176
LFF   002.95 036.6 m E Pn      2012/12/20 15:45:10.5  -0.1                          T                                        5161266
CAF   003.60 048.5 m E Pn      2012/12/20 15:45:19.5   0.0                          T                                        5144182

.
