EVENT     281250
    Date      Time       Latitude Longitude    Depth    Ndef Nsta Gap    Mag1  N    Mag2  N    Mag3  N   Author         ID
       rms   OT_Error      Smajor Sminor Az        Err   mdist  Mdist     Err        Err        Err      Quality

2012/08/17 11:27:58.0     42.5798     .9586      4.0 f    94   20 047  Ml 3.1 23  Md 3.0  2              bulletin    281350
                                                                                                         _ldg
      0.49   +-  0.05        .9     .8   27.15 +-  0.0    0.16   6.08   +-0.3      +-0.0                 m i ke

PYRENEES
Sta     Dist  EvAz     Phase      Date       Time     TRes  Azim  AzRes  Slow  SRes Def   SNR       Amp   Per   Mag1   Mag2       ID
EPF   000.64 314.9 m E Pg      2012/08/17 11:28:09.8  -0.4                          T   001.0                                5047470
EPF   000.64 314.9 m E Sg      2012/08/17 11:28:17.8  -0.8                          T              181.7  .24        Md 3.0  5047537
ETSF  001.16 286.4 m E Pg      2012/08/17 11:28:19.4  -0.4                          T   001.0                                5047488
ETSF  001.16 286.4 m E Sn      2012/08/17 11:28:33.4  -1.5                          T   001.0                                5047489
ETSF  001.16 286.4 m E Sg      2012/08/17 11:28:34.4  -0.5                          T   001.0       28.6  .20 Ml 3.0         5047490
MTLF  001.20 050.1 m E Pn      2012/08/17 11:28:20.2   0.3                          T   001.0                        Md 3.0  5047491
MTLF  001.20 050.1 m E Sg      2012/08/17 11:28:35.7  -0.2                          T   001.0       31.2  .18 Ml 3.1         5047492
LFF   002.36 356.2 m E Pn      2012/08/17 11:28:36.2   0.5                          T   001.0                                5047476
LFF   002.36 356.2 m E Sn      2012/08/17 11:29:03.5   0.0                          T   001.0       40.2  .34 Ml 3.2         5047477
LFF   002.36 356.2 m E Sg      2012/08/17 11:29:11.4  -0.9                          T   001.0       36.5  .32 Ml 3.2         5047478
CAF   002.48 018.5 m E Pn      2012/08/17 11:28:37.4   0.0                          T   001.0                                5047467
CAF   002.48 018.5 m E Sn      2012/08/17 11:29:05.9  -0.4                          T   001.0       29.3  .22 Ml 3.4         5047468
CAF   002.48 018.5 m E Sg      2012/08/17 11:29:14.9  -1.0                          T   001.0       30.9  .24 Ml 3.4         5047469
RJF   002.75 008.2 m E Pn      2012/08/17 11:28:41.5   0.5                          T                                        5047535
RJF   002.75 008.2 m E Pg      2012/08/17 11:28:48.9  -0.2                          T   001.0                                5047462
RJF   002.75 008.2 m E Sn      2012/08/17 11:29:12.7  -0.1                          T   001.0       32.6  .34 Ml 3.0         5047463
RJF   002.75 008.2 m E Sg      2012/08/17 11:29:23.5  -0.9                          T   001.0       11.8  .15 Ml 2.9         5047464
LASF  002.59 053.8 m E Pg      2012/08/17 11:28:45.8  -0.3                          T   001.0                                5047473
LASF  002.59 053.8 m E Sg      2012/08/17 11:29:19.1  -0.3                          T   001.0       13.4  .22 Ml 3.1         5047474
SMRF  003.65 066.0 m E Pn      2012/08/17 11:28:53.9   0.6                          T                                        5047530
SMRF  003.65 066.0 m E Pg      2012/08/17 11:29:05.6   0.0                          T                                        5047531
SMRF  003.65 066.0 m E Sg      2012/08/17 11:29:52.8   0.4                          T   001.0        4.4  .45 Ml 2.6         5047497
TCF   003.81 013.2 m E Pn      2012/08/17 11:28:56.5   0.9                          T   001.0                                5047486
TCF   003.81 013.2 m E Pg      2012/08/17 11:29:08.9   0.2                          T                                        5047542
TCF   003.81 013.2 m E Sn      2012/08/17 11:29:38.0  -0.2                          T                5.0  .22 Ml 3.0         5047533
TCF   003.81 013.2 m E Sg      2012/08/17 11:29:56.7  -0.9                          T   001.0        5.2  .24 Ml 3.0         5047487
MFF   004.10 349.3 m E Pn      2012/08/17 11:29:00.0   0.6                          T   001.0                                5047481
MFF   004.10 349.3 m E Sn      2012/08/17 11:29:45.4   0.5                          T   001.0      153.7 1.60 Ml 3.8         5047482
MFF   004.10 349.3 m E Sg      2012/08/17 11:30:05.3  -1.1                          T   001.0                                5047483
LMR   004.14 077.6 m E Pn      2012/08/17 11:29:00.7   0.7                          T   001.0                                5047479
LMR   004.14 077.6 m E Pg      2012/08/17 11:29:15.3   0.6                          T                                        5047528
BGF   004.20 018.1 m E Pn      2012/08/17 11:29:01.4   0.6                          T                                        5047534
BGF   004.20 018.1 m E Pg      2012/08/17 11:29:16.0   0.2                          T                                        5047532
BGF   004.20 018.1 m E Sg      2012/08/17 11:30:09.6   0.0                          T   001.0       29.1  .34 Ml 3.6         5047466
FRF   004.28 074.8 m E Pn      2012/08/17 11:29:02.4   0.5                          T   001.0                                5047471
FRF   004.28 074.8 m E Pg      2012/08/17 11:29:17.6   0.4                          T                                        5047529
VIVF  003.53 048.5 m E Pg      2012/08/17 11:29:02.9  -0.5                          T                                        5047536
VIVF  003.53 048.5 m E Sg      2012/08/17 11:29:48.2  -0.4                          T   001.0        3.7  .22 Ml 2.8         5047496
AVF   004.54 021.2 m E Pn      2012/08/17 11:29:05.9   0.5                          T                                        5047543
AVF   004.54 021.2 m E Pg      2012/08/17 11:29:21.7  -0.3                          T                                        5047544
AVF   004.54 021.2 m E Sg      2012/08/17 11:30:20.0  -0.3                          T   001.0        5.4  .28 Ml 3.1         5047465
LDF   006.06 353.2 m E Pn      2012/08/17 11:29:26.4   0.3                          T   001.0        5.7  .88 Ml 2.9         5047475
QUIF  006.08 332.8 m E Pn      2012/08/17 11:29:27.0   0.7                          T   001.0                                5047493
QUIF  006.08 332.8 m E Sn      2012/08/17 11:30:32.0  -0.2                          T                 .8  .17 Ml 2.8         5047540
QUIF  006.08 332.8 m E Sg      2012/08/17 11:31:08.4   0.2                          T   001.0        6.9  .68 Ml 3.1         5047494
SSF   004.83 021.1 m E Pg      2012/08/17 11:29:27.9   0.5                          T                                        5047541
SSF   004.83 021.1 m E Sg      2012/08/17 11:30:29.0  -0.4                          T   001.0        4.6  .32 Ml 3.1         5047485
SMF   004.56 025.9 m E Sg      2012/08/17 11:30:20.9   0.2                          T   001.0        6.6  .40 Ml 3.0         5047484
LOR   005.12 022.7 m E Sg      2012/08/17 11:30:37.9  -0.4                          T   001.0        3.6  .32 Ml 3.0         5047480

.
EVENT     281269
    Date      Time       Latitude Longitude    Depth    Ndef Nsta Gap    Mag1  N    Mag2  N    Mag3  N   Author         ID
       rms   OT_Error      Smajor Sminor Az        Err   mdist  Mdist     Err        Err        Err      Quality

2012/08/17 15:25:08.2     42.5750     .9662      4.0 f    29    4 076  Ml 1.8  4  Md 1.8  1              bulletin    281369
                                                                                                         _ldg
      0.36   +-  0.06       1.2     .9   42.63 +-  0.0    0.17   2.48   +-0.1      +-                    m i ke

PYRENEES
Sta     Dist  EvAz     Phase      Date       Time     TRes  Azim  AzRes  Slow  SRes Def   SNR       Amp   Per   Mag1   Mag2       ID
EPF   000.65 314.8 m E Pg      2012/08/17 15:25:20.5  -0.1                          T                                        5047653
EPF   000.65 314.8 m E Sg      2012/08/17 15:25:28.4  -0.6                          T                3.6  .15        Md 1.8  5047654
ETSF  001.17 286.6 m E Pg      2012/08/17 15:25:30.0  -0.2                          T                                        5047656
ETSF  001.17 286.6 m E Sg      2012/08/17 15:25:45.2  -0.2                          T                1.5  .20 Ml 1.8         5047655
MTLF  001.20 049.8 m E Pg      2012/08/17 15:25:30.5   0.0                          T                                        5047658
MTLF  001.20 049.8 m E Sg      2012/08/17 15:25:46.4   0.3                          T                  1  .17 Ml 1.7         5047657
CAF   002.48 018.3 m E Pn      2012/08/17 15:25:48.1   0.4                          T                                        5047660
CAF   002.48 018.3 m E Sn      2012/08/17 15:26:16.6   0.1                          T                                        5047659
CAF   002.48 018.3 m E Sg      2012/08/17 15:26:25.8  -0.4                          T                 .8  .19 Ml 2.0         5047661

.
EVENT     281281
    Date      Time       Latitude Longitude    Depth    Ndef Nsta Gap    Mag1  N    Mag2  N    Mag3  N   Author         ID
       rms   OT_Error      Smajor Sminor Az        Err   mdist  Mdist     Err        Err        Err      Quality

2012/08/17 17:45:51.0     44.5626   10.3980      2.0      51   12 073  Ml 2.2 11                         bulletin    281381
                                                                                                         _ldg
      0.49   +-  0.09       2.0    1.6   64.77 +-  0.0    0.14   5.30   +-0.4                            m i ke

NORTHERN ITALY
Sta     Dist  EvAz     Phase      Date       Time     TRes  Azim  AzRes  Slow  SRes Def   SNR       Amp   Per   Mag1   Mag2       ID
MBDF  002.59 274.9 m E Pn      2012/08/17 17:46:32.4   0.1                          T                                        5047688
MBDF  002.59 274.9 m E Sn      2012/08/17 17:47:02.8   0.3                          T                 .7  .18 Ml 1.9         5047703
LPL   002.77 291.4 m E Pn      2012/08/17 17:46:34.5  -0.3                          T                                        5047705
LPL   002.77 291.4 m E Sn      2012/08/17 17:47:07.1   0.3                          T                 .6  .25 Ml 1.8         5047704
LPG   002.75 291.2 m E Pn      2012/08/17 17:46:35.0   0.4                          T                                        5047707
LPG   002.75 291.2 m E Sn      2012/08/17 17:47:06.8   0.4                          T                1.3  .40 Ml 1.9         5047706
FRF   002.88 251.0 m E Pn      2012/08/17 17:46:36.1   0.0                          T                                        5047692
FRF   002.88 251.0 m E Sn      2012/08/17 17:47:10.1   0.9                          T                3.6  .22 Ml 2.7         5047691
LMR   003.07 247.7 m E Pn      2012/08/17 17:46:38.0  -0.5                          T                                        5047690
LMR   003.07 247.7 m E Sn      2012/08/17 17:47:14.2   0.7                          T                9.0  .38 Ml 2.8         5047689
ORIF  003.24 277.9 m E Pn      2012/08/17 17:46:40.7  -0.3                          T                                        5047687
ORIF  003.24 277.9 m E Sn      2012/08/17 17:47:18.7   0.8                          T                1.1  .36 Ml 1.9         5047693
SMRF  003.51 262.1 m E Pn      2012/08/17 17:46:45.1   0.5                          T                                        5047709
SMRF  003.51 262.1 m E Sn      2012/08/17 17:47:25.0   0.6                          T                1.0  .32 Ml 2.0         5047708
HINF  004.08 324.2 m E Pn      2012/08/17 17:46:52.5   0.1                          T                                        5047697
HINF  004.08 324.2 m E Sn      2012/08/17 17:47:37.8  -0.1                          T                1.1  .33 Ml 2.2         5047696
VIVF  004.09 276.1 m E Pn      2012/08/17 17:46:53.2   0.7                          T                                        5047695
VIVF  004.09 276.1 m E Sn      2012/08/17 17:47:38.8   0.7                          T                 .3  .25 Ml 1.8         5047694
CDF   004.41 331.9 m E Pn      2012/08/17 17:46:56.6  -0.4                          T                                        5047702
CDF   004.41 331.9 m E Sn      2012/08/17 17:47:45.8  -0.1                          T                  1  .24 Ml 2.5         5047701
HAU   004.44 322.2 m E Pn      2012/08/17 17:46:56.8  -0.6                          T                                        5047698
LOR   005.30 303.0 m E Pn      2012/08/17 17:47:08.9  -0.1                          T                                        5047700
LOR   005.30 303.0 m E Sn      2012/08/17 17:48:07.6   0.5                          T                 .6  .24 Ml 2.3         5047699

.
EVENT     281288
    Date      Time       Latitude Longitude    Depth    Ndef Nsta Gap    Mag1  N    Mag2  N    Mag3  N   Author         ID
       rms   OT_Error      Smajor Sminor Az        Err   mdist  Mdist     Err        Err        Err      Quality

2012/08/17 19:33:01.4     42.9451     .2072      2.0      13    6 191  Ml 1.7  4  Md 1.7  2              bulletin    281388
                                                                                                         _ldg
      0.19   +-  0.10       3.0    1.2  160.06 +-  0.0    0.13   2.54   +-0.2      +-0.1                 m i ke

PYRENEES
Sta     Dist  EvAz     Phase      Date       Time     TRes  Azim  AzRes  Slow  SRes Def   SNR       Amp   Per   Mag1   Mag2       ID
EPF   000.13 048.8 m E Pg      2012/08/17 19:33:04.3   0.1                          T                                        5047744
EPF   000.13 048.8 m E Sg      2012/08/17 19:33:05.9  -0.2                          T               16.6  .15        Md 1.7  5047743
ETSF  000.56 265.5 m E Pg      2012/08/17 19:33:12.2   0.0                          T                                        5047742
ETSF  000.56 265.5 m E Sg      2012/08/17 19:33:19.9   0.3                          T                4.3  .19        Md 1.7  5047741
MTLF  001.52 074.3 m E Pg      2012/08/17 19:33:29.9   0.1                          T                                        5047740
MTLF  001.52 074.3 m E Sg      2012/08/17 19:33:49.7   0.2                          T                1.1  .18 Ml 1.8         5047739
LFF   002.03 010.7 m E Pn      2012/08/17 19:33:35.9   1.0                          T                                        5047749
LFF   002.03 010.7 m E Sn      2012/08/17 19:33:59.7   0.4                          T                 .9  .18 Ml 1.8         5047748
CAF   002.39 033.5 m E Pn      2012/08/17 19:33:39.7  -0.1                          T                                        5047751
CAF   002.39 033.5 m E Sn      2012/08/17 19:34:08.2   0.2                          T                 .7  .23 Ml 1.8         5047750
RJF   002.54 021.3 m E Pn      2012/08/17 19:33:41.5  -0.3                          T                                        5047747
RJF   002.54 021.3 m E Pg      2012/08/17 19:33:48.6   0.0                          T                                        5047746
RJF   002.54 021.3 m E Sn      2012/08/17 19:34:11.7   0.2                          T                 .6  .19 Ml 1.5         5047745

.
