EVENT     266202
    Date      Time       Latitude Longitude    Depth    Ndef Nsta Gap    Mag1  N    Mag2  N    Mag3  N   Author         ID
       rms   OT_Error      Smajor Sminor Az        Err   mdist  Mdist     Err        Err        Err      Quality

2011/11/12 06:17:24.6     43.0225    -.2946      3.0 f   149   39 046  Ml 3.3 43  Md 3.3  3              js067245    266222

      0.76   +-  0.05       1.0     .9  151.34 +-  0.0    0.23   7.69   +-0.3      +-0.0                 m i ke

PYRENEES
Sta     Dist  EvAz     Phase      Date       Time     TRes  Azim  AzRes  Slow  SRes Def   SNR       Amp   Per   Mag1   Mag2       ID
ETSF  000.23 237.6 m E Pg      2011/11/12 06:17:29.5   0.2                          T   001.0                                4785189
ETSF  000.23 237.6 m E Sg      2011/11/12 06:17:32.8   0.3                          T             1621.0  .28        Md 3.3  4786339
EPF   000.47 088.8 m E Pg      2011/11/12 06:17:33.2  -0.4                          T   001.0                                4785165
EPF   000.47 088.8 m E Sg      2011/11/12 06:17:40.2   0.4                          T              314.3  .26        Md 3.3  4786340
SJPF  000.69 277.9 m E Pg      2011/11/12 06:17:37.3  -0.3                          T   001.0                                4785199
SJPF  000.69 277.9 m E Sg      2011/11/12 06:17:47.0   0.4                          T   001.0      136.5  .20        Md 3.3  4785200
MTLF  001.86 079.3 m E Pn      2011/11/12 06:17:55.7   0.0                          T   001.0                                4785190
MTLF  001.86 079.3 m E P       2011/11/12 06:17:57.9   0.0                          T   001.0                                4785191
MTLF  001.86 079.3 m E Pg      2011/11/12 06:17:59.4   0.1                          T                                        4786387
MTLF  001.86 079.3 m E Sn      2011/11/12 06:18:18.3  -0.1                          T   001.0                                4785192
MTLF  001.86 079.3 m E Sg      2011/11/12 06:18:23.5   0.1                          T   001.0       52.5  .28 Ml 3.4         4785193
LFF   002.06 020.9 m E Pn      2011/11/12 06:17:57.8  -0.5                          T   001.0                                4785174
LFF   002.06 020.9 m E Pg      2011/11/12 06:18:02.2  -0.7                          T                                        4786390
LFF   002.06 020.9 m E Sn      2011/11/12 06:18:23.0   0.1                          T   001.0                                4785175
LFF   002.06 020.9 m E Sg      2011/11/12 06:18:30.1   0.8                          T              148.4  .30 Ml 3.7         4786371
CAF   002.55 041.0 m E Pn      2011/11/12 06:18:03.5  -1.6                          T   001.0                                4785162
CAF   002.55 041.0 m E P       2011/11/12 06:18:08.0   0.3                          T                                        4786389
CAF   002.55 041.0 m E Pg      2011/11/12 06:18:11.3  -0.7                          T                                        4786388
CAF   002.55 041.0 m E Sn      2011/11/12 06:18:35.0   0.2                          T   001.0                                4785163
CAF   002.55 041.0 m E Sg      2011/11/12 06:18:45.4   0.6                          T   001.0       51.1  .24 Ml 3.7         4785164
RJF   002.63 029.1 m E Pn      2011/11/12 06:18:05.9  -0.2                          T   001.0                                4785156
RJF   002.63 029.1 m E P       2011/11/12 06:18:09.0   0.3                          T   001.0                                4785157
RJF   002.63 029.1 m E Pg      2011/11/12 06:18:12.4  -0.9                          T                                        4786391
RJF   002.63 029.1 m E Sn      2011/11/12 06:18:37.0   0.4                          T   001.0       66.1  .35 Ml 3.3         4785158
RJF   002.63 029.1 m E Sg      2011/11/12 06:18:47.7   0.5                          T               45.1  .18 Ml 3.4         4786370
LASF  003.20 069.3 m E Pn      2011/11/12 06:18:13.9   0.0                          T                                        4786386
LASF  003.20 069.3 m E P       2011/11/12 06:18:17.7   0.8                          T                                        4786385
LASF  003.20 069.3 m E Pg      2011/11/12 06:18:22.9  -1.0                          T                                        4786384
LASF  003.20 069.3 m E Sn      2011/11/12 06:18:49.8  -0.4                          T                                        4786373
LASF  003.20 069.3 m E Sg      2011/11/12 06:19:04.7  -0.3                          T               29.9  .36 Ml 3.4         4786372
MFF   003.58 001.6 m E Pn      2011/11/12 06:18:18.5  -0.6                          T   001.0                                4785178
MFF   003.58 001.6 m E Pg      2011/11/12 06:18:30.8  -0.2                          T                                        4786392
MFF   003.58 001.6 m E Sn      2011/11/12 06:18:59.4   0.1                          T   001.0                                4785179
MFF   003.58 001.6 m E Sg      2011/11/12 06:19:17.6   0.7                          T   001.0       27.6  .36 Ml 3.6         4785180
TCF   003.72 027.8 m E Pn      2011/11/12 06:18:21.4   0.4                          T                                        4786404
TCF   003.72 027.8 m E P       2011/11/12 06:18:24.8   0.4                          T                                        4786403
TCF   003.72 027.8 m E Pg      2011/11/12 06:18:33.8   0.3                          T                                        4786402
TCF   003.72 027.8 m E Sn      2011/11/12 06:19:03.3   0.5                          T   001.0        6.9  .24 Ml 3.1         4785186
TCF   003.72 027.8 m E Sg      2011/11/12 06:19:21.5   0.1                          T   001.0       28.5  .28 Ml 3.6         4785187
VIVF  004.03 061.2 m E Pn      2011/11/12 06:18:25.5   0.3                          T   001.0                                4785201
VIVF  004.03 061.2 m E P       2011/11/12 06:18:28.6  -0.1                          T                                        4786383
VIVF  004.03 061.2 m E Pg      2011/11/12 06:18:39.1  -0.1                          T                                        4786382
VIVF  004.03 061.2 m E Sg      2011/11/12 06:19:30.3  -0.6                          T   001.0       22.1  .36 Ml 3.4         4785202
BGF   004.18 031.2 m E Pn      2011/11/12 06:18:28.0   0.7                          T   001.0                                4785160
BGF   004.18 031.2 m E Sg      2011/11/12 06:19:33.8  -1.8                          T   001.0      158.4  .40 Ml 4.3         4785161
SMRF  004.38 075.4 m E Pn      2011/11/12 06:18:29.8  -0.1                          T   001.0                                4785203
SMRF  004.38 075.4 m E P       2011/11/12 06:18:33.7   0.0                          T                                        4786378
SMRF  004.38 075.4 m E Sg      2011/11/12 06:19:41.4  -0.3                          T                8.6  .46 Ml 3.0         4786375
AVF   004.57 033.3 m E Pn      2011/11/12 06:18:32.1  -0.4                          T   001.0                                4785159
AVF   004.57 033.3 m E Pg      2011/11/12 06:18:49.3   0.1                          T                                        4786400
AVF   004.57 033.3 m E Sg      2011/11/12 06:19:48.4   0.6                          T               18.9  .36 Ml 3.5         4786361
SMF   004.67 037.6 m E Pn      2011/11/12 06:18:33.0  -0.9                          T   001.0                                4785181
SMF   004.67 037.6 m E Pg      2011/11/12 06:18:50.9  -0.1                          T                                        4786399
SMF   004.67 037.6 m E Sg      2011/11/12 06:19:51.2   0.4                          T   001.0       19.8  .36 Ml 3.5         4785182
HYF   004.73 025.0 m E Pn      2011/11/12 06:18:35.0   0.3                          T                                        4786398
HYF   004.73 025.0 m E Pg      2011/11/12 06:18:52.3   0.3                          T                                        4786397
HYF   004.73 025.0 m E Sg      2011/11/12 06:19:52.6   0.0                          T                                        4786362
SSF   004.85 032.4 m E Pn      2011/11/12 06:18:36.3  -0.1                          T   001.0                                4785183
SSF   004.85 032.4 m E Pg      2011/11/12 06:18:54.0  -0.4                          T                                        4786405
SSF   004.85 032.4 m E Sn      2011/11/12 06:19:29.0  -0.8                          T   001.0        3.3  .33 Ml 2.9         4785184
SSF   004.85 032.4 m E Sg      2011/11/12 06:19:57.1   0.4                          T   001.0       25.3  .43 Ml 3.7         4785185
LOR   005.16 033.2 m E Pn      2011/11/12 06:18:39.7  -1.0                          T   001.0                                4785176
LOR   005.16 033.2 m E Pg      2011/11/12 06:19:00.3   0.2                          T                                        4786406
LOR   005.16 033.2 m E Sg      2011/11/12 06:20:07.0   0.7                          T               13.5  .36 Ml 3.5         4786352
ORIF  004.84 064.9 m E P       2011/11/12 06:18:40.4   0.0                          T                                        4786380
ORIF  004.84 064.9 m E Sg      2011/11/12 06:19:56.8   0.4                          T   001.0        5.8  .52 Ml 2.9         4785194
QUIF  005.29 338.6 m E Pn      2011/11/12 06:18:42.0  -0.4                          T                                        4786394
QUIF  005.29 338.6 m E Pg      2011/11/12 06:19:03.3   0.8                          T                                        4786393
QUIF  005.29 338.6 m E Sn      2011/11/12 06:19:40.3   0.1                          T   001.0        1.6  .19 Ml 2.8         4785195
QUIF  005.29 338.6 m E Sg      2011/11/12 06:20:12.0   1.6                          T                2.9  .25 Ml 3.0         4786367
GRR   005.38 356.0 m E Pn      2011/11/12 06:18:42.2  -1.4                          T   001.0                                4785170
GRR   005.38 356.0 m E Sn      2011/11/12 06:19:42.6   0.3                          T   001.0        3.2  .24 Ml 2.9         4785171
GRR   005.38 356.0 m E Sg      2011/11/12 06:20:14.5   1.5                          T               11.6  .38 Ml 3.3         4786369
FRF   005.10 081.6 m E P       2011/11/12 06:18:43.8   0.0                          T   001.0                                4785169
FRF   005.10 081.6 m E Sg      2011/11/12 06:20:03.7  -0.5                          T                4.3  .40 Ml 3.0         4786374
SGMF  005.47 343.9 m E Pn      2011/11/12 06:18:44.8   0.1                          T   001.0                                4785197
SGMF  005.47 343.9 m E Sn      2011/11/12 06:19:45.0   0.5                          T   001.0        5.8  .40 Ml 3.1         4785198
SGMF  005.47 343.9 m E Sg      2011/11/12 06:20:17.8   2.0                          T               11.1  .44 Ml 3.4         4786366
LDF   005.57 001.2 m E Pn      2011/11/12 06:18:45.1  -1.1                          T   001.0                                4785172
LDF   005.57 001.2 m E Sn      2011/11/12 06:19:47.3   0.3                          T   001.0        5.1  .52 Ml 3.0         4785173
LDF   005.57 001.2 m E Sg      2011/11/12 06:20:19.1   0.0                          T                9.3  .31 Ml 3.5         4786368
ROSF  005.71 339.6 m E Pn      2011/11/12 06:18:47.5  -0.5                          T   001.0                                4785196
ROSF  005.71 339.6 m E Sn      2011/11/12 06:19:50.8   0.6                          T                2.8  .29 Ml 3.0         4786365
ROSF  005.71 339.6 m E Sg      2011/11/12 06:20:24.6   1.3                          T                3.5  .35 Ml 3.0         4786364
FLN   005.74 358.8 m E Pn      2011/11/12 06:18:48.4  -0.1                          T   001.0                                4785166
FLN   005.74 358.8 m E Sn      2011/11/12 06:19:48.3  -2.7                          T   001.0                                4785167
FLN   005.74 358.8 m E Sg      2011/11/12 06:20:25.0   0.7                          T   001.0        6.0  .24 Ml 3.3         4785168
LPG   005.63 061.5 m E P       2011/11/12 06:18:52.2   0.5                          T                                        4786379
LPG   005.63 061.5 m E Sg      2011/11/12 06:20:21.1  -0.2                          T                2.6  .34 Ml 2.9         4786376
SFTF  006.39 034.0 m E Pn      2011/11/12 06:18:56.8  -0.5                          T                                        4786401
SFTF  006.39 034.0 m E Sg      2011/11/12 06:20:45.6   1.0                          T               16.3  .54 Ml 3.6         4786356
PGF   006.85 090.8 m E Pn      2011/11/12 06:19:03.7  -0.1                          T                                        4786377
MBDF  005.38 069.1 m E Pg      2011/11/12 06:19:04.4   0.1                          T                                        4786381
BAIF  007.69 022.2 m E Pn      2011/11/12 06:19:14.7  -0.3                          T   001.0                                4785188
LPL   005.63 061.3 m E Sg      2011/11/12 06:20:19.9  -1.2                          T   001.0        6.3  .68 Ml 3.0         4785177
CABF  005.79 049.5 m E Sg      2011/11/12 06:20:26.4   0.6                          T               10.8  .55 Ml 3.3         4786360
MEZF  006.63 032.4 m E Sg      2011/11/12 06:20:52.6   0.5                          T               19.6  .50 Ml 3.8         4786355
HAU   006.83 040.8 m E Sg      2011/11/12 06:20:58.6   0.4                          T                6.8  .45 Ml 3.2         4786358
THEF  006.82 038.1 m E Sg      2011/11/12 06:20:58.6   0.6                          T               19.1  .57 Ml 3.7         4786357
HINF  006.95 043.9 m E Sg      2011/11/12 06:21:02.4   0.4                          T                5.3  .52 Ml 3.2         4786359
PAGF  006.95 035.2 m E Sg      2011/11/12 06:21:02.9   0.8                          T                2.9  .54 Ml 3.0         4786354
CDF   007.56 041.9 m E Sg      2011/11/12 06:21:21.4   0.4                          T                3.7  .57 Ml 3.3         4786353

.
EVENT     266206
    Date      Time       Latitude Longitude    Depth    Ndef Nsta Gap    Mag1  N    Mag2  N    Mag3  N   Author         ID
       rms   OT_Error      Smajor Sminor Az        Err   mdist  Mdist     Err        Err        Err      Quality

2011/11/12 06:52:31.9     44.5523    6.8321      2.0      20    9 151  Ml 1.4  6  Md 1.4  2              js067245    266226

      1.45   +-  0.13       2.9    1.7   79.71 +-  0.0    0.18   1.57   +-0.4      +-0.1                 m i ke

FRANCE
Sta     Dist  EvAz     Phase      Date       Time     TRes  Azim  AzRes  Slow  SRes Def   SNR       Amp   Per   Mag1   Mag2       ID
MBDF  000.18 346.1 m E Pg      2011/11/12 06:52:35.9   0.1                          T                                        4786454
MBDF  000.18 346.1 m E Sg      2011/11/12 06:52:38.8   0.6                          T                6.8  .18        Md 1.5  4786455
ORIF  000.77 298.7 m E Pg      2011/11/12 06:52:46.5   0.0                          T                                        4786452
ORIF  000.77 298.7 m E Sg      2011/11/12 06:52:56.1  -0.5                          T                1.2  .21        Md 1.3  4786453
SBF   000.81 147.6 m E Pg      2011/11/12 06:52:47.2  -0.1                          T                                        4786464
SBF   000.81 147.6 m E Sg      2011/11/12 06:52:57.8  -0.1                          T                1.1  .19                4786463
LPG   000.95 356.6 m E Pg      2011/11/12 06:52:49.9  -0.1                          T                                        4786467
LPG   000.95 356.6 m E Sg      2011/11/12 06:53:02.3   0.0                          T                 .4  .22 Ml 1.0         4786460
FRF   001.00 187.7 m E Pg      2011/11/12 06:52:50.5  -0.2                          T                                        4786450
FRF   001.00 187.7 m E Sg      2011/11/12 06:53:03.6   0.0                          T                1.9  .24 Ml 1.8         4786461
LPL   000.97 355.8 m E Pg      2011/11/12 06:52:50.5   0.2                          T                                        4786451
LPL   000.97 355.8 m E Sg      2011/11/12 06:53:02.9   0.1                          T                 .5  .20 Ml 1.2         4786458
SMRF  001.07 237.9 m E Pg      2011/11/12 06:52:52.0   0.0                          T                                        4786466
SMRF  001.07 237.9 m E Sg      2011/11/12 06:53:05.8  -0.1                          T                 .7  .19 Ml 1.4         4786459
LMR   001.24 191.0 m E Pg      2011/11/12 06:52:55.1   0.1                          T                                        4786465
LMR   001.24 191.0 m E Sg      2011/11/12 06:53:11.1   0.1                          T                2.5  .24 Ml 2.0         4786462
VIVF  001.57 281.9 m E Pg      2011/11/12 06:53:01.0  -0.1                          T                                        4786457
VIVF  001.57 281.9 m E Sg      2011/11/12 06:53:21.4   0.0                          T                 .2  .18 Ml 1.1         4786456

.
EVENT     266208
    Date      Time       Latitude Longitude    Depth    Ndef Nsta Gap    Mag1  N    Mag2  N    Mag3  N   Author         ID
       rms   OT_Error      Smajor Sminor Az        Err   mdist  Mdist     Err        Err        Err      Quality

2011/11/12 07:01:09.4     42.8555     .2156      2.0       8    4 203  Ml 1.2  2  Md 1.3  2              js067245    266228

      0.17   +-  0.12       3.9    1.1  167.55 +-  0.0    0.20   1.54   +-0.4      +-0.0                 m i ke

PYRENEES
Sta     Dist  EvAz     Phase      Date       Time     TRes  Azim  AzRes  Slow  SRes Def   SNR       Amp   Per   Mag1   Mag2       ID
EPF   000.20 027.6 m E Pg      2011/11/12 07:01:13.3  -0.1                          T                                        4786474
EPF   000.20 027.6 m E Sg      2011/11/12 07:01:16.1  -0.1                          T                5.7  .22        Md 1.3  4786475
ETSF  000.57 274.6 m E Pg      2011/11/12 07:01:20.2  -0.1                          T                                        4786472
ETSF  000.57 274.6 m E Sg      2011/11/12 07:01:27.4  -0.4                          T                2.2  .23        Md 1.3  4786473
SJPF  001.09 284.2 m E Pg      2011/11/12 07:01:30.0   0.2                          T                                        4786468
SJPF  001.09 284.2 m E Sg      2011/11/12 07:01:43.9   0.1                          T                 .2  .20 Ml  .9         4786469
MTLF  001.54 071.0 m E Pg      2011/11/12 07:01:38.1  -0.1                          T                                        4786470
MTLF  001.54 071.0 m E Sg      2011/11/12 07:01:58.3   0.2                          T                 .7  .25 Ml 1.5         4786471

.
