EVENT     272253
    Date      Time       Latitude Longitude    Depth    Ndef Nsta Gap    Mag1  N    Mag2  N    Mag3  N   Author         ID
       rms   OT_Error      Smajor Sminor Az        Err   mdist  Mdist     Err        Err        Err      Quality

2012/03/22 01:47:09.8     46.0156    6.8966      2.0     109   28 028  Ml 2.4 21  Md 2.2  2              js067245    272273

      0.63   +-  0.05       1.1     .9  109.75 +-  0.0    0.05   4.92   +-0.2      +-0.0                 m i ke

SWITZERLAND
Sta     Dist  EvAz     Phase      Date       Time     TRes  Azim  AzRes  Slow  SRes Def   SNR       Amp   Per   Mag1   Mag2       ID
LPL   000.51 193.0 m E Pg      2012/03/22 01:47:19.7  -0.1                          T   001.0                                4880700
LPL   000.51 193.0 m E Sg      2012/03/22 01:47:26.9   0.3                          T   001.0       15.6  .26        Md 2.3  4880701
LPG   000.53 191.2 m E Pg      2012/03/22 01:47:20.0  -0.2                          T   001.0                                4880698
LPG   000.53 191.2 m E Sg      2012/03/22 01:47:27.2   0.1                          T   001.0       33.2  .26        Md 2.2  4880699
CABF  000.82 317.0 m E Pg      2012/03/22 01:47:25.1  -0.2                          T   001.0                                4880711
CABF  000.82 317.0 m E Sn      2012/03/22 01:47:38.0  -0.8                          T   001.0       16.4  .31                4880712
MBDF  001.29 184.0 m E Pg      2012/03/22 01:47:34.0  -0.1                          T                                        4894590
MBDF  001.29 184.0 m E P       2012/03/22 01:47:34.9  -0.2                          T                                        4894621
MBDF  001.29 184.0 m E Sg      2012/03/22 01:47:51.4   0.6                          T   001.0        5.0  .29 Ml 2.2         4880716
ORIF  001.31 213.5 m E Pg      2012/03/22 01:47:34.1  -0.2                          T   001.0                                4880719
ORIF  001.31 213.5 m E Sg      2012/03/22 01:47:51.7   0.4                          T   001.0       11.1  .36 Ml 2.4         4880720
HINF  001.80 359.1 m E Pn      2012/03/22 01:47:40.2   0.0                          T   001.0                                4880713
HINF  001.80 359.1 m E Pg      2012/03/22 01:47:43.3  -0.1                          T                                        4882355
HINF  001.80 359.1 m E Sn      2012/03/22 01:48:01.7  -0.5                          T   001.0                                4880714
HINF  001.80 359.1 m E Sg      2012/03/22 01:48:06.2  -0.4                          T                6.0  .26 Ml 2.5         4882356
HAU   002.03 349.5 m E Pn      2012/03/22 01:47:43.6   0.4                          T   001.0                                4880691
HAU   002.03 349.5 m E Sg      2012/03/22 01:48:13.3  -0.2                          T                9.4  .26 Ml 2.5         4882357
VIVF  001.95 234.3 m E Pg      2012/03/22 01:47:45.9  -0.1                          T   001.0                                4880722
VIVF  001.95 234.3 m E Sn      2012/03/22 01:48:05.5  -0.2                          T   001.0                                4880723
VIVF  001.95 234.3 m E Sg      2012/03/22 01:48:10.9  -0.2                          T               11.9  .22 Ml 2.9         4882351
SMF   002.21 287.7 m E P       2012/03/22 01:47:47.3  -0.8                          T   001.0                                4880702
SMF   002.21 287.7 m E Pg      2012/03/22 01:47:50.8   0.0                          T   001.0                                4880703
SMF   002.21 287.7 m E Sg      2012/03/22 01:48:17.8  -1.5                          T                4.9  .20 Ml 2.6         4894586
CDF   002.41 006.0 m E Pn      2012/03/22 01:47:48.4  -0.1                          T   001.0                                4880685
CDF   002.41 006.0 m E Pg      2012/03/22 01:47:54.5  -0.1                          T   001.0                                4880686
CDF   002.41 006.0 m E Sn      2012/03/22 01:48:16.4  -0.5                          T   001.0                                4880687
CDF   002.41 006.0 m E Sg      2012/03/22 01:48:25.5  -0.2                          T   001.0        3.4  .36 Ml 2.4         4880688
SMRF  002.24 205.2 m E P       2012/03/22 01:47:49.3   0.7                          T                                        4894614
SMRF  002.24 205.2 m E Pg      2012/03/22 01:47:52.6   1.1                          T                                        4894613
SMRF  002.24 205.2 m E Sg      2012/03/22 01:48:20.4   0.0                          T                1.1  .28 Ml 1.9         4894591
LOR   002.44 302.0 m E Pn      2012/03/22 01:47:49.6   0.8 120.1  0.3               T   001.0                                4880695
LOR   002.44 302.0 m E Pg      2012/03/22 01:47:54.8  -0.2 120.8  1.0               T                                        4894589
LOR   002.44 302.0 m E Sg      2012/03/22 01:48:25.1  -1.3                          T   001.0        3.3  .26 Ml 2.4         4880697
SBF   002.19 169.7 m E Pg      2012/03/22 01:47:50.5   0.1                          T                                        4894616
AVF   002.57 288.8 m E Pn      2012/03/22 01:47:51.4   0.8                          T                                        4882354
AVF   002.57 288.8 m E Pg      2012/03/22 01:47:57.7   0.3                          T   001.0                                4880680
AVF   002.57 288.8 m E Sg      2012/03/22 01:48:29.9  -0.7                          T   001.0        2.4  .28 Ml 2.3         4880682
FRF   002.46 184.2 m E P       2012/03/22 01:47:51.7   0.1                          T                                        4894615
FRF   002.46 184.2 m E Pg      2012/03/22 01:47:56.3   0.8                          T   001.0                                4880689
FRF   002.46 184.2 m E Sg      2012/03/22 01:48:28.9   1.8                          T                1.8  .27 Ml 2.2         4894593
SSF   002.56 295.3 m E P       2012/03/22 01:47:52.5  -0.6                          T   001.0                                4880705
SSF   002.56 295.3 m E Pg      2012/03/22 01:47:57.2  -0.1                          T                                        4894618
SSF   002.56 295.3 m E Sg      2012/03/22 01:48:29.4  -0.8                          T   001.0        1.7  .25 Ml 2.2         4880706
LMR   002.70 186.0 m E P       2012/03/22 01:47:54.9  -0.1                          T                                        4894617
LMR   002.70 186.0 m E Pg      2012/03/22 01:48:00.2   0.5                          T   001.0                                4880694
LMR   002.70 186.0 m E Sg      2012/03/22 01:48:34.4   0.1                          T                                        4894592
BGF   002.86 282.4 m E Pn      2012/03/22 01:47:55.3   0.8                          T   001.0                                4880683
BGF   002.86 282.4 m E Pg      2012/03/22 01:48:03.1   0.3                          T                                        4882353
BGF   002.86 282.4 m E Sg      2012/03/22 01:48:36.1  -3.5                          T                8.5  .32 Ml 2.8         4894585
LASF  002.90 229.1 m E P       2012/03/22 01:47:57.5  -0.4                          T                                        4894620
LASF  002.90 229.1 m E Pg      2012/03/22 01:48:03.6   0.0                          T                                        4894581
LASF  002.90 229.1 m E Sg      2012/03/22 01:48:40.9   0.1                          T   001.0        2.6  .28 Ml 2.4         4880693
PAGF  002.66 343.0 m E Pg      2012/03/22 01:47:58.1  -1.1                          T                                        4894611
PAGF  002.66 343.0 m E Sg      2012/03/22 01:48:33.0  -0.4                          T                                        4894622
MEZF  002.79 333.9 m E Pg      2012/03/22 01:48:01.4   0.0                          T                                        4894610
MEZF  002.79 333.9 m E Sn      2012/03/22 01:48:25.2  -0.5                          T                                        4894587
MEZF  002.79 333.9 m E Sg      2012/03/22 01:48:37.7   0.5                          T                5.9  .41 Ml 2.5         4894588
TCF   003.27 276.5 m E P       2012/03/22 01:48:01.7  -1.5                          T                                        4894608
TCF   003.27 276.5 m E Pg      2012/03/22 01:48:10.3   0.0                          T                                        4894609
TCF   003.27 276.5 m E Sg      2012/03/22 01:48:51.8  -0.6                          T   001.0                                4880707
THEF  002.30 344.8 m E Sn      2012/03/22 01:48:14.5   0.4                          T                                        4882359
THEF  002.30 344.8 m E Sg      2012/03/22 01:48:21.6  -0.4                          T                4.3  .23 Ml 2.5         4882358
SFTF  002.53 330.6 m E Sn      2012/03/22 01:48:20.8   1.2                          T                2.1  .20 Ml 2.3         4882360
CAF   003.57 254.0 m E Sg      2012/03/22 01:49:02.0   0.2                          T                                        4882352
RJF   003.84 261.3 m E Sg      2012/03/22 01:49:09.8  -0.3                          T   001.0        1.4  .23 Ml 2.1         4880679
MTLF  004.28 233.0 m E Sg      2012/03/22 01:49:23.3  -0.4                          T   001.0                                4880718
LFF   004.46 258.2 m E Sg      2012/03/22 01:49:30.6   1.1                          T                                        4894612

.
EVENT     272255
    Date      Time       Latitude Longitude    Depth    Ndef Nsta Gap    Mag1  N    Mag2  N    Mag3  N   Author         ID
       rms   OT_Error      Smajor Sminor Az        Err   mdist  Mdist     Err        Err        Err      Quality

2012/03/22 02:32:00.5     44.5965    6.9975      2.0      33    7 078  Ml 1.3  5  Md 1.5  2              js067245    272275

      1.14   +-  0.08       2.1    1.3   68.57 +-  0.0    0.12   1.47   +-0.1      +-0.1                 m i ke

FRANCE
Sta     Dist  EvAz     Phase      Date       Time     TRes  Azim  AzRes  Slow  SRes Def   SNR       Amp   Per   Mag1   Mag2       ID
MBDF  000.21 309.0 m E Pg      2012/03/22 02:32:05.0   0.2                          T                                        4882385
MBDF  000.21 309.0 m E Sg      2012/03/22 02:32:08.3   0.6                          T               13.3  .32        Md 1.4  4882384
ORIF  000.86 292.4 m E Pg      2012/03/22 02:32:16.6  -0.2                          T                                        4882383
ORIF  000.86 292.4 m E Sg      2012/03/22 02:32:27.2  -0.8                          T                 .9  .20 Ml 1.4 Md 1.5  4882382
LPL   000.94 348.5 m E Pg      2012/03/22 02:32:18.3  -0.1                          T                                        4882381
LPL   000.94 348.5 m E Sg      2012/03/22 02:32:31.4   0.8                          T                 .5  .16 Ml 1.2         4882376
LPG   000.92 349.1 m E Pg      2012/03/22 02:32:18.6   0.5                          T                                        4882380
LPG   000.92 349.1 m E Sg      2012/03/22 02:32:30.3   0.2                          T                 .5  .18 Ml 1.2         4882379
FRF   001.07 193.8 m E Pg      2012/03/22 02:32:20.3  -0.1                          T                                        4882378
FRF   001.07 193.8 m E Sg      2012/03/22 02:32:34.0  -0.3                          T                 .5  .16 Ml 1.4         4882377
SBF   000.80 156.6 m E Sg      2012/03/22 02:32:25.7  -0.3                          T                                        4894656
LMR   001.31 195.8 m E Pg      2012/03/22 02:32:25.8   0.9                          T                                        4894654
LMR   001.31 195.8 m E Sg      2012/03/22 02:32:41.1  -0.7                          T                                        4894655

.
EVENT     272254
    Date      Time       Latitude Longitude    Depth    Ndef Nsta Gap    Mag1  N    Mag2  N    Mag3  N   Author         ID
       rms   OT_Error      Smajor Sminor Az        Err   mdist  Mdist     Err        Err        Err      Quality

2012/03/22 03:20:02.9     43.1484    -.6763      2.0      59   13 063  Ml 2.6 10  Md 2.7  2              js067245    272274

      0.86   +-  0.10       2.2    1.7  139.89 +-  0.0    0.06   5.50   +-0.3      +-0.1                 m i ke

PYRENEES
Sta     Dist  EvAz     Phase      Date       Time     TRes  Azim  AzRes  Slow  SRes Def   SNR       Amp   Per   Mag1   Mag2       ID
ETSF  000.26 161.0 m E Pg      2012/03/22 03:20:07.3  -0.9                          T   001.0                                4880741
ETSF  000.26 161.0 m E Sg      2012/03/22 03:20:10.7  -1.1                          T              147.1  .22        Md 2.7  4882436
SJPF  000.40 265.2 m E Pg      2012/03/22 03:20:10.5  -0.2                          T   001.0                                4880746
SJPF  000.40 265.2 m E Sg      2012/03/22 03:20:16.5   0.5                          T   001.0       43.6  .22        Md 2.6  4880747
EPF   000.75 098.7 m E Pg      2012/03/22 03:20:17.1  -0.1                          T   001.0                                4880730
EPF   000.75 098.7 m E Sg      2012/03/22 03:20:28.0   1.1                          T                8.7  .18                4894657
LFF   002.06 029.2 m E Pn      2012/03/22 03:20:36.6  -0.1                          T   001.0                                4880734
LFF   002.06 029.2 m E Pg      2012/03/22 03:20:41.8   0.6                          T                                        4882441
LFF   002.06 029.2 m E Sg      2012/03/22 03:21:09.8   2.1                          T   001.0        8.5  .24 Ml 2.6         4880735
MTLF  002.12 083.8 m E Pn      2012/03/22 03:20:37.8   0.2                          T                                        4882439
MTLF  002.12 083.8 m E Pg      2012/03/22 03:20:42.7   0.4                          T                                        4882438
MTLF  002.12 083.8 m E Sn      2012/03/22 03:21:03.0   0.1                          T   001.0                                4880742
MTLF  002.12 083.8 m E Sg      2012/03/22 03:21:09.3  -0.4                          T   001.0        3.1  .25 Ml 2.3         4880743
CAF   002.66 047.1 m E Pn      2012/03/22 03:20:44.9   0.0                          T   001.0                                4880728
CAF   002.66 047.1 m E Sn      2012/03/22 03:21:14.1  -1.7                          T   001.0        3.2  .20 Ml 2.6         4880729
CAF   002.66 047.1 m E Sg      2012/03/22 03:21:26.5   0.1                          T                                        4882440
RJF   002.67 035.4 m E Pn      2012/03/22 03:20:45.3   0.3                          T   001.0                                4880725
RJF   002.67 035.4 m E Pg      2012/03/22 03:20:52.7   0.3                          T                                        4894658
RJF   002.67 035.4 m E Sg      2012/03/22 03:21:27.5   0.8                          T   001.0        5.3  .20 Ml 2.4         4880726
MFF   003.47 006.0 m E Pn      2012/03/22 03:20:54.7  -1.2                          T   001.0                                4880736
MFF   003.47 006.0 m E Pg      2012/03/22 03:21:06.9  -0.3                          T                                        4882442
MFF   003.47 006.0 m E Sn      2012/03/22 03:21:34.5  -0.7                          T   001.0                                4880737
MFF   003.47 006.0 m E Sg      2012/03/22 03:21:51.1  -0.7                          T   001.0        1.1  .17 Ml 2.5         4880738
LASF  003.42 072.7 m E Pn      2012/03/22 03:20:55.3   0.0                          T   001.0                                4880732
LASF  003.42 072.7 m E Sg      2012/03/22 03:21:52.1   1.9                          T   001.0        5.1  .64 Ml 2.4         4880733
BGF   004.23 035.1 m E Pn      2012/03/22 03:21:06.5   0.3                          T                                        4882437
BGF   004.23 035.1 m E Pg      2012/03/22 03:21:20.8  -0.3                          T                                        4882443
BGF   004.23 035.1 m E Sg      2012/03/22 03:22:14.9  -0.5                          T   001.0        6.6  .36 Ml 3.0         4880727
QUIF  005.08 340.7 m E Sn      2012/03/22 03:22:11.7  -1.9                          T   001.0        7.6  .96 Ml 2.8         4880744
ROSF  005.50 341.6 m E Sn      2012/03/22 03:22:24.2   0.6                          T   001.0       10.6  .88 Ml 3.1         4880745
AVF   004.63 036.7 m E Sg      2012/03/22 03:22:27.6  -0.3                          T                 .9  .29 Ml 2.3         4882444

.
EVENT     272256
    Date      Time       Latitude Longitude    Depth    Ndef Nsta Gap    Mag1  N    Mag2  N    Mag3  N   Author         ID
       rms   OT_Error      Smajor Sminor Az        Err   mdist  Mdist     Err        Err        Err      Quality

2012/03/22 05:09:38.2     43.7798    8.4187      3.0 f    27    7 153  Ml 1.6  4  Md 1.6  1              js067245    272276

      0.31   +-  0.10       1.6    1.5   87.77 +-  0.0    0.40   2.15   +-0.3      +-                    m i ke

CORSICA, FRANCE
Sta     Dist  EvAz     Phase      Date       Time     TRes  Azim  AzRes  Slow  SRes Def   SNR       Amp   Per   Mag1   Mag2       ID
SBF   000.72 277.0 m E Pg      2012/03/22 05:09:52.5   0.7                          T                                        4882591
SBF   000.72 277.0 m E Sg      2012/03/22 05:10:01.9   0.7                          T               21.3  .29        Md 1.6  4882590
PGF   001.30 160.8 m E Pn      2012/03/22 05:10:01.9   0.2                          T                                        4882586
PGF   001.30 160.8 m E Sn      2012/03/22 05:10:17.9  -0.7                          T                                        4882587
FRF   001.30 260.9 m E Pg      2012/03/22 05:10:02.4  -0.1                          T                                        4882585
FRF   001.30 260.9 m E Sg      2012/03/22 05:10:19.8   0.3                          T                1.0  .17 Ml 1.8         4882589
LMR   001.46 252.9 m E Pn      2012/03/22 05:10:03.5  -0.2                          T                                        4882583
LMR   001.46 252.9 m E Sn      2012/03/22 05:10:22.7   0.5                          T                                        4882584
MBDF  001.52 309.2 m E Pn      2012/03/22 05:10:04.9   0.2                          T                                        4882582
MBDF  001.52 309.2 m E Pg      2012/03/22 05:10:06.8   0.1                          T                                        4882581
MBDF  001.52 309.2 m E Sg      2012/03/22 05:10:26.3   0.1                          T                 .2  .18 Ml 1.2         4882580
ORIF  002.15 302.9 m E Sn      2012/03/22 05:10:39.4   0.5                          T                  1  .26 Ml 1.8         4882588
SMRF  002.07 276.4 m E Sg      2012/03/22 05:10:44.0   0.8                          T                1.3  .30 Ml 1.9         4882579

.
