EVENT     289433
    Date      Time       Latitude Longitude    Depth    Ndef Nsta Gap    Mag1  N    Mag2  N    Mag3  N   Author         ID
       rms   OT_Error      Smajor Sminor Az        Err   mdist  Mdist     Err        Err        Err      Quality

2012/12/21 17:30:44.5     43.7718    6.4732      3.0 f    20   10 111  Ml 1.9  6  Md 1.9  1              bulletin    289533
                                                                                                         _ldg
      0.24   +-  0.06       1.4     .9   65.07 +-  0.0    0.25   2.22   +-0.2      +-                    m i ke

NEAR SOUTH COAST OF FRANCE
Sta     Dist  EvAz     Phase      Date       Time     TRes  Azim  AzRes  Slow  SRes Def   SNR       Amp   Per   Mag1   Mag2       ID
FRF   000.25 149.1 m E Pg      2012/12/21 17:30:49.2  -0.2                          T                                        5162764
FRF   000.25 149.1 m E Sg      2012/12/21 17:30:53.3   0.5                          T               18.7  .26        Md 1.9  5162765
LMR   000.44 176.6 m E Pg      2012/12/21 17:30:52.7  -0.2                          T                                        5162756
LMR   000.44 176.6 m E Sg      2012/12/21 17:30:58.6  -0.1                          T               11.8  .32                5162757
SMRF  000.68 287.8 m E Pg      2012/12/21 17:30:57.3  -0.2                          T                                        5162758
SMRF  000.68 287.8 m E Sg      2012/12/21 17:31:06.1  -0.2                          T                2.1  .22                5162759
SBF   000.70 082.2 m E Pg      2012/12/21 17:30:57.5  -0.4                          T                                        5162755
SBF   000.70 082.2 m E Sg      2012/12/21 17:31:07.0   0.0                          T                                        5163358
SBF   000.70 082.2 m E Sn      2012/12/21 17:31:10.7   0.1                          T                6.6  .27                5163359
MBDF  000.98 012.5 m E Pg      2012/12/21 17:31:03.3   0.3                          T                                        5162762
MBDF  000.98 012.5 m E Sn      2012/12/21 17:31:17.4   0.2                          T                2.2  .26 Ml 1.7         5162763
ORIF  001.22 339.8 m E Pg      2012/12/21 17:31:07.4  -0.1                          T                                        5162760
ORIF  001.22 339.8 m E Sg      2012/12/21 17:31:23.8   0.5                          T                2.9  .34 Ml 1.8         5162761
LPG   001.74 006.5 m E Pn      2012/12/21 17:31:14.3   0.0                          T                                        5163354
LPG   001.74 006.5 m E P       2012/12/21 17:31:16.0  -0.2                          T                                        5163355
LPG   001.74 006.5 m E Sg      2012/12/21 17:31:39.7   0.1                          T                 .8  .21 Ml 1.8         5163360
LPL   001.75 006.0 m E P       2012/12/21 17:31:16.1  -0.3                          T                                        5163356
LPL   001.75 006.0 m E Sg      2012/12/21 17:31:40.2   0.1                          T                1.7  .35 Ml 1.8         5163361
VIVF  001.69 310.6 m E Sg      2012/12/21 17:31:37.8   0.1                          T                2.2  .41 Ml 1.8         5163357
PGF   002.22 122.6 m E Sn      2012/12/21 17:31:47.1   0.3                          T                2.1  .27 Ml 2.4         5163353

.
EVENT     288895
    Date      Time       Latitude Longitude    Depth    Ndef Nsta Gap    Mag1  N    Mag2  N    Mag3  N   Author         ID
       rms   OT_Error      Smajor Sminor Az        Err   mdist  Mdist     Err        Err        Err      Quality

2012/12/22 02:14:09.9     44.8976   11.3525      9.0 f    62   17 132  Ml 2.7 19                         bulletin    288995
                                                                                                         _ldg
      0.62   +-  0.14       2.7    2.0   86.68 +-  0.0    0.12   5.90   +-0.3                            m i ke

NORTHERN ITALY
Sta     Dist  EvAz     Phase      Date       Time     TRes  Azim  AzRes  Slow  SRes Def   SNR       Amp   Per   Mag1   Mag2       ID
PGF   002.90 216.8 m E Pn      2012/12/22 02:14:54.4  -0.1                          T                                        5145232
PGF   002.90 216.8 m E Sn      2012/12/22 02:15:27.5   0.0                          T               10.6  .31 Ml 3.2         5145231
SBF   002.99 251.2 m E Pn      2012/12/22 02:14:56.9   1.1                          T                                        5145230
SBF   002.99 251.2 m E Sn      2012/12/22 02:15:30.3   0.7                          T                                        5145229
SBF   002.99 251.2 m E Sg      2012/12/22 02:15:43.3  -0.6                          T               27.8  .36 Ml 3.3         5145191
MBDF  003.26 268.6 m E Pn      2012/12/22 02:14:59.3  -0.2                          T                                        5145216
MBDF  003.26 268.6 m E Sn      2012/12/22 02:15:35.9  -0.2                          T                                        5145215
MBDF  003.26 268.6 m E Sg      2012/12/22 02:15:52.2  -0.3                          T                8.8  .51 Ml 2.7         5145193
LPL   003.32 282.4 m E Pn      2012/12/22 02:15:00.6   0.2                          T                                        5145222
LPL   003.32 282.4 m E Pg      2012/12/22 02:15:11.7  -0.1                          T                                        5145221
LPL   003.32 282.4 m E Sn      2012/12/22 02:15:37.5  -0.1                          T                3.2  .31 Ml 2.5         5145220
LPG   003.31 282.1 m E Pn      2012/12/22 02:15:00.7   0.4                          T                                        5145224
LPG   003.31 282.1 m E Sn      2012/12/22 02:15:38.2   0.8                          T                                        5145223
LPG   003.31 282.1 m E Sg      2012/12/22 02:15:53.1  -0.9                          T                8.3  .55 Ml 2.7         5145192
FRF   003.64 250.1 m E Pn      2012/12/22 02:15:04.6   0.2                          T                                        5145226
FRF   003.64 250.1 m E Pg      2012/12/22 02:15:16.9  -0.3                          T                                        5145184
FRF   003.64 250.1 m E Sn      2012/12/22 02:15:44.9   0.0                          T                6.0  .26 Ml 3.0         5145225
LMR   003.82 247.6 m E Pn      2012/12/22 02:15:06.8  -0.1                          T                                        5145228
LMR   003.82 247.6 m E Sn      2012/12/22 02:15:49.4   0.1                          T                5.0  .26 Ml 2.9         5145227
ORIF  003.89 272.2 m E Pn      2012/12/22 02:15:07.9   0.0                          T                                        5145219
ORIF  003.89 272.2 m E Pg      2012/12/22 02:15:21.9  -0.1                          T                                        5145218
ORIF  003.89 272.2 m E Sn      2012/12/22 02:15:50.9  -0.1                          T                6.0  .57 Ml 2.6         5145217
CABF  004.06 296.8 m E Pn      2012/12/22 02:15:10.8   0.4                          T                                        5145195
CABF  004.06 296.8 m E Sn      2012/12/22 02:15:56.3   1.1                          T                3.7  .45 Ml 2.6         5145194
HINF  004.27 314.7 m E Pn      2012/12/22 02:15:13.2   0.1                          T                                        5145207
HINF  004.27 314.7 m E Pg      2012/12/22 02:15:28.0  -0.9                          T                                        5145206
HINF  004.27 314.7 m E Sn      2012/12/22 02:16:00.6   0.5                          T                2.8  .26 Ml 2.7         5145205
CDF   004.50 322.8 m E Pn      2012/12/22 02:15:16.3   0.0                          T                                        5145233
CDF   004.50 322.8 m E Sn      2012/12/22 02:16:05.5   0.0                          T                2.8  .25 Ml 2.9         5145201
HAU   004.65 313.7 m E Pn      2012/12/22 02:15:18.4   0.1                          T                                        5145204
HAU   004.65 313.7 m E Pg      2012/12/22 02:15:35.4  -0.5                          T                                        5145203
HAU   004.65 313.7 m E Sn      2012/12/22 02:16:09.5   0.4                          T                7.0  .38 Ml 2.8         5145202
VIVF  004.75 271.8 m E Pn      2012/12/22 02:15:19.6   0.0                          T                                        5145214
VIVF  004.75 271.8 m E Pg      2012/12/22 02:15:37.2  -0.5                          T                                        5145213
VIVF  004.75 271.8 m E Sn      2012/12/22 02:16:12.1   0.6                          T                 .7  .18 Ml 2.4         5145212
SMF   005.54 291.0 m E Pn      2012/12/22 02:15:30.4   0.1                          T                                        5145211
SMF   005.54 291.0 m E Sn      2012/12/22 02:16:30.8   0.5                          T                1.3  .23 Ml 2.7         5145210
LOR   005.73 297.1 m E Pn      2012/12/22 02:15:33.1   0.2 116.1  4.4               T                                        5145200
LOR   005.73 297.1 m E Sn      2012/12/22 02:16:35.2   0.3                          T                1.1  .23 Ml 2.7         5145199
SSF   005.88 294.4 m E Pn      2012/12/22 02:15:35.3   0.3                          T                                        5145198
SSF   005.88 294.4 m E Pg      2012/12/22 02:15:56.9  -1.7                          T                                        5145197
SSF   005.88 294.4 m E Sn      2012/12/22 02:16:38.8   0.3                          T                 .5  .22 Ml 2.5         5145196
AVF   005.90 291.5 m E Pn      2012/12/22 02:15:35.3   0.1                          T                                        5145209
AVF   005.90 291.5 m E Sn      2012/12/22 02:16:39.5   0.5                          T                 .3  .23 Ml 2.2         5145208

.
EVENT     288897
    Date      Time       Latitude Longitude    Depth    Ndef Nsta Gap    Mag1  N    Mag2  N    Mag3  N   Author         ID
       rms   OT_Error      Smajor Sminor Az        Err   mdist  Mdist     Err        Err        Err      Quality

2012/12/22 09:59:58.9     46.3666    2.0475     13.0 f    43   12 104  Ml 2.0 15  Md 2.1  3              bulletin    288997
                                                                                                         _ldg
      0.86   +-  0.07       1.8    1.1  134.80 +-  0.0    0.14   3.03   +-0.3      +-0.1                 m i ke

FRANCE
Sta     Dist  EvAz     Phase      Date       Time     TRes  Azim  AzRes  Slow  SRes Def   SNR       Amp   Per   Mag1   Mag2       ID
TCF   000.14 124.8 m E Pg      2012/12/22 10:00:02.4  -0.1                          T                                        5145272
TCF   000.14 124.8 m E Sg      2012/12/22 10:00:05.1   0.0                          T               18.7  .24        Md 2.2  5145271
BGF   000.58 070.6 m E Pg      2012/12/22 10:00:10.3   0.2                          T                                        5145268
BGF   000.58 070.6 m E Sg      2012/12/22 10:00:18.3   0.4                          T               14.7  .29        Md 2.0  5145267
HYF   000.99 024.0 m E Pn      2012/12/22 10:00:16.7  -0.2                          T                                        5145291
HYF   000.99 024.0 m E Sg      2012/12/22 10:00:30.8   0.3                          T                                        5145290
AVF   001.00 064.3 m E Pg      2012/12/22 10:00:17.7   0.0                          T                                        5145270
AVF   001.00 064.3 m E Sg      2012/12/22 10:00:31.0   0.3                          T                1.0  .18 Ml 1.6         5145269
RJF   001.13 199.5 m E Pn      2012/12/22 10:00:18.1  -0.6                          T                                        5145266
RJF   001.13 199.5 m E Pg      2012/12/22 10:00:20.0  -0.1                          T                                        5163688
RJF   001.13 199.5 m E Sn      2012/12/22 10:00:33.0  -0.1                          T                9.8  .24 Ml 2.2         5163686
RJF   001.13 199.5 m E Sg      2012/12/22 10:00:34.7   0.0                          T               11.2  .33 Ml 2.1         5145278
SSF   001.22 054.8 m E Pn      2012/12/22 10:00:20.5   0.4                          T                                        5163692
SSF   001.22 054.8 m E Pg      2012/12/22 10:00:21.7  -0.1                          T                                        5145287
SSF   001.22 054.8 m E Sg      2012/12/22 10:00:37.5  -0.2                          T                1.6  .20 Ml 1.9         5145286
SMF   001.27 076.7 m E Pn      2012/12/22 10:00:20.7  -0.1                          T                                        5145279
SMF   001.27 076.7 m E Pg      2012/12/22 10:00:22.7   0.0                          T                                        5145281
SMF   001.27 076.7 m E Sg      2012/12/22 10:00:39.1  -0.1                          T                1.5  .15 Ml 1.9         5145280
CAF   001.44 179.5 m E Pn      2012/12/22 10:00:22.9  -0.2                          T                                        5145275
CAF   001.44 179.5 m E Pg      2012/12/22 10:00:25.9   0.0                          T                                        5145274
CAF   001.44 179.5 m E Sn      2012/12/22 10:00:40.5  -0.3                          T                2.8  .18 Ml 2.2         5145273
CAF   001.44 179.5 m E Sg      2012/12/22 10:00:44.6   0.1                          T                                        5163684
MFF   001.53 279.6 m E Pn      2012/12/22 10:00:24.5   0.2                          T                                        5145282
MFF   001.53 279.6 m E Sn      2012/12/22 10:00:42.7  -0.2                          T                2.3  .23 Ml 2.2         5145265
MFF   001.53 279.6 m E Sg      2012/12/22 10:00:47.1  -0.2                          T                4.2  .20 Ml 2.5         5163687
LOR   001.54 053.4 m E Pn      2012/12/22 10:00:25.1   0.7 235.7  1.0               T                                        5145285
LOR   001.54 053.4 m E Pg      2012/12/22 10:00:27.3  -0.3 239.2  4.5               T                                        5163691
LOR   001.54 053.4 m E Sn      2012/12/22 10:00:42.9  -0.1                          T                                        5145284
LOR   001.54 053.4 m E Sg      2012/12/22 10:00:47.1  -0.4 215.2  -19.5             T                1.6  .28 Ml 1.8         5145283
LFF   001.70 213.2 m E Pn      2012/12/22 10:00:26.7   0.2                          T                                        5145277
LFF   001.70 213.2 m E Sn      2012/12/22 10:00:46.4  -0.4                          T                1.8  .27 Ml 1.8         5145276
LFF   001.70 213.2 m E Sg      2012/12/22 10:00:52.5   0.1                          T                4.1  .39 Ml 2.0         5163685
MTLF  003.03 177.7 m E Pn      2012/12/22 10:00:44.5  -0.1                          T                                        5145289
MTLF  003.03 177.7 m E Sg      2012/12/22 10:01:33.6  -0.4                          T                 .7  .23 Ml 1.9         5145288

.
