EVENT     260221
    Date      Time       Latitude Longitude    Depth    Ndef Nsta Gap    Mag1  N    Mag2  N    Mag3  N   Author         ID
       rms   OT_Error      Smajor Sminor Az        Err   mdist  Mdist     Err        Err        Err      Quality

2011/06/10 23:23:30.8     43.0752    -.2323      2.0       5    3 182             Md 1.3  2              js067245    260221

      0.36   +-  0.36      17.0    3.9  170.71 +-  0.0    0.30   0.73              +-0.0                 m i ke

PYRENEES
Sta     Dist  EvAz     Phase      Date       Time     TRes  Azim  AzRes  Slow  SRes Def   SNR       Amp   Per   Mag1   Mag2       ID
ETSF  000.30 233.8 m E Pg      2011/06/10 23:23:37.0   0.3                          T                                        4706448
ETSF  000.30 233.8 m E Sg      2011/06/10 23:23:40.0  -0.7                          T                2.4  .23        Md 1.2  4706449
EPF   000.42 095.9 m E Pg      2011/06/10 23:23:38.9  -0.1                          T                                        4706446
EPF   000.42 095.9 m E Sg      2011/06/10 23:23:44.3  -0.3                          T                1.5  .17        Md 1.3  4706447
SJPF  000.73 273.3 m E Sg      2011/06/10 23:23:53.8  -0.3                          T                 .3  .20                4706445

.
EVENT     260223
    Date      Time       Latitude Longitude    Depth    Ndef Nsta Gap    Mag1  N    Mag2  N    Mag3  N   Author         ID
       rms   OT_Error      Smajor Sminor Az        Err   mdist  Mdist     Err        Err        Err      Quality

2011/06/11 01:06:56.6     45.9483    7.5346      2.0      28   10 133  Ml 1.9  8  Md 2.0  3              js067245    260223

      0.33   +-  0.04       1.0     .6  121.11 +-  0.0    0.16   3.02   +-0.1      +-0.1                 m i ke

NORTHERN ITALY
Sta     Dist  EvAz     Phase      Date       Time     TRes  Azim  AzRes  Slow  SRes Def   SNR       Amp   Per   Mag1   Mag2       ID
LPG   000.71 230.9 m E Pg      2011/06/11 01:07:10.2  -0.2                          T                                        4706468
LPG   000.71 230.9 m E Sg      2011/06/11 01:07:19.7   0.0                          T                4.2  .24        Md 2.0  4706454
LPL   000.71 232.7 m E Pg      2011/06/11 01:07:10.2   0.0                          T                                        4706467
LPL   000.71 232.7 m E Sg      2011/06/11 01:07:19.7   0.2                          T                4.0  .25        Md 1.9  4706455
CABF  001.20 304.0 m E Pg      2011/06/11 01:07:19.1   0.0                          T                                        4706464
CABF  001.20 304.0 m E Sg      2011/06/11 01:07:34.9   0.1                          T                1.3  .21 Ml 1.7 Md 2.0  4706458
MBDF  001.33 204.1 m E Pn      2011/06/11 01:07:20.7   0.0                          T                                        4706470
MBDF  001.33 204.1 m E Pg      2011/06/11 01:07:21.7   0.0                          T                                        4706469
MBDF  001.33 204.1 m E Sg      2011/06/11 01:07:39.1   0.2                          T                2.1  .24 Ml 1.9         4706453
ORIF  001.56 229.1 m E Pg      2011/06/11 01:07:25.7   0.0                          T                                        4706471
ORIF  001.56 229.1 m E Sg      2011/06/11 01:07:45.8   0.1                          T                1.5  .27 Ml 1.8         4706452
HINF  001.93 346.2 m E Pn      2011/06/11 01:07:28.7   0.0                          T                                        4706463
HINF  001.93 346.2 m E Pg      2011/06/11 01:07:32.4   0.0                          T                                        4706462
HINF  001.93 346.2 m E Sg      2011/06/11 01:07:57.2   0.0                          T                1.4  .24 Ml 2.0         4706459
HAU   002.21 338.9 m E P       2011/06/11 01:07:34.8  -0.1                          T                                        4706461
HAU   002.21 338.9 m E Sg      2011/06/11 01:08:06.4   0.2                          T                1.1  .26 Ml 1.6         4706460
VIVF  002.29 242.6 m E Pg      2011/06/11 01:07:39.1  -0.1                          T                                        4706466
VIVF  002.29 242.6 m E Sg      2011/06/11 01:08:08.7   0.0                          T                1.9  .34 Ml 2.0         4706456
AVF   003.02 287.7 m E P       2011/06/11 01:07:46.4   0.1                          T                                        4706465
SMF   002.65 286.6 m E Sg      2011/06/11 01:08:20.1   0.2                          T                 .8  .20 Ml 1.9         4706457

.
EVENT     260224
    Date      Time       Latitude Longitude    Depth    Ndef Nsta Gap    Mag1  N    Mag2  N    Mag3  N   Author         ID
       rms   OT_Error      Smajor Sminor Az        Err   mdist  Mdist     Err        Err        Err      Quality

2011/06/11 01:31:26.1     41.0488    1.5711     20.0 f    27    4 156  Ml 1.7  4                         js067245    260224

      0.48   +-  0.12       2.2    1.4  144.21 +-  0.0    0.36   2.93   +-0.3                            m i ke

SPAIN
Sta     Dist  EvAz     Phase      Date       Time     TRes  Azim  AzRes  Slow  SRes Def   SNR       Amp   Per   Mag1   Mag2       ID
EPF   002.18 335.6 m E Pg      2011/06/11 01:32:07.3   0.5                          T                                        4706473
EPF   002.18 335.6 m E Sg      2011/06/11 01:32:35.6   0.6                          T                1.4  .30 Ml 1.9         4706477
ETSF  002.44 320.0 m E Pg      2011/06/11 01:32:11.9   0.4                          T                                        4706474
ETSF  002.44 320.0 m E Sg      2011/06/11 01:32:43.4   0.4                          T                1.5  .34 Ml 1.9         4706478
SJPF  002.93 315.7 m E Pg      2011/06/11 01:32:20.8   0.3                          T                                        4706472
SJPF  002.93 315.7 m E Sg      2011/06/11 01:32:58.8   0.5                          T                 .3  .23 Ml 1.6         4706475
MTLF  002.34 011.6 m E Sg      2011/06/11 01:32:40.4   0.5                          T                 .1  .16 Ml 1.2         4706476

.
EVENT     260225
    Date      Time       Latitude Longitude    Depth    Ndef Nsta Gap    Mag1  N    Mag2  N    Mag3  N   Author         ID
       rms   OT_Error      Smajor Sminor Az        Err   mdist  Mdist     Err        Err        Err      Quality

2011/06/11 01:44:36.8     45.9484    7.5329      2.0      30   10 090  Ml 1.8  8  Md 2.0  2              js067245    260225

      0.17   +-  0.04        .9     .5  119.76 +-  0.0    0.16   3.01   +-0.2      +-0.0                 m i ke

NORTHERN ITALY
Sta     Dist  EvAz     Phase      Date       Time     TRes  Azim  AzRes  Slow  SRes Def   SNR       Amp   Per   Mag1   Mag2       ID
LPG   000.71 230.8 m E Pg      2011/06/11 01:44:50.4  -0.2                          T                                        4706491
LPG   000.71 230.8 m E Sg      2011/06/11 01:44:59.9   0.1                          T                5.7  .26        Md 2.0  4706485
LPL   000.71 232.7 m E Pg      2011/06/11 01:44:50.4  -0.1                          T                                        4706492
LPL   000.71 232.7 m E Sg      2011/06/11 01:44:59.9   0.2                          T                5.9  .30        Md 1.9  4706484
CABF  001.20 304.0 m E Pg      2011/06/11 01:44:59.4   0.0                          T                                        4706495
CABF  001.20 304.0 m E Sg      2011/06/11 01:45:15.1   0.1                          T                2.2  .26 Ml 1.8         4706481
MBDF  001.33 204.0 m E Pn      2011/06/11 01:45:00.9  -0.1                          T                                        4706490
MBDF  001.33 204.0 m E Pg      2011/06/11 01:45:01.9   0.0                          T                                        4706489
MBDF  001.33 204.0 m E Sg      2011/06/11 01:45:19.3   0.2                          T                2.4  .22 Ml 2.0         4706486
ORIF  001.55 229.1 m E Pg      2011/06/11 01:45:05.9   0.0                          T                                        4706488
ORIF  001.55 229.1 m E Sg      2011/06/11 01:45:26.0   0.1                          T                 .5  .16 Ml 1.5         4706487
HINF  001.93 346.2 m E Pn      2011/06/11 01:45:08.9   0.0                          T                                        4706497
HINF  001.93 346.2 m E Pg      2011/06/11 01:45:12.7   0.0                          T                                        4706496
HINF  001.93 346.2 m E Sg      2011/06/11 01:45:37.4  -0.1                          T                1.6  .28 Ml 1.9         4706480
HAU   002.21 338.9 m E P       2011/06/11 01:45:14.9  -0.2                          T                                        4706498
HAU   002.21 338.9 m E Sg      2011/06/11 01:45:46.6   0.2                          T                1.7  .31 Ml 1.8         4706479
VIVF  002.29 242.6 m E Pg      2011/06/11 01:45:19.4   0.0                          T                                        4706493
VIVF  002.29 242.6 m E Sg      2011/06/11 01:45:48.9   0.0                          T                2.0  .29 Ml 2.1         4706483
AVF   003.01 287.7 m E P       2011/06/11 01:45:26.5   0.0                          T                                        4706494
SMF   002.65 286.6 m E Sg      2011/06/11 01:46:00.4   0.3                          T                 .9  .23 Ml 2.0         4706482

.
EVENT     260226
    Date      Time       Latitude Longitude    Depth    Ndef Nsta Gap    Mag1  N    Mag2  N    Mag3  N   Author         ID
       rms   OT_Error      Smajor Sminor Az        Err   mdist  Mdist     Err        Err        Err      Quality

2011/06/11 03:36:53.1     43.7779    7.7636     15.0      16    7 179  Ml 1.9  6  Md 2.1  1              js067245    260226

      0.37   +-  0.10       2.6    1.5   39.37 +-  0.0    0.25   1.77   +-0.2      +-                    m i ke

NEAR SOUTH COAST OF FRANCE
Sta     Dist  EvAz     Phase      Date       Time     TRes  Azim  AzRes  Slow  SRes Def   SNR       Amp   Per   Mag1   Mag2       ID
SBF   000.25 289.8 m E Pg      2011/06/11 03:36:58.5  -0.3                          T                                        4706515
SBF   000.25 289.8 m E Sg      2011/06/11 03:37:02.4  -0.2                          T               38.0  .24        Md 2.1  4706516
FRF   000.84 255.4 m E Pg      2011/06/11 03:37:09.5   0.4                          T                                        4706513
FRF   000.84 255.4 m E Sg      2011/06/11 03:37:20.1   0.0                          T                4.3  .18                4706514
LMR   001.01 244.5 m E Pg      2011/06/11 03:37:11.9  -0.4                          T                                        4706511
LMR   001.01 244.5 m E Sg      2011/06/11 03:37:25.5   0.0                          T                2.5  .18 Ml 2.0         4706512
MBDF  001.19 323.4 m E Pg      2011/06/11 03:37:15.5  -0.1                          T                                        4706505
MBDF  001.19 323.4 m E Sg      2011/06/11 03:37:31.1   0.0                          T                2.2  .22 Ml 1.9         4706506
PGF   001.53 143.2 m E Pn      2011/06/11 03:37:18.2  -0.1                          T                                        4706509
PGF   001.53 143.2 m E Sn      2011/06/11 03:37:37.3   0.6                          T                1.1  .23 Ml 2.0         4706510
SMRF  001.59 277.9 m E Pn      2011/06/11 03:37:19.2   0.0                          T                                        4706501
SMRF  001.59 277.9 m E Sg      2011/06/11 03:37:44.0   0.4                          T                2.4  .21 Ml 2.1         4706504
ORIF  001.77 310.8 m E Pg      2011/06/11 03:37:26.3   0.1                          T                                        4706502
ORIF  001.77 310.8 m E Sg      2011/06/11 03:37:49.5   0.5                          T                 .9  .21 Ml 1.8         4706503

.
EVENT     260222
    Date      Time       Latitude Longitude    Depth    Ndef Nsta Gap    Mag1  N    Mag2  N    Mag3  N   Author         ID
       rms   OT_Error      Smajor Sminor Az        Err   mdist  Mdist     Err        Err        Err      Quality

2011/06/11 03:51:20.1     46.7258   10.0390      2.0      15    3 118  Ml 1.8  3                         js067245    260222

      0.87   +-  0.26       7.4    4.1   41.77 +-  0.0    0.12   2.72   +-0.4                            m i ke

NORTHERN ITALY
Sta     Dist  EvAz     Phase      Date       Time     TRes  Azim  AzRes  Slow  SRes Def   SNR       Amp   Per   Mag1   Mag2       ID
HINF  002.43 297.9 m E Pn      2011/06/11 03:52:00.7   1.6                          T                                        4706534
HINF  002.43 297.9 m E Pg      2011/06/11 03:52:06.3   1.1                          T                                        4706533
HINF  002.43 297.9 m E Sg      2011/06/11 03:52:34.5  -2.0                          T                 .2  .15 Ml 1.4         4706536
CDF   002.52 313.1 m E Pn      2011/06/11 03:52:01.1   0.8                          T                                        4706538
CDF   002.52 313.1 m E Pg      2011/06/11 03:52:07.7   0.8                          T                                        4706537
CDF   002.52 313.1 m E Sg      2011/06/11 03:52:41.0   1.6                          T                2.4  .38 Ml 2.2         4706539
CABF  002.72 269.0 m E Pg      2011/06/11 03:52:11.4   0.7                          T                                        4706532
CABF  002.72 269.0 m E Sg      2011/06/11 03:52:46.0   0.3                          T                 .9  .29 Ml 1.8         4706535

.
EVENT     260227
    Date      Time       Latitude Longitude    Depth    Ndef Nsta Gap    Mag1  N    Mag2  N    Mag3  N   Author         ID
       rms   OT_Error      Smajor Sminor Az        Err   mdist  Mdist     Err        Err        Err      Quality

2011/06/11 09:36:01.1     44.6117   10.0468      2.0      25   15 226  Ml 2.5  9                         js067245    260227

      0.93   +-  0.34       7.8    3.6   85.74 +-  0.0    2.02   5.79   +-0.2                            m i ke

NORTHERN ITALY
Sta     Dist  EvAz     Phase      Date       Time     TRes  Azim  AzRes  Slow  SRes Def   SNR       Amp   Per   Mag1   Mag2       ID
SBF   002.02 249.2 m E Pn      2011/06/11 09:36:33.4  -1.1                          T                                        4706559
SBF   002.02 249.2 m E Sn      2011/06/11 09:36:59.0   0.1                          T                9.0  .29 Ml 2.7         4706562
PGF   002.20 200.6 m E Pn      2011/06/11 09:36:37.4   0.4                          T                                        4706560
PGF   002.20 200.6 m E Sn      2011/06/11 09:37:03.0  -0.2                          T                3.0  .32 Ml 2.5         4706561
MBDF  002.34 274.0 m E Pn      2011/06/11 09:36:39.0   0.0                          T                                        4706546
LPL   002.52 292.2 m E Pn      2011/06/11 09:36:40.8  -0.7                          T                                        4706548
LPG   002.50 291.9 m E Pn      2011/06/11 09:36:41.2  -0.1                          T                                        4706547
FRF   002.67 248.0 m E Pn      2011/06/11 09:36:42.7  -0.5                          T                                        4706557
FRF   002.67 248.0 m E Sn      2011/06/11 09:37:13.6  -0.6                          T                2.7  .18 Ml 2.6         4706564
LMR   002.86 244.7 m E Pn      2011/06/11 09:36:45.0  -0.8                          T                                        4706558
LMR   002.86 244.7 m E Sn      2011/06/11 09:37:17.8  -0.9                          T                1.2  .14 Ml 2.3         4706563
ORIF  002.98 277.4 m E P       2011/06/11 09:36:50.7   0.1                          T                                        4706556
ORIF  002.98 277.4 m E Sn      2011/06/11 09:37:23.8   1.9                          T                2.9  .27 Ml 2.5         4706565
SMRF  003.27 260.4 m E Pn      2011/06/11 09:36:51.9   0.4                          T                                        4706545
CABF  003.42 307.1 m E Pn      2011/06/11 09:36:53.3  -0.3                          T                                        4706552
CABF  003.42 307.1 m E Sn      2011/06/11 09:37:32.8   0.4                          T                 .7  .22 Ml 2.0         4706566
VIVF  003.84 275.5 m E Pn      2011/06/11 09:36:59.5   0.2                          T                                        4706555
HINF  003.90 326.5 m E Pn      2011/06/11 09:37:00.2   0.1                          T                                        4706551
HINF  003.90 326.5 m E Sn      2011/06/11 09:37:44.2   0.5                          T                2.5  .28 Ml 2.6         4706568
HAU   004.25 324.3 m E Pn      2011/06/11 09:37:04.9   0.0                          T                                        4706550
HAU   004.25 324.3 m E Sn      2011/06/11 09:37:51.6  -0.6                          T                7.6  .36 Ml 2.8         4706567
MTLF  005.79 260.1 m E Pn      2011/06/11 09:37:26.3   0.5                          T                                        4706549
CDF   004.26 334.3 m E Sn      2011/06/11 09:37:51.8  -0.5                          T                2.0  .24 Ml 2.7         4706544

.
EVENT     260228
    Date      Time       Latitude Longitude    Depth    Ndef Nsta Gap    Mag1  N    Mag2  N    Mag3  N   Author         ID
       rms   OT_Error      Smajor Sminor Az        Err   mdist  Mdist     Err        Err        Err      Quality

2011/06/11 09:44:24.7     48.1666   -3.1615     15.0       9    4 155  Ml 1.7  1  Md 1.2  2              js067245    260228

      1.92   +-  0.19       3.9    3.0  160.38 +-  0.0    0.19   1.55   +-         +-0.0                 m i ke

FRANCE
Sta     Dist  EvAz     Phase      Date       Time     TRes  Azim  AzRes  Slow  SRes Def   SNR       Amp   Per   Mag1   Mag2       ID
ROSF  000.19 336.3 m E Pg      2011/06/11 09:44:29.2   0.0                          T                                        4706581
ROSF  000.19 336.3 m E Sg      2011/06/11 09:44:32.2  -0.1                          T                2.0  .16        Md 1.3  4706582
QUIF  000.25 180.6 m E Pg      2011/06/11 09:44:30.2   0.0                          T                                        4706577
QUIF  000.25 180.6 m E Sg      2011/06/11 09:44:33.9  -0.1                          T                3.9  .21        Md 1.2  4706578
SGMF  000.41 077.5 m E Pg      2011/06/11 09:44:33.0   0.1                          T                                        4706579
SGMF  000.41 077.5 m E Sg      2011/06/11 09:44:38.7   0.0                          T                3.7  .22                4706580
GRR   001.55 080.9 m E Sg      2011/06/11 09:45:13.6  -0.2                          T                1.1  .19 Ml 1.7         4706583

.
