EVENT     255893
    Date      Time       Latitude Longitude    Depth    Ndef Nsta Gap    Mag1  N    Mag2  N    Mag3  N   Author         ID
       rms   OT_Error      Smajor Sminor Az        Err   mdist  Mdist     Err        Err        Err      Quality

2011/02/10 13:58:06.1     44.3236    3.4166      4.0 f    32   12 094  Ml 2.3 12  Md 0.4  2              js067245    255913

      0.79   +-  0.10       1.9    1.8   59.94 +-  0.0    0.40   2.74   +-0.3      +-2.6                 m i ke

FRANCE
Sta     Dist  EvAz     Phase      Date       Time     TRes  Azim  AzRes  Slow  SRes Def   SNR       Amp   Per   Mag1   Mag2       ID
LASF  000.40 127.8 m E Pg      2011/02/10 13:58:13.7  -0.2                          T                                        4645832
LASF  000.40 127.8 m E Sg      2011/02/10 13:58:19.0  -0.2                          T               30.6  .20        Md 2.3  4645833
VIVF  001.04 058.9 m E Pg      2011/02/10 13:58:25.6  -0.1                          T                                        4645830
VIVF  001.04 058.9 m E Sg      2011/02/10 13:58:39.5   0.3                          T               22.0  .26 Ml 2.8         4645831
CAF   001.14 302.4 m E Pg      2011/02/10 13:58:27.9   0.4                          T                                        4645822
CAF   001.14 302.4 m E Sg      2011/02/10 13:58:43.2   0.9                          T               14.7  .18 Ml 2.8         4645823
MTLF  001.31 221.9 m E Pn      2011/02/10 13:58:29.4  -0.2                          T                                        4645828
MTLF  001.31 221.9 m E Pg      2011/02/10 13:58:30.7   0.1                          T                                        4645811
MTLF  001.31 221.9 m E Sg      2011/02/10 13:58:46.4  -1.2                          T                                        4645821
MTLF  001.31 221.9 m E Sn      2011/02/10 13:58:49.5   3.1                          T                4.5  .22 Ml 2.3         4645829
SMRF  001.59 101.9 m E Pn      2011/02/10 13:58:33.6   0.2                          T                                        4645809
SMRF  001.59 101.9 m E Pg      2011/02/10 13:58:36.2   0.4                          T                                        4645808
SMRF  001.59 101.9 m E Sg      2011/02/10 13:58:57.4   1.0                          T                6.0  .38 Ml 2.3         4645810
RJF   001.67 306.6 m E Pn      2011/02/10 13:58:34.7   0.3                          T                                        4645826
RJF   001.67 306.6 m E Pg      2011/02/10 13:58:37.3   0.0                          T                                        4645812
RJF   001.67 306.6 m E Sg      2011/02/10 13:58:58.8   0.0                          T               10.5  .20 Ml 2.5         4645827
SMF   002.34 007.2 m E Pn      2011/02/10 13:58:43.3  -0.3                          T                                        4645815
SMF   002.34 007.2 m E Pg      2011/02/10 13:58:49.7   0.2                          T                                        4645814
SMF   002.34 007.2 m E Sg      2011/02/10 13:59:19.5  -0.3                          T                2.4  .19 Ml 2.4         4645818
TCF   002.14 337.0 m E Pg      2011/02/10 13:58:46.3   0.3                          T                                        4645842
TCF   002.14 337.0 m E Sg      2011/02/10 13:59:13.4  -0.1                          T                1.0  .17 Ml 2.1         4645844
SSF   002.74 001.3 m E Pn      2011/02/10 13:58:48.0  -1.0                          T                                        4645841
SSF   002.74 001.3 m E Pg      2011/02/10 13:58:56.6  -0.3                          T                                        4645840
SSF   002.74 001.3 m E Sg      2011/02/10 13:59:31.7  -0.5                          T                 .5  .15 Ml 2.0         4645843
AVF   002.47 359.0 m E P       2011/02/10 13:58:48.8   0.9                          T                                        4645816
AVF   002.47 359.0 m E Pg      2011/02/10 13:58:51.5  -0.4                          T                                        4645847
AVF   002.47 359.0 m E Sg      2011/02/10 13:59:23.2  -0.4                          T                1.9  .24 Ml 2.2         4645817
LFF   002.01 288.8 m E Sn      2011/02/10 13:59:03.0  -0.1                          T                                        4645824
LFF   002.01 288.8 m E Sg      2011/02/10 13:59:10.0   0.7                          T                                        4645825
ORIF  001.86 070.5 m E Sg      2011/02/10 13:59:05.1   0.4                          T                2.1  .28 Ml 2.0         4645820

.
EVENT     255894
    Date      Time       Latitude Longitude    Depth    Ndef Nsta Gap    Mag1  N    Mag2  N    Mag3  N   Author         ID
       rms   OT_Error      Smajor Sminor Az        Err   mdist  Mdist     Err        Err        Err      Quality

2011/02/10 15:14:35.9     47.5393    8.1828       .0 f    15    8 247  Ml 2.2  8  Md 2.2  3              js067245    255914

      0.69   +-  0.22       3.4    2.0  117.63 +-  0.0    0.94   2.95   +-0.2      +-0.0                 m i km

SWITZERLAND
Sta     Dist  EvAz     Phase      Date       Time     TRes  Azim  AzRes  Slow  SRes Def   SNR       Amp   Per   Mag1   Mag2       ID
HINF  000.94 287.7 m E Pg      2011/02/10 15:14:54.0   0.2                          T                                        4645860
HINF  000.94 287.7 m E Sg      2011/02/10 15:15:06.3   0.0                          T               14.8  .28 Ml 2.5 Md 2.2  4645857
CDF   001.06 325.4 m E Pg      2011/02/10 15:14:56.2   0.0                          T                                        4645859
CDF   001.06 325.4 m E Sg      2011/02/10 15:15:10.0  -0.2                          T                8.7  .24 Ml 2.5 Md 2.2  4645858
HAU   001.32 291.3 m E Pg      2011/02/10 15:15:00.8  -0.1                          T                                        4645850
HAU   001.32 291.3 m E Sg      2011/02/10 15:15:18.2   0.0                          T               10.3  .32 Ml 2.2 Md 2.2  4645855
LANF  001.46 350.2 m E Pg      2011/02/10 15:15:03.4  -0.1                          T                                        4645852
LANF  001.46 350.2 m E Sn      2011/02/10 15:15:21.0   0.0                          T                4.0  .27 Ml 2.2         4645853
THEF  001.63 295.9 m E Pg      2011/02/10 15:15:06.4  -0.1                          T                                        4648363
THEF  001.63 295.9 m E Sg      2011/02/10 15:15:27.8   0.1                          T                3.4  .28 Ml 2.2         4648364
CABF  001.71 237.8 m E Pg      2011/02/10 15:15:08.1   0.1                          T                                        4645849
CABF  001.71 237.8 m E Sg      2011/02/10 15:15:30.0  -0.2                          T                2.8  .27 Ml 2.1         4645856
PAGF  001.94 302.6 m E Pg      2011/02/10 15:15:12.3   0.1 127.9  7.2               T                                        4645851
PAGF  001.94 302.6 m E Sg      2011/02/10 15:15:37.4   0.1                          T                2.8  .42 Ml 2.0         4645854
LOR   002.95 266.3 m E Sg      2011/02/10 15:16:08.9   0.0  84.5  1.4               T                1.4  .25 Ml 2.2         4648365

.
EVENT     255895
    Date      Time       Latitude Longitude    Depth    Ndef Nsta Gap    Mag1  N    Mag2  N    Mag3  N   Author         ID
       rms   OT_Error      Smajor Sminor Az        Err   mdist  Mdist     Err        Err        Err      Quality

2011/02/10 21:25:47.5     34.7826   -2.6454     30.0      67    4 257  Ml 3.1  4                         js067245    255915

      0.90   +-  0.39       8.2    4.4  165.19 +-  0.0    0.56   8.74   +-0.2                            m i ke

MOROCCO
Sta     Dist  EvAz     Phase      Date       Time     TRes  Azim  AzRes  Slow  SRes Def   SNR       Amp   Per   Mag1   Mag2       ID
EVOP  005.78 311.9 m E Pn      2011/02/10 21:27:09.3   0.0                          T                                        4645868
EVOP  005.78 311.9 m E Sn      2011/02/10 21:28:10.6  -0.1                          T                8.9  .43 Ml 3.4         4645867
ETSF  008.27 010.7 m E Pn      2011/02/10 21:27:43.4   0.0                          T                                        4645865
ETSF  008.27 010.7 m E Sn      2011/02/10 21:29:10.0  -0.2                          T                1.7  .65 Ml 2.9         4645862
SJPF  008.39 007.1 m E Pn      2011/02/10 21:27:45.1   0.1                          T                                        4645866
SJPF  008.39 007.1 m E Sn      2011/02/10 21:29:13.0  -0.2                          T                1.6  .50 Ml 3.0         4645863
EPF   008.56 014.9 m E P       2011/02/10 21:27:52.2  -0.2                          T                                        4645864
EPF   008.56 014.9 m E Sn      2011/02/10 21:29:17.0  -0.1                          T                1.7  .49 Ml 3.0         4645861

.
EVENT     255897
    Date      Time       Latitude Longitude    Depth    Ndef Nsta Gap    Mag1  N    Mag2  N    Mag3  N   Author         ID
       rms   OT_Error      Smajor Sminor Az        Err   mdist  Mdist     Err        Err        Err      Quality

2011/02/11 00:10:09.6     44.6136    6.5995      2.0       9    6 182  Ml 0.8  4  Md 1.3  1              js067245    255917

      0.99   +-  0.33       6.3    3.3  160.96 +-  0.0    0.17   1.39   +-0.3      +-                    m i ke

FRANCE
Sta     Dist  EvAz     Phase      Date       Time     TRes  Azim  AzRes  Slow  SRes Def   SNR       Amp   Per   Mag1   Mag2       ID
MBDF  000.17 047.2 m E Pg      2011/02/11 00:10:13.2   0.1                          T                                        4645869
MBDF  000.17 047.2 m E Sg      2011/02/11 00:10:14.5  -1.1                          T                3.1  .22        Md 1.3  4645871
ORIF  000.60 301.0 m E Sg      2011/02/11 00:10:28.9   0.1                          T                 .6  .20                4645870
LPG   000.89 006.9 m E Sg      2011/02/11 00:10:38.2   0.0                          T                 .3  .22 Ml  .9         4648590
LPL   000.91 005.9 m E Sg      2011/02/11 00:10:38.6  -0.1                          T                 .5  .25 Ml 1.1         4648591
SMRF  000.97 229.4 m E Sn      2011/02/11 00:10:42.4   0.2                          T                 .1  .23 Ml  .5         4648589
VIVF  001.39 280.7 m E Sg      2011/02/11 00:10:52.4  -1.2                          T                 .2  .23 Ml  .9         4648592

.
EVENT     255896
    Date      Time       Latitude Longitude    Depth    Ndef Nsta Gap    Mag1  N    Mag2  N    Mag3  N   Author         ID
       rms   OT_Error      Smajor Sminor Az        Err   mdist  Mdist     Err        Err        Err      Quality

2011/02/11 05:11:46.4     41.9442    3.6409     10.0 f    78   15 140  Ml 2.5 17  Md 2.7  1              js067245    255916

      0.63   +-  0.11       2.2    1.3  155.87 +-  0.0    0.51   4.65   +-0.3      +-                    m i ke

SPAIN
Sta     Dist  EvAz     Phase      Date       Time     TRes  Azim  AzRes  Slow  SRes Def   SNR       Amp   Per   Mag1   Mag2       ID
MTLF  001.75 323.5 m E Pn      2011/02/11 05:12:15.8   0.8                          T                                        4645902
MTLF  001.75 323.5 m E Pg      2011/02/11 05:12:19.2   0.2                          T                                        4645920
MTLF  001.75 323.5 m E Sn      2011/02/11 05:12:34.7  -1.4                          T                                        4648679
MTLF  001.75 323.5 m E Sg      2011/02/11 05:12:41.2  -0.3                          T               11.7  .24 Ml 2.8 Md 2.7  4645887
LASF  002.14 004.2 m E Pn      2011/02/11 05:12:20.6   0.2                          T                                        4645903
LASF  002.14 004.2 m E Pg      2011/02/11 05:12:24.6  -1.5                          T                                        4645918
LASF  002.14 004.2 m E Sn      2011/02/11 05:12:45.2  -0.2                          T                                        4648680
LASF  002.14 004.2 m E Sg      2011/02/11 05:12:53.6  -0.1                          T                5.1  .23 Ml 2.6         4645886
LMR   002.53 055.8 m E Pn      2011/02/11 05:12:25.3  -0.4                          T                                        4645907
LMR   002.53 055.8 m E Pg      2011/02/11 05:12:32.5  -0.8                          T                                        4645909
LMR   002.53 055.8 m E Sn      2011/02/11 05:12:54.4  -0.4                          T                5.5  .28 Ml 2.6         4645879
EPF   002.67 295.1 m E Pn      2011/02/11 05:12:28.1   0.4                          T                                        4645901
EPF   002.67 295.1 m E Pg      2011/02/11 05:12:35.5  -0.5                          T                                        4645919
EPF   002.67 295.1 m E Sg      2011/02/11 05:13:09.9  -0.5                          T                3.8  .16 Ml 2.7         4645888
FRF   002.74 052.9 m E Pn      2011/02/11 05:12:29.0   0.4                          T                                        4645908
FRF   002.74 052.9 m E Pg      2011/02/11 05:12:37.0  -0.2                          T                                        4645910
FRF   002.74 052.9 m E Sn      2011/02/11 05:12:59.9   0.1                          T                                        4648681
FRF   002.74 052.9 m E S       2011/02/11 05:13:05.1   0.0                          T                3.9  .30                4645880
VIVF  003.01 014.1 m E Pn      2011/02/11 05:12:32.6   0.3                          T                                        4645904
VIVF  003.01 014.1 m E P       2011/02/11 05:12:35.0  -0.2                          T                                        4645917
VIVF  003.01 014.1 m E Pg      2011/02/11 05:12:42.0  -0.1                          T                                        4648678
VIVF  003.01 014.1 m E Sn      2011/02/11 05:13:05.4  -0.8                          T                                        4648677
VIVF  003.01 014.1 m E Sg      2011/02/11 05:13:20.1  -0.7                          T                2.0  .21 Ml 2.4         4645885
CAF   003.19 339.5 m E Pn      2011/02/11 05:12:35.2   0.4                          T                                        4645898
CAF   003.19 339.5 m E Pg      2011/02/11 05:12:45.4  -0.2                          T                                        4645914
CAF   003.19 339.5 m E Sg      2011/02/11 05:13:26.4  -0.3                          T                4.8  .19 Ml 2.9         4645891
ETSF  003.25 288.5 m E Pn      2011/02/11 05:12:36.4   0.7                          T                                        4645900
ETSF  003.25 288.5 m E Pg      2011/02/11 05:12:46.4  -0.4                          T                                        4645916
ETSF  003.25 288.5 m E Sg      2011/02/11 05:13:28.5   0.0                          T                6.7  .30 Ml 2.8         4645889
ORIF  003.39 028.0 m E Pn      2011/02/11 05:12:37.8   0.3                          T                                        4645905
ORIF  003.39 028.0 m E Sg      2011/02/11 05:13:32.0  -0.9                          T                  1  .41 Ml 1.9         4645883
MBDF  003.60 038.3 m E Pn      2011/02/11 05:12:40.8   0.3                          T                                        4645906
MBDF  003.60 038.3 m E Pg      2011/02/11 05:12:52.4  -0.8                          T                                        4645911
MBDF  003.60 038.3 m E Sg      2011/02/11 05:13:38.5  -0.9                          T                 .5  .23 Ml 1.9         4645884
LFF   003.66 325.8 m E Pn      2011/02/11 05:12:41.6   0.5                          T                                        4645897
LFF   003.66 325.8 m E Pg      2011/02/11 05:12:53.8  -0.4                          T                                        4645913
LFF   003.66 325.8 m E Sg      2011/02/11 05:13:40.8  -0.4                          T                7.5  .34 Ml 2.7         4645892
RJF   003.70 336.1 m E Pn      2011/02/11 05:12:41.9   0.2                          T                                        4645896
RJF   003.70 336.1 m E Pg      2011/02/11 05:12:54.3  -0.5                          T                                        4645912
RJF   003.70 336.1 m E Sg      2011/02/11 05:13:41.9  -0.4                          T                5.6  .20 Ml 2.7         4645893
SJPF  003.78 289.6 m E Pn      2011/02/11 05:12:43.3   0.5                          T                                        4645899
SJPF  003.78 289.6 m E Pg      2011/02/11 05:12:56.2  -0.2                          T                                        4645915
SJPF  003.78 289.6 m E Sg      2011/02/11 05:13:44.9  -0.1                          T                4.7  .36 Ml 2.7         4645890
LPL   004.22 031.1 m E Pn      2011/02/11 05:12:49.5   0.5                          T                                        4645881
LPL   004.22 031.1 m E Sg      2011/02/11 05:13:58.0  -0.8                          T                1.6  .46 Ml 2.2         4645882
BGF   004.65 353.2 m E Pn      2011/02/11 05:12:54.9   0.3                          T                                        4645877
BGF   004.65 353.2 m E Sg      2011/02/11 05:14:11.4  -0.6                          T                3.6  .33 Ml 2.8         4645878

.
EVENT     255900
    Date      Time       Latitude Longitude    Depth    Ndef Nsta Gap    Mag1  N    Mag2  N    Mag3  N   Author         ID
       rms   OT_Error      Smajor Sminor Az        Err   mdist  Mdist     Err        Err        Err      Quality

2011/02/11 05:38:30.3     43.0540     .1421      6.0 f     6    3 185  Ml 1.4  1  Md 1.2  2              js067245    255920

      0.06   +-  0.04       3.0     .5    1.20 +-  0.0    0.15   1.00   +-         +-0.0                 m i ke

FRANCE
Sta     Dist  EvAz     Phase      Date       Time     TRes  Azim  AzRes  Slow  SRes Def   SNR       Amp   Per   Mag1   Mag2       ID
EPF   000.15 099.2 m E Pg      2011/02/11 05:38:33.5  -0.1                          T                                        4645926
EPF   000.15 099.2 m E Sg      2011/02/11 05:38:35.8   0.0                          T               11.9  .20        Md 1.3  4645923
ETSF  000.54 253.4 m E Pg      2011/02/11 05:38:40.6  -0.1                          T                                        4645925
ETSF  000.54 253.4 m E Sg      2011/02/11 05:38:47.8   0.1                          T                5.9  .24        Md 1.2  4645924
SJPF  001.00 273.9 m E Pg      2011/02/11 05:38:49.2   0.0                          T                                        4645921
SJPF  001.00 273.9 m E Sg      2011/02/11 05:39:02.1  -0.1                          T                1.4  .33 Ml 1.4         4645922

.
