EVENT     256590
    Date      Time       Latitude Longitude    Depth    Ndef Nsta Gap    Mag1  N    Mag2  N    Mag3  N   Author         ID
       rms   OT_Error      Smajor Sminor Az        Err   mdist  Mdist     Err        Err        Err      Quality

2011/03/02 23:51:36.4     43.2134   -1.7301     25.0      15    2 294  Ml 1.1  1  Md 1.3  2              js067245    256610

      0.39   +-  0.29       5.0    4.0  103.19 +-  0.0    0.16   1.53   +-         +-0.1                 m i ke

PYRENEES
Sta     Dist  EvAz     Phase      Date       Time     TRes  Azim  AzRes  Slow  SRes Def   SNR       Amp   Per   Mag1   Mag2       ID
SJPF  000.38 105.0 m E Pg      2011/03/02 23:51:44.9   0.0                          T                                        4656288
SJPF  000.38 105.0 m E Sg      2011/03/02 23:51:50.4  -0.3                          T                1.6  .31        Md 1.3  4656287
EPF   001.53 096.2 m E Pg      2011/03/02 23:52:05.3   0.1                          T                                        4656400
EPF   001.53 096.2 m E Sg      2011/03/02 23:52:25.0  -0.1                          T                 .2  .19 Ml 1.1 Md 1.4  4656286

.
EVENT     256591
    Date      Time       Latitude Longitude    Depth    Ndef Nsta Gap    Mag1  N    Mag2  N    Mag3  N   Author         ID
       rms   OT_Error      Smajor Sminor Az        Err   mdist  Mdist     Err        Err        Err      Quality

2011/03/03 02:53:43.1     41.2816    1.1822      3.0 f    31    5 187  Ml 2.2  6  Md 2.3  1              js067245    256611

      0.41   +-  0.10       2.0    1.2  148.00 +-  0.0    0.11   3.70   +-0.3      +-                    m i ke

SPAIN
Sta     Dist  EvAz     Phase      Date       Time     TRes  Azim  AzRes  Slow  SRes Def   SNR       Amp   Per   Mag1   Mag2       ID
EPF   001.86 340.6 m E Pn      2011/03/03 02:54:14.3   0.2                          T                                        4656292
EPF   001.86 340.6 m E Pg      2011/03/03 02:54:17.4  -0.3                          T                                        4656406
EPF   001.86 340.6 m E Sn      2011/03/03 02:54:36.5  -0.3                          T                                        4656407
EPF   001.86 340.6 m E Sg      2011/03/03 02:54:41.6  -0.1                          T                6.2  .25 Ml 2.6 Md 2.3  4656296
MTLF  002.20 020.1 m E Pn      2011/03/03 02:54:18.9   0.2                          T                                        4656291
MTLF  002.20 020.1 m E Sn      2011/03/03 02:54:44.7  -0.1                          T                                        4656409
MTLF  002.20 020.1 m E Sg      2011/03/03 02:54:52.4   0.2                          T                3.2  .22 Ml 2.4         4656294
SJPF  002.56 316.5 m E Pn      2011/03/03 02:54:23.5  -0.1                          T                                        4656293
SJPF  002.56 316.5 m E Pg      2011/03/03 02:54:30.2  -0.4                          T                                        4656403
SJPF  002.56 316.5 m E Sn      2011/03/03 02:54:53.7   0.2                          T                                        4656408
SJPF  002.56 316.5 m E Sg      2011/03/03 02:55:03.3  -0.2                          T                3.3  .29 Ml 2.4         4656295
LASF  003.42 034.3 m E Sg      2011/03/03 02:55:31.1   0.7                          T                 .6  .27 Ml 1.9         4656405
CAF   003.70 009.8 m E Sg      2011/03/03 02:55:39.4   0.3                          T                 .6  .24 Ml 2.0         4656404

.
EVENT     256651
    Date      Time       Latitude Longitude    Depth    Ndef Nsta Gap    Mag1  N    Mag2  N    Mag3  N   Author         ID
       rms   OT_Error      Smajor Sminor Az        Err   mdist  Mdist     Err        Err        Err      Quality

2011/03/03 16:02:06.0     48.4879    5.5296       .0 f    19    9 149  Ml 1.9  4  Md 1.9  1              js067245    256651

      1.01   +-  0.07       1.1     .9   17.86 +-  0.0    0.15   1.92   +-0.1      +-                    m i km

FRANCE
Sta     Dist  EvAz     Phase      Date       Time     TRes  Azim  AzRes  Slow  SRes Def   SNR       Amp   Per   Mag1   Mag2       ID
PAGF  000.15 062.6 m E Pg      2011/03/03 16:02:09.0  -0.3 236.8  -6.0              T                                        4656503
PAGF  000.15 062.6 m E Sg      2011/03/03 16:02:11.4  -0.2 252.4  9.7               T                                        4656497
PAGF  000.15 062.6 m E Sn      2011/03/03 16:02:15.4  -0.1 250.7  8.0               T               38.9  .65        Md 1.9  4656504
MEZF  000.32 272.7 m E Pg      2011/03/03 16:02:12.3  -0.1  95.4  3.1               T                                        4656501
MEZF  000.32 272.7 m E Sg      2011/03/03 16:02:16.8  -0.1  87.8  -4.6              T               69.3  .59                4656502
THEF  000.40 129.8 m E Pg      2011/03/03 16:02:14.2   0.1                          T                                        4656498
THEF  000.40 129.8 m E Sg      2011/03/03 16:02:19.8   0.2                          T                7.7  .30                4656494
SFTF  000.43 229.4 m E Pg      2011/03/03 16:02:14.6   0.1                          T                                        4656488
SFTF  000.43 229.4 m E Sg      2011/03/03 16:02:20.7   0.1  51.7  2.7               T               22.2  .49                4656495
HAU   000.73 131.1 m E Pg      2011/03/03 16:02:20.2   0.1                          T                                        4656489
HAU   000.73 131.1 m E Sg      2011/03/03 16:02:29.9   0.1                          T                                        4656492
HAU   000.73 131.1 m E Sn      2011/03/03 16:02:33.6   0.1                          T                6.0  .30                4656493
HINF  001.11 126.7 m E Pg      2011/03/03 16:02:27.2   0.0                          T                                        4656490
HINF  001.11 126.7 m E Sg      2011/03/03 16:02:41.9   0.2                          T                3.1  .24 Ml 2.0         4656500
CDF   001.17 093.1 m E Pg      2011/03/03 16:02:28.3   0.1                          T                                        4656487
CDF   001.17 093.1 m E Sg      2011/03/03 16:02:43.6   0.1                          T                1.6  .22 Ml 1.9         4656499
LOR   001.66 223.3 m E Pg      2011/03/03 16:02:37.2   0.0  44.0  1.9               T                                        4656486
LOR   001.66 223.3 m E Sg      2011/03/03 16:02:58.8   0.0  41.8  -0.2              T                2.2  .25 Ml 2.1         4656496
CABF  001.92 168.4 m E Sg      2011/03/03 16:03:07.0   0.1                          T                1.1  .27 Ml 1.8         4656491

.
EVENT     256641
    Date      Time       Latitude Longitude    Depth    Ndef Nsta Gap    Mag1  N    Mag2  N    Mag3  N   Author         ID
       rms   OT_Error      Smajor Sminor Az        Err   mdist  Mdist     Err        Err        Err      Quality

2011/03/04 01:37:46.7     43.6557    8.4078     10.0 f    15    7 205  Ml 1.8  4  Md 1.9  1              js067245    256641

      0.51   +-  0.22       6.4    3.0   38.45 +-  0.0    0.73   2.21   +-0.2      +-                    m i ke

CORSICA, FRANCE
Sta     Dist  EvAz     Phase      Date       Time     TRes  Azim  AzRes  Slow  SRes Def   SNR       Amp   Per   Mag1   Mag2       ID
SBF   000.73 286.7 m E Pn      2011/03/04 01:38:02.1   0.5                          T                                        4656525
SBF   000.73 286.7 m E Sn      2011/03/04 01:38:12.7   0.5                          T               21.5  .22        Md 1.9  4656526
PGF   001.19 158.4 m E Pn      2011/03/04 01:38:07.6  -0.3                          T                                        4656517
PGF   001.19 158.4 m E Sn      2011/03/04 01:38:24.0   0.8                          T                                        4656518
FRF   001.28 266.4 m E Pg      2011/03/04 01:38:10.3  -0.4                          T                                        4656521
FRF   001.28 266.4 m E Sg      2011/03/04 01:38:27.6   0.3                          T                 .7  .23 Ml 1.5         4656522
LMR   001.42 257.5 m E Pn      2011/03/04 01:38:10.7  -0.2                          T                                        4656523
LMR   001.42 257.5 m E P       2011/03/04 01:38:12.7  -0.1                          T                                        4656512
LMR   001.42 257.5 m E Sg      2011/03/04 01:38:31.1  -0.4                          T                2.5  .27 Ml 2.0         4656524
MBDF  001.59 312.9 m E Pg      2011/03/04 01:38:16.3  -0.3                          T                                        4656519
MBDF  001.59 312.9 m E Sn      2011/03/04 01:38:34.7   1.9                          T                1.7  .25 Ml 1.9         4656520
SMRF  002.08 279.9 m E P       2011/03/04 01:38:23.0   0.8                          T                                        4656514
SMRF  002.08 279.9 m E Sg      2011/03/04 01:38:52.4   0.4                          T                1.1  .20 Ml 2.0         4656516
ORIF  002.21 305.7 m E Pg      2011/03/04 01:38:27.5  -0.4                          T                                        4656515

.
EVENT     256642
    Date      Time       Latitude Longitude    Depth    Ndef Nsta Gap    Mag1  N    Mag2  N    Mag3  N   Author         ID
       rms   OT_Error      Smajor Sminor Az        Err   mdist  Mdist     Err        Err        Err      Quality

2011/03/04 05:44:13.7     43.0447   -1.1554     15.0      14    3 119  Ml 1.3  1  Md 1.2  2              js067245    256642

      0.35   +-  0.09       2.6    1.6   16.18 +-  0.0    0.09   1.42   +-         +-0.1                 m i ke

PYRENEES
Sta     Dist  EvAz     Phase      Date       Time     TRes  Azim  AzRes  Slow  SRes Def   SNR       Amp   Per   Mag1   Mag2       ID
SJPF  000.09 323.4 m E Pg      2011/03/04 05:44:17.2   0.3                          T                                        4656541
SJPF  000.09 323.4 m E Sg      2011/03/04 05:44:19.3   0.2                          T               18.2  .16        Md 1.3  4656542
ETSF  000.46 108.3 m E Pg      2011/03/04 05:44:23.1   0.2                          T                                        4656539
ETSF  000.46 108.3 m E Sg      2011/03/04 05:44:29.6   0.3                          T                3.0  .17        Md 1.1  4656540
EPF   001.10 090.2 m E Pg      2011/03/04 05:44:34.5   0.1                          T                                        4656537
EPF   001.10 090.2 m E Sg      2011/03/04 05:44:48.6  -0.1                          T                 .7  .23 Ml 1.3         4656538

.
EVENT     256662
    Date      Time       Latitude Longitude    Depth    Ndef Nsta Gap    Mag1  N    Mag2  N    Mag3  N   Author         ID
       rms   OT_Error      Smajor Sminor Az        Err   mdist  Mdist     Err        Err        Err      Quality

2011/03/04 10:53:30.1     47.9781    6.4001       .0 f    20    9 090  Ml 2.0  4  Md 1.9  3              js067245    256662

      1.45   +-  0.12       2.9    1.8   11.63 +-  0.0    0.04   1.86   +-0.1      +-0.0                 m i km

FRANCE
Sta     Dist  EvAz     Phase      Date       Time     TRes  Azim  AzRes  Slow  SRes Def   SNR       Amp   Per   Mag1   Mag2       ID
HAU   000.04 308.2 m E Pg      2011/03/04 10:53:31.7   0.4                          T                                        4656571
HAU   000.04 308.2 m E Sg      2011/03/04 10:53:32.6   0.5                          T             1005.8  .28        Md 2.0  4656572
THEF  000.37 312.7 m E Pg      2011/03/04 10:53:37.4  -0.1                          T                                        4656567
THEF  000.37 312.7 m E Sg      2011/03/04 10:53:42.7   0.1                          T              118.6  .91        Md 1.9  4656568
HINF  000.34 117.8 m E Pg      2011/03/04 10:53:37.5   0.4                          T                                        4656569
HINF  000.34 117.8 m E Sg      2011/03/04 10:53:41.1  -0.8                          T               59.1  .74        Md 1.9  4656570
CDF   000.73 053.1 m E Pg      2011/03/04 10:53:44.2  -0.1                          T                                        4656561
CDF   000.73 053.1 m E P       2011/03/04 10:53:45.5  -0.2                          T                                        4656562
CDF   000.73 053.1 m E Pn      2011/03/04 10:53:46.5   0.1                          T                                        4656563
CDF   000.73 053.1 m E Sg      2011/03/04 10:53:53.7  -0.3                          T                                        4656564
CDF   000.73 053.1 m E Sn      2011/03/04 10:53:57.7  -0.1                          T                5.8  .26                4656565
PAGF  000.73 322.3 m E Pg      2011/03/04 10:53:44.2  -0.1 147.9  6.2               T                                        4656558
PAGF  000.73 322.3 m E Pn      2011/03/04 10:53:46.2  -0.1                          T                                        4656559
PAGF  000.73 322.3 m E Sn      2011/03/04 10:53:57.6  -0.1 152.6  10.8              T                1.3  .35                4656560
SFTF  000.94 284.5 m E Pn      2011/03/04 10:53:49.2   0.0 107.3  3.9               T                                        4656554
SFTF  000.94 284.5 m E Sn      2011/03/04 10:54:02.6  -0.1                          T                4.0  .20 Ml 2.1         4656555
MEZF  001.04 300.7 m E Pg      2011/03/04 10:53:49.8  -0.1 119.0  -0.7              T                                        4656556
MEZF  001.04 300.7 m E Sg      2011/03/04 10:54:03.8   0.1                          T                4.1  .28 Ml 2.0         4656557
CABF  001.38 189.0 m E Sg      2011/03/04 10:54:14.7   0.3                          T                1.7  .27 Ml 1.8         4656553
LOR   001.86 248.5 m E Sg      2011/03/04 10:54:29.3   0.1  86.7  20.1              T                1.8  .20 Ml 2.1         4656566

.
EVENT     256681
    Date      Time       Latitude Longitude    Depth    Ndef Nsta Gap    Mag1  N    Mag2  N    Mag3  N   Author         ID
       rms   OT_Error      Smajor Sminor Az        Err   mdist  Mdist     Err        Err        Err      Quality

2011/03/05 02:46:54.5     51.4277   15.8670      1.0 f    58   16 164  Ml 3.4 16                         js067245    256681

      0.41   +-  0.17       4.5    2.3    3.45 +-  0.0    0.64  10.36   +-0.4                            m i sr

POLAND
Sta     Dist  EvAz     Phase      Date       Time     TRes  Azim  AzRes  Slow  SRes Def   SNR       Amp   Per   Mag1   Mag2       ID
LANF  005.73 247.8 m E Pn      2011/03/05 02:48:18.3  -0.1                          T                                        4656918
LANF  005.73 247.8 m E Sg      2011/03/05 02:49:53.9   0.2                          T               41.5  .79 Ml 3.8         4656908
RUP   005.87 256.3 m E Pn      2011/03/05 02:48:21.0   0.6                          T                                        4656921
RUP   005.87 256.3 m E Sg      2011/03/05 02:49:58.7   0.4                          T                                        4656906
CDF   006.32 244.8 m E Pn      2011/03/05 02:48:27.9   1.4                          T                                        4656922
CDF   006.32 244.8 m E Sg      2011/03/05 02:50:12.1  -0.2                          T               17.0  .82 Ml 3.6         4656907
HINF  006.88 241.8 m E Pn      2011/03/05 02:48:34.0  -0.1                          T                                        4656919
HINF  006.88 241.8 m E Sg      2011/03/05 02:50:29.9   0.1                          T               12.5  .76 Ml 3.4         4656899
HAU   007.06 244.7 m E Pn      2011/03/05 02:48:36.3  -0.2                          T                                        4656892
HAU   007.06 244.7 m E Sg      2011/03/05 02:50:35.3   0.0                          T               13.6  .72 Ml 3.3         4656900
THEF  007.14 247.2 m E Pn      2011/03/05 02:48:37.7   0.0                          T                                        4656891
THEF  007.14 247.2 m E Sg      2011/03/05 02:50:38.3   0.3                          T                3.0  .35 Ml 3.2         4656901
PAGF  007.14 250.2 m E Pn      2011/03/05 02:48:38.4   0.8                          T                                        4656920
PAGF  007.14 250.2 m E Sg      2011/03/05 02:50:38.1   0.2                          T                8.0 1.13 Ml 3.1         4656904
BAIF  007.52 264.1 m E Pn      2011/03/05 02:48:42.8   0.0                          T                                        4656915
BAIF  007.52 264.1 m E Sg      2011/03/05 02:50:50.1   0.2                          T                8.1  .83 Ml 3.3         4656905
MEZF  007.56 251.4 m E Pn      2011/03/05 02:48:43.3  -0.1                          T                                        4656913
MEZF  007.56 251.4 m E Sg      2011/03/05 02:50:51.2   0.1                          T               75.9 1.62 Ml 4.0         4656903
SFTF  007.71 249.5 m E Pn      2011/03/05 02:48:45.3  -0.1                          T                                        4656912
SFTF  007.71 249.5 m E Sg      2011/03/05 02:50:56.1   0.4                          T               37.7 1.34 Ml 3.8         4656902
CABF  008.03 236.9 m E Pn      2011/03/05 02:48:49.8  -0.1                          T                                        4656893
CABF  008.03 236.9 m E Sg      2011/03/05 02:51:06.0   0.1                          T               51.0 1.32 Ml 4.0         4656898
LPL   008.47 229.3 m E Pn      2011/03/05 02:48:55.9  -0.1                          T                                        4656894
LPL   008.47 229.3 m E Sg      2011/03/05 02:51:19.7   0.0                          T                3.0  .75 Ml 3.1         4656897
LPG   008.48 229.1 m E Pn      2011/03/05 02:48:56.0  -0.1                          T                                        4656895
LPG   008.48 229.1 m E Sg      2011/03/05 02:51:19.8  -0.1                          T                8.9  .86 Ml 3.5         4656896
LOR   008.87 246.7 m E Pn      2011/03/05 02:49:01.1  -0.2                          T                                        4656916
LOR   008.87 246.7 m E Sg      2011/03/05 02:51:31.9  -0.1                          T                 .4  .25 Ml 2.8         4656911
SSF   009.19 246.4 m E Pn      2011/03/05 02:49:04.5  -1.0                          T                                        4656917
SSF   009.19 246.4 m E Sg      2011/03/05 02:51:41.8   0.1                          T                1.1  .51 Ml 3.0         4656910
TCF   010.36 245.6 m E Pn      2011/03/05 02:49:20.8  -0.7                          T                                        4656914
TCF   010.36 245.6 m E Sg      2011/03/05 02:52:18.4   0.0                          T                1.8  .67 Ml 3.3         4656909

.
