EVENT     264601
    Date      Time       Latitude Longitude    Depth    Ndef Nsta Gap    Mag1  N    Mag2  N    Mag3  N   Author         ID
       rms   OT_Error      Smajor Sminor Az        Err   mdist  Mdist     Err        Err        Err      Quality

2011/10/01 11:30:34.1     44.6322   10.2606      2.0      36    9 102  Ml 2.4  3                         js067245    264621

      0.56   +-  0.14       3.0    2.3   54.97 +-  0.0    0.14   3.43   +-0.1                            m i ke

NORTHERN ITALY
Sta     Dist  EvAz     Phase      Date       Time     TRes  Azim  AzRes  Slow  SRes Def   SNR       Amp   Per   Mag1   Mag2       ID
PGF   002.28 204.2 m E Pn      2011/10/01 11:31:11.0   0.0                          T                                        4763906
PGF   002.28 204.2 m E Pg      2011/10/01 11:31:16.4  -0.1                          T                                        4763907
PGF   002.28 204.2 m E Sn      2011/10/01 11:31:39.5   1.5                          T                1.8  .28 Ml 2.3         4763917
MBDF  002.49 273.4 m E Pn      2011/10/01 11:31:16.3   2.3                          T                                        4763922
LPL   002.65 290.7 m E Pn      2011/10/01 11:31:17.0   0.7                          T                                        4763910
LPL   002.65 290.7 m E P       2011/10/01 11:31:19.1   0.1                          T                                        4763916
LPL   002.65 290.7 m E Pg      2011/10/01 11:31:23.0  -0.6                          T                                        4763915
FRF   002.82 248.9 m E Pn      2011/10/01 11:31:18.7   0.4                          T                                        4763914
FRF   002.82 248.9 m E P       2011/10/01 11:31:21.0  -0.1                          T                                        4763913
FRF   002.82 248.9 m E Pg      2011/10/01 11:31:26.8   0.4                          T                                        4763912
FRF   002.82 248.9 m E Sn      2011/10/01 11:31:51.8   1.0                          T                2.7  .34 Ml 2.3         4763909
LMR   003.00 245.7 m E Pn      2011/10/01 11:31:20.5  -0.3                          T                                        4763923
LMR   003.00 245.7 m E Pg      2011/10/01 11:31:30.2   0.5                          T                                        4763911
LMR   003.00 245.7 m E Sn      2011/10/01 11:31:53.9  -1.3                          T                2.7  .28 Ml 2.4         4763919
LPG   002.63 290.4 m E Pg      2011/10/01 11:31:23.9   0.6                          T                                        4763920
ORIF  003.13 276.8 m E P       2011/10/01 11:31:25.6  -0.1                          T                                        4763921
SMRF  003.43 260.6 m E P       2011/10/01 11:31:28.9  -0.9                          T                                        4763908
SBF   002.17 250.2 m E S       2011/10/01 11:31:39.4  -0.4                          T                                        4763918

.
EVENT     264591
    Date      Time       Latitude Longitude    Depth    Ndef Nsta Gap    Mag1  N    Mag2  N    Mag3  N   Author         ID
       rms   OT_Error      Smajor Sminor Az        Err   mdist  Mdist     Err        Err        Err      Quality

2011/10/01 13:39:12.6     42.5245    1.1742      4.0 f    37    7 048  Ml 1.8  3  Md 2.0  2              js067245    264611

      0.62   +-  0.09       1.7    1.5   26.51 +-  0.0    0.10   2.79   +-0.1      +-0.0                 m i ke

PYRENEES
Sta     Dist  EvAz     Phase      Date       Time     TRes  Azim  AzRes  Slow  SRes Def   SNR       Amp   Per   Mag1   Mag2       ID
EPF   000.80 309.7 m E Pg      2011/10/01 13:39:26.8  -0.8                          T                                        4763932
EPF   000.80 309.7 m E Sg      2011/10/01 13:39:36.7  -1.3                          T                4.4  .26        Md 2.0  4763933
MTLF  001.12 042.8 m E Pg      2011/10/01 13:39:33.7   0.2                          T                                        4763936
MTLF  001.12 042.8 m E P       2011/10/01 13:39:35.6   0.6                          T                                        4763934
MTLF  001.12 042.8 m E Sg      2011/10/01 13:39:48.4   0.4                          T                1.2  .18 Ml 1.7 Md 2.0  4763935
ETSF  001.33 286.9 m E Pg      2011/10/01 13:39:38.2   0.7                          T                                        4763929
ETSF  001.33 286.9 m E Sg      2011/10/01 13:39:55.2   0.4                          T                1.5  .23 Ml 1.8         4763931
LFF   002.43 352.7 m E Pg      2011/10/01 13:39:57.2  -0.5                          T                                        4763928
LFF   002.43 352.7 m E Sn      2011/10/01 13:40:20.3   0.5                          T                                        4763927
LFF   002.43 352.7 m E S       2011/10/01 13:40:25.7   1.2                          T                                        4763924
SJPF  001.86 289.2 m E Sg      2011/10/01 13:40:11.8   0.6                          T                1.2  .28 Ml 1.8         4763930
CAF   002.49 014.7 m E Sg      2011/10/01 13:40:30.7   0.0                          T                                        4763926
RJF   002.79 005.0 m E Sg      2011/10/01 13:40:40.1   0.0                          T                                        4763925

.
EVENT     264592
    Date      Time       Latitude Longitude    Depth    Ndef Nsta Gap    Mag1  N    Mag2  N    Mag3  N   Author         ID
       rms   OT_Error      Smajor Sminor Az        Err   mdist  Mdist     Err        Err        Err      Quality

2011/10/01 14:45:09.1     42.9338   -1.4241      2.0      15    3 132  Ml 1.4  1  Md 1.4  2              js067245    264612

      0.23   +-  0.07       1.4    1.2   95.79 +-  0.0    0.09   1.30   +-         +-0.2                 m i ke

PYRENEES
Sta     Dist  EvAz     Phase      Date       Time     TRes  Azim  AzRes  Slow  SRes Def   SNR       Amp   Per   Mag1   Mag2       ID
SJPF  000.23 039.1 m E Pg      2011/10/01 14:45:13.9   0.1                          T                                        4763943
SJPF  000.23 039.1 m E Sg      2011/10/01 14:45:17.1   0.2                          T                3.6  .18        Md 1.6  4763942
ETSF  000.64 092.9 m E Pg      2011/10/01 14:45:21.1  -0.2                          T                                        4763941
ETSF  000.64 092.9 m E Sg      2011/10/01 14:45:29.1  -0.5                          T                 .5  .20        Md 1.3  4763940
EPF   001.30 085.1 m E Sg      2011/10/01 14:45:50.5   0.2                          T                 .6  .21 Ml 1.4         4770041

.
EVENT     264604
    Date      Time       Latitude Longitude    Depth    Ndef Nsta Gap    Mag1  N    Mag2  N    Mag3  N   Author         ID
       rms   OT_Error      Smajor Sminor Az        Err   mdist  Mdist     Err        Err        Err      Quality

2011/10/01 19:12:25.9     43.7675    7.7283     25.0      24    8 163  Ml 1.9  8  Md 2.1  2              js067245    264624

      1.36   +-  0.15       3.5    2.3   51.44 +-  0.0    0.23   1.89   +-0.3      +-0.0                 m i ke

NEAR SOUTH COAST OF FRANCE
Sta     Dist  EvAz     Phase      Date       Time     TRes  Azim  AzRes  Slow  SRes Def   SNR       Amp   Per   Mag1   Mag2       ID
SBF   000.23 294.3 m E Pg      2011/10/01 19:12:32.7   0.5                          T                                        4763957
SBF   000.23 294.3 m E Sg      2011/10/01 19:12:36.5   0.0                          T               50.9  .24        Md 2.1  4763956
FRF   000.81 255.6 m E Pg      2011/10/01 19:12:42.0   0.3                          T                                        4763954
FRF   000.81 255.6 m E Sg      2011/10/01 19:12:52.8   0.2                          T               12.0  .22        Md 2.1  4763955
LMR   000.99 244.4 m E Pg      2011/10/01 19:12:44.2  -0.6                          T                                        4763953
LMR   000.99 244.4 m E Sn      2011/10/01 19:12:54.5  -0.2                          T                                        4770049
LMR   000.99 244.4 m E Sg      2011/10/01 19:12:57.8  -0.1                          T                2.6  .18 Ml 2.0         4763952
MBDF  001.18 324.7 m E Pg      2011/10/01 19:12:48.1  -0.4                          T                                        4763949
MBDF  001.18 324.7 m E Sg      2011/10/01 19:13:04.3   0.2                          T                8.6  .52 Ml 2.1         4763948
PGF   001.53 142.2 m E Pn      2011/10/01 19:12:50.1   0.0                          T                                        4763951
PGF   001.53 142.2 m E Sn      2011/10/01 19:13:07.5  -0.3                          T                2.4  .25 Ml 2.3         4763947
SMRF  001.57 278.4 m E P       2011/10/01 19:12:52.6  -0.1                          T                                        4770046
SMRF  001.57 278.4 m E Pg      2011/10/01 19:12:55.3  -0.2                          T                                        4763950
SMRF  001.57 278.4 m E Sn      2011/10/01 19:13:08.7   0.0                          T                                        4770048
SMRF  001.57 278.4 m E Sg      2011/10/01 19:13:16.2   0.2                          T                1.6  .27 Ml 1.8         4763945
ORIF  001.76 311.6 m E Pg      2011/10/01 19:12:59.5   0.6                          T                                        4763946
ORIF  001.76 311.6 m E Sg      2011/10/01 19:13:21.9   0.2                          T                 .9  .26 Ml 1.7         4770051
LPL   001.89 338.2 m E Pg      2011/10/01 19:13:00.9  -0.6                          T                                        4763944
LPL   001.89 338.2 m E Sn      2011/10/01 19:13:16.0  -0.4                          T                                        4770047
LPL   001.89 338.2 m E Sg      2011/10/01 19:13:25.5  -0.4                          T                 .7  .35 Ml 1.5         4770050

.
EVENT     264596
    Date      Time       Latitude Longitude    Depth    Ndef Nsta Gap    Mag1  N    Mag2  N    Mag3  N   Author         ID
       rms   OT_Error      Smajor Sminor Az        Err   mdist  Mdist     Err        Err        Err      Quality

2011/10/01 19:43:06.3     39.0433    -.5675     20.0 f    78    5 113  Ml 2.4  4                         js067245    264616

      1.23   +-  0.18       4.4    2.3  133.84 +-  0.0    0.86   6.55   +-0.2                            m i ke

SPAIN
Sta     Dist  EvAz     Phase      Date       Time     TRes  Azim  AzRes  Slow  SRes Def   SNR       Amp   Per   Mag1   Mag2       ID
ETSF  003.85 000.1 m E Pn      2011/10/01 19:44:04.1   1.5                          T                                        4763962
ETSF  003.85 000.1 m E Pg      2011/10/01 19:44:17.3  -0.5                          T                                        4770057
ETSF  003.85 000.1 m E Sn      2011/10/01 19:44:44.1  -0.5                          T                                        4770058
ETSF  003.85 000.1 m E Sg      2011/10/01 19:45:06.5  -0.7                          T                1.4  .29 Ml 2.3         4770059
EPF   004.04 009.5 m E Pn      2011/10/01 19:44:06.1   0.8                          T                                        4763961
EPF   004.04 009.5 m E Pg      2011/10/01 19:44:21.0  -0.3                          T                                        4770056
EPF   004.04 009.5 m E Sg      2011/10/01 19:45:13.3   0.1                          T                4.8  .46 Ml 2.7         4763958
SJPF  004.10 353.2 m E Pn      2011/10/01 19:44:07.8   1.9                          T                                        4763963
SJPF  004.10 353.2 m E Sg      2011/10/01 19:45:13.2  -1.6                          T                2.4  .37 Ml 2.5         4763959
MTLF  004.78 025.2 m E Pn      2011/10/01 19:44:15.0  -0.2                          T                                        4770053
MTLF  004.78 025.2 m E Pg      2011/10/01 19:44:34.8   0.1                          T                                        4770052
MTLF  004.78 025.2 m E Sn      2011/10/01 19:45:06.0  -0.7                          T                                        4770054
MTLF  004.78 025.2 m E Sg      2011/10/01 19:45:37.1   1.0                          T                 .8  .26 Ml 2.3         4770055
CAF   006.20 017.6 m E Pn      2011/10/01 19:44:35.0   0.5                          T                                        4763960
CAF   006.20 017.6 m E P       2011/10/01 19:44:39.5   0.2                          T                                        4763989

.
EVENT     264597
    Date      Time       Latitude Longitude    Depth    Ndef Nsta Gap    Mag1  N    Mag2  N    Mag3  N   Author         ID
       rms   OT_Error      Smajor Sminor Az        Err   mdist  Mdist     Err        Err        Err      Quality

2011/10/01 19:54:33.8     39.1003    -.5795     20.0 f   157   16 110  Ml 3.1  5                         js067245    264617

      1.57   +-  0.17       4.3    2.1  132.20 +-  0.0    0.88   9.50   +-0.1                            m i ke

SPAIN
Sta     Dist  EvAz     Phase      Date       Time     TRes  Azim  AzRes  Slow  SRes Def   SNR       Amp   Per   Mag1   Mag2       ID
ETSF  003.79 000.2 m E Pn      2011/10/01 19:55:31.2   1.9                          T                                        4763987
ETSF  003.79 000.2 m E Pg      2011/10/01 19:55:42.9  -1.3                          T                                        4763970
ETSF  003.79 000.2 m E Sg      2011/10/01 19:56:32.6  -0.4                          T                7.7  .31 Ml 3.0         4770061
EPF   003.99 009.7 m E Pn      2011/10/01 19:55:33.5   1.5                          T                                        4763986
EPF   003.99 009.7 m E Pg      2011/10/01 19:55:46.7  -1.1                          T                                        4763964
EPF   003.99 009.7 m E Sg      2011/10/01 19:56:36.6  -2.4                          T               13.8  .35 Ml 3.2         4763971
SJPF  004.04 353.3 m E Pn      2011/10/01 19:55:35.0   2.4                          T                                        4763988
SJPF  004.04 353.3 m E P       2011/10/01 19:55:36.6   0.3                          T                                        4763969
SJPF  004.04 353.3 m E Pg      2011/10/01 19:55:50.3   1.7                          T                                        4770060
SJPF  004.04 353.3 m E Sg      2011/10/01 19:56:39.6  -0.9                          T                7.6  .35 Ml 3.0         4770062
MTLF  004.73 025.6 m E Pn      2011/10/01 19:55:42.7   0.6                          T                                        4763977
MTLF  004.73 025.6 m E Pg      2011/10/01 19:55:59.5  -1.9                          T                                        4763975
MTLF  004.73 025.6 m E Sg      2011/10/01 19:56:59.5  -2.6                          T                5.3  .30 Ml 3.1         4763976
LFF   005.92 009.1 m E Pn      2011/10/01 19:55:59.5   1.4                          T                                        4763974
LFF   005.92 009.1 m E P       2011/10/01 19:56:02.5  -0.2                          T                                        4763973
CAF   006.14 017.8 m E Pn      2011/10/01 19:56:01.8   0.5                          T                                        4763985
CAF   006.14 017.8 m E P       2011/10/01 19:56:06.3   0.3                          T                                        4763965
CAF   006.14 017.8 m E Sg      2011/10/01 19:57:43.8  -2.4                          T                3.4  .40 Ml 3.0         4763968
RJF   006.39 013.4 m E Pn      2011/10/01 19:56:05.7   1.0                          T                                        4763984
TCF   007.47 015.0 m E Pn      2011/10/01 19:56:19.7   0.3                          T                                        4763978
MFF   007.50 002.3 m E Pn      2011/10/01 19:56:21.3   1.5                          T                                        4763983
QUIF  009.01 348.8 m E Pn      2011/10/01 19:56:42.0   1.7                          T                                        4763982
GRR   009.29 358.8 m E Pn      2011/10/01 19:56:44.4   0.3                          T                                        4763979
SGMF  009.26 351.8 m E Pn      2011/10/01 19:56:45.6   1.9                          T                                        4763980
LDF   009.50 001.8 m E Pn      2011/10/01 19:56:47.6   0.7                          T                                        4763972
ROSF  009.44 349.0 m E Pn      2011/10/01 19:56:47.8   1.7                          T                                        4763981
LMR   006.81 049.4 m E Sn      2011/10/01 19:57:23.6   0.9                          T                                        4763967
FRF   007.03 048.4 m E Sn      2011/10/01 19:57:29.0   1.1                          T                                        4763966

.
EVENT     264598
    Date      Time       Latitude Longitude    Depth    Ndef Nsta Gap    Mag1  N    Mag2  N    Mag3  N   Author         ID
       rms   OT_Error      Smajor Sminor Az        Err   mdist  Mdist     Err        Err        Err      Quality

2011/10/01 21:29:34.6     41.1659    1.1216      2.0      35    4 156  Ml 1.7  4                         js067245    264618

      0.45   +-  0.10       1.8    1.2  153.79 +-  0.0    0.19   2.61   +-0.2                            m i ke

SPAIN
Sta     Dist  EvAz     Phase      Date       Time     TRes  Azim  AzRes  Slow  SRes Def   SNR       Amp   Per   Mag1   Mag2       ID
EPF   001.95 342.9 m E Pg      2011/10/01 21:30:10.4  -0.6                          T                                        4763994
EPF   001.95 342.9 m E Sg      2011/10/01 21:30:36.3   0.2                          T                1.5  .20 Ml 2.1         4763992
MTLF  002.32 020.2 m E Pn      2011/10/01 21:30:11.6  -0.4                          T                                        4770063
MTLF  002.32 020.2 m E Sg      2011/10/01 21:30:47.7   0.1                          T                 .3  .20 Ml 1.5         4770066
ETSF  002.14 324.7 m E Pg      2011/10/01 21:30:14.4   0.0                          T                                        4770064
ETSF  002.14 324.7 m E Sg      2011/10/01 21:30:41.8  -0.1                          T                 .6  .23 Ml 1.6         4763993
SJPF  002.61 318.9 m E Pn      2011/10/01 21:30:15.9  -0.1                          T                                        4763990
SJPF  002.61 318.9 m E Pg      2011/10/01 21:30:23.0  -0.2                          T                                        4770065
SJPF  002.61 318.9 m E Sg      2011/10/01 21:30:57.0   0.3                          T                 .5  .23 Ml 1.7         4763991

.
