EVENT     290911
    Date      Time       Latitude Longitude    Depth    Ndef Nsta Gap    Mag1  N    Mag2  N    Mag3  N   Author         ID
       rms   OT_Error      Smajor Sminor Az        Err   mdist  Mdist     Err        Err        Err      Quality

2013/01/25 18:07:34.9     44.0881   10.5373     10.0 f    40   14 076  Ml 2.8  8                         bulletin    291011
                                                                                                         _ldg
      0.97   +-  0.18       5.3    3.4   44.96 +-  0.0    0.13   5.66   +-0.3                            m i ke

NORTHERN ITALY
Sta     Dist  EvAz     Phase      Date       Time     TRes  Azim  AzRes  Slow  SRes Def   SNR       Amp   Per   Mag1   Mag2       ID
PGF   001.90 216.6 m E P       2013/01/25 18:08:08.2   0.1                          T                                        5177928
PGF   001.90 216.6 m E Sn      2013/01/25 18:08:28.2  -0.3                          T                5.5  .29 Ml 2.7         5177927
SBF   002.25 265.3 m E Pn      2013/01/25 18:08:09.6  -1.0                          T                                        5177917
SBF   002.25 265.3 m E Sn      2013/01/25 18:08:35.8  -0.9                          T                                        5177922
FRF   002.86 260.7 m E Pn      2013/01/25 18:08:18.3  -0.6                          T                                        5177915
FRF   002.86 260.7 m E Sn      2013/01/25 18:08:50.6  -0.7                          T                5.7  .26 Ml 2.8         5177923
MBDF  002.77 284.6 m E Pn      2013/01/25 18:08:18.5   0.7                          T                                        5177911
MBDF  002.77 284.6 m E Sn      2013/01/25 18:08:56.0   6.7                          T                5.3  .45 Ml 2.4         5177925
LMR   003.02 256.9 m E Pn      2013/01/25 18:08:20.3  -0.6                          T                                        5177916
LMR   003.02 256.9 m E Sn      2013/01/25 18:08:53.4  -1.6                          T                                        5177908
LPL   003.06 299.1 m E Pn      2013/01/25 18:08:21.6  -0.3                          T                                        5177913
LPL   003.06 299.1 m E P       2013/01/25 18:08:25.3   0.5                          T                                        5191212
LPG   003.04 298.9 m E Pn      2013/01/25 18:08:21.9   0.2                          T                                        5177914
LPG   003.04 298.9 m E P       2013/01/25 18:08:25.0   0.4                          T                                        5191211
ORIF  003.43 285.6 m E Pn      2013/01/25 18:08:27.6   0.9                          T                                        5177912
ORIF  003.43 285.6 m E Sn      2013/01/25 18:09:09.5   4.5                          T                2.3  .35 Ml 2.3         5177926
CABF  004.03 310.4 m E Pn      2013/01/25 18:08:36.8   2.0                          T                                        5177924
HINF  004.53 326.7 m E Pn      2013/01/25 18:08:41.3  -0.3                          T                                        5177921
HINF  004.53 326.7 m E Sn      2013/01/25 18:09:32.0   0.9                          T                8.1  .38 Ml 3.1         5177920
CDF   004.88 333.5 m E Pn      2013/01/25 18:08:46.1  -0.4                          T                                        5177910
CDF   004.88 333.5 m E Sn      2013/01/25 18:09:40.1   0.5                          T                                        5177909
HAU   004.88 324.8 m E Pn      2013/01/25 18:08:46.6   0.2                          T                                        5177918
HAU   004.88 324.8 m E Sn      2013/01/25 18:09:40.8   1.2                          T               19.7  .42 Ml 3.3         5177919
SMF   005.37 300.8 m E Pn      2013/01/25 18:08:54.5   1.5                          T                                        5177929
SMF   005.37 300.8 m E Sn      2013/01/25 18:09:53.6   2.5                          T                3.3  .41 Ml 2.9         5177930
LOR   005.66 306.5 m E Pn      2013/01/25 18:08:57.7   0.8                          T                                        5177932
LOR   005.66 306.5 m E Sn      2013/01/25 18:10:00.4   2.4                          T                3.5  .30 Ml 3.1         5177931

.
EVENT     290912
    Date      Time       Latitude Longitude    Depth    Ndef Nsta Gap    Mag1  N    Mag2  N    Mag3  N   Author         ID
       rms   OT_Error      Smajor Sminor Az        Err   mdist  Mdist     Err        Err        Err      Quality

2013/01/25 18:29:52.3     44.1927   10.4234      2.0      36   11 067  Ml 3.1  5                         bulletin    291012
                                                                                                         _ldg
      1.04   +-  0.22       5.5    4.1   39.86 +-  0.0    0.04   4.75   +-0.2                            m i ke

NORTHERN ITALY
Sta     Dist  EvAz     Phase      Date       Time     TRes  Azim  AzRes  Slow  SRes Def   SNR       Amp   Per   Mag1   Mag2       ID
PGF   001.94 212.8 m E Pn      2013/01/25 18:30:24.1  -0.6                          T                                        5177951
SBF   002.18 262.3 m E Pn      2013/01/25 18:30:27.4  -0.4                          T                                        5177952
SBF   002.18 262.3 m E Sn      2013/01/25 18:30:53.0  -0.8                          T               27.8  .27 Ml 3.3         5177948
MBDF  002.67 282.8 m E Pn      2013/01/25 18:30:35.2   0.6                          T                                        5177954
MBDF  002.67 282.8 m E Pg      2013/01/25 18:30:41.4  -0.6                          T                                        5177982
FRF   002.80 258.3 m E Pn      2013/01/25 18:30:35.8  -0.5                          T                                        5177958
FRF   002.80 258.3 m E Sn      2013/01/25 18:31:08.2  -0.5                          T               18.5  .24 Ml 3.3         5177950
LMR   002.96 254.5 m E Pn      2013/01/25 18:30:37.7  -0.7                          T                                        5177953
LMR   002.96 254.5 m E Sn      2013/01/25 18:31:11.3  -1.1                          T               10.6  .22 Ml 3.1         5177949
LPG   002.92 297.8 m E P       2013/01/25 18:30:41.5   0.4                          T                                        5177957
LPG   002.92 297.8 m E Pg      2013/01/25 18:30:45.3  -1.4                          T                                        5177984
LPL   002.94 298.0 m E P       2013/01/25 18:30:42.6   1.4                          T                                        5177956
LPL   002.94 298.0 m E Pg      2013/01/25 18:30:45.5  -1.5                          T                                        5177983
ORIF  003.33 284.2 m E Pn      2013/01/25 18:30:45.8   2.3                          T                                        5177955
HINF  004.40 326.8 m E Pn      2013/01/25 18:30:58.7   0.7                          T                                        5177961
HINF  004.40 326.8 m E Sn      2013/01/25 18:31:49.3   2.6                          T                6.4  .46 Ml 2.9         5177947
CDF   004.75 333.8 m E Pn      2013/01/25 18:31:03.2   0.4                          T                                        5177959
HAU   004.75 324.8 m E Pn      2013/01/25 18:31:03.7   0.9                          T                                        5177960
HAU   004.75 324.8 m E Sn      2013/01/25 18:31:58.1   2.9                          T               11.2  .37 Ml 3.1         5177946

.
EVENT     290914
    Date      Time       Latitude Longitude    Depth    Ndef Nsta Gap    Mag1  N    Mag2  N    Mag3  N   Author         ID
       rms   OT_Error      Smajor Sminor Az        Err   mdist  Mdist     Err        Err        Err      Quality

2013/01/25 18:52:25.4     43.2897   18.7807     10.0 f   114   21 047  Ml 4.4  9                         bulletin    291014
                                                                                                         _ldg
      1.79   +-  0.19       5.4    4.2   15.94 +-  0.0    0.43  12.04   +-0.2                            m i ke

NORTHWESTERN BALKAN PEN.
Sta     Dist  EvAz     Phase      Date       Time     TRes  Azim  AzRes  Slow  SRes Def   SNR       Amp   Per   Mag1   Mag2       ID
PGF   007.22 267.4 m E Pn      2013/01/25 18:54:11.4   2.7                          T                                        5178014
SBF   008.26 277.9 m E Pn      2013/01/25 18:54:25.0   2.1                          T                                        5178015
SBF   008.26 277.9 m E Sn      2013/01/25 18:55:53.8   3.1                          T               37.5  .52 Ml 4.3         5177985
MBDF  008.78 283.5 m E Pn      2013/01/25 18:54:30.5   0.6                          T                                        5178013
MBDF  008.78 283.5 m E Sn      2013/01/25 18:56:07.9   4.6                          T               41.1  .68 Ml 4.3         5178115
FRF   008.84 275.9 m E Pn      2013/01/25 18:54:32.6   1.9                          T                                        5178008
FRF   008.84 275.9 m E Sn      2013/01/25 18:56:07.3   2.8                          T               38.2  .73 Ml 4.3         5177986
LMR   008.95 274.5 m E Pn      2013/01/25 18:54:34.1   2.0                          T                                        5178007
LMR   008.95 274.5 m E Sn      2013/01/25 18:56:11.4   4.2                          T                                        5177988
LPL   008.91 288.6 m E Pn      2013/01/25 18:54:34.2   2.4                          T                                        5178011
LPL   008.91 288.6 m E Sn      2013/01/25 18:56:06.4  -0.1                          T               80.7  .68 Ml 4.6         5177990
LPG   008.89 288.5 m E Pn      2013/01/25 18:54:35.3   3.6                          T                                        5178010
LPG   008.89 288.5 m E Sn      2013/01/25 18:56:09.0   2.9                          T               69.5  .66 Ml 4.6         5177989
ORIF  009.43 284.4 m E Pn      2013/01/25 18:54:41.1   2.3                          T                                        5178012
ORIF  009.43 284.4 m E Sn      2013/01/25 18:56:23.3   4.7                          T               37.6  .63 Ml 4.4         5177991
HINF  009.51 302.5 m E Pn      2013/01/25 18:54:41.4   1.6                          T                                        5178001
HINF  009.51 302.5 m E Sn      2013/01/25 18:56:31.7  11.0                          T               24.1  .68 Ml 4.2         5177995
CDF   009.52 306.5 m E Pn      2013/01/25 18:54:41.8   1.8                          T                                        5177999
SMRF  009.60 278.6 m E Pn      2013/01/25 18:54:43.4   2.3                          T                                        5178009
SMRF  009.60 278.6 m E Sn      2013/01/25 18:56:32.5   9.7                          T                                        5177987
CABF  009.59 294.6 m E Pn      2013/01/25 18:54:43.6   2.6                          T                                        5178000
HAU   009.90 302.7 m E Pn      2013/01/25 18:54:46.7   1.6                          T                                        5178002
VIVF  010.28 283.6 m E Pn      2013/01/25 18:54:51.3   1.1                          T                                        5178006
PAGF  010.51 304.6 m E Pn      2013/01/25 18:54:58.2   4.8                          T                                        5177998
SMF   011.10 292.7 m E Pn      2013/01/25 18:55:02.5   1.0                          T                                        5178004
SMF   011.10 292.7 m E Sn      2013/01/25 18:57:03.1   4.4                          T               49.8  .79 Ml 4.7         5177994
LOR   011.24 295.9 m E Pn      2013/01/25 18:55:05.3   1.9                          T                                        5177997
LOR   011.24 295.9 m E Sn      2013/01/25 18:57:06.2   4.3                          T                                        5178118
SSF   011.42 294.6 m E Pn      2013/01/25 18:55:07.6   1.8                          T                                        5177996
SSF   011.42 294.6 m E Sn      2013/01/25 18:57:09.4   3.2                          T                                        5178117
AVF   011.46 293.1 m E Pn      2013/01/25 18:55:08.0   1.6                          T                                        5178005
AVF   011.46 293.1 m E Sn      2013/01/25 18:57:10.9   3.7                          T                                        5177993
BGF   011.76 291.6 m E Pn      2013/01/25 18:55:13.0   2.5                          T                                        5178003
BGF   011.76 291.6 m E Sn      2013/01/25 18:57:17.5   3.1                          T               25.2  .58 Ml 4.6         5177992
HYF   012.04 294.9 m E Sn      2013/01/25 18:57:22.7   1.6                          T                                        5178116

.
EVENT     290915
    Date      Time       Latitude Longitude    Depth    Ndef Nsta Gap    Mag1  N    Mag2  N    Mag3  N   Author         ID
       rms   OT_Error      Smajor Sminor Az        Err   mdist  Mdist     Err        Err        Err      Quality

2013/01/25 20:45:32.7     44.1277   10.4798      2.0      26   11 084  Ml 2.4  2                         bulletin    291015
                                                                                                         _ldg
      0.68   +-  0.16       5.0    2.6   21.35 +-  0.0    0.07   4.83   +-0.0                            m i ke

NORTHERN ITALY
Sta     Dist  EvAz     Phase      Date       Time     TRes  Azim  AzRes  Slow  SRes Def   SNR       Amp   Per   Mag1   Mag2       ID
SBF   002.21 264.2 m E Pn      2013/01/25 20:46:07.8  -0.9                          T                                        5178128
PGF   001.91 214.9 m E Pn      2013/01/25 20:46:08.8   4.0                          T                                        5178129
LMR   002.99 256.0 m E Pn      2013/01/25 20:46:17.9  -1.3                          T                                        5178127
MBDF  002.72 284.0 m E Pn      2013/01/25 20:46:18.2   2.3                          T                                        5178122
MBDF  002.72 284.0 m E Sn      2013/01/25 20:46:48.3   0.9                          T                5.3  .48 Ml 2.4         5178144
LPL   003.01 298.8 m E P       2013/01/25 20:46:23.0   0.3                          T                                        5178124
LPL   003.01 298.8 m E Sn      2013/01/25 20:46:54.3   0.0                          T                5.0  .50 Ml 2.4         5178119
LPG   002.99 298.6 m E P       2013/01/25 20:46:23.1   0.6                          T                                        5178125
ORIF  003.38 285.1 m E Pn      2013/01/25 20:46:27.5   2.8                          T                                        5178123
SMRF  003.54 269.2 m E Pn      2013/01/25 20:46:27.6   0.9                          T                                        5178126
SMRF  003.54 269.2 m E Sn      2013/01/25 20:47:06.9   0.1                          T                                        5178120
CDF   004.83 333.7 m E Pn      2013/01/25 20:46:44.0  -0.4                          T                                        5178121
HINF  004.47 326.9 m E Sn      2013/01/25 20:47:30.4   1.3                          T                                        5178145
HAU   004.83 324.9 m E Sn      2013/01/25 20:47:38.6   1.1                          T                                        5178146

.
