EVENT     292124
    Date      Time       Latitude Longitude    Depth    Ndef Nsta Gap    Mag1  N    Mag2  N    Mag3  N   Author         ID
       rms   OT_Error      Smajor Sminor Az        Err   mdist  Mdist     Err        Err        Err      Quality

2013/02/15 09:31:30.3     36.9477    4.2292     10.0 f    47   16 074  Ml 3.3  6                         bulletin    292224
                                                                                                         _ldg
      1.39   +-  0.29       6.6    6.2   63.92 +-  0.0    0.94  12.07   +-0.3                            m i ke

NORTHERN ALGERIA
Sta     Dist  EvAz     Phase      Date       Time     TRes  Azim  AzRes  Slow  SRes Def   SNR       Amp   Per   Mag1   Mag2       ID
LMR   006.61 014.6 m E P       2013/02/15 09:33:09.2  -0.9                          T                                        5197872
LMR   006.61 014.6 m E Sn      2013/02/15 09:34:14.4  -1.8                          T                2.6  .18 Ml 3.4         5197874
MTLF  006.57 347.1 m E P       2013/02/15 09:33:10.0   0.5                          T                                        5197830
PGF   006.69 031.8 m E P       2013/02/15 09:33:11.4   0.1                          T                                        5197873
PGF   006.69 031.8 m E Sn      2013/02/15 09:34:18.3   0.1                          T                7.4  .42 Ml 3.7         5197878
FRF   006.86 014.9 m E P       2013/02/15 09:33:12.8  -0.8                          T                                        5197864
FRF   006.86 014.9 m E Sn      2013/02/15 09:34:20.7  -1.5                          T                5.1  .28 Ml 3.5         5197879
EPF   006.77 335.0 m E P       2013/02/15 09:33:13.2   0.8                          T                                        5197870
EPF   006.77 335.0 m E Sn      2013/02/15 09:34:20.0   0.0                          T                2.1  .31 Ml 3.0         5197877
LASF  007.13 357.8 m E P       2013/02/15 09:33:16.2  -1.2                          T                                        5197871
ETSF  006.99 329.7 m E P       2013/02/15 09:33:16.9   1.4                          T                                        5197863
ETSF  006.99 329.7 m E Sn      2013/02/15 09:34:25.0  -0.3                          T                2.0  .36 Ml 3.0         5197876
VIVF  007.91 002.3 m E P       2013/02/15 09:33:27.6  -0.8                          T                                        5197869
MBDF  008.01 013.1 m E P       2013/02/15 09:33:30.3   0.4                          T                                        5197865
CAF   008.14 349.1 m E P       2013/02/15 09:33:31.8   0.2                          T                                        5197868
LFF   008.41 342.8 m E P       2013/02/15 09:33:36.8   1.6                          T                                        5197866
RJF   008.60 347.1 m E P       2013/02/15 09:33:38.1   0.2                          T                                        5197867
TCF   009.45 351.4 m E P       2013/02/15 09:33:48.9  -0.9                          T                                        5197862
HAU   011.16 007.4 m E P       2013/02/15 09:34:10.2  -3.0                          T                                        5197860
LDF   012.07 346.1 m E P       2013/02/15 09:34:25.3  -0.1                          T                                        5197861
SBF   007.33 018.5 m E Sn      2013/02/15 09:34:33.1  -0.3                          T                4.6  .41 Ml 3.4         5201441
SBF   007.33 018.5 m E T       2013/02/15 09:40:28.0 -11.5                          T                                        5197875

.
EVENT     292127
    Date      Time       Latitude Longitude    Depth    Ndef Nsta Gap    Mag1  N    Mag2  N    Mag3  N   Author         ID
       rms   OT_Error      Smajor Sminor Az        Err   mdist  Mdist     Err        Err        Err      Quality

2013/02/15 10:47:35.8     48.6259    -.8132       .0 f    17    8 157  Ml 2.4  3  Md 2.0  3              bulletin    292227
                                                                                                         _ldg
      0.41   +-  0.08       1.8    1.2  177.87 +-  0.0    0.24   3.11   +-0.1      +-0.1                 m i km

FRANCE
Sta     Dist  EvAz     Phase      Date       Time     TRes  Azim  AzRes  Slow  SRes Def   SNR       Amp   Per   Mag1   Mag2       ID
GRR   000.24 187.2 m E Pg      2013/02/15 10:47:40.7   0.0                          T                                        5197885
GRR   000.24 187.2 m E Sg      2013/02/15 10:47:44.1  -0.1                          T              354.7  .66        Md 2.0  5197882
FLN   000.26 058.0 m E Pg      2013/02/15 10:47:41.0  -0.1 237.4  -0.8              T                                        5197884
FLN   000.26 058.0 m E Sg      2013/02/15 10:47:44.6  -0.2 243.1  4.9               T               20.3  .27        Md 2.0  5197880
LDF   000.46 093.8 m E Pg      2013/02/15 10:47:45.0   0.2                          T                                        5197883
LDF   000.46 093.8 m E Sg      2013/02/15 10:47:51.4   0.3                          T               10.5  .32        Md 1.9  5197881
SGMF  001.22 252.9 m E Pn      2013/02/15 10:47:58.1  -0.4                          T                                        5197893
SGMF  001.22 252.9 m E Sg      2013/02/15 10:48:14.2  -0.5                          T                7.9  .33 Ml 2.3         5197888
ROSF  001.66 260.9 m E Pn      2013/02/15 10:48:04.8   0.2                          T                                        5197894
ROSF  001.66 260.9 m E Pg      2013/02/15 10:48:06.9  -0.1                          T                                        5201443
ROSF  001.66 260.9 m E Sg      2013/02/15 10:48:29.0   0.4                          T                                        5197889
QUIF  001.72 246.6 m E Pn      2013/02/15 10:48:05.8   0.3                          T                                        5197892
QUIF  001.72 246.6 m E Sg      2013/02/15 10:48:30.6   0.1                          T                5.9  .35 Ml 2.4         5197887
MFF   002.07 167.2 m E Pn      2013/02/15 10:48:10.5   0.3                          T                                        5197891
MFF   002.07 167.2 m E Sg      2013/02/15 10:48:41.0  -0.4                          T                5.2  .43 Ml 2.5         5197886
TCF   003.11 137.6 m E Pn      2013/02/15 10:48:24.0  -0.4                          T                                        5197890

.
EVENT     292126
    Date      Time       Latitude Longitude    Depth    Ndef Nsta Gap    Mag1  N    Mag2  N    Mag3  N   Author         ID
       rms   OT_Error      Smajor Sminor Az        Err   mdist  Mdist     Err        Err        Err      Quality

2013/02/15 10:54:08.7     42.6350   -1.8249       .0 f     6    3 327  Ml 2.6  2  Md 2.2  2              bulletin    292226
                                                                                                         _ldg
      0.51   +-  1.10      19.1   16.3   43.22 +-  0.0    0.65   1.64   +-0.2      +-0.1                 m i km

PYRENEES
Sta     Dist  EvAz     Phase      Date       Time     TRes  Azim  AzRes  Slow  SRes Def   SNR       Amp   Per   Mag1   Mag2       ID
SJPF  000.65 042.5 m E Pg      2013/02/15 10:54:21.7   0.4                          T                                        5197898
SJPF  000.65 042.5 m E Sg      2013/02/15 10:54:29.0  -1.0                          T               58.4  .30        Md 2.3  5197897
ETSF  000.97 073.8 m E Pg      2013/02/15 10:54:27.2   0.0                          T                                        5197895
ETSF  000.97 073.8 m E Sg      2013/02/15 10:54:40.2   0.2                          T               18.6  .40 Ml 2.5 Md 2.2  5197896
EPF   001.64 075.3 m E Pg      2013/02/15 10:54:39.1  -0.4                          T                                        5197900
EPF   001.64 075.3 m E Sg      2013/02/15 10:55:01.7   0.8                          T               19.4  .44 Ml 2.7         5197899

.
EVENT     292128
    Date      Time       Latitude Longitude    Depth    Ndef Nsta Gap    Mag1  N    Mag2  N    Mag3  N   Author         ID
       rms   OT_Error      Smajor Sminor Az        Err   mdist  Mdist     Err        Err        Err      Quality

2013/02/15 11:06:04.8     47.1140    4.9020       .0 f    21   10 176  Ml 2.1  8  Md 2.0  1              bulletin    292228
                                                                                                         _ldg
      0.50   +-  0.12       2.9    1.3  147.30 +-  0.0    0.73   1.55   +-0.2      +-                    m i km

FRANCE
Sta     Dist  EvAz     Phase      Date       Time     TRes  Azim  AzRes  Slow  SRes Def   SNR       Amp   Per   Mag1   Mag2       ID
LOR   000.73 282.6 m E Pg      2013/02/15 11:06:18.3  -0.5  97.3  -4.6              T                                        5197904
LOR   000.73 282.6 m E Sg      2013/02/15 11:06:28.8   0.3                          T                                        5201447
LOR   000.73 282.6 m E Sn      2013/02/15 11:06:32.6   0.3 104.8  2.9               T               20.7  .24        Md 2.0  5197903
SMF   000.87 237.6 m E Pn      2013/02/15 11:06:22.6  -0.2                          T                                        5197939
SMF   000.87 237.6 m E Sn      2013/02/15 11:06:35.5  -0.1                          T                6.9  .20 Ml 2.3         5197938
SSF   000.96 267.4 m E Pn      2013/02/15 11:06:24.3   0.3                          T                                        5197901
SSF   000.96 267.4 m E Sg      2013/02/15 11:06:36.0   0.4                          T                                        5201446
SSF   000.96 267.4 m E Sn      2013/02/15 11:06:37.6  -0.1                          T                9.4  .34 Ml 2.3         5197902
SFTF  001.10 004.8 m E Pg      2013/02/15 11:06:25.7   0.1                          T                                        5197934
SFTF  001.10 004.8 m E Sg      2013/02/15 11:06:40.0   0.0                          T                9.3  .53 Ml 2.1         5197947
AVF   001.11 253.6 m E P       2013/02/15 11:06:27.5   0.0                          T                                        5197940
AVF   001.11 253.6 m E Sn      2013/02/15 11:06:41.4   0.1                          T                3.0  .24 Ml 2.0         5197937
HAU   001.32 047.1 m E Pn      2013/02/15 11:06:29.0  -0.1                          T                                        5197941
HAU   001.32 047.1 m E Sn      2013/02/15 11:06:46.5  -0.1                          T                3.6  .30 Ml 1.8         5197942
MEZF  001.39 004.1 m E Pn      2013/02/15 11:06:30.3   0.4 184.4  0.2               T                                        5197933
MEZF  001.39 004.1 m E Sn      2013/02/15 11:06:47.6  -0.5                          T                5.1  .37 Ml 2.1         5201445
BGF   001.52 249.2 m E Pn      2013/02/15 11:06:33.3   1.6                          T                                        5197935
BGF   001.52 249.2 m E Sg      2013/02/15 11:06:53.2   0.1                          T                3.9  .45 Ml 2.0         5201444
HYF   001.55 276.5 m E Pg      2013/02/15 11:06:33.9  -0.1                          T                                        5197950
HYF   001.55 276.5 m E Sg      2013/02/15 11:06:54.5   0.4                          T                                        5197951
HINF  001.50 061.3 m E Sg      2013/02/15 11:06:52.8   0.2                          T                1.9  .22 Ml 2.0         5197936

.
