EVENT     272766
    Date      Time       Latitude Longitude    Depth    Ndef Nsta Gap    Mag1  N    Mag2  N    Mag3  N   Author         ID
       rms   OT_Error      Smajor Sminor Az        Err   mdist  Mdist     Err        Err        Err      Quality

2012/03/31 22:00:14.5     46.9108   -1.4702      5.0 f   120   31 080  Ml 3.1 34  Md 3.2  2              js067245    272786

      1.02   +-  0.09       1.9    1.7   60.06 +-  0.0    0.96   6.97   +-0.3      +-0.2                 m i ke

FRANCE
Sta     Dist  EvAz     Phase      Date       Time     TRes  Azim  AzRes  Slow  SRes Def   SNR       Amp   Per   Mag1   Mag2       ID
MFF   000.96 108.2 m E Pg      2012/03/31 22:00:32.0  -0.5                          T   001.0                                4898848
MFF   000.96 108.2 m E Pn      2012/03/31 22:00:32.6  -0.4                          T   001.0                                4898849
MFF   000.96 108.2 m E Sg      2012/03/31 22:00:44.7  -0.3                          T   001.0      113.4  .20 Ml 3.7 Md 3.3  4898850
QUIF  001.53 311.8 m E Pn      2012/03/31 22:00:40.6  -0.1                          T   001.0                                4898783
QUIF  001.53 311.8 m E Pg      2012/03/31 22:00:42.4  -0.5                          T                                        4898818
QUIF  001.53 311.8 m E Sn      2012/03/31 22:01:00.0   0.2                          T   001.0       47.9  .20 Ml 3.4         4898784
QUIF  001.53 311.8 m E Sg      2012/03/31 22:01:02.7   0.0                          T                                        4898801
GRR   001.54 015.4 m E Pn      2012/03/31 22:00:40.8  -0.1                          T   001.0                                4898837
GRR   001.54 015.4 m E Pg      2012/03/31 22:00:43.4   0.3                          T                                        4899313
GRR   001.54 015.4 m E Sg      2012/03/31 22:01:03.3   0.4                          T   001.0       38.5  .16 Ml 3.3         4898838
SGMF  001.53 331.7 m E Pn      2012/03/31 22:00:40.9   0.1                          T   001.0                                4898788
SGMF  001.53 331.7 m E Pg      2012/03/31 22:00:42.5  -0.5                          T                                        4898819
SGMF  001.53 331.7 m E Sg      2012/03/31 22:01:02.7  -0.1                          T               28.0  .20 Ml 3.2 Md 3.1  4898800
ROSF  001.88 320.1 m E Pn      2012/03/31 22:00:45.8   0.3                          T   001.0                                4898785
ROSF  001.88 320.1 m E Pg      2012/03/31 22:00:49.0  -0.4 148.0  9.2               T   001.0                                4898786
ROSF  001.88 320.1 m E Sn      2012/03/31 22:01:06.5  -1.6                          T   001.0       35.9  .24 Ml 3.4         4898787
ROSF  001.88 320.1 m E Sg      2012/03/31 22:01:13.3  -0.3 151.0  12.2              T               37.9  .24 Ml 3.4         4898799
LDF   001.91 027.9 m E Pn      2012/03/31 22:00:46.5   0.5                          T   001.0                                4898841
LDF   001.91 027.9 m E Pg      2012/03/31 22:00:49.8  -0.3                          T                                        4899314
LDF   001.91 027.9 m E Sn      2012/03/31 22:01:09.0   0.0                          T   001.0       26.9  .20 Ml 3.3         4898842
LDF   001.91 027.9 m E Sg      2012/03/31 22:01:14.4  -0.3                          T               28.6  .20 Ml 3.3         4898802
FLN   001.97 019.4 m E Pn      2012/03/31 22:00:46.9   0.1                          T   001.0                                4898835
FLN   001.97 019.4 m E Pg      2012/03/31 22:00:51.2   0.1                          T                                        4899315
FLN   001.97 019.4 m E Sg      2012/03/31 22:01:13.0  -2.4                          T   001.0       78.7  .36 Ml 3.4         4898836
LFF   002.50 141.2 m E Pn      2012/03/31 22:00:54.7   0.7                          T   001.0                                4898843
LFF   002.50 141.2 m E Pg      2012/03/31 22:00:59.2  -1.7                          T                                        4898816
LFF   002.50 141.2 m E Sg      2012/03/31 22:01:32.6  -0.5                          T   001.0       38.3  .32 Ml 3.2         4898844
RJF   002.63 126.6 m E Pn      2012/03/31 22:00:56.5   0.8                          T   001.0                                4898822
RJF   002.63 126.6 m E Pg      2012/03/31 22:01:02.7  -0.5                          T                                        4898817
RJF   002.63 126.6 m E Sn      2012/03/31 22:01:26.6   0.5                          T   001.0                                4898823
RJF   002.63 126.6 m E Sg      2012/03/31 22:01:35.7  -1.3                          T   001.0       24.1  .18 Ml 3.1         4898824
HYF   002.83 081.2 m E Pn      2012/03/31 22:00:58.6   0.1                          T                                        4899317
HYF   002.83 081.2 m E Pg      2012/03/31 22:01:06.6  -0.3                          T                                        4899316
HYF   002.83 081.2 m E Sg      2012/03/31 22:01:43.2  -0.2                          T                                        4899323
BGF   002.99 095.2 m E Pn      2012/03/31 22:01:01.8   1.1                          T   001.0                                4898828
BGF   002.99 095.2 m E Pg      2012/03/31 22:01:11.8   2.0                          T                                        4898821
BGF   002.99 095.2 m E Sn      2012/03/31 22:01:34.1  -0.7                          T   001.0                                4898829
BGF   002.99 095.2 m E Sg      2012/03/31 22:01:48.0  -0.3                          T   001.0       33.1  .36 Ml 3.4         4898830
TCF   002.61 102.5 m E Pg      2012/03/31 22:01:03.5   0.5                          T   001.0                                4898856
TCF   002.61 102.5 m E Sn      2012/03/31 22:01:25.3  -0.4                          T   001.0                                4898857
TCF   002.61 102.5 m E Sg      2012/03/31 22:01:35.6  -0.9                          T   001.0       21.6  .36 Ml 3.2         4898805
CAF   003.17 127.5 m E Pn      2012/03/31 22:01:04.0   0.9                          T   001.0                                4898831
CAF   003.17 127.5 m E Pg      2012/03/31 22:01:12.9  -0.3                          T                                        4899330
CAF   003.17 127.5 m E Sn      2012/03/31 22:01:38.6  -0.4                          T   001.0                                4898832
CAF   003.17 127.5 m E Sg      2012/03/31 22:01:52.1  -1.8                          T   001.0       14.4  .28 Ml 3.2         4898833
AVF   003.31 090.3 m E Pn      2012/03/31 22:01:05.5   0.5                          T   001.0                                4898825
AVF   003.31 090.3 m E Pg      2012/03/31 22:01:15.1  -0.7                          T                                        4898794
AVF   003.31 090.3 m E Sn      2012/03/31 22:01:41.7  -0.7                          T   001.0                                4898826
AVF   003.31 090.3 m E Sg      2012/03/31 22:01:57.6  -0.8                          T   001.0        8.6  .36 Ml 2.9         4898827
SSF   003.41 085.7 m E Pn      2012/03/31 22:01:06.5   0.1                          T   001.0                                4898854
SSF   003.41 085.7 m E Pg      2012/03/31 22:01:17.0  -0.6                          T                                        4899320
SSF   003.41 085.7 m E Sn      2012/03/31 22:01:44.7  -0.1                          T                                        4899329
SSF   003.41 085.7 m E Sg      2012/03/31 22:02:00.8  -0.6                          T   001.0       14.5  .48 Ml 3.1         4898855
LOR   003.66 082.4 m E Pn      2012/03/31 22:01:10.3   0.5                          T   001.0                                4898845
LOR   003.66 082.4 m E Pg      2012/03/31 22:01:21.6  -0.6                          T                                        4899319
LOR   003.66 082.4 m E Sn      2012/03/31 22:01:49.6  -1.1                          T   001.0                                4898846
LOR   003.66 082.4 m E Sg      2012/03/31 22:02:06.2  -3.0                          T   001.0        8.4  .32 Ml 3.0         4898847
SMF   003.66 092.2 m E Pn      2012/03/31 22:01:10.0   1.2                          T   001.0                                4898852
SMF   003.66 092.2 m E Pg      2012/03/31 22:01:23.3   1.1                          T                                        4898820
SMF   003.66 092.2 m E Sg      2012/03/31 22:02:08.8  -0.5                          T   001.0        6.2  .24 Ml 3.0         4898853
SJPF  003.80 177.3 m E Pn      2012/03/31 22:01:12.0   0.3                          T   001.0                                4898789
SJPF  003.80 177.3 m E Pg      2012/03/31 22:01:23.6  -1.2                          T                                        4898804
SJPF  003.80 177.3 m E Sn      2012/03/31 22:01:52.1  -2.1                          T   001.0                                4898790
SJPF  003.80 177.3 m E Sg      2012/03/31 22:02:13.7   0.0                          T   001.0        5.9  .28 Ml 2.9         4898791
ETSF  004.06 170.5 m E Pn      2012/03/31 22:01:14.5  -0.9                          T   001.0                                4898809
ETSF  004.06 170.5 m E Pg      2012/03/31 22:01:29.4  -0.4                          T                                        4898803
ETSF  004.06 170.5 m E Sn      2012/03/31 22:01:57.2  -3.3                          T   001.0                                4898810
ETSF  004.06 170.5 m E Sg      2012/03/31 22:02:21.2  -0.7                          T   001.0        4.9  .44 Ml 2.7         4898811
EPF   004.09 161.0 m E Pn      2012/03/31 22:01:15.3  -0.4                          T                                        4899312
EPF   004.09 161.0 m E Sn      2012/03/31 22:02:00.7  -0.3                          T   001.0        6.6  .28 Ml 3.0         4898834
EPF   004.09 161.0 m E Sg      2012/03/31 22:02:22.5  -0.1                          T                5.1  .22 Ml 3.0         4899322
MTLF  004.42 142.5 m E Pn      2012/03/31 22:01:20.9   0.7                          T   001.0                                4898780
MTLF  004.42 142.5 m E Sn      2012/03/31 22:02:08.2  -0.8                          T   001.0                                4898781
MTLF  004.42 142.5 m E Sg      2012/03/31 22:02:31.8  -1.2                          T   001.0        3.4  .28 Ml 2.8         4898782
SFTF  004.59 071.3 m E Pn      2012/03/31 22:01:22.8   0.4                          T                                        4899318
SFTF  004.59 071.3 m E Sn      2012/03/31 22:02:12.8  -0.3                          T                                        4899326
SFTF  004.59 071.3 m E Sg      2012/03/31 22:02:38.5   0.2                          T                3.6  .34 Ml 2.8         4899325
MEZF  004.68 067.7 m E Pn      2012/03/31 22:01:24.5   0.8                          T   001.0                                4898813
MEZF  004.68 067.7 m E Pg      2012/03/31 22:01:40.9  -0.2                          T                                        4898792
MEZF  004.68 067.7 m E Sn      2012/03/31 22:02:12.7  -2.5                          T   001.0                                4898814
MEZF  004.68 067.7 m E Sg      2012/03/31 22:02:41.3   0.2                          T   001.0        4.6  .36 Ml 2.9         4898815
LASF  004.70 125.2 m E Pn      2012/03/31 22:01:25.5   1.6                          T   001.0                                4898839
LASF  004.70 125.2 m E Sg      2012/03/31 22:02:40.5  -1.1                          T   001.0        8.7  .48 Ml 3.1         4898840
BAIF  004.92 048.1 m E Pn      2012/03/31 22:01:27.6   0.7                          T   001.0                                4898806
GIVF  005.26 050.3 m E Pn      2012/03/31 22:01:31.1  -0.5                          T   001.0                                4898812
CABF  005.20 090.6 m E Pn      2012/03/31 22:01:33.1   2.2                          T   001.0                                4898807
CABF  005.20 090.6 m E Sn      2012/03/31 22:02:26.3  -1.4                          T   001.0        2.8  .72 Ml 2.5         4898808
CABF  005.20 090.6 m E Sg      2012/03/31 22:02:57.5   0.0                          T                2.1  .42 Ml 2.6         4899324
HINF  005.73 077.9 m E Pn      2012/03/31 22:01:37.6  -0.4                          T                                        4898793
HINF  005.73 077.9 m E Sg      2012/03/31 22:03:13.7  -0.1                          T                3.3  .39 Ml 3.0         4899327
VIVF  004.76 113.4 m E Sg      2012/03/31 22:02:43.3  -0.2                          T                4.6  .28 Ml 3.0         4899321
HAU   005.41 075.5 m E Sg      2012/03/31 22:03:04.5   0.5                          T                3.0  .29 Ml 2.8         4899328
SBF   006.97 112.7 m E Sn      2012/03/31 22:03:09.8  -0.2                          T   001.0       12.1  .72 Ml 3.5         4898851

.
EVENT     272789
    Date      Time       Latitude Longitude    Depth    Ndef Nsta Gap    Mag1  N    Mag2  N    Mag3  N   Author         ID
       rms   OT_Error      Smajor Sminor Az        Err   mdist  Mdist     Err        Err        Err      Quality

2012/03/31 22:53:07.4     45.3995    6.5238      3.0 f    43   11 056  Ml 1.9  7  Md 2.2  2              js067245    272809

      0.27   +-  0.04        .8     .6  114.21 +-  0.0    0.19   2.61   +-0.2      +-0.0                 m i ke

FRANCE
Sta     Dist  EvAz     Phase      Date       Time     TRes  Azim  AzRes  Slow  SRes Def   SNR       Amp   Per   Mag1   Mag2       ID
LPL   000.19 051.4 m E Pg      2012/03/31 22:53:11.8   0.3                          T                                        4900356
LPL   000.19 051.4 m E Sg      2012/03/31 22:53:14.0  -0.1                          T               60.1  .24        Md 2.3  4900347
LPG   000.19 058.4 m E Pg      2012/03/31 22:53:11.9   0.3                          T                                        4900355
LPG   000.19 058.4 m E Sg      2012/03/31 22:53:14.1  -0.2                          T               44.4  .23        Md 2.2  4900346
ORIF  000.66 223.7 m E Pg      2012/03/31 22:53:19.9  -0.1                          T                                        4900357
ORIF  000.66 223.7 m E Sg      2012/03/31 22:53:28.5  -0.1                          T               11.0  .26                4900350
MBDF  000.70 165.3 m E Pg      2012/03/31 22:53:20.6  -0.1                          T                                        4900358
MBDF  000.70 165.3 m E Sg      2012/03/31 22:53:30.1   0.3                          T                4.9  .26                4900349
CABF  001.25 346.1 m E P       2012/03/31 22:53:31.9   0.0                          T                                        4900365
CABF  001.25 346.1 m E Sg      2012/03/31 22:53:46.8  -0.2                          T                3.0  .24 Ml 2.0         4900367
CABF  001.25 346.1 m E S       2012/03/31 22:53:49.9   0.4                          T                                        4900366
VIVF  001.42 248.1 m E Pn      2012/03/31 22:53:32.6   0.2                          T                                        4900360
VIVF  001.42 248.1 m E Pg      2012/03/31 22:53:34.1   0.2                          T                                        4900359
VIVF  001.42 248.1 m E Sg      2012/03/31 22:53:52.8   0.6                          T                2.9  .22 Ml 2.1         4900348
SMRF  001.58 205.8 m E Pg      2012/03/31 22:53:36.4  -0.4                          T                                        4900354
SMRF  001.58 205.8 m E Sg      2012/03/31 22:53:57.3   0.2                          T                1.4  .29 Ml 1.7         4900351
FRF   001.84 177.2 m E Pg      2012/03/31 22:53:41.5  -0.1                          T                                        4900353
FRF   001.84 177.2 m E Sg      2012/03/31 22:54:05.6   0.2                          T                1.4  .20 Ml 2.0         4900352
HINF  002.43 005.2 m E Pn      2012/03/31 22:53:46.0  -0.2                          T                                        4900364
HINF  002.43 005.2 m E Pg      2012/03/31 22:53:52.3  -0.2                          T                                        4900363
HINF  002.43 005.2 m E Sg      2012/03/31 22:54:24.1   0.4                          T                 .6  .26 Ml 1.7         4900344
HAU   002.61 357.4 m E Pn      2012/03/31 22:53:48.5  -0.2                          T                                        4900362
HAU   002.61 357.4 m E Pg      2012/03/31 22:53:55.6  -0.2                          T                                        4900361
HAU   002.61 357.4 m E Sg      2012/03/31 22:54:29.4   0.1                          T                1.3  .24 Ml 1.8         4900343
SMF   002.25 304.6 m E Sg      2012/03/31 22:54:18.6   0.6                          T                1.1  .23 Ml 1.9         4900345

.
EVENT     272824
    Date      Time       Latitude Longitude    Depth    Ndef Nsta Gap    Mag1  N    Mag2  N    Mag3  N   Author         ID
       rms   OT_Error      Smajor Sminor Az        Err   mdist  Mdist     Err        Err        Err      Quality

2012/04/01 05:38:57.1     38.7837   15.1088    258.0 f    35   13 133                                    js067245    272844

                                               +-         0.36  16.36                                    m i ke

SICILY, ITALY
Sta     Dist  EvAz     Phase      Date       Time     TRes  Azim  AzRes  Slow  SRes Def   SNR       Amp   Per   Mag1   Mag2       ID
MBDF  008.60 316.3 m E P       2012/04/01 05:41:00.7   1.6                          T                                        4899623
LPG   009.14 319.9 m E P       2012/04/01 05:41:06.0   0.1                          T                                        4899613
LPL   009.16 319.9 m E P       2012/04/01 05:41:06.4   0.3                          T                                        4899615
ORIF  009.22 314.6 m E P       2012/04/01 05:41:06.7   0.0                          T                                        4900428
CABF  010.25 322.6 m E P       2012/04/01 05:41:19.9   0.1                          T                                        4899622
HINF  010.84 329.0 m E P       2012/04/01 05:41:27.1   0.0                          T                                        4899621
CDF   011.17 332.0 m E P       2012/04/01 05:41:31.4   0.1                          T                1.9  .42                4899612
AVF   011.76 316.6 m E P       2012/04/01 05:41:38.9   0.4                          T                                        4899614
LDF   014.72 316.7 m E P       2012/04/01 05:42:14.7  -0.1                          T                                        4899620
FLN   015.02 316.7 m E P       2012/04/01 05:42:17.7  -0.7                          T                                        4899618
GRR   015.01 314.9 m E P       2012/04/01 05:42:17.9  -0.3                          T                                        4899619
SGMF  015.90 312.2 m E P       2012/04/01 05:42:26.8  -1.7                          T                2.1  .39                4899617
ROSF  016.36 311.6 m E P       2012/04/01 05:42:31.7  -1.9                          T                2.9  .33                4899616

.
