EVENT     261641
    Date      Time       Latitude Longitude    Depth    Ndef Nsta Gap    Mag1  N    Mag2  N    Mag3  N   Author         ID
       rms   OT_Error      Smajor Sminor Az        Err   mdist  Mdist     Err        Err        Err      Quality

2011/07/21 13:52:26.1     43.1964   -1.1902      2.0      12    3 182  Ml 1.7  1  Md 1.6  2              js067245    261641

      0.29   +-  0.13       2.8    1.6  174.70 +-  0.0    0.09   1.13   +-         +-0.0                 m i ke

PYRENEES
Sta     Dist  EvAz     Phase      Date       Time     TRes  Azim  AzRes  Slow  SRes Def   SNR       Amp   Per   Mag1   Mag2       ID
SJPF  000.09 197.1 m E Pg      2011/07/21 13:52:27.7  -0.4                          T                                        4725285
SJPF  000.09 197.1 m E Sg      2011/07/21 13:52:29.1  -0.3                          T               55.6  .22        Md 1.6  4725284
ETSF  000.55 122.5 m E Pg      2011/07/21 13:52:36.4  -0.2                          T                                        4725282
ETSF  000.55 122.5 m E Sg      2011/07/21 13:52:44.3   0.5                          T                3.9  .26        Md 1.6  4725283
EPF   001.13 097.9 m E Pg      2011/07/21 13:52:46.9  -0.4                          T                                        4725281
EPF   001.13 097.9 m E Sg      2011/07/21 13:53:02.1   0.1                          T                1.6  .23 Ml 1.7         4725280

.
EVENT     261642
    Date      Time       Latitude Longitude    Depth    Ndef Nsta Gap    Mag1  N    Mag2  N    Mag3  N   Author         ID
       rms   OT_Error      Smajor Sminor Az        Err   mdist  Mdist     Err        Err        Err      Quality

2011/07/21 13:56:44.3     43.0413   -1.3379      2.0       6    3 305  Ml 1.7  1  Md 1.4  2              js067245    261642

      0.17   +-  0.23       4.3    2.4   69.60 +-  0.0    0.11   1.23   +-         +-0.2                 m i ke

PYRENEES
Sta     Dist  EvAz     Phase      Date       Time     TRes  Azim  AzRes  Slow  SRes Def   SNR       Amp   Per   Mag1   Mag2       ID
SJPF  000.11 048.9 m E Pg      2011/07/21 13:56:46.6  -0.1                          T                                        4725291
SJPF  000.11 048.9 m E Sg      2011/07/21 13:56:48.1  -0.3                          T               11.9  .19        Md 1.3  4725288
ETSF  000.59 103.7 m E Pg      2011/07/21 13:56:55.5  -0.1                          T                                        4725290
ETSF  000.59 103.7 m E Sg      2011/07/21 13:57:03.6   0.3                          T                 .9  .23        Md 1.5  4725289
EPF   001.23 089.9 m E Pg      2011/07/21 13:57:07.3   0.0                          T                                        4725286
EPF   001.23 089.9 m E Sg      2011/07/21 13:57:23.0  -0.2                          T                1.7  .30 Ml 1.7         4725287

.
EVENT     261639
    Date      Time       Latitude Longitude    Depth    Ndef Nsta Gap    Mag1  N    Mag2  N    Mag3  N   Author         ID
       rms   OT_Error      Smajor Sminor Az        Err   mdist  Mdist     Err        Err        Err      Quality

2011/07/21 14:21:16.1     53.5908    2.2507     10.0 f    58   27 166  Ml 3.3 12                         js067245    261639

      1.23   +-  0.25       7.4    3.5   53.52 +-  0.0    1.54  19.36   +-0.2                            m i ke

NORTH SEA
Sta     Dist  EvAz     Phase      Date       Time     TRes  Azim  AzRes  Slow  SRes Def   SNR       Amp   Per   Mag1   Mag2       ID
LLW   003.63 260.6 m E P       2011/07/21 14:22:13.5  -0.3                          T                                        4725144
BAIF  003.74 160.3 m E P       2011/07/21 14:22:14.6  -0.7                          T                                        4727763
BAIF  003.74 160.3 m E Pg      2011/07/21 14:22:24.3  -1.0                          T                                        4727762
BAIF  003.74 160.3 m E Sg      2011/07/21 14:23:12.3  -1.1                          T               40.4  .69 Ml 3.4         4727728
GIVF  003.84 154.4 m E P       2011/07/21 14:22:15.6  -1.2                          T                                        4727764
GIVF  003.84 154.4 m E Sg      2011/07/21 14:23:15.5  -1.0                          T               62.6  .64 Ml 3.6         4727727
RUP   004.91 140.5 m E Pn      2011/07/21 14:22:27.1  -0.8                          T                                        4727761
FLN   005.13 200.7 m E Pn      2011/07/21 14:22:30.8  -0.1  29.9  11.4              T                                        4727752
LDF   000.00 000.0 m E Sg                                                                           37.9  .86 Ml 3.5         4727732
LDF   005.22 197.6 m E Pn      2011/07/21 14:22:33.0   0.9                          T                                        4727751
LDF   005.22 197.6 m E Sn      2011/07/21 14:23:28.1  -0.7                          T                5.5  .32 Ml 3.1         4727738
PAGF  005.50 155.1 m E Pn      2011/07/21 14:22:36.6   0.7                          T                                        4727760
PAGF  005.50 155.1 m E Sg      2011/07/21 14:24:07.4  -0.8                          T                6.3  .61 Ml 3.0         4727729
GRR   005.57 201.9 m E Pn      2011/07/21 14:22:36.7  -0.1                          T                                        4727750
GRR   005.57 201.9 m E Sn      2011/07/21 14:23:35.5  -1.5                          T                8.4  .32 Ml 3.3         4727737
SGMF  006.15 211.5 m E Pn      2011/07/21 14:22:46.4   1.7                          T                                        4727754
SGMF  006.15 211.5 m E Sn      2011/07/21 14:23:51.4   0.5                          T                4.9  .26 Ml 3.4         4727739
CDF   006.08 146.5 m E P       2011/07/21 14:22:47.5  -1.1                          T                                        4727759
ROSF  006.31 215.8 m E Pn      2011/07/21 14:22:48.4   1.4                          T                                        4727755
ROSF  006.31 215.8 m E Sn      2011/07/21 14:23:54.6  -0.3                          T                6.9  .26 Ml 3.6         4727740
HAU   006.17 153.5 m E P       2011/07/21 14:22:49.0  -0.7                          T                                        4727731
HAU   006.17 153.5 m E Sg      2011/07/21 14:24:28.7  -0.5                          T                6.0  .38 Ml 3.1         4727730
LOR   006.41 170.1 m E Pn      2011/07/21 14:22:49.3   0.9 355.3  4.0               T                                        4727767
LOR   006.41 170.1 m E Sn      2011/07/21 14:23:56.5  -0.8                          T                3.9  .28 Ml 3.3         4727735
LOR   006.41 170.1 m E Sg      2011/07/21 14:24:37.2   0.3                          T               12.4  .52 Ml 3.6         4727726
SSF   006.59 172.5 m E Pn      2011/07/21 14:22:51.0   0.3                          T                                        4727766
QUIF  006.64 213.3 m E Pn      2011/07/21 14:22:52.9   1.5                          T                                        4727753
AVF   006.84 173.6 m E Pn      2011/07/21 14:22:55.0   0.8                          T                                        4727757
MFF   007.16 193.4 m E Pn      2011/07/21 14:22:58.7   0.1                          T                                        4727749
TCF   007.31 180.2 m E Pn      2011/07/21 14:23:01.6   1.0                          T                                        4727765
CABF  007.41 159.0 m E Pn      2011/07/21 14:23:03.3   1.3                          T                                        4727758
RJF   008.31 183.6 m E Pn      2011/07/21 14:23:14.5   0.3                          T                                        4727748
LPL   008.59 158.4 m E Pn      2011/07/21 14:23:18.1  -0.2                          T                                        4727741
LFF   008.72 187.1 m E Pn      2011/07/21 14:23:18.5  -1.1                          T                                        4727747
CAF   008.67 180.9 m E Pn      2011/07/21 14:23:19.3   0.1                          T                                        4727746
LASF  009.58 173.0 m E Pn      2011/07/21 14:23:30.6  -0.9                          T                                        4727742
EPF   010.64 187.6 m E Pn      2011/07/21 14:23:45.1  -0.9                          T                                        4727743
SJPF  010.74 193.8 m E Pn      2011/07/21 14:23:45.8  -1.4                          T                                        4727744
ETSF  010.86 191.0 m E Pn      2011/07/21 14:23:48.4  -0.6                          T                                        4727745

.
EVENT     261645
    Date      Time       Latitude Longitude    Depth    Ndef Nsta Gap    Mag1  N    Mag2  N    Mag3  N   Author         ID
       rms   OT_Error      Smajor Sminor Az        Err   mdist  Mdist     Err        Err        Err      Quality

2011/07/21 20:49:09.3     42.5992     .9124      5.0 f    24    3 095  Ml 1.2  2  Md 1.5  1              js067245    261645

      0.60   +-  0.11       2.5    1.6   23.62 +-  0.0    0.25   1.88   +-0.2      +-                    m i ke

PYRENEES
Sta     Dist  EvAz     Phase      Date       Time     TRes  Azim  AzRes  Slow  SRes Def   SNR       Amp   Per   Mag1   Mag2       ID
EPF   000.60 315.8 m E Pg      2011/07/21 20:49:20.6  -0.2                          T                                        4725169
EPF   000.60 315.8 m E Sg      2011/07/21 20:49:28.0  -0.8                          T                2.2  .19        Md 1.5  4725168
ETSF  001.12 285.9 m E Pg      2011/07/21 20:49:30.8   0.3                          T                                        4725164
ETSF  001.12 285.9 m E Sg      2011/07/21 20:49:45.2   0.1                          T                 .5  .21 Ml 1.3         4725166
MTLF  001.21 051.8 m E Pg      2011/07/21 20:49:32.5   0.5                          T                                        4725165
MTLF  001.21 051.8 m E Sg      2011/07/21 20:49:47.4  -0.3                          T                 .3  .24 Ml 1.1         4725167

.
EVENT     261646
    Date      Time       Latitude Longitude    Depth    Ndef Nsta Gap    Mag1  N    Mag2  N    Mag3  N   Author         ID
       rms   OT_Error      Smajor Sminor Az        Err   mdist  Mdist     Err        Err        Err      Quality

2011/07/22 02:19:39.3     42.9332     .0061      2.0       6    4 190  Ml 0.9  2  Md 1.1  1              js067245    261646

      0.04   +-  0.03       2.5     .3  170.11 +-  0.0    0.26   1.67   +-0.1      +-                    m i ke

PYRENEES
Sta     Dist  EvAz     Phase      Date       Time     TRes  Azim  AzRes  Slow  SRes Def   SNR       Amp   Per   Mag1   Mag2       ID
EPF   000.26 068.3 m E Pg      2011/07/22 02:19:44.5   0.0                          T                                        4725177
EPF   000.26 068.3 m E Sg      2011/07/22 02:19:48.2   0.0                          T                1.7  .17                4725174
ETSF  000.42 265.4 m E Pg      2011/07/22 02:19:47.4   0.0                          T                                        4725176
ETSF  000.42 265.4 m E Sg      2011/07/22 02:19:53.0   0.1                          T                3.2  .26                4725175
SJPF  000.92 281.7 m E Sg      2011/07/22 02:20:08.6   0.0                          T                 .3  .22 Ml  .9         4727947
MTLF  001.67 075.1 m E Sg      2011/07/22 02:20:32.0   0.0                          T                 .1  .17 Ml 1.0         4727946

.
EVENT     261647
    Date      Time       Latitude Longitude    Depth    Ndef Nsta Gap    Mag1  N    Mag2  N    Mag3  N   Author         ID
       rms   OT_Error      Smajor Sminor Az        Err   mdist  Mdist     Err        Err        Err      Quality

2011/07/22 03:02:24.8     44.1397    6.9240      2.0      10    5 137  Ml 1.5  2  Md 1.4  3              js067245    261647

      0.13   +-  0.04       1.3     .7   75.37 +-  0.0    0.46   1.08   +-0.7      +-0.0                 m i ke

FRANCE
Sta     Dist  EvAz     Phase      Date       Time     TRes  Azim  AzRes  Slow  SRes Def   SNR       Amp   Per   Mag1   Mag2       ID
SBF   000.46 126.7 m E Pg      2011/07/22 03:02:33.6  -0.1                          T                                        4725209
SBF   000.46 126.7 m E Sg      2011/07/22 03:02:40.1   0.3                          T                4.4  .23        Md 1.4  4725210
MBDF  000.60 349.5 m E Pg      2011/07/22 03:02:36.3   0.0                          T                                        4725208
MBDF  000.60 349.5 m E Sg      2011/07/22 03:02:44.3   0.1                          T                  1  .16        Md 1.3  4725207
FRF   000.61 199.2 m E Pg      2011/07/22 03:02:36.4   0.0                          T                                        4725214
FRF   000.61 199.2 m E Sg      2011/07/22 03:02:44.6   0.2                          T                3.8  .20        Md 1.4  4725212
LMR   000.86 200.6 m E Pg      2011/07/22 03:02:40.8  -0.1                          T                                        4725213
LMR   000.86 200.6 m E Sg      2011/07/22 03:02:52.1   0.0                          T                2.8  .18 Ml 2.0         4725211
ORIF  001.08 316.6 m E Pg      2011/07/22 03:02:45.0  -0.1                          T                                        4725206
ORIF  001.08 316.6 m E Sg      2011/07/22 03:02:59.3   0.2                          T                 .2  .17 Ml 1           4725205

.
EVENT     261648
    Date      Time       Latitude Longitude    Depth    Ndef Nsta Gap    Mag1  N    Mag2  N    Mag3  N   Author         ID
       rms   OT_Error      Smajor Sminor Az        Err   mdist  Mdist     Err        Err        Err      Quality

2011/07/22 03:31:22.5     51.4992    6.6222      1.0 f    44   18 242  Ml 2.6 14  Md 2.7  3              js067245    261648

      0.31   +-  0.15       2.5    1.8   36.09 +-  0.0    0.28   6.62   +-0.3      +-0.3                 m i sr

GERMANY
Sta     Dist  EvAz     Phase      Date       Time     TRes  Azim  AzRes  Slow  SRes Def   SNR       Amp   Per   Mag1   Mag2       ID
GIVF  001.81 219.9 m E Pn      2011/07/22 03:31:52.7  -0.3                          T                                        4725228
GIVF  001.81 219.9 m E P       2011/07/22 03:31:55.0   0.0                          T                                        4728091
GIVF  001.81 219.9 m E Sn      2011/07/22 03:32:15.6   0.4                          T               15.7  .22 Ml 3.0 Md 2.4  4725239
RUP   001.82 171.0 m E Pn      2011/07/22 03:31:53.4   0.1                          T                                        4725240
RUP   001.82 171.0 m E Pg      2011/07/22 03:31:56.4  -0.1                          T                                        4728089
RUP   001.82 171.0 m E Sn      2011/07/22 03:32:15.5  -0.2                          T                                        4728090
RUP   001.82 171.0 m E Sg      2011/07/22 03:32:19.6  -0.3                          T                                Md 3.0  4725237
BAIF  002.10 227.7 m E Pn      2011/07/22 03:31:57.0   0.0                          T                                        4725231
BAIF  002.10 227.7 m E Sn      2011/07/22 03:32:22.4   0.0                          T                6.7  .33 Ml 2.5 Md 2.6  4725238
CDF   003.12 172.0 m E Pn      2011/07/22 03:32:10.3  -0.7                          T                                        4725226
CDF   003.12 172.0 m E Sg      2011/07/22 03:33:00.5   0.0                          T                2.1  .28 Ml 2.4         4728086
LANF  002.63 162.8 m E Pg      2011/07/22 03:32:11.1  -0.3                          T                                        4728087
LANF  002.63 162.8 m E Sg      2011/07/22 03:32:44.7  -0.5                          T                5.9  .31 Ml 2.6         4728088
LOR   004.60 204.1 m E Pn      2011/07/22 03:32:31.4   0.3                          T                                        4725232
LOR   004.60 204.1 m E Sn      2011/07/22 03:33:22.4   0.3                          T                                        4725230
LOR   004.60 204.1 m E Sg      2011/07/22 03:33:47.0   0.3                          T                2.1  .41 Ml 2.5         4725229
SSF   004.89 205.9 m E Pn      2011/07/22 03:32:34.6  -0.4                          T                                        4725233
SSF   004.89 205.9 m E Sn      2011/07/22 03:33:29.2   0.4                          T                                        4725216
SSF   004.89 205.9 m E Sg      2011/07/22 03:33:54.9  -0.7                          T                2.1  .28 Ml 2.8         4725215
AVF   005.18 205.7 m E Pn      2011/07/22 03:32:39.2   0.3                          T                                        4725236
AVF   005.18 205.7 m E Sn      2011/07/22 03:33:35.7  -0.1                          T                 .5  .22 Ml 2.3         4725223
SMF   005.19 201.7 m E Pn      2011/07/22 03:32:39.5   0.4                          T                                        4725235
SMF   005.19 201.7 m E Pg      2011/07/22 03:32:58.4   0.0                          T                                        4725221
SMF   005.19 201.7 m E Sg      2011/07/22 03:34:06.2   1.2                          T                2.7  .29 Ml 2.9         4725222
BGF   005.53 208.1 m E Pn      2011/07/22 03:32:43.4  -0.3                          T                                        4725234
GRR   005.75 240.1 m E Pn      2011/07/22 03:32:47.1   0.5                          T                                        4725220
GRR   005.75 240.1 m E Sn      2011/07/22 03:33:48.9  -0.5                          T                1.6  .24 Ml 2.7         4725219
TCF   005.97 210.9 m E Pn      2011/07/22 03:32:49.7  -0.1                          T                                        4725227
PAGF  003.00 191.4 m E Sg      2011/07/22 03:32:56.6  -0.1                          T                 .9  .28 Ml 1.9         4728085
MFF   006.62 224.8 m E Pn      2011/07/22 03:32:58.3  -0.1                          T                                        4725218
MEZF  003.17 199.3 m E Sg      2011/07/22 03:33:02.5   0.6                          T                5.6  .34 Ml 2.7         4725225
SFTF  003.45 197.9 m E Sg      2011/07/22 03:33:11.3   0.5                          T                3.2  .24 Ml 2.7         4725224
HAU   003.50 183.0 m E Sg      2011/07/22 03:33:12.2  -0.1                          T                3.5  .36 Ml 2.3         4728084
HINF  003.69 177.6 m E Sg      2011/07/22 03:33:18.0  -0.2                          T                2.8  .43 Ml 2.4         4728083

.
