BEGIN GSE2.0
MSG_TYPE DATA
MSG_ID 06-JUL-1213:25:34  FRA_NDC
E-MAIL
DATA_TYPE BULLETIN
Reviewed Bulletin (REB) # P2012-024  from French NDC for regional phases     PERIOD 13 JUN 2012 TO 19 JUN 2012 Cenalt JP S
EVENT     278024
    Date      Time       Latitude Longitude    Depth    Ndef Nsta Gap    Mag1  N    Mag2  N    Mag3  N   Author         ID
       rms   OT_Error      Smajor Sminor Az        Err   mdist  Mdist     Err        Err        Err      Quality

2012/06/13 01:26:23.0     44.9478   11.1387      2.0      32   13 143  Ml 3.1  9                         bulletin    278124
                                                                                                         _ldg
      0.60   +-  0.22       5.0    3.4   94.52 +-  0.0    0.19   5.57   +-0.2                            m i ke

NORTHERN ITALY
Sta     Dist  EvAz     Phase      Date       Time     TRes  Azim  AzRes  Slow  SRes Def   SNR       Amp   Per   Mag1   Mag2       ID
PGF   002.86 213.6 m E Pn      2012/06/13 01:27:08.1   0.3                          T                                        4999236
PGF   002.86 213.6 m E Sn      2012/06/13 01:27:41.0   0.2                          T               15.2  .32 Ml 3.3         4999237
SBF   002.87 249.1 m E Pn      2012/06/13 01:27:08.2   0.2                          T                                        4999239
SBF   002.87 249.1 m E Sn      2012/06/13 01:27:42.1   1.1                          T               45.0  .32 Ml 3.5         4999238
MBDF  003.11 267.5 m E Pn      2012/06/13 01:27:09.4  -2.0                          T                                        4999230
LPG   003.15 281.6 m E Pn      2012/06/13 01:27:13.4   1.3                          T                                        4999233
LPL   003.16 281.9 m E Pn      2012/06/13 01:27:13.9   1.7                          T                                        4999232
FRF   003.51 248.3 m E Pn      2012/06/13 01:27:16.5  -0.1                          T                                        4999234
FRF   003.51 248.3 m E Sn      2012/06/13 01:27:57.8   1.5                          T                9.3  .22 Ml 3.2         4999221
LMR   003.70 245.8 m E Pn      2012/06/13 01:27:19.3   0.2                          T                                        4999235
LMR   003.70 245.8 m E Sn      2012/06/13 01:28:00.9   0.1                          T               11.0  .29 Ml 3.2         4999220
ORIF  003.73 271.4 m E Pn      2012/06/13 01:27:19.5  -0.3                          T                                        4999231
HINF  004.13 315.6 m E Pn      2012/06/13 01:27:24.1  -1.0                          T                                        4999229
HINF  004.13 315.6 m E Sn      2012/06/13 01:28:11.3   0.3                          T                5.8  .36 Ml 2.9         4999222
CDF   004.37 323.9 m E Pn      2012/06/13 01:27:29.4   1.0                          T                                        4999227
CDF   004.37 323.9 m E Sn      2012/06/13 01:28:16.8   0.0                          T                3.2  .33 Ml 2.8         4999224
HAU   004.51 314.4 m E Pn      2012/06/13 01:27:30.4   0.2                          T                                        4999228
HAU   004.51 314.4 m E Sn      2012/06/13 01:28:19.6  -0.5                          T                7.0  .30 Ml 2.9         4999223
SMF   005.38 291.0 m E Pn      2012/06/13 01:27:41.9  -0.1                          T                                        4999240
SMF   005.38 291.0 m E Sn      2012/06/13 01:28:40.6  -0.3                          T                3.0  .29 Ml 3.0         4999241
LOR   005.57 297.2 m E Pn      2012/06/13 01:27:44.5  -0.1                          T                                        4999226
LOR   005.57 297.2 m E Sn      2012/06/13 01:28:45.1  -0.4                          T                3.0  .30 Ml 3.0         4999225

.
EVENT     278025
    Date      Time       Latitude Longitude    Depth    Ndef Nsta Gap    Mag1  N    Mag2  N    Mag3  N   Author         ID
       rms   OT_Error      Smajor Sminor Az        Err   mdist  Mdist     Err        Err        Err      Quality

2012/06/13 02:16:58.4     41.3742     .4074      2.0      51    9 070  Ml 3.0 10                         bulletin    278125
                                                                                                         _ldg
      0.89   +-  0.10       2.1    1.6  128.97 +-  0.0    0.42   4.67   +-0.3                            m i ke

SPAIN
Sta     Dist  EvAz     Phase      Date       Time     TRes  Azim  AzRes  Slow  SRes Def   SNR       Amp   Per   Mag1   Mag2       ID
EPF   001.66 358.3 m E Pg      2012/06/13 02:17:29.0  -0.3                          T                                        4999249
EPF   001.66 358.3 m E Sg      2012/06/13 02:17:51.4   0.7                          T               59.4  .46 Ml 3.2         4999244
ETSF  001.68 335.1 m E Pg      2012/06/13 02:17:29.3  -0.6                          T                                        4999250
ETSF  001.68 335.1 m E Sg      2012/06/13 02:17:51.7   0.1                          T               41.8  .44 Ml 3.1         4999245
SJPF  002.12 325.6 m E Pg      2012/06/13 02:17:37.6  -0.2                          T                                        4999247
SJPF  002.12 325.6 m E Sg      2012/06/13 02:18:05.3   0.2                          T               24.9  .42 Ml 3.0         4999246
MTLF  002.38 033.7 m E Pg      2012/06/13 02:17:42.0  -0.6                          T                                        4999248
MTLF  002.38 033.7 m E Sg      2012/06/13 02:18:14.1   0.9                          T               33.5  .46 Ml 3.2         4999243
LFF   003.57 003.8 m E Sg      2012/06/13 02:18:50.0  -0.3                          T               15.3  .55 Ml 2.8         4999252
LASF  003.71 042.1 m E Sg      2012/06/13 02:18:54.8   0.1                          T               21.7  .68 Ml 3.1         4999242
CAF   003.75 018.3 m E Sg      2012/06/13 02:18:55.6  -0.4                          T               11.5  .54 Ml 2.9         4999253
RJF   004.01 011.3 m E Sg      2012/06/13 02:19:04.2   0.1                          T                8.2  .50 Ml 2.5         4999251
VIVF  004.67 040.5 m E Sg      2012/06/13 02:19:25.0   0.1                          T                2.3  .44 Ml 2.5         5018869

.
EVENT     278029
    Date      Time       Latitude Longitude    Depth    Ndef Nsta Gap    Mag1  N    Mag2  N    Mag3  N   Author         ID
       rms   OT_Error      Smajor Sminor Az        Err   mdist  Mdist     Err        Err        Err      Quality

2012/06/13 05:37:18.2     43.0823    -.3859      2.0      36    7 103  Ml 2.4  4  Md 2.4  4              bulletin    278129
                                                                                                         _ldg
      0.56   +-  0.08       1.7    1.4  174.19 +-  0.0    0.01   2.72   +-0.2      +-0.1                 m i ke

PYRENEES
Sta     Dist  EvAz     Phase      Date       Time     TRes  Azim  AzRes  Slow  SRes Def   SNR       Amp   Per   Mag1   Mag2       ID
ETSF  000.22 214.8 m E Pg      2012/06/13 05:37:22.3  -0.4                          T                                Md 2.3  5000165
ETSF  000.22 214.8 m E Sg      2012/06/13 05:37:25.6  -0.2                          T               43.5  .20                5000164
EPF   000.53 095.3 m E Pg      2012/06/13 05:37:28.1  -0.3                          T                                Md 2.3  5000162
EPF   000.53 095.3 m E Sg      2012/06/13 05:37:35.5   0.0                          T               21.0  .22                5000163
SJPF  000.62 273.2 m E Pg      2012/06/13 05:37:29.8   0.0                          T                                Md 2.4  5000161
SJPF  000.62 273.2 m E Sg      2012/06/13 05:37:38.2   0.3                          T                8.4  .29                5000160
MTLF  001.92 081.4 m E Pn      2012/06/13 05:37:49.2  -1.0                          T                                Md 2.6  5000158
MTLF  001.92 081.4 m E Sg      2012/06/13 05:38:18.5  -0.2                          T                2.6  .26 Ml 2.2         5006422
LFF   002.03 023.2 m E Pn      2012/06/13 05:37:52.0   0.4                          T                                        5000159
LFF   002.03 023.2 m E Pg      2012/06/13 05:37:55.3  -0.5                          T                                        5018872
LFF   002.03 023.2 m E Sn      2012/06/13 05:38:15.7  -0.3                          T                                        5018873
LFF   002.03 023.2 m E Sg      2012/06/13 05:38:21.9   0.0                          T               14.1  .44 Ml 2.5         5000156
CAF   002.55 043.0 m E Pn      2012/06/13 05:37:57.3  -1.5                          T                                        5000157
CAF   002.55 043.0 m E Pg      2012/06/13 05:38:05.4  -0.2                          T                                        5006424
CAF   002.55 043.0 m E Sn      2012/06/13 05:38:29.4   0.8                          T                                        5000155
CAF   002.55 043.0 m E Sg      2012/06/13 05:38:38.7   0.3                          T                3.6  .25 Ml 2.5         5006421
RJF   002.61 031.0 m E Pn      2012/06/13 05:37:59.2  -0.3                          T                                        5018871
RJF   002.61 031.0 m E Pg      2012/06/13 05:38:06.8   0.2                          T                                        5018870
RJF   002.61 031.0 m E Sg      2012/06/13 05:38:39.6  -0.5                          T                3.2  .20 Ml 2.2         5006423

.
EVENT     278095
    Date      Time       Latitude Longitude    Depth    Ndef Nsta Gap    Mag1  N    Mag2  N    Mag3  N   Author         ID
       rms   OT_Error      Smajor Sminor Az        Err   mdist  Mdist     Err        Err        Err      Quality

2012/06/13 07:20:31.7     42.8071    2.8157       .0 f    14    6 140  Ml 2.0  4  Md 2.1  1              bulletin    278195
                                                                                                         _ldg
      0.33   +-  0.07       2.0     .9   82.15 +-  0.0    0.33   2.67   +-0.3      +-                    m i km

PYRENEES
Sta     Dist  EvAz     Phase      Date       Time     TRes  Azim  AzRes  Slow  SRes Def   SNR       Amp   Per   Mag1   Mag2       ID
MTLF  000.69 320.8 m E Pn      2012/06/13 07:20:47.2  -0.1                          T                                        5006456
MTLF  000.69 320.8 m E Sn      2012/06/13 07:20:58.0  -0.3                          T                7.1  .16        Md 2.1  5006455
EPF   001.83 277.8 m E Pn      2012/06/13 07:21:02.8  -0.1                          T                                        5006453
EPF   001.83 277.8 m E Sn      2012/06/13 07:21:25.1  -0.5                          T                1.3  .26 Ml 1.9         5006454
CAF   002.19 345.9 m E Pg      2012/06/13 07:21:12.8   0.2                          T                                        5006457
CAF   002.19 345.9 m E Sg      2012/06/13 07:21:40.6  -0.3                          T                 .7  .15 Ml 1.9         5006450
RJF   002.67 339.9 m E Pn      2012/06/13 07:21:14.3   0.1                          T                                        5006451
RJF   002.67 339.9 m E Pg      2012/06/13 07:21:21.8   0.3                          T                                        5006452
LASF  001.48 030.5 m E Sg      2012/06/13 07:21:18.8   0.0                          T                  1  .20 Ml 1.7         5018876
LFF   002.61 325.6 m E Sg      2012/06/13 07:21:54.0   0.0                          T                3.6  .20 Ml 2.4         5018877

.
EVENT     278073
    Date      Time       Latitude Longitude    Depth    Ndef Nsta Gap    Mag1  N    Mag2  N    Mag3  N   Author         ID
       rms   OT_Error      Smajor Sminor Az        Err   mdist  Mdist     Err        Err        Err      Quality

2012/06/13 08:34:37.2     46.5923    2.7775       .0 f    14    6 174  Ml 2.5  1  Md 2.1  3              bulletin    278173
                                                                                                         _ldg
      0.93   +-  0.11       3.0    1.4  134.38 +-  0.0    0.06   1.00   +-         +-0.4                 m i km

FRANCE
Sta     Dist  EvAz     Phase      Date       Time     TRes  Azim  AzRes  Slow  SRes Def   SNR       Amp   Per   Mag1   Mag2       ID
BGF   000.06 126.0 m E Pg      2012/06/13 08:34:38.4  -0.3                          T                                        5000193
BGF   000.06 126.0 m E Sg      2012/06/13 08:34:39.8   0.1                          T             1237.0  .42        Md 2.5  5000192
AVF   000.44 063.2 m E Pg      2012/06/13 08:34:45.8  -0.1                          T                                        5000195
AVF   000.44 063.2 m E Sg      2012/06/13 08:34:51.7  -0.3                          T                6.3  .40        Md 1.8  5000190
TCF   000.50 232.4 m E Pg      2012/06/13 08:34:46.8  -0.1                          T                                        5018882
TCF   000.50 232.4 m E Sg      2012/06/13 08:34:53.7   0.0                          T               61.5 1.34                5018883
SSF   000.69 046.6 m E Pg      2012/06/13 08:34:50.5   0.1                          T                                        5000196
SSF   000.69 046.6 m E Sg      2012/06/13 08:34:59.4  -0.1                          T                2.8  .31                5018880
SMF   000.74 085.5 m E Pg      2012/06/13 08:34:51.3   0.0                          T                                        5000194
SMF   000.74 085.5 m E Pn      2012/06/13 08:34:53.3  -0.1                          T                                        5018890
SMF   000.74 085.5 m E Sg      2012/06/13 08:35:01.3   0.2                          T                                        5000191
SMF   000.74 085.5 m E Sn      2012/06/13 08:35:05.3   0.5                          T                2.2  .18                5018889
LOR   001.00 047.2 m E Pg      2012/06/13 08:34:56.3   0.0 224.0  -4.0              T                                        5000197
LOR   001.00 047.2 m E Sn      2012/06/13 08:35:11.3   0.0 215.0  -13.0             T               18.3  .38 Ml 2.5         5018881

.
EVENT     278085
    Date      Time       Latitude Longitude    Depth    Ndef Nsta Gap    Mag1  N    Mag2  N    Mag3  N   Author         ID
       rms   OT_Error      Smajor Sminor Az        Err   mdist  Mdist     Err        Err        Err      Quality

2012/06/13 11:12:39.6     46.1712    2.4506      2.0      19    9 089  Ml 2.2  4  Md 2.1  3              bulletin    278185
                                                                                                         _ldg
      0.34   +-  0.10       2.2    1.5  128.27 +-  0.0    0.20   1.46   +-0.2      +-0.2                 m i ke

FRANCE
Sta     Dist  EvAz     Phase      Date       Time     TRes  Azim  AzRes  Slow  SRes Def   SNR       Amp   Per   Mag1   Mag2       ID
TCF   000.20 305.1 m E Pg      2012/06/13 11:12:43.7   0.0                          T                                        5000259
TCF   000.20 305.1 m E Sg      2012/06/13 11:12:46.4  -0.1                          T              189.8  .66        Md 2.3  5000251
BGF   000.47 035.2 m E Pg      2012/06/13 11:12:48.6   0.0                          T                                        5000254
BGF   000.47 035.2 m E Sg      2012/06/13 11:12:55.2   0.3                          T               24.4  .28        Md 2.0  5000246
AVF   000.88 044.8 m E Pg      2012/06/13 11:12:55.8  -0.3                          T                                        5018891
AVF   000.88 044.8 m E Pn      2012/06/13 11:12:57.9   0.6                          T                                        5000258
AVF   000.88 044.8 m E Sg      2012/06/13 11:13:07.5   0.0                          T                4.2  .26 Ml 2.0         5000249
SMF   001.07 063.3 m E Pg      2012/06/13 11:12:59.7   0.0                          T                                        5000257
SMF   001.07 063.3 m E Sg      2012/06/13 11:13:14.3   0.7                          T                4.7  .22 Ml 2.2         5000248
SSF   001.15 038.9 m E Pg      2012/06/13 11:13:00.7  -0.4                          T                                        5000256
SSF   001.15 038.9 m E Sg      2012/06/13 11:13:15.0  -1.0                          T                8.0  .30 Ml 2.4         5000250
HYF   001.11 006.7 m E Pg      2012/06/13 11:13:01.1   0.8                          T                                        5000255
HYF   001.11 006.7 m E Sg      2012/06/13 11:13:15.2   0.6                          T                                        5000247
RJF   001.09 217.4 m E Pg      2012/06/13 11:13:01.1   1.2                          T                                        5000253
RJF   001.09 217.4 m E Sg      2012/06/13 11:13:14.0   0.0                          T                                        5000245
CAF   001.27 192.4 m E Pg      2012/06/13 11:13:03.3  -0.1                          T                                        5000252
CAF   001.27 192.4 m E Sg      2012/06/13 11:13:20.2   0.3                          T                                        5000244
LOR   001.46 040.9 m E Pg      2012/06/13 11:13:07.1   0.2                          T                                        5018894
LOR   001.46 040.9 m E Sg      2012/06/13 11:13:25.8   0.0                          T                5.1  .24 Ml 2.4         5018895

.
EVENT     278094
    Date      Time       Latitude Longitude    Depth    Ndef Nsta Gap    Mag1  N    Mag2  N    Mag3  N   Author         ID
       rms   OT_Error      Smajor Sminor Az        Err   mdist  Mdist     Err        Err        Err      Quality

2012/06/13 12:41:21.9     42.6505     .7612      2.0      29    5 075  Ml 1.8  4  Md 1.8  2              bulletin    278194
                                                                                                         _ldg
      0.47   +-  0.08       1.6    1.4   32.84 +-  0.0    0.07   2.67   +-0.1      +-0.2                 m i ke

PYRENEES
Sta     Dist  EvAz     Phase      Date       Time     TRes  Azim  AzRes  Slow  SRes Def   SNR       Amp   Per   Mag1   Mag2       ID
EPF   000.49 320.9 m E Pg      2012/06/13 12:41:31.0  -0.4                          T                                Md 1.7  5000585
EPF   000.49 320.9 m E Sg      2012/06/13 12:41:37.3  -0.6                          T                6.8  .18        Md 1.9  5000580
ETSF  001.00 284.8 m E Pg      2012/06/13 12:41:40.7  -0.1                          T                                        5000583
ETSF  001.00 284.8 m E Sg      2012/06/13 12:41:53.6  -0.3                          T                2.8  .32 Ml 1.8         5019487
MTLF  001.27 056.6 m E Pn      2012/06/13 12:41:44.5  -0.6                          T                                        5000584
MTLF  001.27 056.6 m E Sn      2012/06/13 12:42:02.1   0.4                          T                1.3  .20 Ml 1.7         5000581
SJPF  001.53 288.3 m E Pn      2012/06/13 12:41:48.9   0.3                          T                                        5000582
SJPF  001.53 288.3 m E Sg      2012/06/13 12:42:10.5   0.2                          T                1.9  .31 Ml 1.8         5000579
LASF  002.67 056.7 m E Pn      2012/06/13 12:42:04.3   0.2                          T                                        5006459
LASF  002.67 056.7 m E Sn      2012/06/13 12:42:35.1  -0.1                          T                 .9  .25 Ml 1.9         5006460

.
