EVENT     266766
    Date      Time       Latitude Longitude    Depth    Ndef Nsta Gap    Mag1  N    Mag2  N    Mag3  N   Author         ID
       rms   OT_Error      Smajor Sminor Az        Err   mdist  Mdist     Err        Err        Err      Quality

2011/11/26 04:06:32.9     42.7497   -1.6275      2.0      21    3 150  Ml 1.9  1                         js067245    266786

      0.37   +-  0.13       2.4    2.0   12.83 +-  0.0    0.04   2.07   +-                               m i ke

PYRENEES
Sta     Dist  EvAz     Phase      Date       Time     TRes  Azim  AzRes  Slow  SRes Def   SNR       Amp   Per   Mag1   Mag2       ID
SJPF  000.47 039.0 m E Pg      2011/11/26 04:06:41.9   0.0                          T                                        4792105
SJPF  000.47 039.0 m E Sg      2011/11/26 04:06:47.9  -0.2                          T                4.9  .20                4792101
ETSF  000.80 078.9 m E Pg      2011/11/26 04:06:48.5   0.4                          T                                        4792104
ETSF  000.80 078.9 m E Sg      2011/11/26 04:06:58.3  -0.3                          T                2.2  .20                4792419
ETSF  000.80 078.9 m E Sn      2011/11/26 04:07:00.5  -1.0                          T                                        4792420
EPF   001.47 078.4 m E Pn      2011/11/26 04:06:58.0  -0.9                          T                                        4792421
EPF   001.47 078.4 m E Pg      2011/11/26 04:07:00.4  -0.1                          T                                        4792103
EPF   001.47 078.4 m E Sg      2011/11/26 04:07:19.4  -0.1                          T                2.7  .35 Ml 1.9         4792714

.
EVENT     266767
    Date      Time       Latitude Longitude    Depth    Ndef Nsta Gap    Mag1  N    Mag2  N    Mag3  N   Author         ID
       rms   OT_Error      Smajor Sminor Az        Err   mdist  Mdist     Err        Err        Err      Quality

2011/11/26 04:06:40.6     42.7443   -1.5670      2.0      17    3 149  Ml 2.0  1  Md 2.0  2              js067245    266787

      0.32   +-  0.19       3.8    1.9    5.29 +-  0.0    0.03   1.45   +-         +-0.0                 m i ke

PYRENEES
Sta     Dist  EvAz     Phase      Date       Time     TRes  Azim  AzRes  Slow  SRes Def   SNR       Amp   Per   Mag1   Mag2       ID
SJPF  000.45 034.1 m E Pg      2011/11/26 04:06:48.9  -0.2                          T                                        4792110
SJPF  000.45 034.1 m E Sg      2011/11/26 04:06:54.8  -0.3                          T                4.3  .20        Md 2.0  4792109
ETSF  000.76 077.9 m E Pg      2011/11/26 04:06:54.6  -0.3                          T                                        4792107
ETSF  000.76 077.9 m E Sg      2011/11/26 04:07:04.9   0.1                          T                2.2  .20        Md 2.0  4792108
EPF   001.43 077.8 m E Pg      2011/11/26 04:07:06.6  -0.7                          T                                        4792106
EPF   001.43 077.8 m E Sg      2011/11/26 04:07:26.0   0.3                          T                2.3  .22 Ml 2.0         4792422

.
EVENT     266768
    Date      Time       Latitude Longitude    Depth    Ndef Nsta Gap    Mag1  N    Mag2  N    Mag3  N   Author         ID
       rms   OT_Error      Smajor Sminor Az        Err   mdist  Mdist     Err        Err        Err      Quality

2011/11/26 04:12:00.0     42.8170   -1.6095      2.0      20    3 098  Ml 1.7  1  Md 1.8  2              js067245    266788

      0.37   +-  0.18       3.5    1.7  126.40 +-  0.0    0.05   2.07   +-         +-0.0                 m i ke

PYRENEES
Sta     Dist  EvAz     Phase      Date       Time     TRes  Azim  AzRes  Slow  SRes Def   SNR       Amp   Per   Mag1   Mag2       ID
SJPF  000.41 043.5 m E Pg      2011/11/26 04:12:07.9   0.0                          T                                        4792116
SJPF  000.41 043.5 m E Sg      2011/11/26 04:12:13.5   0.2                          T                2.3  .21        Md 1.8  4792115
ETSF  000.78 083.6 m E Pg      2011/11/26 04:12:14.7   0.0                          T                                        4792114
ETSF  000.78 083.6 m E Pn      2011/11/26 04:12:16.6   0.1                          T                                        4792111
ETSF  000.78 083.6 m E Sg      2011/11/26 04:12:24.7  -0.2                          T                2.4  .35        Md 1.8  4792113
EPF   001.45 080.9 m E Pg      2011/11/26 04:12:27.0  -0.1                          T                                        4792112
EPF   001.45 080.9 m E Sg      2011/11/26 04:12:45.0  -0.8                          T                1.2  .25 Ml 1.7         4792427

.
EVENT     266769
    Date      Time       Latitude Longitude    Depth    Ndef Nsta Gap    Mag1  N    Mag2  N    Mag3  N   Author         ID
       rms   OT_Error      Smajor Sminor Az        Err   mdist  Mdist     Err        Err        Err      Quality

2011/11/26 04:12:42.5     42.7949   -1.5620      2.0      22    3 077  Ml 2.1  1  Md 2.1  2              js067245    266789

      0.41   +-  0.12       2.2    1.8    3.85 +-  0.0    0.03   2.44   +-         +-0.0                 m i ke

PYRENEES
Sta     Dist  EvAz     Phase      Date       Time     TRes  Azim  AzRes  Slow  SRes Def   SNR       Amp   Per   Mag1   Mag2       ID
SJPF  000.40 037.8 m E Pg      2011/11/26 04:12:50.1  -0.2                          T                                        4792128
SJPF  000.40 037.8 m E Sg      2011/11/26 04:12:55.5  -0.1                          T                5.2  .22        Md 2.1  4792123
ETSF  000.74 081.7 m E Pg      2011/11/26 04:12:56.8   0.1                          T                                        4792127
ETSF  000.74 081.7 m E Pn      2011/11/26 04:12:58.2  -0.4                          T                                        4792122
ETSF  000.74 081.7 m E Sg      2011/11/26 04:13:06.4   0.0                          T                3.0  .24        Md 2.1  4792124
EPF   001.42 079.8 m E Pg      2011/11/26 04:13:10.0   0.9                          T                                        4792126
EPF   001.42 079.8 m E Sg      2011/11/26 04:13:27.6   0.3                          T                2.9  .21 Ml 2.1         4792125
EPF   001.42 079.8 m E S       2011/11/26 04:13:29.9   0.9                          T                                        4792428

.
EVENT     266770
    Date      Time       Latitude Longitude    Depth    Ndef Nsta Gap    Mag1  N    Mag2  N    Mag3  N   Author         ID
       rms   OT_Error      Smajor Sminor Az        Err   mdist  Mdist     Err        Err        Err      Quality

2011/11/26 04:20:27.0     42.6921   -1.6105      2.0      14    3 292  Ml 1.1  1  Md 1.2  2              js067245    266790

      0.33   +-  0.36       5.4    3.0   23.23 +-  0.0    0.08   1.47   +-         +-0.2                 m i ke

PYRENEES
Sta     Dist  EvAz     Phase      Date       Time     TRes  Azim  AzRes  Slow  SRes Def   SNR       Amp   Per   Mag1   Mag2       ID
SJPF  000.51 033.8 m E Pg      2011/11/26 04:20:36.7   0.0                          T                                        4792130
SJPF  000.51 033.8 m E Sg      2011/11/26 04:20:43.1  -0.3                          T                1.1  .26        Md 1.3  4792129
ETSF  000.80 074.7 m E Sg      2011/11/26 04:20:52.7   0.0                          T                 .4  .20        Md 1.0  4792732
EPF   001.47 076.1 m E Sg      2011/11/26 04:21:13.6   0.0                          T                 .3  .22 Ml 1.1         4792731

.
EVENT     266771
    Date      Time       Latitude Longitude    Depth    Ndef Nsta Gap    Mag1  N    Mag2  N    Mag3  N   Author         ID
       rms   OT_Error      Smajor Sminor Az        Err   mdist  Mdist     Err        Err        Err      Quality

2011/11/26 04:21:37.7     42.7959   -1.5743      2.0      23    3 097  Ml 2.1  1  Md 2.2  2              js067245    266791

      0.39   +-  0.09       1.8    1.6  158.21 +-  0.0    0.02   2.33   +-         +-0.1                 m i ke

PYRENEES
Sta     Dist  EvAz     Phase      Date       Time     TRes  Azim  AzRes  Slow  SRes Def   SNR       Amp   Per   Mag1   Mag2       ID
SJPF  000.41 038.8 m E Pg      2011/11/26 04:21:45.5  -0.1                          T                                        4792434
SJPF  000.41 038.8 m E Sg      2011/11/26 04:21:51.5   0.5                          T                4.8  .24        Md 2.1  4792430
ETSF  000.75 081.8 m E Pg      2011/11/26 04:21:52.1   0.1                          T                                        4792433
ETSF  000.75 081.8 m E Pn      2011/11/26 04:21:53.6  -0.3                          T                                        4792436
ETSF  000.75 081.8 m E Sg      2011/11/26 04:22:01.9   0.0                          T                1.7  .21        Md 2.2  4792429
EPF   001.43 079.9 m E Pg      2011/11/26 04:22:04.1  -0.2                          T                                        4792432
EPF   001.43 079.9 m E Sg      2011/11/26 04:22:22.9   0.1                          T                2.9  .25 Ml 2.1         4792431

.
EVENT     266772
    Date      Time       Latitude Longitude    Depth    Ndef Nsta Gap    Mag1  N    Mag2  N    Mag3  N   Author         ID
       rms   OT_Error      Smajor Sminor Az        Err   mdist  Mdist     Err        Err        Err      Quality

2011/11/26 04:23:45.7     42.7977   -1.5848      2.0      19    3 098  Ml 1.6  1  Md 1.6  2              js067245    266792

      0.41   +-  0.17       2.8    2.5  118.74 +-  0.0    0.02   2.05   +-         +-0.1                 m i ke

PYRENEES
Sta     Dist  EvAz     Phase      Date       Time     TRes  Azim  AzRes  Slow  SRes Def   SNR       Amp   Per   Mag1   Mag2       ID
SJPF  000.41 039.8 m E Pg      2011/11/26 04:23:53.8   0.1                          T                                        4792443
SJPF  000.41 039.8 m E Sg      2011/11/26 04:23:59.0  -0.1                          T                1.7  .20        Md 1.7  4792442
ETSF  000.76 082.0 m E Pg      2011/11/26 04:24:00.2   0.0                          T                                        4792437
ETSF  000.76 082.0 m E Pn      2011/11/26 04:24:01.8  -0.2                          T                                        4792441
ETSF  000.76 082.0 m E Sg      2011/11/26 04:24:10.1   0.0                          T                 .7  .21        Md 1.6  4792438
EPF   001.43 080.0 m E Pg      2011/11/26 04:24:12.6   0.0                          T                                        4792440
EPF   001.43 080.0 m E Sn      2011/11/26 04:24:28.9  -0.5                          T                1.1  .26 Ml 1.6         4792439

.
EVENT     266773
    Date      Time       Latitude Longitude    Depth    Ndef Nsta Gap    Mag1  N    Mag2  N    Mag3  N   Author         ID
       rms   OT_Error      Smajor Sminor Az        Err   mdist  Mdist     Err        Err        Err      Quality

2011/11/26 04:26:43.6     42.7093   -1.6587      2.0      14    3 295  Ml 1.5  1  Md 1.6  2              js067245    266793

      0.34   +-  0.32       4.6    4.1   73.85 +-  0.0    0.09   1.50   +-         +-0.1                 m i ke

PYRENEES
Sta     Dist  EvAz     Phase      Date       Time     TRes  Azim  AzRes  Slow  SRes Def   SNR       Amp   Per   Mag1   Mag2       ID
SJPF  000.51 038.1 m E Pg      2011/11/26 04:26:53.5   0.1                          T                                        4792448
SJPF  000.51 038.1 m E Sg      2011/11/26 04:27:00.0  -0.2                          T                 .7  .21        Md 1.7  4792446
ETSF  000.83 076.5 m E Pg      2011/11/26 04:26:59.6   0.3                          T                                        4792447
ETSF  000.83 076.5 m E Sg      2011/11/26 04:27:09.7  -0.4                          T                 .5  .25        Md 1.5  4792875
EPF   001.50 077.0 m E Pn      2011/11/26 04:27:09.8  -0.1                          T                                        4792445
EPF   001.50 077.0 m E Sg      2011/11/26 04:27:31.3   0.2                          T                 .5  .19 Ml 1.5         4792444

.
EVENT     266774
    Date      Time       Latitude Longitude    Depth    Ndef Nsta Gap    Mag1  N    Mag2  N    Mag3  N   Author         ID
       rms   OT_Error      Smajor Sminor Az        Err   mdist  Mdist     Err        Err        Err      Quality

2011/11/26 04:34:36.6     42.7776   -1.5594      2.0       6    3 315  Ml 1.8  1  Md 1.6  2              js067245    266794

      0.24   +-  0.59      10.6    6.6   52.88 +-  0.0    0.42   1.42   +-         +-0.1                 m i ke

PYRENEES
Sta     Dist  EvAz     Phase      Date       Time     TRes  Azim  AzRes  Slow  SRes Def   SNR       Amp   Per   Mag1   Mag2       ID
SJPF  000.42 036.1 m E Pg      2011/11/26 04:34:44.5  -0.1                          T                                        4792453
SJPF  000.42 036.1 m E Sg      2011/11/26 04:34:50.4   0.3                          T                1.8  .24        Md 1.6  4792452
ETSF  000.75 080.3 m E Pg      2011/11/26 04:34:51.1   0.3                          T                                        4792450
ETSF  000.75 080.3 m E Sg      2011/11/26 04:35:00.4   0.0                          T                1.2  .24        Md 1.5  4792449
EPF   001.42 079.1 m E Pg      2011/11/26 04:35:02.9  -0.2                          T                                        4792451
EPF   001.42 079.1 m E Sg      2011/11/26 04:35:21.1  -0.3                          T                1.5  .24 Ml 1.8         4792876

.
EVENT     266775
    Date      Time       Latitude Longitude    Depth    Ndef Nsta Gap    Mag1  N    Mag2  N    Mag3  N   Author         ID
       rms   OT_Error      Smajor Sminor Az        Err   mdist  Mdist     Err        Err        Err      Quality

2011/11/26 04:34:56.3     42.7566   -1.5772      7.0       7    3 316  Ml 2.0  1  Md 1.8  2              js067245    266795

      0.06   +-  0.13       2.3    1.5   50.35 +-  0.7    0.44   1.44   +-         +-0.1                 m i ke

PYRENEES
Sta     Dist  EvAz     Phase      Date       Time     TRes  Azim  AzRes  Slow  SRes Def   SNR       Amp   Per   Mag1   Mag2       ID
SJPF  000.44 035.8 m E Pg      2011/11/26 04:35:04.8  -0.1                          T                                        4792459
SJPF  000.44 035.8 m E Sg      2011/11/26 04:35:10.8   0.1                          T                4.1  .22        Md 1.9  4792460
ETSF  000.76 078.9 m E Pg      2011/11/26 04:35:10.8   0.0                          T                                        4792456
ETSF  000.76 078.9 m E Sg      2011/11/26 04:35:20.8   0.0                          T                1.9  .23        Md 1.7  4792455
ETSF  000.76 078.9 m E Sn      2011/11/26 04:35:23.1   0.0                          T                                        4792454
EPF   001.44 078.4 m E Pg      2011/11/26 04:35:23.2   0.0                          T                                        4792458
EPF   001.44 078.4 m E Sg      2011/11/26 04:35:41.6  -0.1                          T                3.4  .34 Ml 2.0         4792457

.
EVENT     266776
    Date      Time       Latitude Longitude    Depth    Ndef Nsta Gap    Mag1  N    Mag2  N    Mag3  N   Author         ID
       rms   OT_Error      Smajor Sminor Az        Err   mdist  Mdist     Err        Err        Err      Quality

2011/11/26 04:43:13.7     42.8034   -1.5683      2.0      52   12 078  Ml 2.4  9  Md 2.5  2              js067245    266796

      0.46   +-  0.09       1.7    1.4   98.69 +-  0.0    0.03   5.58   +-0.3      +-0.1                 m i ke

PYRENEES
Sta     Dist  EvAz     Phase      Date       Time     TRes  Azim  AzRes  Slow  SRes Def   SNR       Amp   Per   Mag1   Mag2       ID
SJPF  000.40 039.0 m E Pg      2011/11/26 04:43:21.0  -0.4                          T                                        4792494
SJPF  000.40 039.0 m E Sg      2011/11/26 04:43:27.2   0.5                          T               26.7  .24        Md 2.5  4792485
ETSF  000.75 082.3 m E Pg      2011/11/26 04:43:27.7  -0.2                          T                                        4792493
ETSF  000.75 082.3 m E Sg      2011/11/26 04:43:38.1   0.4                          T                                        4792484
ETSF  000.75 082.3 m E Sn      2011/11/26 04:43:41.3   0.3                          T               11.9  .22        Md 2.4  4792483
EPF   001.42 080.2 m E Pg      2011/11/26 04:43:40.0  -0.2                          T                                        4792478
EPF   001.42 080.2 m E Sg      2011/11/26 04:43:59.0   0.4                          T               12.8  .20 Ml 2.8         4792934
LFF   002.71 037.2 m E Pn      2011/11/26 04:43:56.4   0.0                          T                                        4792491
LFF   002.71 037.2 m E Pg      2011/11/26 04:44:03.8  -0.1                          T                                        4792486
LFF   002.71 037.2 m E Sn      2011/11/26 04:44:27.9   0.1                          T                6.0  .45 Ml 2.3         4792932
MTLF  002.83 077.8 m E Pn      2011/11/26 04:43:57.9   0.0                          T                                        4792920
MTLF  002.83 077.8 m E P       2011/11/26 04:44:01.0   0.2                          T                                        4792921
MTLF  002.83 077.8 m E Sn      2011/11/26 04:44:30.6   0.0                          T                                        4792922
MTLF  002.83 077.8 m E Sg      2011/11/26 04:44:41.9  -0.5                          T                1.6  .25 Ml 2.2         4792923
RJF   003.35 040.6 m E Pn      2011/11/26 04:44:05.2   0.2                          T                                        4792490
RJF   003.35 040.6 m E Sn      2011/11/26 04:44:43.1   0.1                          T                1.4  .17 Ml 2.1         4792931
CAF   003.38 049.8 m E Pn      2011/11/26 04:44:05.7   0.2                          T                                        4792492
CAF   003.38 049.8 m E P       2011/11/26 04:44:08.7   0.0                          T                                        4792482
CAF   003.38 049.8 m E Sn      2011/11/26 04:44:43.8   0.0                          T                2.0  .24 Ml 2.4         4792933
TCF   004.41 036.5 m E Pn      2011/11/26 04:44:19.3  -0.2                          T                                        4792926
TCF   004.41 036.5 m E Sn      2011/11/26 04:45:08.6   0.2                          T                2.5  .30 Ml 2.7         4792927
BGF   004.90 038.5 m E Pn      2011/11/26 04:44:26.4   0.2                          T                                        4792488
BGF   004.90 038.5 m E Sn      2011/11/26 04:45:20.0  -0.1                          T                3.9  .29 Ml 3.0         4792928
AVF   005.31 039.6 m E Pn      2011/11/26 04:44:31.9   0.2                          T                                        4792489
SSF   005.58 038.5 m E Pn      2011/11/26 04:44:35.5   0.1                          T                                        4792925
MFF   003.93 014.5 m E Sn      2011/11/26 04:44:56.6  -0.4                          T                 .4  .21 Ml 2.0         4792930

.
