EVENT     292079
    Date      Time       Latitude Longitude    Depth    Ndef Nsta Gap    Mag1  N    Mag2  N    Mag3  N   Author         ID
       rms   OT_Error      Smajor Sminor Az        Err   mdist  Mdist     Err        Err        Err      Quality

2013/02/14 01:04:40.8     43.1368   11.0691     10.0      30    9 102  Ml 2.3  5                         bulletin    292179
                                                                                                         _ldg
      0.45   +-  0.09       2.4    2.0   76.33 +-  0.0    0.12   4.14   +-0.2                            m i ke

CENTRAL ITALY
Sta     Dist  EvAz     Phase      Date       Time     TRes  Azim  AzRes  Slow  SRes Def   SNR       Amp   Per   Mag1   Mag2       ID
PGF   001.63 249.6 m E Pn      2013/02/14 01:05:08.5   0.5                          T                                        5196658
PGF   001.63 249.6 m E Sn      2013/02/14 01:05:28.4   0.5                          T                5.2  .25 Ml 2.7         5196654
SBF   002.74 286.6 m E Pn      2013/02/14 01:05:23.5   0.3                          T                                        5196657
SBF   002.74 286.6 m E Sn      2013/02/14 01:05:53.7  -0.7                          T                3.4  .35 Ml 2.4         5196653
FRF   003.25 279.0 m E Pn      2013/02/14 01:05:30.3   0.2                          T                                        5196655
FRF   003.25 279.0 m E Sn      2013/02/14 01:06:06.8   0.3                          T                1.7  .36 Ml 2.2         5196651
LMR   003.34 274.9 m E Pn      2013/02/14 01:05:31.3   0.2                          T                                        5196656
LMR   003.34 274.9 m E Sn      2013/02/14 01:06:08.3  -0.2                          T                1.2  .25 Ml 2.2         5196652
MBDF  003.49 298.6 m E Pn      2013/02/14 01:05:34.8   1.4                          T                                        5196680
LPG   003.89 308.8 m E P       2013/02/14 01:05:42.6   0.0                          T                                        5201080
SMRF  004.08 283.7 m E Pn      2013/02/14 01:05:43.0   1.7                          T                                        5196677
SMRF  004.08 283.7 m E Sn      2013/02/14 01:06:28.4   2.1                          T                1.1  .28 Ml 2.3         5196676
LPL   003.92 308.9 m E P       2013/02/14 01:05:43.2   0.3                          T                                        5196679
ORIF  004.14 297.2 m E P       2013/02/14 01:05:45.8  -0.2                          T                                        5196678

.
EVENT     292085
    Date      Time       Latitude Longitude    Depth    Ndef Nsta Gap    Mag1  N    Mag2  N    Mag3  N   Author         ID
       rms   OT_Error      Smajor Sminor Az        Err   mdist  Mdist     Err        Err        Err      Quality

2013/02/14 03:40:34.1     42.4800   -6.9785     10.0 f    76    8 059  Ml 2.7 10                         bulletin    292185
                                                                                                         _ldg
      0.75   +-  0.08       1.7    1.5  149.47 +-  0.0    0.57   7.78   +-0.3                            m i ke

SPAIN
Sta     Dist  EvAz     Phase      Date       Time     TRes  Azim  AzRes  Slow  SRes Def   SNR       Amp   Per   Mag1   Mag2       ID
SJPF  004.28 079.6 m E Pn      2013/02/14 03:41:37.4   0.0                          T                                        5201093
SJPF  004.28 079.6 m E Sn      2013/02/14 03:42:24.8   0.5                          T                  1  .21 Ml 2.4         5201085
SJPF  004.28 079.6 m E Sg      2013/02/14 03:42:48.5   0.2                          T                1.6  .20 Ml 2.6         5201088
ETSF  004.75 082.8 m E Pn      2013/02/14 03:41:44.0   0.2                          T                                        5201092
ETSF  004.75 082.8 m E Sn      2013/02/14 03:42:35.3  -0.4                          T                 .6  .18 Ml 2.3         5201086
ETSF  004.75 082.8 m E Sg      2013/02/14 03:43:02.9  -0.2                          T                1.9  .26 Ml 2.7         5201090
EPF   005.42 081.7 m E Pn      2013/02/14 03:41:53.1   0.2                          T                                        5201091
EPF   005.42 081.7 m E Sn      2013/02/14 03:42:51.5   0.0                          T                  1  .24 Ml 2.6         5201087
EPF   005.42 081.7 m E Sg      2013/02/14 03:43:23.6  -0.2                          T                1.2  .25 Ml 2.6         5201089
QUIF  006.07 025.0 m E Pn      2013/02/14 03:42:00.0  -1.6                          T                                        5201097
QUIF  006.07 025.0 m E Sn      2013/02/14 03:43:04.2  -2.8                          T                3.2  .23 Ml 3.3         5201081
MFF   006.39 047.5 m E Pn      2013/02/14 03:42:05.5  -0.5                          T                                        5201094
MFF   006.39 047.5 m E Sn      2013/02/14 03:43:13.3  -1.4                          T                 .4  .20 Ml 2.6         5201084
SGMF  006.56 026.8 m E Pn      2013/02/14 03:42:08.2  -0.1                          T                                        5201096
SGMF  006.56 026.8 m E Sn      2013/02/14 03:43:17.2  -1.6                          T                  1  .26 Ml 2.8         5201082
LDF   007.78 035.8 m E Pn      2013/02/14 03:42:24.8  -0.2                          T                                        5201095
ROSF  006.41 022.7 m E Sn      2013/02/14 03:43:13.0  -2.2                          T                2.7  .30 Ml 3.1         5201083

.
EVENT     292080
    Date      Time       Latitude Longitude    Depth    Ndef Nsta Gap    Mag1  N    Mag2  N    Mag3  N   Author         ID
       rms   OT_Error      Smajor Sminor Az        Err   mdist  Mdist     Err        Err        Err      Quality

2013/02/14 03:47:18.7     42.8113    -.8955     15.0       5    3 245  Ml 1.1  1  Md 1.4  2              bulletin    292180
                                                                                                         _ldg
      0.06   +-  0.16       5.2     .9   15.08 +-  0.0    0.26   0.93   +-         +-0.1                 m i ke

PYRENEES
Sta     Dist  EvAz     Phase      Date       Time     TRes  Azim  AzRes  Slow  SRes Def   SNR       Amp   Per   Mag1   Mag2       ID
ETSF  000.26 070.5 m E Pg      2013/02/14 03:47:24.6   0.0                          T                                        5196684
ETSF  000.26 070.5 m E Sg      2013/02/14 03:47:28.5   0.0                          T                6.9  .18        Md 1.5  5196681
SJPF  000.39 321.4 m E Pg      2013/02/14 03:47:26.5   0.0                          T                                        5196683
SJPF  000.39 321.4 m E Sg      2013/02/14 03:47:32.1   0.1                          T                5.4  .27        Md 1.3  5196682
EPF   000.93 076.0 m E Sg      2013/02/14 03:47:48.6  -0.1                          T                 .6  .31 Ml 1.1         5201098

.
EVENT     292081
    Date      Time       Latitude Longitude    Depth    Ndef Nsta Gap    Mag1  N    Mag2  N    Mag3  N   Author         ID
       rms   OT_Error      Smajor Sminor Az        Err   mdist  Mdist     Err        Err        Err      Quality

2013/02/14 06:19:10.4     42.7388   -1.7299      2.0 f    21    3 104  Ml 2.0  2  Md 2.1  2              bulletin    292181
                                                                                                         _ldg
      0.70   +-  0.18       3.1    2.7  147.06 +-  0.0    0.12   2.55   +-0.2      +-0.1                 m i ke

PYRENEES
Sta     Dist  EvAz     Phase      Date       Time     TRes  Azim  AzRes  Slow  SRes Def   SNR       Amp   Per   Mag1   Mag2       ID
SJPF  000.53 044.6 m E Pg      2013/02/14 06:19:19.8  -0.6                          T                                        5196690
SJPF  000.53 044.6 m E Sg      2013/02/14 06:19:26.2  -1.1                          T               11.9  .29        Md 2.1  5196687
ETSF  000.88 079.1 m E Pg      2013/02/14 06:19:26.8  -0.1                          T                                        5196689
ETSF  000.88 079.1 m E Sg      2013/02/14 06:19:39.3   1.0                          T                2.5  .21 Ml 1.8 Md 2.0  5196686
EPF   001.55 078.5 m E Pg      2013/02/14 06:19:39.6   0.3                          T                                        5201343
EPF   001.55 078.5 m E Sg      2013/02/14 06:20:00.3   1.0                          T                2.4  .24 Ml 2.1         5196685

.
EVENT     292082
    Date      Time       Latitude Longitude    Depth    Ndef Nsta Gap    Mag1  N    Mag2  N    Mag3  N   Author         ID
       rms   OT_Error      Smajor Sminor Az        Err   mdist  Mdist     Err        Err        Err      Quality

2013/02/14 06:38:34.1     42.7333   -1.7248      2.0      22    3 104  Ml 2.2  2  Md 2.0  2              bulletin    292182
                                                                                                         _ldg
      0.70   +-  0.18       3.0    2.7  137.96 +-  0.0    0.11   2.55   +-0.3      +-0.1                 m i ke

PYRENEES
Sta     Dist  EvAz     Phase      Date       Time     TRes  Azim  AzRes  Slow  SRes Def   SNR       Amp   Per   Mag1   Mag2       ID
SJPF  000.53 043.9 m E Pg      2013/02/14 06:38:43.7  -0.4                          T                                        5196696
SJPF  000.53 043.9 m E Sg      2013/02/14 06:38:50.2  -0.9                          T               21.5  .38        Md 2.1  5196695
ETSF  000.87 078.7 m E Pg      2013/02/14 06:38:50.8   0.2                          T                                        5196691
ETSF  000.87 078.7 m E Sg      2013/02/14 06:39:03.2   1.3                          T                5.0  .28 Ml 2.0 Md 1.9  5196694
EPF   001.55 078.2 m E Pg      2013/02/14 06:39:03.2   0.2                          T                                        5201344
EPF   001.55 078.2 m E Sg      2013/02/14 06:39:24.6   1.7                          T                7.0  .29 Ml 2.4         5196693

.
EVENT     292083
    Date      Time       Latitude Longitude    Depth    Ndef Nsta Gap    Mag1  N    Mag2  N    Mag3  N   Author         ID
       rms   OT_Error      Smajor Sminor Az        Err   mdist  Mdist     Err        Err        Err      Quality

2013/02/14 07:04:39.8     42.7490   -1.7717      2.0      23    3 105  Ml 2.2  2  Md 1.8  2              bulletin    292183
                                                                                                         _ldg
      0.69   +-  0.20       3.4    2.8  120.59 +-  0.0    0.14   2.57   +-0.2      +-0.1                 m i ke

PYRENEES
Sta     Dist  EvAz     Phase      Date       Time     TRes  Azim  AzRes  Slow  SRes Def   SNR       Amp   Per   Mag1   Mag2       ID
SJPF  000.54 047.6 m E Pg      2013/02/14 07:04:49.8  -0.4                          T                                        5197052
SJPF  000.54 047.6 m E Sg      2013/02/14 07:04:57.8   0.5                          T               20.4  .33        Md 1.9  5197051
ETSF  000.90 080.1 m E Pg      2013/02/14 07:04:56.3  -0.6                          T                                        5197067
ETSF  000.90 080.1 m E Sg      2013/02/14 07:05:09.6   0.9                          T                6.0  .33 Ml 2.0 Md 1.7  5197066
EPF   001.58 079.0 m E Pg      2013/02/14 07:05:09.4   0.1                          T                                        5201345
EPF   001.58 079.0 m E Sg      2013/02/14 07:05:31.3   1.7                          T                4.5  .27 Ml 2.3         5197049

.
EVENT     292100
    Date      Time       Latitude Longitude    Depth    Ndef Nsta Gap    Mag1  N    Mag2  N    Mag3  N   Author         ID
       rms   OT_Error      Smajor Sminor Az        Err   mdist  Mdist     Err        Err        Err      Quality

2013/02/14 07:55:52.9     42.7394   -1.7244      2.0      20    3 104  Ml 2.1  2  Md 1.9  2              bulletin    292200
                                                                                                         _ldg
      0.53   +-  0.14       2.5    2.1  157.21 +-  0.0    0.11   2.55   +-0.1      +-0.0                 m i ke

PYRENEES
Sta     Dist  EvAz     Phase      Date       Time     TRes  Azim  AzRes  Slow  SRes Def   SNR       Amp   Per   Mag1   Mag2       ID
SJPF  000.52 044.3 m E Pg      2013/02/14 07:56:02.7  -0.2                          T                                        5201350
SJPF  000.52 044.3 m E Sg      2013/02/14 07:56:10.1   0.3                          T               15.6  .32        Md 1.9  5201351
ETSF  000.87 079.1 m E Pg      2013/02/14 07:56:09.3  -0.1                          T                                        5201348
ETSF  000.87 079.1 m E Sg      2013/02/14 07:56:21.0   0.2                          T                4.3  .26 Ml 2.0 Md 1.9  5201349
EPF   001.54 078.5 m E Pg      2013/02/14 07:56:21.7  -0.1                          T                                        5201346
EPF   001.54 078.5 m E Sg      2013/02/14 07:56:41.7   0.0                          T                3.4  .29 Ml 2.1         5201347

.
EVENT     292383
    Date      Time       Latitude Longitude    Depth    Ndef Nsta Gap    Mag1  N    Mag2  N    Mag3  N   Author         ID
       rms   OT_Error      Smajor Sminor Az        Err   mdist  Mdist     Err        Err        Err      Quality

2013/02/14 08:20:44.2     42.4352    1.4270      2.0      24    3 058  Ml 1.9  4  Md 1.9  1              bulletin    292483
                                                                                                         _ldg
      0.48   +-  0.07       1.4    1.1    5.06 +-  0.0    0.21   1.54   +-0.1      +-                    m i ke

PYRENEES
Sta     Dist  EvAz     Phase      Date       Time     TRes  Azim  AzRes  Slow  SRes Def   SNR       Amp   Per   Mag1   Mag2       ID
EPF   001.00 307.0 m E Pg      2013/02/14 08:21:02.9   0.0                          T                                        5202253
EPF   001.00 307.0 m E Sg      2013/02/14 08:21:15.8  -0.1                          T                2.2  .26 Ml 1.7 Md 1.9  5202256
MTLF  001.08 032.4 m E Pg      2013/02/14 08:21:04.4   0.0                          T                                        5202252
MTLF  001.08 032.4 m E Sg      2013/02/14 08:21:18.0  -0.3                          T                2.9  .26 Ml 1.9         5202254
ETSF  001.54 288.2 m E Pg      2013/02/14 08:21:12.9  -0.1                          T                                        5202251
ETSF  001.54 288.2 m E Sg      2013/02/14 08:21:32.6  -0.2                          T                3.8  .37 Ml 2.1         5202255

.
EVENT     292090
    Date      Time       Latitude Longitude    Depth    Ndef Nsta Gap    Mag1  N    Mag2  N    Mag3  N   Author         ID
       rms   OT_Error      Smajor Sminor Az        Err   mdist  Mdist     Err        Err        Err      Quality

2013/02/14 08:51:22.4     43.1965    5.9949       .0 f    16    6 158  Ml 2.5  2  Md 2.4  2              bulletin    292190
                                                                                                         _ldg
      0.58   +-  0.25       5.5    3.5   36.41 +-  0.0    0.40   3.30   +-0.0      +-0.0                 m i km

NEAR SOUTH COAST OF FRANCE
Sta     Dist  EvAz     Phase      Date       Time     TRes  Azim  AzRes  Slow  SRes Def   SNR       Amp   Per   Mag1   Mag2       ID
LMR   000.40 069.7 m E Pg      2013/02/14 08:51:30.2  -0.1                          T                                        5197143
LMR   000.40 069.7 m E Sg      2013/02/14 08:51:36.5   0.6                          T                5.0  .21        Md 2.4  5197498
FRF   000.60 052.3 m E Pg      2013/02/14 08:51:34.7   0.7                          T                                        5197141
FRF   000.60 052.3 m E Sg      2013/02/14 08:51:41.0  -1.1                          T                4.2  .24        Md 2.4  5197499
SMRF  000.84 338.8 m E Pg      2013/02/14 08:51:39.0   0.6                          T                                        5197142
SMRF  000.84 338.8 m E Sg      2013/02/14 08:51:48.8  -0.7                          T                4.7  .27                5197500
SBF   001.24 057.0 m E Pn      2013/02/14 08:51:46.3   0.7                          T                                        5197140
SBF   001.24 057.0 m E Sg      2013/02/14 08:52:01.1  -1.1                          T               14.1  .41 Ml 2.5         5197497
PGF   002.30 105.3 m E Pn      2013/02/14 08:51:59.4  -0.6                          T                                        5197139
PGF   002.30 105.3 m E Sn      2013/02/14 08:52:27.6   0.0                          T                2.4  .25 Ml 2.5         5197145
LPG   002.36 013.0 m E Pn      2013/02/14 08:52:00.2  -0.9                          T                                        5197496

.
