EVENT     292816
    Date      Time       Latitude Longitude    Depth    Ndef Nsta Gap    Mag1  N    Mag2  N    Mag3  N   Author         ID
       rms   OT_Error      Smajor Sminor Az        Err   mdist  Mdist     Err        Err        Err      Quality

2013/02/28 01:06:39.6     42.7420   -1.7541      2.0      18    3 155  Ml 1.6  2  Md 1.7  2              bulletin    292916
                                                                                                         _ldg
      0.24   +-  0.10       1.7    1.3   17.53 +-  0.0    0.13   1.57   +-0.1      +-0.2                 m i ke

PYRENEES
Sta     Dist  EvAz     Phase      Date       Time     TRes  Azim  AzRes  Slow  SRes Def   SNR       Amp   Per   Mag1   Mag2       ID
SJPF  000.54 046.1 m E Pg      2013/02/28 01:06:49.8   0.0                          T                                        5212311
SJPF  000.54 046.1 m E Sg      2013/02/28 01:06:56.9  -0.1                          T                2.3  .23        Md 1.8  5212309
ETSF  000.89 079.5 m E Pg      2013/02/28 01:06:56.7   0.2                          T                                        5212310
ETSF  000.89 079.5 m E Sg      2013/02/28 01:07:08.2   0.1                          T                1.5  .24 Ml 1.6 Md 1.5  5212308
EPF   001.57 078.7 m E Pg      2013/02/28 01:07:08.5  -0.3                          T                                        5213443
EPF   001.57 078.7 m E Sg      2013/02/28 01:07:29.1   0.0                          T                 .7  .18 Ml 1.7         5212306

.
EVENT     292818
    Date      Time       Latitude Longitude    Depth    Ndef Nsta Gap    Mag1  N    Mag2  N    Mag3  N   Author         ID
       rms   OT_Error      Smajor Sminor Az        Err   mdist  Mdist     Err        Err        Err      Quality

2013/02/28 01:11:51.1     42.7107   -1.8098      2.0      18    3 159  Ml 1.2  2  Md 1.5  2              bulletin    292918
                                                                                                         _ldg
      0.48   +-  0.19       4.3    2.2    5.35 +-  0.0    0.18   1.61   +-0.1      +-0.1                 m i ke

PYRENEES
Sta     Dist  EvAz     Phase      Date       Time     TRes  Azim  AzRes  Slow  SRes Def   SNR       Amp   Per   Mag1   Mag2       ID
SJPF  000.59 046.7 m E Pg      2013/02/28 01:12:02.1  -0.2                          T                                        5212316
SJPF  000.59 046.7 m E Sg      2013/02/28 01:12:09.2  -0.8                          T                1.2  .23        Md 1.5  5212314
ETSF  000.94 078.0 m E Pg      2013/02/28 01:12:08.9   0.1                          T                                        5212315
ETSF  000.94 078.0 m E Sg      2013/02/28 01:12:20.2  -0.8                          T                 .5  .21 Ml 1.1 Md 1.5  5212313
EPF   001.61 077.8 m E Sg      2013/02/28 01:12:41.2  -0.8                          T                 .3  .18 Ml 1.3         5213444

.
EVENT     292824
    Date      Time       Latitude Longitude    Depth    Ndef Nsta Gap    Mag1  N    Mag2  N    Mag3  N   Author         ID
       rms   OT_Error      Smajor Sminor Az        Err   mdist  Mdist     Err        Err        Err      Quality

2013/02/28 01:19:01.9     42.7407   -1.7032      2.0      19    3 154  Ml 1.5  2  Md 1.4  2              bulletin    292924
                                                                                                         _ldg
      0.37   +-  0.15       3.2    1.8    9.93 +-  0.0    0.10   1.53   +-0.1      +-0.0                 m i ke

PYRENEES
Sta     Dist  EvAz     Phase      Date       Time     TRes  Azim  AzRes  Slow  SRes Def   SNR       Amp   Per   Mag1   Mag2       ID
SJPF  000.51 043.2 m E Pg      2013/02/28 01:19:11.8   0.2                          T                                        5212322
SJPF  000.51 043.2 m E Sg      2013/02/28 01:19:18.9   0.5                          T                2.6  .26        Md 1.4  5212320
ETSF  000.86 079.0 m E Pg      2013/02/28 01:19:18.5   0.4                          T                                        5212321
ETSF  000.86 079.0 m E Sg      2013/02/28 01:19:29.8   0.6                          T                  1  .23 Ml 1.4 Md 1.4  5212319
EPF   001.53 078.4 m E Pg      2013/02/28 01:19:30.3  -0.1                          T                                        5213445
EPF   001.53 078.4 m E Sg      2013/02/28 01:19:50.9   0.7                          T                 .9  .29 Ml 1.5         5212317

.
EVENT     292817
    Date      Time       Latitude Longitude    Depth    Ndef Nsta Gap    Mag1  N    Mag2  N    Mag3  N   Author         ID
       rms   OT_Error      Smajor Sminor Az        Err   mdist  Mdist     Err        Err        Err      Quality

2013/02/28 01:59:11.9     42.6071    1.2751      8.0 f    42    5 063  Ml 1.7  4  Md 1.9  1              bulletin    292917
                                                                                                         _ldg
      0.40   +-  0.05       1.2     .9   11.89 +-  0.0    0.02   2.39   +-0.2      +-                    m i ke

PYRENEES
Sta     Dist  EvAz     Phase      Date       Time     TRes  Azim  AzRes  Slow  SRes Def   SNR       Amp   Per   Mag1   Mag2       ID
EPF   000.81 301.9 m E Pg      2013/02/28 01:59:26.7  -0.5                          T                                        5212336
EPF   000.81 301.9 m E Sg      2013/02/28 01:59:37.0  -0.7                          T                2.8  .22        Md 1.9  5212334
MTLF  001.01 043.0 m E Pg      2013/02/28 01:59:30.4  -0.4                          T                                        5212335
MTLF  001.01 043.0 m E Sg      2013/02/28 01:59:43.2  -0.8                          T                2.3  .22 Ml 1.8         5212333
ETSF  001.38 282.8 m E Pn      2013/02/28 01:59:36.4   0.4                          T                                        5212332
ETSF  001.38 282.8 m E Sn      2013/02/28 01:59:53.9   0.6                          T                2.6  .24 Ml 2.0         5212331
SJPF  001.91 286.2 m E Pn      2013/02/28 01:59:43.6   0.6                          T                                        5212328
SJPF  001.91 286.2 m E Sn      2013/02/28 02:00:06.1   0.3                          T                 .5  .22 Ml 1.5         5212327
LASF  002.39 051.2 m E Pn      2013/02/28 01:59:50.0   0.4                          T                                        5212329
LASF  002.39 051.2 m E Sn      2013/02/28 02:00:18.0   0.7                          T                 .4  .21 Ml 1.6         5212330

.
EVENT     292819
    Date      Time       Latitude Longitude    Depth    Ndef Nsta Gap    Mag1  N    Mag2  N    Mag3  N   Author         ID
       rms   OT_Error      Smajor Sminor Az        Err   mdist  Mdist     Err        Err        Err      Quality

2013/02/28 02:01:53.5     42.8104   -1.2594      2.0      14    3 181  Ml 0.9  1  Md 1.2  2              bulletin    292919
                                                                                                         _ldg
      0.25   +-  0.10       2.3    1.3    4.49 +-  0.0    0.04   1.20   +-         +-0.1                 m i ke

PYRENEES
Sta     Dist  EvAz     Phase      Date       Time     TRes  Azim  AzRes  Slow  SRes Def   SNR       Amp   Per   Mag1   Mag2       ID
SJPF  000.30 004.8 m E Pg      2013/02/28 02:01:59.6   0.2                          T                                        5212344
SJPF  000.30 004.8 m E Sg      2013/02/28 02:02:03.4  -0.2                          T                1.3  .17        Md 1.3  5212343
ETSF  000.52 080.0 m E Pg      2013/02/28 02:02:03.6   0.1                          T                                        5212341
ETSF  000.52 080.0 m E Sg      2013/02/28 02:02:10.7   0.2                          T                 .5  .21        Md 1.2  5212342
EPF   001.20 078.9 m E Pg      2013/02/28 02:02:15.8  -0.1                          T                                        5213446
EPF   001.20 078.9 m E Sg      2013/02/28 02:02:31.4   0.0                          T                 .2  .17 Ml  .9         5212339

.
