EVENT     276192
    Date      Time       Latitude Longitude    Depth    Ndef Nsta Gap    Mag1  N    Mag2  N    Mag3  N   Author         ID
       rms   OT_Error      Smajor Sminor Az        Err   mdist  Mdist     Err        Err        Err      Quality

2012/05/17 11:29:37.5     41.7227     .9920       .0 f    14    4 282  Ml 1.7  3                         bulletin    276292
                                                                                                         _ldg
      0.93   +-  0.87      15.8    7.4  176.31 +-  0.0    1.39   2.15   +-0.2                            m i km

SPAIN
Sta     Dist  EvAz     Phase      Date       Time     TRes  Azim  AzRes  Slow  SRes Def   SNR       Amp   Per   Mag1   Mag2       ID
EPF   001.39 339.9 m E Pn      2012/05/17 11:30:00.9  -1.8                          T                                        4948109
EPF   001.39 339.9 m E Sn      2012/05/17 11:30:21.8   0.9                          T                                        4948105
ETSF  001.64 316.1 m E Pn      2012/05/17 11:30:05.1  -1.1                          T                                        4948108
ETSF  001.64 316.1 m E Sn      2012/05/17 11:30:25.7  -1.3                          T                                        4948103
ETSF  001.64 316.1 m E Sg      2012/05/17 11:30:30.9   1.0                          T                                        4963484
MTLF  001.85 028.8 m E Pn      2012/05/17 11:30:09.5   0.5                          T                                        4948107
MTLF  001.85 028.8 m E Sn      2012/05/17 11:30:31.3  -0.6                          T                 .3  .16 Ml 1.5         4948110
MTLF  001.85 028.8 m E Sg      2012/05/17 11:30:35.5  -0.8                          T                 .8  .17 Ml 1.9         4948104
SJPF  002.15 311.0 m E Pn      2012/05/17 11:30:17.0   4.0                          T                                        4948106
SJPF  002.15 311.0 m E Sn      2012/05/17 11:30:41.0   2.1                          T                 .5  .17 Ml 1.7         4948112
SJPF  002.15 311.0 m E Sg      2012/05/17 11:30:45.2  -0.4                          T                                        4963483

.
EVENT     276193
    Date      Time       Latitude Longitude    Depth    Ndef Nsta Gap    Mag1  N    Mag2  N    Mag3  N   Author         ID
       rms   OT_Error      Smajor Sminor Az        Err   mdist  Mdist     Err        Err        Err      Quality

2012/05/17 11:43:36.6     42.3116    2.5235       .0 f    14    5 257  Ml 1.8  2                         bulletin    276293
                                                                                                         _ldg
      0.37   +-  0.29       6.5    2.7  160.63 +-  0.0    1.05   2.88   +-0.1                            m i km

PYRENEES
Sta     Dist  EvAz     Phase      Date       Time     TRes  Azim  AzRes  Slow  SRes Def   SNR       Amp   Per   Mag1   Mag2       ID
MTLF  001.05 347.8 m E Pn      2012/05/17 11:43:57.0  -0.1                          T                                        4948129
MTLF  001.05 347.8 m E Sn      2012/05/17 11:44:11.9   0.1                          T                                        4948123
EPF   001.76 294.8 m E Pn      2012/05/17 11:44:07.7   0.8                          T                                        4948128
EPF   001.76 294.8 m E Sg      2012/05/17 11:44:32.5  -0.1                          T                                        4948122
LASF  002.02 028.5 m E Pn      2012/05/17 11:44:09.8  -0.4                          T                                        4948120
LASF  002.02 028.5 m E Sn      2012/05/17 11:44:35.6   0.8                          T                 .6  .20 Ml 1.7         4948118
LASF  002.02 028.5 m E Sg      2012/05/17 11:44:42.4   2.0                          T                                        4948119
ETSF  002.35 285.5 m E Pn      2012/05/17 11:44:14.8   0.0                          T                                        4948126
ETSF  002.35 285.5 m E Pg      2012/05/17 11:44:20.9   0.3                          T                                        4948116
ETSF  002.35 285.5 m E Sg      2012/05/17 11:44:50.9  -0.1                          T                 .9  .20 Ml 1.9         4948121
SJPF  002.88 287.4 m E Pn      2012/05/17 11:44:22.1   0.2                          T                                        4948127
SJPF  002.88 287.4 m E Sg      2012/05/17 11:45:06.4  -1.0                          T                                        4948117

.
EVENT     276625
    Date      Time       Latitude Longitude    Depth    Ndef Nsta Gap    Mag1  N    Mag2  N    Mag3  N   Author         ID
       rms   OT_Error      Smajor Sminor Az        Err   mdist  Mdist     Err        Err        Err      Quality

2012/05/17 14:16:26.7     44.5202    6.4042     19.9      16    8 079  Ml 1.6  5  Md 1.8  1              js067245    276725

      0.25   +-  0.08       1.7    1.3   81.05 +-  1.1    0.33   1.28   +-0.2      +-                    m i ke

FRANCE
Sta     Dist  EvAz     Phase      Date       Time     TRes  Azim  AzRes  Slow  SRes Def   SNR       Amp   Per   Mag1   Mag2       ID
MBDF  000.33 051.6 m E Pg      2012/05/17 14:16:33.9  -0.3                          T                                        4958855
MBDF  000.33 051.6 m E Sg      2012/05/17 14:16:39.7   0.4                          T                3.4  .27        Md 1.8  4958854
ORIF  000.55 317.0 m E Pg      2012/05/17 14:16:37.7   0.0                          T                                        4958844
ORIF  000.55 317.0 m E Sg      2012/05/17 14:16:45.2  -0.1                          T                 .8  .23                4958843
SMRF  000.81 227.9 m E Pg      2012/05/17 14:16:42.5   0.2                          T                                        4958849
SMRF  000.81 227.9 m E Sg      2012/05/17 14:16:52.6  -0.5                          T                2.5  .38                4958848
SBF   000.99 131.2 m E Pn      2012/05/17 14:16:43.8  -0.3                          T                                        4981128
SBF   000.99 131.2 m E Sn      2012/05/17 14:16:57.3   0.6                          T                2.6  .21 Ml 1.9         4958845
FRF   000.98 169.6 m E Pg      2012/05/17 14:16:45.3   0.0                          T                                        4958852
FRF   000.98 169.6 m E Sg      2012/05/17 14:16:58.3   0.1                          T                2.1  .28 Ml 1.7         4958847
LMR   001.19 176.3 m E Pg      2012/05/17 14:16:49.3   0.2                          T                                        4958851
LMR   001.19 176.3 m E Sg      2012/05/17 14:17:04.5  -0.2                          T                1.1  .26 Ml 1.5         4963590
LPL   001.02 013.0 m E Sg      2012/05/17 14:17:00.3   0.3                          T                 .7  .18 Ml 1.4         4981129
VIVF  001.28 285.8 m E Sg      2012/05/17 14:17:07.7   0.1                          T                 .7  .21 Ml 1.4         4958853

.
EVENT     276768
    Date      Time       Latitude Longitude    Depth    Ndef Nsta Gap    Mag1  N    Mag2  N    Mag3  N   Author         ID
       rms   OT_Error      Smajor Sminor Az        Err   mdist  Mdist     Err        Err        Err      Quality

2012/05/17 18:06:10.1     44.6072   10.1290     10.0      18    3 226  Ml 2.2  3                         bulletin    276868
                                                                                                         _ldg
      0.51   +-  0.31       5.7    2.8   37.34 +-  0.0    0.12   2.91   +-0.0                            m i ke

NORTHERN ITALY
Sta     Dist  EvAz     Phase      Date       Time     TRes  Azim  AzRes  Slow  SRes Def   SNR       Amp   Per   Mag1   Mag2       ID
SBF   002.07 249.9 m E Pn      2012/05/17 18:06:44.3   1.0                          T                                        4963598
SBF   002.07 249.9 m E Sn      2012/05/17 18:07:08.1   0.5                          T                3.6  .35 Ml 2.2         4963597
FRF   002.72 248.6 m E Pn      2012/05/17 18:06:52.6   0.6                          T                                        4963599
FRF   002.72 248.6 m E Sn      2012/05/17 18:07:22.9  -0.1                          T                1.6  .25 Ml 2.2         4963600
LMR   002.91 245.3 m E Pn      2012/05/17 18:06:54.7   0.1                          T                                        4963602
LMR   002.91 245.3 m E Sn      2012/05/17 18:07:27.3  -0.2                          T                1.6  .26 Ml 2.2         4963601

.
EVENT     276794
    Date      Time       Latitude Longitude    Depth    Ndef Nsta Gap    Mag1  N    Mag2  N    Mag3  N   Author         ID
       rms   OT_Error      Smajor Sminor Az        Err   mdist  Mdist     Err        Err        Err      Quality

2012/05/17 20:14:27.5     42.7979   -1.3908     10.0      16    3 179  Ml 1.1  1  Md 1.2  2              bulletin    276894
                                                                                                         _ldg
      0.38   +-  0.13       3.1    2.1  174.54 +-  0.0    0.03   1.29   +-         +-0.1                 m i ke

PYRENEES
Sta     Dist  EvAz     Phase      Date       Time     TRes  Azim  AzRes  Slow  SRes Def   SNR       Amp   Per   Mag1   Mag2       ID
SJPF  000.34 021.1 m E Pg      2012/05/17 20:14:34.6   0.4                          T                                        4971267
SJPF  000.34 021.1 m E Sg      2012/05/17 20:14:38.1  -0.7                          T                2.9  .24        Md 1.3  4971266
ETSF  000.62 080.4 m E Pg      2012/05/17 20:14:39.6   0.2                          T                                        4971265
ETSF  000.62 080.4 m E Sg      2012/05/17 20:14:48.3   0.7                          T                1.4  .35        Md 1.1  4971264
EPF   001.29 079.1 m E Pg      2012/05/17 20:14:51.8   0.1                          T                                        4981130
EPF   001.29 079.1 m E Sg      2012/05/17 20:15:08.6   0.1                          T                 .3  .19 Ml 1.1         4981131

.
EVENT     276626
    Date      Time       Latitude Longitude    Depth    Ndef Nsta Gap    Mag1  N    Mag2  N    Mag3  N   Author         ID
       rms   OT_Error      Smajor Sminor Az        Err   mdist  Mdist     Err        Err        Err      Quality

2012/05/17 21:20:22.5     46.7508     .8163      4.0 f    28   13 093  Ml 1.8 13  Md 2.0  3              js067245    276726

      1.08   +-  0.13       2.7    2.0   11.57 +-  0.0    0.68   2.20   +-0.2      +-0.1                 m i ke

FRANCE
Sta     Dist  EvAz     Phase      Date       Time     TRes  Azim  AzRes  Slow  SRes Def   SNR       Amp   Per   Mag1   Mag2       ID
MFF   000.68 257.7 m E Pg      2012/05/17 21:20:35.5   0.2                          T                                        4958881
MFF   000.68 257.7 m E Sg      2012/05/17 21:20:43.2  -1.0                          T                6.6  .30        Md 1.9  4958880
TCF   001.07 115.2 m E Pg      2012/05/17 21:20:43.4   0.8                          T                                        4958869
TCF   001.07 115.2 m E Sg      2012/05/17 21:20:56.8   0.3                          T                1.1  .18 Ml 1.7         4958868
BGF   001.41 097.1 m E Pg      2012/05/17 21:20:48.3  -0.6                          T                                        4958877
BGF   001.41 097.1 m E Sg      2012/05/17 21:21:06.5  -0.6                          T                3.0  .27 Ml 2.0 Md 2.0  4958878
RJF   001.53 161.1 m E Pg      2012/05/17 21:20:50.7  -0.3                          T                                        4958875
RJF   001.53 161.1 m E Sg      2012/05/17 21:21:10.2  -0.6                          T                3.7  .20 Ml 2.0 Md 2.1  4958879
AVF   001.74 087.8 m E Pn      2012/05/17 21:20:51.8   0.0                          T                                        4958871
AVF   001.74 087.8 m E Sn      2012/05/17 21:21:13.0  -0.2                          T                                        4971318
AVF   001.74 087.8 m E Sg      2012/05/17 21:21:17.1  -0.3                          T                 .5  .17 Ml 1.6         4958872
SSF   001.87 079.5 m E Pg      2012/05/17 21:20:56.2  -1.1                          T                                        4958876
SSF   001.87 079.5 m E Sn      2012/05/17 21:21:16.2   0.0                          T                1.3  .25 Ml 2.0         4958870
SMF   002.08 091.8 m E P       2012/05/17 21:20:58.7  -0.1                          T                                        4958867
SMF   002.08 091.8 m E Sg      2012/05/17 21:21:27.8  -0.4                          T                 .4  .18 Ml 1.6         4958866
GRR   001.99 325.9 m E Pg      2012/05/17 21:20:59.6   0.1                          T                                        4981132
GRR   001.99 325.9 m E Sg      2012/05/17 21:21:24.9  -0.3                          T                 .9  .21 Ml 1.7         4971270
CAF   002.02 154.0 m E Pg      2012/05/17 21:21:01.0   0.8                          T                                        4971268
CAF   002.02 154.0 m E Sg      2012/05/17 21:21:25.4  -0.9                          T                1.3  .15 Ml 2.1         4971269
LOR   002.15 074.9 m E Pg      2012/05/17 21:21:02.6   0.2 257.9  0.7               T                                        4958862
LOR   002.15 074.9 m E Sg      2012/05/17 21:21:30.2   0.2 239.3  -17.8             T                 .9  .25 Ml 1.8         4958863
LFF   001.81 181.7 m E Sg      2012/05/17 21:21:19.3  -0.3                          T                2.5  .28 Ml 1.9         4981133
LDF   001.95 341.4 m E Sg      2012/05/17 21:21:24.1   0.2                          T                 .4  .14 Ml 1.6         4971272
FLN   002.20 337.0 m E Sg      2012/05/17 21:21:31.3  -0.3                          T                 .6  .20 Ml 1.6         4971271

.
EVENT     276795
    Date      Time       Latitude Longitude    Depth    Ndef Nsta Gap    Mag1  N    Mag2  N    Mag3  N   Author         ID
       rms   OT_Error      Smajor Sminor Az        Err   mdist  Mdist     Err        Err        Err      Quality

2012/05/17 22:27:25.7     42.7703   -1.3721     10.0      13    3 193  Ml 1.4  1  Md 1.2  2              bulletin    276895
                                                                                                         _ldg
      0.26   +-  0.11       2.9    1.6  175.22 +-  0.0    0.04   1.28   +-         +-0.1                 m i ke

PYRENEES
Sta     Dist  EvAz     Phase      Date       Time     TRes  Azim  AzRes  Slow  SRes Def   SNR       Amp   Per   Mag1   Mag2       ID
SJPF  000.36 017.4 m E Pg      2012/05/17 22:27:33.0   0.1                          T                                        4981148
SJPF  000.36 017.4 m E Sg      2012/05/17 22:27:37.8   0.1                          T                2.2  .26        Md 1.2  4981149
ETSF  000.61 077.6 m E Pg      2012/05/17 22:27:37.3  -0.2                          T                                        4981146
ETSF  000.61 077.6 m E Sg      2012/05/17 22:27:45.6   0.0                          T                 .6  .22        Md 1.1  4981147
EPF   001.28 077.7 m E Pg      2012/05/17 22:27:49.8   0.0                          T                                        4981150
EPF   001.28 077.7 m E Sn      2012/05/17 22:28:04.5   0.1                          T                 .6  .22 Ml 1.4         4981151

.
EVENT     276635
    Date      Time       Latitude Longitude    Depth    Ndef Nsta Gap    Mag1  N    Mag2  N    Mag3  N   Author         ID
       rms   OT_Error      Smajor Sminor Az        Err   mdist  Mdist     Err        Err        Err      Quality

2012/05/18 02:51:17.1     42.9259     .1075      2.0      11    4 192  Ml 1.2  2  Md 1.3  2              js067245    276735

      0.29   +-  0.16       8.7    1.4  170.83 +-  0.0    0.20   1.60   +-0.0      +-0.1                 m i ke

PYRENEES
Sta     Dist  EvAz     Phase      Date       Time     TRes  Azim  AzRes  Slow  SRes Def   SNR       Amp   Per   Mag1   Mag2       ID
EPF   000.20 058.5 m E Pg      2012/05/18 02:51:21.0  -0.2                          T                                        4958889
EPF   000.20 058.5 m E Sg      2012/05/18 02:51:23.8  -0.2                          T                3.7  .18        Md 1.3  4958886
ETSF  000.49 267.0 m E Pg      2012/05/18 02:51:26.3  -0.3                          T                                        4958888
ETSF  000.49 267.0 m E Sg      2012/05/18 02:51:32.9  -0.2                          T                1.5  .19        Md 1.2  4958887
SJPF  001.00 281.3 m E Pg      2012/05/18 02:51:35.9   0.1                          T                                        4958883
SJPF  001.00 281.3 m E Sg      2012/05/18 02:51:49.2   0.5                          T                 .6  .21 Ml 1.3         4958882
MTLF  001.60 074.2 m E Pn      2012/05/18 02:51:44.9   0.3                          T                                        4958884
MTLF  001.60 074.2 m E Sn      2012/05/18 02:52:04.3  -0.4                          T                                        4958885
MTLF  001.60 074.2 m E Sg      2012/05/18 02:52:08.1   0.6                          T                 .3  .18 Ml 1.2         4963327

.
