EVENT     290916
    Date      Time       Latitude Longitude    Depth    Ndef Nsta Gap    Mag1  N    Mag2  N    Mag3  N   Author         ID
       rms   OT_Error      Smajor Sminor Az        Err   mdist  Mdist     Err        Err        Err      Quality

2013/01/26 00:27:20.0     44.2543   10.4706     10.0      48   15 067  Ml 2.6  3  Md 2.6  4              bulletin    291016
                                                                                                         _ldg
      0.88   +-  0.14       3.1    2.5   62.97 +-  0.0    0.09   5.52   +-0.3      +-0.1                 m i ke

NORTHERN ITALY
Sta     Dist  EvAz     Phase      Date       Time     TRes  Azim  AzRes  Slow  SRes Def   SNR       Amp   Per   Mag1   Mag2       ID
PGF   002.01 212.7 m E Pn      2013/01/26 00:27:52.2  -0.3                          T                                        5191213
SBF   002.22 260.9 m E Pn      2013/01/26 00:27:55.7   0.4                          T                                        5178156
SBF   002.22 260.9 m E Sn      2013/01/26 00:28:21.6   0.4                          T                4.4  .24 Ml 2.5         5178155
MBDF  002.69 281.4 m E Pn      2013/01/26 00:28:02.2   0.5                          T                                        5178164
MBDF  002.69 281.4 m E Sn      2013/01/26 00:28:31.9  -0.6                          T                4.5  .45 Ml 2.4 Md 2.6  5178149
LPG   002.92 296.5 m E Pn      2013/01/26 00:28:04.3  -0.8                          T                                        5178150
LPG   002.92 296.5 m E Pg      2013/01/26 00:28:14.0  -0.6                          T                                        5191214
LPG   002.92 296.5 m E Sn      2013/01/26 00:28:37.6  -0.5                          T                                Md 2.6  5178148
FRF   002.85 257.2 m E Pn      2013/01/26 00:28:04.3   0.6                          T                                        5178158
FRF   002.85 257.2 m E Sn      2013/01/26 00:28:36.2   0.2                          T                6.1  .23 Ml 2.9         5178154
LPL   002.94 296.7 m E Pn      2013/01/26 00:28:04.7  -0.6                          T                                        5178152
LPL   002.94 296.7 m E P       2013/01/26 00:28:08.3   0.1                          T                                        5178196
LPL   002.94 296.7 m E Sn      2013/01/26 00:28:37.3  -1.3                          T                                Md 2.6  5178147
LMR   003.01 253.6 m E Pn      2013/01/26 00:28:06.2   0.3                          T                                        5178157
LMR   003.01 253.6 m E Sn      2013/01/26 00:28:40.2   0.3                          T                                Md 2.7  5178153
ORIF  003.35 283.0 m E Pn      2013/01/26 00:28:09.3  -1.3                          T                                        5178165
SMRF  003.54 267.2 m E Pn      2013/01/26 00:28:15.3   2.2                          T                                        5178167
SMRF  003.54 267.2 m E Sn      2013/01/26 00:28:52.9   0.4                          T                                        5178166
HINF  004.36 326.0 m E Pn      2013/01/26 00:28:23.8  -0.6                          T                                        5178162
CDF   004.71 333.1 m E Pn      2013/01/26 00:28:28.4  -0.8                          T                                        5178161
CDF   004.71 333.1 m E P       2013/01/26 00:28:32.1  -1.1                          T                                        5178171
HAU   004.72 324.1 m E Pn      2013/01/26 00:28:28.8  -0.5                          T                                        5178169
HAU   004.72 324.1 m E P       2013/01/26 00:28:32.6  -0.7                          T                                        5178168
LASF  004.76 270.2 m E Pn      2013/01/26 00:28:29.7  -0.1                          T                                        5178163
LOR   005.52 305.4 m E Pn      2013/01/26 00:28:38.7  -1.4 131.7  11.0              T                                        5178160
SFTF  005.46 318.3 m E Pn      2013/01/26 00:28:39.9   0.6                          T                                        5178159
SFTF  005.46 318.3 m E Pg      2013/01/26 00:29:00.4  -0.5                          T                                        5178170

.
EVENT     290917
    Date      Time       Latitude Longitude    Depth    Ndef Nsta Gap    Mag1  N    Mag2  N    Mag3  N   Author         ID
       rms   OT_Error      Smajor Sminor Az        Err   mdist  Mdist     Err        Err        Err      Quality

2013/01/26 08:34:11.2     44.0634    6.6618      2.0      72   12 044  Ml 2.1 10  Md 2.2  2              bulletin    291017
                                                                                                         _ldg
      0.43   +-  0.04        .9     .8   29.81 +-  0.0    0.30   2.58   +-0.3      +-0.1                 m i ke

FRANCE
Sta     Dist  EvAz     Phase      Date       Time     TRes  Azim  AzRes  Slow  SRes Def   SNR       Amp   Per   Mag1   Mag2       ID
FRF   000.50 181.2 m E Pg      2013/01/26 08:34:20.3  -0.5                          T                                        5178206
FRF   000.50 181.2 m E Sg      2013/01/26 08:34:27.6   0.3                          T               22.3  .18        Md 2.1  5178205
SBF   000.59 109.5 m E Pg      2013/01/26 08:34:22.7   0.1                          T                                        5191833
SBF   000.59 109.5 m E P       2013/01/26 08:34:23.9   0.1                          T                                        5191834
SBF   000.59 109.5 m E Pn      2013/01/26 08:34:25.2   0.0                          T                                        5178200
SBF   000.59 109.5 m E Sg      2013/01/26 08:34:30.5   0.2                          T               22.4  .27                5178198
SBF   000.59 109.5 m E Sn      2013/01/26 08:34:34.8   0.0                          T               16.2  .25                5191832
MBDF  000.67 006.7 m E Pg      2013/01/26 08:34:23.6  -0.4                          T                                        5178203
MBDF  000.67 006.7 m E Sg      2013/01/26 08:34:32.7   0.0                          T               17.5  .30                5178197
LMR   000.74 188.7 m E Pg      2013/01/26 08:34:24.3  -0.8                          T                                        5178201
LMR   000.74 188.7 m E P       2013/01/26 08:34:26.2  -0.5                          T                                        5178773
LMR   000.74 188.7 m E Sg      2013/01/26 08:34:34.7   0.0                          T                6.5  .18                5178199
LMR   000.74 188.7 m E Sn      2013/01/26 08:34:38.2   0.0                          T               11.2  .20                5178772
SMRF  000.79 264.0 m E Pg      2013/01/26 08:34:25.9  -0.1                          T                                        5178204
SMRF  000.79 264.0 m E Pn      2013/01/26 08:34:27.8   0.1                          T                                        5178764
SMRF  000.79 264.0 m E Sg      2013/01/26 08:34:36.3  -0.1                          T                                        5178765
SMRF  000.79 264.0 m E Sn      2013/01/26 08:34:39.7   0.2                          T               18.8  .24                5178235
ORIF  001.02 327.1 m E Pg      2013/01/26 08:34:30.4  -0.1                          T                                        5178202
ORIF  001.02 327.1 m E Sg      2013/01/26 08:34:43.6  -0.1                          T                4.5  .27 Ml 2.0 Md 2.3  5178240
ORIF  001.02 327.1 m E Sn      2013/01/26 08:34:45.7   0.6                          T                9.5  .34 Ml 2.3         5191831
LPG   001.44 002.5 m E Pg      2013/01/26 08:34:38.4   0.1                          T                                        5178238
LPG   001.44 002.5 m E Sg      2013/01/26 08:34:57.5   0.6                          T                3.7  .41 Ml 2.0         5178236
LPL   001.45 002.0 m E Pg      2013/01/26 08:34:38.8   0.3                          T                                        5178239
LPL   001.45 002.0 m E Sg      2013/01/26 08:34:57.5   0.2                          T                4.7  .28 Ml 2.2         5178237
VIVF  001.63 299.8 m E Pn      2013/01/26 08:34:39.2   0.0                          T                                        5178244
VIVF  001.63 299.8 m E Pg      2013/01/26 08:34:41.6   0.1                          T                                        5178771
VIVF  001.63 299.8 m E Sn      2013/01/26 08:34:59.6   0.1                          T                2.7  .26 Ml 2.1         5191830
VIVF  001.63 299.8 m E Sg      2013/01/26 08:35:02.7   0.1                          T                3.2  .30 Ml 2.1         5178233
LASF  002.02 271.3 m E Pn      2013/01/26 08:34:44.7   0.2                          T                                        5178768
LASF  002.02 271.3 m E Pg      2013/01/26 08:34:48.8   0.0                          T                                        5178769
LASF  002.02 271.3 m E Sn      2013/01/26 08:35:08.7  -0.2                          T                 .6  .18 Ml 1.7         5178770
PGF   002.28 130.8 m E Pn      2013/01/26 08:34:47.7  -0.4                          T                                        5178232
PGF   002.28 130.8 m E Sn      2013/01/26 08:35:14.6  -0.6                          T                2.7  .18 Ml 2.7         5178231
CABF  002.58 351.2 m E Pn      2013/01/26 08:34:52.8   0.6                          T                                        5178766
CABF  002.58 351.2 m E Pg      2013/01/26 08:34:59.2   0.1                          T                                        5178767
CABF  002.58 351.2 m E Sn      2013/01/26 08:35:22.9   0.6                          T                  1  .27 Ml 1.9         5178763

.
EVENT     290918
    Date      Time       Latitude Longitude    Depth    Ndef Nsta Gap    Mag1  N    Mag2  N    Mag3  N   Author         ID
       rms   OT_Error      Smajor Sminor Az        Err   mdist  Mdist     Err        Err        Err      Quality

2013/01/26 09:15:13.4     47.4518    7.6833     11.0 f    28    6 071  Ml 2.0  5  Md 2.0  2              bulletin    291018
                                                                                                         _ldg
      0.63   +-  0.09       1.8    1.5  170.69 +-  0.0    0.12   2.61   +-0.1      +-0.0                 m i ke

SWITZERLAND
Sta     Dist  EvAz     Phase      Date       Time     TRes  Azim  AzRes  Slow  SRes Def   SNR       Amp   Per   Mag1   Mag2       ID
HINF  000.67 303.3 m E Pg      2013/01/26 09:15:26.0  -0.2                          T                                        5178250
HINF  000.67 303.3 m E Sg      2013/01/26 09:15:34.6  -0.5                          T                3.9  .35        Md 2.0  5178249
CDF   001.00 344.2 m E Pg      2013/01/26 09:15:32.3   0.0                          T                                        5178252
CDF   001.00 344.2 m E Sg      2013/01/26 09:15:45.0  -0.3                          T                2.6  .34 Ml 1.8 Md 2.0  5178253
HAU   001.06 302.1 m E Pg      2013/01/26 09:15:32.8  -0.5                          T                                        5178245
HAU   001.06 302.1 m E Sg      2013/01/26 09:15:46.6  -0.5                          T                5.7  .32 Ml 1.9         5178248
CABF  001.38 233.0 m E Pn      2013/01/26 09:15:38.9   1.8                          T                                        5178246
CABF  001.38 233.0 m E Sg      2013/01/26 09:15:56.5  -0.6                          T                                        5178247
MEZF  002.06 301.7 m E Pg      2013/01/26 09:15:51.8   0.2 122.8  3.0               T                                        5178780
MEZF  002.06 301.7 m E Sn      2013/01/26 09:16:11.7   1.4                          T                                        5178778
MEZF  002.06 301.7 m E Sg      2013/01/26 09:16:17.8  -0.4                          T                1.7  .24 Ml 2.1         5178779
LOR   002.61 267.4 m E Pn      2013/01/26 09:15:54.7   1.0  87.1  2.5               T                                        5178251
LOR   002.61 267.4 m E Sn      2013/01/26 09:16:24.6   1.2  88.2  3.6               T                 .8  .19 Ml 2.0         5178781

.
EVENT     291484
    Date      Time       Latitude Longitude    Depth    Ndef Nsta Gap    Mag1  N    Mag2  N    Mag3  N   Author         ID
       rms   OT_Error      Smajor Sminor Az        Err   mdist  Mdist     Err        Err        Err      Quality

2013/01/26 11:13:55.0     42.7692     .8048     12.0 f    14    3 094  Ml 1.6  3  Md 1.6  1              bulletin    291584
                                                                                                         _ldg
      1.51   +-  0.12       2.6    2.1   30.06 +-  0.0    0.28   1.22   +-0.1      +-                    m i ke

PYRENEES
Sta     Dist  EvAz     Phase      Date       Time     TRes  Azim  AzRes  Slow  SRes Def   SNR       Amp   Per   Mag1   Mag2       ID
EPF   000.43 307.5 m E Pg      2013/01/26 11:14:02.8  -0.7                          T                                        5191841
EPF   000.43 307.5 m E Sg      2013/01/26 11:14:09.5   0.1                          T                2.1  .18        Md 1.6  5191842
ETSF  001.01 277.8 m E Pg      2013/01/26 11:14:14.3   0.2                          T                                        5191843
ETSF  001.01 277.8 m E Sg      2013/01/26 11:14:27.5   0.2                          T                1.0  .26 Ml 1.4         5191845
MTLF  001.18 060.6 m E Pg      2013/01/26 11:14:17.4   0.2                          T                                        5191844
MTLF  001.18 060.6 m E Sg      2013/01/26 11:14:32.8   0.2                          T                 .9  .18 Ml 1.6         5191840

.
EVENT     290919
    Date      Time       Latitude Longitude    Depth    Ndef Nsta Gap    Mag1  N    Mag2  N    Mag3  N   Author         ID
       rms   OT_Error      Smajor Sminor Az        Err   mdist  Mdist     Err        Err        Err      Quality

2013/01/26 15:21:35.4     43.5925    7.7461      9.0 f    39   10 116  Ml 2.3  7  Md 2.3  3              bulletin    291019
                                                                                                         _ldg
      0.48   +-  0.14       2.3    1.8  153.44 +-  0.0    0.26   2.54   +-0.2      +-0.1                 m i ke

NEAR SOUTH COAST OF FRANCE
Sta     Dist  EvAz     Phase      Date       Time     TRes  Azim  AzRes  Slow  SRes Def   SNR       Amp   Per   Mag1   Mag2       ID
SBF   000.35 320.3 m E Pg      2013/01/26 15:21:42.7   0.3                          T                                        5178264
SBF   000.35 320.3 m E Sg      2013/01/26 15:21:47.3   0.1                          T               98.3  .24        Md 2.3  5178256
FRF   000.80 268.1 m E Pg      2013/01/26 15:21:50.3  -0.2                          T                                        5178265
FRF   000.80 268.1 m E Sg      2013/01/26 15:22:00.6  -0.3                          T               12.3  .20        Md 2.4  5178258
LMR   000.94 254.4 m E Pg      2013/01/26 15:21:52.2  -0.8                          T                                        5178263
LMR   000.94 254.4 m E Sg      2013/01/26 15:22:04.0  -1.2                          T               12.8  .18 Ml 2.7 Md 2.3  5178257
PGF   001.39 138.2 m E Pn      2013/01/26 15:21:59.0  -0.4                          T                                        5178792
PGF   001.39 138.2 m E Sn      2013/01/26 15:22:15.0  -1.8                          T                2.8  .30 Ml 2.2         5178791
MBDF  001.33 328.6 m E Pg      2013/01/26 15:22:00.3  -0.2                          T                                        5178260
MBDF  001.33 328.6 m E Sg      2013/01/26 15:22:17.1  -0.7                          T                6.5  .27 Ml 2.3         5178255
SMRF  001.62 284.5 m E Pn      2013/01/26 15:22:02.9   0.4                          T                                        5178262
SMRF  001.62 284.5 m E Pg      2013/01/26 15:22:05.3  -0.3                          T                                        5178782
SMRF  001.62 284.5 m E Sn      2013/01/26 15:22:23.3   1.1                          T                6.2  .26 Ml 2.5         5178259
LPL   002.06 339.7 m E Pn      2013/01/26 15:22:09.1   0.4                          T                                        5178790
ORIF  001.89 315.3 m E Pg      2013/01/26 15:22:10.2  -0.4                          T                                        5178261
ORIF  001.89 315.3 m E Sn      2013/01/26 15:22:30.0   1.4                          T                                        5178789
ORIF  001.89 315.3 m E Sg      2013/01/26 15:22:35.5   0.6                          T                2.0  .26 Ml 2.1         5178254
LPG   002.03 339.9 m E Pg      2013/01/26 15:22:12.9  -0.7                          T                                        5178784
LPG   002.03 339.9 m E Sg      2013/01/26 15:22:40.2   0.5                          T                2.1  .32 Ml 2.0         5178783
VIVF  002.54 300.8 m E Pn      2013/01/26 15:22:15.5   0.4                          T                                        5178785
VIVF  002.54 300.8 m E Pg      2013/01/26 15:22:22.4  -0.2                          T                                        5178786
VIVF  002.54 300.8 m E Sn      2013/01/26 15:22:45.7   1.4                          T                                        5178787
VIVF  002.54 300.8 m E Sg      2013/01/26 15:22:55.8   0.4                          T                1.5  .26 Ml 2.1         5178788

.
EVENT     290920
    Date      Time       Latitude Longitude    Depth    Ndef Nsta Gap    Mag1  N    Mag2  N    Mag3  N   Author         ID
       rms   OT_Error      Smajor Sminor Az        Err   mdist  Mdist     Err        Err        Err      Quality

2013/01/26 16:36:35.5     43.7891    5.7422      5.0 f    13    5 149  Ml 1.7  2  Md 1.7  3              bulletin    291020
                                                                                                         _ldg
      0.39   +-  0.12       2.3    1.9   17.41 +-  0.0    0.09   1.23   +-0.3      +-0.1                 m i ke

NEAR SOUTH COAST OF FRANCE
Sta     Dist  EvAz     Phase      Date       Time     TRes  Azim  AzRes  Slow  SRes Def   SNR       Amp   Per   Mag1   Mag2       ID
SMRF  000.22 327.2 m E Pg      2013/01/26 16:36:40.0  -0.1                          T                                        5178273
SMRF  000.22 327.2 m E Sg      2013/01/26 16:36:43.8   0.6                          T                8.6  .25        Md 1.6  5178272
FRF   000.69 108.9 m E Pg      2013/01/26 16:36:48.2  -0.4                          T                                        5178270
FRF   000.69 108.9 m E Sg      2013/01/26 16:36:57.3  -0.5                          T                3.4  .20        Md 1.8  5178271
LMR   000.72 129.0 m E Pg      2013/01/26 16:36:49.3   0.3                          T                                        5178269
LMR   000.72 129.0 m E Sg      2013/01/26 16:36:59.2   0.7                          T                2.3  .19        Md 1.6  5178268
SBF   001.23 086.0 m E Pg      2013/01/26 16:36:58.1  -0.4                          T                                        5178266
SBF   001.23 086.0 m E Sg      2013/01/26 16:37:15.2   0.8                          T                2.1  .20 Ml 1.9         5178267
MBDF  001.19 037.9 m E Sg      2013/01/26 16:37:13.4  -0.1                          T                 .8  .22 Ml 1.5         5192117

.
