BEGIN GSE2.0
MSG_TYPE DATA
MSG_ID 10-FEB-1209:05:06  FRA_NDC
E-MAIL
DATA_TYPE BULLETIN
Reviewed Bulletin (REB) # P2012-005  from French NDC for regional phases     PERIOD 01 FEB 2012 TO 07 FEB 2012 S M., J-P S.
EVENT     269473
    Date      Time       Latitude Longitude    Depth    Ndef Nsta Gap    Mag1  N    Mag2  N    Mag3  N   Author         ID
       rms   OT_Error      Smajor Sminor Az        Err   mdist  Mdist     Err        Err        Err      Quality

2012/02/01 17:09:59.3     45.5755   10.9959      2.0      80   21 060  Ml 2.6 15                         js067245    269493

      0.67   +-  0.11       2.6    1.9  155.96 +-  0.0    0.09  10.14   +-0.3                            m i ke

NORTHERN ITALY
Sta     Dist  EvAz     Phase      Date       Time     TRes  Azim  AzRes  Slow  SRes Def   SNR       Amp   Per   Mag1   Mag2       ID
SBF   003.06 237.3 m E Pn      2012/02/01 17:10:47.2   0.3                          T                                        4831450
SBF   003.06 237.3 m E P       2012/02/01 17:10:50.7   0.8                          T                                        4831449
SBF   003.06 237.3 m E Pg      2012/02/01 17:10:57.3   1.2                          T                                        4831448
SBF   003.06 237.3 m E Sg      2012/02/01 17:11:34.8  -0.7                          T               12.9  .26 Ml 3.1         4831495
MBDF  003.11 255.7 m E Pn      2012/02/01 17:10:47.2  -0.4                          T                                        4831458
MBDF  003.11 255.7 m E P       2012/02/01 17:10:51.3   0.8                          T                                        4831457
MBDF  003.11 255.7 m E Sg      2012/02/01 17:11:38.0   1.0                          T                2.6  .24 Ml 2.5         4831447
LPL   003.00 270.4 m E P       2012/02/01 17:10:49.4   0.4                          T                                        4831455
LPL   003.00 270.4 m E Pg      2012/02/01 17:10:55.0  -0.1                          T                                        4831494
LPL   003.00 270.4 m E Sg      2012/02/01 17:11:32.6  -1.0                          T                7.9  .46 Ml 2.7         4831451
LPG   002.98 270.0 m E P       2012/02/01 17:10:50.1   1.1                          T                                        4831454
LPG   002.98 270.0 m E Pg      2012/02/01 17:10:53.7  -1.3                          T                                        4831444
LPG   002.98 270.0 m E Sg      2012/02/01 17:11:31.9  -1.5                          T                3.8  .25 Ml 2.6         4831445
CABF  003.57 288.6 m E Pn      2012/02/01 17:10:53.9   0.0                          T                                        4831468
CABF  003.57 288.6 m E P       2012/02/01 17:10:57.2   0.1                          T                                        4831467
CABF  003.57 288.6 m E Sn      2012/02/01 17:11:34.5   0.4                          T                1.3  .23 Ml 2.3         4831465
CABF  003.57 288.6 m E Sg      2012/02/01 17:11:52.5   1.2                          T                2.3  .30 Ml 2.4         4831490
HINF  003.63 309.7 m E Pn      2012/02/01 17:10:54.6   0.1                          T                                        4831469
HINF  003.63 309.7 m E P       2012/02/01 17:10:57.4  -0.4                          T                                        4831470
HINF  003.63 309.7 m E Sn      2012/02/01 17:11:35.6   0.2                          T                1.8  .18 Ml 2.6         4831466
HINF  003.63 309.7 m E Sg      2012/02/01 17:11:52.6  -0.5                          T                1.9  .33 Ml 2.3         4831489
ORIF  003.67 261.5 m E P       2012/02/01 17:10:57.4  -1.1                          T                                        4831456
ORIF  003.67 261.5 m E Pg      2012/02/01 17:11:08.1   0.7                          T                                        4831493
ORIF  003.67 261.5 m E Sg      2012/02/01 17:11:53.8  -0.8                          T                2.5  .31 Ml 2.5         4831446
CDF   003.81 319.4 m E Pn      2012/02/01 17:10:57.7   0.6                          T                                        4831476
CDF   003.81 319.4 m E P       2012/02/01 17:10:59.9  -0.6                          T                                        4831475
FRF   003.70 238.6 m E P       2012/02/01 17:10:58.4  -0.4                          T                                        4831453
FRF   003.70 238.6 m E Pg      2012/02/01 17:11:05.5  -2.4                          T                                        4831452
HAU   004.01 309.0 m E Pn      2012/02/01 17:11:00.1   0.3                          T                                        4831472
HAU   004.01 309.0 m E P       2012/02/01 17:11:03.3   0.0                          T                                        4831471
THEF  004.34 309.5 m E Pn      2012/02/01 17:11:04.3   0.2                          T                                        4831441
VIVF  004.53 263.1 m E Pn      2012/02/01 17:11:07.4   0.6                          T                                        4831443
VIVF  004.53 263.1 m E Sn      2012/02/01 17:11:57.0   0.1                          T                1.0  .24 Ml 2.4         4831491
PAGF  004.67 311.5 m E Pn      2012/02/01 17:11:08.2  -0.6 127.9  0.3               T                                        4831474
PAGF  004.67 311.5 m E P       2012/02/01 17:11:12.6  -0.1                          T                                        4831473
MEZF  005.01 307.9 m E Pn      2012/02/01 17:11:12.8  -0.5                          T                                        4831440
SMF   005.09 284.7 m E Pn      2012/02/01 17:11:14.4  -0.1                          T                                        4831463
SMF   005.09 284.7 m E Sn      2012/02/01 17:12:11.0   0.7                          T                3.3  .26 Ml 3.0         4831462
LOR   005.22 291.5 m E Pn      2012/02/01 17:11:16.0  -0.2 102.0  -4.3              T                                        4831479
LOR   005.22 291.5 m E Sn      2012/02/01 17:12:13.4   0.0                          T                1.3  .22 Ml 2.7         4831477
LASF  005.29 256.1 m E Pn      2012/02/01 17:11:17.8   0.6                          T                                        4831442
SSF   005.40 288.7 m E Pn      2012/02/01 17:11:18.4  -0.3                          T                                        4831478
SSF   005.40 288.7 m E Pg      2012/02/01 17:11:39.0  -0.1                          T                                        4831488
AVF   005.45 285.6 m E Pn      2012/02/01 17:11:19.1  -0.2                          T                                        4831464
AVF   005.45 285.6 m E Sn      2012/02/01 17:12:18.4  -0.4                          T                1.1  .29 Ml 2.6         4831461
BGF   005.76 282.7 m E Pn      2012/02/01 17:11:23.5   0.0                          T                                        4831460
LMR   003.92 236.7 m E Sg      2012/02/01 17:12:02.1   0.0                          T                1.7  .26 Ml 2.5         4831492

.
EVENT     269474
    Date      Time       Latitude Longitude    Depth    Ndef Nsta Gap    Mag1  N    Mag2  N    Mag3  N   Author         ID
       rms   OT_Error      Smajor Sminor Az        Err   mdist  Mdist     Err        Err        Err      Quality

2012/02/01 20:27:09.0     45.7193    6.9145      2.0      65   19 037  Ml 2.3 18  Md 2.3  3              js067245    269494

      0.94   +-  0.05       1.2     .9  103.42 +-  0.0    0.12   3.82   +-0.3      +-0.1                 m i ke

FRANCE
Sta     Dist  EvAz     Phase      Date       Time     TRes  Azim  AzRes  Slow  SRes Def   SNR       Amp   Per   Mag1   Mag2       ID
LPL   000.24 212.3 m E Pg      2012/02/01 20:27:13.8  -0.3                          T   001.0                                4827376
LPL   000.24 212.3 m E Sg      2012/02/01 20:27:17.2  -0.1                          T               48.9  .26        Md 2.2  4831508
LPG   000.25 207.4 m E Pg      2012/02/01 20:27:14.0  -0.3                          T   001.0                                4827375
LPG   000.25 207.4 m E Sg      2012/02/01 20:27:17.7   0.0                          T               44.5  .20        Md 2.3  4831517
MBDF  001.00 185.9 m E Pg      2012/02/01 20:27:27.3  -0.6                          T   001.0                                4827385
MBDF  001.00 185.9 m E Sg      2012/02/01 20:27:41.0   0.1                          T   001.0        9.3  .40 Ml 2.2 Md 2.4  4827386
ORIF  001.08 222.7 m E Pg      2012/02/01 20:27:29.4  -0.1                          T   001.0                                4827387
ORIF  001.08 222.7 m E Sg      2012/02/01 20:27:43.5   0.1                          T   001.0       14.1  .30 Ml 2.5         4827388
CABF  001.06 327.5 m E Pn      2012/02/01 20:27:29.6   0.2                          T   001.0                                4827380
CABF  001.06 327.5 m E P       2012/02/01 20:27:31.2   0.3                          T                                        4831724
CABF  001.06 327.5 m E Sn      2012/02/01 20:27:43.9   0.0                          T   001.0        7.9  .22 Ml 2.4         4827382
VIVF  001.80 242.2 m E Pg      2012/02/01 20:27:43.1   0.5                          T   001.0                                4827389
VIVF  001.80 242.2 m E Sn      2012/02/01 20:28:01.3  -0.2                          T   001.0          1  .21 Ml 1.8         4827390
VIVF  001.80 242.2 m E Sg      2012/02/01 20:28:06.1   0.3                          T                6.7  .28 Ml 2.5         4831516
SBF   001.89 168.5 m E Pg      2012/02/01 20:27:45.2   0.9                          T                                        4831528
SBF   001.89 168.5 m E Sn      2012/02/01 20:28:03.6  -0.1                          T                                        4831522
SBF   001.89 168.5 m E Sg      2012/02/01 20:28:08.4  -0.3                          T                                        4831521
SMRF  001.99 209.1 m E Pg      2012/02/01 20:27:45.9  -0.1                          T                                        4831529
SMRF  001.99 209.1 m E Sg      2012/02/01 20:28:10.8  -0.8                          T                2.0  .37 Ml 1.9         4831520
HAU   002.32 350.6 m E Pn      2012/02/01 20:27:47.1   0.6                          T                                        4831726
HAU   002.32 350.6 m E P       2012/02/01 20:27:48.8  -0.1                          T                                        4831514
HAU   002.32 350.6 m E Sn      2012/02/01 20:28:14.1   0.2                          T                                        4831513
HAU   002.32 350.6 m E Sg      2012/02/01 20:28:22.1   0.1                          T                5.0  .34 Ml 2.2         4831515
SMF   002.33 294.5 m E P       2012/02/01 20:27:49.0   0.1                          T   001.0                                4827377
SMF   002.33 294.5 m E Pn      2012/02/01 20:27:52.6   6.1                          T                                        4831512
SMF   002.33 294.5 m E Sg      2012/02/01 20:28:21.8  -0.4                          T   001.0        7.0  .22 Ml 2.8         4827378
FRF   002.17 185.2 m E Pg      2012/02/01 20:27:49.7   0.4                          T   001.0                                4827369
FRF   002.17 185.2 m E Sn      2012/02/01 20:28:10.0  -0.2                          T                                        4831525
FRF   002.17 185.2 m E Sg      2012/02/01 20:28:16.3  -0.8                          T                2.3  .30 Ml 2.2         4831524
LMR   002.40 187.1 m E Pg      2012/02/01 20:27:53.8   0.2                          T                                        4831530
LMR   002.40 187.1 m E Sn      2012/02/01 20:28:15.9   0.1                          T                                        4831523
LASF  002.72 234.0 m E P       2012/02/01 20:27:54.2  -0.4                          T                                        4831526
LASF  002.72 234.0 m E Pg      2012/02/01 20:28:00.6   1.0                          T                                        4831527
LASF  002.72 234.0 m E Sn      2012/02/01 20:28:23.4  -0.1                          T   001.0                                4827370
LASF  002.72 234.0 m E Sg      2012/02/01 20:28:34.2  -0.4                          T   001.0         .7  .25 Ml 1.8         4827371
HINF  002.10 358.9 m E Sn      2012/02/01 20:28:09.7   1.1                          T                                        4831725
HINF  002.10 358.9 m E Sg      2012/02/01 20:28:14.7  -0.4                          T   001.0        2.9  .30 Ml 2.2         4827383
LOR   002.62 307.4 m E Sn      2012/02/01 20:28:21.7   0.7                          T   001.0                                4827373
LOR   002.62 307.4 m E Sg      2012/02/01 20:28:30.6  -0.7 151.3  26.2              T   001.0        1.9  .24 Ml 2.3         4827374
AVF   002.69 294.7 m E Sg      2012/02/01 20:28:32.8  -0.8                          T   001.0        2.1  .20 Ml 2.4         4827368
SSF   002.71 300.9 m E Sg      2012/02/01 20:28:33.8  -0.4                          T   001.0          1  .19 Ml 2.2         4827379
BGF   002.95 288.0 m E Sg      2012/02/01 20:28:41.4  -0.2                          T                3.0  .23 Ml 2.5         4831509
RJF   003.82 265.7 m E Sn      2012/02/01 20:28:50.4   0.8                          T   001.0        6.2  .48 Ml 2.4         4827367

.
EVENT     269476
    Date      Time       Latitude Longitude    Depth    Ndef Nsta Gap    Mag1  N    Mag2  N    Mag3  N   Author         ID
       rms   OT_Error      Smajor Sminor Az        Err   mdist  Mdist     Err        Err        Err      Quality

2012/02/02 01:23:48.7     47.9706    7.2317      5.0 f    14    7 077  Ml 1.6  4  Md 1.5  2              js067245    269496

      0.46   +-  0.07       1.5    1.2  169.84 +-  0.0    0.14   1.57   +-0.3      +-0.1                 m i ke

SWITZERLAND
Sta     Dist  EvAz     Phase      Date       Time     TRes  Azim  AzRes  Slow  SRes Def   SNR       Amp   Per   Mag1   Mag2       ID
HINF  000.30 239.0 m E Pg      2012/02/02 01:23:54.7   0.0                          T                                        4831735
HINF  000.30 239.0 m E Sg      2012/02/02 01:23:58.8   0.1                          T                6.0  .20        Md 1.4  4831734
CDF   000.44 003.8 m E Pg      2012/02/02 01:23:57.2  -0.2                          T                                        4831732
CDF   000.44 003.8 m E Sg      2012/02/02 01:24:02.8  -0.5                          T                1.6  .27                4831733
HAU   000.59 273.7 m E Pg      2012/02/02 01:24:00.3   0.3                          T                                        4831729
HAU   000.59 273.7 m E Sg      2012/02/02 01:24:07.7  -0.2                          T                1.9  .24        Md 1.5  4831728
THEF  000.87 287.7 m E Sn      2012/02/02 01:24:17.3  -1.0                          T                1.7  .18 Ml 1.7         4832994
PAGF  001.16 300.7 m E Sg      2012/02/02 01:24:25.7   0.1 124.9  5.3               T                 .4  .21 Ml 1.2         4831731
SFTF  001.49 279.9 m E Sg      2012/02/02 01:24:35.9   0.2                          T                1.8  .22 Ml 1.9         4831730
CABF  001.57 210.2 m E Sg      2012/02/02 01:24:38.3   0.0                          T                 .5  .18 Ml 1.5         4831727

.
EVENT     269508
    Date      Time       Latitude Longitude    Depth    Ndef Nsta Gap    Mag1  N    Mag2  N    Mag3  N   Author         ID
       rms   OT_Error      Smajor Sminor Az        Err   mdist  Mdist     Err        Err        Err      Quality

2012/02/02 16:12:53.5     45.0799    7.3038      2.0      13    5 240  Ml 1.7  3  Md 1.7  3              js067245    269528

      0.66   +-  0.23       4.3    2.0   82.22 +-  0.0    0.52   1.59   +-0.1      +-0.1                 m i ke

NORTHERN ITALY
Sta     Dist  EvAz     Phase      Date       Time     TRes  Azim  AzRes  Slow  SRes Def   SNR       Amp   Per   Mag1   Mag2       ID
MBDF  000.52 227.2 m E Pg      2012/02/02 16:13:02.9  -0.6                          T                                        4831743
MBDF  000.52 227.2 m E Sg      2012/02/02 16:13:09.3  -1.1                          T                4.9  .26        Md 1.8  4831742
LPL   000.59 317.5 m E Pg      2012/02/02 16:13:04.6  -0.4                          T                                        4831740
LPL   000.59 317.5 m E Sg      2012/02/02 16:13:13.1   0.3                          T                3.0  .22        Md 1.7  4831741
LPG   000.57 317.2 m E Pg      2012/02/02 16:13:04.7   0.0                          T                                        4831739
LPG   000.57 317.2 m E Sg      2012/02/02 16:13:11.2  -1.0                          T                2.1  .19        Md 1.7  4831738
ORIF  001.02 261.4 m E Pg      2012/02/02 16:13:12.7   0.0                          T                                        4831736
ORIF  001.02 261.4 m E Sg      2012/02/02 16:13:25.4  -0.7                          T                2.9  .30 Ml 1.8         4831737
FRF   001.59 197.5 m E Pn      2012/02/02 16:13:20.9   0.0                          T                                        4831746
FRF   001.59 197.5 m E Sn      2012/02/02 16:13:40.9   0.1                          T                                        4831748
FRF   001.59 197.5 m E Sg      2012/02/02 16:13:43.5  -0.1                          T                 .5  .16 Ml 1.6         4831747

.
EVENT     269511
    Date      Time       Latitude Longitude    Depth    Ndef Nsta Gap    Mag1  N    Mag2  N    Mag3  N   Author         ID
       rms   OT_Error      Smajor Sminor Az        Err   mdist  Mdist     Err        Err        Err      Quality

2012/02/02 17:11:37.3     42.8960   -1.3732      2.0      48    5 059  Ml 2.3  4  Md 2.4  1              js067245    269531

      0.65   +-  0.11       2.1    1.9   78.58 +-  0.0    0.05   3.21   +-0.2      +-                    m i ke

PYRENEES
Sta     Dist  EvAz     Phase      Date       Time     TRes  Azim  AzRes  Slow  SRes Def   SNR       Amp   Per   Mag1   Mag2       ID
SJPF  000.24 026.5 m E Pg      2012/02/02 17:11:41.8  -0.4                          T                                        4831757
SJPF  000.24 026.5 m E Sg      2012/02/02 17:11:45.7   0.2                          T               34.6  .20        Md 2.4  4831756
EPF   001.26 083.3 m E Pn      2012/02/02 17:12:00.1  -0.3                          T                                        4831755
EPF   001.26 083.3 m E Sn      2012/02/02 17:12:17.0   0.0                          T               14.1  .32 Ml 2.6         4831754
LFF   002.55 036.1 m E Pn      2012/02/02 17:12:17.7  -0.1                          T                                        4831752
LFF   002.55 036.1 m E Sn      2012/02/02 17:12:47.8   0.2                          T                4.1  .32 Ml 2.3         4831749
MTLF  002.67 079.2 m E P       2012/02/02 17:12:23.3   1.2                          T                                        4831751
MTLF  002.67 079.2 m E Sn      2012/02/02 17:12:50.5   0.1                          T                1.2  .23 Ml 2.1         4831750
CAF   003.21 049.6 m E Sn      2012/02/02 17:13:04.9   1.6                          T                1.8  .20 Ml 2.4         4831753

.
