EVENT     283674
    Date      Time       Latitude Longitude    Depth    Ndef Nsta Gap    Mag1  N    Mag2  N    Mag3  N   Author         ID
       rms   OT_Error      Smajor Sminor Az        Err   mdist  Mdist     Err        Err        Err      Quality

2012/09/20 23:46:24.8     44.4567    6.9600      2.0      34    7 048  Ml 1.5  6  Md 1.7  2              bulletin    283774
                                                                                                         _ldg
      0.19   +-  0.03        .8     .5   52.99 +-  0.0    0.11   2.59   +-0.4      +-0.1                 m i ke

FRANCE
Sta     Dist  EvAz     Phase      Date       Time     TRes  Azim  AzRes  Slow  SRes Def   SNR       Amp   Per   Mag1   Mag2       ID
MBDF  000.30 333.6 m E Pg      2012/09/20 23:46:30.7  -0.2                          T                                Md 1.7  5075911
MBDF  000.30 333.6 m E Sg      2012/09/20 23:46:35.2   0.3                          T                2.9  .19                5075910
SBF   000.68 149.9 m E Pg      2012/09/20 23:46:37.9   0.1                          T                                Md 1.8  5075898
SBF   000.68 149.9 m E Sg      2012/09/20 23:46:46.8   0.0                          T                1.3  .20                5075897
ORIF  000.90 301.3 m E Pg      2012/09/20 23:46:41.7  -0.1                          T                                        5075909
ORIF  000.90 301.3 m E Pn      2012/09/20 23:46:42.8  -0.1                          T                                        5075904
ORIF  000.90 301.3 m E Sg      2012/09/20 23:46:53.5   0.0                          T                 .8  .24 Ml 1.3         5075903
FRF   000.92 194.3 m E Pg      2012/09/20 23:46:42.2   0.1                          T                                        5075906
FRF   000.92 194.3 m E Sg      2012/09/20 23:46:54.3   0.1                          T                4.4  .22 Ml 2.1         5075900
LPL   001.07 351.4 m E Pg      2012/09/20 23:46:45.0  -0.2                          T                                        5075908
LPL   001.07 351.4 m E Sg      2012/09/20 23:46:58.8  -0.3                          T                 .5  .27 Ml 1.1         5075902
SMRF  001.11 244.7 m E Pg      2012/09/20 23:46:45.9   0.3                          T                                        5075907
SMRF  001.11 244.7 m E Sg      2012/09/20 23:46:59.9   0.0                          T                 .6  .21 Ml 1.3         5075901
LMR   001.17 196.3 m E Pg      2012/09/20 23:46:46.8   0.1                          T                                        5075905
LMR   001.17 196.3 m E Sg      2012/09/20 23:47:01.9   0.1                          T                3.1  .24 Ml 2.0         5075899

.
EVENT     283764
    Date      Time       Latitude Longitude    Depth    Ndef Nsta Gap    Mag1  N    Mag2  N    Mag3  N   Author         ID
       rms   OT_Error      Smajor Sminor Az        Err   mdist  Mdist     Err        Err        Err      Quality

2012/09/21 00:48:08.7     50.6865    6.2860     14.0 f    24    3 178  Ml 2.1  3  Md 2.3  1              bulletin    283864
                                                                                                         _ldg
      0.33   +-  0.11       2.9    1.4    1.47 +-  0.0    0.04   2.37   +-0.5      +-                    m i ke

GERMANY
Sta     Dist  EvAz     Phase      Date       Time     TRes  Azim  AzRes  Slow  SRes Def   SNR       Amp   Per   Mag1   Mag2       ID
GIVF  001.10 238.6 m E P       2012/09/21 00:48:29.9   0.0                          T                                        5077748
GIVF  001.10 238.6 m E Sg      2012/09/21 00:48:44.0   0.1                          T                5.4  .19 Ml 2.3 Md 2.3  5077746
BAIF  001.47 245.5 m E Pg      2012/09/21 00:48:36.1  -0.1                          T                                        5077747
BAIF  001.47 245.5 m E Sg      2012/09/21 00:48:55.1  -0.1                          T                5.8  .20 Ml 2.5         5077745
CDF   002.37 163.8 m E Sg      2012/09/21 00:49:23.2   0.0                          T                 .6  .35 Ml 1.6         5077749

.
EVENT     283665
    Date      Time       Latitude Longitude    Depth    Ndef Nsta Gap    Mag1  N    Mag2  N    Mag3  N   Author         ID
       rms   OT_Error      Smajor Sminor Az        Err   mdist  Mdist     Err        Err        Err      Quality

2012/09/21 01:55:13.7     42.9767   -1.1827     10.0      16    3 087  Ml 1.5  1  Md 1.4  2              bulletin    283765
                                                                                                         _ldg
      0.27   +-  0.06       1.5    1.1  174.78 +-  0.0    0.13   1.81   +-         +-0.0                 m i ke

PYRENEES
Sta     Dist  EvAz     Phase      Date       Time     TRes  Azim  AzRes  Slow  SRes Def   SNR       Amp   Per   Mag1   Mag2       ID
SJPF  000.14 347.2 m E Pg      2012/09/21 01:55:17.1   0.1                          T                                        5075152
SJPF  000.14 347.2 m E Sg      2012/09/21 01:55:18.9  -0.5                          T               27.8  .22        Md 1.3  5075150
ETSF  000.46 099.5 m E Pg      2012/09/21 01:55:22.6  -0.2                          T                                        5075151
ETSF  000.46 099.5 m E Sg      2012/09/21 01:55:28.3  -0.7                          T                2.1  .24        Md 1.4  5075149
EPF   001.12 086.7 m E Pn      2012/09/21 01:55:33.7  -0.2                          T                                        5075154
EPF   001.12 086.7 m E Sn      2012/09/21 01:55:48.4   0.0                          T                 .9  .24 Ml 1.5         5075153

.
EVENT     283666
    Date      Time       Latitude Longitude    Depth    Ndef Nsta Gap    Mag1  N    Mag2  N    Mag3  N   Author         ID
       rms   OT_Error      Smajor Sminor Az        Err   mdist  Mdist     Err        Err        Err      Quality

2012/09/21 05:20:32.1     44.4607    6.9788      2.0      58   10 034  Ml 2.6  8  Md 2.4  4              bulletin    283766
                                                                                                         _ldg
      0.50   +-  0.07       1.6    1.1   61.35 +-  0.0    0.10   2.41   +-0.5      +-0.1                 m i ke

FRANCE
Sta     Dist  EvAz     Phase      Date       Time     TRes  Azim  AzRes  Slow  SRes Def   SNR       Amp   Per   Mag1   Mag2       ID
MBDF  000.30 331.0 m E Pg      2012/09/21 05:20:37.8  -0.4                          T                                        5075162
MBDF  000.30 331.0 m E Sg      2012/09/21 05:20:42.5   0.2                          T              217.5  .50        Md 2.5  5075161
SBF   000.68 151.0 m E Pg      2012/09/21 05:20:45.6   0.6                          T                                        5075192
SBF   000.68 151.0 m E Sg      2012/09/21 05:20:53.9   0.0                          T               61.1  .42                5075193
ORIF  000.91 300.7 m E Pg      2012/09/21 05:20:48.9  -0.3                          T                                        5075160
ORIF  000.91 300.7 m E Sg      2012/09/21 05:21:01.1   0.1                          T               15.6  .20 Ml 2.7 Md 2.4  5075199
FRF   000.93 195.0 m E Pg      2012/09/21 05:20:49.3  -0.3                          T                                        5075156
FRF   000.93 195.0 m E Sg      2012/09/21 05:21:01.6  -0.1                          T               63.9  .20 Ml 3.3 Md 2.3  5075195
LPL   001.07 350.7 m E Pg      2012/09/21 05:20:51.6  -0.8                          T                                        5075159
LPL   001.07 350.7 m E Sg      2012/09/21 05:21:07.1   0.9                          T               12.0  .34 Ml 2.4         5075198
LPG   001.05 351.2 m E Pg      2012/09/21 05:20:51.8  -0.3                          T                                        5075158
LPG   001.05 351.2 m E Sg      2012/09/21 05:21:05.9   0.2                          T                6.2  .31 Ml 2.1         5075197
LMR   001.18 196.9 m E Pg      2012/09/21 05:20:53.5  -0.6                          T                                        5075155
LMR   001.18 196.9 m E Sg      2012/09/21 05:21:09.2  -0.1                          T               54.1  .22 Ml 3.3         5075194
SMRF  001.12 244.8 m E Pg      2012/09/21 05:20:53.9   0.8                          T                                        5075157
SMRF  001.12 244.8 m E Sg      2012/09/21 05:21:08.6   1.0                          T               12.2  .28 Ml 2.5 Md 2.4  5075196
VIVF  001.69 284.3 m E Pn      2012/09/21 05:21:02.4   1.5                          T                                        5075191
VIVF  001.69 284.3 m E Sn      2012/09/21 05:21:22.9   1.0                          T                2.6  .31 Ml 2.1         5075190
PGF   002.41 141.7 m E Sn      2012/09/21 05:21:40.3   1.1                          T                3.3  .26 Ml 2.6         5077761

.
EVENT     283714
    Date      Time       Latitude Longitude    Depth    Ndef Nsta Gap    Mag1  N    Mag2  N    Mag3  N   Author         ID
       rms   OT_Error      Smajor Sminor Az        Err   mdist  Mdist     Err        Err        Err      Quality

2012/09/21 11:19:30.0     47.8358   -3.9744      3.0 f    21    6 289  Ml 2.2  4  Md 2.1  3              bulletin    283814
                                                                                                         _ldg
      0.81   +-  0.22       3.5    2.4   84.28 +-  0.0    0.55   2.89   +-0.1      +-0.2                 m i ke

FRANCE
Sta     Dist  EvAz     Phase      Date       Time     TRes  Azim  AzRes  Slow  SRes Def   SNR       Amp   Per   Mag1   Mag2       ID
QUIF  000.55 081.2 m E Pg      2012/09/21 11:19:40.5   0.1                          T                                Md 2.0  5075963
QUIF  000.55 081.2 m E Sg      2012/09/21 11:19:48.0   0.3                          T               10.6  .18                5075960
ROSF  000.69 042.9 m E Pg      2012/09/21 11:19:42.8  -0.1                          T                                        5075959
ROSF  000.69 042.9 m E Sg      2012/09/21 11:19:52.1   0.1                          T                9.0  .20        Md 1.9  5075958
SGMF  001.04 065.7 m E Pg      2012/09/21 11:19:49.4   0.0                          T                                        5075962
SGMF  001.04 065.7 m E Pn      2012/09/21 11:19:49.7  -0.1                          T                                        5075957
SGMF  001.04 065.7 m E Sg      2012/09/21 11:20:02.9  -0.1                          T                6.4  .20 Ml 2.3 Md 2.3  5075961
GRR   002.16 074.0 m E Pn      2012/09/21 11:20:05.3   0.2                          T                                        5075950
GRR   002.16 074.0 m E Pg      2012/09/21 11:20:09.9  -0.2                          T                                        5075951
GRR   002.16 074.0 m E Sn      2012/09/21 11:20:31.0   0.2                          T                                        5075949
GRR   002.16 074.0 m E Sg      2012/09/21 11:20:38.0   0.1                          T                1.6  .18 Ml 2.1         5075952
FLN   002.51 067.0 m E Pn      2012/09/21 11:20:10.1   0.3                          T                                        5075967
FLN   002.51 067.0 m E Pg      2012/09/21 11:20:16.4  -0.1 246.9  -2.7              T                                        5075966
FLN   002.51 067.0 m E Sn      2012/09/21 11:20:39.1   0.0                          T                                        5075965
FLN   002.51 067.0 m E Sg      2012/09/21 11:20:48.7  -0.1                          T                1.5  .17 Ml 2.1         5075964
MFF   002.89 113.9 m E Pn      2012/09/21 11:20:15.2   0.2                          T                                        5075956
MFF   002.89 113.9 m E Pg      2012/09/21 11:20:23.1  -0.4                          T                                        5075955
MFF   002.89 113.9 m E Sn      2012/09/21 11:20:48.5   0.3                          T                                        5075954
MFF   002.89 113.9 m E Sg      2012/09/21 11:21:00.7   0.1                          T                  1  .20 Ml 2.2         5075953

.
EVENT     283708
    Date      Time       Latitude Longitude    Depth    Ndef Nsta Gap    Mag1  N    Mag2  N    Mag3  N   Author         ID
       rms   OT_Error      Smajor Sminor Az        Err   mdist  Mdist     Err        Err        Err      Quality

2012/09/21 11:36:48.3     46.1672    2.7966       .0 f    23   13 135  Ml 2.0  7  Md 2.0  3              js067245    283808

      0.19   +-  0.05       1.3     .7  127.77 +-  0.0    0.05   3.42   +-0.3      +-0.0                 m i km

FRANCE
Sta     Dist  EvAz     Phase      Date       Time     TRes  Azim  AzRes  Slow  SRes Def   SNR       Amp   Per   Mag1   Mag2       ID
BGF   000.39 005.0 m E Pg      2012/09/21 11:36:56.0  -0.1                          T   001.0                                5075728
BGF   000.39 005.0 m E Sg      2012/09/21 11:37:01.5  -0.1                          T   001.0      122.1 1.18        Md 2.0  5075729
TCF   000.42 286.8 m E Pg      2012/09/21 11:36:56.9   0.1                          T   001.0                                5075738
TCF   000.42 286.8 m E Sg      2012/09/21 11:37:02.5  -0.1                          T   001.0      133.3 1.08        Md 2.0  5075739
AVF   000.73 031.4 m E Pg      2012/09/21 11:37:02.7   0.3                          T   001.0                                5075726
AVF   000.73 031.4 m E Sg      2012/09/21 11:37:12.0  -0.2                          T   001.0        4.0  .24                5075727
SMF   000.87 056.1 m E Pn      2012/09/21 11:37:06.2  -0.2                          T   001.0                                5075734
SMF   000.87 056.1 m E Sg      2012/09/21 11:37:16.2  -0.2                          T   001.0       25.4  .62 Ml 2.4         5075735
SSF   001.02 028.4 m E Pg      2012/09/21 11:37:08.1   0.3                          T                                        5075943
SSF   001.02 028.4 m E Sg      2012/09/21 11:37:20.9  -0.2                          T   001.0        1.0  .21 Ml 1.6         5075737
HYF   001.11 354.5 m E Pg      2012/09/21 11:37:09.4   0.1                          T                                        5075936
HYF   001.11 354.5 m E Sg      2012/09/21 11:37:24.2   0.4                          T                                        5075937
RJF   001.24 226.6 m E Pg      2012/09/21 11:37:11.9   0.0                          T                                        5075940
RJF   001.24 226.6 m E Sg      2012/09/21 11:37:28.2   0.1                          T   001.0        1.9  .23 Ml 1.5         5075725
LOR   001.32 033.2 m E Pg      2012/09/21 11:37:13.2  -0.1 213.5  -0.4              T   001.0                                5075731
LOR   001.32 033.2 m E Sg      2012/09/21 11:37:30.5  -0.1                          T   001.0        5.7  .28 Ml 2.3         5075733
LFF   001.90 230.4 m E Pn      2012/09/21 11:37:20.4   0.0                          T                                        5075935
LFF   001.90 230.4 m E Sn      2012/09/21 11:37:43.6   0.0                          T                3.6  .26 Ml 2.2         5075934
MFF   002.08 283.1 m E Pn      2012/09/21 11:37:23.0   0.1                          T                                        5075939
MFF   002.08 283.1 m E Sn      2012/09/21 11:37:48.0  -0.2                          T                 .8  .22 Ml 1.9         5075938
CAF   001.34 202.8 m E Sg      2012/09/21 11:37:31.1  -0.2                          T   001.0        3.1  .22 Ml 2.1         5075730
LDF   003.13 321.8 m E Pn      2012/09/21 11:37:37.3   0.0                          T                                        5075933
FLN   003.42 320.6 m E Pn      2012/09/21 11:37:40.7  -0.4                          T                                        5075932

.
EVENT     283758
    Date      Time       Latitude Longitude    Depth    Ndef Nsta Gap    Mag1  N    Mag2  N    Mag3  N   Author         ID
       rms   OT_Error      Smajor Sminor Az        Err   mdist  Mdist     Err        Err        Err      Quality

2012/09/21 21:01:53.1     43.5664    7.6832     15.0       4    2 286  Ml 1.4  1  Md 1.4  2              bulletin    283858
                                                                                                         _ldg
      0.03   +-  0.10       2.6     .8  114.62 +-  0.0    0.35   0.89   +-         +-0.2                 m i ke

NEAR SOUTH COAST OF FRANCE
Sta     Dist  EvAz     Phase      Date       Time     TRes  Azim  AzRes  Slow  SRes Def   SNR       Amp   Per   Mag1   Mag2       ID
SBF   000.35 328.9 m E Pg      2012/09/21 21:02:00.3   0.0                          T                                        5077764
SBF   000.35 328.9 m E Sg      2012/09/21 21:02:05.3   0.0                          T                4.2  .23        Md 1.5  5077763
LMR   000.89 255.2 m E Pg      2012/09/21 21:02:09.9   0.0                          T                                        5077765
LMR   000.89 255.2 m E Sg      2012/09/21 21:02:21.5   0.0                          T                  1  .27 Ml 1.4 Md 1.2  5077762

.
EVENT     283719
    Date      Time       Latitude Longitude    Depth    Ndef Nsta Gap    Mag1  N    Mag2  N    Mag3  N   Author         ID
       rms   OT_Error      Smajor Sminor Az        Err   mdist  Mdist     Err        Err        Err      Quality

2012/09/21 21:03:15.9     43.5466    7.7200      2.0       6    3 289  Ml 1.6  1  Md 1.3  2              bulletin    283819
                                                                                                         _ldg
      0.11   +-  0.22       4.3    1.8  116.16 +-  0.0    0.38   0.91   +-         +-0.3                 m i ke

NEAR SOUTH COAST OF FRANCE
Sta     Dist  EvAz     Phase      Date       Time     TRes  Azim  AzRes  Slow  SRes Def   SNR       Amp   Per   Mag1   Mag2       ID
SBF   000.38 327.0 m E Pg      2012/09/21 21:03:23.2   0.0                          T                                        5075988
SBF   000.38 327.0 m E Sg      2012/09/21 21:03:28.2  -0.1                          T               12.4  .35        Md 1.5  5075986
FRF   000.78 271.4 m E Pg      2012/09/21 21:03:30.7   0.1                          T                                        5075987
FRF   000.78 271.4 m E Sg      2012/09/21 21:03:40.9   0.1                          T                3.5  .28        Md 1.1  5075985
LMR   000.91 256.9 m E Pg      2012/09/21 21:03:32.8  -0.1                          T                                        5075990
LMR   000.91 256.9 m E Sg      2012/09/21 21:03:44.4  -0.3                          T                1.8  .26 Ml 1.6         5075989

.
