EVENT     258786
    Date      Time       Latitude Longitude    Depth    Ndef Nsta Gap    Mag1  N    Mag2  N    Mag3  N   Author         ID
       rms   OT_Error      Smajor Sminor Az        Err   mdist  Mdist     Err        Err        Err      Quality

2011/04/29 23:24:59.7     39.5734   -1.1631     10.0 f   138   13 077  Ml 3.3 16                         js067245    258786

      0.75   +-  0.07       2.0    1.0  126.52 +-  0.0    0.95   8.82   +-0.3                            m i ke

SPAIN
Sta     Dist  EvAz     Phase      Date       Time     TRes  Azim  AzRes  Slow  SRes Def   SNR       Amp   Per   Mag1   Mag2       ID
ETSF  003.35 007.6 m E Pn      2011/04/29 23:25:50.8   0.4                          T                                        4682591
ETSF  003.35 007.6 m E Pg      2011/04/29 23:26:01.2  -0.7                          T                                        4682596
ETSF  003.35 007.6 m E Sn      2011/04/29 23:26:28.5   0.6                          T                                        4682571
ETSF  003.35 007.6 m E Sg      2011/04/29 23:26:44.2  -0.9                          T               43.8  .65 Ml 3.3         4682588
SJPF  003.54 359.3 m E Pn      2011/04/29 23:25:53.4   0.6                          T                                        4682592
SJPF  003.54 359.3 m E Pg      2011/04/29 23:26:04.0  -1.3                          T                                        4682595
SJPF  003.54 359.3 m E Sn      2011/04/29 23:26:33.1   0.8                          T                                        4682572
SJPF  003.54 359.3 m E Sg      2011/04/29 23:26:49.9  -0.8                          T               21.3  .44 Ml 3.2         4682587
EPF   003.63 017.7 m E Pn      2011/04/29 23:25:54.5   0.3                          T                                        4682590
EPF   003.63 017.7 m E Pg      2011/04/29 23:26:05.3  -1.8                          T                                        4682594
EPF   003.63 017.7 m E Sn      2011/04/29 23:26:35.5   0.9                          T                                        4682570
EPF   003.63 017.7 m E Sg      2011/04/29 23:26:53.1  -0.7                          T               59.8  .42 Ml 3.7         4682589
MTLF  004.54 032.9 m E Pn      2011/04/29 23:26:06.3  -0.2                          T                                        4682585
MTLF  004.54 032.9 m E Pg      2011/04/29 23:26:22.6  -1.2                          T                                        4682593
MTLF  004.54 032.9 m E Sn      2011/04/29 23:26:57.2   1.0                          T                                        4682569
MTLF  004.54 032.9 m E Sg      2011/04/29 23:27:21.4  -0.6                          T               26.3  .60 Ml 3.4         4682586
LFF   005.55 014.1 m E Pn      2011/04/29 23:26:20.1   0.0                          T                                        4682583
LFF   005.55 014.1 m E Pg      2011/04/29 23:26:41.6  -0.6                          T                                        4682555
LFF   005.55 014.1 m E Sn      2011/04/29 23:27:20.9   0.8                          T                                        4682574
LFF   005.55 014.1 m E Sg      2011/04/29 23:27:52.7  -0.6                          T                9.8  .48 Ml 3.1         4682565
CAF   005.86 023.1 m E Pn      2011/04/29 23:26:24.7   0.2                          T                                        4682584
CAF   005.86 023.1 m E Pg      2011/04/29 23:26:47.2  -0.9                          T                                        4682556
CAF   005.86 023.1 m E Sn      2011/04/29 23:27:28.4   0.7                          T                                        4682573
CAF   005.86 023.1 m E Sg      2011/04/29 23:28:02.5  -0.7                          T               10.7  .62 Ml 3.3         4682566
LASF  005.86 038.2 m E Pn      2011/04/29 23:26:25.0   0.6                          T                                        4682579
LASF  005.86 038.2 m E Pg      2011/04/29 23:26:47.0  -1.0                          T                                        4682557
LASF  005.86 038.2 m E Sg      2011/04/29 23:28:02.4  -0.7                          T               17.8  .90 Ml 3.4         4682567
RJF   006.06 018.2 m E Pn      2011/04/29 23:26:27.9   0.7                          T                                        4682582
RJF   006.06 018.2 m E Sn      2011/04/29 23:27:33.2   0.7                          T                                        4682575
RJF   006.06 018.2 m E Sg      2011/04/29 23:28:08.8  -0.6                          T                4.8  .36 Ml 2.9         4682564
VIVF  006.83 037.5 m E Pn      2011/04/29 23:26:38.5   0.8                          T                                        4682578
VIVF  006.83 037.5 m E Sg      2011/04/29 23:28:32.6  -0.8                          T               10.7  .71 Ml 3.4         4682568
MFF   007.06 005.7 m E Pn      2011/04/29 23:26:41.5   0.7                          T                                        4682581
MFF   007.06 005.7 m E Sn      2011/04/29 23:27:57.4   0.9                          T                2.3  .55 Ml 3.1         4682576
TCF   007.15 019.1 m E Pn      2011/04/29 23:26:42.2   0.2                          T                                        4682550
TCF   007.15 019.1 m E Sg      2011/04/29 23:28:43.1  -0.5                          T                4.4  .52 Ml 3.2         4682549
BGF   007.57 021.5 m E Pn      2011/04/29 23:26:47.8   0.0                          T                                        4682554
BGF   007.57 021.5 m E Sg      2011/04/29 23:28:55.9  -0.7                          T               15.2  .55 Ml 3.8         4682552
GRR   008.82 001.3 m E Pn      2011/04/29 23:27:05.2   0.5                          T                                        4682580
GRR   008.82 001.3 m E Sn      2011/04/29 23:28:39.2   1.0                          T                 .9  .36 Ml 2.8         4682577

.
EVENT     258792
    Date      Time       Latitude Longitude    Depth    Ndef Nsta Gap    Mag1  N    Mag2  N    Mag3  N   Author         ID
       rms   OT_Error      Smajor Sminor Az        Err   mdist  Mdist     Err        Err        Err      Quality

2011/04/30 07:42:59.3     43.8990    7.7613      2.0      20    8 169  Ml 2.0  9  Md 2.1  3              js067245    258792

      0.15   +-  0.05       1.1     .8   51.35 +-  0.0    0.24   1.78   +-0.2      +-0.0                 m i ke

NEAR SOUTH COAST OF FRANCE
Sta     Dist  EvAz     Phase      Date       Time     TRes  Azim  AzRes  Slow  SRes Def   SNR       Amp   Per   Mag1   Mag2       ID
SBF   000.24 261.4 m E Pg      2011/04/30 07:43:04.2   0.1                          T                                        4682612
SBF   000.24 261.4 m E Sg      2011/04/30 07:43:07.6   0.2                          T               27.2  .24        Md 2.0  4682609
FRF   000.88 247.7 m E Pg      2011/04/30 07:43:15.9   0.1                          T                                        4682611
FRF   000.88 247.7 m E Sg      2011/04/30 07:43:27.0  -0.1                          T                4.9  .25 Ml 2.1 Md 2.1  4682608
LMR   001.07 238.6 m E Pg      2011/04/30 07:43:19.2  -0.1                          T                                        4682610
LMR   001.07 238.6 m E Sg      2011/04/30 07:43:33.1  -0.1                          T                4.4  .25 Ml 2.1 Md 2.1  4682607
MBDF  001.09 319.7 m E Pg      2011/04/30 07:43:19.5  -0.4                          T                                        4682606
MBDF  001.09 319.7 m E Sg      2011/04/30 07:43:34.2   0.1                          T                1.8  .27 Ml 1.7         4682605
PGF   001.63 145.7 m E Pn      2011/04/30 07:43:27.4   0.0                          T                                        4682598
PGF   001.63 145.7 m E Sn      2011/04/30 07:43:47.7   0.1                          T                 .9  .19 Ml 2.0         4682597
SMRF  001.58 273.5 m E Pg      2011/04/30 07:43:28.7  -0.1                          T                                        4682601
SMRF  001.58 273.5 m E Sg      2011/04/30 07:43:49.2   0.0                          T                5.5  .44 Ml 2.2         4682604
ORIF  001.69 307.7 m E Pg      2011/04/30 07:43:30.9   0.1                          T                                        4682600
ORIF  001.69 307.7 m E Sg      2011/04/30 07:43:52.9   0.3                          T                1.5  .30 Ml 1.8         4682599
LPL   001.78 336.0 m E Pg      2011/04/30 07:43:32.7   0.0                          T                                        4682602
LPL   001.78 336.0 m E Sg      2011/04/30 07:43:55.9   0.4                          T                1.7  .29 Ml 1.9         4682603

.
EVENT     258793
    Date      Time       Latitude Longitude    Depth    Ndef Nsta Gap    Mag1  N    Mag2  N    Mag3  N   Author         ID
       rms   OT_Error      Smajor Sminor Az        Err   mdist  Mdist     Err        Err        Err      Quality

2011/04/30 08:25:39.9     43.9118    7.7650      2.0      10    5 278  Ml 1.9  4  Md 1.8  3              js067245    258793

      0.16   +-  0.20       3.5    1.7  104.14 +-  0.0    0.24   1.58   +-0.2      +-0.0                 m i ke

NEAR SOUTH COAST OF FRANCE
Sta     Dist  EvAz     Phase      Date       Time     TRes  Azim  AzRes  Slow  SRes Def   SNR       Amp   Per   Mag1   Mag2       ID
SBF   000.24 258.6 m E Pg      2011/04/30 08:25:44.9   0.0                          T                                        4682622
SBF   000.24 258.6 m E Sg      2011/04/30 08:25:48.3   0.2                          T               34.3  .23        Md 1.8  4682613
FRF   000.88 247.0 m E Pg      2011/04/30 08:25:56.5   0.0                          T                                        4682621
FRF   000.88 247.0 m E Sg      2011/04/30 08:26:07.8  -0.2                          T                3.0  .18 Ml 2.0 Md 1.8  4682615
MBDF  001.08 319.2 m E Pg      2011/04/30 08:26:00.3  -0.2                          T                                        4682619
MBDF  001.08 319.2 m E Sg      2011/04/30 08:26:14.8   0.3                          T                  1  .20 Ml 1.5         4682617
LMR   001.08 238.1 m E Pg      2011/04/30 08:26:00.3   0.2                          T                                        4682620
LMR   001.08 238.1 m E Sg      2011/04/30 08:26:13.8  -0.3                          T                3.1  .20 Ml 2.1 Md 1.8  4682614
SMRF  001.58 273.1 m E Pg      2011/04/30 08:26:09.4   0.0                          T                                        4682618
SMRF  001.58 273.1 m E Sg      2011/04/30 08:26:29.9   0.0                          T                1.4  .21 Ml 1.9         4682616

.
EVENT     258794
    Date      Time       Latitude Longitude    Depth    Ndef Nsta Gap    Mag1  N    Mag2  N    Mag3  N   Author         ID
       rms   OT_Error      Smajor Sminor Az        Err   mdist  Mdist     Err        Err        Err      Quality

2011/04/30 09:37:23.8     43.9040    7.7637      2.0      20    8 170  Ml 2.1  9  Md 2.1  3              js067245    258794

      0.22   +-  0.07       1.6    1.1   51.59 +-  0.0    0.24   1.77   +-0.2      +-0.0                 m i ke

NEAR SOUTH COAST OF FRANCE
Sta     Dist  EvAz     Phase      Date       Time     TRes  Azim  AzRes  Slow  SRes Def   SNR       Amp   Per   Mag1   Mag2       ID
SBF   000.24 260.3 m E Pg      2011/04/30 09:37:28.7   0.1                          T                                        4682642
SBF   000.24 260.3 m E Sg      2011/04/30 09:37:32.0   0.1                          T               41.2  .18        Md 2.1  4682633
FRF   000.88 247.4 m E Pg      2011/04/30 09:37:40.5   0.2                          T                                        4682641
FRF   000.88 247.4 m E Sg      2011/04/30 09:37:51.4  -0.3                          T                5.9  .18 Ml 2.3 Md 2.1  4682631
MBDF  001.09 319.5 m E Pg      2011/04/30 09:37:43.9  -0.4                          T                                        4682640
MBDF  001.09 319.5 m E Sg      2011/04/30 09:37:58.6   0.2                          T                2.9  .25 Ml 1.9         4682627
LMR   001.07 238.4 m E Pg      2011/04/30 09:37:44.1   0.2                          T                                        4682636
LMR   001.07 238.4 m E Sg      2011/04/30 09:37:57.6  -0.2                          T               10.3  .24 Ml 2.5 Md 2.1  4682632
PGF   001.63 145.9 m E Pn      2011/04/30 09:37:51.8   0.0                          T                                        4682635
PGF   001.63 145.9 m E Sn      2011/04/30 09:38:12.1  -0.1                          T                2.2  .30 Ml 2.2         4682634
SMRF  001.58 273.4 m E Pg      2011/04/30 09:37:53.0  -0.3                          T                                        4682637
SMRF  001.58 273.4 m E Sg      2011/04/30 09:38:13.6  -0.1                          T                8.3  .43 Ml 2.4         4682630
ORIF  001.69 307.6 m E Pg      2011/04/30 09:37:55.4   0.1                          T                                        4682639
ORIF  001.69 307.6 m E Sg      2011/04/30 09:38:17.4   0.3                          T                2.2  .29 Ml 2.0         4682628
LPL   001.77 335.8 m E Pg      2011/04/30 09:37:57.1   0.0                          T                                        4682638
LPL   001.77 335.8 m E Sg      2011/04/30 09:38:20.3   0.4                          T                1.4  .40 Ml 1.7         4682629

.
EVENT     258795
    Date      Time       Latitude Longitude    Depth    Ndef Nsta Gap    Mag1  N    Mag2  N    Mag3  N   Author         ID
       rms   OT_Error      Smajor Sminor Az        Err   mdist  Mdist     Err        Err        Err      Quality

2011/04/30 10:06:41.6     44.2096    8.5579     10.0      54   16 082  Ml 2.7 12  Md 2.7  3              js067245    258795

      0.68   +-  0.12       2.4    2.1    9.02 +-  0.0    0.17   4.66   +-0.3      +-0.2                 m i ke

NORTHERN ITALY
Sta     Dist  EvAz     Phase      Date       Time     TRes  Azim  AzRes  Slow  SRes Def   SNR       Amp   Per   Mag1   Mag2       ID
SBF   000.88 247.2 m E Pn      2011/04/30 10:06:58.7   0.1                          T                                        4682654
SBF   000.88 247.2 m E Sg      2011/04/30 10:07:09.9   0.1                          T               77.9  .20 Ml 3.4 Md 2.6  4682650
MBDF  001.38 292.6 m E Pn      2011/04/30 10:07:05.8   0.2                          T                                        4682656
MBDF  001.38 292.6 m E Pg      2011/04/30 10:07:07.7   0.1                          T                                        4682660
MBDF  001.38 292.6 m E Sg      2011/04/30 10:07:24.8  -0.7                          T               46.9  .51 Ml 2.9 Md 2.5  4682651
FRF   001.53 245.5 m E Pn      2011/04/30 10:07:06.8  -0.5                          T                                        4682653
FRF   001.53 245.5 m E Pg      2011/04/30 10:07:09.9  -0.2                          T                                        4682657
FRF   001.53 245.5 m E Sg      2011/04/30 10:07:29.4  -0.5                          T               17.4  .28 Ml 2.9 Md 2.9  4682649
LMR   001.72 240.2 m E Pn      2011/04/30 10:07:09.1  -0.9                          T                                        4682652
LMR   001.72 240.2 m E Pg      2011/04/30 10:07:14.0   0.3                          T                                        4682674
LMR   001.72 240.2 m E Sn      2011/04/30 10:07:29.3  -1.4                          T                                        4684008
LMR   001.72 240.2 m E Sg      2011/04/30 10:07:35.9  -0.1                          T               11.3  .25 Ml 2.8         4682671
PGF   001.69 168.9 m E Pn      2011/04/30 10:07:10.4   0.7                          T                                        4682670
PGF   001.69 168.9 m E Sn      2011/04/30 10:07:30.0  -0.1                          T                4.1  .30 Ml 2.5         4682669
LPG   001.82 315.7 m E Pn      2011/04/30 10:07:11.8   0.1                          T                                        4682676
LPG   001.82 315.7 m E Pg      2011/04/30 10:07:15.6  -0.3                          T                                        4682677
LPG   001.82 315.7 m E Sg      2011/04/30 10:07:38.7  -0.7                          T                6.2  .33 Ml 2.4         4682672
LPL   001.84 315.8 m E Pn      2011/04/30 10:07:11.9   0.0                          T                                        4682666
LPL   001.84 315.8 m E Pg      2011/04/30 10:07:16.8   0.5                          T                                        4682678
LPL   001.84 315.8 m E Sg      2011/04/30 10:07:39.3  -0.7                          T                8.5  .30 Ml 2.6         4682673
ORIF  002.04 291.2 m E P       2011/04/30 10:07:16.2  -0.6                          T                                        4682655
ORIF  002.04 291.2 m E Pg      2011/04/30 10:07:19.7   0.0                          T                                        4682658
ORIF  002.04 291.2 m E Sn      2011/04/30 10:07:38.4  -0.1                          T               11.6  .34 Ml 2.7         4682648
SMRF  002.16 264.8 m E Pn      2011/04/30 10:07:16.2   0.2                          T                                        4682675
SMRF  002.16 264.8 m E Pg      2011/04/30 10:07:21.5  -0.4                          T                                        4684009
SMRF  002.16 264.8 m E Sg      2011/04/30 10:07:49.0  -0.7                          T               13.4  .36 Ml 2.8         4682647
VIVF  002.85 284.4 m E Pn      2011/04/30 10:07:25.5   0.1                          T                                        4682667
VIVF  002.85 284.4 m E Pg      2011/04/30 10:07:34.1  -0.5                          T                                        4684013
VIVF  002.85 284.4 m E Sn      2011/04/30 10:07:57.7  -0.1                          T                1.5  .23 Ml 2.2         4682668
CABF  002.97 324.9 m E P       2011/04/30 10:07:29.6  -0.4                          T                                        4684016
LASF  003.39 269.4 m E Pn      2011/04/30 10:07:32.9   0.2                          T                                        4684011
LASF  003.39 269.4 m E Pg      2011/04/30 10:07:44.7   0.3                          T                                        4684010
LASF  003.39 269.4 m E Sn      2011/04/30 10:08:10.3  -0.2                          T                                        4684012
HINF  003.80 342.4 m E P       2011/04/30 10:07:40.5  -1.3                          T                                        4684017
HAU   004.10 338.7 m E P       2011/04/30 10:07:44.7  -1.3                          T                                        4684018
AVF   004.48 307.0 m E P       2011/04/30 10:07:50.2  -1.2                          T                                        4684015
BGF   004.66 302.3 m E Pn      2011/04/30 10:07:50.8   0.8                          T                                        4684014

.
