BEGIN GSE2.0
MSG_TYPE DATA
MSG_ID 17-AUG-1110:26:26  FRA_NDC
E-MAIL
DATA_TYPE BULLETIN
Reviewed Bulletin (REB) # P2011-031  from French NDC for regional phases     PERIOD 03 AUG 2011 TO 09 AUG 2011 NP. JPS. PR.
EVENT     262110
    Date      Time       Latitude Longitude    Depth    Ndef Nsta Gap    Mag1  N    Mag2  N    Mag3  N   Author         ID
       rms   OT_Error      Smajor Sminor Az        Err   mdist  Mdist     Err        Err        Err      Quality

2011/08/03 00:45:16.8     44.2983    4.4095      7.0 f    34   16 118  Ml 1.7 17  Md 1.8  2              js067245    262110

      0.33   +-  0.06       1.0     .9  164.57 +-  0.0    0.46   3.21   +-0.2      +-0.0                 m i ke

FRANCE
Sta     Dist  EvAz     Phase      Date       Time     TRes  Azim  AzRes  Slow  SRes Def   SNR       Amp   Per   Mag1   Mag2       ID
LASF  000.46 241.0 m E Pg      2011/08/03 00:45:25.6   0.0                          T                                        4731728
LASF  000.46 241.0 m E Sg      2011/08/03 00:45:31.5  -0.1                          T               10.1  .18        Md 1.8  4731724
VIVF  000.59 018.6 m E Pg      2011/08/03 00:45:28.2   0.2                          T                                        4731727
VIVF  000.59 018.6 m E Pn      2011/08/03 00:45:29.9  -0.2                          T                                        4733266
VIVF  000.59 018.6 m E Sg      2011/08/03 00:45:36.0   0.2                          T                7.2  .18        Md 1.8  4731723
VIVF  000.59 018.6 m E Sn      2011/08/03 00:45:38.7  -0.6                          T                                        4733267
ORIF  001.22 058.9 m E Pg      2011/08/03 00:45:39.3  -0.4                          T                                        4731708
ORIF  001.22 058.9 m E Sn      2011/08/03 00:45:55.0   0.5                          T                  1  .28 Ml 1.5         4731707
MTLF  001.85 239.7 m E Pn      2011/08/03 00:45:47.3   0.1                          T                                        4731726
MTLF  001.85 239.7 m E Sg      2011/08/03 00:46:15.3   0.1                          T                 .9  .22 Ml 1.8         4731725
FRF   001.78 113.7 m E P       2011/08/03 00:45:48.4   0.1                          T                                        4731709
FRF   001.78 113.7 m E Sg      2011/08/03 00:46:12.8   0.0                          T                 .5  .22 Ml 1.5         4731711
CAF   001.79 291.4 m E Pg      2011/08/03 00:45:50.2   0.1                          T                                        4731719
CAF   001.79 291.4 m E Sg      2011/08/03 00:46:12.9  -0.3                          T                1.4  .18 Ml 2.1         4731721
LMR   001.80 121.7 m E Pg      2011/08/03 00:45:50.3   0.1                          T                                        4731710
LMR   001.80 121.7 m E Sn      2011/08/03 00:46:08.1  -0.1                          T                                        4733255
LMR   001.80 121.7 m E Sg      2011/08/03 00:46:13.4  -0.1                          T                 .9  .23 Ml 1.8         4731712
RJF   002.29 297.0 m E Pg      2011/08/03 00:45:59.6   0.3                          T                                        4731718
RJF   002.29 297.0 m E Sg      2011/08/03 00:46:29.2   0.3                          T                 .5  .17 Ml 1.4         4731720
EPF   003.21 248.2 m E Pg      2011/08/03 00:46:17.4   1.1                          T                                        4731717
EPF   003.21 248.2 m E Sg      2011/08/03 00:46:57.0  -0.7                          T                1.1  .31 Ml 2.0         4731722
SMF   002.38 350.5 m E Sg      2011/08/03 00:46:31.9   0.3                          T                 .6  .17 Ml 1.9         4733258
BGF   002.51 334.6 m E Sg      2011/08/03 00:46:35.1  -0.7                          T                1.5  .27 Ml 2.1         4733257
TCF   002.52 322.8 m E Sg      2011/08/03 00:46:36.3   0.2                          T                 .3  .23 Ml 1.5         4733259
CABF  002.60 026.5 m E Sg      2011/08/03 00:46:38.0  -0.5                          T                 .6  .22 Ml 1.8         4731714
AVF   002.60 343.8 m E Sg      2011/08/03 00:46:38.4   0.0                          T                 .2  .19 Ml 1.4         4731715
LFF   002.70 285.0 m E Sg      2011/08/03 00:46:41.6   0.1                          T                 .5  .21 Ml 1.6         4731716
LOR   003.00 352.8 m E Sg      2011/08/03 00:46:50.4  -0.4                          T                 .5  .25 Ml 1.7         4731713

.
EVENT     262111
    Date      Time       Latitude Longitude    Depth    Ndef Nsta Gap    Mag1  N    Mag2  N    Mag3  N   Author         ID
       rms   OT_Error      Smajor Sminor Az        Err   mdist  Mdist     Err        Err        Err      Quality

2011/08/03 01:01:07.1     44.2867    4.4140      5.0 f    23    9 118  Ml 1.3  7  Md 1.6  2              js067245    262111

      0.24   +-  0.06       1.5    1.0  179.45 +-  0.0    0.45   2.30   +-0.2      +-0.0                 m i ke

FRANCE
Sta     Dist  EvAz     Phase      Date       Time     TRes  Azim  AzRes  Slow  SRes Def   SNR       Amp   Per   Mag1   Mag2       ID
LASF  000.45 242.5 m E Pg      2011/08/03 01:01:15.7  -0.1                          T                                        4731738
LASF  000.45 242.5 m E Sg      2011/08/03 01:01:21.7  -0.2                          T                4.6  .19        Md 1.6  4731734
VIVF  000.60 017.9 m E Pg      2011/08/03 01:01:18.4  -0.2                          T                                        4731737
VIVF  000.60 017.9 m E Pn      2011/08/03 01:01:20.0  -0.7                          T                                        4733281
VIVF  000.60 017.9 m E Sg      2011/08/03 01:01:26.2  -0.2                          T                3.5  .19        Md 1.6  4731735
VIVF  000.60 017.9 m E Sn      2011/08/03 01:01:28.9  -1.4                          T                                        4733282
ORIF  001.22 058.4 m E Pn      2011/08/03 01:01:29.6   0.3                          T                                        4733276
ORIF  001.22 058.4 m E Sn      2011/08/03 01:01:45.1  -0.1                          T                 .4  .30 Ml 1.1         4733273
CAF   001.80 291.7 m E Pn      2011/08/03 01:01:36.8  -0.2                          T                                        4733278
CAF   001.80 291.7 m E Pg      2011/08/03 01:01:40.7   0.2                          T                                        4733279
CAF   001.80 291.7 m E Sg      2011/08/03 01:02:03.1  -0.6                          T                 .6  .18 Ml 1.7         4731732
MTLF  001.85 240.0 m E Pn      2011/08/03 01:01:37.6  -0.2                          T                                        4733280
MTLF  001.85 240.0 m E Pg      2011/08/03 01:01:41.5   0.0                          T                                        4731736
MTLF  001.85 240.0 m E Sg      2011/08/03 01:02:05.4   0.1                          T                 .5  .24 Ml 1.5         4731733
FRF   001.77 113.4 m E P       2011/08/03 01:01:38.7  -0.1                          T                                        4733275
FRF   001.77 113.4 m E Sg      2011/08/03 01:02:02.9   0.0                          T                 .2  .21 Ml 1.2         4733271
LMR   001.79 121.4 m E Pg      2011/08/03 01:01:40.5   0.1                          T                                        4733274
LMR   001.79 121.4 m E Sg      2011/08/03 01:02:03.6   0.1                          T                 .3  .21 Ml 1.3         4733270
RJF   002.30 297.3 m E Pg      2011/08/03 01:01:50.2   0.4                          T                                        4733277
RJF   002.30 297.3 m E Sn      2011/08/03 01:02:11.4   0.5                          T                                        4733269
RJF   002.30 297.3 m E Sg      2011/08/03 01:02:19.2  -0.2                          T                 .5  .26 Ml 1.2         4733268
MBDF  001.74 074.6 m E Sg      2011/08/03 01:02:01.8  -0.4                          T                 .4  .26 Ml 1.4         4733272

.
EVENT     262112
    Date      Time       Latitude Longitude    Depth    Ndef Nsta Gap    Mag1  N    Mag2  N    Mag3  N   Author         ID
       rms   OT_Error      Smajor Sminor Az        Err   mdist  Mdist     Err        Err        Err      Quality

2011/08/03 01:11:24.3     43.7746    9.1284     25.0       9    4 269  Ml 1.9  5  Md 2.3  2              js067245    262112

      0.18   +-  0.23       5.8    2.0   47.37 +-  0.0    1.23   1.95   +-0.2      +-0.2                 m i ke

CORSICA, FRANCE
Sta     Dist  EvAz     Phase      Date       Time     TRes  Azim  AzRes  Slow  SRes Def   SNR       Amp   Per   Mag1   Mag2       ID
SBF   001.23 274.7 m E Pn      2011/08/03 01:11:44.4   0.0                          T                                        4731745
SBF   001.23 274.7 m E Sn      2011/08/03 01:11:58.6  -0.4                          T                4.4  .25 Ml 2.2 Md 2.2  4731742
FRF   001.81 264.1 m E Pn      2011/08/03 01:11:52.0  -0.2                          T                                        4731747
FRF   001.81 264.1 m E Sn      2011/08/03 01:12:13.0   0.1                          T                1.3  .24 Ml 1.9 Md 2.4  4731744
LMR   001.95 257.9 m E Pn      2011/08/03 01:11:54.3   0.1                          T                                        4731746
LMR   001.95 257.9 m E Sn      2011/08/03 01:12:16.3   0.1                          T                 .8  .16 Ml 1.9         4731743
PGF   001.23 184.4 m E Sn      2011/08/03 01:11:58.7  -0.4                          T                1.1  .23 Ml 1.9         4731741

.
