EVENT     280218
    Date      Time       Latitude Longitude    Depth    Ndef Nsta Gap    Mag1  N    Mag2  N    Mag3  N   Author         ID
       rms   OT_Error      Smajor Sminor Az        Err   mdist  Mdist     Err        Err        Err      Quality

2012/07/27 21:24:15.8     47.8568    7.6403     21.1      42   11 048  Ml 2.2 10  Md 2.1  3              bulletin    280318
                                                                                                         _ldg
      0.57   +-  0.05       1.2     .9  169.17 +-  0.5    0.16   3.11   +-0.2      +-0.0                 m i ke

SWITZERLAND
Sta     Dist  EvAz     Phase      Date       Time     TRes  Azim  AzRes  Slow  SRes Def   SNR       Amp   Per   Mag1   Mag2       ID
HINF  000.53 266.0 m E Pg      2012/07/27 21:24:26.4  -0.1                          T                                        5033898
HINF  000.53 266.0 m E Sg      2012/07/27 21:24:33.7  -0.2                          T               12.7  .22        Md 2.2  5033895
CDF   000.61 336.4 m E Pg      2012/07/27 21:24:28.0   0.0                          T                                        5033896
CDF   000.61 336.4 m E Sg      2012/07/27 21:24:35.7  -0.5                          T               20.1  .20        Md 2.1  5033894
HAU   000.88 280.2 m E Pg      2012/07/27 21:24:32.1  -0.7                          T                                        5033897
HAU   000.88 280.2 m E Sg      2012/07/27 21:24:43.7  -0.8                          T               14.6  .28 Ml 2.3 Md 2.1  5033893
CABF  001.63 220.9 m E Pn      2012/07/27 21:24:42.0   0.1                          T                                        5033900
CABF  001.63 220.9 m E Pg      2012/07/27 21:24:46.5   0.0                          T                                        5041775
CABF  001.63 220.9 m E Sn      2012/07/27 21:25:00.7  -0.2                          T                                        5033899
CABF  001.63 220.9 m E Sg      2012/07/27 21:25:07.6  -0.2                          T                1.6  .26 Ml 1.9         5035333
PAGF  001.46 299.3 m E Pg      2012/07/27 21:24:43.4   0.2                          T                                        5041771
PAGF  001.46 299.3 m E Sg      2012/07/27 21:25:01.4  -0.8 118.3  0.4               T                3.1  .30 Ml 2.0         5033904
SFTF  001.78 282.2 m E Pn      2012/07/27 21:24:43.7  -0.1 118.5  18.2              T                                        5033902
SFTF  001.78 282.2 m E Sn      2012/07/27 21:25:03.5  -0.8                          T                                        5033901
SFTF  001.78 282.2 m E Sg      2012/07/27 21:25:12.9   0.7                          T                3.8  .29 Ml 2.3         5041773
MEZF  001.85 291.4 m E Pn      2012/07/27 21:24:44.8   0.2 115.0  5.6               T                                        5035332
MEZF  001.85 291.4 m E Pg      2012/07/27 21:24:49.8  -0.6                          T                                        5041774
MEZF  001.85 291.4 m E Sn      2012/07/27 21:25:05.5  -0.4 110.6  1.1               T                                        5035330
MEZF  001.85 291.4 m E Sg      2012/07/27 21:25:13.5  -0.7 112.0  2.5               T                3.6  .48 Ml 2.0         5035331
SMF   002.86 246.3 m E Pn      2012/07/27 21:24:58.3  -0.1                          T                                        5035342
SMF   002.86 246.3 m E Sn      2012/07/27 21:25:29.8  -0.2                          T                                        5035341
SMF   002.86 246.3 m E Sg      2012/07/27 21:25:45.1  -0.6                          T                2.1  .29 Ml 2.3         5035340
AVF   003.11 251.5 m E Pn      2012/07/27 21:25:01.7   0.0                          T                                        5035339
AVF   003.11 251.5 m E Sn      2012/07/27 21:25:35.7  -0.2                          T                                        5035338
AVF   003.11 251.5 m E Sg      2012/07/27 21:25:53.0  -0.4                          T                1.2  .40 Ml 1.9         5035337
LOR   002.63 258.4 m E Pg      2012/07/27 21:25:05.7   1.1  82.6  6.9               T                                        5041772
LOR   002.63 258.4 m E Sg      2012/07/27 21:25:37.9  -0.6  76.6  1.0               T                1.6  .18 Ml 2.3         5035329
SSF   002.92 255.7 m E Sg      2012/07/27 21:25:47.2  -0.3                          T                1.8  .34 Ml 2.2         5035334

.
EVENT     280219
    Date      Time       Latitude Longitude    Depth    Ndef Nsta Gap    Mag1  N    Mag2  N    Mag3  N   Author         ID
       rms   OT_Error      Smajor Sminor Az        Err   mdist  Mdist     Err        Err        Err      Quality

2012/07/27 23:12:21.9     44.2593   17.9647      2.0     236   41 020  Ml 4.6 18                         bulletin    280319
                                                                                                         _ldg
      1.64   +-  0.11       4.1    2.6   33.04 +-  0.0    0.48  25.63   +-0.3                            m i ke

NORTHWESTERN BALKAN PEN.
Sta     Dist  EvAz     Phase      Date       Time     TRes  Azim  AzRes  Slow  SRes Def   SNR       Amp   Per   Mag1   Mag2       ID
PGF   006.75 258.4 m E Pn      2012/07/27 23:14:03.1   3.4                          T                                        5033967
SBF   007.60 270.7 m E Pn      2012/07/27 23:14:12.8   1.6                          T                                        5033966
SBF   007.60 270.7 m E Sn      2012/07/27 23:15:18.8 -14.1                          T              246.0  .79 Ml 4.8         5033936
MBDF  008.02 277.2 m E Pn      2012/07/27 23:14:17.7   0.6                          T                                        5033961
MBDF  008.02 277.2 m E Sn      2012/07/27 23:15:28.8 -14.2                          T              202.8  .72 Ml 4.9         5033930
LPG   008.06 282.8 m E Pn      2012/07/27 23:14:20.4   2.6                          T                                        5033963
LPG   008.06 282.8 m E Sn      2012/07/27 23:15:29.9 -14.4                          T              226.3  .66 Ml 5.0         5033932
LPL   008.08 282.9 m E Pn      2012/07/27 23:14:20.7   2.7                          T                                        5033962
LPL   008.08 282.9 m E Sn      2012/07/27 23:15:30.4 -14.2                          T              161.5  .62 Ml 4.9         5033931
FRF   008.20 269.1 m E Pn      2012/07/27 23:14:21.3   1.9                          T                                        5033964
FRF   008.20 269.1 m E Sn      2012/07/27 23:15:33.4 -13.9                          T               88.7  .72 Ml 4.6         5033934
LMR   008.34 267.6 m E Pn      2012/07/27 23:14:23.2   1.9                          T                                        5033965
LMR   008.34 267.6 m E Sn      2012/07/27 23:15:36.5 -14.1                          T               37.3  .64 Ml 4.3         5033935
CDF   008.48 303.1 m E Pn      2012/07/27 23:14:26.1   2.8                          T                                        5033941
LANF  008.44 307.6 m E Pn      2012/07/27 23:14:26.2   3.6                          T                                        5033940
HINF  008.51 298.6 m E Pn      2012/07/27 23:14:26.2   2.6                          T                                        5033947
ORIF  008.65 278.6 m E Pn      2012/07/27 23:14:28.1   2.4                          T                                        5033913
CABF  008.68 289.9 m E Pn      2012/07/27 23:14:28.8   2.8                          T                                        5033948
SMRF  008.92 272.5 m E Pn      2012/07/27 23:14:31.6   2.4                          T                                        5033960
SMRF  008.92 272.5 m E Sn      2012/07/27 23:15:50.4 -14.0                          T               41.6  .75 Ml 4.3         5033933
HAU   008.89 299.0 m E Pn      2012/07/27 23:14:31.7   2.9                          T                                        5033946
THEF  009.19 299.8 m E Pn      2012/07/27 23:14:36.5   3.6                          T                                        5033945
VIVF  009.51 278.2 m E Pn      2012/07/27 23:14:38.6   1.3                          T                                        5033959
VIVF  009.51 278.2 m E Sn      2012/07/27 23:16:04.0 -14.6                          T               36.6  .88 Ml 4.3         5033929
PAGF  009.48 301.2 m E Pn      2012/07/27 23:14:40.9   4.1 126.3  13.9              T                                        5033942
SFTF  009.79 298.3 m E Pn      2012/07/27 23:14:44.2   3.2 116.3  7.4               T                                        5033944
MEZF  009.88 300.0 m E Pn      2012/07/27 23:14:46.2   4.0 119.5  8.8               T                                        5033943
LASF  010.14 273.9 m E Pn      2012/07/27 23:14:46.8   1.0                          T                                        5033958
LASF  010.14 273.9 m E Sn      2012/07/27 23:16:19.3 -14.3                          T               28.0  .70 Ml 4.3         5033928
SMF   010.21 288.5 m E Pn      2012/07/27 23:14:48.8   2.1                          T                                        5033953
SMF   010.21 288.5 m E Sn      2012/07/27 23:16:21.1 -14.1                          T               72.4  .68 Ml 4.8         5033925
LOR   010.31 291.9 m E Pn      2012/07/27 23:14:50.2   2.2 114.6  12.7              T                                        5033937
LOR   010.31 291.9 m E Sn      2012/07/27 23:16:24.6 -13.0                          T               48.6  .56 Ml 4.7         5033912
SSF   010.50 290.5 m E Pn      2012/07/27 23:14:53.4   2.7                          T                                        5033951
SSF   010.50 290.5 m E Sn      2012/07/27 23:16:29.3 -13.0                          T               61.6  .93 Ml 4.7         5033923
AVF   010.56 289.0 m E Pn      2012/07/27 23:14:53.9   2.3                          T                                        5033952
BGF   010.88 287.5 m E Pn      2012/07/27 23:14:58.2   2.4                          T                                        5033955
BGF   010.88 287.5 m E Sn      2012/07/27 23:16:37.2 -14.0                          T              110.3  .72 Ml 5.0         5033926
GIVF  010.68 307.8 m E Pn      2012/07/27 23:14:58.4   5.3                          T                                        5033939
HYF   011.12 291.1 m E Pn      2012/07/27 23:15:01.5   2.4                          T                                        5033954
BAIF  011.01 306.6 m E Pn      2012/07/27 23:15:02.7   5.1                          T                                        5033938
TCF   011.29 285.9 m E Pn      2012/07/27 23:15:04.0   2.5                          T                                        5033950
TCF   011.29 285.9 m E Sn      2012/07/27 23:16:47.2 -13.8                          T               37.5  .74 Ml 4.7         5033924
CAF   011.36 278.9 m E Pn      2012/07/27 23:15:04.6   2.2                          T                                        5033956
MTLF  011.42 270.9 m E Pn      2012/07/27 23:15:05.4   2.2                          T                                        5033957
MTLF  011.42 270.9 m E Sn      2012/07/27 23:16:48.3 -16.0                          T               13.6 1.05 Ml 4.0         5033927
RJF   011.74 280.9 m E Pn      2012/07/27 23:15:09.4   1.9                          T                                        5033918
LFF   012.30 279.2 m E Pn      2012/07/27 23:15:17.0   1.8                          T                                        5033917
EPF   012.83 270.6 m E Pn      2012/07/27 23:15:24.5   2.0                          T                                        5033915
LDF   013.20 295.5 m E Pn      2012/07/27 23:15:30.6   3.1                          T                                        5033949
ETSF  013.50 270.7 m E Pn      2012/07/27 23:15:33.6   1.9                          T                                        5033916
GRR   013.64 294.2 m E Pn      2012/07/27 23:15:36.4   2.9                          T                                        5033920
SJPF  013.94 272.0 m E Pn      2012/07/27 23:15:39.6   2.1                          T                                        5033914
SGMF  014.74 292.9 m E Pn      2012/07/27 23:15:51.2   2.8                          T                                        5033922
QUIF  015.10 291.4 m E Pn      2012/07/27 23:15:55.8   2.4                          T                                        5033921
ROSF  015.22 293.0 m E Pn      2012/07/27 23:15:57.7   2.7                          T                                        5033919

.
EVENT     280220
    Date      Time       Latitude Longitude    Depth    Ndef Nsta Gap    Mag1  N    Mag2  N    Mag3  N   Author         ID
       rms   OT_Error      Smajor Sminor Az        Err   mdist  Mdist     Err        Err        Err      Quality

2012/07/27 23:42:43.5     44.2996   18.0213      2.0      67   18 089  Ml 3.5  8                         bulletin    280320
                                                                                                         _ldg
      0.40   +-  0.07       2.3    1.5   20.45 +-  0.0    0.44  11.15   +-0.2                            m i ke

NORTHWESTERN BALKAN PEN.
Sta     Dist  EvAz     Phase      Date       Time     TRes  Azim  AzRes  Slow  SRes Def   SNR       Amp   Per   Mag1   Mag2       ID
PGF   006.80 258.2 m E Pn      2012/07/27 23:44:22.1   0.1                          T                                        5034263
SBF   007.64 270.4 m E Pn      2012/07/27 23:44:33.4   0.0                          T                                        5034262
SBF   007.64 270.4 m E Sn      2012/07/27 23:45:55.1  -0.3                          T               12.7  .64 Ml 3.7         5034245
MBDF  008.05 277.0 m E Pn      2012/07/27 23:44:38.7  -0.5                          T                                        5034256
MBDF  008.05 277.0 m E Sn      2012/07/27 23:46:05.4  -0.1                          T                5.8  .48 Ml 3.5         5034238
LPG   008.09 282.5 m E Pn      2012/07/27 23:44:40.0   0.2                          T                                        5034259
LPG   008.09 282.5 m E Sn      2012/07/27 23:46:06.5  -0.1                          T               11.9  .60 Ml 3.7         5034241
LPL   008.11 282.6 m E Pn      2012/07/27 23:44:40.0   0.1                          T                                        5034258
LPL   008.11 282.6 m E Sn      2012/07/27 23:46:06.2  -0.7                          T                8.8  .52 Ml 3.7         5034240
FRF   008.24 268.8 m E Pn      2012/07/27 23:44:41.8   0.3                          T                                        5034260
FRF   008.24 268.8 m E Sn      2012/07/27 23:46:09.8  -0.1                          T                3.5  .53 Ml 3.3         5034243
LMR   008.38 267.4 m E Pn      2012/07/27 23:44:43.7   0.3                          T                                        5034261
LMR   008.38 267.4 m E Sn      2012/07/27 23:46:13.1   0.0                          T                2.8  .46 Ml 3.3         5034244
HINF  008.53 298.3 m E Pn      2012/07/27 23:44:45.5   0.1                          T                                        5034251
ORIF  008.69 278.3 m E Pn      2012/07/27 23:44:48.0   0.3                          T                                        5034257
ORIF  008.69 278.3 m E Sn      2012/07/27 23:46:20.4  -0.1                          T                7.2  .58 Ml 3.6         5034239
HAU   008.91 298.7 m E Pn      2012/07/27 23:44:50.8   0.1                          T                                        5034249
SMRF  008.96 272.3 m E Pn      2012/07/27 23:44:51.6   0.2                          T                                        5034246
SMRF  008.96 272.3 m E Sn      2012/07/27 23:46:26.8  -0.1                          T                3.4  .70 Ml 3.2         5034242
VIVF  009.55 278.0 m E Pn      2012/07/27 23:44:59.4   0.1                          T                                        5034255
SMF   010.23 288.2 m E Pn      2012/07/27 23:45:08.9   0.2                          T                                        5034254
LOR   010.33 291.7 m E Pn      2012/07/27 23:45:10.2   0.2                          T                                        5034250
SSF   010.53 290.3 m E Pn      2012/07/27 23:45:12.8   0.1                          T                                        5034252
AVF   010.59 288.7 m E Pn      2012/07/27 23:45:13.5   0.1                          T                                        5034253
BGF   010.90 287.3 m E Pn      2012/07/27 23:45:17.9   0.2                          T                                        5034247
HYF   011.15 290.8 m E Pn      2012/07/27 23:45:21.2   0.2                          T                                        5034248

.
EVENT     280847
    Date      Time       Latitude Longitude    Depth    Ndef Nsta Gap    Mag1  N    Mag2  N    Mag3  N   Author         ID
       rms   OT_Error      Smajor Sminor Az        Err   mdist  Mdist     Err        Err        Err      Quality

2012/07/28 00:35:25.2     44.3154   17.9443      2.0      35    7 080  Ml 3.1  4                         bulletin    280947
                                                                                                         _ldg
      0.67   +-  0.14       5.5    3.1   26.82 +-  0.0    0.43   8.90   +-0.1                            m i ke

NORTHWESTERN BALKAN PEN.
Sta     Dist  EvAz     Phase      Date       Time     TRes  Azim  AzRes  Slow  SRes Def   SNR       Amp   Per   Mag1   Mag2       ID
SBF   007.58 270.2 m E Pn      2012/07/28 00:37:12.6  -1.7                          T                                        5041546
MBDF  008.00 276.8 m E Pn      2012/07/28 00:37:19.6  -0.5                          T                                        5041547
MBDF  008.00 276.8 m E Sn      2012/07/28 00:38:44.3  -1.6                          T                2.3  .49 Ml 3.1         5041545
LPL   008.05 282.5 m E Pn      2012/07/28 00:37:22.7   1.8                          T                                        5041530
LPL   008.05 282.5 m E Sn      2012/07/28 00:38:47.3   0.1                          T                1.4  .42 Ml 3.0         5041554
FRF   008.19 268.6 m E Pn      2012/07/28 00:37:23.7   1.1                          T                                        5041529
FRF   008.19 268.6 m E Sn      2012/07/28 00:38:50.3   0.1                          T                1.8  .42 Ml 3.1         5041553
LMR   008.33 267.2 m E Pn      2012/07/28 00:37:24.7   0.3                          T                                        5041549
LMR   008.33 267.2 m E Sn      2012/07/28 00:38:53.9   0.3                          T                4.6  .78 Ml 3.3         5041544
ORIF  008.63 278.2 m E Pn      2012/07/28 00:37:30.2   1.6                          T                                        5041550
SMRF  008.90 272.1 m E Pn      2012/07/28 00:37:32.8   0.5                          T                                        5041548

.
