EVENT     275833
    Date      Time       Latitude Longitude    Depth    Ndef Nsta Gap    Mag1  N    Mag2  N    Mag3  N   Author         ID
       rms   OT_Error      Smajor Sminor Az        Err   mdist  Mdist     Err        Err        Err      Quality

2012/05/11 01:35:45.5     40.9844   -2.8236      2.0      43    4 097  Ml 2.1  4                         bulletin    275933
                                                                                                         _ldg
      0.51   +-  0.08       2.2    1.2  121.46 +-  0.0    0.61   4.43   +-0.1                            m i ke

SPAIN
Sta     Dist  EvAz     Phase      Date       Time     TRes  Azim  AzRes  Slow  SRes Def   SNR       Amp   Per   Mag1   Mag2       ID
SJPF  002.44 028.7 m E Pn      2012/05/11 01:36:24.9   0.4                          T                                        4942848
SJPF  002.44 028.7 m E Pg      2012/05/11 01:36:31.1   0.3                          T                                        4942844
SJPF  002.44 028.7 m E Sn      2012/05/11 01:36:53.3   0.2                          T                 .9  .18 Ml 2.0         4942841
ETSF  002.55 040.7 m E Pn      2012/05/11 01:36:25.8  -0.3                          T                                        4942845
ETSF  002.55 040.7 m E Pg      2012/05/11 01:36:32.7  -0.2                          T                                        4942843
ETSF  002.55 040.7 m E Sn      2012/05/11 01:36:55.7  -0.2                          T                                        4946046
ETSF  002.55 040.7 m E Sg      2012/05/11 01:37:06.1   0.4                          T                1.7  .32 Ml 2.1         4946047
EPF   003.12 048.0 m E Pn      2012/05/11 01:36:33.4  -0.4                          T                                        4942847
EPF   003.12 048.0 m E Pg      2012/05/11 01:36:43.3  -0.1                          T                                        4942842
EPF   003.12 048.0 m E Sn      2012/05/11 01:37:10.0   0.5                          T                1.4  .22 Ml 2.3         4942849
MTLF  004.43 056.2 m E Pn      2012/05/11 01:36:51.7   0.2                          T                                        4942846
MTLF  004.43 056.2 m E Sn      2012/05/11 01:37:40.4  -0.2                          T                 .8  .36 Ml 2.1         4946045

.
EVENT     275835
    Date      Time       Latitude Longitude    Depth    Ndef Nsta Gap    Mag1  N    Mag2  N    Mag3  N   Author         ID
       rms   OT_Error      Smajor Sminor Az        Err   mdist  Mdist     Err        Err        Err      Quality

2012/05/11 04:10:24.2     44.4889    6.7165      2.0      32    8 054  Ml 2.1  6  Md 2.5  1              bulletin    275935
                                                                                                         _ldg
      0.50   +-  0.08       1.6    1.4   83.14 +-  0.0    0.07   1.50   +-0.3      +-                    m i ke

FRANCE
Sta     Dist  EvAz     Phase      Date       Time     TRes  Azim  AzRes  Slow  SRes Def   SNR       Amp   Per   Mag1   Mag2       ID
MBDF  000.24 009.3 m E Pg      2012/05/11 04:10:29.1  -0.1                          T                                        4942891
MBDF  000.24 009.3 m E Sg      2012/05/11 04:10:32.2  -0.3                          T               29.6  .38        Md 2.5  4942890
SBF   000.81 140.2 m E Pg      2012/05/11 04:10:39.7   0.2                          T                                        4942886
SBF   000.81 140.2 m E Sg      2012/05/11 04:10:49.9  -0.2                          T                4.8  .22                4942880
FRF   000.93 183.1 m E Pg      2012/05/11 04:10:41.6  -0.1                          T                                        4942888
FRF   000.93 183.1 m E Sg      2012/05/11 04:10:53.7  -0.1                          T               10.5  .26 Ml 2.4         4942881
SMRF  000.97 238.4 m E Pg      2012/05/11 04:10:42.7   0.3                          T                                        4942889
SMRF  000.97 238.4 m E Sg      2012/05/11 04:10:55.6   0.6                          T                7.2  .32 Ml 2.2         4942882
LPG   001.01 001.4 m E Pg      2012/05/11 04:10:43.3  -0.2                          T                                        4942887
LPG   001.01 001.4 m E Sg      2012/05/11 04:10:56.0  -0.6                          T                5.0  .32 Ml 2.0         4942883
LPL   001.03 000.6 m E Pg      2012/05/11 04:10:43.8   0.1                          T                                        4942893
LPL   001.03 000.6 m E Sg      2012/05/11 04:10:57.2   0.1                          T                1.7  .21 Ml 1.7         4942892
LMR   001.16 187.5 m E Pn      2012/05/11 04:10:46.6   0.8                          T                                        4942885
LMR   001.16 187.5 m E Sn      2012/05/11 04:11:01.2  -0.1                          T                5.9  .20 Ml 2.4         4942884
VIVF  001.50 284.8 m E Pn      2012/05/11 04:10:51.1   0.5                          T                                        4942879
VIVF  001.50 284.8 m E Sn      2012/05/11 04:11:09.5   0.0                          T                3.0  .34 Ml 2.0         4942878

.
EVENT     275849
    Date      Time       Latitude Longitude    Depth    Ndef Nsta Gap    Mag1  N    Mag2  N    Mag3  N   Author         ID
       rms   OT_Error      Smajor Sminor Az        Err   mdist  Mdist     Err        Err        Err      Quality

2012/05/11 04:54:01.9     43.6227    7.8011     15.0      11    6 274  Ml 1.4  3  Md 1.8  3              bulletin    275949
                                                                                                         _ldg
      0.16   +-  0.22       4.1    1.6  113.73 +-  0.0    0.36   2.02   +-0.3      +-0.1                 m i ke

NEAR SOUTH COAST OF FRANCE
Sta     Dist  EvAz     Phase      Date       Time     TRes  Azim  AzRes  Slow  SRes Def   SNR       Amp   Per   Mag1   Mag2       ID
SBF   000.36 312.3 m E Pn      2012/05/11 04:54:10.0  -0.3                          T                                        4943328
SBF   000.36 312.3 m E Sg      2012/05/11 04:54:14.5   0.1                          T                4.8  .16        Md 1.7  4943327
FRF   000.84 266.2 m E Pg      2012/05/11 04:54:18.1   0.2                          T                                        4943326
FRF   000.84 266.2 m E Sg      2012/05/11 04:54:29.0   0.0                          T                2.2  .24        Md 1.8  4943143
LMR   000.98 253.4 m E Pg      2012/05/11 04:54:20.3  -0.1                          T                                        4943089
LMR   000.98 253.4 m E Sg      2012/05/11 04:54:33.3  -0.1                          T                 .2  .13 Ml 1.1 Md 1.8  4943087
MBDF  001.33 326.5 m E Pg      2012/05/11 04:54:27.1   0.0                          T                                        4946070
MBDF  001.33 326.5 m E Sg      2012/05/11 04:54:44.1  -0.2                          T                1.8  .28 Ml 1.8         4946071
SMRF  001.65 283.1 m E P       2012/05/11 04:54:30.8  -0.1                          T                                        4943141
LPG   002.02 338.6 m E Pg      2012/05/11 04:54:40.0   0.1                          T                                        4946072
LPG   002.02 338.6 m E Sg      2012/05/11 04:55:05.9  -0.1                          T                 .3  .21 Ml 1.4         4946073

.
EVENT     275836
    Date      Time       Latitude Longitude    Depth    Ndef Nsta Gap    Mag1  N    Mag2  N    Mag3  N   Author         ID
       rms   OT_Error      Smajor Sminor Az        Err   mdist  Mdist     Err        Err        Err      Quality

2012/05/11 04:54:20.0     43.6391    7.7818     14.2      36    9 116  Ml 2.0  8  Md 2.3  4              bulletin    275936
                                                                                                         _ldg
      0.42   +-  0.09       1.6    1.5   69.77 +-  0.6    0.22   2.54   +-0.2      +-0.2                 m i ke

NEAR SOUTH COAST OF FRANCE
Sta     Dist  EvAz     Phase      Date       Time     TRes  Azim  AzRes  Slow  SRes Def   SNR       Amp   Per   Mag1   Mag2       ID
SBF   000.34 311.8 m E Pn      2012/05/11 04:54:27.7   0.0                          T                                        4942911
SBF   000.34 311.8 m E Sg      2012/05/11 04:54:32.1   0.3                          T               44.3  .16        Md 2.2  4942916
FRF   000.83 265.0 m E Pg      2012/05/11 04:54:35.8   0.1                          T                                        4942910
FRF   000.83 265.0 m E Sg      2012/05/11 04:54:46.6   0.0                          T               12.6  .18        Md 2.2  4942917
LMR   000.98 252.2 m E Pg      2012/05/11 04:54:38.1  -0.3                          T                                        4942909
LMR   000.98 252.2 m E Sg      2012/05/11 04:54:51.1  -0.1                          T                4.0  .18 Ml 2.2 Md 2.7  4942915
MBDF  001.31 326.6 m E Pn      2012/05/11 04:54:42.7   0.2                          T                                        4946052
MBDF  001.31 326.6 m E Pg      2012/05/11 04:54:44.7   0.0                          T                                        4942913
MBDF  001.31 326.6 m E Sn      2012/05/11 04:54:58.7   0.1                          T               13.7  .54 Ml 2.4         4946057
MBDF  001.31 326.6 m E Sg      2012/05/11 04:55:01.7   0.0                          T               12.9  .62 Ml 2.3 Md 2.2  4942914
PGF   001.41 140.3 m E Pn      2012/05/11 04:54:43.7  -0.1                          T                                        4942908
PGF   001.41 140.3 m E Sn      2012/05/11 04:55:01.0   0.1                          T                1.1  .21 Ml 2.0         4942912
SMRF  001.63 282.7 m E P       2012/05/11 04:54:48.4  -0.3                          T                                        4942919
SMRF  001.63 282.7 m E Sg      2012/05/11 04:55:11.7   0.0                          T                1.7  .18 Ml 2.1         4942918
LPG   002.00 338.7 m E Pn      2012/05/11 04:54:52.1   0.1                          T                                        4946050
LPG   002.00 338.7 m E Pg      2012/05/11 04:54:57.7   0.1                          T                                        4946053
LPG   002.00 338.7 m E Sg      2012/05/11 04:55:23.5   0.1                          T                 .7  .25 Ml 1.7         4946054
LPL   002.02 338.6 m E Pg      2012/05/11 04:54:57.4  -0.5                          T                                        4946048
LPL   002.02 338.6 m E Sn      2012/05/11 04:55:15.8   0.0                          T                1.1  .26 Ml 1.8         4946055
VIVF  002.54 299.6 m E Pn      2012/05/11 04:54:59.4   0.3                          T                                        4946051
VIVF  002.54 299.6 m E Sn      2012/05/11 04:55:28.2   0.2                          T                 .5  .19 Ml 1.8         4946056

.
EVENT     275864
    Date      Time       Latitude Longitude    Depth    Ndef Nsta Gap    Mag1  N    Mag2  N    Mag3  N   Author         ID
       rms   OT_Error      Smajor Sminor Az        Err   mdist  Mdist     Err        Err        Err      Quality

2012/05/11 07:38:53.2     44.2757    7.4420       .0 f    15    6 151  Ml 1.7  4  Md 1.9  2              bulletin    275964
                                                                                                         _ldg
      0.32   +-  0.12       2.8    1.5   75.79 +-  0.0    0.27   1.38   +-0.3      +-0.2                 m i km

NORTHERN ITALY
Sta     Dist  EvAz     Phase      Date       Time     TRes  Azim  AzRes  Slow  SRes Def   SNR       Amp   Per   Mag1   Mag2       ID
SBF   000.41 180.7 m E Pg      2012/05/11 07:39:00.9  -0.6                          T                                        4943535
SBF   000.41 180.7 m E Sg      2012/05/11 07:39:06.8  -0.4                          T                3.0  .18        Md 2.1  4943532
MBDF  000.66 313.5 m E Pg      2012/05/11 07:39:05.9  -0.3                          T                                        4943734
MBDF  000.66 313.5 m E Sg      2012/05/11 07:39:14.9   0.0                          T                2.1  .24        Md 1.8  4943735
FRF   000.92 219.1 m E Pg      2012/05/11 07:39:10.7   0.0                          T                                        4946076
FRF   000.92 219.1 m E Pn      2012/05/11 07:39:11.8  -0.1                          T                                        4943533
FRF   000.92 219.1 m E Sn      2012/05/11 07:39:25.3   0.1                          T                2.4  .27 Ml 1.8         4943530
LMR   001.16 216.0 m E Pg      2012/05/11 07:39:14.4  -0.7                          T                                        4943739
LMR   001.16 216.0 m E Sg      2012/05/11 07:39:30.6   0.2                          T                3.5  .23 Ml 2.1         4943738
LPG   001.32 338.4 m E Pg      2012/05/11 07:39:18.4  -0.1                          T                                        4946074
LPG   001.32 338.4 m E Sg      2012/05/11 07:39:35.2  -0.5                          T                1.4  .41 Ml 1.5         4946075
SMRF  001.38 258.1 m E Pg      2012/05/11 07:39:19.5   0.3                          T                                        4943737
SMRF  001.38 258.1 m E Sg      2012/05/11 07:39:37.9   0.6                          T                 .8  .18 Ml 1.6         4943736

.
EVENT     275878
    Date      Time       Latitude Longitude    Depth    Ndef Nsta Gap    Mag1  N    Mag2  N    Mag3  N   Author         ID
       rms   OT_Error      Smajor Sminor Az        Err   mdist  Mdist     Err        Err        Err      Quality

2012/05/11 08:17:53.0     43.5070    6.6738       .0 f    18    6 143  Ml 2.0  3  Md 2.2  2              bulletin    275978
                                                                                                         _ldg
      0.41   +-  0.20       4.3    2.5  168.56 +-  0.0    0.06   1.99   +-0.1      +-0.1                 m i km

NEAR SOUTH COAST OF FRANCE
Sta     Dist  EvAz     Phase      Date       Time     TRes  Azim  AzRes  Slow  SRes Def   SNR       Amp   Per   Mag1   Mag2       ID
FRF   000.06 339.9 m E Pg      2012/05/11 08:17:53.6  -0.8                          T                                        4943747
FRF   000.06 339.9 m E Sg      2012/05/11 08:17:54.7  -0.7                          T              470.0  .32        Md 2.1  4943746
LMR   000.21 214.8 m E Pg      2012/05/11 08:17:56.4  -1.0                          T                                        4943744
LMR   000.21 214.8 m E Sg      2012/05/11 08:17:59.6  -0.9                          T              148.7  .52        Md 2.2  4943745
SBF   000.66 056.9 m E Pg      2012/05/11 08:18:06.0   0.2                          T                                        4946089
SBF   000.66 056.9 m E Pn      2012/05/11 08:18:08.1  -0.1                          T                                        4943743
SBF   000.66 056.9 m E Sn      2012/05/11 08:18:18.1  -0.7                          T                9.8  .18                4943742
SMRF  000.92 300.9 m E Pg      2012/05/11 08:18:10.5  -0.2                          T                                        4943740
SMRF  000.92 300.9 m E Sg      2012/05/11 08:18:23.6   0.7                          T                4.1  .20 Ml 2.1         4943741
MBDF  001.22 003.3 m E Pg      2012/05/11 08:18:15.9  -0.4                          T                                        4946087
MBDF  001.22 003.3 m E Sg      2012/05/11 08:18:32.1  -0.2                          T                3.3  .29 Ml 2.0         4946088
LPG   001.99 001.6 m E Pn      2012/05/11 08:18:26.6   0.0                          T                                        4943761
LPG   001.99 001.6 m E Sn      2012/05/11 08:18:50.6  -0.4                          T                4.7  .66 Ml 2.1         4943760

.
EVENT     275868
    Date      Time       Latitude Longitude    Depth    Ndef Nsta Gap    Mag1  N    Mag2  N    Mag3  N   Author         ID
       rms   OT_Error      Smajor Sminor Az        Err   mdist  Mdist     Err        Err        Err      Quality

2012/05/11 08:37:26.7     48.7700   -1.5189 f     .0 f    16    6 199  Ml 2.4  4  Md 2.0  2              bulletin    275968
                                                                                                         _ldg
      0.23   +-  0.08    9999.9 9999.9   99.90 +-  0.0    0.58   1.39   +-0.2      +-0.1                 m i km

FRANCE
Sta     Dist  EvAz     Phase      Date       Time     TRes  Azim  AzRes  Slow  SRes Def   SNR       Amp   Per   Mag1   Mag2       ID
GRR   000.58 130.8 m E Pg      2012/05/11 08:37:37.8  -0.2                          T                                        4946096
GRR   000.58 130.8 m E Sg      2012/05/11 08:37:45.8  -0.1                          T                6.0  .25        Md 2.0  4946097
FLN   000.69 090.2 m E Pg      2012/05/11 08:37:39.6  -0.3 278.7  7.7               T                                        4943473
FLN   000.69 090.2 m E Sg      2012/05/11 08:37:48.5  -0.7 278.2  7.2               T                7.9  .34        Md 1.9  4943472
SGMF  000.86 233.6 m E Pg      2012/05/11 08:37:42.5  -0.7                          T                                        4946091
SGMF  000.86 233.6 m E Pn      2012/05/11 08:37:44.9   0.2                          T                                        4943477
SGMF  000.86 233.6 m E Sg      2012/05/11 08:37:54.7   0.1                          T               15.3  .34 Ml 2.4         4943476
LDF   000.94 100.3 m E Pg      2012/05/11 08:37:44.9   0.2                          T                                        4943481
LDF   000.94 100.3 m E Sg      2012/05/11 08:37:57.0  -0.1                          T                                        4946094
LDF   000.94 100.3 m E Sn      2012/05/11 08:37:59.3  -0.1                          T               26.2  .29 Ml 2.7         4943480
ROSF  001.24 250.2 m E Pn      2012/05/11 08:37:49.9   0.0                          T                                        4946099
ROSF  001.24 250.2 m E Pg      2012/05/11 08:37:50.2   0.0                          T                                        4946098
ROSF  001.24 250.2 m E Sg      2012/05/11 08:38:06.4  -0.1                          T                5.9  .25 Ml 2.3         4946095
QUIF  001.39 232.8 m E Pn      2012/05/11 08:37:51.8   0.0                          T                                        4943478
QUIF  001.39 232.8 m E Pg      2012/05/11 08:37:53.3   0.4                          T                                        4946090
QUIF  001.39 232.8 m E Sg      2012/05/11 08:38:11.0  -0.1                          T                6.1  .25 Ml 2.4         4943479

.
