BEGIN GSE2.0
MSG_TYPE DATA
MSG_ID 09-NOV-1209:45:15  FRA_NDC
E-MAIL
DATA_TYPE BULLETIN
Reviewed Bulletin (REB) # P2012-041  from French NDC for regional phases     PERIOD 10 OCT 2012 TO 16 OCT 2012 Cenalt JP S
EVENT     284832
    Date      Time       Latitude Longitude    Depth    Ndef Nsta Gap    Mag1  N    Mag2  N    Mag3  N   Author         ID
       rms   OT_Error      Smajor Sminor Az        Err   mdist  Mdist     Err        Err        Err      Quality

2012/10/10 00:35:37.1     44.9940    8.2354     17.0 f   105   27 084  Ml 2.4 24  Md 2.6  4              bulletin    284932
                                                                                                         _ldg
      0.85   +-  0.09       2.0    1.4   80.15 +-  0.0    0.17   7.06   +-0.3      +-0.1                 m i ke

NORTHERN ITALY
Sta     Dist  EvAz     Phase      Date       Time     TRes  Azim  AzRes  Slow  SRes Def   SNR       Amp   Per   Mag1   Mag2       ID
MBDF  001.07 256.1 m E Pn      2012/10/10 00:35:56.0  -0.1                          T                                        5093280
MBDF  001.07 256.1 m E P       2012/10/10 00:35:57.8   0.0                          T                                        5096405
MBDF  001.07 256.1 m E Sn      2012/10/10 00:36:10.0   0.3                          T               26.7  .46 Ml 2.6         5096401
MBDF  001.07 256.1 m E Sg      2012/10/10 00:36:12.4   0.7                          T               14.3  .33 Ml 2.5 Md 2.7  5093279
LPG   001.16 296.2 m E Pn      2012/10/10 00:35:58.0   0.5                          T                                        5093277
LPG   001.16 296.2 m E Sg      2012/10/10 00:36:15.2   0.6                          T                5.1  .24 Ml 2.2 Md 2.4  5093266
LPL   001.18 296.7 m E Pn      2012/10/10 00:35:58.2   0.5                          T                                        5093278
LPL   001.18 296.7 m E Sg      2012/10/10 00:36:15.3   0.2                          T                6.9  .28 Ml 2.3 Md 2.5  5093267
SBF   001.27 207.2 m E P       2012/10/10 00:36:00.2  -0.2                          T                                        5096403
SBF   001.27 207.2 m E Pg      2012/10/10 00:36:01.4   0.4                          T                                        5093276
SBF   001.27 207.2 m E Sg      2012/10/10 00:36:17.5   0.0                          T               44.6  .44 Ml 2.9 Md 2.7  5093275
ORIF  001.67 268.2 m E P       2012/10/10 00:36:06.4   0.1                          T                                        5096404
ORIF  001.67 268.2 m E Pg      2012/10/10 00:36:08.8   0.3                          T                                        5093274
ORIF  001.67 268.2 m E Sn      2012/10/10 00:36:23.9   0.0                          T                                        5093273
ORIF  001.67 268.2 m E Sg      2012/10/10 00:36:30.4   0.2                          T               19.6  .44 Ml 2.8         5093272
FRF   001.83 219.1 m E Pn      2012/10/10 00:36:06.8   0.6                          T                                        5093265
FRF   001.83 219.1 m E Pg      2012/10/10 00:36:11.5   0.2                          T                                        5093264
FRF   001.83 219.1 m E Sn      2012/10/10 00:36:27.8   0.2                          T               10.1  .40 Ml 2.6         5093263
LMR   002.07 217.4 m E Pn      2012/10/10 00:36:10.4   1.0                          T                                        5093261
LMR   002.07 217.4 m E Pg      2012/10/10 00:36:16.3   0.6                          T                                        5093260
LMR   002.07 217.4 m E Sg      2012/10/10 00:36:42.8   0.3                          T                5.0  .34 Ml 2.4         5093259
CABF  002.21 317.9 m E Pn      2012/10/10 00:36:11.4   0.0                          T                                        5093226
CABF  002.21 317.9 m E P       2012/10/10 00:36:13.9   0.0                          T                                        5096410
CABF  002.21 317.9 m E Sn      2012/10/10 00:36:39.3   2.6                          T                2.5  .30 Ml 2.2         5093225
PGF   002.51 167.0 m E Pn      2012/10/10 00:36:15.7   0.1                          T                                        5093221
PGF   002.51 167.0 m E Sn      2012/10/10 00:36:43.7  -0.1                          T                2.3  .24 Ml 2.6         5093220
VIVF  002.53 268.1 m E Pn      2012/10/10 00:36:16.2   0.4                          T                                        5093271
VIVF  002.53 268.1 m E Pg      2012/10/10 00:36:24.2  -0.1                          T                                        5093270
VIVF  002.53 268.1 m E Sn      2012/10/10 00:36:44.7   0.3                          T                1.1  .22 Ml 2.0         5093269
VIVF  002.53 268.1 m E Sg      2012/10/10 00:36:57.6   0.7                          T                  1  .32 Ml 1.8         5093268
SMRF  002.16 242.8 m E Pg      2012/10/10 00:36:17.4   0.0                          T                                        5093257
SMRF  002.16 242.8 m E Sn      2012/10/10 00:36:35.9   0.5                          T                                        5096402
SMRF  002.16 242.8 m E Sg      2012/10/10 00:36:45.7   0.5                          T                2.8  .24 Ml 2.3         5093258
HINF  002.98 341.8 m E Pn      2012/10/10 00:36:21.5  -0.4                          T                                        5093228
HINF  002.98 341.8 m E P       2012/10/10 00:36:23.8  -1.1                          T                                        5096411
HINF  002.98 341.8 m E Sn      2012/10/10 00:36:54.7  -0.4                          T                2.4  .36 Ml 2.2         5093227
LASF  003.26 255.2 m E Pn      2012/10/10 00:36:26.1   0.4                          T                                        5093252
LASF  003.26 255.2 m E Sn      2012/10/10 00:37:02.0   0.2                          T                 .9  .18 Ml 2.2         5093251
CDF   003.48 349.4 m E Pn      2012/10/10 00:36:28.7  -0.1                          T                                        5093233
CDF   003.48 349.4 m E P       2012/10/10 00:36:32.2   0.1                          T                                        5096414
CDF   003.48 349.4 m E Sn      2012/10/10 00:37:07.0  -0.2                          T                1.3  .27 Ml 2.3         5093231
SMF   003.49 299.8 m E P       2012/10/10 00:36:31.3  -0.8                          T                                        5096408
SMF   003.49 299.8 m E Sn      2012/10/10 00:37:06.8  -0.4                          T                1.5  .23 Ml 2.4         5093247
SFTF  003.90 326.7 m E Pn      2012/10/10 00:36:33.9  -0.4                          T                                        5093229
SFTF  003.90 326.7 m E P       2012/10/10 00:36:36.9  -0.9 143.1  -1.2              T                                        5096412
LOR   003.80 308.3 m E P       2012/10/10 00:36:35.2  -1.3 129.9  4.7               T                                        5096417
LOR   003.80 308.3 m E Sn      2012/10/10 00:37:14.6   0.0 116.8  -8.3              T                3.0  .24 Ml 2.7         5093236
AVF   003.85 299.5 m E P       2012/10/10 00:36:36.2  -1.0                          T                                        5096409
AVF   003.85 299.5 m E Sn      2012/10/10 00:37:16.0   0.1                          T                 .6  .18 Ml 2.1         5093245
SSF   003.89 303.8 m E P       2012/10/10 00:36:36.6  -1.2                          T                                        5096416
SSF   003.89 303.8 m E Sn      2012/10/10 00:37:17.0   0.2                          T                 .6  .19 Ml 2.2         5093234
PAGF  003.96 335.1 m E P       2012/10/10 00:36:37.7  -1.1 158.7  5.5               T                                        5096413
BGF   004.08 294.4 m E P       2012/10/10 00:36:39.4  -1.1                          T                                        5096407
BGF   004.08 294.4 m E Sn      2012/10/10 00:37:21.8   0.4                          T                3.2  .33 Ml 2.7         5093248
TCF   004.42 289.2 m E P       2012/10/10 00:36:43.9  -1.5                          T                                        5096415
MTLF  004.63 251.2 m E Pn      2012/10/10 00:36:45.0   0.6                          T                                        5093222
HYF   004.51 302.3 m E P       2012/10/10 00:36:45.3  -1.2                          T                                        5096406
HYF   004.51 302.3 m E Sn      2012/10/10 00:37:31.0  -0.5                          T                                        5093223
GIVF  005.61 336.9 m E Pn      2012/10/10 00:36:57.9   0.3                          T                                        5093230
MFF   006.08 288.3 m E Pn      2012/10/10 00:37:05.1   1.1                          T                                        5093244
FLN   007.06 305.4 m E Pn      2012/10/10 00:37:18.2   0.8 125.7  6.7               T                                        5093243

.
EVENT     284833
    Date      Time       Latitude Longitude    Depth    Ndef Nsta Gap    Mag1  N    Mag2  N    Mag3  N   Author         ID
       rms   OT_Error      Smajor Sminor Az        Err   mdist  Mdist     Err        Err        Err      Quality

2012/10/10 01:19:34.7     42.8238    -.0268      2.0       6    3 228  Ml 0.8  1  Md 1.2  2              bulletin    284933
                                                                                                         _ldg
      0.16   +-  0.08       3.0     .4  169.11 +-  0.0    0.34   0.93   +-         +-0.1                 m i ke

PYRENEES
Sta     Dist  EvAz     Phase      Date       Time     TRes  Azim  AzRes  Slow  SRes Def   SNR       Amp   Per   Mag1   Mag2       ID
EPF   000.34 052.4 m E Pg      2012/10/10 01:19:41.1  -0.2                          T                                        5093387
EPF   000.34 052.4 m E Sg      2012/10/10 01:19:45.5  -0.4                          T                 .9  .17        Md 1.2  5093386
ETSF  000.40 281.0 m E Pg      2012/10/10 01:19:42.4  -0.1                          T                                        5093388
ETSF  000.40 281.0 m E Sg      2012/10/10 01:19:47.7  -0.1                          T                1.1  .20        Md 1.3  5093385
SJPF  000.93 288.6 m E Pg      2012/10/10 01:19:52.1   0.0                          T                                        5093383
SJPF  000.93 288.6 m E Sg      2012/10/10 01:20:04.0  -0.1                          T                 .2  .21 Ml  .8         5093384

.
EVENT     284834
    Date      Time       Latitude Longitude    Depth    Ndef Nsta Gap    Mag1  N    Mag2  N    Mag3  N   Author         ID
       rms   OT_Error      Smajor Sminor Az        Err   mdist  Mdist     Err        Err        Err      Quality

2012/10/10 02:16:25.4     43.0043   -1.1990      2.0       6    3 247  Ml 1.2  1  Md 1.3  2              bulletin    284934
                                                                                                         _ldg
      0.18   +-  0.23       6.2    1.4   41.90 +-  0.0    0.11   1.13   +-         +-0.0                 m i ke

PYRENEES
Sta     Dist  EvAz     Phase      Date       Time     TRes  Azim  AzRes  Slow  SRes Def   SNR       Amp   Per   Mag1   Mag2       ID
SJPF  000.11 350.1 m E Pg      2012/10/10 02:16:27.7  -0.2                          T                                        5093394
SJPF  000.11 350.1 m E Sg      2012/10/10 02:16:29.1  -0.4                          T               10.1  .18        Md 1.3  5093393
ETSF  000.48 102.5 m E Pg      2012/10/10 02:16:34.6  -0.1                          T                                        5093392
ETSF  000.48 102.5 m E Sg      2012/10/10 02:16:41.2   0.1                          T                2.3  .34        Md 1.3  5093391
EPF   001.13 088.2 m E Pg      2012/10/10 02:16:46.7   0.1                          T                                        5093390
EPF   001.13 088.2 m E Sg      2012/10/10 02:17:01.1  -0.2                          T                 .4  .21 Ml 1.2         5093389

.
EVENT     284835
    Date      Time       Latitude Longitude    Depth    Ndef Nsta Gap    Mag1  N    Mag2  N    Mag3  N   Author         ID
       rms   OT_Error      Smajor Sminor Az        Err   mdist  Mdist     Err        Err        Err      Quality

2012/10/10 02:27:39.9     43.3016    -.8690      2.0      14    3 206  Ml 1.1  1  Md 1.1  2              bulletin    284935
                                                                                                         _ldg
      0.34   +-  0.20       4.1    1.7    2.13 +-  0.0    0.25   1.01   +-         +-0.1                 m i ke

PYRENEES
Sta     Dist  EvAz     Phase      Date       Time     TRes  Azim  AzRes  Slow  SRes Def   SNR       Amp   Per   Mag1   Mag2       ID
SJPF  000.32 234.2 m E Pg      2012/10/10 02:27:46.5   0.4                          T                                        5093400
SJPF  000.32 234.2 m E Sg      2012/10/10 02:27:50.5   0.0                          T                3.7  .22        Md 1.1  5093399
ETSF  000.46 150.5 m E Pg      2012/10/10 02:27:48.7  -0.1                          T                                        5093398
ETSF  000.46 150.5 m E Sg      2012/10/10 02:27:55.0   0.1                          T                 .4  .16        Md 1.2  5093397
EPF   000.93 106.6 m E Pg      2012/10/10 02:27:57.3   0.0                          T                                        5093395
EPF   000.93 106.6 m E Sg      2012/10/10 02:28:09.1  -0.2                          T                 .6  .27 Ml 1.1         5093396

.
EVENT     284836
    Date      Time       Latitude Longitude    Depth    Ndef Nsta Gap    Mag1  N    Mag2  N    Mag3  N   Author         ID
       rms   OT_Error      Smajor Sminor Az        Err   mdist  Mdist     Err        Err        Err      Quality

2012/10/10 02:34:25.8     43.2057   -2.1025     10.0      18    3 328  Ml 1.2  2  Md 1.5  2              bulletin    284936
                                                                                                         _ldg
      0.23   +-  0.22       5.3    3.2   20.60 +-  0.0    0.44   1.80   +-0.2      +-0.1                 m i ke

SPAIN
Sta     Dist  EvAz     Phase      Date       Time     TRes  Azim  AzRes  Slow  SRes Def   SNR       Amp   Per   Mag1   Mag2       ID
SJPF  000.65 097.9 m E Pg      2012/10/10 02:34:38.5   0.2                          T                                        5093460
SJPF  000.65 097.9 m E Pn      2012/10/10 02:34:39.6   0.0                          T                                        5093459
SJPF  000.65 097.9 m E Sg      2012/10/10 02:34:46.7  -0.1                          T                1.4  .25                5093462
SJPF  000.65 097.9 m E Sn      2012/10/10 02:34:49.4   0.1                          T                                Md 1.5  5093458
ETSF  001.17 104.7 m E Pn      2012/10/10 02:34:47.0   0.2                          T                                        5093457
ETSF  001.17 104.7 m E Pg      2012/10/10 02:34:48.1   0.2                          T                                        5093456
ETSF  001.17 104.7 m E Sn      2012/10/10 02:35:02.0   0.2                          T                                        5093455
ETSF  001.17 104.7 m E Sg      2012/10/10 02:35:03.1   0.0                          T                 .3  .17 Ml 1.1 Md 1.4  5093461
EPF   001.80 094.8 m E Pn      2012/10/10 02:34:55.5   0.2                          T                                        5093452
EPF   001.80 094.8 m E Pg      2012/10/10 02:34:59.4   0.0                          T                                        5093454
EPF   001.80 094.8 m E Sn      2012/10/10 02:35:16.8   0.0                          T                 .3  .18 Ml 1.4         5093453

.
EVENT     284837
    Date      Time       Latitude Longitude    Depth    Ndef Nsta Gap    Mag1  N    Mag2  N    Mag3  N   Author         ID
       rms   OT_Error      Smajor Sminor Az        Err   mdist  Mdist     Err        Err        Err      Quality

2012/10/10 02:35:08.2     43.1025   -2.1002     10.0      15    3 322  Ml 1.1  2  Md 1.5  2              bulletin    284937
                                                                                                         _ldg
      0.34   +-  0.38       7.3    5.9  173.14 +-  0.0    0.45   1.79   +-0.2      +-0.1                 m i ke

SPAIN
Sta     Dist  EvAz     Phase      Date       Time     TRes  Azim  AzRes  Slow  SRes Def   SNR       Amp   Per   Mag1   Mag2       ID
SJPF  000.64 088.7 m E Pg      2012/10/10 02:35:20.0  -0.4                          T                                        5093470
SJPF  000.64 088.7 m E Pn      2012/10/10 02:35:21.9   0.1                          T                                        5093469
SJPF  000.64 088.7 m E Sg      2012/10/10 02:35:28.6  -0.2                          T                 .8  .21        Md 1.4  5093468
SJPF  000.64 088.7 m E Sn      2012/10/10 02:35:31.5   0.1                          T                                        5093467
ETSF  001.15 099.7 m E Pn      2012/10/10 02:35:29.2   0.4                          T                                        5093466
ETSF  001.15 099.7 m E Sn      2012/10/10 02:35:44.2   0.6                          T                 .2  .21 Ml  .9 Md 1.6  5093465
EPF   001.79 091.5 m E Pn      2012/10/10 02:35:37.6   0.1                          T                                        5093464
EPF   001.79 091.5 m E Sn      2012/10/10 02:35:59.1   0.2                          T                 .2  .16 Ml 1.2         5093463

.
EVENT     284838
    Date      Time       Latitude Longitude    Depth    Ndef Nsta Gap    Mag1  N    Mag2  N    Mag3  N   Author         ID
       rms   OT_Error      Smajor Sminor Az        Err   mdist  Mdist     Err        Err        Err      Quality

2012/10/10 02:39:33.5     43.1190   -1.1292      2.0      14    3 164  Ml 1.0  1  Md 1.2  2              bulletin    284938
                                                                                                         _ldg
      0.23   +-  0.08       2.0    1.0    1.64 +-  0.0    0.07   1.08   +-         +-0.0                 m i ke

PYRENEES
Sta     Dist  EvAz     Phase      Date       Time     TRes  Azim  AzRes  Slow  SRes Def   SNR       Amp   Per   Mag1   Mag2       ID
SJPF  000.07 265.4 m E Pg      2012/10/10 02:39:35.2   0.0                          T                                        5093476
SJPF  000.07 265.4 m E Sg      2012/10/10 02:39:36.6   0.3                          T                5.3  .18        Md 1.2  5093475
ETSF  000.47 117.6 m E Pg      2012/10/10 02:39:41.9  -0.6                          T                                        5093474
ETSF  000.47 117.6 m E Sg      2012/10/10 02:39:48.4  -0.5                          T                1.2  .24        Md 1.2  5093473
EPF   001.08 094.2 m E Pg      2012/10/10 02:39:53.8   0.0                          T                                        5093472
EPF   001.08 094.2 m E Sg      2012/10/10 02:40:08.3   0.5                          T                 .5  .32 Ml 1.0         5093471

.
