EVENT     279507
    Date      Time       Latitude Longitude    Depth    Ndef Nsta Gap    Mag1  N    Mag2  N    Mag3  N   Author         ID
       rms   OT_Error      Smajor Sminor Az        Err   mdist  Mdist     Err        Err        Err      Quality

2012/07/13 10:41:31.8     43.8987    5.8405       .0 f    11    6 153  Ml 1.5  3  Md 1.8  1              bulletin    279607
                                                                                                         _ldg
      0.16   +-  0.06       2.0    1.0   38.38 +-  0.0    0.21   1.27   +-0.2      +-                    m i km

NEAR SOUTH COAST OF FRANCE
Sta     Dist  EvAz     Phase      Date       Time     TRes  Azim  AzRes  Slow  SRes Def   SNR       Amp   Per   Mag1   Mag2       ID
SMRF  000.21 292.1 m E Pg      2012/07/13 10:41:36.4   0.2                          T                                        5026322
SMRF  000.21 292.1 m E Sg      2012/07/13 10:41:39.4   0.2                          T               15.4  .22        Md 1.8  5026321
FRF   000.68 119.8 m E Pg      2012/07/13 10:41:44.8   0.0                          T                                        5026320
FRF   000.68 119.8 m E Sg      2012/07/13 10:41:54.2   0.4                          T                2.3  .26                5026323
LMR   000.74 139.1 m E Pn      2012/07/13 10:41:48.0  -0.1                          T                                        5026319
LMR   000.74 139.1 m E Sn      2012/07/13 10:41:59.5  -0.1                          T                4.0  .29                5026318
ORIF  001.02 001.6 m E Pg      2012/07/13 10:41:50.5  -0.8                          T                                        5026324
ORIF  001.02 001.6 m E Sg      2012/07/13 10:42:04.7   0.0                          T                1.2  .31 Ml 1.4         5026327
VIVF  001.27 319.2 m E Pn      2012/07/13 10:41:55.2  -0.1                          T                                        5029248
VIVF  001.27 319.2 m E Sg      2012/07/13 10:42:12.3  -0.2                          T                 .8  .39 Ml 1.3         5029247
MBDF  001.06 038.6 m E Sg      2012/07/13 10:42:06.2   0.1                          T                1.3  .19 Ml 1.7         5026326

.
EVENT     279508
    Date      Time       Latitude Longitude    Depth    Ndef Nsta Gap    Mag1  N    Mag2  N    Mag3  N   Author         ID
       rms   OT_Error      Smajor Sminor Az        Err   mdist  Mdist     Err        Err        Err      Quality

2012/07/13 10:42:06.4     43.6505    5.6055       .0 f     8    4 240  Ml 2.2  1  Md 1.9  3              bulletin    279608
                                                                                                         _ldg
      0.64   +-  0.76      17.7    5.8   48.84 +-  0.0    0.33   1.34   +-         +-0.0                 m i km

NEAR SOUTH COAST OF FRANCE
Sta     Dist  EvAz     Phase      Date       Time     TRes  Azim  AzRes  Slow  SRes Def   SNR       Amp   Per   Mag1   Mag2       ID
SMRF  000.33 356.2 m E Pg      2012/07/13 10:42:12.9  -0.1                          T                                        5026337
SMRF  000.33 356.2 m E Sg      2012/07/13 10:42:18.8   1.3                          T                6.8  .21        Md 1.9  5026336
FRF   000.76 096.4 m E Pg      2012/07/13 10:42:20.7  -0.3                          T                                        5026334
FRF   000.76 096.4 m E Sg      2012/07/13 10:42:31.0  -0.1                          T                3.4  .21        Md 1.9  5026335
LMR   000.73 115.4 m E Pg      2012/07/13 10:42:20.8   0.4                          T                                        5026333
LMR   000.73 115.4 m E Sg      2012/07/13 10:42:31.3   1.2                          T                4.0  .19        Md 1.9  5026332
SBF   001.34 080.3 m E Pg      2012/07/13 10:42:31.0  -0.7                          T                                        5026330
SBF   001.34 080.3 m E Sg      2012/07/13 10:42:49.9   0.5                          T                2.9  .19 Ml 2.2         5026331

.
EVENT     279533
    Date      Time       Latitude Longitude    Depth    Ndef Nsta Gap    Mag1  N    Mag2  N    Mag3  N   Author         ID
       rms   OT_Error      Smajor Sminor Az        Err   mdist  Mdist     Err        Err        Err      Quality

2012/07/13 14:19:59.2     41.3083    1.7597      5.0 f    58    9 110  Ml 2.8 10                         bulletin    279633
                                                                                                         _ldg
      0.49   +-  0.08       1.6    1.0  141.93 +-  0.0    0.12   4.14   +-0.3                            m i ke

SPAIN
Sta     Dist  EvAz     Phase      Date       Time     TRes  Azim  AzRes  Slow  SRes Def   SNR       Amp   Per   Mag1   Mag2       ID
MTLF  002.06 009.3 m E Pn      2012/07/13 14:20:32.9   0.2                          T                                        5026348
MTLF  002.06 009.3 m E P       2012/07/13 14:20:35.1   0.1                          T                                        5029282
MTLF  002.06 009.3 m E Pg      2012/07/13 14:20:37.5   0.0                          T                                        5029281
MTLF  002.06 009.3 m E Sg      2012/07/13 14:21:03.6  -0.4                          T               28.6  .38 Ml 3.1         5026353
EPF   002.02 329.0 m E Pg      2012/07/13 14:20:36.6  -0.2                          T                                        5029283
EPF   002.02 329.0 m E Sn      2012/07/13 14:20:56.2  -0.2                          T                                        5029284
EPF   002.02 329.0 m E Sg      2012/07/13 14:21:02.6  -0.2                          T               16.1  .22 Ml 3.1         5026354
ETSF  002.35 313.4 m E P       2012/07/13 14:20:39.2   0.0                          T                                        5026349
ETSF  002.35 313.4 m E Pg      2012/07/13 14:20:42.5  -0.4                          T                                        5029285
ETSF  002.35 313.4 m E Sg      2012/07/13 14:21:12.4  -0.6                          T               10.7  .29 Ml 2.9         5026352
SJPF  002.86 310.1 m E P       2012/07/13 14:20:46.3  -0.1                          T                                        5026350
SJPF  002.86 310.1 m E Pg      2012/07/13 14:20:52.2   0.0                          T                                        5029286
SJPF  002.86 310.1 m E Sg      2012/07/13 14:21:28.5  -0.5                          T                7.5  .26 Ml 2.9         5026351
LASF  003.17 028.5 m E Pn      2012/07/13 14:20:47.0  -0.8                          T                                        5029280
LASF  003.17 028.5 m E Pg      2012/07/13 14:20:57.6  -0.3                          T                                        5029279
LASF  003.17 028.5 m E Sg      2012/07/13 14:21:37.6  -1.1                          T                3.2  .29 Ml 2.5         5026357
CAF   003.62 003.4 m E Pn      2012/07/13 14:20:53.8  -0.2                          T                                        5029276
CAF   003.62 003.4 m E Pg      2012/07/13 14:21:06.1  -0.3                          T                                        5029275
CAF   003.62 003.4 m E Sg      2012/07/13 14:21:52.8   0.0                          T                6.3  .23 Ml 3.0         5026360
VIVF  004.14 030.1 m E Pn      2012/07/13 14:21:01.3   0.3                          T                                        5029278
VIVF  004.14 030.1 m E Pg      2012/07/13 14:21:15.6  -0.2                          T                                        5029277
VIVF  004.14 030.1 m E Sg      2012/07/13 14:22:08.9   0.0                          T                1.7  .26 Ml 2.5         5026356
LFF   003.71 348.7 m E Pg      2012/07/13 14:21:07.6  -0.1                          T                                        5029274
LFF   003.71 348.7 m E Sg      2012/07/13 14:21:55.3   0.0                          T                9.8  .31 Ml 2.9         5026359
RJF   004.00 357.5 m E Sg      2012/07/13 14:22:04.4  -0.1                          T                3.1  .24 Ml 2.4         5026358

.
EVENT     279598
    Date      Time       Latitude Longitude    Depth    Ndef Nsta Gap    Mag1  N    Mag2  N    Mag3  N   Author         ID
       rms   OT_Error      Smajor Sminor Az        Err   mdist  Mdist     Err        Err        Err      Quality

2012/07/13 19:49:32.5     47.2218    7.6171      5.0 f    19    5 152  Ml 1.9  4  Md 1.9  4              bulletin    279698
                                                                                                         _ldg
      0.28   +-  0.11       2.1    1.6  142.90 +-  0.0    0.07   2.56   +-0.4      +-0.1                 m i ke

SWITZERLAND
Sta     Dist  EvAz     Phase      Date       Time     TRes  Azim  AzRes  Slow  SRes Def   SNR       Amp   Per   Mag1   Mag2       ID
HINF  000.79 319.3 m E Pg      2012/07/13 19:49:47.4  -0.1                          T                                        5027330
HINF  000.79 319.3 m E Pn      2012/07/13 19:49:48.9   0.1                          T                                        5027328
HINF  000.79 319.3 m E Sg      2012/07/13 19:49:57.7  -0.1                          T                2.6  .28        Md 1.8  5027325
HINF  000.79 319.3 m E Sn      2012/07/13 19:50:00.4   0.1                          T                4.4  .20        Md 2.0  5027329
HAU   001.16 312.9 m E Pn      2012/07/13 19:49:54.2   0.3                          T                                        5027334
HAU   001.16 312.9 m E Sn      2012/07/13 19:50:09.2   0.0                          T                4.5  .23 Ml 2.0 Md 1.9  5027333
CDF   001.21 349.2 m E Pn      2012/07/13 19:49:54.3  -0.3                          T                                        5027332
CDF   001.21 349.2 m E Pg      2012/07/13 19:49:55.4   0.1                          T                                        5029288
CDF   001.21 349.2 m E Sg      2012/07/13 19:50:11.1   0.1                          T                4.6  .36 Ml 2.1 Md 2.0  5027331
THEF  001.49 313.2 m E Pn      2012/07/13 19:49:58.7   0.4                          T                                        5027327
THEF  001.49 313.2 m E Sg      2012/07/13 19:50:19.7   0.2                          T                2.4  .22 Ml 2.1         5027326
LPL   001.81 200.1 m E Pn      2012/07/13 19:50:03.0   0.0                          T                                        5027354
LPL   001.81 200.1 m E Sn      2012/07/13 19:50:24.9  -0.1                          T                 .2  .15 Ml 1.3         5027353

.
EVENT     279599
    Date      Time       Latitude Longitude    Depth    Ndef Nsta Gap    Mag1  N    Mag2  N    Mag3  N   Author         ID
       rms   OT_Error      Smajor Sminor Az        Err   mdist  Mdist     Err        Err        Err      Quality

2012/07/13 23:06:45.2     46.8034    7.2012      2.0      25    9 100  Ml 2.0  9  Md 1.8  2              bulletin    279699
                                                                                                         _ldg
      0.29   +-  0.08       1.6    1.3  134.54 +-  0.0    0.01   2.33   +-0.3      +-0.1                 m i ke

SWITZERLAND
Sta     Dist  EvAz     Phase      Date       Time     TRes  Azim  AzRes  Slow  SRes Def   SNR       Amp   Per   Mag1   Mag2       ID
CABF  000.79 256.3 m E Pg      2012/07/13 23:07:00.2   0.0                          T                                        5027349
CABF  000.79 256.3 m E Sg      2012/07/13 23:07:10.5   0.0                          T                2.0  .25        Md 1.8  5027350
HINF  001.04 347.0 m E Pg      2012/07/13 23:07:04.9   0.1                          T                                        5027352
HINF  001.04 347.0 m E Sg      2012/07/13 23:07:18.4   0.2                          T                3.9  .32 Ml 1.9         5027351
HAU   001.34 334.6 m E Pn      2012/07/13 23:07:09.2   0.0                          T                                        5027348
HAU   001.34 334.6 m E Sn      2012/07/13 23:07:26.6   0.1                          T                2.8  .27 Ml 1.8         5027347
LPL   001.33 194.4 m E Pn      2012/07/13 23:07:09.3  -0.1                          T                                        5027336
LPL   001.33 194.4 m E Sn      2012/07/13 23:07:26.4  -0.2                          T                 .4  .18 Ml 1.3 Md 1.9  5027335
CDF   001.61 001.8 m E Pn      2012/07/13 23:07:13.1   0.1                          T                                        5027344
CDF   001.61 001.8 m E Sn      2012/07/13 23:07:33.3   0.1                          T                 .7  .17 Ml 1.8         5027343
THEF  001.64 330.6 m E Pn      2012/07/13 23:07:13.6   0.2                          T                                        5027346
THEF  001.64 330.6 m E Sn      2012/07/13 23:07:33.9   0.0                          T                4.0  .25 Ml 2.3         5027345
SFTF  002.03 314.5 m E Pn      2012/07/13 23:07:18.8   0.1                          T                                        5027337
SFTF  002.03 314.5 m E Sn      2012/07/13 23:07:42.5  -0.5                          T                3.5  .30 Ml 2.3         5027338
LANF  002.22 010.3 m E Pn      2012/07/13 23:07:21.1  -0.1                          T                                        5027340
LANF  002.22 010.3 m E Sn      2012/07/13 23:07:47.4  -0.1                          T                 .9  .14 Ml 2.0         5027339
LOR   002.33 282.7 m E Pn      2012/07/13 23:07:22.8   0.0                          T                                        5027342
LOR   002.33 282.7 m E Sn      2012/07/13 23:07:50.6   0.2                          T                1.4  .21 Ml 2.1         5027341

.
EVENT     279534
    Date      Time       Latitude Longitude    Depth    Ndef Nsta Gap    Mag1  N    Mag2  N    Mag3  N   Author         ID
       rms   OT_Error      Smajor Sminor Az        Err   mdist  Mdist     Err        Err        Err      Quality

2012/07/14 06:47:47.2     44.4856    7.2713     10.0      49   11 121  Ml 2.4 11  Md 2.2  2              bulletin    279634
                                                                                                         _ldg
      0.37   +-  0.04       1.1     .6   58.82 +-  0.0    0.12   2.49   +-0.3      +-0.0                 m i ke

NORTHERN ITALY
Sta     Dist  EvAz     Phase      Date       Time     TRes  Azim  AzRes  Slow  SRes Def   SNR       Amp   Per   Mag1   Mag2       ID
MBDF  000.43 304.2 m E Pg      2012/07/14 06:47:55.7  -0.1                          T                                        5026389
MBDF  000.43 304.2 m E Sg      2012/07/14 06:48:01.6   0.1                          T               91.9  .38        Md 2.2  5026388
SBF   000.63 169.2 m E Pg      2012/07/14 06:47:59.3   0.0                          T                                        5026378
SBF   000.63 169.2 m E Sg      2012/07/14 06:48:07.6  -0.1                          T               21.0  .24        Md 2.2  5026393
FRF   001.03 206.2 m E Pg      2012/07/14 06:48:06.7   0.2                          T                                        5026381
FRF   001.03 206.2 m E Sn      2012/07/14 06:48:19.1  -0.5                          T               18.7  .24 Ml 2.8         5026394
ORIF  001.08 294.0 m E Pg      2012/07/14 06:48:07.5  -0.1                          T                                        5026387
ORIF  001.08 294.0 m E Sg      2012/07/14 06:48:20.8  -0.9                          T               16.1  .24 Ml 2.7         5026386
LPG   001.08 340.2 m E Pg      2012/07/14 06:48:07.9   0.2                          T                                        5026384
LPG   001.08 340.2 m E Sg      2012/07/14 06:48:22.2   0.5                          T               13.4  .46 Ml 2.3         5026396
LPL   001.10 339.8 m E Pg      2012/07/14 06:48:08.0  -0.1                          T                                        5026385
LPL   001.10 339.8 m E Sg      2012/07/14 06:48:22.3  -0.1                          T                7.9  .30 Ml 2.3         5026397
LMR   001.28 205.8 m E Pg      2012/07/14 06:48:11.0   0.0                          T                                        5026380
LMR   001.28 205.8 m E Sg      2012/07/14 06:48:27.6   0.0                          T               18.6  .22 Ml 2.9         5026379
SMRF  001.32 247.9 m E Pg      2012/07/14 06:48:12.4   0.5                          T                                        5026383
SMRF  001.32 247.9 m E Sg      2012/07/14 06:48:29.6   0.5                          T               19.2  .34 Ml 2.7         5026382
VIVF  001.89 282.2 m E P       2012/07/14 06:48:20.1   0.0                          T                                        5026377
VIVF  001.89 282.2 m E Sn      2012/07/14 06:48:40.5   0.2                          T                2.5  .33 Ml 2.1         5026398
VIVF  001.89 282.2 m E Sg      2012/07/14 06:48:46.8   0.0                          T                4.1  .33 Ml 2.3         5029300
PGF   002.31 146.4 m E Pn      2012/07/14 06:48:23.6   0.0                          T                                        5026392
PGF   002.31 146.4 m E Sn      2012/07/14 06:48:49.8  -0.5                          T                1.2  .24 Ml 2.2         5026391
LASF  002.49 261.7 m E Pn      2012/07/14 06:48:25.8  -0.1                          T                                        5026400
LASF  002.49 261.7 m E Sn      2012/07/14 06:48:54.5   0.0                          T                 .4  .16 Ml 1.8         5026399

.
EVENT     279536
    Date      Time       Latitude Longitude    Depth    Ndef Nsta Gap    Mag1  N    Mag2  N    Mag3  N   Author         ID
       rms   OT_Error      Smajor Sminor Az        Err   mdist  Mdist     Err        Err        Err      Quality

2012/07/14 13:44:45.1     40.2654   -3.8099     11.0 f    69    4 025  Ml 2.7  6                         bulletin    279636
                                                                                                         _ldg
      1.24   +-  0.13       2.9    2.4  135.64 +-  0.0    0.60   5.45   +-0.3                            m i ke

SPAIN
Sta     Dist  EvAz     Phase      Date       Time     TRes  Azim  AzRes  Slow  SRes Def   SNR       Amp   Per   Mag1   Mag2       ID
SJPF  003.44 033.4 m E Pn      2012/07/14 13:45:36.3  -0.4                          T                                        5026412
SJPF  003.44 033.4 m E Sn      2012/07/14 13:46:14.1  -0.9                          T                7.2  .29 Ml 2.9         5026411
SJPF  003.44 033.4 m E Sg      2012/07/14 13:46:31.5  -1.6                          T                6.3  .33 Ml 2.8         5029395
ETSF  003.59 041.8 m E Pn      2012/07/14 13:45:38.6  -0.2                          T                                        5026409
ETSF  003.59 041.8 m E Sn      2012/07/14 13:46:17.7  -0.9                          T                4.4  .28 Ml 2.8         5026410
ETSF  003.59 041.8 m E Sg      2012/07/14 13:46:36.4  -1.3                          T                4.3  .39 Ml 2.6         5026585
EPF   004.16 047.0 m E Pn      2012/07/14 13:45:46.4  -0.2                          T                                        5026587
EPF   004.16 047.0 m E Sn      2012/07/14 13:46:32.1  -0.1                          T               12.3  .46 Ml 3.1         5026586
MTLF  005.45 053.7 m E Pn      2012/07/14 13:46:04.1   0.0                          T                                        5026583
MTLF  005.45 053.7 m E Sn      2012/07/14 13:47:03.3   0.2                          T                 .4  .19 Ml 2.3         5026584

.
