EVENT     283605
    Date      Time       Latitude Longitude    Depth    Ndef Nsta Gap    Mag1  N    Mag2  N    Mag3  N   Author         ID
       rms   OT_Error      Smajor Sminor Az        Err   mdist  Mdist     Err        Err        Err      Quality

2012/09/19 19:59:43.7     43.8640    5.8477      2.0      42   10 048  Ml 2.1  8  Md 1.9  1              bulletin    283705
                                                                                                         _ldg
      0.64   +-  0.09       1.8    1.7   84.69 +-  0.0    0.14   3.08   +-0.5      +-                    m i ke

NEAR SOUTH COAST OF FRANCE
Sta     Dist  EvAz     Phase      Date       Time     TRes  Azim  AzRes  Slow  SRes Def   SNR       Amp   Per   Mag1   Mag2       ID
SMRF  000.23 299.7 m E Pg      2012/09/19 19:59:47.1  -1.1                          T                                        5074255
SMRF  000.23 299.7 m E Sg      2012/09/19 19:59:50.7  -0.6                          T               31.0  .22        Md 1.9  5074298
FRF   000.65 117.3 m E Pg      2012/09/19 19:59:55.7  -0.3                          T                                        5074254
FRF   000.65 117.3 m E Sg      2012/09/19 20:00:04.6   0.0                          T               10.5  .18                5074297
FRF   000.65 117.3 m E Sn      2012/09/19 20:00:08.5  -0.1                          T               18.5  .19                5074785
LMR   000.72 137.6 m E Pg      2012/09/19 19:59:56.8  -0.4                          T                                        5074253
LMR   000.72 137.6 m E Sg      2012/09/19 20:00:06.7   0.2                          T               19.9  .19                5074296
ORIF  001.05 001.2 m E Pg      2012/09/19 20:00:04.3   0.7                          T                                        5074304
ORIF  001.05 001.2 m E Sg      2012/09/19 20:00:16.2  -1.0                          T                                        5074301
ORIF  001.05 001.2 m E Sn      2012/09/19 20:00:17.5  -0.9                          T                2.9  .24 Ml 1.9         5074784
SBF   001.15 089.5 m E Pg      2012/09/19 20:00:04.9  -0.3                          T                                        5074252
SBF   001.15 089.5 m E Sg      2012/09/19 20:00:20.0  -0.1                          T               11.6  .19 Ml 2.7         5074295
MBDF  001.09 037.2 m E Pg      2012/09/19 20:00:05.0   0.8                          T                                        5074303
MBDF  001.09 037.2 m E Sg      2012/09/19 20:00:18.6   0.3                          T                3.8  .24 Ml 2.1         5074300
VIVF  001.30 320.1 m E Pn      2012/09/19 20:00:06.4  -0.8                          T                                        5074302
VIVF  001.30 320.1 m E Sn      2012/09/19 20:00:23.3  -0.9                          T                1.6  .22 Ml 1.8         5074783
VIVF  001.30 320.1 m E Sg      2012/09/19 20:00:24.9   0.1                          T                1.5  .25 Ml 1.7         5074305
LPG   001.76 021.2 m E Pg      2012/09/19 20:00:17.4   0.7                          T                                        5074294
PGF   002.65 118.6 m E Pn      2012/09/19 20:00:25.2  -0.6                          T                                        5074787
PGF   002.65 118.6 m E Sn      2012/09/19 20:00:55.4  -1.2                          T                4.4  .19 Ml 2.9         5074786
LPL   001.77 020.6 m E Sg      2012/09/19 20:00:38.5  -1.1                          T                1.0  .31 Ml 1.7         5074299

.
EVENT     283606
    Date      Time       Latitude Longitude    Depth    Ndef Nsta Gap    Mag1  N    Mag2  N    Mag3  N   Author         ID
       rms   OT_Error      Smajor Sminor Az        Err   mdist  Mdist     Err        Err        Err      Quality

2012/09/19 20:00:08.5     43.8826    5.8373      2.0      73   24 060  Ml 2.6 24  Md 2.9  3              bulletin    283706
                                                                                                         _ldg
      0.58   +-  0.07       1.7    1.3   32.54 +-  0.0    0.12   4.64   +-0.4      +-0.1                 m i ke

NEAR SOUTH COAST OF FRANCE
Sta     Dist  EvAz     Phase      Date       Time     TRes  Azim  AzRes  Slow  SRes Def   SNR       Amp   Per   Mag1   Mag2       ID
SMRF  000.21 296.4 m E Pg      2012/09/19 20:00:12.4  -0.5                          T   001.0                                5074293
SMRF  000.21 296.4 m E Sg      2012/09/19 20:00:15.9   0.1                          T              191.5  .20        Md 3.0  5074307
FRF   000.67 118.5 m E Pg      2012/09/19 20:00:20.8  -0.4                          T   001.0                                5074263
FRF   000.67 118.5 m E Sg      2012/09/19 20:00:29.7  -0.3                          T                                        5075788
FRF   000.67 118.5 m E Sn      2012/09/19 20:00:33.6  -0.3                          T              112.4  .20        Md 2.9  5074308
LMR   000.73 138.1 m E Pg      2012/09/19 20:00:21.9  -0.5                          T   001.0                                5074268
LMR   000.73 138.1 m E Sg      2012/09/19 20:00:31.7  -0.2                          T   001.0      132.7  .18        Md 2.9  5074269
MBDF  001.08 038.1 m E Pg      2012/09/19 20:00:28.7  -0.2                          T   001.0                                5074284
MBDF  001.08 038.1 m E Sn      2012/09/19 20:00:43.7  -0.1                          T   001.0       27.4  .26 Ml 2.9         5074285
ORIF  001.04 001.7 m E Pn      2012/09/19 20:00:28.8   0.3                          T   001.0                                5074287
ORIF  001.04 001.7 m E P       2012/09/19 20:00:30.0  -0.1                          T   001.0                                5074288
ORIF  001.04 001.7 m E Sg      2012/09/19 20:00:41.1  -0.4                          T   001.0       31.3  .36 Ml 2.8         5074290
ORIF  001.04 001.7 m E Sn      2012/09/19 20:00:42.7  -0.1                          T   001.0       29.4  .35 Ml 2.8         5074289
SBF   001.16 090.4 m E Pg      2012/09/19 20:00:30.0  -0.2                          T   001.0                                5074277
SBF   001.16 090.4 m E Sg      2012/09/19 20:00:45.1  -0.1                          T   001.0       94.6  .22 Ml 3.5         5074278
VIVF  001.28 319.8 m E Pn      2012/09/19 20:00:31.3  -0.5                          T   001.0                                5074291
VIVF  001.28 319.8 m E Sn      2012/09/19 20:00:48.4  -0.2                          T   001.0        6.6  .21 Ml 2.4         5074292
LASF  001.44 278.4 m E Pn      2012/09/19 20:00:33.1  -0.9                          T   001.0                                5074265
LASF  001.44 278.4 m E Pg      2012/09/19 20:00:35.5   0.1                          T                                        5075791
LASF  001.44 278.4 m E Sn      2012/09/19 20:00:52.0  -0.4                          T   001.0       10.8  .36 Ml 2.5         5074266
LPL   001.75 021.0 m E P       2012/09/19 20:00:40.0  -0.5                          T   001.0                                5074273
LPL   001.75 021.0 m E Pg      2012/09/19 20:00:41.4  -0.1                          T                                        5075790
LPL   001.75 021.0 m E Sg      2012/09/19 20:01:03.6  -0.5                          T   001.0        9.0  .32 Ml 2.6         5074274
LPG   001.74 021.7 m E P       2012/09/19 20:00:40.1  -0.3                          T   001.0                                5074271
LPG   001.74 021.7 m E Pg      2012/09/19 20:00:41.2  -0.1                          T                                        5075789
LPG   001.74 021.7 m E Sg      2012/09/19 20:01:03.3  -0.4                          T   001.0       13.9  .36 Ml 2.7         5074272
PGF   002.67 118.9 m E Pn      2012/09/19 20:00:50.2  -0.6                          T   001.0                                5074275
PGF   002.67 118.9 m E Sn      2012/09/19 20:01:20.5  -1.3                          T   001.0       13.2  .20 Ml 3.4         5074276
MTLF  002.68 259.6 m E Pn      2012/09/19 20:00:50.8  -0.1                          T   001.0                                5074286
MTLF  002.68 259.6 m E Sg      2012/09/19 20:01:33.6   0.7                          T                2.7  .33 Ml 2.3         5075787
CABF  002.73 003.6 m E Pn      2012/09/19 20:00:52.0   0.3                          T   001.0                                5074282
CAF   002.90 292.4 m E Pn      2012/09/19 20:00:54.1   0.3                          T   001.0                                5074258
CAF   002.90 292.4 m E Sn      2012/09/19 20:01:27.2   0.0                          T   001.0                                5074259
CAF   002.90 292.4 m E Sg      2012/09/19 20:01:39.7   0.2                          T   001.0        3.0  .34 Ml 2.3         5074260
SMF   003.10 333.7 m E Pn      2012/09/19 20:00:56.8   0.3                          T   001.0                                5074279
SMF   003.10 333.7 m E Sn      2012/09/19 20:01:31.9  -0.1                          T   001.0        1.2  .20 Ml 2.3         5074280
SMF   003.10 333.7 m E Sg      2012/09/19 20:01:45.5  -0.3                          T                1.9  .29 Ml 2.3         5075783
AVF   003.40 329.8 m E Pn      2012/09/19 20:01:01.1   0.6                          T   001.0                                5074256
AVF   003.40 329.8 m E Sg      2012/09/19 20:01:55.3   0.3                          T   001.0        2.0  .40 Ml 2.2         5074257
TCF   003.52 314.4 m E Pn      2012/09/19 20:01:03.0   0.8                          T   001.0                                5074281
CDF   004.64 011.9 m E Pn      2012/09/19 20:01:17.0  -0.6                          T   001.0                                5074261
CDF   004.64 011.9 m E Sn      2012/09/19 20:02:07.6  -1.3                          T   001.0         .5  .20 Ml 2.3         5074262
LOR   003.66 338.4 m E Sn      2012/09/19 20:01:44.1  -1.3                          T   001.0        2.4  .40 Ml 2.4         5074270
HINF  004.00 009.9 m E Sn      2012/09/19 20:01:52.2  -1.3                          T   001.0        1.2  .28 Ml 2.3         5074283
HAU   004.14 004.8 m E Sn      2012/09/19 20:01:55.7  -1.1                          T   001.0        1.9  .24 Ml 2.4         5074264
BGF   003.41 322.7 m E Sg      2012/09/19 20:01:55.8   0.4                          T                8.4  .41 Ml 2.8         5075784
LFF   003.80 287.9 m E Sg      2012/09/19 20:02:07.3  -0.4                          T   001.0        4.6  .44 Ml 2.5         5074267
EPF   004.09 259.9 m E Sg      2012/09/19 20:02:17.2   0.4                          T                1.4  .34 Ml 2.3         5075786

.
EVENT     283607
    Date      Time       Latitude Longitude    Depth    Ndef Nsta Gap    Mag1  N    Mag2  N    Mag3  N   Author         ID
       rms   OT_Error      Smajor Sminor Az        Err   mdist  Mdist     Err        Err        Err      Quality

2012/09/19 20:03:35.1     44.4903    6.7433      2.0      40    9 050  Ml 1.9  6  Md 1.9  1              bulletin    283707
                                                                                                         _ldg
      0.46   +-  0.07       1.6    1.2   69.21 +-  0.0    0.05   1.75   +-0.3      +-                    m i ke

FRANCE
Sta     Dist  EvAz     Phase      Date       Time     TRes  Azim  AzRes  Slow  SRes Def   SNR       Amp   Per   Mag1   Mag2       ID
MBDF  000.24 004.8 m E Pg      2012/09/19 20:03:39.7  -0.4                          T                                        5074324
MBDF  000.24 004.8 m E Sg      2012/09/19 20:03:43.4   0.1                          T               19.5  .22        Md 1.9  5074316
ORIF  000.75 305.1 m E Pg      2012/09/19 20:03:48.4  -1.0                          T                                        5074323
ORIF  000.75 305.1 m E Sg      2012/09/19 20:03:58.0  -1.1                          T                6.8  .24                5074315
SBF   000.80 141.3 m E Pg      2012/09/19 20:03:50.0  -0.3                          T                                        5074317
SBF   000.80 141.3 m E Sg      2012/09/19 20:04:00.9   0.2                          T                5.2  .27                5074309
FRF   000.93 184.3 m E Pg      2012/09/19 20:03:52.6   0.0                          T                                        5074319
FRF   000.93 184.3 m E Sg      2012/09/19 20:04:04.5  -0.2                          T                7.6  .20 Ml 2.4         5074313
SMRF  000.98 238.9 m E Pg      2012/09/19 20:03:53.9   0.3                          T                                        5074320
SMRF  000.98 238.9 m E Sg      2012/09/19 20:04:08.0   1.6                          T                3.7  .30 Ml 1.9         5074314
LPL   001.03 359.6 m E Pg      2012/09/19 20:03:53.9  -0.7                          T                                        5074322
LPL   001.03 359.6 m E Sg      2012/09/19 20:04:08.4   0.4                          T                2.2  .30 Ml 1.7         5074310
LPG   001.01 000.3 m E Pg      2012/09/19 20:03:53.9  -0.4                          T                                        5074321
LPG   001.01 000.3 m E Sg      2012/09/19 20:04:07.5   0.0                          T                1.5  .24 Ml 1.6         5074311
LMR   001.17 188.4 m E Pg      2012/09/19 20:03:57.0   0.0                          T                                        5074318
LMR   001.17 188.4 m E Sg      2012/09/19 20:04:13.0   1.0                          T                3.4  .18 Ml 2.2         5074312
VIVF  001.52 284.6 m E Pn      2012/09/19 20:04:01.9   0.2                          T                                        5076597
VIVF  001.52 284.6 m E Sn      2012/09/19 20:04:21.2   0.3                          T                  1  .22 Ml 1.7         5076596

.
EVENT     283608
    Date      Time       Latitude Longitude    Depth    Ndef Nsta Gap    Mag1  N    Mag2  N    Mag3  N   Author         ID
       rms   OT_Error      Smajor Sminor Az        Err   mdist  Mdist     Err        Err        Err      Quality

2012/09/19 20:17:57.7     45.0181    7.3633      2.0      14    6 218  Ml 1.5  4  Md 1.6  2              bulletin    283708
                                                                                                         _ldg
      0.23   +-  0.14       2.8    1.3   69.45 +-  0.0    0.51   1.55   +-0.3      +-0.0                 m i ke

NORTHERN ITALY
Sta     Dist  EvAz     Phase      Date       Time     TRes  Azim  AzRes  Slow  SRes Def   SNR       Amp   Per   Mag1   Mag2       ID
MBDF  000.51 235.5 m E Pg      2012/09/19 20:18:08.5   0.9                          T                                        5074330
MBDF  000.51 235.5 m E Sg      2012/09/19 20:18:15.0   0.6                          T                1.9  .23        Md 1.6  5074325
LPG   000.65 318.2 m E Pg      2012/09/19 20:18:10.4   0.2                          T                                        5074328
LPG   000.65 318.2 m E Sg      2012/09/19 20:18:18.4  -0.3                          T                1.8  .19                5074327
LPL   000.67 318.4 m E Pg      2012/09/19 20:18:10.7   0.1                          T                                        5074329
LPL   000.67 318.4 m E Sg      2012/09/19 20:18:19.2  -0.2                          T                1.5  .21        Md 1.5  5074326
ORIF  001.06 265.1 m E Pg      2012/09/19 20:18:17.3  -0.3                          T                                        5074332
ORIF  001.06 265.1 m E Sg      2012/09/19 20:18:31.4   0.0                          T                 .7  .24 Ml 1.3         5074333
SBF   001.16 177.4 m E Pg      2012/09/19 20:18:19.4   0.0                          T                                        5076599
SBF   001.16 177.4 m E Sg      2012/09/19 20:18:34.2  -0.2                          T                1.0  .17 Ml 1.7         5076598
FRF   001.55 199.7 m E Pg      2012/09/19 20:18:26.4  -0.1                          T                                        5074331
FRF   001.55 199.7 m E Sn      2012/09/19 20:18:44.2   0.3                          T                1.5  .30 Ml 1.8         5074334

.
