EVENT     286470
    Date      Time       Latitude Longitude    Depth    Ndef Nsta Gap    Mag1  N    Mag2  N    Mag3  N   Author         ID
       rms   OT_Error      Smajor Sminor Az        Err   mdist  Mdist     Err        Err        Err      Quality

2012/11/04 06:00:38.8     42.7480    1.6666      4.0 f    22    4 097  Ml 1.4  3  Md 1.6  1              bulletin    286570
                                                                                                         _ldg
      0.44   +-  0.05       1.0     .8  168.20 +-  0.0    0.34   2.08   +-0.4      +-                    m i ke

PYRENEES
Sta     Dist  EvAz     Phase      Date       Time     TRes  Azim  AzRes  Slow  SRes Def   SNR       Amp   Per   Mag1   Mag2       ID
MTLF  000.72 034.1 m E Pg      2012/11/04 06:00:52.2  -0.1                          T                                        5120364
MTLF  000.72 034.1 m E Sg      2012/11/04 06:01:01.5  -0.2                          T                1.8  .17        Md 1.6  5120365
EPF   001.01 286.6 m E Pg      2012/11/04 06:00:57.7  -0.2                          T                                        5120366
EPF   001.01 286.6 m E Sg      2012/11/04 06:01:10.7  -0.4                          T                 .4  .18 Ml 1.2         5120367
LASF  002.08 049.5 m E Pg      2012/11/04 06:01:17.8   0.3                          T                                        5120360
LASF  002.08 049.5 m E Sn      2012/11/04 06:01:37.6   0.1                          T                                        5120361
LASF  002.08 049.5 m E Sg      2012/11/04 06:01:44.4   0.3                          T                 .8  .22 Ml 1.8         5120362
ETSF  001.64 276.0 m E Sg      2012/11/04 06:01:30.8   0.1                          T                 .1  .12 Ml 1.2         5120363

.
EVENT     286221
    Date      Time       Latitude Longitude    Depth    Ndef Nsta Gap    Mag1  N    Mag2  N    Mag3  N   Author         ID
       rms   OT_Error      Smajor Sminor Az        Err   mdist  Mdist     Err        Err        Err      Quality

2012/11/04 12:00:38.1     43.9652    7.4903     10.0      27    4 074  Ml 2.2  2  Md 2.2  2              bulletin    286321
                                                                                                         _ldg
      0.26   +-  0.05        .9     .9  101.28 +-  0.0    0.05   1.45   +-1.0      +-0.2                 m i ke

NEAR SOUTH COAST OF FRANCE
Sta     Dist  EvAz     Phase      Date       Time     TRes  Azim  AzRes  Slow  SRes Def   SNR       Amp   Per   Mag1   Mag2       ID
SBF   000.11 201.3 m E Pg      2012/11/04 12:00:40.9  -0.2                          T                                        5109172
SBF   000.11 201.3 m E Sg      2012/11/04 12:00:43.4   0.3                          T               39.9  .22        Md 2.1  5109169
FRF   000.73 236.8 m E Pg      2012/11/04 12:00:51.9  -0.1                          T                                        5109171
FRF   000.73 236.8 m E Sg      2012/11/04 12:01:01.2  -0.5                          T                4.9  .20        Md 2.3  5109170
MBDF  000.92 326.1 m E Pn      2012/11/04 12:00:56.0   0.3                          T                                        5109175
MBDF  000.92 326.1 m E Sn      2012/11/04 12:01:07.9  -0.3                          T                 .9  .19 Ml 1.5         5109176
SMRF  001.38 271.1 m E Pn      2012/11/04 12:01:02.6   0.7                          T                                        5109174
SMRF  001.38 271.1 m E Sn      2012/11/04 12:01:20.2   1.1                          T              149.9 2.12 Ml 2.8         5109173

.
EVENT     286224
    Date      Time       Latitude Longitude    Depth    Ndef Nsta Gap    Mag1  N    Mag2  N    Mag3  N   Author         ID
       rms   OT_Error      Smajor Sminor Az        Err   mdist  Mdist     Err        Err        Err      Quality

2012/11/04 19:47:02.1     44.4009    3.0938      3.0 f    66   19 090  Ml 2.4 20  Md 2.4  3              bulletin    286324
                                                                                                         _ldg
      0.28   +-  0.03        .6     .6  134.44 +-  0.0    0.64   3.17   +-0.3      +-0.1                 m i ke

FRANCE
Sta     Dist  EvAz     Phase      Date       Time     TRes  Azim  AzRes  Slow  SRes Def   SNR       Amp   Per   Mag1   Mag2       ID
LASF  000.64 120.4 m E Pg      2012/11/04 19:47:14.3   0.0                          T   001.0                                5109476
LASF  000.64 120.4 m E Pn      2012/11/04 19:47:16.4  -0.2                          T                                        5109501
LASF  000.64 120.4 m E Sg      2012/11/04 19:47:22.2  -0.4                          T               20.3  .24        Md 2.3  5109525
CAF   000.90 305.9 m E Pn      2012/11/04 19:47:20.1   0.0                          T   001.0                                5109470
CAF   000.90 305.9 m E Sg      2012/11/04 19:47:31.1   0.2                          T   001.0       16.7  .26 Ml 2.6 Md 2.4  5109471
VIVF  001.22 067.5 m E Pn      2012/11/04 19:47:24.5   0.0                          T   001.0                                5109490
VIVF  001.22 067.5 m E Pg      2012/11/04 19:47:25.2   0.3                          T                                        5109526
VIVF  001.22 067.5 m E Sg      2012/11/04 19:47:40.6  -0.1                          T                8.2  .28 Ml 2.4         5109527
MTLF  001.23 211.2 m E Pn      2012/11/04 19:47:24.5  -0.1                          T                                        5109530
MTLF  001.23 211.2 m E Pg      2012/11/04 19:47:25.6   0.4                          T   001.0                                5109488
MTLF  001.23 211.2 m E Sg      2012/11/04 19:47:40.5  -0.7                          T                6.6  .16 Ml 2.5         5109524
RJF   001.44 309.4 m E Pn      2012/11/04 19:47:27.6   0.2                          T                                        5109522
RJF   001.44 309.4 m E Pg      2012/11/04 19:47:29.0   0.0                          T   001.0                                5109464
RJF   001.44 309.4 m E Sn      2012/11/04 19:47:45.8   0.0                          T   001.0                                5109465
RJF   001.44 309.4 m E Sg      2012/11/04 19:47:48.4   0.8                          T               29.5  .38 Ml 2.6 Md 2.4  5109523
LFF   001.76 288.6 m E Pn      2012/11/04 19:47:31.9   0.1                          T                                        5109529
LFF   001.76 288.6 m E Pg      2012/11/04 19:47:34.6  -0.4                          T                                        5109502
LFF   001.76 288.6 m E Sn      2012/11/04 19:47:53.5   0.1                          T   001.0       12.8  .28 Ml 2.6         5109477
LFF   001.76 288.6 m E Sg      2012/11/04 19:47:58.2   0.5                          T               11.1  .24 Ml 2.6         5109528
SMRF  001.84 102.5 m E Pn      2012/11/04 19:47:33.3   0.4                          T   001.0                                5109492
SMRF  001.84 102.5 m E Pg      2012/11/04 19:47:36.2  -0.2                          T                                        5109497
SMRF  001.84 102.5 m E Sn      2012/11/04 19:47:55.3   0.1                          T                                        5109496
SMRF  001.84 102.5 m E Sg      2012/11/04 19:47:59.8  -0.2                          T   001.0         .6  .21 Ml 1.6         5109493
BGF   002.16 355.5 m E Pn      2012/11/04 19:47:37.3   0.0                          T                                        5109520
BGF   002.16 355.5 m E Pg      2012/11/04 19:47:42.4   0.1                          T   001.0                                5109468
BGF   002.16 355.5 m E Sn      2012/11/04 19:48:03.2   0.2                          T                                        5109521
BGF   002.16 355.5 m E Sg      2012/11/04 19:48:10.1  -0.1                          T   001.0       11.8  .28 Ml 2.9         5109469
SMF   002.31 012.9 m E Pn      2012/11/04 19:47:39.4   0.2                          T                                        5109517
SMF   002.31 012.9 m E Pg      2012/11/04 19:47:45.0   0.0                          T   001.0                                5109480
SMF   002.31 012.9 m E Sn      2012/11/04 19:48:06.3  -0.2                          T                                        5109518
SMF   002.31 012.9 m E Sg      2012/11/04 19:48:14.5  -0.1                          T   001.0        5.3  .30 Ml 2.5         5109481
AVF   002.40 004.3 m E Pn      2012/11/04 19:47:40.4   0.0                          T                                        5109515
AVF   002.40 004.3 m E Pg      2012/11/04 19:47:46.4  -0.2                          T   001.0                                5109466
AVF   002.40 004.3 m E Sn      2012/11/04 19:48:08.6   0.0                          T                                        5109516
AVF   002.40 004.3 m E Sg      2012/11/04 19:48:17.2  -0.2                          T   001.0        3.4  .26 Ml 2.4         5109467
EPF   002.42 236.5 m E Pn      2012/11/04 19:47:40.6  -0.3                          T   001.0                                5109472
EPF   002.42 236.5 m E Pg      2012/11/04 19:47:47.4   0.2                          T   001.0                                5109473
EPF   002.42 236.5 m E Sn      2012/11/04 19:48:09.0  -0.2                          T   001.0                                5109474
EPF   002.42 236.5 m E Sg      2012/11/04 19:48:18.2  -0.1                          T   001.0        2.1  .21 Ml 2.3         5109475
MBDF  002.65 081.6 m E Pn      2012/11/04 19:47:44.0   0.0                          T                                        5109500
MBDF  002.65 081.6 m E Pg      2012/11/04 19:47:51.4   0.0                          T                                        5109499
MBDF  002.65 081.6 m E Sn      2012/11/04 19:48:14.6  -0.3                          T                 .4  .17 Ml 1.8         5109498
SSF   002.68 006.0 m E Pn      2012/11/04 19:47:44.5   0.2                          T                                        5109507
SSF   002.68 006.0 m E Pg      2012/11/04 19:47:52.8   1.0                          T   001.0                                5109482
SSF   002.68 006.0 m E Sn      2012/11/04 19:48:15.5   0.2                          T                                        5109506
SSF   002.68 006.0 m E Sg      2012/11/04 19:48:25.0  -1.2                          T   001.0        2.1  .29 Ml 2.3         5109483
HYF   002.89 353.8 m E Pn      2012/11/04 19:47:47.2   0.1                          T                                        5109519
HYF   002.89 353.8 m E Sn      2012/11/04 19:48:20.3   0.0                          T                                        5109503
HYF   002.89 353.8 m E Sg      2012/11/04 19:48:32.5  -0.3                          T                                        5109504
LOR   002.92 010.3 m E Pn      2012/11/04 19:47:47.7   0.1                          T                                        5109510
LOR   002.92 010.3 m E Pg      2012/11/04 19:47:56.1  -0.2 190.2  -0.6              T                                        5109509
LOR   002.92 010.3 m E Sn      2012/11/04 19:48:20.8  -0.3                          T                                        5109508
LOR   002.92 010.3 m E Sg      2012/11/04 19:48:32.5  -1.3 189.6  -1.3              T   001.0        2.5  .24 Ml 2.4         5109478
ETSF  003.05 241.7 m E Pn      2012/11/04 19:47:49.1  -0.3                          T   001.0                                5109487
ETSF  003.05 241.7 m E Pg      2012/11/04 19:47:58.5  -0.2                          T                                        5120379
ETSF  003.05 241.7 m E Sg      2012/11/04 19:48:37.9   0.1                          T                1.3  .38 Ml 2.0         5120380
CABF  003.05 042.5 m E Pn      2012/11/04 19:47:49.5   0.0                          T                                        5109511
CABF  003.05 042.5 m E Pg      2012/11/04 19:47:58.9   0.1                          T                                        5109505
CABF  003.05 042.5 m E Sg      2012/11/04 19:48:37.9  -0.1                          T   001.0        2.2  .28 Ml 2.3         5109486
MFF   003.17 315.2 m E Pn      2012/11/04 19:47:51.6   0.7                          T                                        5109512
MFF   003.17 315.2 m E Sn      2012/11/04 19:48:26.9  -0.1                          T                                        5109513
MFF   003.17 315.2 m E Sg      2012/11/04 19:48:41.5   0.0                          T   001.0         .4  .16 Ml 2.1         5109479
TCF   001.99 342.0 m E Sn      2012/11/04 19:47:58.9   0.0                          T                                        5109514
TCF   001.99 342.0 m E Sg      2012/11/04 19:48:04.4  -0.3                          T   001.0        2.1  .19 Ml 2.3         5109485

.
EVENT     286223
    Date      Time       Latitude Longitude    Depth    Ndef Nsta Gap    Mag1  N    Mag2  N    Mag3  N   Author         ID
       rms   OT_Error      Smajor Sminor Az        Err   mdist  Mdist     Err        Err        Err      Quality

2012/11/04 20:16:23.2     44.4859    6.6672      2.0      20    7 077  Ml 1.6  5  Md 1.7  2              bulletin    286323
                                                                                                         _ldg
      0.14   +-  0.04        .9     .6   93.37 +-  0.0    0.10   1.47   +-0.3      +-0.1                 m i ke

FRANCE
Sta     Dist  EvAz     Phase      Date       Time     TRes  Azim  AzRes  Slow  SRes Def   SNR       Amp   Per   Mag1   Mag2       ID
MBDF  000.25 017.1 m E Pg      2012/11/04 20:16:28.3  -0.1                          T                                        5109545
MBDF  000.25 017.1 m E Sg      2012/11/04 20:16:31.9   0.0                          T                5.1  .22        Md 1.8  5109544
SBF   000.83 138.1 m E Pg      2012/11/04 20:16:39.0   0.1                          T                                        5109538
SBF   000.83 138.1 m E Sg      2012/11/04 20:16:49.7  -0.1                          T                 .6  .16        Md 1.7  5109537
SBF   000.83 138.1 m E Sn      2012/11/04 20:16:52.8   0.2                          T                                        5109531
FRF   000.93 180.9 m E Pg      2012/11/04 20:16:40.8   0.2                          T                                        5109541
FRF   000.93 180.9 m E Pn      2012/11/04 20:16:41.6   0.0                          T                                        5109540
FRF   000.93 180.9 m E Sg      2012/11/04 20:16:52.3  -0.3                          T                4.8  .25 Ml 2.1         5109539
LPG   001.01 003.3 m E Pg      2012/11/04 20:16:42.4  -0.2                          T                                        5109542
LPG   001.01 003.3 m E Sg      2012/11/04 20:16:55.8   0.1                          T                1.5  .27 Ml 1.5         5109535
LPL   001.03 002.5 m E Pg      2012/11/04 20:16:42.8  -0.1                          T                                        5109543
LPL   001.03 002.5 m E Sg      2012/11/04 20:16:56.3   0.1                          T                  1  .24 Ml 1.4         5109534
VIVF  001.47 285.3 m E Pn      2012/11/04 20:16:49.1   0.0                          T                                        5109533
VIVF  001.47 285.3 m E Sn      2012/11/04 20:17:07.8   0.1                          T                 .4  .21 Ml 1.3         5109532
SMRF  000.94 237.4 m E Sg      2012/11/04 20:16:53.1   0.1                          T                2.2  .22 Ml 1.8         5109536

.
