BEGIN GSE2.0
MSG_TYPE DATA
MSG_ID 04-AUG-1220:15:38  FRA_NDC
E-MAIL
DATA_TYPE BULLETIN
Reviewed Bulletin (REB) # P2012-029  from French NDC for regional phases     PERIOD 18 JUL 2012 TO 24 JUL 2012 Cenalt JP S
EVENT     279694
    Date      Time       Latitude Longitude    Depth    Ndef Nsta Gap    Mag1  N    Mag2  N    Mag3  N   Author         ID
       rms   OT_Error      Smajor Sminor Az        Err   mdist  Mdist     Err        Err        Err      Quality

2012/07/18 01:36:55.6     43.0644     .0167      2.0      46    7 069  Ml 1.8  5  Md 1.9  2              bulletin    279794
                                                                                                         _ldg
      0.49   +-  0.07       1.5    1.1   15.36 +-  0.0    0.06   2.49   +-0.1      +-0.0                 m i ke

FRANCE
Sta     Dist  EvAz     Phase      Date       Time     TRes  Azim  AzRes  Slow  SRes Def   SNR       Amp   Per   Mag1   Mag2       ID
EPF   000.24 098.1 m E Pg      2012/07/18 01:37:00.2  -0.2                          T                                        5028963
EPF   000.24 098.1 m E Sg      2012/07/18 01:37:03.5  -0.2                          T               29.4  .30        Md 1.9  5028969
ETSF  000.45 248.8 m E Pg      2012/07/18 01:37:04.0  -0.3                          T                                        5028962
ETSF  000.45 248.8 m E Sg      2012/07/18 01:37:09.5  -0.9                          T                8.8  .18        Md 1.9  5028959
SJPF  000.91 273.5 m E Pg      2012/07/18 01:37:12.5  -0.2                          T                                        5028960
SJPF  000.91 273.5 m E Sg      2012/07/18 01:37:24.5   0.0                          T                                        5028958
SJPF  000.91 273.5 m E Sn      2012/07/18 01:37:26.5  -0.2                          T                2.4  .27 Ml 1.7         5029000
MTLF  001.63 079.5 m E Pn      2012/07/18 01:37:24.0   0.4                          T                                        5029001
MTLF  001.63 079.5 m E Pg      2012/07/18 01:37:26.2   0.2                          T                                        5028961
MTLF  001.63 079.5 m E Sn      2012/07/18 01:37:44.5   0.5                          T                                        5028968
MTLF  001.63 079.5 m E Sg      2012/07/18 01:37:47.3   0.3                          T                1.3  .22 Ml 1.9         5028964
LFF   001.95 015.3 m E Pn      2012/07/18 01:37:28.0   0.2                          T                                        5028999
LFF   001.95 015.3 m E Pg      2012/07/18 01:37:31.4  -0.3                          T                                        5028971
LFF   001.95 015.3 m E Sn      2012/07/18 01:37:51.3  -0.1                          T                                        5028970
LFF   001.95 015.3 m E Sg      2012/07/18 01:37:56.4  -0.4                          T                3.0  .33 Ml 2.0         5028965
RJF   002.49 025.2 m E Pg      2012/07/18 01:37:41.7   0.0                          T                                        5028972
RJF   002.49 025.2 m E Sg      2012/07/18 01:38:12.8  -0.9                          T                1.0  .20 Ml 1.7         5028967
CAF   002.38 037.8 m E Sg      2012/07/18 01:38:10.2  -0.1                          T                 .9  .29 Ml 1.8         5028966

.
EVENT     279696
    Date      Time       Latitude Longitude    Depth    Ndef Nsta Gap    Mag1  N    Mag2  N    Mag3  N   Author         ID
       rms   OT_Error      Smajor Sminor Az        Err   mdist  Mdist     Err        Err        Err      Quality

2012/07/18 03:24:35.7     46.6216     .4417      3.0 f    18    8 102  Ml 1.6  6  Md 1.6  1              bulletin    279796
                                                                                                         _ldg
      1.02   +-  0.10       2.5    1.7   35.25 +-  0.0    0.41   2.04   +-0.2      +-                    m i ke

FRANCE
Sta     Dist  EvAz     Phase      Date       Time     TRes  Azim  AzRes  Slow  SRes Def   SNR       Amp   Per   Mag1   Mag2       ID
MFF   000.41 267.5 m E Pg      2012/07/18 03:24:44.0   0.4                          T                                        5029755
MFF   000.41 267.5 m E Sg      2012/07/18 03:24:47.7  -1.2                          T                7.6  .22        Md 1.6  5029754
TCF   001.27 104.6 m E Pg      2012/07/18 03:24:59.5   0.0                          T                                        5030381
TCF   001.27 104.6 m E Sg      2012/07/18 03:25:15.9   0.0                          T                 .7  .22 Ml 1.5         5029753
BGF   001.66 091.3 m E Pn      2012/07/18 03:25:03.9  -0.1                          T                                        5029758
BGF   001.66 091.3 m E Pg      2012/07/18 03:25:06.4  -0.3                          T                                        5030380
BGF   001.66 091.3 m E Sg      2012/07/18 03:25:28.3   0.2                          T                1.8  .25 Ml 2.0         5029752
RJF   001.52 150.0 m E Pg      2012/07/18 03:25:04.1   0.1                          T                                        5029759
RJF   001.52 150.0 m E Sg      2012/07/18 03:25:23.5  -0.1                          T                1.2  .22 Ml 1.5         5029751
GRR   001.98 334.0 m E Pn      2012/07/18 03:25:08.5   0.2                          T                                        5030378
GRR   001.98 334.0 m E Pg      2012/07/18 03:25:12.3  -0.1                          T                                        5030377
GRR   001.98 334.0 m E Sg      2012/07/18 03:25:37.9   0.0                          T                 .7  .28 Ml 1.4         5030379
LDF   002.01 349.3 m E Pg      2012/07/18 03:25:13.0  -0.1                          T                                        5030375
LDF   002.01 349.3 m E Sn      2012/07/18 03:25:32.8  -0.1                          T                                        5030376
LFF   001.70 172.8 m E Sg      2012/07/18 03:25:29.0  -0.1                          T                1.3  .32 Ml 1.6         5029756
CAF   002.04 145.6 m E Sg      2012/07/18 03:25:40.4   0.4                          T                 .4  .17 Ml 1.6         5030374

.
EVENT     279695
    Date      Time       Latitude Longitude    Depth    Ndef Nsta Gap    Mag1  N    Mag2  N    Mag3  N   Author         ID
       rms   OT_Error      Smajor Sminor Az        Err   mdist  Mdist     Err        Err        Err      Quality

2012/07/18 03:43:38.3     42.8632   -7.2568     11.0 f    87   17 095  Ml 3.0 17                         bulletin    279795
                                                                                                         _ldg
      1.11   +-  0.12       2.8    1.9  121.91 +-  0.0    0.47   9.01   +-0.2                            m i ke

SPAIN
Sta     Dist  EvAz     Phase      Date       Time     TRes  Azim  AzRes  Slow  SRes Def   SNR       Amp   Per   Mag1   Mag2       ID
SJPF  004.43 084.7 m E Pn      2012/07/18 03:44:45.0   1.6                          T                                        5029182
SJPF  004.43 084.7 m E P       2012/07/18 03:44:47.6   0.4                          T                                        5029009
SJPF  004.43 084.7 m E Sn      2012/07/18 03:45:32.6   0.6                          T                                        5029180
SJPF  004.43 084.7 m E Sg      2012/07/18 03:45:57.5   0.4                          T                9.9  .51 Ml 3.0         5029172
ETSF  004.92 087.3 m E Pn      2012/07/18 03:44:51.7   1.6                          T                                        5029008
ETSF  004.92 087.3 m E Sn      2012/07/18 03:45:44.1   0.4                          T                3.4  .31 Ml 2.9         5029181
ETSF  004.92 087.3 m E Sg      2012/07/18 03:46:13.2   0.7                          T                5.2  .46 Ml 2.9         5029173
EPF   005.58 085.7 m E Pn      2012/07/18 03:45:01.2   2.2                          T                                        5029007
EPF   005.58 085.7 m E Sn      2012/07/18 03:45:59.5   0.1                          T                5.6  .53 Ml 3.0         5029178
EPF   005.58 085.7 m E Sg      2012/07/18 03:46:33.4   0.4                          T                3.8  .44 Ml 2.9         5029174
QUIF  005.82 028.3 m E Pn      2012/07/18 03:45:01.9  -0.3                          T                                        5029011
QUIF  005.82 028.3 m E Sn      2012/07/18 03:46:03.4  -1.6                          T                3.1  .24 Ml 3.2         5029017
ROSF  006.14 025.7 m E Pn      2012/07/18 03:45:06.4  -0.4                          T                                        5029013
ROSF  006.14 025.7 m E Sn      2012/07/18 03:46:11.6  -1.3                          T                1.4  .27 Ml 2.8         5029014
SGMF  006.32 029.8 m E Pn      2012/07/18 03:45:08.4  -0.7                          T                                        5029012
SGMF  006.32 029.8 m E Sn      2012/07/18 03:46:17.0   0.0                          T                1.2  .32 Ml 2.7         5029176
MFF   006.29 051.1 m E Pn      2012/07/18 03:45:08.5  -0.3                          T                                        5029010
MFF   006.29 051.1 m E Sn      2012/07/18 03:46:14.4  -2.0                          T                4.3  .32 Ml 3.5         5029016
MTLF  006.95 082.8 m E Pn      2012/07/18 03:45:18.1   0.3                          T                                        5029006
MTLF  006.95 082.8 m E Sn      2012/07/18 03:46:32.7   0.5                          T                 .7  .27 Ml 2.7         5029179
CAF   007.04 069.8 m E Pn      2012/07/18 03:45:18.9  -0.1                          T                                        5029005
CAF   007.04 069.8 m E Sn      2012/07/18 03:46:33.9  -0.5                          T                1.3  .27 Ml 3.0         5029002
CAF   007.04 069.8 m E Sg      2012/07/18 03:47:19.3   0.6                          T                1.5  .20 Ml 3.1         5029171
GRR   007.11 036.9 m E Pn      2012/07/18 03:45:19.6  -0.3                          T                                        5029183
GRR   007.11 036.9 m E Sn      2012/07/18 03:46:34.1  -1.9                          T                5.1  .40 Ml 3.2         5029015
TCF   007.58 059.9 m E Pn      2012/07/18 03:45:26.1  -0.1                          T                                        5029004
TCF   007.58 059.9 m E Sn      2012/07/18 03:46:44.1  -3.0                          T                3.1  .32 Ml 3.4         5029003
FLN   007.56 036.4 m E Pn      2012/07/18 03:45:26.2   0.2 221.5  0.3               T                                        5029185
FLN   007.56 036.4 m E Sn      2012/07/18 03:46:45.5  -1.1                          T                1.9  .41 Ml 2.9         5029175
LDF   007.60 038.6 m E Pn      2012/07/18 03:45:26.9   0.4                          T                                        5029184
LDF   007.60 038.6 m E Sn      2012/07/18 03:46:45.7  -1.9                          T                3.7  .41 Ml 3.3         5029177
AVF   008.50 058.9 m E Pn      2012/07/18 03:45:38.6  -0.2                          T                                        5029186
SSF   008.71 057.5 m E Pn      2012/07/18 03:45:42.7   1.1                          T                                        5029187
LOR   009.01 056.9 m E Pn      2012/07/18 03:45:46.6   0.8 241.2  -3.6              T                                        5029188
RJF   006.77 065.9 m E Sn      2012/07/18 03:46:27.3  -0.5                          T                2.3  .25 Ml 2.9         5029018

.
EVENT     279698
    Date      Time       Latitude Longitude    Depth    Ndef Nsta Gap    Mag1  N    Mag2  N    Mag3  N   Author         ID
       rms   OT_Error      Smajor Sminor Az        Err   mdist  Mdist     Err        Err        Err      Quality

2012/07/18 06:33:04.4     47.8185    5.8798       .0 f    18    9 083  Ml 2.2  4  Md 2.2  3              bulletin    279798
                                                                                                         _ldg
      0.55   +-  0.05       1.2     .9  142.48 +-  0.0    0.37   1.82   +-0.0      +-0.1                 m i km

FRANCE
Sta     Dist  EvAz     Phase      Date       Time     TRes  Azim  AzRes  Slow  SRes Def   SNR       Amp   Per   Mag1   Mag2       ID
HAU   000.37 059.1 m E Pg      2012/07/18 06:33:11.5  -0.3                          T                                        5029159
HAU   000.37 059.1 m E Sg      2012/07/18 06:33:16.8   0.0                          T               65.7  .74        Md 2.2  5029154
THEF  000.42 010.5 m E Pg      2012/07/18 06:33:12.4  -0.3                          T                                        5029158
THEF  000.42 010.5 m E Sg      2012/07/18 06:33:18.6   0.1                          T              104.9  .97        Md 2.3  5029155
HINF  000.66 089.8 m E Pg      2012/07/18 06:33:17.2   0.0                          T                                        5029157
HINF  000.66 089.8 m E Sg      2012/07/18 06:33:26.0   0.0                          T               51.1 1.04        Md 2.0  5029153
SFTF  000.68 304.7 m E Pg      2012/07/18 06:33:17.7   0.1 125.8  1.7               T                                        5030384
SFTF  000.68 304.7 m E Sg      2012/07/18 06:33:27.2   0.5 125.4  1.4               T                9.1  .32                5030385
PAGF  000.74 352.1 m E Pg      2012/07/18 06:33:18.7   0.0                          T                                        5030386
PAGF  000.74 352.1 m E Sn      2012/07/18 06:33:32.4   0.1 177.5  5.6               T               13.1  .45                5030387
CDF   001.11 057.1 m E Pg      2012/07/18 06:33:25.9   0.4                          T                                        5029162
CDF   001.11 057.1 m E Sg      2012/07/18 06:33:40.2   0.1                          T                4.6  .29 Ml 2.2         5029163
CABF  001.22 173.2 m E Pg      2012/07/18 06:33:27.6   0.1                          T                                        5029156
CABF  001.22 173.2 m E Sg      2012/07/18 06:33:43.5   0.0                          T               10.0  .48 Ml 2.2         5029164
LOR   001.48 248.8 m E Pg      2012/07/18 06:33:32.2   0.0  68.0  0.6               T                                        5029161
LOR   001.48 248.8 m E Sg      2012/07/18 06:33:51.4  -0.1  73.2  5.8               T                6.3  .40 Ml 2.2         5029160
SMF   001.82 230.6 m E Pg      2012/07/18 06:33:38.5   0.0                          T                                        5030382
SMF   001.82 230.6 m E Sg      2012/07/18 06:34:02.3   0.1                          T                5.7  .44 Ml 2.3         5030383

.
EVENT     279734
    Date      Time       Latitude Longitude    Depth    Ndef Nsta Gap    Mag1  N    Mag2  N    Mag3  N   Author         ID
       rms   OT_Error      Smajor Sminor Az        Err   mdist  Mdist     Err        Err        Err      Quality

2012/07/18 09:58:00.7     45.5054    2.7398       .0 f    22    9 081  Ml 2.4  8  Md 2.1  2              bulletin    279834
                                                                                                         _ldg
      0.35   +-  0.08       2.1    1.3  117.96 +-  0.0    0.61   2.20   +-0.4      +-0.0                 m i km

FRANCE
Sta     Dist  EvAz     Phase      Date       Time     TRes  Azim  AzRes  Slow  SRes Def   SNR       Amp   Per   Mag1   Mag2       ID
CAF   000.75 219.7 m E Pg      2012/07/18 09:58:15.0  -0.2                          T                                        5030049
CAF   000.75 219.7 m E Pn      2012/07/18 09:58:17.3   0.2                          T                                        5029307
CAF   000.75 219.7 m E Sg      2012/07/18 09:58:25.5   0.3                          T               22.9  .18        Md 2.1  5029310
TCF   000.87 334.9 m E Pg      2012/07/18 09:58:17.2  -0.1                          T                                        5029317
TCF   000.87 334.9 m E Sg      2012/07/18 09:58:29.1   0.4                          T               33.1  .37 Ml 2.7         5029313
RJF   000.89 257.3 m E Pg      2012/07/18 09:58:17.4  -0.2                          T                                        5030048
RJF   000.89 257.3 m E Pn      2012/07/18 09:58:18.9   0.0                          T                                        5029306
RJF   000.89 257.3 m E Sg      2012/07/18 09:58:29.8   0.5                          T               14.6  .23 Ml 2.2         5029311
BGF   001.06 004.0 m E Pg      2012/07/18 09:58:21.0   0.3                          T                                        5029305
BGF   001.06 004.0 m E Sg      2012/07/18 09:58:35.1   0.5                          T               81.6  .34 Ml 3.2         5029312
AVF   001.35 018.1 m E Pn      2012/07/18 09:58:25.2  -0.1                          T                                        5029316
AVF   001.35 018.1 m E Pg      2012/07/18 09:58:26.2   0.0                          T                                        5030047
AVF   001.35 018.1 m E Sg      2012/07/18 09:58:43.4  -0.4                          T                8.8  .35 Ml 2.4         5029314
SMF   001.37 033.5 m E Pn      2012/07/18 09:58:25.5  -0.1                          T                                        5029315
SMF   001.37 033.5 m E Pg      2012/07/18 09:58:27.0   0.4                          T                                        5030046
SMF   001.37 033.5 m E Sg      2012/07/18 09:58:43.9  -0.6                          T                6.5  .37 Ml 2.2         5029320
SSF   001.64 018.6 m E Pn      2012/07/18 09:58:29.6   0.3                          T                                        5030045
SSF   001.64 018.6 m E Pg      2012/07/18 09:58:31.3  -0.3                          T                                        5030044
SSF   001.64 018.6 m E Sg      2012/07/18 09:58:52.6  -0.3                          T                4.7  .36 Ml 2.3         5029321
VIVF  001.51 114.7 m E Pg      2012/07/18 09:58:29.6   0.5                          T                                        5029308
VIVF  001.51 114.7 m E Sg      2012/07/18 09:58:48.1  -0.8                          T                8.8  .39 Ml 2.4         5029309
MTLF  002.20 190.0 m E Sg      2012/07/18 09:59:09.4  -0.8                          T                2.2  .31 Ml 2.1         5029319

.
