EVENT     274525
    Date      Time       Latitude Longitude    Depth    Ndef Nsta Gap    Mag1  N    Mag2  N    Mag3  N   Author         ID
       rms   OT_Error      Smajor Sminor Az        Err   mdist  Mdist     Err        Err        Err      Quality

2012/04/25 11:49:18.4     44.3297    5.9253       .0 f     9    3 244  Ml 2.1  1  Md 2.1  3              bulletin    274625
                                                                                                         _ldg
      0.19   +-  0.18       3.6    1.9  172.60 +-  0.0    0.59   1.04   +-         +-0.2                 m i km

FRANCE
Sta     Dist  EvAz     Phase      Date       Time     TRes  Azim  AzRes  Slow  SRes Def   SNR       Amp   Per   Mag1   Mag2       ID
ORIF  000.59 356.9 m E Pg      2012/04/25 11:49:30.0   0.0                          T                                        4923616
ORIF  000.59 356.9 m E Sg      2012/04/25 11:49:38.0   0.2                          T                3.2  .22        Md 1.9  4923617
MBDF  000.72 056.4 m E Pg      2012/04/25 11:49:32.4  -0.1                          T                                        4923615
MBDF  000.72 056.4 m E Sg      2012/04/25 11:49:41.9  -0.2                          T                 .6  .22        Md 2.3  4923614
VIVF  001.04 300.9 m E Pg      2012/04/25 11:49:37.9  -0.2                          T                                        4934398
VIVF  001.04 300.9 m E Pn      2012/04/25 11:49:39.0   0.3                          T                                        4923619
VIVF  001.04 300.9 m E Sg      2012/04/25 11:49:51.4  -0.4                          T                3.8  .20 Ml 2.1 Md 2.0  4923618

.
EVENT     274532
    Date      Time       Latitude Longitude    Depth    Ndef Nsta Gap    Mag1  N    Mag2  N    Mag3  N   Author         ID
       rms   OT_Error      Smajor Sminor Az        Err   mdist  Mdist     Err        Err        Err      Quality

2012/04/25 16:02:25.6     47.3119    6.6550       .0 f    15    6 188  Ml 1.9  3  Md 2.0  1              bulletin    274632
                                                                                                         _ldg
      1.02   +-  0.19       5.3    2.3  111.05 +-  0.0    0.52   1.90   +-0.3      +-                    m i km

FRANCE
Sta     Dist  EvAz     Phase      Date       Time     TRes  Azim  AzRes  Slow  SRes Def   SNR       Amp   Per   Mag1   Mag2       ID
HINF  000.52 014.8 m E Pg      2012/04/25 16:02:36.1   0.2                          T                                        4923802
HINF  000.52 014.8 m E Sg      2012/04/25 16:02:42.5  -0.4                          T                1.7  .16        Md 2.0  4923795
HAU   000.72 343.5 m E Pg      2012/04/25 16:02:39.9   0.3                          T                                        4923800
HAU   000.72 343.5 m E Pn      2012/04/25 16:02:41.8   0.1                          T                                        4923806
HAU   000.72 343.5 m E Sg      2012/04/25 16:02:49.0  -0.2                          T                6.6  .22                4923798
CABF  000.80 209.2 m E Pg      2012/04/25 16:02:41.4   0.3                          T                                        4923799
CABF  000.80 209.2 m E Pn      2012/04/25 16:02:42.7  -0.2                          T                                        4923805
CABF  000.80 209.2 m E Sg      2012/04/25 16:02:51.8   0.1                          T                1.5  .17                4923797
CABF  000.80 209.2 m E Sn      2012/04/25 16:02:54.2  -0.8                          T                                        4923808
THEF  001.02 334.3 m E Pn      2012/04/25 16:02:45.8   0.0                          T                                        4923804
THEF  001.02 334.3 m E Sg      2012/04/25 16:02:58.1  -0.4                          T                1.8  .14 Ml 1.9         4923803
CDF   001.18 020.6 m E Pg      2012/04/25 16:02:47.7  -0.4                          T                                        4923801
CDF   001.18 020.6 m E Sg      2012/04/25 16:03:03.5   0.0                          T                 .8  .21 Ml 1.6         4923796
LOR   001.90 269.7 m E Pg      2012/04/25 16:03:01.6   0.3  98.1  10.4              T                                        4933360
LOR   001.90 269.7 m E Sg      2012/04/25 16:03:25.1  -0.9                          T                1.7  .18 Ml 2.2         4923809

.
EVENT     274534
    Date      Time       Latitude Longitude    Depth    Ndef Nsta Gap    Mag1  N    Mag2  N    Mag3  N   Author         ID
       rms   OT_Error      Smajor Sminor Az        Err   mdist  Mdist     Err        Err        Err      Quality

2012/04/25 16:22:39.1     47.0930    6.5734       .0 f    16   10 156  Ml 2.3  6  Md 2.3  1              bulletin    274634
                                                                                                         _ldg
      0.39   +-  0.12       3.2    1.6   93.46 +-  0.0    0.59   1.93   +-0.2      +-                    m i km

FRANCE
Sta     Dist  EvAz     Phase      Date       Time     TRes  Azim  AzRes  Slow  SRes Def   SNR       Amp   Per   Mag1   Mag2       ID
CABF  000.59 214.8 m E Pg      2012/04/25 16:22:50.4  -0.2                          T                                        4934400
CABF  000.59 214.8 m E Sg      2012/04/25 16:22:58.9   0.4                          T               37.5  .81        Md 2.3  4934399
HINF  000.75 014.6 m E Pg      2012/04/25 16:22:53.9   0.3                          T                                        4923845
HINF  000.75 014.6 m E Sg      2012/04/25 16:23:02.9  -0.6                          T               36.6  .34                4923844
HAU   000.93 350.6 m E Pg      2012/04/25 16:22:57.0   0.2                          T                                        4923841
HAU   000.93 350.6 m E Sg      2012/04/25 16:23:09.3   0.3                          T               20.8  .34 Ml 2.3         4923842
THEF  001.20 341.2 m E Pg      2012/04/25 16:23:01.3  -0.6                          T                                        4923838
THEF  001.20 341.2 m E Sg      2012/04/25 16:23:18.6   1.0                          T               25.8  .66 Ml 2.5         4923839
CDF   001.40 019.5 m E Pg      2012/04/25 16:23:04.6  -1.1                          T                                        4934401
CDF   001.40 019.5 m E Sg      2012/04/25 16:23:23.4  -0.6                          T                7.8  .36 Ml 2.4         4923843
LPL   001.58 175.9 m E Pg      2012/04/25 16:23:09.3   0.2                          T                                        4934402
LPG   001.60 175.5 m E Pg      2012/04/25 16:23:09.6   0.0                          T                                        4934403
LPG   001.60 175.5 m E Sg      2012/04/25 16:23:30.3  -0.1                          T                2.9  .41 Ml 1.9         4934404
SFTF  001.52 317.6 m E Sg      2012/04/25 16:23:27.8   0.2                          T               10.5  .34 Ml 2.5         4923840
LOR   001.86 276.4 m E Sg      2012/04/25 16:23:38.4   0.2                          T                4.1  .36 Ml 2.2         4934406
SMF   001.93 257.6 m E Sg      2012/04/25 16:23:39.9  -0.4                          T                                        4934405

.
EVENT     274547
    Date      Time       Latitude Longitude    Depth    Ndef Nsta Gap    Mag1  N    Mag2  N    Mag3  N   Author         ID
       rms   OT_Error      Smajor Sminor Az        Err   mdist  Mdist     Err        Err        Err      Quality

2012/04/25 20:02:28.9     45.7732    7.5484      2.0      26    5 086  Ml 1.7  3  Md 1.7  2              bulletin    274647
                                                                                                         _ldg
      0.35   +-  0.04       1.1     .7  125.83 +-  0.0    0.17   1.91   +-0.2      +-0.3                 m i ke

NORTHERN ITALY
Sta     Dist  EvAz     Phase      Date       Time     TRes  Azim  AzRes  Slow  SRes Def   SNR       Amp   Per   Mag1   Mag2       ID
LPG   000.62 244.1 m E Pg      2012/04/25 20:02:40.9  -0.1                          T                                        4933372
LPG   000.62 244.1 m E Sg      2012/04/25 20:02:48.6  -0.6                          T                 .9  .15        Md 1.8  4933371
LPL   000.63 246.1 m E Pg      2012/04/25 20:02:41.1   0.1                          T                                        4933369
LPL   000.63 246.1 m E Sg      2012/04/25 20:02:48.8  -0.5                          T                 .6  .21        Md 1.5  4933370
MBDF  001.18 208.0 m E Pg      2012/04/25 20:02:51.1  -0.1                          T                                        4933367
MBDF  001.18 208.0 m E Sg      2012/04/25 20:03:06.6   0.1                          T                 .5  .16 Ml 1.4         4933368
ORIF  001.45 234.6 m E Pn      2012/04/25 20:02:54.8   0.2                          T                                        4933365
ORIF  001.45 234.6 m E Sn      2012/04/25 20:03:13.0  -0.1                          T                2.5  .36 Ml 1.8         4933366
SBF   001.91 182.5 m E Pn      2012/04/25 20:03:00.9   0.1                          T                                        4933363
SBF   001.91 182.5 m E Sn      2012/04/25 20:03:23.7  -0.4                          T                 .6  .19 Ml 1.7         4933364

.
EVENT     274535
    Date      Time       Latitude Longitude    Depth    Ndef Nsta Gap    Mag1  N    Mag2  N    Mag3  N   Author         ID
       rms   OT_Error      Smajor Sminor Az        Err   mdist  Mdist     Err        Err        Err      Quality

2012/04/25 21:02:24.3     48.7269   -3.2688      7.0 f    18    7 267  Ml 3.0  4  Md 2.1  3              bulletin    274635
                                                                                                         _ldg
      1.42   +-  0.51       8.7    4.6  143.38 +-  0.0    0.39   3.00   +-0.2      +-0.1                 m i ke

FRANCE
Sta     Dist  EvAz     Phase      Date       Time     TRes  Azim  AzRes  Slow  SRes Def   SNR       Amp   Per   Mag1   Mag2       ID
ROSF  000.39 180.5 m E Pg      2012/04/25 21:02:31.9   0.0                          T                                        4923823
ROSF  000.39 180.5 m E Sg      2012/04/25 21:02:36.8  -0.4                          T               56.6  .18        Md 2.2  4923822
SGMF  000.67 134.7 m E Pg      2012/04/25 21:02:37.2   0.2                          T                                        4936279
SGMF  000.67 134.7 m E Pn      2012/04/25 21:02:37.8  -0.9                          T                                        4923820
SGMF  000.67 134.7 m E Sg      2012/04/25 21:02:45.6  -0.2                          T               19.8  .18        Md 2.0  4923821
QUIF  000.81 175.1 m E Pg      2012/04/25 21:02:39.7   0.0                          T                                        4923818
QUIF  000.81 175.1 m E Sg      2012/04/25 21:02:49.4  -0.9                          T               67.5  .30        Md 2.2  4923819
FLN   001.84 087.8 m E Pn      2012/04/25 21:02:56.1   1.4                          T                                        4934636
FLN   001.84 087.8 m E Sg      2012/04/25 21:03:21.7  -0.8                          T               20.6  .20 Ml 3.0         4923815
LDF   002.09 092.5 m E Pg      2012/04/25 21:03:03.2   0.1                          T                                        4934637
LDF   002.09 092.5 m E Sg      2012/04/25 21:03:29.0  -1.1                          T               13.2  .20 Ml 3.0         4923816
MFF   003.00 134.0 m E Pn      2012/04/25 21:03:09.7  -0.7                          T                                        4934638
MFF   003.00 134.0 m E Pg      2012/04/25 21:03:19.2  -0.6                          T                                        4934635
MFF   003.00 134.0 m E Sn      2012/04/25 21:03:45.0   0.6                          T                                        4933374
MFF   003.00 134.0 m E Sg      2012/04/25 21:03:58.8   0.4                          T                3.0  .23 Ml 2.7         4934639
GRR   001.64 101.0 m E Sg      2012/04/25 21:03:15.5  -0.5                          T               34.1  .26 Ml 3.1         4923817

.
EVENT     274536
    Date      Time       Latitude Longitude    Depth    Ndef Nsta Gap    Mag1  N    Mag2  N    Mag3  N   Author         ID
       rms   OT_Error      Smajor Sminor Az        Err   mdist  Mdist     Err        Err        Err      Quality

2012/04/25 21:03:59.1     44.3601    7.2937      3.0 f    47    9 094  Ml 2.0  7  Md 2.0  7              bulletin    274636
                                                                                                         _ldg
      0.39   +-  0.05       1.2     .8   58.20 +-  0.0    0.12   1.94   +-0.4      +-0.1                 m i ke

NORTHERN ITALY
Sta     Dist  EvAz     Phase      Date       Time     TRes  Azim  AzRes  Slow  SRes Def   SNR       Amp   Per   Mag1   Mag2       ID
SBF   000.51 168.4 m E Pg      2012/04/25 21:04:09.1   0.2                          T                                        4923827
SBF   000.51 168.4 m E Sg      2012/04/25 21:04:14.6  -1.0                          T               11.8  .22        Md 1.8  4933383
MBDF  000.52 314.7 m E Pg      2012/04/25 21:04:09.2  -0.1                          T                                        4923837
MBDF  000.52 314.7 m E Sg      2012/04/25 21:04:16.4   0.1                          T               12.9  .22        Md 1.9  4923836
FRF   000.93 210.5 m E Pg      2012/04/25 21:04:16.6   0.1                          T                                        4923830
FRF   000.93 210.5 m E Sg      2012/04/25 21:04:27.9  -0.7                          T                9.3  .22 Ml 2.4 Md 2.1  4923831
LMR   001.17 209.2 m E Pg      2012/04/25 21:04:20.7  -0.4                          T                                        4923829
LMR   001.17 209.2 m E Sg      2012/04/25 21:04:35.3  -1.0                          T                6.8  .18 Ml 2.5         4923828
ORIF  001.15 299.4 m E Pg      2012/04/25 21:04:20.8   0.0                          T                                        4923834
ORIF  001.15 299.4 m E Sg      2012/04/25 21:04:35.3  -0.4                          T                1.8  .22 Ml 1.8 Md 2.0  4923835
LPL   001.22 341.2 m E Pg      2012/04/25 21:04:22.3   0.0                          T                                        4923826
LPL   001.22 341.2 m E Sg      2012/04/25 21:04:37.9  -0.2                          T                1.4  .26 Ml 1.6 Md 2.0  4933385
LPG   001.20 341.5 m E Pg      2012/04/25 21:04:23.4   1.4                          T                                        4923825
LPG   001.20 341.5 m E Sg      2012/04/25 21:04:37.7   0.1                          T                  1  .19 Ml 1.6 Md 2.0  4933384
SMRF  001.29 253.3 m E Pg      2012/04/25 21:04:23.7   0.3                          T                                        4923833
SMRF  001.29 253.3 m E Sg      2012/04/25 21:04:41.2   1.1                          T                6.1  .21 Ml 2.4 Md 2.2  4923832
VIVF  001.94 285.8 m E Pn      2012/04/25 21:04:31.7   0.4                          T                                        4933381
VIVF  001.94 285.8 m E Sn      2012/04/25 21:04:55.1   0.4                          T                                        4933382

.
EVENT     274539
    Date      Time       Latitude Longitude    Depth    Ndef Nsta Gap    Mag1  N    Mag2  N    Mag3  N   Author         ID
       rms   OT_Error      Smajor Sminor Az        Err   mdist  Mdist     Err        Err        Err      Quality

2012/04/26 02:06:32.2     44.4429    7.2885     10.0      56   10 100  Ml 2.2  9  Md 2.1  8              bulletin    274639
                                                                                                         _ldg
      0.44   +-  0.04       1.1     .7   56.78 +-  0.0    0.07   2.27   +-0.3      +-0.1                 m i ke

NORTHERN ITALY
Sta     Dist  EvAz     Phase      Date       Time     TRes  Azim  AzRes  Slow  SRes Def   SNR       Amp   Per   Mag1   Mag2       ID
MBDF  000.47 307.7 m E Pg      2012/04/26 02:06:41.5   0.1                          T                                        4924227
MBDF  000.47 307.7 m E Sg      2012/04/26 02:06:47.8   0.2                          T               32.2  .23        Md 2.0  4924226
SBF   000.59 169.6 m E Pg      2012/04/26 02:06:43.6   0.1                          T                                        4924213
SBF   000.59 169.6 m E Sg      2012/04/26 02:06:51.1  -0.2                          T                7.0  .17        Md 2.1  4924212
FRF   001.00 207.9 m E Pg      2012/04/26 02:06:50.6  -0.2                          T                                        4924217
FRF   001.00 207.9 m E Sg      2012/04/26 02:07:03.4  -0.4                          T                7.3  .18 Ml 2.5 Md 2.2  4924216
ORIF  001.11 295.8 m E Pg      2012/04/26 02:06:53.2   0.1                          T                                        4924225
ORIF  001.11 295.8 m E Sg      2012/04/26 02:07:06.7  -0.9                          T                3.9  .21 Ml 2.1 Md 2.1  4924224
LPG   001.12 340.3 m E Pg      2012/04/26 02:06:53.5  -0.1                          T                                        4924221
LPG   001.12 340.3 m E Sg      2012/04/26 02:07:08.2   0.1                          T                2.3  .20 Ml 1.9 Md 2.1  4924220
LPL   001.14 340.0 m E Pg      2012/04/26 02:06:53.9   0.0                          T                                        4924223
LPL   001.14 340.0 m E Sg      2012/04/26 02:07:08.9   0.2                          T                1.0  .16 Ml 1.7 Md 2.1  4924222
LMR   001.24 207.2 m E Pg      2012/04/26 02:06:55.2  -0.2                          T                                        4924215
LMR   001.24 207.2 m E Sg      2012/04/26 02:07:11.0  -0.6                          T                7.5  .18 Ml 2.5 Md 2.2  4924214
SMRF  001.32 249.8 m E Pg      2012/04/26 02:06:56.9   0.0                          T                                        4924219
SMRF  001.32 249.8 m E Sg      2012/04/26 02:07:14.0   0.1                          T                7.8  .27 Ml 2.4 Md 2.3  4924218
VIVF  001.91 283.4 m E Pn      2012/04/26 02:07:03.3   0.2                          T                                        4924209
VIVF  001.91 283.4 m E Sn      2012/04/26 02:07:26.0   0.2                          T                1.1  .23 Ml 1.9         4924208
PGF   002.27 146.1 m E Pn      2012/04/26 02:07:07.5  -0.6                          T                                        4924211
PGF   002.27 146.1 m E Sn      2012/04/26 02:07:34.4   0.0                          T                1.4  .20 Ml 2.4         4924210

.
