EVENT     286652
    Date      Time       Latitude Longitude    Depth    Ndef Nsta Gap    Mag1  N    Mag2  N    Mag3  N   Author         ID
       rms   OT_Error      Smajor Sminor Az        Err   mdist  Mdist     Err        Err        Err      Quality

2012/11/11 14:54:38.2     42.9009    -.9002      2.0       6    3 221  Ml 1.5  1  Md 1.4  2              bulletin    286752
                                                                                                         _ldg
      0.12   +-  0.16       6.5     .8   18.50 +-  0.0    0.25   0.92   +-         +-0.1                 m i ke

PYRENEES
Sta     Dist  EvAz     Phase      Date       Time     TRes  Azim  AzRes  Slow  SRes Def   SNR       Amp   Per   Mag1   Mag2       ID
ETSF  000.25 090.4 m E Pg      2012/11/11 14:54:43.2  -0.1                          T                                        5114468
ETSF  000.25 090.4 m E Sg      2012/11/11 14:54:46.4  -0.3                          T                3.7  .20        Md 1.4  5114467
SJPF  000.32 311.8 m E Pg      2012/11/11 14:54:44.3  -0.1                          T                                        5121135
SJPF  000.32 311.8 m E Sg      2012/11/11 14:54:48.6  -0.1                          T                 .8  .34        Md 1.3  5121136
EPF   000.92 081.5 m E Pg      2012/11/11 14:54:55.5   0.0                          T                                        5114466
EPF   000.92 081.5 m E Sg      2012/11/11 14:55:07.6   0.1                          T                 .9  .18 Ml 1.5         5114465

.
EVENT     286654
    Date      Time       Latitude Longitude    Depth    Ndef Nsta Gap    Mag1  N    Mag2  N    Mag3  N   Author         ID
       rms   OT_Error      Smajor Sminor Az        Err   mdist  Mdist     Err        Err        Err      Quality

2012/11/11 20:09:10.9     45.7947    6.9320      2.0      37   17 164  Ml 2.6 14                         bulletin    286754
                                                                                                         _ldg
      0.67   +-  0.10       2.3    1.2   92.00 +-  0.0    0.31   3.33   +-0.2                            m i ke

FRANCE
Sta     Dist  EvAz     Phase      Date       Time     TRes  Azim  AzRes  Slow  SRes Def   SNR       Amp   Per   Mag1   Mag2       ID
LPL   000.31 206.8 m E Pg      2012/11/11 20:09:17.3   0.0                          T   001.0                                5114580
LPL   000.31 206.8 m E Sg      2012/11/11 20:09:21.4   0.0                          T               20.6  .30                5114661
LPG   000.32 203.2 m E Pg      2012/11/11 20:09:18.4   0.8                          T                                        5114664
LPG   000.32 203.2 m E Sg      2012/11/11 20:09:22.2   0.3                          T               21.1  .32                5114660
CABF  001.01 324.6 m E Pg      2012/11/11 20:09:29.6  -0.3                          T                                        5114665
CABF  001.01 324.6 m E Sg      2012/11/11 20:09:43.1   0.2                          T   001.0      111.3  .58 Ml 3.1         5114585
MBDF  001.07 186.1 m E Pg      2012/11/11 20:09:29.9  -1.4                          T                                        5114662
MBDF  001.07 186.1 m E Sg      2012/11/11 20:09:45.1  -0.1                          T               28.2  .54 Ml 2.6         5114659
ORIF  001.15 220.6 m E Pg      2012/11/11 20:09:32.7   0.1                          T   001.0                                5114588
ORIF  001.15 220.6 m E Sg      2012/11/11 20:09:46.9  -0.5                          T               26.2  .48 Ml 2.6         5114658
VIVF  001.85 240.3 m E Pn      2012/11/11 20:09:42.0   0.1                          T   001.0                                5114591
VIVF  001.85 240.3 m E Sn      2012/11/11 20:10:04.6   0.1                          T   001.0                                5114592
VIVF  001.85 240.3 m E Sg      2012/11/11 20:10:08.2  -1.0                          T               14.6  .44 Ml 2.7         5114657
SBF   001.96 169.3 m E Pn      2012/11/11 20:09:43.5   0.0                          T                                        5114663
SBF   001.96 169.3 m E Sn      2012/11/11 20:10:07.1  -0.2                          T                2.6  .31 Ml 2.1         5114644
HINF  002.02 358.5 m E Pn      2012/11/11 20:09:44.2  -0.1                          T                                        5114653
HINF  002.02 358.5 m E Sn      2012/11/11 20:10:08.8   0.1                          T                                        5114652
HINF  002.02 358.5 m E Sg      2012/11/11 20:10:14.9   0.2                          T   001.0        6.7  .36 Ml 2.5         5114586
SMF   002.31 292.7 m E Pn      2012/11/11 20:09:48.1   0.0                          T                                        5114656
SMF   002.31 292.7 m E Sn      2012/11/11 20:10:15.6   0.1                          T                6.5  .33 Ml 2.6         5114655
CDF   002.63 005.0 m E Pn      2012/11/11 20:09:52.4  -0.2                          T   001.0                                5114576
CDF   002.63 005.0 m E Sg      2012/11/11 20:10:33.5  -0.1                          T   001.0        4.7  .50 Ml 2.4         5114577
LOR   002.58 305.9 m E Pn      2012/11/11 20:09:52.5   0.5 126.3  2.7               T                                        5114649
LOR   002.58 305.9 m E Sn      2012/11/11 20:10:21.4  -0.6                          T   001.0        2.7  .25 Ml 2.4         5114579
SSF   002.69 299.4 m E Pn      2012/11/11 20:09:53.5   0.2                          T   001.0                                5114581
SSF   002.69 299.4 m E Sn      2012/11/11 20:10:24.1  -0.4                          T   001.0                                5114582
SSF   002.69 299.4 m E Sg      2012/11/11 20:10:35.6   0.3                          T   001.0        4.5  .40 Ml 2.5         5114583
AVF   002.67 293.2 m E Pn      2012/11/11 20:09:53.6   0.5                          T   001.0                                5114574
SFTF  002.74 332.4 m E Pn      2012/11/11 20:09:53.8  -0.2 143.1  -8.0              T                                        5114651
SFTF  002.74 332.4 m E Sn      2012/11/11 20:10:25.2  -0.5                          T                9.3  .53 Ml 2.6         5114650
BGF   002.94 286.5 m E Pn      2012/11/11 20:09:57.0   0.2                          T                                        5114647
BGF   002.94 286.5 m E Sn      2012/11/11 20:10:30.2  -0.4                          T                                        5114646
BGF   002.94 286.5 m E Sg      2012/11/11 20:10:43.1  -0.1                          T               10.7  .42 Ml 2.8         5114645
TCF   003.33 280.2 m E Pn      2012/11/11 20:10:01.8  -0.2                          T                                        5114654
TCF   003.33 280.2 m E Sn      2012/11/11 20:10:40.0   0.2                          T   001.0        4.1  .56 Ml 2.4         5114584
MEZF  003.00 335.3 m E Sg      2012/11/11 20:10:45.3   0.3                          T   001.0       12.9  .63 Ml 2.7         5114587

.
EVENT     286655
    Date      Time       Latitude Longitude    Depth    Ndef Nsta Gap    Mag1  N    Mag2  N    Mag3  N   Author         ID
       rms   OT_Error      Smajor Sminor Az        Err   mdist  Mdist     Err        Err        Err      Quality

2012/11/11 20:13:43.7     44.8095    6.7317      2.0     100   28 038  Ml 2.6 17  Md 2.6  3              bulletin    286755
                                                                                                         _ldg
      0.95   +-  0.08       2.1    1.6   77.10 +-  0.0    0.09   6.04   +-0.4      +-0.1                 m i ke

FRANCE
Sta     Dist  EvAz     Phase      Date       Time     TRes  Azim  AzRes  Slow  SRes Def   SNR       Amp   Per   Mag1   Mag2       ID
MBDF  000.09 161.1 m E Pg      2012/11/11 20:13:45.7  -0.3                          T   001.0                                5114602
MBDF  000.09 161.1 m E Sg      2012/11/11 20:13:47.1  -0.1                          T             1075.0  .20        Md 2.5  5114678
ORIF  000.62 280.5 m E Pg      2012/11/11 20:13:55.5   0.0                          T   001.0                                5114603
ORIF  000.62 280.5 m E Sg      2012/11/11 20:14:03.8   0.2                          T   001.0      163.9  .26        Md 2.7  5114604
LPG   000.69 001.2 m E Pg      2012/11/11 20:13:57.3   0.1                          T   001.0                                5114626
LPG   000.69 001.2 m E Sg      2012/11/11 20:14:06.1   0.0                          T   001.0       23.1  .23                5114627
LPL   000.71 000.0 m E Pg      2012/11/11 20:13:57.4   0.1                          T   001.0                                5114628
LPL   000.71 000.0 m E Sg      2012/11/11 20:14:06.6   0.0                          T   001.0       63.2  .36        Md 2.6  5114629
SBF   001.07 151.7 m E Pg      2012/11/11 20:14:04.0   0.1                          T   001.0                                5114632
SBF   001.07 151.7 m E Sg      2012/11/11 20:14:17.4  -0.4                          T   001.0       58.2  .30 Ml 3.1         5114634
SMRF  001.18 225.3 m E Pg      2012/11/11 20:14:06.9   1.1                          T   001.0                                5114597
SMRF  001.18 225.3 m E Sg      2012/11/11 20:14:21.8   0.8                          T   001.0       24.3  .36 Ml 2.7         5114598
FRF   001.25 182.8 m E Pg      2012/11/11 20:14:07.2   0.1                          T   001.0                                5114614
FRF   001.25 182.8 m E Sg      2012/11/11 20:14:23.4   0.2                          T   001.0       36.1  .20 Ml 3.2         5114617
VIVF  001.47 272.5 m E Pn      2012/11/11 20:14:09.5  -0.1                          T   001.0                                5114594
VIVF  001.47 272.5 m E Pg      2012/11/11 20:14:11.0  -0.1                          T   001.0                                5114605
VIVF  001.47 272.5 m E Sn      2012/11/11 20:14:28.2   0.0                          T   001.0                                5114595
VIVF  001.47 272.5 m E Sg      2012/11/11 20:14:30.2   0.1                          T   001.0       14.6  .28 Ml 2.7         5114596
LMR   001.48 186.3 m E Pg      2012/11/11 20:14:11.6   0.2                          T                                        5114677
LMR   001.48 186.3 m E Sn      2012/11/11 20:14:28.6   0.1                          T   001.0                                5114623
LMR   001.48 186.3 m E Sg      2012/11/11 20:14:30.7   0.1                          T               32.9  .22 Ml 3.2         5114676
CABF  001.86 346.2 m E P       2012/11/11 20:14:16.8  -0.2                          T                                        5114674
CABF  001.86 346.2 m E Sn      2012/11/11 20:14:37.5  -0.1                          T   001.0                                5114601
CABF  001.86 346.2 m E Sg      2012/11/11 20:14:42.0  -0.4                          T               10.6  .37 Ml 2.6         5114673
LASF  002.19 251.4 m E P       2012/11/11 20:14:20.5  -1.2                          T   001.0                                5114619
LASF  002.19 251.4 m E Sn      2012/11/11 20:14:45.8   0.5                          T   001.0        3.0  .27 Ml 2.3         5114620
SMF   002.73 313.2 m E P       2012/11/11 20:14:28.7  -0.8                          T   001.0                                5114636
SMF   002.73 313.2 m E Sn      2012/11/11 20:14:58.8   0.4                          T   001.0                                5114637
SMF   002.73 313.2 m E Sg      2012/11/11 20:15:10.1   0.5                          T   001.0        4.7  .24 Ml 2.7         5114638
PGF   002.80 143.2 m E P       2012/11/11 20:14:29.6  -0.8                          T   001.0                                5114630
PGF   002.80 143.2 m E Sn      2012/11/11 20:14:59.6  -0.4                          T   001.0        2.3  .23 Ml 2.6         5114631
HINF  003.01 001.6 m E P       2012/11/11 20:14:32.7  -0.8                          T                                        5114681
HINF  003.01 001.6 m E Sn      2012/11/11 20:15:04.8  -0.3                          T                 .7  .19 Ml 2.0         5114671
AVF   003.08 311.2 m E P       2012/11/11 20:14:34.0  -0.5                          T   001.0                                5114607
AVF   003.08 311.2 m E Sn      2012/11/11 20:15:08.9   2.1                          T   001.0        3.9  .35 Ml 2.5         5114609
LOR   003.17 321.9 m E P       2012/11/11 20:14:35.1  -0.6 148.2  8.4               T   001.0                                5114624
LOR   003.17 321.9 m E Sn      2012/11/11 20:15:09.3   0.4 145.1  5.3               T   001.0        1.8  .29 Ml 2.3         5114625
SSF   003.18 316.2 m E P       2012/11/11 20:14:35.5  -0.4                          T   001.0                                5114639
SSF   003.18 316.2 m E Sn      2012/11/11 20:15:09.7   0.5                          T   001.0                                5114640
SSF   003.18 316.2 m E Sg      2012/11/11 20:15:24.1   0.5                          T   001.0        2.3  .26 Ml 2.5         5114641
BGF   003.24 304.1 m E P       2012/11/11 20:14:36.0  -0.6                          T   001.0                                5114610
BGF   003.24 304.1 m E Sg      2012/11/11 20:15:24.3  -0.9                          T               11.3  .40 Ml 2.9         5114680
CAF   003.32 273.6 m E P       2012/11/11 20:14:37.2  -0.7                          T   001.0                                5114611
MTLF  003.57 247.3 m E P       2012/11/11 20:14:39.8  -1.5                          T                                        5114679
TCF   003.50 296.6 m E P       2012/11/11 20:14:39.9  -0.5                          T   001.0                                5114642
CDF   003.62 005.7 m E P       2012/11/11 20:14:40.7  -1.5                          T   001.0                                5114612
CDF   003.62 005.7 m E Sn      2012/11/11 20:15:19.6  -0.2                          T   001.0        1.2  .32 Ml 2.2         5114613
SFTF  003.59 341.6 m E P       2012/11/11 20:14:41.2  -0.5 158.8  -1.6              T                                        5114682
SFTF  003.59 341.6 m E Sn      2012/11/11 20:15:18.9   0.0 157.0  -3.4              T                  1  .20 Ml 2.2         5114672
HYF   003.76 312.2 m E P       2012/11/11 20:14:44.0  -0.1                          T                                        5114670
MEZF  003.87 343.2 m E P       2012/11/11 20:14:46.1   0.4 158.6  -3.4              T                                        5114683
LFF   004.26 273.9 m E P       2012/11/11 20:14:50.8  -0.4                          T                                        5114675
BAIF  005.52 342.9 m E P       2012/11/11 20:15:08.1  -1.0                          T   001.0                                5114599
BAIF  005.52 342.9 m E Sn      2012/11/11 20:16:07.0   1.9                          T                 .6  .31 Ml 2.3         5114684
LDF   006.04 311.2 m E P       2012/11/11 20:15:14.9  -1.5                          T   001.0                                5114621

.
