EVENT     278583
    Date      Time       Latitude Longitude    Depth    Ndef Nsta Gap    Mag1  N    Mag2  N    Mag3  N   Author         ID
       rms   OT_Error      Smajor Sminor Az        Err   mdist  Mdist     Err        Err        Err      Quality

2012/06/22 23:04:21.2     44.9754    6.7125      2.0      15    8 151  Ml 1.7  3  Md 1.7  1              bulletin    278683
                                                                                                         _ldg
      0.22   +-  0.07       2.1    1.0   88.40 +-  0.0    0.25   1.65   +-0.1      +-                    m i ke

FRANCE
Sta     Dist  EvAz     Phase      Date       Time     TRes  Azim  AzRes  Slow  SRes Def   SNR       Amp   Per   Mag1   Mag2       ID
MBDF  000.25 170.4 m E Pg      2012/06/22 23:04:26.4   0.0                          T                                        5009504
MBDF  000.25 170.4 m E Sg      2012/06/22 23:04:30.0   0.2                          T                4.0  .18        Md 1.7  5009503
LPG   000.52 003.0 m E Pg      2012/06/22 23:04:31.3  -0.2                          T                                        5009499
LPG   000.52 003.0 m E Sg      2012/06/22 23:04:38.0  -0.5                          T                1.6  .21                5009498
LPL   000.54 001.5 m E Pg      2012/06/22 23:04:32.0   0.2                          T                                        5009500
LPL   000.54 001.5 m E Sg      2012/06/22 23:04:39.0   0.1                          T                1.2  .25                5009497
ORIF  000.59 264.8 m E Pg      2012/06/22 23:04:32.7   0.1                          T                                        5009502
ORIF  000.59 264.8 m E Sg      2012/06/22 23:04:39.9  -0.5                          T                1.6  .18                5009501
SBF   001.23 154.8 m E Pg      2012/06/22 23:04:43.9  -0.3                          T                                        5009490
SMRF  001.29 219.6 m E Pn      2012/06/22 23:04:44.6   0.0                          T                                        5009496
SMRF  001.29 219.6 m E Sn      2012/06/22 23:05:01.5   0.1                          T                3.2  .64 Ml 1.6         5009495
FRF   001.42 181.9 m E Pg      2012/06/22 23:04:47.7   0.1                          T                                        5009494
FRF   001.42 181.9 m E Sg      2012/06/22 23:05:05.8  -0.1                          T                2.9  .62 Ml 1.7         5009493
LMR   001.65 185.2 m E Pg      2012/06/22 23:04:51.6  -0.2                          T                                        5009492
LMR   001.65 185.2 m E Sg      2012/06/22 23:05:13.4   0.3                          T                2.4  .50 Ml 1.8         5009491

.
EVENT     278584
    Date      Time       Latitude Longitude    Depth    Ndef Nsta Gap    Mag1  N    Mag2  N    Mag3  N   Author         ID
       rms   OT_Error      Smajor Sminor Az        Err   mdist  Mdist     Err        Err        Err      Quality

2012/06/22 23:10:53.3     44.9781    6.7276      2.0      31    9 068  Ml 1.6  4  Md 1.9  1              bulletin    278684
                                                                                                         _ldg
      0.26   +-  0.04        .9     .7   75.06 +-  0.0    0.07   1.65   +-0.1      +-                    m i ke

FRANCE
Sta     Dist  EvAz     Phase      Date       Time     TRes  Azim  AzRes  Slow  SRes Def   SNR       Amp   Per   Mag1   Mag2       ID
MBDF  000.25 172.9 m E Pg      2012/06/22 23:10:58.5   0.0                          T                                        5009511
MBDF  000.25 172.9 m E Sg      2012/06/22 23:11:02.1   0.2                          T               15.9  .20        Md 1.9  5009510
LPG   000.52 001.8 m E Pg      2012/06/22 23:11:03.4  -0.1                          T                                        5009506
LPG   000.52 001.8 m E Sg      2012/06/22 23:11:10.2  -0.2                          T                3.5  .19                5009505
LPL   000.54 000.4 m E Pg      2012/06/22 23:11:03.9   0.1                          T                                        5009507
LPL   000.54 000.4 m E Sg      2012/06/22 23:11:10.8  -0.2                          T                4.2  .26                5009526
ORIF  000.60 264.6 m E Pg      2012/06/22 23:11:04.7  -0.1                          T                                        5009509
ORIF  000.60 264.6 m E Sg      2012/06/22 23:11:12.2  -0.6                          T                3.9  .15                5009508
SBF   001.22 155.3 m E Pg      2012/06/22 23:11:16.1  -0.1                          T                                        5009520
SBF   001.22 155.3 m E Sg      2012/06/22 23:11:32.5   0.4                          T                1.5  .24 Ml 1.7         5009519
SMRF  001.30 219.9 m E Pn      2012/06/22 23:11:17.0   0.2                          T                                        5009525
SMRF  001.30 219.9 m E Sn      2012/06/22 23:11:33.7  -0.1                          T                 .8  .27 Ml 1.4         5009524
FRF   001.42 182.4 m E Pn      2012/06/22 23:11:18.4   0.0                          T                                        5009523
VIVF  001.46 265.9 m E Pg      2012/06/22 23:11:20.5  -0.1                          T                                        5023371
VIVF  001.46 265.9 m E Sg      2012/06/22 23:11:39.6   0.0                          T                1.1  .28 Ml 1.6         5023372
LMR   001.65 185.5 m E Pg      2012/06/22 23:11:24.2   0.1                          T                                        5009522
LMR   001.65 185.5 m E Sg      2012/06/22 23:11:45.5   0.2                          T                 .7  .20 Ml 1.7         5009521

.
EVENT     278585
    Date      Time       Latitude Longitude    Depth    Ndef Nsta Gap    Mag1  N    Mag2  N    Mag3  N   Author         ID
       rms   OT_Error      Smajor Sminor Az        Err   mdist  Mdist     Err        Err        Err      Quality

2012/06/22 23:31:21.9     44.9941    6.7061      2.0       9    5 166  Ml 1.2  1  Md 1.4  2              bulletin    278685
                                                                                                         _ldg
      0.25   +-  0.10       2.6    1.6   99.80 +-  0.0    0.27   1.45   +-         +-0.0                 m i ke

FRANCE
Sta     Dist  EvAz     Phase      Date       Time     TRes  Azim  AzRes  Slow  SRes Def   SNR       Amp   Per   Mag1   Mag2       ID
MBDF  000.27 170.1 m E Pg      2012/06/22 23:31:27.5   0.0                          T                                        5009534
MBDF  000.27 170.1 m E Sg      2012/06/22 23:31:31.1   0.0                          T                2.3  .19        Md 1.4  5009533
LPG   000.50 003.6 m E Pg      2012/06/22 23:31:31.6  -0.3                          T                                        5009529
LPG   000.50 003.6 m E Sg      2012/06/22 23:31:39.3   0.8                          T                 .8  .19                5009530
LPL   000.52 002.0 m E Pg      2012/06/22 23:31:32.1   0.0                          T                                        5009528
LPL   000.52 002.0 m E Sg      2012/06/22 23:31:39.1   0.0                          T                1.2  .29        Md 1.4  5009527
ORIF  000.59 262.9 m E Pg      2012/06/22 23:31:33.4   0.1                          T                                        5009532
ORIF  000.59 262.9 m E Sg      2012/06/22 23:31:40.8  -0.3                          T                1.1  .22                5009531
VIVF  001.45 265.3 m E Sg      2012/06/22 23:32:07.7   0.0                          T                 .3  .21 Ml 1.2         5023373

.
EVENT     278586
    Date      Time       Latitude Longitude    Depth    Ndef Nsta Gap    Mag1  N    Mag2  N    Mag3  N   Author         ID
       rms   OT_Error      Smajor Sminor Az        Err   mdist  Mdist     Err        Err        Err      Quality

2012/06/22 23:38:25.2     46.7908    7.2500      2.0      45   18 188  Ml 1.8 18  Md 1.9  3              bulletin    278686
                                                                                                         _ldg
      0.79   +-  0.08       1.7    1.0   96.24 +-  0.0    0.03   3.05   +-0.2      +-0.1                 m i ke

SWITZERLAND
Sta     Dist  EvAz     Phase      Date       Time     TRes  Azim  AzRes  Slow  SRes Def   SNR       Amp   Per   Mag1   Mag2       ID
CABF  000.82 257.8 m E Pg      2012/06/22 23:38:40.7  -0.1                          T                                        5009537
CABF  000.82 257.8 m E Sg      2012/06/22 23:38:51.7   0.2                          T                5.7  .23        Md 1.8  5009536
HINF  001.06 345.4 m E Pg      2012/06/22 23:38:45.3   0.1                          T                                        5009539
HINF  001.06 345.4 m E Sg      2012/06/22 23:38:58.8  -0.1                          T                2.0  .24 Ml 1.8 Md 1.9  5009538
LPL   001.32 196.0 m E Pn      2012/06/22 23:38:49.3  -0.1                          T                                        5012069
LPL   001.32 196.0 m E Sn      2012/06/22 23:39:06.4  -0.2                          T                 .8  .22 Ml 1.5         5012070
LPG   001.34 195.2 m E Pn      2012/06/22 23:38:49.6  -0.1                          T                                        5012072
LPG   001.34 195.2 m E Sn      2012/06/22 23:39:06.7  -0.3                          T                 .8  .30 Ml 1.4         5012071
HAU   001.36 333.6 m E Pg      2012/06/22 23:38:50.6  -0.1                          T                                        5009535
HAU   001.36 333.6 m E Sg      2012/06/22 23:39:08.2   0.0                          T                2.0  .22 Ml 1.7 Md 2.0  5009550
CDF   001.62 000.6 m E Pn      2012/06/22 23:38:53.2  -0.1                          T                                        5012073
CDF   001.62 000.6 m E Pg      2012/06/22 23:38:55.6   0.0                          T                                        5009541
CDF   001.62 000.6 m E Sg      2012/06/22 23:39:16.2  -0.3                          T                 .6  .17 Ml 1.7         5009540
THEF  001.67 329.8 m E Pn      2012/06/22 23:38:53.8  -0.1                          T                                        5009547
THEF  001.67 329.8 m E Sn      2012/06/22 23:39:14.3  -0.3                          T                1.5  .27 Ml 1.8         5009546
PAGF  002.04 330.3 m E Pn      2012/06/22 23:38:59.1   0.2                          T                                        5009544
PAGF  002.04 330.3 m E Sn      2012/06/22 23:39:23.3  -0.2 165.9  16.7              T                 .2  .15 Ml 1.4         5009545
SFTF  002.06 314.1 m E Pn      2012/06/22 23:38:59.4   0.3                          T                                        5009549
SFTF  002.06 314.1 m E Sn      2012/06/22 23:39:23.8   0.0                          T                 .6  .18 Ml 1.7         5009548
MBDF  002.09 189.4 m E Pn      2012/06/22 23:38:59.6  -0.1                          T                                        5012188
MBDF  002.09 189.4 m E Sn      2012/06/22 23:39:25.1   0.3                          T                 .8  .22 Ml 1.8         5012187
ORIF  002.10 207.6 m E Pn      2012/06/22 23:39:00.0   0.2                          T                                        5012192
ORIF  002.10 207.6 m E Sn      2012/06/22 23:39:25.4   0.4                          T                 .5  .23 Ml 1.6         5012191
MEZF  002.27 319.8 m E Pn      2012/06/22 23:39:01.2  -0.7                          T                                        5012200
MEZF  002.27 319.8 m E Sn      2012/06/22 23:39:28.8   0.0 138.7  0.5               T                2.0  .34 Ml 2.0         5012199
SMF   002.35 267.7 m E Pn      2012/06/22 23:39:03.3   0.2                          T                                        5012195
SMF   002.35 267.7 m E Pg      2012/06/22 23:39:09.0   0.2                          T                                        5012194
SMF   002.35 267.7 m E Sg      2012/06/22 23:39:38.3  -0.9                          T                 .8  .16 Ml 2.0         5012193
LOR   002.37 282.9 m E Pn      2012/06/22 23:39:03.6   0.3                          T                                        5009543
LOR   002.37 282.9 m E Sn      2012/06/22 23:39:30.6  -0.6 110.7  10.3              T                 .9  .18 Ml 2.0         5009542
VIVF  002.64 223.9 m E Pn      2012/06/22 23:39:07.1   0.0                          T                                        5012189
VIVF  002.64 223.9 m E Sg      2012/06/22 23:39:47.8  -0.6                          T                 .6  .17 Ml 1.9         5012190
SMRF  003.05 203.3 m E Pn      2012/06/22 23:39:12.4  -0.2                          T                                        5012186
AVF   002.68 271.4 m E Pg      2012/06/22 23:39:15.1   0.3                          T                                        5012196
AVF   002.68 271.4 m E Sg      2012/06/22 23:39:48.8  -0.5                          T                 .3  .18 Ml 1.5         5012197
SSF   002.58 277.4 m E Sg      2012/06/22 23:39:46.0  -0.3                          T                1.2  .24 Ml 2.1         5012198

.
EVENT     278587
    Date      Time       Latitude Longitude    Depth    Ndef Nsta Gap    Mag1  N    Mag2  N    Mag3  N   Author         ID
       rms   OT_Error      Smajor Sminor Az        Err   mdist  Mdist     Err        Err        Err      Quality

2012/06/23 00:14:58.2     44.9759    6.7043      2.0      25    9 096  Ml 1.2  4  Md 1.6  4              bulletin    278687
                                                                                                         _ldg
      0.15   +-  0.03        .7     .6   74.96 +-  0.0    0.08   1.65   +-0.2      +-0.0                 m i ke

FRANCE
Sta     Dist  EvAz     Phase      Date       Time     TRes  Azim  AzRes  Slow  SRes Def   SNR       Amp   Per   Mag1   Mag2       ID
MBDF  000.25 169.1 m E Pg      2012/06/23 00:15:03.3  -0.1                          T                                        5009579
MBDF  000.25 169.1 m E Sg      2012/06/23 00:15:07.1   0.2                          T                5.6  .18        Md 1.6  5009578
LPG   000.52 003.6 m E Pg      2012/06/23 00:15:08.4  -0.1                          T                                        5009574
LPG   000.52 003.6 m E Sg      2012/06/23 00:15:15.2  -0.2                          T                1.4  .18        Md 1.7  5009573
LPL   000.54 002.1 m E Pg      2012/06/23 00:15:09.0   0.2                          T                                        5009575
LPL   000.54 002.1 m E Sg      2012/06/23 00:15:15.7  -0.2                          T                 .8  .20        Md 1.6  5009570
ORIF  000.59 264.7 m E Pg      2012/06/23 00:15:09.6   0.1                          T                                        5009577
ORIF  000.59 264.7 m E Sg      2012/06/23 00:15:17.0  -0.2                          T                3.5  .25        Md 1.6  5009576
SBF   001.23 154.5 m E Pg      2012/06/23 00:15:21.2   0.0                          T                                        5012203
SBF   001.23 154.5 m E Sg      2012/06/23 00:15:37.3   0.1                          T                                        5012202
SMRF  001.29 219.3 m E Pg      2012/06/23 00:15:22.2   0.0                          T                                        5012207
SMRF  001.29 219.3 m E Sg      2012/06/23 00:15:38.9   0.0                          T                 .3  .20 Ml 1.2         5012206
FRF   001.42 181.7 m E Pn      2012/06/23 00:15:23.1  -0.2                          T                                        5009567
FRF   001.42 181.7 m E Sn      2012/06/23 00:15:41.7   0.3                          T                 .5  .18 Ml 1.4         5009566
VIVF  001.45 266.0 m E Pn      2012/06/23 00:15:23.9   0.1                          T                                        5009572
VIVF  001.45 266.0 m E Sn      2012/06/23 00:15:42.3   0.0                          T                 .3  .24 Ml 1.1         5009571
LMR   001.65 185.0 m E Pn      2012/06/23 00:15:26.3  -0.2                          T                                        5009569
LMR   001.65 185.0 m E Sn      2012/06/23 00:15:46.6  -0.4                          T                 .3  .24 Ml 1.2         5009568

.
EVENT     278595
    Date      Time       Latitude Longitude    Depth    Ndef Nsta Gap    Mag1  N    Mag2  N    Mag3  N   Author         ID
       rms   OT_Error      Smajor Sminor Az        Err   mdist  Mdist     Err        Err        Err      Quality

2012/06/23 05:14:54.6     44.2110    8.2729     10.0      36    9 101  Ml 1.6  8  Md 1.8  2              bulletin    278695
                                                                                                         _ldg
      0.51   +-  0.07       1.5    1.1  126.11 +-  0.0    0.05   1.96   +-0.2      +-0.0                 m i ke

NORTHERN ITALY
Sta     Dist  EvAz     Phase      Date       Time     TRes  Azim  AzRes  Slow  SRes Def   SNR       Amp   Per   Mag1   Mag2       ID
SBF   000.70 240.4 m E Pg      2012/06/23 05:15:08.4   0.5                          T                                        5009841
SBF   000.70 240.4 m E Sg      2012/06/23 05:15:17.5   0.3                          T                2.1  .17        Md 1.8  5009840
MBDF  001.19 296.2 m E Pn      2012/06/23 05:15:16.0   0.1                          T                                        5009832
MBDF  001.19 296.2 m E Sn      2012/06/23 05:15:31.3   0.1                          T                 .7  .21 Ml 1.4 Md 1.8  5009831
FRF   001.34 241.6 m E Pg      2012/06/23 05:15:19.6  -0.1                          T                                        5009836
FRF   001.34 241.6 m E Sg      2012/06/23 05:15:37.3   0.2                          T                1.6  .25 Ml 1.8         5009835
LMR   001.55 236.1 m E Pn      2012/06/23 05:15:20.9   0.3                          T                                        5009839
LMR   001.55 236.1 m E Sg      2012/06/23 05:15:43.4  -0.1                          T                 .8  .20 Ml 1.7         5009838
LPL   001.70 320.5 m E Pn      2012/06/23 05:15:23.0   0.0                          T                                        5009846
LPL   001.70 320.5 m E Sn      2012/06/23 05:15:44.0   0.4                          T                  1  .29 Ml 1.7         5009845
ORIF  001.85 293.3 m E Pn      2012/06/23 05:15:24.9   0.0                          T                                        5009844
ORIF  001.85 293.3 m E Sn      2012/06/23 05:15:47.4   0.5                          T                 .6  .33 Ml 1.5         5009843
LPG   001.68 320.5 m E Pg      2012/06/23 05:15:26.7   0.4                          T                                        5009848
LPG   001.68 320.5 m E Sg      2012/06/23 05:15:48.0   0.0                          T                 .5  .22 Ml 1.5         5009847
SMRF  001.96 264.0 m E Pg      2012/06/23 05:15:31.3   0.2                          T                                        5009834
SMRF  001.96 264.0 m E Sg      2012/06/23 05:15:57.1   0.7                          T                 .7  .38 Ml 1.4         5009833
PGF   001.74 162.1 m E Sn      2012/06/23 05:15:44.1  -0.2                          T                1.1  .20 Ml 2.1         5009842

.
