EVENT     285811
    Date      Time       Latitude Longitude    Depth    Ndef Nsta Gap    Mag1  N    Mag2  N    Mag3  N   Author         ID
       rms   OT_Error      Smajor Sminor Az        Err   mdist  Mdist     Err        Err        Err      Quality

2012/10/24 17:51:32.0     44.4729    6.6519      2.0      19    6 071  Ml 1.2  4  Md 1.3  1              bulletin    285911
                                                                                                         _ldg
      0.18   +-  0.04        .9     .7   90.94 +-  0.0    0.12   1.14   +-0.3      +-                    m i ke

FRANCE
Sta     Dist  EvAz     Phase      Date       Time     TRes  Azim  AzRes  Slow  SRes Def   SNR       Amp   Per   Mag1   Mag2       ID
MBDF  000.27 018.5 m E Pg      2012/10/24 17:51:37.3  -0.2                          T                                        5103850
MBDF  000.27 018.5 m E Sg      2012/10/24 17:51:40.9  -0.2                          T                1.9  .24        Md 1.3  5103848
ORIF  000.71 309.2 m E Pg      2012/10/24 17:51:45.7   0.2                          T                                        5103849
ORIF  000.71 309.2 m E Sg      2012/10/24 17:51:55.2   0.4                          T                1.5  .30                5103847
FRF   000.91 180.2 m E Pg      2012/10/24 17:51:49.0  -0.1                          T                                        5103858
FRF   000.91 180.2 m E Sg      2012/10/24 17:52:00.7  -0.3                          T                1.3  .20 Ml 1.6         5103853
SMRF  000.92 237.7 m E Pg      2012/10/24 17:51:49.5   0.2                          T                                        5103857
SMRF  000.92 237.7 m E Sg      2012/10/24 17:52:01.2  -0.1                          T                 .4  .28 Ml 1           5103854
LPG   001.03 003.9 m E Pg      2012/10/24 17:51:51.5  -0.2                          T                                        5103856
LPG   001.03 003.9 m E Sg      2012/10/24 17:52:05.0   0.0                          T                 .2  .16 Ml  .9         5103855
LMR   001.14 185.2 m E Pg      2012/10/24 17:51:53.2  -0.2                          T                                        5103851
LMR   001.14 185.2 m E Sg      2012/10/24 17:52:08.0  -0.2                          T                 .8  .30 Ml 1.3         5103852

.
EVENT     285812
    Date      Time       Latitude Longitude    Depth    Ndef Nsta Gap    Mag1  N    Mag2  N    Mag3  N   Author         ID
       rms   OT_Error      Smajor Sminor Az        Err   mdist  Mdist     Err        Err        Err      Quality

2012/10/24 20:37:01.3     45.5465    6.9954      2.0      18    8 268  Ml 1.1  6  Md 1.2  3              bulletin    285912
                                                                                                         _ldg
      0.22   +-  0.17       3.0    1.5   26.06 +-  0.0    0.18   2.24   +-0.2      +-0.2                 m i ke

FRANCE
Sta     Dist  EvAz     Phase      Date       Time     TRes  Azim  AzRes  Slow  SRes Def   SNR       Amp   Per   Mag1   Mag2       ID
LPL   000.19 260.9 m E Pg      2012/10/24 20:37:05.2  -0.2                          T                                        5103862
LPL   000.19 260.9 m E Sg      2012/10/24 20:37:07.4  -0.6                          T                2.2  .24        Md 1.2  5103861
LPG   000.18 254.2 m E Pg      2012/10/24 20:37:05.3   0.0                          T                                        5103860
LPG   000.18 254.2 m E Sg      2012/10/24 20:37:07.7  -0.1                          T                2.3  .22        Md 1.4  5103859
MBDF  000.83 191.0 m E Pg      2012/10/24 20:37:17.2   0.1                          T                                        5103864
MBDF  000.83 191.0 m E Sg      2012/10/24 20:37:28.0  -0.1                          T                 .3  .30                5103863
ORIF  001.01 231.8 m E Pg      2012/10/24 20:37:20.1  -0.2                          T                                        5103865
ORIF  001.01 231.8 m E Sg      2012/10/24 20:37:33.9   0.5                          T                 .8  .30 Ml 1.2 Md 1.0  5103866
SBF   001.71 169.3 m E Pn      2012/10/24 20:37:30.8   0.3                          T                                        5103868
SBF   001.71 169.3 m E Sn      2012/10/24 20:37:51.5  -0.2                          T                 .3  .19 Ml 1.3         5103867
SMRF  001.87 213.3 m E Pn      2012/10/24 20:37:32.8   0.2                          T                                        5103874
SMRF  001.87 213.3 m E Sn      2012/10/24 20:37:55.4   0.0                          T                 .1  .23 Ml  .9         5103873
FRF   002.00 187.3 m E Pn      2012/10/24 20:37:34.2  -0.2                          T                                        5103872
FRF   002.00 187.3 m E Sn      2012/10/24 20:37:58.4   0.0                          T                 .1  .19 Ml 1.1         5103871
LMR   002.24 189.1 m E Pn      2012/10/24 20:37:37.4  -0.2                          T                                        5103870
LMR   002.24 189.1 m E Sn      2012/10/24 20:38:04.0  -0.1                          T                 .1  .19 Ml  .9         5103869

.
EVENT     285813
    Date      Time       Latitude Longitude    Depth    Ndef Nsta Gap    Mag1  N    Mag2  N    Mag3  N   Author         ID
       rms   OT_Error      Smajor Sminor Az        Err   mdist  Mdist     Err        Err        Err      Quality

2012/10/24 22:53:16.8     43.0330    -.3952      2.0      19    6 131  Ml 1.4  4  Md 1.5  3              bulletin    285913
                                                                                                         _ldg
      0.28   +-  0.08       2.3    1.4  150.93 +-  0.0    0.18   3.57   +-0.3      +-0.2                 m i ke

PYRENEES
Sta     Dist  EvAz     Phase      Date       Time     TRes  Azim  AzRes  Slow  SRes Def   SNR       Amp   Per   Mag1   Mag2       ID
ETSF  000.18 221.9 m E Pg      2012/10/24 22:53:20.5  -0.1                          T                                        5103880
ETSF  000.18 221.9 m E Sg      2012/10/24 22:53:23.1   0.0                          T                2.7  .17        Md 1.5  5103879
EPF   000.54 090.0 m E Pg      2012/10/24 22:53:27.2   0.0                          T                                        5103878
EPF   000.54 090.0 m E Sg      2012/10/24 22:53:33.8  -0.4                          T                1.4  .20        Md 1.3  5103877
SJPF  000.61 277.8 m E Pg      2012/10/24 22:53:28.2  -0.3                          T                                        5103891
SJPF  000.61 277.8 m E Sg      2012/10/24 22:53:37.0   0.5                          T                1.4  .23        Md 1.6  5103892
LFF   002.07 022.9 m E Pn      2012/10/24 22:53:50.9   0.1                          T                                        5103887
LFF   002.07 022.9 m E Pg      2012/10/24 22:53:54.9  -0.5                          T                                        5103886
LFF   002.07 022.9 m E Sg      2012/10/24 22:54:21.9  -0.2                          T                 .8  .23 Ml 1.6         5103884
CAF   002.59 042.3 m E Pn      2012/10/24 22:53:58.3   0.3                          T                                        5103890
CAF   002.59 042.3 m E Pg      2012/10/24 22:54:04.7  -0.4                          T                                        5103889
CAF   002.59 042.3 m E Sg      2012/10/24 22:54:37.8  -0.6                          T                 .5  .20 Ml 1.7         5103888
RJF   002.65 030.5 m E Pn      2012/10/24 22:53:59.2   0.4                          T                                        5103882
RJF   002.65 030.5 m E Pg      2012/10/24 22:54:06.7   0.6                          T                                        5103883
RJF   002.65 030.5 m E Sn      2012/10/24 22:54:30.2   0.5                          T                 .2  .17 Ml 1.1         5103881

.
EVENT     285814
    Date      Time       Latitude Longitude    Depth    Ndef Nsta Gap    Mag1  N    Mag2  N    Mag3  N   Author         ID
       rms   OT_Error      Smajor Sminor Az        Err   mdist  Mdist     Err        Err        Err      Quality

2012/10/25 00:38:29.2     42.8342   -1.2047       .0      14    3 173  Ml 1.1  1  Md 1.3  2              bulletin    285914
                                                                                                         _ldg
      0.28   +-  0.13       2.5    1.3    3.14 +-  0.4    0.03   1.15   +-         +-0.1                 m i ke

PYRENEES
Sta     Dist  EvAz     Phase      Date       Time     TRes  Azim  AzRes  Slow  SRes Def   SNR       Amp   Per   Mag1   Mag2       ID
SJPF  000.28 357.0 m E Pg      2012/10/25 00:38:35.1   0.1                          T                                        5103900
SJPF  000.28 357.0 m E Sg      2012/10/25 00:38:38.8  -0.1                          T                3.7  .24        Md 1.3  5103899
ETSF  000.48 082.1 m E Pg      2012/10/25 00:38:38.6  -0.2                          T                                        5103898
ETSF  000.48 082.1 m E Sg      2012/10/25 00:38:45.5   0.2                          T                 .8  .24        Md 1.2  5103897
EPF   001.15 079.7 m E Pg      2012/10/25 00:38:50.9  -0.2                          T                                        5103902
EPF   001.15 079.7 m E Sg      2012/10/25 00:39:06.0  -0.2                          T                 .5  .33 Ml 1.1         5103901

.
