EVENT     260732
    Date      Time       Latitude Longitude    Depth    Ndef Nsta Gap    Mag1  N    Mag2  N    Mag3  N   Author         ID
       rms   OT_Error      Smajor Sminor Az        Err   mdist  Mdist     Err        Err        Err      Quality

2011/06/24 10:29:10.9     48.3162    9.0442     10.0      33   10 060  Ml 2.5  9  Md 2.4  3              js067245    260732

      0.48   +-  0.05       1.0     .9  124.23 +-  0.0    0.21   3.65   +-0.3      +-0.1                 m i ke

GERMANY
Sta     Dist  EvAz     Phase      Date       Time     TRes  Azim  AzRes  Slow  SRes Def   SNR       Amp   Per   Mag1   Mag2       ID
LANF  001.06 309.4 m E Pg      2011/06/24 10:29:30.8   0.0                          T                                        4712402
LANF  001.06 309.4 m E P       2011/06/24 10:29:32.3   0.5                          T                                        4712403
LANF  001.06 309.4 m E Sg      2011/06/24 10:29:44.4  -0.1                          T               19.2  .20 Ml 2.8 Md 2.5  4712401
CDF   001.18 275.3 m E Pg      2011/06/24 10:29:32.8  -0.4                          T                                        4712406
CDF   001.18 275.3 m E Sg      2011/06/24 10:29:48.4  -0.1                          T               25.0  .22 Ml 3.1 Md 2.3  4712400
HINF  001.55 252.0 m E Pn      2011/06/24 10:29:36.4  -0.6                          T                                        4712404
HINF  001.55 252.0 m E Pg      2011/06/24 10:29:39.7  -0.2                          T                                        4712405
HINF  001.55 252.0 m E Sg      2011/06/24 10:30:00.0   0.1                          T                8.5  .30 Ml 2.5 Md 2.4  4712390
HAU   001.83 261.2 m E Pn      2011/06/24 10:29:41.1   0.3                          T                                        4712398
HAU   001.83 261.2 m E Pg      2011/06/24 10:29:44.9  -0.1                          T                                        4712691
HAU   001.83 261.2 m E Sg      2011/06/24 10:30:08.9   0.2                          T                8.8  .24 Ml 2.5         4712397
RUP   001.91 317.5 m E Pg      2011/06/24 10:29:46.7   0.3                          T                                        4712399
RUP   001.91 317.5 m E Sn      2011/06/24 10:30:06.0   1.6                          T                                        4712393
RUP   001.91 317.5 m E Sg      2011/06/24 10:30:11.2   0.2                          T                                        4712394
MEZF  002.67 275.5 m E Pn      2011/06/24 10:29:52.4   0.3                          T                                        4712689
MEZF  002.67 275.5 m E Sg      2011/06/24 10:30:34.8   0.2                          T                2.5  .23 Ml 2.4         4712388
PAGF  002.22 277.4 m E Pg      2011/06/24 10:29:52.7   0.5 101.8  6.9               T                                        4712391
PAGF  002.22 277.4 m E Sg      2011/06/24 10:30:21.2   0.3  92.5  -2.4              T                1.1  .20 Ml 2.0         4712395
SFTF  002.68 269.1 m E Pn      2011/06/24 10:29:52.8   0.5  94.2  8.0               T                                        4712389
SFTF  002.68 269.1 m E Pg      2011/06/24 10:30:00.6   0.1                          T                                        4712690
SFTF  002.68 269.1 m E Sg      2011/06/24 10:30:35.2   0.1                          T                3.3  .19 Ml 2.6         4712396
CABF  002.63 230.7 m E Sg      2011/06/24 10:30:34.1   0.4                          T                2.2  .31 Ml 2.2         4712387
LOR   003.65 255.2 m E Sg      2011/06/24 10:31:05.2  -0.1  70.6  -0.8              T                2.3  .30 Ml 2.5         4712392

.
EVENT     260740
    Date      Time       Latitude Longitude    Depth    Ndef Nsta Gap    Mag1  N    Mag2  N    Mag3  N   Author         ID
       rms   OT_Error      Smajor Sminor Az        Err   mdist  Mdist     Err        Err        Err      Quality

2011/06/24 14:18:34.4     45.3963     .1147      3.0 f    64   22 115  Ml 2.6 23  Md 2.6  2              js067245    260740

      0.38   +-  0.05       1.0     .8   67.02 +-  0.0    0.64   3.75   +-0.3      +-0.1                 m i ke

FRANCE
Sta     Dist  EvAz     Phase      Date       Time     TRes  Azim  AzRes  Slow  SRes Def   SNR       Amp   Per   Mag1   Mag2       ID
LFF   000.64 135.7 m E Pg      2011/06/24 14:18:45.7  -0.7                          T                                        4712521
LFF   000.64 135.7 m E Sg      2011/06/24 14:18:54.5  -0.2                          T               49.9  .27        Md 2.7  4712497
RJF   000.99 094.8 m E Pg      2011/06/24 14:18:52.8  -0.1                          T                                        4712475
RJF   000.99 094.8 m E Pn      2011/06/24 14:18:53.6   0.0                          T                                        4712519
RJF   000.99 094.8 m E Sg      2011/06/24 14:19:05.7  -0.2                          T               64.8  .18 Ml 3.0 Md 2.6  4712502
RJF   000.99 094.8 m E Sn      2011/06/24 14:19:07.4   0.1                          T                                        4712496
MFF   001.22 351.5 m E Pn      2011/06/24 14:18:56.6   0.0                          T                                        4712520
MFF   001.22 351.5 m E Pg      2011/06/24 14:18:57.4   0.3                          T                                        4712513
MFF   001.22 351.5 m E Sg      2011/06/24 14:19:12.8  -0.1                          T               32.1  .20 Ml 3.3         4712503
CAF   001.46 108.1 m E Pn      2011/06/24 14:18:59.9  -0.1                          T                                        4712518
CAF   001.46 108.1 m E Pg      2011/06/24 14:19:01.3  -0.3                          T                                        4712512
CAF   001.46 108.1 m E Sn      2011/06/24 14:19:18.2  -0.2                          T                                        4713063
CAF   001.46 108.1 m E Sg      2011/06/24 14:19:20.4   0.0                          T               17.0  .16 Ml 3.0         4712504
TCF   001.71 057.9 m E Pn      2011/06/24 14:19:03.6   0.1                          T                                        4712514
TCF   001.71 057.9 m E Pg      2011/06/24 14:19:06.3  -0.1                          T                                        4712508
TCF   001.71 057.9 m E Sg      2011/06/24 14:19:27.3  -1.2                          T                7.0  .20 Ml 2.7         4712501
BGF   002.23 057.6 m E Pn      2011/06/24 14:19:10.6   0.1                          T                                        4712516
BGF   002.23 057.6 m E Pg      2011/06/24 14:19:16.1   0.3                          T                                        4712510
BGF   002.23 057.6 m E Sg      2011/06/24 14:19:44.2  -0.3                          T               24.8  .38 Ml 3.1         4712506
MTLF  002.55 143.0 m E Pn      2011/06/24 14:19:14.8   0.0                          T                                        4712470
MTLF  002.55 143.0 m E Pg      2011/06/24 14:19:21.2  -0.5                          T                                        4712492
MTLF  002.55 143.0 m E Sn      2011/06/24 14:19:44.8   0.4                          T                                        4712494
MTLF  002.55 143.0 m E Sg      2011/06/24 14:19:54.9   0.4                          T                3.3  .28 Ml 2.4         4712493
AVF   002.65 057.1 m E Pn      2011/06/24 14:19:16.0  -0.1                          T                                        4712515
AVF   002.65 057.1 m E P       2011/06/24 14:19:18.7  -0.1                          T                                        4713070
AVF   002.65 057.1 m E Sn      2011/06/24 14:19:46.6  -0.3                          T                                        4712480
AVF   002.65 057.1 m E Sg      2011/06/24 14:19:57.2  -0.4                          T                4.8  .33 Ml 2.5         4712505
ETSF  002.54 191.2 m E P       2011/06/24 14:19:17.1  -0.2                          T                                        4713066
ETSF  002.54 191.2 m E Pg      2011/06/24 14:19:21.7   0.0                          T                                        4713061
ETSF  002.54 191.2 m E Sn      2011/06/24 14:19:44.9   0.4                          T                4.8  .34 Ml 2.5         4712471
SMF   002.88 063.0 m E Pn      2011/06/24 14:19:19.2  -0.1                          T                                        4712509
SMF   002.88 063.0 m E P       2011/06/24 14:19:22.6   0.4                          T                                        4712478
SMF   002.88 063.0 m E Pg      2011/06/24 14:19:28.2   0.4                          T                                        4712479
SMF   002.88 063.0 m E Sg      2011/06/24 14:20:04.8   0.0                          T                2.6  .21 Ml 2.5         4713069
SSF   002.88 053.5 m E Pn      2011/06/24 14:19:19.6   0.3                          T                                        4712483
SSF   002.88 053.5 m E Pg      2011/06/24 14:19:28.0   0.2                          T                                        4712482
SSF   002.88 053.5 m E Sg      2011/06/24 14:20:04.4  -0.5                          T                2.6  .25 Ml 2.5         4713071
SJPF  002.48 203.3 m E Pg      2011/06/24 14:19:19.8  -0.5                          T                                        4712495
SJPF  002.48 203.3 m E Sn      2011/06/24 14:19:42.6  -0.1                          T                3.0  .28 Ml 2.3         4712472
SJPF  002.48 203.3 m E Sg      2011/06/24 14:19:52.3   0.1                          T                2.6  .24 Ml 2.4         4713067
LASF  002.98 115.0 m E Pn      2011/06/24 14:19:21.0   0.4                          T                                        4712467
LASF  002.98 115.0 m E Pg      2011/06/24 14:19:29.6   0.0                          T                                        4712491
LASF  002.98 115.0 m E Sg      2011/06/24 14:20:07.7   0.0                          T                3.3  .31 Ml 2.5         4712486
QUIF  003.39 319.3 m E Pn      2011/06/24 14:19:25.9  -0.2                          T                                        4712477
QUIF  003.39 319.3 m E Pg      2011/06/24 14:19:35.5  -1.5                          T                                        4713062
QUIF  003.39 319.3 m E Sg      2011/06/24 14:20:20.3  -0.2                          T                2.8  .22 Ml 2.6         4712484
SGMF  003.40 328.3 m E Pn      2011/06/24 14:19:26.3   0.0                          T                                        4712476
SGMF  003.40 328.3 m E Pg      2011/06/24 14:19:37.6   0.3                          T                                        4712469
SGMF  003.40 328.3 m E Sg      2011/06/24 14:20:20.7  -0.2                          T                1.8  .25 Ml 2.4         4713068
ROSF  003.75 322.9 m E Pn      2011/06/24 14:19:31.0  -0.1                          T                                        4712488
ROSF  003.75 322.9 m E Sg      2011/06/24 14:20:32.7   0.8                          T                1.8  .23 Ml 2.5         4712489
VIVF  003.27 097.9 m E Pg      2011/06/24 14:19:35.2   0.2                          T                                        4712490
VIVF  003.27 097.9 m E Sg      2011/06/24 14:20:17.1   0.1                          T                2.9  .27 Ml 2.5         4712487
EPF   002.37 176.0 m E Sg      2011/06/24 14:19:49.2   0.3                          T                7.7  .20 Ml 2.9         4712485
LDF   003.20 357.2 m E Sn      2011/06/24 14:19:59.6  -0.5                          T                                        4712498
LDF   003.20 357.2 m E Sg      2011/06/24 14:20:12.7  -2.2                          T                3.6  .25 Ml 2.6         4712499
FLN   003.39 353.3 m E Sn      2011/06/24 14:20:04.7   0.1                          T                                        4712474
FLN   003.39 353.3 m E Sg      2011/06/24 14:20:20.5  -0.3                          T                4.2  .29 Ml 2.5         4712473
GRR   003.07 347.8 m E Sg      2011/06/24 14:20:10.8   0.2                          T                4.8  .20 Ml 2.7         4712500
LOR   003.20 052.8 m E Sg      2011/06/24 14:20:14.1  -0.7                          T                3.7  .30 Ml 2.6         4712481

.
EVENT     260741
    Date      Time       Latitude Longitude    Depth    Ndef Nsta Gap    Mag1  N    Mag2  N    Mag3  N   Author         ID
       rms   OT_Error      Smajor Sminor Az        Err   mdist  Mdist     Err        Err        Err      Quality

2011/06/24 16:30:57.4     44.8114    6.7437      2.0       7    4 166  Ml 1.9  1  Md 1.7  3              js067245    260741

      0.24   +-  0.11       2.8    1.9   77.97 +-  0.0    0.09   1.18   +-         +-0.1                 m i ke

FRANCE
Sta     Dist  EvAz     Phase      Date       Time     TRes  Azim  AzRes  Slow  SRes Def   SNR       Amp   Per   Mag1   Mag2       ID
MBDF  000.09 166.8 m E Pg      2011/06/24 16:30:59.5  -0.1                          T                                        4712542
MBDF  000.09 166.8 m E Sg      2011/06/24 16:31:00.6  -0.4                          T               12.7  .20        Md 1.7  4712540
ORIF  000.62 280.2 m E Pg      2011/06/24 16:31:09.6   0.2                          T                                        4712541
ORIF  000.62 280.2 m E Sg      2011/06/24 16:31:17.2  -0.4                          T                1.7  .32        Md 1.8  4712539
LPG   000.69 000.5 m E Pn      2011/06/24 16:31:13.0   0.0                          T                                        4712537
LPG   000.69 000.5 m E Sg      2011/06/24 16:31:19.4  -0.3                          T                                Md 1.6  4712538
SMRF  001.18 225.5 m E Sg      2011/06/24 16:31:34.7  -0.3                          T                1.8  .20 Ml 1.9         4712536

.
EVENT     260742
    Date      Time       Latitude Longitude    Depth    Ndef Nsta Gap    Mag1  N    Mag2  N    Mag3  N   Author         ID
       rms   OT_Error      Smajor Sminor Az        Err   mdist  Mdist     Err        Err        Err      Quality

2011/06/25 00:17:42.1     44.4205    7.2548      5.0 f    12    6 184  Ml 1.7  2  Md 1.8  1              js067245    260742

      0.19   +-  0.09       2.5     .9   75.86 +-  0.0    0.46   1.21   +-0.6      +-                    m i ke

NORTHERN ITALY
Sta     Dist  EvAz     Phase      Date       Time     TRes  Azim  AzRes  Slow  SRes Def   SNR       Amp   Per   Mag1   Mag2       ID
MBDF  000.46 311.7 m E Pg      2011/06/25 00:17:51.1  -0.1                          T                                        4712549
MBDF  000.46 311.7 m E Sg      2011/06/25 00:17:57.8   0.4                          T                3.1  .20        Md 1.8  4712551
SBF   000.57 166.8 m E Pg      2011/06/25 00:17:53.1  -0.1                          T                                        4712546
SBF   000.57 166.8 m E Sg      2011/06/25 00:18:01.2   0.6                          T                1.3  .15                4712553
FRF   000.97 207.3 m E Pg      2011/06/25 00:18:00.3   0.0                          T                                        4712548
FRF   000.97 207.3 m E Sg      2011/06/25 00:18:13.0   0.2                          T                                        4712544
ORIF  001.10 297.4 m E Pn      2011/06/25 00:18:02.8   0.1                          T                                        4712545
ORIF  001.10 297.4 m E Sg      2011/06/25 00:18:17.1   0.0                          T                 .4  .18 Ml 1.2         4712966
LPG   001.13 341.8 m E Pn      2011/06/25 00:18:03.4  -0.1                          T                                        4712550
LPG   001.13 341.8 m E Sg      2011/06/25 00:18:18.5   0.0                          T                                        4712552
LMR   001.21 206.7 m E Pg      2011/06/25 00:18:04.7  -0.1                          T                                        4712547
LMR   001.21 206.7 m E Sg      2011/06/25 00:18:20.2  -0.3                          T                3.2  .20 Ml 2.1         4712543

.
EVENT     260743
    Date      Time       Latitude Longitude    Depth    Ndef Nsta Gap    Mag1  N    Mag2  N    Mag3  N   Author         ID
       rms   OT_Error      Smajor Sminor Az        Err   mdist  Mdist     Err        Err        Err      Quality

2011/06/25 00:28:15.2     46.5332     .6801      2.0      14    7 163  Ml 1.7  7  Md 1.8  2              js067245    260743

      0.82   +-  0.14       3.5    1.9   12.85 +-  0.0    0.57   1.88   +-0.2      +-0.0                 m i ke

FRANCE
Sta     Dist  EvAz     Phase      Date       Time     TRes  Azim  AzRes  Slow  SRes Def   SNR       Amp   Per   Mag1   Mag2       ID
MFF   000.57 277.2 m E Pg      2011/06/25 00:28:26.0  -0.1                          T                                        4712573
MFF   000.57 277.2 m E Sg      2011/06/25 00:28:33.3  -0.4                          T                 .8  .27        Md 1.8  4712974
TCF   001.09 102.5 m E Pg      2011/06/25 00:28:35.9   0.3                          T                                        4712585
TCF   001.09 102.5 m E Sg      2011/06/25 00:28:49.0  -0.7                          T                1.0  .20 Ml 1.6 Md 1.7  4712584
RJF   001.36 154.3 m E Pg      2011/06/25 00:28:40.5  -0.1                          T                                        4712975
RJF   001.36 154.3 m E Sg      2011/06/25 00:28:58.3   0.1                          T                2.7  .30 Ml 1.6         4712578
BGF   001.50 088.3 m E Pg      2011/06/25 00:28:43.7   0.5                          T                                        4712979
BGF   001.50 088.3 m E Sg      2011/06/25 00:29:02.5   0.1                          T                4.4  .42 Ml 2.1         4712582
CAF   001.88 148.4 m E Pg      2011/06/25 00:28:50.5   0.3                          T                                        4712574
CAF   001.88 148.4 m E Sg      2011/06/25 00:29:13.8  -0.6                          T                 .9  .28 Ml 1.7         4712575
LFF   001.59 178.5 m E Sg      2011/06/25 00:29:05.9   0.4                          T                1.7  .28 Ml 1.7         4712576
AVF   001.86 081.1 m E Sg      2011/06/25 00:29:12.4  -1.3                          T                 .3  .21 Ml 1.3         4712579

.
