EVENT     283720
    Date      Time       Latitude Longitude    Depth    Ndef Nsta Gap    Mag1  N    Mag2  N    Mag3  N   Author         ID
       rms   OT_Error      Smajor Sminor Az        Err   mdist  Mdist     Err        Err        Err      Quality

2012/09/21 21:03:39.1     43.5550    7.6970      2.0       6    3 287  Ml 1.6  1  Md 1.2  3              bulletin    283820
                                                                                                         _ldg
      0.04   +-  0.09       1.7     .7  116.48 +-  0.0    0.36   0.89   +-         +-0.2                 m i ke

NEAR SOUTH COAST OF FRANCE
Sta     Dist  EvAz     Phase      Date       Time     TRes  Azim  AzRes  Slow  SRes Def   SNR       Amp   Per   Mag1   Mag2       ID
SBF   000.36 328.4 m E Pg      2012/09/21 21:03:46.2   0.0                          T                                        5075996
SBF   000.36 328.4 m E Sg      2012/09/21 21:03:51.0   0.0                          T               10.1  .25        Md 1.5  5075991
FRF   000.76 270.8 m E Pg      2012/09/21 21:03:53.5   0.0                          T                                        5075994
FRF   000.76 270.8 m E Sg      2012/09/21 21:04:03.4   0.0                          T                4.0  .31        Md 1.2  5075993
LMR   000.89 256.1 m E Pg      2012/09/21 21:03:55.8  -0.1                          T                                        5075995
LMR   000.89 256.1 m E Sg      2012/09/21 21:04:07.4  -0.1                          T                1.9  .31 Ml 1.6 Md 1.0  5075992

.
EVENT     283759
    Date      Time       Latitude Longitude    Depth    Ndef Nsta Gap    Mag1  N    Mag2  N    Mag3  N   Author         ID
       rms   OT_Error      Smajor Sminor Az        Err   mdist  Mdist     Err        Err        Err      Quality

2012/09/21 21:06:48.4     46.0426    7.7186      2.0      12    3 120  Ml 1.3  3  Md 1.2  1              bulletin    283859
                                                                                                         _ldg
      0.18   +-  0.06       1.4    1.1  132.88 +-  0.0    0.17   1.48   +-0.1      +-                    m i ke

SWITZERLAND
Sta     Dist  EvAz     Phase      Date       Time     TRes  Azim  AzRes  Slow  SRes Def   SNR       Amp   Per   Mag1   Mag2       ID
LPL   000.87 233.0 m E Pg      2012/09/21 21:07:05.1   0.1                          T                                        5077768
LPL   000.87 233.0 m E Sg      2012/09/21 21:07:16.2  -0.1                          T                 .9  .31 Ml 1.2 Md 1.2  5077769
CABF  001.27 297.3 m E Pg      2012/09/21 21:07:12.4   0.2                          T                                        5077770
CABF  001.27 297.3 m E Sg      2012/09/21 21:07:28.5   0.0                          T                 .5  .20 Ml 1.3         5077771
MBDF  001.48 207.2 m E Pg      2012/09/21 21:07:16.0  -0.1                          T                                        5077766
MBDF  001.48 207.2 m E Sg      2012/09/21 21:07:35.2   0.0                          T                 .3  .20 Ml 1.2         5077767

.
EVENT     283722
    Date      Time       Latitude Longitude    Depth    Ndef Nsta Gap    Mag1  N    Mag2  N    Mag3  N   Author         ID
       rms   OT_Error      Smajor Sminor Az        Err   mdist  Mdist     Err        Err        Err      Quality

2012/09/21 22:44:39.7     43.8864    5.8451      2.0      64   12 046  Ml 2.5 11  Md 2.6  3              bulletin    283822
                                                                                                         _ldg
      0.37   +-  0.05       1.2    1.1  150.92 +-  0.0    0.12   3.09   +-0.4      +-0.1                 m i ke

NEAR SOUTH COAST OF FRANCE
Sta     Dist  EvAz     Phase      Date       Time     TRes  Azim  AzRes  Slow  SRes Def   SNR       Amp   Per   Mag1   Mag2       ID
SMRF  000.21 294.8 m E Pg      2012/09/21 22:44:43.5  -0.6                          T                                        5076003
SMRF  000.21 294.8 m E Sg      2012/09/21 22:44:47.0   0.0                          T               99.4  .23        Md 2.5  5076020
FRF   000.67 119.0 m E Pg      2012/09/21 22:44:52.2  -0.1                          T                                        5076002
FRF   000.67 119.0 m E Sg      2012/09/21 22:45:00.9  -0.1                          T                                        5077598
FRF   000.67 119.0 m E Sn      2012/09/21 22:45:04.6  -0.3                          T               50.8  .20        Md 2.6  5076019
LMR   000.73 138.6 m E Pg      2012/09/21 22:44:53.2  -0.3                          T                                        5076001
LMR   000.73 138.6 m E Sg      2012/09/21 22:45:02.8  -0.3                          T               44.6  .18        Md 2.6  5076018
MBDF  001.07 038.0 m E Pn      2012/09/21 22:44:59.9  -0.4                          T                                        5075998
MBDF  001.07 038.0 m E P       2012/09/21 22:45:01.5  -0.3                          T                                        5077594
MBDF  001.07 038.0 m E Sn      2012/09/21 22:45:14.9   0.1                          T               14.1  .25 Ml 2.6         5076015
ORIF  001.03 001.4 m E P       2012/09/21 22:45:01.1  -0.2                          T                                        5075999
ORIF  001.03 001.4 m E Sg      2012/09/21 22:45:12.4  -0.1                          T                                        5077595
ORIF  001.03 001.4 m E Sn      2012/09/21 22:45:13.7  -0.2                          T               11.2  .28 Ml 2.4         5076016
SBF   001.15 090.6 m E Pn      2012/09/21 22:45:01.2   0.0                          T                                        5076000
SBF   001.15 090.6 m E Sg      2012/09/21 22:45:16.3   0.1                          T               53.0  .22 Ml 3.3         5076017
VIVF  001.28 319.5 m E Pn      2012/09/21 22:45:02.6  -0.4                          T                                        5075997
VIVF  001.28 319.5 m E Sn      2012/09/21 22:45:19.7  -0.1                          T                3.7  .26 Ml 2.1         5076014
LASF  001.45 278.2 m E Pn      2012/09/21 22:45:04.3  -0.9                          T                                        5076013
LASF  001.45 278.2 m E Pg      2012/09/21 22:45:06.7   0.0                          T                                        5077593
LASF  001.45 278.2 m E Sn      2012/09/21 22:45:23.5  -0.2                          T                4.1  .34 Ml 2.1         5076010
LPL   001.75 020.9 m E P       2012/09/21 22:45:11.0  -0.7                          T                                        5076008
LPL   001.75 020.9 m E Pg      2012/09/21 22:45:12.5   0.0                          T                                        5077596
LPL   001.75 020.9 m E Sg      2012/09/21 22:45:34.6  -0.4                          T                6.6  .32 Ml 2.5         5076006
LPG   001.74 021.5 m E P       2012/09/21 22:45:11.3  -0.2                          T                                        5076007
LPG   001.74 021.5 m E Pg      2012/09/21 22:45:12.5   0.1                          T                                        5077597
LPG   001.74 021.5 m E Sg      2012/09/21 22:45:34.5  -0.2                          T                5.5  .18 Ml 2.6         5076005
PGF   002.67 119.0 m E Pn      2012/09/21 22:45:21.6  -0.4                          T                                        5076012
PGF   002.67 119.0 m E Sn      2012/09/21 22:45:51.7  -1.2                          T                5.3  .16 Ml 3.1         5076011
MTLF  002.69 259.6 m E Pn      2012/09/21 22:45:22.2   0.0                          T                                        5076009
MTLF  002.69 259.6 m E Sn      2012/09/21 22:45:53.2  -0.2                          T                                        5076004
MTLF  002.69 259.6 m E Sg      2012/09/21 22:46:04.8   0.6                          T                 .8  .29 Ml 1.8         5077592

.
EVENT     283724
    Date      Time       Latitude Longitude    Depth    Ndef Nsta Gap    Mag1  N    Mag2  N    Mag3  N   Author         ID
       rms   OT_Error      Smajor Sminor Az        Err   mdist  Mdist     Err        Err        Err      Quality

2012/09/21 23:04:58.1     44.5086    7.2523      6.0 f    40    7 086  Ml 1.6  5  Md 1.6  1              bulletin    283824
                                                                                                         _ldg
      0.23   +-  0.04        .9     .6   45.59 +-  0.0    0.01   1.39   +-0.5      +-                    m i ke

NORTHERN ITALY
Sta     Dist  EvAz     Phase      Date       Time     TRes  Azim  AzRes  Slow  SRes Def   SNR       Amp   Per   Mag1   Mag2       ID
MBDF  000.41 302.6 m E Pg      2012/09/21 23:05:06.4   0.2                          T                                        5076079
MBDF  000.41 302.6 m E Sg      2012/09/21 23:05:11.7   0.1                          T                7.9  .26        Md 1.6  5076078
SBF   000.66 168.4 m E Pg      2012/09/21 23:05:10.8   0.0                          T                                        5076073
SBF   000.66 168.4 m E Sg      2012/09/21 23:05:19.2  -0.2                          T                4.0  .26                5076072
FRF   001.04 205.0 m E Pn      2012/09/21 23:05:17.9   0.3                          T                                        5076077
FRF   001.04 205.0 m E Sn      2012/09/21 23:05:31.2  -0.5                          T                2.1  .21 Ml 1.9         5076075
LPL   001.07 340.1 m E Pn      2012/09/21 23:05:18.2  -0.2                          T                                        5076070
LPL   001.07 340.1 m E Sn      2012/09/21 23:05:32.1  -0.6                          T                 .4  .24 Ml 1.1         5076067
ORIF  001.06 293.2 m E Pn      2012/09/21 23:05:18.3   0.3                          T                                        5076071
ORIF  001.06 293.2 m E Sn      2012/09/21 23:05:32.1  -0.2                          T                 .5  .20 Ml 1.3         5076068
LMR   001.29 204.8 m E Pn      2012/09/21 23:05:22.5   1.5                          T                                        5076076
LMR   001.29 204.8 m E Sg      2012/09/21 23:05:39.2   0.2                          T                3.7  .20 Ml 2.2         5076074
SMRF  001.32 246.7 m E Pg      2012/09/21 23:05:23.0   0.2                          T                                        5077772
SMRF  001.32 246.7 m E Sn      2012/09/21 23:05:38.5   0.2                          T                  1  .32 Ml 1.4         5076066

.
EVENT     283761
    Date      Time       Latitude Longitude    Depth    Ndef Nsta Gap    Mag1  N    Mag2  N    Mag3  N   Author         ID
       rms   OT_Error      Smajor Sminor Az        Err   mdist  Mdist     Err        Err        Err      Quality

2012/09/22 01:16:07.4     43.9064   17.1763     10.0 f    49    6 123  Ml 2.9  6                         bulletin    283861
                                                                                                         _ldg
      0.86   +-  0.14       4.6    2.8   24.18 +-  0.0    0.84   8.15   +-0.2                            m i ke

NORTHWESTERN BALKAN PEN.
Sta     Dist  EvAz     Phase      Date       Time     TRes  Azim  AzRes  Slow  SRes Def   SNR       Amp   Per   Mag1   Mag2       ID
SBF   007.04 273.0 m E Pn      2012/09/22 01:17:47.9  -0.3                          T                                        5077632
SBF   007.04 273.0 m E Sn      2012/09/22 01:19:02.8  -0.8                          T                2.7  .27 Ml 3.3         5077631
MBDF  007.51 279.9 m E Pn      2012/09/22 01:17:54.1  -0.6                          T                                        5077622
MBDF  007.51 279.9 m E Sn      2012/09/22 01:19:12.4  -2.5                          T                 .7  .27 Ml 2.8         5077621
LPL   007.61 285.8 m E Pn      2012/09/22 01:17:55.8  -0.4                          T                                        5077623
LPL   007.61 285.8 m E Sn      2012/09/22 01:19:17.0  -0.5                          T                 .9  .22 Ml 2.9         5077624
FRF   007.64 271.0 m E Pn      2012/09/22 01:17:56.2   0.0                          T                                        5077628
FRF   007.64 271.0 m E Sn      2012/09/22 01:19:17.1  -0.7                          T                 .5  .20 Ml 2.8         5077627
LMR   007.76 269.5 m E Pn      2012/09/22 01:17:58.8   0.8                          T                                        5077629
LMR   007.76 269.5 m E Sn      2012/09/22 01:19:20.5  -0.3                          T                 .5  .25 Ml 2.7         5077630
ORIF  008.15 281.0 m E Pn      2012/09/22 01:18:04.2   0.8                          T                                        5077625
ORIF  008.15 281.0 m E Sn      2012/09/22 01:19:30.4   0.2                          T                 .9  .26 Ml 3.0         5077626

.
EVENT     283727
    Date      Time       Latitude Longitude    Depth    Ndef Nsta Gap    Mag1  N    Mag2  N    Mag3  N   Author         ID
       rms   OT_Error      Smajor Sminor Az        Err   mdist  Mdist     Err        Err        Err      Quality

2012/09/22 04:30:45.1     44.5476    6.7233      2.0      22    5 087  Ml 1.3  3  Md 1.2  1              bulletin    283827
                                                                                                         _ldg
      0.50   +-  0.11       2.5    2.0   51.50 +-  0.0    0.09   1.22   +-0.1      +-                    m i ke

FRANCE
Sta     Dist  EvAz     Phase      Date       Time     TRes  Azim  AzRes  Slow  SRes Def   SNR       Amp   Per   Mag1   Mag2       ID
MBDF  000.18 010.8 m E Pg      2012/09/22 04:30:48.5  -0.5                          T                                        5076329
MBDF  000.18 010.8 m E Sg      2012/09/22 04:30:51.5  -0.1                          T                 .5  .18        Md 1.2  5076327
ORIF  000.71 302.0 m E Pg      2012/09/22 04:30:58.3  -0.3                          T                                        5076328
ORIF  000.71 302.0 m E Sg      2012/09/22 04:31:07.3  -0.6                          T                 .3  .17                5076326
FRF   000.99 183.2 m E Pg      2012/09/22 04:31:03.9   0.3                          T                                        5076333
FRF   000.99 183.2 m E Sg      2012/09/22 04:31:17.1   0.6                          T                 .7  .17 Ml 1.5         5076332
SMRF  001.00 235.7 m E Pg      2012/09/22 04:31:04.2   0.2                          T                                        5076335
SMRF  001.00 235.7 m E Sg      2012/09/22 04:31:16.5  -0.5                          T                 .5  .20 Ml 1.2         5076334
LMR   001.22 187.3 m E Pn      2012/09/22 04:31:07.7   0.1                          T                                        5076331
LMR   001.22 187.3 m E Sn      2012/09/22 04:31:24.0   0.3                          T                 .5  .19 Ml 1.3         5076330

.
EVENT     283728
    Date      Time       Latitude Longitude    Depth    Ndef Nsta Gap    Mag1  N    Mag2  N    Mag3  N   Author         ID
       rms   OT_Error      Smajor Sminor Az        Err   mdist  Mdist     Err        Err        Err      Quality

2012/09/22 08:44:10.6     41.8906    9.8135     15.0 f    10    4 342  Ml 2.6  5  Md 2.3  1              bulletin    283828
                                                                                                         _ldg
      0.53   +-  0.40      10.7    6.6   53.87 +-  0.0    0.89   2.87   +-0.3      +-                    m i ke

CORSICA, FRANCE
Sta     Dist  EvAz     Phase      Date       Time     TRes  Azim  AzRes  Slow  SRes Def   SNR       Amp   Per   Mag1   Mag2       ID
PGF   000.89 317.7 m E Pg      2012/09/22 08:44:27.3  -0.4                          T                                        5076343
PGF   000.89 317.7 m E Sg      2012/09/22 08:44:39.6   0.2                          T               30.4  .28 Ml 3.0 Md 2.3  5076342
SBF   002.63 319.2 m E Pn      2012/09/22 08:44:51.0   0.1                          T                                        5076341
SBF   002.63 319.2 m E Sn      2012/09/22 08:45:19.8  -0.8                          T                4.6  .25 Ml 2.6         5076340
LMR   002.83 301.7 m E Pn      2012/09/22 08:44:53.6   0.1                          T                                        5076339
LMR   002.83 301.7 m E Sn      2012/09/22 08:45:25.5   0.2                          T                1.8  .20 Ml 2.4         5076338
FRF   002.87 306.6 m E Pn      2012/09/22 08:44:54.1   0.1                          T                                        5076337
FRF   002.87 306.6 m E Sn      2012/09/22 08:45:26.3   0.1                          T                1.6  .24 Ml 2.3         5076336

.
