EVENT     275739
    Date      Time       Latitude Longitude    Depth    Ndef Nsta Gap    Mag1  N    Mag2  N    Mag3  N   Author         ID
       rms   OT_Error      Smajor Sminor Az        Err   mdist  Mdist     Err        Err        Err      Quality

2012/05/09 10:23:42.6     49.5280   -1.3965       .0 f     8    4 286  Ml 2.1  4  Md 2.0  1              bulletin    275839
                                                                                                         _ldg
      1.82   +-  1.53      26.2   12.0  176.00 +-  0.0    0.97   1.49   +-0.2      +-                    m i km

FRANCE
Sta     Dist  EvAz     Phase      Date       Time     TRes  Azim  AzRes  Slow  SRes Def   SNR       Amp   Per   Mag1   Mag2       ID
FLN   000.97 141.6 m E Pg      2012/05/09 10:24:01.5   0.4 324.8  2.5               T                                        4941347
FLN   000.97 141.6 m E Sg      2012/05/09 10:24:16.8   2.9 308.0  -14.3             T               29.8  .50 Ml 2.4 Md 2.0  4941346
GRR   001.19 162.5 m E Pg      2012/05/09 10:24:04.6  -0.6                          T                                        4941349
GRR   001.19 162.5 m E Sg      2012/05/09 10:24:21.7   0.9                          T                8.1  .47 Ml 2.0         4941348
LDF   001.26 137.7 m E Pg      2012/05/09 10:24:06.0  -0.3                          T                                        4941345
LDF   001.26 137.7 m E Sg      2012/05/09 10:24:20.1  -2.7                          T                4.2  .31 Ml 2.0         4941344
SGMF  001.49 211.4 m E Pg      2012/05/09 10:24:11.1   0.5                          T                                        4941351
SGMF  001.49 211.4 m E Sg      2012/05/09 10:24:28.8  -1.2                          T                2.4  .35 Ml 1.9         4941350

.
EVENT     275746
    Date      Time       Latitude Longitude    Depth    Ndef Nsta Gap    Mag1  N    Mag2  N    Mag3  N   Author         ID
       rms   OT_Error      Smajor Sminor Az        Err   mdist  Mdist     Err        Err        Err      Quality

2012/05/09 10:56:19.6     47.6998    8.5631       .0 f     6    3 326  Ml 2.3  3                         bulletin    275846
                                                                                                         _ldg
      0.35   +-  0.66      11.5   10.2  132.22 +-  0.0    1.12   1.52   +-0.2                            m i km

SWITZERLAND
Sta     Dist  EvAz     Phase      Date       Time     TRes  Azim  AzRes  Slow  SRes Def   SNR       Amp   Per   Mag1   Mag2       ID
CDF   001.12 310.0 m E Pg      2012/05/09 10:56:40.9  -0.1                          T                                        4941323
CDF   001.12 310.0 m E Sg      2012/05/09 10:56:56.0   0.4                          T               10.9  .45 Ml 2.4         4941322
HINF  001.16 276.4 m E Pg      2012/05/09 10:56:41.7   0.1                          T                                        4941321
HINF  001.16 276.4 m E Sg      2012/05/09 10:56:57.4   0.5                          T                9.7  .29 Ml 2.4         4941320
HAU   001.52 282.4 m E Pg      2012/05/09 10:56:48.3   0.0                          T                                        4941319
HAU   001.52 282.4 m E Sg      2012/05/09 10:57:07.3  -0.8                          T                5.7  .38 Ml 2.0         4941318

.
EVENT     275747
    Date      Time       Latitude Longitude    Depth    Ndef Nsta Gap    Mag1  N    Mag2  N    Mag3  N   Author         ID
       rms   OT_Error      Smajor Sminor Az        Err   mdist  Mdist     Err        Err        Err      Quality

2012/05/09 11:21:12.4     45.8570    4.3794       .0 f    11    7 182  Ml 1.8  6                         bulletin    275847
                                                                                                         _ldg
      0.37   +-  0.17       6.2    1.9   66.64 +-  0.0    0.87   1.57   +-0.2                            m i km

FRANCE
Sta     Dist  EvAz     Phase      Date       Time     TRes  Azim  AzRes  Slow  SRes Def   SNR       Amp   Per   Mag1   Mag2       ID
SMF   000.87 334.8 m E Pg      2012/05/09 11:21:29.2   0.1                          T                                        4941290
SMF   000.87 334.8 m E Sg      2012/05/09 11:21:41.4   0.9                          T                2.4  .21 Ml 1.8         4941285
VIVF  001.02 168.2 m E Pg      2012/05/09 11:21:31.7  -0.1                          T                                        4941309
VIVF  001.02 168.2 m E Sg      2012/05/09 11:21:45.7   0.4                          T                3.5  .22 Ml 2.0         4941308
AVF   001.17 323.1 m E Pg      2012/05/09 11:21:34.4  -0.2                          T                                        4941288
AVF   001.17 323.1 m E Sg      2012/05/09 11:21:50.3   0.3                          T                 .9  .20 Ml 1.6         4941284
BGF   001.27 303.9 m E Pg      2012/05/09 11:21:35.7  -0.8                          T                                        4945041
BGF   001.27 303.9 m E Sg      2012/05/09 11:21:53.4   0.3                          T                                        4945042
SSF   001.35 333.7 m E Sg      2012/05/09 11:21:54.9  -0.5                          T                  1  .16 Ml 1.8         4941282
LOR   001.46 345.9 m E Sg      2012/05/09 11:21:58.3  -0.5                          T                1.7  .20 Ml 2.0         4941296
TCF   001.57 286.7 m E Sg      2012/05/09 11:22:02.1  -0.3                          T                 .6  .25 Ml 1.5         4941291

.
EVENT     275725
    Date      Time       Latitude Longitude    Depth    Ndef Nsta Gap    Mag1  N    Mag2  N    Mag3  N   Author         ID
       rms   OT_Error      Smajor Sminor Az        Err   mdist  Mdist     Err        Err        Err      Quality

2012/05/09 11:24:27.0     42.9658     .3038     11.0 f    98   17 037  Ml 2.9 16  Md 3.0  3              bulletin    275825
                                                                                                         _ldg
      0.65   +-  0.05       1.2    1.0    5.69 +-  0.0    0.07   5.93   +-0.3      +-0.1                 m i ke

PYRENEES
Sta     Dist  EvAz     Phase      Date       Time     TRes  Azim  AzRes  Slow  SRes Def   SNR       Amp   Per   Mag1   Mag2       ID
EPF   000.07 022.4 m E Pg      2012/05/09 11:24:30.1   0.4                          T                                        4941068
EPF   000.07 022.4 m E Sg      2012/05/09 11:24:31.2  -0.2                          T              322.9  .20        Md 3.1  4941075
ETSF  000.64 264.2 m E Pg      2012/05/09 11:24:39.4   0.0                          T                                        4941067
ETSF  000.64 264.2 m E Sg      2012/05/09 11:24:47.8   0.1                          T              108.9  .19        Md 2.9  4941074
SJPF  001.13 278.0 m E Pg      2012/05/09 11:24:48.2  -0.1                          T                                        4941064
SJPF  001.13 278.0 m E Sg      2012/05/09 11:25:03.9   0.9                          T               31.3  .22 Ml 3.0 Md 2.9  4941073
MTLF  001.45 074.4 m E Pn      2012/05/09 11:24:51.9   0.3                          T                                        4941066
MTLF  001.45 074.4 m E Pg      2012/05/09 11:24:54.3   0.2                          T                                        4943395
MTLF  001.45 074.4 m E Sg      2012/05/09 11:25:13.2   0.3                          T               11.1  .20 Ml 2.8         4941076
LFF   002.00 008.9 m E Pn      2012/05/09 11:24:59.7   0.7                          T                                        4941062
LFF   002.00 008.9 m E Pg      2012/05/09 11:25:04.4   0.2                          T                                        4943412
LFF   002.00 008.9 m E Sn      2012/05/09 11:25:22.9   0.4                          T                                        4941071
LFF   002.00 008.9 m E Sg      2012/05/09 11:25:30.6   0.7                          T               44.9  .40 Ml 3.1         4943393
CAF   002.34 032.4 m E Pn      2012/05/09 11:25:04.3   0.6                          T                                        4941063
CAF   002.34 032.4 m E Pg      2012/05/09 11:25:10.1  -0.4                          T                                        4943413
CAF   002.34 032.4 m E Sn      2012/05/09 11:25:31.9   1.2                          T                                        4941070
CAF   002.34 032.4 m E Sg      2012/05/09 11:25:41.1   0.5                          T               15.6  .20 Ml 3.2         4943389
RJF   002.50 020.1 m E Pn      2012/05/09 11:25:06.2   0.4                          T                                        4941061
RJF   002.50 020.1 m E Pg      2012/05/09 11:25:13.3  -0.1                          T                                        4943411
RJF   002.50 020.1 m E Sg      2012/05/09 11:25:44.6  -0.9                          T                                        4943392
LASF  002.81 065.5 m E Pn      2012/05/09 11:25:09.9  -0.2                          T                                        4941065
LASF  002.81 065.5 m E Pg      2012/05/09 11:25:19.0  -0.2                          T                                        4943394
LASF  002.81 065.5 m E Sn      2012/05/09 11:25:42.4   0.4                          T                                        4941082
LASF  002.81 065.5 m E Sg      2012/05/09 11:25:55.2  -0.2                          T                6.4  .20 Ml 2.9         4941077
MFF   003.65 355.1 m E Pn      2012/05/09 11:25:21.7   0.2                          T                                        4943410
MFF   003.65 355.1 m E Sg      2012/05/09 11:26:21.1  -0.4                          T                5.3  .21 Ml 3.1         4943409
TCF   003.59 021.6 m E Pn      2012/05/09 11:25:21.9   1.1                          T                                        4943399
TCF   003.59 021.6 m E Sg      2012/05/09 11:26:18.7  -1.0                          T                7.4  .23 Ml 3.1         4943398
VIVF  003.68 057.6 m E Pn      2012/05/09 11:25:22.2   0.2                          T                                        4941080
VIVF  003.68 057.6 m E Pg      2012/05/09 11:25:34.9  -0.3                          T                                        4941079
VIVF  003.68 057.6 m E Sn      2012/05/09 11:26:03.2   0.5                          T                                        4941081
VIVF  003.68 057.6 m E Sg      2012/05/09 11:26:22.5   0.0                          T                8.0  .30 Ml 3.0         4941078
AVF   004.40 028.5 m E Pn      2012/05/09 11:25:33.0   1.3                          T                                        4943400
AVF   004.40 028.5 m E Sg      2012/05/09 11:26:43.5  -1.2                          T                1.9  .24 Ml 2.6         4943401
SMF   004.46 033.2 m E Pn      2012/05/09 11:25:33.1   0.5                          T                                        4943403
SMF   004.46 033.2 m E Sg      2012/05/09 11:26:45.9  -0.9                          T                1.3  .23 Ml 2.5         4943402
SSF   004.68 027.9 m E Pn      2012/05/09 11:25:36.0   0.4                          T                                        4943396
SSF   004.68 027.9 m E Sg      2012/05/09 11:26:52.0  -1.7                          T                1.3  .21 Ml 2.7         4943397
BGF   004.02 025.9 m E Pg      2012/05/09 11:25:41.5   0.0                          T                                        4943405
BGF   004.02 025.9 m E Sg      2012/05/09 11:26:32.0  -1.1                          T               26.4  .37 Ml 3.5         4943404
QUIF  005.52 335.0 m E Pn      2012/05/09 11:25:47.5   0.5                          T                                        4943408
QUIF  005.52 335.0 m E Sn      2012/05/09 11:26:47.1   0.5                          T                1.2  .20 Ml 2.8         4943388
ROSF  005.93 336.2 m E Pn      2012/05/09 11:25:52.7   0.1                          T                                        4943407
ROSF  005.93 336.2 m E Sn      2012/05/09 11:26:56.8   0.4                          T                 .8  .24 Ml 2.6         4943406

.
EVENT     275751
    Date      Time       Latitude Longitude    Depth    Ndef Nsta Gap    Mag1  N    Mag2  N    Mag3  N   Author         ID
       rms   OT_Error      Smajor Sminor Az        Err   mdist  Mdist     Err        Err        Err      Quality

2012/05/09 12:41:01.1     49.2660    9.1783       .0 f     6    3 350  Ml 2.4  3                         bulletin    275851
                                                                                                         _ldg
      0.39   +-  0.84      43.8   14.0  143.96 +-  0.0    1.52   2.26   +-0.1                            m i km

GERMANY
Sta     Dist  EvAz     Phase      Date       Time     TRes  Azim  AzRes  Slow  SRes Def   SNR       Amp   Per   Mag1   Mag2       ID
CDF   001.52 236.5 m E Pg      2012/05/09 12:41:29.5  -0.4                          T                                        4941158
CDF   001.52 236.5 m E Sg      2012/05/09 12:41:49.1  -0.5                          T                5.5  .27 Ml 2.5         4941157
HINF  002.12 227.7 m E Pg      2012/05/09 12:41:41.0   0.2                          T                                        4941156
HINF  002.12 227.7 m E Sg      2012/05/09 12:42:08.0  -0.3                          T                4.8  .33 Ml 2.4         4941155
HAU   002.26 237.2 m E Pg      2012/05/09 12:41:43.6   0.2                          T                                        4941154
HAU   002.26 237.2 m E Sg      2012/05/09 12:42:13.5   0.8                          T                5.5  .29 Ml 2.3         4941153

.
EVENT     275776
    Date      Time       Latitude Longitude    Depth    Ndef Nsta Gap    Mag1  N    Mag2  N    Mag3  N   Author         ID
       rms   OT_Error      Smajor Sminor Az        Err   mdist  Mdist     Err        Err        Err      Quality

2012/05/09 14:58:13.0     46.2483    6.9597      3.0 f    12    4 164  Ml 2.0  1  Md 1.8  2              bulletin    275876
                                                                                                         _ldg
      0.26   +-  0.09       1.6    1.3   19.38 +-  0.0    0.19   2.13   +-         +-0.2                 m i ke

SWITZERLAND
Sta     Dist  EvAz     Phase      Date       Time     TRes  Azim  AzRes  Slow  SRes Def   SNR       Amp   Per   Mag1   Mag2       ID
CABF  000.70 301.3 m E Pg      2012/05/09 14:58:26.4   0.0                          T                                        4942011
CABF  000.70 301.3 m E Sg      2012/05/09 14:58:35.4  -0.2                          T                 .7  .20        Md 1.9  4942010
LPL   000.75 192.3 m E Pg      2012/05/09 14:58:27.5   0.1                          T                                        4942016
LPL   000.75 192.3 m E Sg      2012/05/09 14:58:36.9  -0.2                          T                1.3  .21        Md 1.6  4942014
LPG   000.76 191.0 m E Pg      2012/05/09 14:58:27.7   0.0                          T                                        4942015
LPG   000.76 191.0 m E Sg      2012/05/09 14:58:37.4  -0.3                          T                2.4  .25                4942013
VIVF  002.13 229.9 m E Pn      2012/05/09 14:58:47.7   0.0                          T                                        4942358
VIVF  002.13 229.9 m E Sn      2012/05/09 14:59:13.0   0.0                          T                1.6  .26 Ml 2.0         4942012

.
EVENT     275767
    Date      Time       Latitude Longitude    Depth    Ndef Nsta Gap    Mag1  N    Mag2  N    Mag3  N   Author         ID
       rms   OT_Error      Smajor Sminor Az        Err   mdist  Mdist     Err        Err        Err      Quality

2012/05/09 15:14:28.1     38.7740   -7.9830      2.0      77    5 067  Ml 2.9  3                         bulletin    275867
                                                                                                         _ldg
      1.05   +-  0.12       2.9    2.0  105.43 +-  0.0    0.24   8.96   +-0.4                            m i ke

PORTUGAL
Sta     Dist  EvAz     Phase      Date       Time     TRes  Azim  AzRes  Slow  SRes Def   SNR       Amp   Per   Mag1   Mag2       ID
ALMR  001.00 180.0 m E Sg      2012/05/09 15:14:48.8 *****                          T                                        4941746
SJPF  006.70 047.6 m E Pn      2012/05/09 15:16:05.6   0.3                          T                                        4941773
SJPF  006.70 047.6 m E Sn      2012/05/09 15:17:17.2  -0.5                          T                 .4  .20 Ml 2.5         4941772
ETSF  006.97 051.4 m E Pn      2012/05/09 15:16:08.6  -0.4                          T                                        4941771
ETSF  006.97 051.4 m E Sn      2012/05/09 15:17:24.6   0.4                          T                 .5  .15 Ml 2.8         4941770
EPF   007.60 053.4 m E Pn      2012/05/09 15:16:17.8   0.3                          T                                        4941769
EPF   007.60 053.4 m E Sn      2012/05/09 15:17:38.9  -0.3                          T                1.7  .21 Ml 3.3         4941768
LFF   008.96 043.8 m E Pn      2012/05/09 15:16:35.7  -0.1                          T                                        4941766

.
EVENT     275763
    Date      Time       Latitude Longitude    Depth    Ndef Nsta Gap    Mag1  N    Mag2  N    Mag3  N   Author         ID
       rms   OT_Error      Smajor Sminor Az        Err   mdist  Mdist     Err        Err        Err      Quality

2012/05/09 21:37:01.3     42.3746    1.2027      3.0 f    26    6 057  Ml 1.7  7  Md 2.1  2              bulletin    275863
                                                                                                         _ldg
      0.41   +-  0.08       1.6    1.3  167.85 +-  0.0    0.05   2.63   +-0.1      +-0.1                 m i ke

PYRENEES
Sta     Dist  EvAz     Phase      Date       Time     TRes  Azim  AzRes  Slow  SRes Def   SNR       Amp   Per   Mag1   Mag2       ID
EPF   000.91 316.1 m E Pg      2012/05/09 21:37:18.9   0.3                          T                                        4941580
EPF   000.91 316.1 m E Sg      2012/05/09 21:37:30.3  -0.1                          T                1.9  .24 Ml 1.7 Md 2.1  4941577
MTLF  001.22 037.3 m E Pg      2012/05/09 21:37:24.3   0.2                          T                                        4941579
MTLF  001.22 037.3 m E Sg      2012/05/09 21:37:39.9   0.0                          T                2.4  .33 Ml 1.8 Md 2.0  4941575
ETSF  001.40 292.5 m E Pg      2012/05/09 21:37:26.2  -1.4                          T                                        4941569
ETSF  001.40 292.5 m E Sg      2012/05/09 21:37:46.0   0.3                          T                 .8  .20 Ml 1.6         4941573
LASF  002.58 047.9 m E Pn      2012/05/09 21:37:41.8  -0.4                          T                                        4941574
LASF  002.58 047.9 m E Sn      2012/05/09 21:38:12.1  -0.1                          T                 .3  .18 Ml 1.5         4943499
CAF   002.63 013.5 m E Pn      2012/05/09 21:37:42.6  -0.2                          T                                        4943497
CAF   002.63 013.5 m E Sg      2012/05/09 21:38:23.6  -0.2                          T                 .3  .18 Ml 1.6         4943498
SJPF  001.93 293.2 m E Sg      2012/05/09 21:38:02.2   0.0                          T                 .6  .17 Ml 1.7         4941572

.
