BEGIN GSE2.0
MSG_TYPE DATA
MSG_ID 05-MAY-1111:13:42  FRA_NDC
E-MAIL
DATA_TYPE BULLETIN
Reviewed Bulletin (REB) # P2011-017  from French NDC for regional phases     PERIOD 27 APR 2011 TO 03 MAY 2011 C M., J-P S
EVENT     258646
    Date      Time       Latitude Longitude    Depth    Ndef Nsta Gap    Mag1  N    Mag2  N    Mag3  N   Author         ID
       rms   OT_Error      Smajor Sminor Az        Err   mdist  Mdist     Err        Err        Err      Quality

2011/04/27 00:22:50.7     43.0386    -.1942      2.0      49    8 097  Ml 2.1  5  Md 2.0  3              js067245    258646

      0.35   +-  0.04       1.1     .6  172.89 +-  0.0    0.15   3.12   +-0.1      +-0.0                 m i ke

PYRENEES
Sta     Dist  EvAz     Phase      Date       Time     TRes  Azim  AzRes  Slow  SRes Def   SNR       Amp   Per   Mag1   Mag2       ID
ETSF  000.30 242.6 m E Pg      2011/04/27 00:22:56.4  -0.4                          T                                        4680146
ETSF  000.30 242.6 m E Sg      2011/04/27 00:22:59.6  -1.2                          T               25.8  .22        Md 2.0  4680133
EPF   000.39 091.0 m E Pg      2011/04/27 00:22:58.0  -0.4                          T                                        4680145
EPF   000.39 091.0 m E Sg      2011/04/27 00:23:03.0  -0.5                          T               17.9  .22        Md 1.9  4680162
SJPF  000.76 276.0 m E Pg      2011/04/27 00:23:04.8  -0.3                          T                                        4680144
SJPF  000.76 276.0 m E Sg      2011/04/27 00:23:15.1   0.1                          T                2.6  .25        Md 2.0  4680134
LFF   002.02 019.2 m E Pn      2011/04/27 00:23:23.9  -0.1                          T                                        4680139
LFF   002.02 019.2 m E Pg      2011/04/27 00:23:28.1  -0.1                          T                                        4680142
LFF   002.02 019.2 m E Sg      2011/04/27 00:23:54.3   0.2                          T                4.4  .34 Ml 2.2         4680136
MTLF  001.79 079.5 m E Pg      2011/04/27 00:23:24.2   0.2                          T                                        4680141
MTLF  001.79 079.5 m E Sg      2011/04/27 00:23:47.3   0.2                          T                2.7  .28 Ml 2.1         4680161
CAF   002.49 040.1 m E Pn      2011/04/27 00:23:30.7   0.1                          T                                        4680138
CAF   002.49 040.1 m E Pg      2011/04/27 00:23:36.8  -0.2                          T                                        4680143
CAF   002.49 040.1 m E Sg      2011/04/27 00:24:09.3   0.1                          T                1.8  .24 Ml 2.2         4680135
RJF   002.58 027.9 m E Pn      2011/04/27 00:23:31.9   0.2                          T                                        4680140
RJF   002.58 027.9 m E Sg      2011/04/27 00:24:11.8   0.1                          T                1.9  .24 Ml 1.9         4680137
LASF  003.12 069.2 m E Pg      2011/04/27 00:23:48.6   0.0                          T                                        4680159
LASF  003.12 069.2 m E Sg      2011/04/27 00:24:28.8   0.0                          T                 .9  .25 Ml 2.0         4680160

.
EVENT     258647
    Date      Time       Latitude Longitude    Depth    Ndef Nsta Gap    Mag1  N    Mag2  N    Mag3  N   Author         ID
       rms   OT_Error      Smajor Sminor Az        Err   mdist  Mdist     Err        Err        Err      Quality

2011/04/27 00:47:54.4     43.0346    -.2107      2.0       8    4 163  Ml 1.1  1  Md 1.3  3              js067245    258647

      0.14   +-  0.04       2.6     .6  172.29 +-  0.0    0.29   1.80   +-         +-0.0                 m i ke

PYRENEES
Sta     Dist  EvAz     Phase      Date       Time     TRes  Azim  AzRes  Slow  SRes Def   SNR       Amp   Per   Mag1   Mag2       ID
ETSF  000.29 242.1 m E Pg      2011/04/27 00:48:00.1   0.0                          T                                        4680170
ETSF  000.29 242.1 m E Sg      2011/04/27 00:48:03.6  -0.4                          T                3.5  .23        Md 1.4  4680168
EPF   000.40 090.4 m E Pg      2011/04/27 00:48:02.1  -0.1                          T                                        4680169
EPF   000.40 090.4 m E Sg      2011/04/27 00:48:07.6   0.0                          T                2.3  .24        Md 1.3  4680167
SJPF  000.75 276.4 m E Pg      2011/04/27 00:48:08.4  -0.1                          T                                        4680163
SJPF  000.75 276.4 m E Sg      2011/04/27 00:48:18.3   0.1                          T                 .2  .18        Md 1.3  4680166
MTLF  001.80 079.4 m E Pg      2011/04/27 00:48:27.8  -0.1                          T                                        4680164
MTLF  001.80 079.4 m E Sg      2011/04/27 00:48:51.1   0.0                          T                 .2  .22 Ml 1.1         4680165

.
EVENT     258652
    Date      Time       Latitude Longitude    Depth    Ndef Nsta Gap    Mag1  N    Mag2  N    Mag3  N   Author         ID
       rms   OT_Error      Smajor Sminor Az        Err   mdist  Mdist     Err        Err        Err      Quality

2011/04/27 01:47:50.8     43.9242    7.7620      2.0       8    4 278  Ml 1.6  3  Md 1.9  3              js067245    258652

      0.23   +-  0.44       8.3    3.2  103.94 +-  0.0    0.24   1.08   +-0.2      +-0.0                 m i ke

NEAR SOUTH COAST OF FRANCE
Sta     Dist  EvAz     Phase      Date       Time     TRes  Azim  AzRes  Slow  SRes Def   SNR       Amp   Per   Mag1   Mag2       ID
SBF   000.24 255.6 m E Pg      2011/04/27 01:47:55.8   0.1                          T                                        4680185
SBF   000.24 255.6 m E Sg      2011/04/27 01:47:59.2   0.1                          T               20.7  .30        Md 1.9  4680182
FRF   000.89 246.2 m E Pg      2011/04/27 01:48:07.1  -0.4                          T                                        4680184
FRF   000.89 246.2 m E Sg      2011/04/27 01:48:19.1   0.0                          T                1.6  .25 Ml 1.6 Md 1.9  4680181
MBDF  001.07 318.8 m E Pg      2011/04/27 01:48:11.0  -0.1                          T                                        4680178
MBDF  001.07 318.8 m E Sg      2011/04/27 01:48:25.2   0.2                          T                1.3  .38 Ml 1.4         4680179
LMR   001.08 237.5 m E Pg      2011/04/27 01:48:11.5   0.3                          T                                        4680183
LMR   001.08 237.5 m E Sg      2011/04/27 01:48:24.9  -0.3                          T                1.9  .29 Ml 1.7 Md 1.9  4680180

.
EVENT     258648
    Date      Time       Latitude Longitude    Depth    Ndef Nsta Gap    Mag1  N    Mag2  N    Mag3  N   Author         ID
       rms   OT_Error      Smajor Sminor Az        Err   mdist  Mdist     Err        Err        Err      Quality

2011/04/27 02:53:52.6     42.6270     .5662      2.0      48    7 047  Ml 2.1  7  Md 2.0  3              js067245    258648

      0.55   +-  0.07       1.6    1.1    5.48 +-  0.0    0.28   2.76   +-0.2      +-0.0                 m i ke

PYRENEES
Sta     Dist  EvAz     Phase      Date       Time     TRes  Azim  AzRes  Slow  SRes Def   SNR       Amp   Per   Mag1   Mag2       ID
EPF   000.44 337.6 m E Pg      2011/04/27 02:54:00.9  -0.1                          T                                        4680202
EPF   000.44 337.6 m E Sg      2011/04/27 02:54:06.9   0.2                          T               13.7  .18        Md 2.0  4680200
ETSF  000.87 288.5 m E Pg      2011/04/27 02:54:08.9  -0.2                          T                                        4680197
ETSF  000.87 288.5 m E Sg      2011/04/27 02:54:20.7   0.3                          T                9.0  .18 Ml 2.5 Md 2.0  4680198
MTLF  001.41 058.9 m E Pg      2011/04/27 02:54:18.8   0.0                          T                                        4680201
MTLF  001.41 058.9 m E Sg      2011/04/27 02:54:36.7  -0.3                          T                2.9  .24 Ml 2.1 Md 2.0  4680199
SJPF  001.40 290.9 m E Pg      2011/04/27 02:54:19.3   0.5                          T                                        4680196
SJPF  001.40 290.9 m E Sg      2011/04/27 02:54:37.6   0.7                          T                5.2  .31 Ml 2.2         4680188
LFF   002.32 003.1 m E Pn      2011/04/27 02:54:29.8  -0.1                          T                                        4680194
LFF   002.32 003.1 m E Sg      2011/04/27 02:55:05.5   0.2                          T                2.5  .30 Ml 2.0         4680190
CAF   002.54 024.8 m E Pn      2011/04/27 02:54:33.5   0.5                          T                                        4680193
CAF   002.54 024.8 m E Pg      2011/04/27 02:54:39.4  -0.4                          T                                        4680195
CAF   002.54 024.8 m E Sg      2011/04/27 02:55:12.3  -0.1                          T                1.1  .26 Ml 2.0         4680189
RJF   002.76 014.1 m E Pn      2011/04/27 02:54:36.0   0.0                          T                                        4680192
RJF   002.76 014.1 m E Sg      2011/04/27 02:55:19.3  -0.1                          T                1.5  .26 Ml 1.8         4680191

.
EVENT     258651
    Date      Time       Latitude Longitude    Depth    Ndef Nsta Gap    Mag1  N    Mag2  N    Mag3  N   Author         ID
       rms   OT_Error      Smajor Sminor Az        Err   mdist  Mdist     Err        Err        Err      Quality

2011/04/27 03:17:16.1     44.2237   11.5167     10.0      52   17 091  Ml 2.6 16                         js067245    258651

      0.85   +-  0.16       4.3    2.6   50.92 +-  0.0    0.16   6.29   +-0.2                            m i ke

NORTHERN ITALY
Sta     Dist  EvAz     Phase      Date       Time     TRes  Azim  AzRes  Slow  SRes Def   SNR       Amp   Per   Mag1   Mag2       ID
PGF   002.48 228.5 m E Pn      2011/04/27 03:17:54.0  -0.9                          T                                        4680275
PGF   002.48 228.5 m E Sn      2011/04/27 03:18:23.7   0.2                          T                4.2  .41 Ml 2.6         4680258
SBF   002.97 264.4 m E Pn      2011/04/27 03:18:01.6   0.2                          T                                        4680274
SBF   002.97 264.4 m E Sn      2011/04/27 03:18:36.9   2.0                          T               12.8  .51 Ml 2.8         4680257
MBDF  003.43 280.1 m E Pn      2011/04/27 03:18:08.1   0.2                          T                                        4680264
MBDF  003.43 280.1 m E Sn      2011/04/27 03:18:49.4   3.2                          T               12.2  .84 Ml 2.7         4680250
FRF   003.58 261.0 m E Pn      2011/04/27 03:18:09.7  -0.1                          T                                        4680272
FRF   003.58 261.0 m E Sn      2011/04/27 03:18:51.2   1.6                          T                2.9  .37 Ml 2.5         4680255
LPG   003.62 292.3 m E Pn      2011/04/27 03:18:10.7   0.0                          T                                        4680260
LPG   003.62 292.3 m E Sn      2011/04/27 03:18:54.0   3.1                          T                6.1  .64 Ml 2.5         4680247
LPL   003.64 292.5 m E Pn      2011/04/27 03:18:10.9   0.1                          T                                        4680261
LPL   003.64 292.5 m E Sn      2011/04/27 03:18:54.2   2.9                          T                2.4  .44 Ml 2.3         4680248
LMR   003.73 258.0 m E Pn      2011/04/27 03:18:11.5  -0.4                          T                                        4680273
LMR   003.73 258.0 m E Sn      2011/04/27 03:18:53.8   0.6                          T                5.3  .61 Ml 2.5         4680256
ORIF  004.09 281.7 m E Pn      2011/04/27 03:18:17.0   0.2                          T                                        4680262
ORIF  004.09 281.7 m E Sn      2011/04/27 03:19:05.2   3.4                          T                5.6  .61 Ml 2.6         4680249
SMRF  004.29 268.8 m E Pn      2011/04/27 03:18:19.8   0.4                          T                                        4680259
CABF  004.51 303.9 m E Pn      2011/04/27 03:18:22.5   0.0                          T                                        4680271
CABF  004.51 303.9 m E Sn      2011/04/27 03:19:14.5   2.6                          T                1.0  .34 Ml 2.2         4680246
HINF  004.84 319.5 m E Pn      2011/04/27 03:18:25.1  -1.9                          T                                        4680270
HINF  004.84 319.5 m E Sn      2011/04/27 03:19:19.1  -0.7                          T                3.4  .42 Ml 2.7         4680254
VIVF  004.93 279.7 m E Pn      2011/04/27 03:18:28.2  -0.1                          T                                        4680263
CDF   005.12 326.5 m E Pn      2011/04/27 03:18:29.8  -1.0                          T                                        4680268
CDF   005.12 326.5 m E Sn      2011/04/27 03:19:25.7  -0.6                          T                1.4  .24 Ml 2.8         4680252
HAU   005.22 318.3 m E Pn      2011/04/27 03:18:31.3  -0.8                          T                                        4680269
HAU   005.22 318.3 m E Sn      2011/04/27 03:19:26.8  -1.9                          T                2.8  .29 Ml 2.7         4680253
SMF   005.92 296.8 m E Pn      2011/04/27 03:18:41.2  -0.4                          T                                        4680265
LOR   006.16 302.3 m E Pn      2011/04/27 03:18:44.5  -0.5                          T                                        4680267
LOR   006.16 302.3 m E Sn      2011/04/27 03:19:51.5   0.2                          T                2.8  .42 Ml 3.0         4680251
SSF   006.29 299.6 m E Pn      2011/04/27 03:18:46.6  -0.1                          T                                        4680266

.
EVENT     258702
    Date      Time       Latitude Longitude    Depth    Ndef Nsta Gap    Mag1  N    Mag2  N    Mag3  N   Author         ID
       rms   OT_Error      Smajor Sminor Az        Err   mdist  Mdist     Err        Err        Err      Quality

2011/04/27 03:31:37.3     46.8756    9.8959     10.0 f    22    6 121  Ml 2.1  3                         js067245    258702

      0.54   +-  0.17       4.6    2.1   44.12 +-  0.0    0.10   2.66   +-0.4                            m i ke

SWITZERLAND
Sta     Dist  EvAz     Phase      Date       Time     TRes  Azim  AzRes  Slow  SRes Def   SNR       Amp   Per   Mag1   Mag2       ID
HINF  002.27 295.6 m E Pn      2011/04/27 03:32:13.8   0.6                          T                                        4681203
HINF  002.27 295.6 m E Pg      2011/04/27 03:32:19.3  -0.3                          T                                        4681204
HINF  002.27 295.6 m E Sg      2011/04/27 03:32:47.8  -1.1                          T                                        4681205
CDF   002.35 311.9 m E Pn      2011/04/27 03:32:15.7   1.4                          T                                        4681210
CDF   002.35 311.9 m E Pg      2011/04/27 03:32:21.1   0.1                          T                                        4681209
CDF   002.35 311.9 m E Sn      2011/04/27 03:32:42.0   0.7                          T                                        4681212
CDF   002.35 311.9 m E Sg      2011/04/27 03:32:50.3  -0.9                          T                2.8  .39 Ml 2.2         4681211
CABF  002.63 265.6 m E Pn      2011/04/27 03:32:19.2   1.1                          T                                        4681199
CABF  002.63 265.6 m E Pg      2011/04/27 03:32:26.4   0.2                          T                                        4681200
CABF  002.63 265.6 m E Sn      2011/04/27 03:32:49.7   1.5                          T                                        4681202
CABF  002.63 265.6 m E Sg      2011/04/27 03:33:00.3   0.2                          T                8.8  .66 Ml 2.5         4681201
HAU   002.66 296.4 m E Pn      2011/04/27 03:32:19.3   0.9                          T                                        4681207
HAU   002.66 296.4 m E Pg      2011/04/27 03:32:26.2  -0.4                          T                                        4681206
HAU   002.66 296.4 m E Sn      2011/04/27 03:32:49.8   1.0                          T                1.1  .28 Ml 1.7         4681208
LPL   002.58 239.4 m E Pg      2011/04/27 03:32:25.0  -0.5                          T                                        4681198
LPG   002.58 238.9 m E Pg      2011/04/27 03:32:25.8   0.2                          T                                        4681197

.
EVENT     258649
    Date      Time       Latitude Longitude    Depth    Ndef Nsta Gap    Mag1  N    Mag2  N    Mag3  N   Author         ID
       rms   OT_Error      Smajor Sminor Az        Err   mdist  Mdist     Err        Err        Err      Quality

2011/04/27 05:10:03.0     48.4408   -4.2623     10.0 f    15    6 316  Ml 2.2  5  Md 2.2  3              js067245    258649

      1.14   +-  0.47       9.0    7.2     .37 +-  0.0    0.67   2.76   +-0.1      +-0.0                 m i ke

FRANCE
Sta     Dist  EvAz     Phase      Date       Time     TRes  Azim  AzRes  Slow  SRes Def   SNR       Amp   Per   Mag1   Mag2       ID
ROSF  000.67 098.6 m E Pg      2011/04/27 05:10:15.9   0.2                          T                                        4680295
ROSF  000.67 098.6 m E Sg      2011/04/27 05:10:24.5   0.0                          T                                        4681213
ROSF  000.67 098.6 m E Sn      2011/04/27 05:10:27.2   0.3                          T               10.9  .18        Md 2.2  4680292
QUIF  000.90 125.1 m E Pn      2011/04/27 05:10:19.0  -1.2                          T                                        4680293
QUIF  000.90 125.1 m E Sg      2011/04/27 05:10:32.4   0.7                          T                6.7  .22 Ml 2.3 Md 2.2  4680291
SGMF  001.15 098.7 m E Pg      2011/04/27 05:10:24.6  -0.1                          T                                        4680294
SGMF  001.15 098.7 m E Sg      2011/04/27 05:10:39.8   0.2                          T                5.6  .24 Ml 2.3 Md 2.2  4680290
GRR   002.27 090.1 m E Pn      2011/04/27 05:10:39.3   0.5                          T                                        4680284
GRR   002.27 090.1 m E Sg      2011/04/27 05:11:14.2  -0.2                          T                3.4  .20 Ml 2.3         4680287
FLN   002.53 081.3 m E Pn      2011/04/27 05:10:42.7   0.3                          T                                        4680286
FLN   002.53 081.3 m E Sg      2011/04/27 05:11:21.8  -0.7                          T                1.7  .20 Ml 2.1         4680289
LDF   002.76 085.3 m E Pn      2011/04/27 05:10:45.9   0.4                          T                                        4680285
LDF   002.76 085.3 m E Sg      2011/04/27 05:11:29.1  -0.5                          T                1.0  .21 Ml 2.0         4680288

.
