EVENT     253790
    Date      Time       Latitude Longitude    Depth    Ndef Nsta Gap    Mag1  N    Mag2  N    Mag3  N   Author         ID
       rms   OT_Error      Smajor Sminor Az        Err   mdist  Mdist     Err        Err        Err      Quality

2011/01/14 15:10:21.6     46.2193    7.0192      2.0      77   23 055  Ml 2.3 23  Md 2.0  3              js067245    253810

      0.22   +-  0.03        .8     .5   86.76 +-  0.0    0.07   2.95   +-0.3      +-0.0                 m i ke

SWITZERLAND
Sta     Dist  EvAz     Phase      Date       Time     TRes  Azim  AzRes  Slow  SRes Def   SNR       Amp   Per   Mag1   Mag2       ID
LPL   000.73 196.0 m E Pg      2011/01/14 15:10:35.2  -0.4                          T                                        4582919
LPL   000.73 196.0 m E Pn      2011/01/14 15:10:37.2  -0.4                          T                                        4582913
LPL   000.73 196.0 m E Sg      2011/01/14 15:10:45.3   0.0                          T                6.7  .26        Md 2.0  4582887
LPG   000.75 194.6 m E Pg      2011/01/14 15:10:35.4  -0.6                          T                                        4582918
LPG   000.75 194.6 m E Pn      2011/01/14 15:10:37.8  -0.1                          T                                        4582912
LPG   000.75 194.6 m E Sg      2011/01/14 15:10:45.9   0.2                          T                5.5  .22        Md 2.0  4582886
CABF  000.75 301.6 m E Pg      2011/01/14 15:10:36.1   0.2                          T                                        4582949
CABF  000.75 301.6 m E Sg      2011/01/14 15:10:45.9   0.1                          T                5.2  .31        Md 2.1  4582894
MBDF  001.50 186.8 m E Pn      2011/01/14 15:10:47.3  -0.8                          T                                        4582911
MBDF  001.50 186.8 m E Pg      2011/01/14 15:10:49.6  -0.2                          T                                        4582916
MBDF  001.50 186.8 m E Sg      2011/01/14 15:11:09.2   0.0                          T               10.2  .84 Ml 2.1         4582889
ORIF  001.53 212.0 m E Pn      2011/01/14 15:10:48.0  -0.3                          T                                        4582910
ORIF  001.53 212.0 m E Pg      2011/01/14 15:10:50.3   0.1                          T                                        4582917
ORIF  001.53 212.0 m E Sg      2011/01/14 15:11:10.0   0.1                          T               11.4  .36 Ml 2.6         4582888
HINF  001.60 356.0 m E Pn      2011/01/14 15:10:49.0  -0.3                          T                                        4582936
HINF  001.60 356.0 m E Pg      2011/01/14 15:10:50.7  -0.8                          T                                        4582948
HINF  001.60 356.0 m E Sg      2011/01/14 15:11:11.9  -0.2                          T                5.9  .32 Ml 2.3         4582944
HAU   001.84 345.9 m E Pn      2011/01/14 15:10:52.5  -0.1                          T                                        4582937
HAU   001.84 345.9 m E Pg      2011/01/14 15:10:56.0   0.0                          T                                        4582947
HAU   001.84 345.9 m E Sg      2011/01/14 15:11:19.6  -0.1                          T                6.0  .28 Ml 2.3         4582945
THEF  002.13 341.2 m E Pn      2011/01/14 15:10:56.3  -0.1                          T                                        4582935
THEF  002.13 341.2 m E Pg      2011/01/14 15:11:01.0  -0.2                          T                                        4582941
THEF  002.13 341.2 m E Sg      2011/01/14 15:11:28.5  -0.1                          T                8.4  .36 Ml 2.6         4582895
VIVF  002.14 231.3 m E Pn      2011/01/14 15:10:56.5   0.0                          T                                        4582914
VIVF  002.14 231.3 m E Pg      2011/01/14 15:11:01.5   0.1                          T                                        4582915
VIVF  002.14 231.3 m E Sg      2011/01/14 15:11:29.2   0.2                          T                5.9  .30 Ml 2.5         4582890
CDF   002.20 004.5 m E Pn      2011/01/14 15:10:57.5   0.0                          T                                        4582931
CDF   002.20 004.5 m E Pg      2011/01/14 15:11:02.4  -0.2                          T                                        4582924
CDF   002.20 004.5 m E Sg      2011/01/14 15:11:30.7  -0.2                          T                1.7  .33 Ml 2.1         4582899
SMF   002.24 282.1 m E Pn      2011/01/14 15:10:57.9   0.0                          T                                        4582920
SMF   002.24 282.1 m E Pg      2011/01/14 15:11:02.8  -0.4                          T                                        4582946
SMF   002.24 282.1 m E Sg      2011/01/14 15:11:32.1   0.1                          T                3.6  .26 Ml 2.4         4582943
SBF   002.37 172.7 m E Pn      2011/01/14 15:10:59.9   0.1                          T                                        4582906
SBF   002.37 172.7 m E Pg      2011/01/14 15:11:05.7   0.0                          T                                        4582907
SBF   002.37 172.7 m E Sg      2011/01/14 15:11:36.4   0.0                          T                6.6  .45 Ml 2.5         4582882
SFTF  002.40 326.5 m E Pn      2011/01/14 15:11:00.1   0.0                          T                                        4582934
SFTF  002.40 326.5 m E Pg      2011/01/14 15:11:06.2   0.0                          T                                        4582922
SFTF  002.40 326.5 m E Sg      2011/01/14 15:11:37.1   0.0                          T                3.2  .36 Ml 2.2         4582896
LOR   002.41 296.9 m E Pn      2011/01/14 15:11:00.3   0.0                          T                                        4582929
LOR   002.41 296.9 m E Pg      2011/01/14 15:11:06.4  -0.1                          T                                        4582926
LOR   002.41 296.9 m E Sg      2011/01/14 15:11:37.8   0.3                          T                2.3  .29 Ml 2.2         4582902
SMRF  002.47 205.0 m E Pn      2011/01/14 15:11:01.1   0.1                          T                                        4582904
SMRF  002.47 205.0 m E Pg      2011/01/14 15:11:07.4   0.0                          T                                        4582909
SMRF  002.47 205.0 m E Sg      2011/01/14 15:11:39.3   0.2                          T                1.4  .46 Ml 1.8         4582885
PAGF  002.50 339.9 m E Pn      2011/01/14 15:11:01.4   0.0                          T                                        4582932
PAGF  002.50 339.9 m E Pg      2011/01/14 15:11:07.9   0.0                          T                                        4582925
PAGF  002.50 339.9 m E Sg      2011/01/14 15:11:40.0  -0.1                          T                1.3  .29 Ml 2.0         4582898
SSF   002.56 290.5 m E Pn      2011/01/14 15:11:02.4   0.1                          T                                        4582928
SSF   002.56 290.5 m E Pg      2011/01/14 15:11:09.4   0.3                          T                                        4582927
SSF   002.56 290.5 m E Sg      2011/01/14 15:11:42.3   0.2                          T                1.0  .17 Ml 2.2         4582901
AVF   002.60 284.0 m E Pn      2011/01/14 15:11:02.9   0.2                          T                                        4582942
AVF   002.60 284.0 m E Pg      2011/01/14 15:11:10.0   0.3                          T                                        4582938
AVF   002.60 284.0 m E Sg      2011/01/14 15:11:43.4   0.3                          T                1.7  .28 Ml 2.1         4582893
MEZF  002.65 330.4 m E Pn      2011/01/14 15:11:03.2  -0.2                          T                                        4582933
MEZF  002.65 330.4 m E Pg      2011/01/14 15:11:10.6  -0.1                          T                                        4582923
MEZF  002.65 330.4 m E Sg      2011/01/14 15:11:44.7   0.0                          T                6.7  .47 Ml 2.5         4582897
FRF   002.67 185.8 m E Pn      2011/01/14 15:11:04.1   0.3                          T                                        4582905
FRF   002.67 185.8 m E Pg      2011/01/14 15:11:11.1   0.0                          T                                        4582908
FRF   002.67 185.8 m E Sg      2011/01/14 15:11:45.6   0.1                          T                 .9  .32 Ml 1.8         4582884
LANF  002.81 010.6 m E Pn      2011/01/14 15:11:05.5  -0.2                          T                                        4582930
LANF  002.81 010.6 m E Sg      2011/01/14 15:11:49.6  -0.4                          T                3.2  .34 Ml 2.4         4582900
LMR   002.91 187.4 m E Pn      2011/01/14 15:11:07.1   0.1                          T                                        4582903
LMR   002.91 187.4 m E Sg      2011/01/14 15:11:52.9   0.1                          T                 .7  .28 Ml 1.8         4582883
BGF   002.91 278.2 m E Pn      2011/01/14 15:11:07.2   0.2                          T                                        4582940
BGF   002.91 278.2 m E Pg      2011/01/14 15:11:15.6   0.1                          T                                        4582921
BGF   002.91 278.2 m E Sg      2011/01/14 15:11:53.1   0.3                          T                8.6  .48 Ml 2.7         4582892

.
EVENT     253796
    Date      Time       Latitude Longitude    Depth    Ndef Nsta Gap    Mag1  N    Mag2  N    Mag3  N   Author         ID
       rms   OT_Error      Smajor Sminor Az        Err   mdist  Mdist     Err        Err        Err      Quality

2011/01/14 16:04:57.5     43.8192     .9049       .0 f    30   10 099  Ml 2.1 13  Md 2.2  3              js067245    253816

      0.36   +-  0.04       1.1     .8  112.43 +-  0.0    0.89   3.06   +-0.3      +-0.0                 m i km

FRANCE
Sta     Dist  EvAz     Phase      Date       Time     TRes  Azim  AzRes  Slow  SRes Def   SNR       Amp   Per   Mag1   Mag2       ID
EPF   000.89 207.8 m E Pg      2011/01/14 16:05:14.3  -0.2                          T                                        4583003
EPF   000.89 207.8 m E Sn      2011/01/14 16:05:28.0  -0.9                          T                5.8  .22 Ml 2.2 Md 2.2  4583001
MTLF  001.07 116.2 m E Pg      2011/01/14 16:05:17.8   0.0                          T                                        4583004
MTLF  001.07 116.2 m E Sg      2011/01/14 16:05:32.0   0.2                          T                3.8  .24 Ml 2.0 Md 2.2  4583000
LFF   001.13 354.0 m E Pg      2011/01/14 16:05:19.0   0.2                          T                                        4582996
LFF   001.13 354.0 m E Sg      2011/01/14 16:05:33.4  -0.2                          T               12.0  .36 Ml 2.2 Md 2.2  4582992
CAF   001.38 036.5 m E Pn      2011/01/14 16:05:22.4  -0.2                          T                                        4582988
CAF   001.38 036.5 m E Pg      2011/01/14 16:05:23.7   0.1                          T                                        4582995
CAF   001.38 036.5 m E Sg      2011/01/14 16:05:41.5  -0.2                          T                1.6  .24 Ml 1.8         4582998
ETSF  001.41 229.8 m E Pg      2011/01/14 16:05:23.9  -0.3                          T                                        4582993
ETSF  001.41 229.8 m E Sg      2011/01/14 16:05:41.1  -1.4                          T                1.8  .32 Ml 1.7         4582999
RJF   001.55 016.2 m E Pn      2011/01/14 16:05:24.8   0.0                          T                                        4582987
RJF   001.55 016.2 m E Pg      2011/01/14 16:05:26.6  -0.1                          T                                        4583002
RJF   001.55 016.2 m E Sg      2011/01/14 16:05:46.7  -0.1                          T                3.9  .32 Ml 1.8         4582997
SJPF  001.70 246.3 m E Pn      2011/01/14 16:05:27.2   0.2                          T                                        4582989
SJPF  001.70 246.3 m E Pg      2011/01/14 16:05:29.8   0.4                          T                                        4582994
SJPF  001.70 246.3 m E Sn      2011/01/14 16:05:48.2  -0.1                          T                  1  .26 Ml 1.7         4582991
TCF   002.64 020.1 m E Pn      2011/01/14 16:05:39.8   0.1                          T                                        4582985
TCF   002.64 020.1 m E Sg      2011/01/14 16:06:20.5  -0.3                          T                1.5  .34 Ml 2.0         4582984
MFF   002.88 345.4 m E Pn      2011/01/14 16:05:42.8  -0.1                          T                                        4582979
MFF   002.88 345.4 m E Pg      2011/01/14 16:05:51.2   0.0                          T                                        4582978
MFF   002.88 345.4 m E Sn      2011/01/14 16:06:15.9  -0.5                          T                4.3  .38 Ml 2.6         4582977
BGF   003.06 025.9 m E Pn      2011/01/14 16:05:45.4   0.0                          T                                        4582981
BGF   003.06 025.9 m E Pg      2011/01/14 16:05:54.7   0.2                          T                                        4582980
BGF   003.06 025.9 m E Sg      2011/01/14 16:06:33.9  -0.2                          T                6.1  .55 Ml 2.5         4582982

.
EVENT     253797
    Date      Time       Latitude Longitude    Depth    Ndef Nsta Gap    Mag1  N    Mag2  N    Mag3  N   Author         ID
       rms   OT_Error      Smajor Sminor Az        Err   mdist  Mdist     Err        Err        Err      Quality

2011/01/14 18:45:23.3     46.5232    9.5841     10.0 f    42   12 084  Ml 2.2 13  Md 2.4  3              js067245    253817

      0.52   +-  0.09       2.2    1.7  171.46 +-  0.0    0.09   3.82   +-0.3      +-0.0                 m i ke

SWITZERLAND
Sta     Dist  EvAz     Phase      Date       Time     TRes  Azim  AzRes  Slow  SRes Def   SNR       Amp   Per   Mag1   Mag2       ID
LPL   002.23 244.2 m E Pn      2011/01/14 18:45:59.4   0.5                          T                                        4583039
LPL   002.23 244.2 m E Pg      2011/01/14 18:46:04.5  -0.5                          T                                        4583054
LPL   002.23 244.2 m E Sg      2011/01/14 18:46:33.1  -0.6                          T                1.2  .26 Ml 1.9 Md 2.3  4583029
LPG   002.22 243.6 m E Pn      2011/01/14 18:45:59.5   0.7                          T                                        4583038
LPG   002.22 243.6 m E Pg      2011/01/14 18:46:04.1  -0.9                          T                                        4583061
LPG   002.22 243.6 m E Sg      2011/01/14 18:46:32.9  -0.7                          T                1.6  .31 Ml 2.0 Md 2.4  4583055
HINF  002.27 305.8 m E Pn      2011/01/14 18:45:59.7   0.5                          T                                        4583044
HINF  002.27 305.8 m E Pg      2011/01/14 18:46:05.5   0.0                          T                                        4583058
HINF  002.27 305.8 m E Sg      2011/01/14 18:46:34.4  -0.3                          T                2.3  .24 Ml 2.2 Md 2.4  4583057
CABF  002.41 273.4 m E Pn      2011/01/14 18:46:02.0   0.8                          T                                        4583043
CABF  002.41 273.4 m E Pg      2011/01/14 18:46:07.9  -0.3                          T                                        4583059
CABF  002.41 273.4 m E Sg      2011/01/14 18:46:38.9  -0.4                          T                3.8  .41 Ml 2.3         4583056
CDF   002.45 321.2 m E Pn      2011/01/14 18:46:02.3   0.5                          T                                        4583048
CDF   002.45 321.2 m E Pg      2011/01/14 18:46:09.0   0.0                          T                                        4583049
CDF   002.45 321.2 m E Sg      2011/01/14 18:46:40.5  -0.1                          T                8.6  .58 Ml 2.6         4583035
HAU   002.66 305.1 m E Pn      2011/01/14 18:46:04.8   0.4                          T                                        4583046
HAU   002.66 305.1 m E Pg      2011/01/14 18:46:12.6   0.0                          T                                        4583051
HAU   002.66 305.1 m E Sg      2011/01/14 18:46:46.6  -0.2                          T                4.9  .30 Ml 2.3         4583033
MBDF  002.67 228.7 m E Pn      2011/01/14 18:46:05.4   0.7                          T                                        4583041
MBDF  002.67 228.7 m E Pg      2011/01/14 18:46:11.8  -1.2                          T                                        4583060
MBDF  002.67 228.7 m E Sn      2011/01/14 18:46:36.2   1.0                          T                 .6  .23 Ml 1.8         4583031
LANF  002.74 334.6 m E Pn      2011/01/14 18:46:06.1   0.6                          T                                        4583047
LANF  002.74 334.6 m E Sg      2011/01/14 18:46:49.2  -0.1                          T                3.5  .27 Ml 2.5         4583036
THEF  002.98 306.3 m E Pn      2011/01/14 18:46:09.6   0.9                          T                                        4583045
THEF  002.98 306.3 m E Pg      2011/01/14 18:46:18.3  -0.2                          T                                        4583050
THEF  002.98 306.3 m E Sg      2011/01/14 18:46:56.5  -0.3                          T                2.9  .27 Ml 2.5         4583034
ORIF  003.05 239.6 m E Pn      2011/01/14 18:46:10.3   0.5                          T                                        4583040
SBF   003.06 210.5 m E Pn      2011/01/14 18:46:10.3   0.3                          T                                        4583037
ORIF  003.05 239.6 m E Pg      2011/01/14 18:46:19.4  -0.6                          T                                        4583053
ORIF  003.05 239.6 m E Sn      2011/01/14 18:46:45.2   1.0                          T                 .8  .25 Ml 1.9         4583030
SBF   003.06 210.5 m E Sn      2011/01/14 18:46:45.3   0.8                          T                3.1  .35 Ml 2.4         4583028
VIVF  003.82 245.9 m E Pn      2011/01/14 18:46:21.0   0.6                          T                                        4583042
VIVF  003.82 245.9 m E Pg      2011/01/14 18:46:33.6  -0.5                          T                                        4583052
VIVF  003.82 245.9 m E Sn      2011/01/14 18:47:03.7   1.1                          T                1.5  .40 Ml 2.2         4583032

.
