EVENT     294392
    Date      Time       Latitude Longitude    Depth    Ndef Nsta Gap    Mag1  N    Mag2  N    Mag3  N   Author         ID
       rms   OT_Error      Smajor Sminor Az        Err   mdist  Mdist     Err        Err        Err      Quality

2013/03/21 02:38:10.7     42.8931     .2979      3.0 f    36    6 071  Ml 1.5  5  Md 1.9  2              bulletin    294492
                                                                                                         _ldg
      0.47   +-  0.06       1.2    1.0   28.74 +-  0.0    0.14   2.40   +-0.2      +-0.1                 m i ke

PYRENEES
Sta     Dist  EvAz     Phase      Date       Time     TRes  Azim  AzRes  Slow  SRes Def   SNR       Amp   Per   Mag1   Mag2       ID
EPF   000.14 012.7 m E Pg      2013/03/21 02:38:13.6  -0.1                          T                                        5231364
EPF   000.14 012.7 m E Sg      2013/03/21 02:38:15.8  -0.1                          T               46.2  .21        Md 1.9  5231363
ETSF  000.63 270.8 m E Pg      2013/03/21 02:38:22.5  -0.2                          T                                        5231362
ETSF  000.63 270.8 m E Sg      2013/03/21 02:38:30.4  -0.6                          T                2.9  .20        Md 1.9  5231361
SJPF  001.14 281.7 m E Pg      2013/03/21 02:38:32.1   0.1                          T                                        5231356
SJPF  001.14 281.7 m E Sg      2013/03/21 02:38:46.7  -0.1                          T                 .7  .24 Ml 1.4         5231355
MTLF  001.48 071.7 m E Pn      2013/03/21 02:38:36.7   0.3                          T                                        5231360
MTLF  001.48 071.7 m E Pg      2013/03/21 02:38:38.7   0.5                          T                                        5231359
MTLF  001.48 071.7 m E Sn      2013/03/21 02:38:55.3   0.2                          T                                        5231358
MTLF  001.48 071.7 m E Sg      2013/03/21 02:38:57.5   0.3                          T                 .3  .16 Ml 1.3         5231357
LFF   002.07 008.7 m E Pn      2013/03/21 02:38:45.0   0.4                          T                                        5231354
LFF   002.07 008.7 m E Pg      2013/03/21 02:38:49.1   0.0                          T                                        5231353
LFF   002.07 008.7 m E Sg      2013/03/21 02:39:15.5  -0.4                          T                 .6  .25 Ml 1.4         5231352
CAF   002.40 031.5 m E Pn      2013/03/21 02:38:49.1   0.0                          T                                        5231351
CAF   002.40 031.5 m E Sn      2013/03/21 02:39:17.7   0.4                          T                                        5231350
CAF   002.40 031.5 m E Sg      2013/03/21 02:39:26.4   0.2                          T                 .6  .19 Ml 1.8         5231349

.
EVENT     294396
    Date      Time       Latitude Longitude    Depth    Ndef Nsta Gap    Mag1  N    Mag2  N    Mag3  N   Author         ID
       rms   OT_Error      Smajor Sminor Az        Err   mdist  Mdist     Err        Err        Err      Quality

2013/03/21 06:33:03.2     42.7303   -1.7843      2.0      18    3 106  Ml 2.0  2  Md 2.2  1              bulletin    294496
                                                                                                         _ldg
      0.98   +-  0.28       5.1    4.5  163.87 +-  0.0    0.16   2.19   +-0.2      +-                    m i ke

PYRENEES
Sta     Dist  EvAz     Phase      Date       Time     TRes  Azim  AzRes  Slow  SRes Def   SNR       Amp   Per   Mag1   Mag2       ID
SJPF  000.56 046.8 m E Pg      2013/03/21 06:33:13.3  -0.6                          T                                Md 2.2  5231386
SJPF  000.56 046.8 m E Sg      2013/03/21 06:33:21.1  -0.2                          T                7.1  .28                5231385
ETSF  000.92 079.0 m E Pg      2013/03/21 06:33:21.4   0.9                          T                                        5231383
ETSF  000.92 079.0 m E Sg      2013/03/21 06:33:34.7   2.3                          T                3.4  .31 Ml 1.8         5231384
EPF   001.59 078.4 m E Pg      2013/03/21 06:33:32.7  -0.2                          T                                        5231382
EPF   001.59 078.4 m E Sg      2013/03/21 06:33:55.5   2.1                          T                3.1  .28 Ml 2.1         5231381

.
EVENT     294416
    Date      Time       Latitude Longitude    Depth    Ndef Nsta Gap    Mag1  N    Mag2  N    Mag3  N   Author         ID
       rms   OT_Error      Smajor Sminor Az        Err   mdist  Mdist     Err        Err        Err      Quality

2013/03/21 08:39:15.5     45.5832    3.1933       .0 f    46   26 037  Ml 2.8 27  Md 2.8  3              bulletin    294516
                                                                                                         _ldg
      0.52   +-  0.04        .8     .7  101.59 +-  0.0    0.61   3.80   +-0.2      +-0.0                 m i km

FRANCE
Sta     Dist  EvAz     Phase      Date       Time     TRes  Azim  AzRes  Slow  SRes Def   SNR       Amp   Per   Mag1   Mag2       ID
TCF   000.98 316.1 m E Pg      2013/03/21 08:39:34.2  -0.1                          T                                        5231509
TCF   000.98 316.1 m E Sg      2013/03/21 08:39:47.5   0.3                          T               41.6  .38 Ml 2.9 Md 2.8  5231510
BGF   001.00 346.2 m E Pg      2013/03/21 08:39:34.6   0.0                          T                                        5231521
BGF   001.00 346.2 m E Sg      2013/03/21 08:39:48.1   0.3                          T              215.3  .40 Ml 3.5         5231504
CAF   001.03 230.9 m E Pg      2013/03/21 08:39:35.0  -0.2                          T                                        5231524
CAF   001.03 230.9 m E Sg      2013/03/21 08:39:48.5  -0.2                          T               22.2  .35 Ml 2.6 Md 2.8  5231502
SMF   001.15 022.8 m E Pg      2013/03/21 08:39:37.3   0.0                          T                                        5231519
SMF   001.15 022.8 m E Sg      2013/03/21 08:39:52.6   0.1                          T               33.6  .37 Ml 2.8         5231506
AVF   001.21 005.2 m E Pg      2013/03/21 08:39:38.1  -0.3                          T                                        5231508
AVF   001.21 005.2 m E Sg      2013/03/21 08:39:54.7   0.4                          T               28.7  .41 Ml 2.8         5231507
RJF   001.21 257.3 m E Pg      2013/03/21 08:39:38.7   0.3                          T                                        5231522
RJF   001.21 257.3 m E Sg      2013/03/21 08:39:54.2  -0.1                          T               42.7  .38 Ml 2.6         5231503
VIVF  001.27 124.3 m E Pg      2013/03/21 08:39:39.5  -0.1                          T                                        5231527
VIVF  001.27 124.3 m E Sg      2013/03/21 08:39:56.1  -0.1                          T               41.0  .36 Ml 3.0         5231497
SSF   001.49 008.2 m E Pg      2013/03/21 08:39:43.7   0.1                          T                                        5231515
SSF   001.49 008.2 m E Sg      2013/03/21 08:40:03.5   0.3                          T               29.1  .44 Ml 2.9         5231512
LASF  001.58 162.4 m E Pg      2013/03/21 08:39:44.8  -0.4                          T                                        5231526
LASF  001.58 162.4 m E Sg      2013/03/21 08:40:05.9   0.2                          T               29.6  .46 Ml 2.9         5231498
HYF   001.73 347.4 m E P       2013/03/21 08:39:47.2   0.1                          T                                        5231520
HYF   001.73 347.4 m E Sg      2013/03/21 08:40:10.6   0.2                          T                                        5231505
LOR   001.75 015.0 m E Pg      2013/03/21 08:39:47.7  -0.6 194.0  -1.5              T                                        5231514
LOR   001.75 015.0 m E Sg      2013/03/21 08:40:11.4   0.4 190.7  -4.8              T               21.3  .42 Ml 2.9         5231513
LFF   001.85 250.5 m E Pg      2013/03/21 08:39:50.0  -0.1                          T                                        5231523
LFF   001.85 250.5 m E Sg      2013/03/21 08:40:14.1   0.0                          T               35.9  .44 Ml 2.9         5231501
CABF  002.26 061.9 m E Pg      2013/03/21 08:39:58.2   0.3                          T                                        5231516
CABF  002.26 061.9 m E Sg      2013/03/21 08:40:27.4   0.2                          T               20.9  .44 Ml 2.9         5231511
MTLF  002.35 197.7 m E Pg      2013/03/21 08:39:59.5   0.2                          T                                        5231525
MTLF  002.35 197.7 m E Sg      2013/03/21 08:40:29.6  -0.1                          T               14.6  .42 Ml 2.8         5231499
MFF   002.54 294.9 m E Pg      2013/03/21 08:40:03.1   0.3                          T                                        5231518
MFF   002.54 294.9 m E Sg      2013/03/21 08:40:35.8   0.2                          T                7.9  .41 Ml 2.8         5231517
EPF   003.27 219.8 m E Pg      2013/03/21 08:40:17.5   1.0                          T                                        5231532
EPF   003.27 219.8 m E Sg      2013/03/21 08:40:58.8   0.2                          T                6.4  .46 Ml 2.6         5237839
ORIF  002.01 108.4 m E Sg      2013/03/21 08:40:20.2   0.9                          T               14.2  .46 Ml 2.7         5231530
SMRF  002.34 132.6 m E Sg      2013/03/21 08:40:29.9   0.5                          T               13.8  .58 Ml 2.7         5237837
LPL   002.49 090.3 m E Sg      2013/03/21 08:40:34.1  -0.3                          T                9.1  .39 Ml 2.7         5231529
LPG   002.50 090.7 m E Sg      2013/03/21 08:40:35.2   0.2                          T               11.6  .46 Ml 2.7         5231528
MBDF  002.67 107.4 m E Sg      2013/03/21 08:40:39.7  -0.4                          T                7.9  .56 Ml 2.5         5231531
SFTF  002.91 025.1 m E Sg      2013/03/21 08:40:46.6  -0.8 204.5  -1.9              T               21.7  .56 Ml 3.0         5237840
FRF   003.19 128.1 m E Sg      2013/03/21 08:40:56.1   0.1                          T                5.0  .31 Ml 2.7         5237836
HAU   003.25 040.7 m E Sg      2013/03/21 08:40:58.4   0.4                          T                8.3  .42 Ml 2.6         5237865
HINF  003.37 047.1 m E Sg      2013/03/21 08:41:01.2  -0.4                          T                1.2  .19 Ml 2.3         5237841
ETSF  003.80 226.5 m E Sg      2013/03/21 08:41:15.7   0.4                          T                3.9  .44 Ml 2.5         5237838

.
EVENT     294417
    Date      Time       Latitude Longitude    Depth    Ndef Nsta Gap    Mag1  N    Mag2  N    Mag3  N   Author         ID
       rms   OT_Error      Smajor Sminor Az        Err   mdist  Mdist     Err        Err        Err      Quality

2013/03/21 08:51:16.4     48.7701    5.9617       .0 f    10    6 244  Ml 2.0  3  Md 2.0  1              bulletin    294517
                                                                                                         _ldg
      0.61   +-  0.34       5.8    2.9    5.85 +-  0.0    0.27   2.06   +-0.2      +-                    m i km

FRANCE
Sta     Dist  EvAz     Phase      Date       Time     TRes  Azim  AzRes  Slow  SRes Def   SNR       Amp   Per   Mag1   Mag2       ID
PAGF  000.27 216.2 m E Pg      2013/03/21 08:51:22.4   0.5  32.8  -3.2              T                                        5231537
PAGF  000.27 216.2 m E Sg      2013/03/21 08:51:26.1   0.5  36.6  0.6               T              214.4  .85        Md 2.0  5231541
HAU   000.81 161.2 m E Pg      2013/03/21 08:51:31.3  -0.6                          T                                        5231535
HAU   000.81 161.2 m E Sg      2013/03/21 08:51:42.1  -0.4                          T                2.7  .17                5231534
SFTF  000.83 227.7 m E Pg      2013/03/21 08:51:31.8  -0.5                          T                                        5231539
SFTF  000.83 227.7 m E Sg      2013/03/21 08:51:43.8   0.4                          T                4.7  .43                5231540
CDF   000.94 111.8 m E Pg      2013/03/21 08:51:34.9   0.5                          T                                        5231536
CDF   000.94 111.8 m E Sg      2013/03/21 08:51:46.7  -0.2                          T                6.2  .33 Ml 2.2         5231533
HINF  001.12 147.7 m E Sg      2013/03/21 08:51:52.1  -0.3                          T                3.3  .39 Ml 1.8         5231538
LOR   002.06 224.0 m E Sg      2013/03/21 08:52:22.2   0.5  43.1  0.7               T                2.4  .32 Ml 2.1         5237940

.
EVENT     294913
    Date      Time       Latitude Longitude    Depth    Ndef Nsta Gap    Mag1  N    Mag2  N    Mag3  N   Author         ID
       rms   OT_Error      Smajor Sminor Az        Err   mdist  Mdist     Err        Err        Err      Quality

2013/03/21 11:23:36.2     44.3764    7.2552     13.0 f    33    9 110  Ml 2.2  5  Md 2.0  2              bulletin    295013
                                                                                                         _ldg
      0.21   +-  0.03        .9     .5   54.66 +-  0.0    0.13   1.91   +-0.3      +-0.0                 m i ke

NORTHERN ITALY
Sta     Dist  EvAz     Phase      Date       Time     TRes  Azim  AzRes  Slow  SRes Def   SNR       Amp   Per   Mag1   Mag2       ID
MBDF  000.49 315.5 m E Pg      2013/03/21 11:23:46.0  -0.1                          T                                        5238466
MBDF  000.49 315.5 m E Sg      2013/03/21 11:23:52.5  -0.2                          T               15.4  .28        Md 2.0  5238462
SBF   000.53 165.8 m E Pg      2013/03/21 11:23:46.6   0.0                          T                                        5238464
SBF   000.53 165.8 m E Sg      2013/03/21 11:23:53.8   0.0                          T                7.8  .25        Md 2.0  5238463
FRF   000.93 208.5 m E Pg      2013/03/21 11:23:53.6  -0.1                          T                                        5238465
FRF   000.93 208.5 m E Sg      2013/03/21 11:24:05.6  -0.2                          T                9.6  .24 Ml 2.4         5238470
ORIF  001.12 299.4 m E Pg      2013/03/21 11:23:57.3  -0.1                          T                                        5238476
ORIF  001.12 299.4 m E Sg      2013/03/21 11:24:11.6  -0.5                          T                3.0  .21 Ml 2.0         5238467
LMR   001.17 207.6 m E Pg      2013/03/21 11:23:58.2   0.0                          T                                        5238472
LMR   001.17 207.6 m E Sg      2013/03/21 11:24:13.5   0.0                          T                8.1  .24 Ml 2.4         5238471
LPG   001.18 342.5 m E Pg      2013/03/21 11:23:58.6  -0.1                          T                                        5238474
SMRF  001.27 252.3 m E Pg      2013/03/21 11:24:00.2   0.0                          T                                        5238473
SMRF  001.27 252.3 m E Sg      2013/03/21 11:24:16.7   0.0                          T                2.7  .26 Ml 2.0         5238469
VIVF  001.91 285.5 m E Pg      2013/03/21 11:24:11.9   0.1                          T                                        5238475
LPL   001.20 342.1 m E Sg      2013/03/21 11:24:14.3  -0.3                          T                2.4  .23 Ml 1.9         5238468

.
