EVENT     296307
    Date      Time       Latitude Longitude    Depth    Ndef Nsta Gap    Mag1  N    Mag2  N    Mag3  N   Author         ID
       rms   OT_Error      Smajor Sminor Az        Err   mdist  Mdist     Err        Err        Err      Quality

2013/04/17 17:21:26.5     47.3368    9.8348      2.0      60   16 120  Ml 2.5 17                         bulletin    296407
                                                                                                         _ldg
      0.87   +-  0.12       2.1    1.8   80.29 +-  0.0    0.06   4.62   +-0.2                            m i ke

GERMANY
Sta     Dist  EvAz     Phase      Date       Time     TRes  Azim  AzRes  Slow  SRes Def   SNR       Amp   Per   Mag1   Mag2       ID
CDF   002.03 302.9 m E Pn      2013/04/17 17:22:00.0  -0.1                          T                                        5261830
CDF   002.03 302.9 m E Pg      2013/04/17 17:22:04.2  -0.2                          T                                        5261530
CDF   002.03 302.9 m E Sn      2013/04/17 17:22:24.4  -0.1                          T                                        5261528
CDF   002.03 302.9 m E Sg      2013/04/17 17:22:30.8   0.3                          T               27.4  .60 Ml 3.0         5261529
HINF  002.08 284.5 m E Pn      2013/04/17 17:22:01.0   0.3                          T                                        5261828
HINF  002.08 284.5 m E Sn      2013/04/17 17:22:25.6   0.1                          T                                        5261518
HINF  002.08 284.5 m E Sg      2013/04/17 17:22:32.0   0.1                          T               11.8  .34 Ml 2.8         5261517
HAU   002.45 287.1 m E Pn      2013/04/17 17:22:05.6  -0.1                          T                                        5261524
HAU   002.45 287.1 m E Pg      2013/04/17 17:22:12.0   0.0                          T                                        5261525
HAU   002.45 287.1 m E Sn      2013/04/17 17:22:34.4  -0.1                          T                                        5261527
HAU   002.45 287.1 m E Sg      2013/04/17 17:22:43.6   0.0                          T               14.6  .34 Ml 2.7         5261526
CABF  002.67 255.6 m E Pn      2013/04/17 17:22:08.6  -0.2                          T                                        5261513
CABF  002.67 255.6 m E Pg      2013/04/17 17:22:16.3   0.2                          T                                        5261514
CABF  002.67 255.6 m E Sn      2013/04/17 17:22:39.5  -0.3                          T                                        5261515
CABF  002.67 255.6 m E Sg      2013/04/17 17:22:50.9   0.5                          T               17.2  .59 Ml 2.8         5261516
LPL   002.81 230.8 m E Pn      2013/04/17 17:22:11.0   0.1                          T                                        5261826
LPL   002.81 230.8 m E Pg      2013/04/17 17:22:19.3   0.3                          T                                        5261500
LPL   002.81 230.8 m E Sg      2013/04/17 17:22:55.3   0.1                          T                2.3  .31 Ml 2.3         5261499
PAGF  003.02 295.3 m E Pn      2013/04/17 17:22:13.2  -0.2                          T                                        5261522
PAGF  003.02 295.3 m E Sn      2013/04/17 17:22:47.7  -0.4                          T                                        5261521
PAGF  003.02 295.3 m E Sg      2013/04/17 17:23:01.3   0.1                          T                9.9  .56 Ml 2.7         5261520
MBDF  003.37 220.4 m E Pn      2013/04/17 17:22:18.2  -0.2                          T                                        5261493
MBDF  003.37 220.4 m E Pg      2013/04/17 17:22:29.1  -0.1                          T                                        5261496
MBDF  003.37 220.4 m E Sn      2013/04/17 17:22:56.6   0.0                          T                                        5261494
MBDF  003.37 220.4 m E Sg      2013/04/17 17:23:12.7   0.3                          T                2.4  .44 Ml 2.2         5261495
SFTF  003.35 286.8 m E Pn      2013/04/17 17:22:18.2   0.2 112.7  9.4               T                                        5261829
SFTF  003.35 286.8 m E Pg      2013/04/17 17:22:28.4  -0.2                          T                                        5261512
SFTF  003.35 286.8 m E Sn      2013/04/17 17:22:55.6  -0.3                          T                                        5261523
SFTF  003.35 286.8 m E Sg      2013/04/17 17:23:11.4  -0.1                          T                2.7  .29 Ml 2.5         5261511
LPG   002.82 230.3 m E Pg      2013/04/17 17:22:19.3   0.2                          T                                        5261497
LPG   002.82 230.3 m E Sg      2013/04/17 17:22:55.4   0.1                          T                2.8  .32 Ml 2.3         5261498
ORIF  003.66 230.1 m E Pn      2013/04/17 17:22:21.8  -0.5                          T                                        5261827
ORIF  003.66 230.1 m E Pg      2013/04/17 17:22:35.7   1.2                          T                                        5261491
ORIF  003.66 230.1 m E Sg      2013/04/17 17:23:21.5   0.1                          T                1.9  .40 Ml 2.3         5261490
SBF   003.86 206.7 m E Pn      2013/04/17 17:22:24.5  -0.4                          T                                        5261492
LOR   004.07 271.2 m E Pn      2013/04/17 17:22:28.4   0.7  97.6  10.7              T                                        5261835
LOR   004.07 271.2 m E Sn      2013/04/17 17:23:12.9  -0.1                          T                                        5261502
LOR   004.07 271.2 m E Sg      2013/04/17 17:23:34.1   0.1                          T                1.6  .25 Ml 2.5         5261503
MEZF  003.42 291.7 m E Pg      2013/04/17 17:22:29.0  -0.9                          T                                        5261505
MEZF  003.42 291.7 m E Sn      2013/04/17 17:22:57.9   0.2                          T                                        5261504
MEZF  003.42 291.7 m E Sg      2013/04/17 17:23:13.9   0.1                          T                5.5  .42 Ml 2.6         5261506
SMF   004.16 262.6 m E Pn      2013/04/17 17:22:29.6   0.6                          T                                        5261507
SMF   004.16 262.6 m E Pg      2013/04/17 17:22:43.4  -0.1                          T                                        5261508
SMF   004.16 262.6 m E Sn      2013/04/17 17:23:15.0  -0.3                          T                                        5261509
SMF   004.16 262.6 m E Sg      2013/04/17 17:23:37.3   0.4                          T                3.5  .31 Ml 2.7         5261510
SSF   004.32 268.7 m E Pn      2013/04/17 17:22:32.0   0.9                          T                                        5261834
SSF   004.32 268.7 m E Sg      2013/04/17 17:23:41.7  -0.3                          T                 .6  .23 Ml 2.2         5261833
BAIF  004.62 308.2 m E Pn      2013/04/17 17:22:34.6  -0.5                          T                                        5261832
BAIF  004.62 308.2 m E Sn      2013/04/17 17:23:25.2  -1.0                          T                2.1  .51 Ml 2.4         5261831

.
EVENT     296299
    Date      Time       Latitude Longitude    Depth    Ndef Nsta Gap    Mag1  N    Mag2  N    Mag3  N   Author         ID
       rms   OT_Error      Smajor Sminor Az        Err   mdist  Mdist     Err        Err        Err      Quality

2013/04/17 18:13:58.3     43.4166    -.5647      2.0      17    6 153  Ml 1.7  4  Md 1.9  3              bulletin    296399
                                                                                                         _ldg
      0.56   +-  0.11       2.5    1.7  138.02 +-  0.0    0.52   2.41   +-0.2      +-0.0                 m i ke

PYRENEES
Sta     Dist  EvAz     Phase      Date       Time     TRes  Azim  AzRes  Slow  SRes Def   SNR       Amp   Per   Mag1   Mag2       ID
ETSF  000.52 179.6 m E Pg      2013/04/17 18:14:08.2   0.0                          T                                        5260606
ETSF  000.52 179.6 m E Sg      2013/04/17 18:14:15.8   0.7                          T                9.6  .30        Md 1.9  5260605
SJPF  000.57 238.1 m E Pg      2013/04/17 18:14:08.7  -0.4                          T                                        5260610
SJPF  000.57 238.1 m E Sg      2013/04/17 18:14:17.0   0.4                          T                6.6  .19        Md 1.9  5260609
EPF   000.77 120.0 m E Pg      2013/04/17 18:14:12.7  -0.1                          T                                        5260608
EPF   000.77 120.0 m E Sg      2013/04/17 18:14:22.9   0.1                          T                6.1  .23        Md 1.9  5260607
LFF   001.79 031.2 m E Pn      2013/04/17 18:14:28.4   0.0                          T                                        5261840
LFF   001.79 031.2 m E Sn      2013/04/17 18:14:51.0   0.6                          T                1.9  .22 Ml 1.9         5261839
MTLF  002.03 091.2 m E Pn      2013/04/17 18:14:31.7   0.0                          T                                        5261843
MTLF  002.03 091.2 m E Sn      2013/04/17 18:14:56.7   0.5                          T                                        5261842
MTLF  002.03 091.2 m E Sg      2013/04/17 18:15:01.5  -0.6                          T                 .2  .11 Ml 1.5         5261841
RJF   002.41 037.6 m E Pn      2013/04/17 18:14:37.2   0.3                          T                                        5261838
RJF   002.41 037.6 m E Sn      2013/04/17 18:15:05.3   0.1                          T                                        5261837
RJF   002.41 037.6 m E Sg      2013/04/17 18:15:13.6  -0.3                          T                 .7  .21 Ml 1.5         5261836

.
EVENT     296300
    Date      Time       Latitude Longitude    Depth    Ndef Nsta Gap    Mag1  N    Mag2  N    Mag3  N   Author         ID
       rms   OT_Error      Smajor Sminor Az        Err   mdist  Mdist     Err        Err        Err      Quality

2013/04/17 20:54:15.9     42.8236   -1.7675      2.0      29    6 150  Ml 1.7  6  Md 2.0  1              bulletin    296400
                                                                                                         _ldg
      0.65   +-  0.20       3.8    2.9   21.59 +-  0.0    0.15   3.48   +-0.3      +-                    m i ke

PYRENEES
Sta     Dist  EvAz     Phase      Date       Time     TRes  Azim  AzRes  Slow  SRes Def   SNR       Amp   Per   Mag1   Mag2       ID
SJPF  000.49 053.8 m E Pg      2013/04/17 20:54:24.5  -0.9                          T                                        5260616
SJPF  000.49 053.8 m E Sg      2013/04/17 20:54:31.6  -0.2                          T               11.7  .24        Md 2.0  5260615
ETSF  000.89 084.8 m E Pg      2013/04/17 20:54:33.3   0.6                          T                                        5260611
ETSF  000.89 084.8 m E Pn      2013/04/17 20:54:34.5   0.6                          T                                        5260635
ETSF  000.89 084.8 m E Sg      2013/04/17 20:54:44.4   0.1                          T                4.0  .32 Ml 1.9         5260617
EPF   001.56 081.7 m E Pn      2013/04/17 20:54:44.1   1.0                          T                                        5260614
EPF   001.56 081.7 m E Pg      2013/04/17 20:54:46.0   0.9                          T                                        5260636
EPF   001.56 081.7 m E Sn      2013/04/17 20:55:03.7   1.0                          T                                        5260620
EPF   001.56 081.7 m E Sg      2013/04/17 20:55:06.1   0.8                          T                3.3  .26 Ml 2.2         5260613
MTLF  002.96 078.6 m E Pn      2013/04/17 20:55:02.5   0.4                          T                                        5261852
MTLF  002.96 078.6 m E Sn      2013/04/17 20:55:37.0   0.9                          T                 .3  .19 Ml 1.6         5261851
RJF   003.43 042.5 m E Pn      2013/04/17 20:55:08.1  -0.3                          T                                        5261848
RJF   003.43 042.5 m E Sn      2013/04/17 20:55:46.9  -0.3                          T                 .5  .26 Ml 1.5         5261847
CAF   003.48 051.5 m E Pn      2013/04/17 20:55:09.2   0.1                          T                                        5261850
CAF   003.48 051.5 m E Sn      2013/04/17 20:55:48.3  -0.2                          T                 .3  .16 Ml 1.8         5261849

.
EVENT     296310
    Date      Time       Latitude Longitude    Depth    Ndef Nsta Gap    Mag1  N    Mag2  N    Mag3  N   Author         ID
       rms   OT_Error      Smajor Sminor Az        Err   mdist  Mdist     Err        Err        Err      Quality

2013/04/17 22:01:07.6     46.0268    6.8737      2.0      68   18 053  Ml 1.6 17  Md 1.7  2              bulletin    296410
                                                                                                         _ldg
      0.31   +-  0.03        .6     .5   75.26 +-  0.0    0.14   2.89   +-0.2      +-0.1                 m i ke

SWITZERLAND
Sta     Dist  EvAz     Phase      Date       Time     TRes  Azim  AzRes  Slow  SRes Def   SNR       Amp   Per   Mag1   Mag2       ID
LPL   000.52 191.0 m E Pg      2013/04/17 22:01:17.8   0.0                          T                                Md 1.6  5261119
LPL   000.52 191.0 m E Sg      2013/04/17 22:01:24.1  -0.6                          T                2.6  .28                5261116
LPG   000.54 189.2 m E Pg      2013/04/17 22:01:18.1  -0.1                          T                                        5261118
LPG   000.54 189.2 m E Sg      2013/04/17 22:01:25.4   0.1                          T                6.2  .24        Md 1.7  5261117
CABF  000.80 317.3 m E Pg      2013/04/17 22:01:22.8   0.0                          T                                        5261893
CABF  000.80 317.3 m E Sg      2013/04/17 22:01:33.2   0.0                          T                1.6  .23                5261892
MBDF  001.30 183.2 m E Pn      2013/04/17 22:01:31.5   0.2                          T                                        5261866
MBDF  001.30 183.2 m E Sn      2013/04/17 22:01:48.1  -0.2                          T                 .7  .19 Ml 1.5         5261865
ORIF  001.31 212.6 m E Pn      2013/04/17 22:01:31.5   0.2                          T                                        5261864
ORIF  001.31 212.6 m E Sn      2013/04/17 22:01:48.6   0.1                          T                1.3  .21 Ml 1.7         5261863
HINF  001.79 359.6 m E Pn      2013/04/17 22:01:38.0   0.1                          T                                        5261891
HINF  001.79 359.6 m E Sg      2013/04/17 22:02:03.9  -0.1                          T                1.3  .31 Ml 1.8         5261890
VIVF  001.94 233.7 m E Pn      2013/04/17 22:01:40.1   0.2                          T                                        5261867
VIVF  001.94 233.7 m E Pg      2013/04/17 22:01:44.0   0.2                          T                                        5261120
VIVF  001.94 233.7 m E Sg      2013/04/17 22:02:08.6  -0.2                          T                1.6  .28 Ml 2.0         5261121
HAU   002.01 349.9 m E Pn      2013/04/17 22:01:41.0   0.2                          T                                        5261889
HAU   002.01 349.9 m E Pg      2013/04/17 22:01:45.2   0.2                          T                                        5261888
HAU   002.01 349.9 m E Sn      2013/04/17 22:02:04.9  -0.2                          T                                        5261887
HAU   002.01 349.9 m E Sg      2013/04/17 22:02:11.2   0.2                          T                  1  .17 Ml 1.7         5261886
SMF   002.19 287.5 m E Pn      2013/04/17 22:01:43.0  -0.3                          T                                        5261872
SMF   002.19 287.5 m E Sg      2013/04/17 22:02:16.2  -0.3                          T                1.0  .18 Ml 2.0         5261871
SBF   002.20 169.4 m E Pn      2013/04/17 22:01:43.6   0.2                          T                                        5261856
SBF   002.20 169.4 m E Sn      2013/04/17 22:02:09.9   0.3                          T                 .5  .14 Ml 1.8         5261855
SMRF  002.25 204.6 m E Pn      2013/04/17 22:01:43.6  -0.4                          T                                        5261862
SMRF  002.25 204.6 m E Sn      2013/04/17 22:02:10.5  -0.2                          T                 .1  .21 Ml  .9         5261861
LOR   002.42 302.0 m E Pn      2013/04/17 22:01:46.1  -0.3 123.6  3.8               T                                        5261879
LOR   002.42 302.0 m E Pg      2013/04/17 22:01:52.5  -0.1 122.4  2.7               T                                        5261878
LOR   002.42 302.0 m E Sn      2013/04/17 22:02:14.7  -0.2                          T                                        5261877
LOR   002.42 302.0 m E Sg      2013/04/17 22:02:23.8   0.1 121.4  1.6               T                 .5  .22 Ml 1.6         5261876
CDF   002.40 006.4 m E Pn      2013/04/17 22:01:46.2   0.0                          T                                        5261885
CDF   002.40 006.4 m E Sn      2013/04/17 22:02:14.2  -0.3                          T                                        5261884
CDF   002.40 006.4 m E Sg      2013/04/17 22:02:23.2  -0.1                          T                 .2  .16 Ml 1.4         5261883
FRF   002.47 183.8 m E Pn      2013/04/17 22:01:47.0   0.0                          T                                        5261860
FRF   002.47 183.8 m E Sg      2013/04/17 22:02:24.9  -0.4                          T                 .5  .26 Ml 1.6         5261859
AVF   002.55 288.7 m E Pn      2013/04/17 22:01:48.2   0.0                          T                                        5261875
AVF   002.55 288.7 m E Sn      2013/04/17 22:02:18.0   0.0                          T                                        5261874
AVF   002.55 288.7 m E Sg      2013/04/17 22:02:27.7   0.0                          T                 .3  .20 Ml 1.5         5261873
SSF   002.54 295.2 m E Pn      2013/04/17 22:01:48.4   0.3                          T                                        5261882
SSF   002.54 295.2 m E Pg      2013/04/17 22:01:55.1   0.3                          T                                        5261881
SSF   002.54 295.2 m E Sg      2013/04/17 22:02:27.8   0.3                          T                 .3  .23 Ml 1.6         5261880
LMR   002.71 185.6 m E Pn      2013/04/17 22:01:50.3   0.1                          T                                        5261858
LMR   002.71 185.6 m E Sn      2013/04/17 22:02:21.7   0.2                          T                 .2  .15 Ml 1.5         5261857
LASF  002.89 228.7 m E Pn      2013/04/17 22:01:53.4   0.6                          T                                        5261870
LASF  002.89 228.7 m E Pg      2013/04/17 22:02:01.5   0.2                          T                                        5261869
LASF  002.89 228.7 m E Sg      2013/04/17 22:02:38.2  -0.3                          T                 .3  .29 Ml 1.5         5261868

.
