EVENT     268488
    Date      Time       Latitude Longitude    Depth    Ndef Nsta Gap    Mag1  N    Mag2  N    Mag3  N   Author         ID
       rms   OT_Error      Smajor Sminor Az        Err   mdist  Mdist     Err        Err        Err      Quality

2012/01/11 23:57:14.8     48.8187   14.3169      3.0 f    64   10 051  Ml 2.7  2                         js067245    268508

      0.86   +-  0.08       1.6    1.5    9.08 +-  0.0    0.40   6.60   +-0.2                            m i ke

AUSTRIA
Sta     Dist  EvAz     Phase      Date       Time     TRes  Azim  AzRes  Slow  SRes Def   SNR       Amp   Per   Mag1   Mag2       ID
GED7  000.40 270.5 m E Pg      2012/01/11 23:57:22.4  -0.1  93.2  3.1               T                                        4814775
GED1  000.40 275.0 m E Pg      2012/01/11 23:57:22.4  -0.2  97.6  3.1               T                                        4814777
GED7  000.40 270.5 m E Sg      2012/01/11 23:57:27.5  -0.3                          T                                        4814776
GED1  000.40 275.0 m E Sg      2012/01/11 23:57:27.5  -0.4                          T                                        4814778
GEA2  000.41 273.0 m E Pg      2012/01/11 23:57:22.5  -0.2  95.6  3.0               T                                        4814780
GEA2  000.41 273.0 m E Sg      2012/01/11 23:57:27.7  -0.4                          T                                        4814781
GED4  000.42 272.9 m E Pg      2012/01/11 23:57:22.8  -0.2  95.4  2.9               T                                        4814782
GED4  000.42 272.9 m E Sg      2012/01/11 23:57:28.2  -0.4                          T                                        4814783
HINF  005.08 261.4 m E Pn      2012/01/11 23:58:29.6  -0.1                          T                                        4814832
HINF  005.08 261.4 m E P       2012/01/11 23:58:33.7  -0.1                          T                                        4814831
HINF  005.08 261.4 m E Sg      2012/01/11 23:59:53.8  -0.1                          T                2.0  .43 Ml 2.6         4814825
PAGF  005.70 270.6 m E P       2012/01/11 23:58:42.0  -0.5  90.8  6.6               T                                        4814829
MEZF  006.15 270.5 m E Pn      2012/01/11 23:58:43.9  -0.3  94.5  10.9              T                                        4814827
SFTF  006.20 267.8 m E Pn      2012/01/11 23:58:44.9   0.1                          T                                        4814830
SFTF  006.20 267.8 m E Pg      2012/01/11 23:59:09.2  -0.1                          T                                        4814826
MBDF  006.60 234.5 m E Pn      2012/01/11 23:58:50.1  -0.4                          T                                        4814833
MBDF  006.60 234.5 m E P       2012/01/11 23:58:55.5   0.2                          T                                        4814834
HAU   005.37 264.3 m E Pg      2012/01/11 23:58:54.4   0.4                          T                                        4814828
HAU   005.37 264.3 m E Sg      2012/01/12 00:00:03.3   0.5                          T                4.5  .38 Ml 2.8         4814824

.
EVENT     268670
    Date      Time       Latitude Longitude    Depth    Ndef Nsta Gap    Mag1  N    Mag2  N    Mag3  N   Author         ID
       rms   OT_Error      Smajor Sminor Az        Err   mdist  Mdist     Err        Err        Err      Quality

2012/01/11 23:58:00.6     48.1343   -2.3045     25.0       6    2 304             Md 1.4  2              js067245    268690

      0.84   +-  0.38       7.8    4.9  113.63 +-  0.0    0.21   0.68              +-0.1                 m i ke

FRANCE
Sta     Dist  EvAz     Phase      Date       Time     TRes  Azim  AzRes  Slow  SRes Def   SNR       Amp   Per   Mag1   Mag2       ID
SGMF  000.21 305.5 m E Pg      2012/01/11 23:58:06.5   0.1                          T                                        4814844
SGMF  000.21 305.5 m E Sg      2012/01/11 23:58:10.6   0.1                          T                1.8  .30        Md 1.4  4814845
QUIF  000.62 249.7 m E Pg      2012/01/11 23:58:12.9   0.0                          T                                        4814842
QUIF  000.62 249.7 m E Sg      2012/01/11 23:58:21.3  -0.2                          T                1.0  .39        Md 1.3  4814843

.
EVENT     268674
    Date      Time       Latitude Longitude    Depth    Ndef Nsta Gap    Mag1  N    Mag2  N    Mag3  N   Author         ID
       rms   OT_Error      Smajor Sminor Az        Err   mdist  Mdist     Err        Err        Err      Quality

2012/01/12 06:00:13.9     43.0394     .0038      2.0       6    3 176  Ml 0.9  1  Md 1.2  2              js067245    268694

      0.19   +-  0.11       9.3    1.7  177.73 +-  0.0    0.25   0.90   +-         +-0.0                 m i ke

FRANCE
Sta     Dist  EvAz     Phase      Date       Time     TRes  Azim  AzRes  Slow  SRes Def   SNR       Amp   Per   Mag1   Mag2       ID
EPF   000.25 092.0 m E Pg      2012/01/12 06:00:19.0   0.1                          T                                        4814922
EPF   000.25 092.0 m E Sg      2012/01/12 06:00:21.8  -0.4                          T                4.5  .22        Md 1.2  4814923
ETSF  000.44 251.4 m E Pg      2012/01/12 06:00:22.4   0.0                          T                                        4814920
ETSF  000.44 251.4 m E Sg      2012/01/12 06:00:28.1  -0.1                          T                4.7  .19        Md 1.2  4814921
SJPF  000.90 275.1 m E Pg      2012/01/12 06:00:30.8  -0.1                          T                                        4814918
SJPF  000.90 275.1 m E Sg      2012/01/12 06:00:42.9   0.2                          T                 .2  .16 Ml  .9         4814919

.
EVENT     268489
    Date      Time       Latitude Longitude    Depth    Ndef Nsta Gap    Mag1  N    Mag2  N    Mag3  N   Author         ID
       rms   OT_Error      Smajor Sminor Az        Err   mdist  Mdist     Err        Err        Err      Quality

2012/01/12 06:00:25.0     43.0433     .0213     10.0      58    8 057  Ml 2.1  6  Md 2.2  2              js067245    268509

      0.60   +-  0.06       1.4    1.1    8.81 +-  0.0    0.08   2.97   +-0.1      +-0.0                 m i ke

FRANCE
Sta     Dist  EvAz     Phase      Date       Time     TRes  Azim  AzRes  Slow  SRes Def   SNR       Amp   Per   Mag1   Mag2       ID
EPF   000.23 093.1 m E Pg      2012/01/12 06:00:30.3   0.3                          T                                        4814900
EPF   000.23 093.1 m E Sg      2012/01/12 06:00:33.1  -0.3                          T               51.4  .21        Md 2.2  4814901
ETSF  000.45 251.4 m E Pg      2012/01/12 06:00:33.6  -0.2                          T                                        4814898
ETSF  000.45 251.4 m E Sg      2012/01/12 06:00:39.3  -0.5                          T               59.8  .21        Md 2.2  4814899
SJPF  000.92 274.8 m E Pg      2012/01/12 06:00:42.0  -0.2                          T                                        4814896
SJPF  000.92 274.8 m E Sg      2012/01/12 06:00:54.2   0.0                          T                4.5  .25 Ml 2.0         4814897
MTLF  001.63 078.8 m E Pg      2012/01/12 06:00:56.0   0.6                          T                                        4814917
MTLF  001.63 078.8 m E Sg      2012/01/12 06:01:16.4  -0.2                          T                3.9  .22 Ml 2.3         4814907
LFF   001.97 015.1 m E Pn      2012/01/12 06:00:56.6   0.0                          T                                        4814914
LFF   001.97 015.1 m E Pg      2012/01/12 06:01:01.3  -0.2                          T                                        4814913
LFF   001.97 015.1 m E Sg      2012/01/12 06:01:26.8  -0.1                          T                4.0  .26 Ml 2.2         4814905
CAF   002.39 037.4 m E Pn      2012/01/12 06:01:02.4  -0.1                          T                                        4814916
CAF   002.39 037.4 m E Pg      2012/01/12 06:01:09.1  -0.3                          T                                        4814915
CAF   002.39 037.4 m E Sg      2012/01/12 06:01:39.5  -0.7                          T                1.7  .23 Ml 2.1         4814906
RJF   002.50 024.9 m E Pn      2012/01/12 06:01:04.0   0.0                          T                                        4814912
RJF   002.50 024.9 m E Pg      2012/01/12 06:01:11.1  -0.3                          T                                        4814911
RJF   002.50 024.9 m E Sg      2012/01/12 06:01:43.3  -0.4                          T                2.2  .22 Ml 2.0         4814904
LASF  002.97 068.4 m E P       2012/01/12 06:01:13.3  -0.1                          T                                        4814910
LASF  002.97 068.4 m E Pg      2012/01/12 06:01:19.9  -0.2                          T                                        4814909
LASF  002.97 068.4 m E Sg      2012/01/12 06:01:58.5   0.2                          T                1.3  .27 Ml 2.1         4814908

.
EVENT     268497
    Date      Time       Latitude Longitude    Depth    Ndef Nsta Gap    Mag1  N    Mag2  N    Mag3  N   Author         ID
       rms   OT_Error      Smajor Sminor Az        Err   mdist  Mdist     Err        Err        Err      Quality

2012/01/12 08:52:44.6     45.2156     .9291       .0 f    15   10 126  Ml 2.5  9  Md 1.9  2              js067245    268517

      0.25   +-  0.09       1.8    1.1  125.21 +-  0.0    0.31   2.55   +-0.4      +-0.2                 m i km

FRANCE
Sta     Dist  EvAz     Phase      Date       Time     TRes  Azim  AzRes  Slow  SRes Def   SNR       Amp   Per   Mag1   Mag2       ID
LFF   000.31 205.9 m E Pg      2012/01/12 08:52:50.8  -0.1                          T                                        4814926
LFF   000.31 205.9 m E Sg      2012/01/12 08:52:55.2   0.0                          T               34.5  .30        Md 2.0  4814927
RJF   000.42 077.7 m E Pg      2012/01/12 08:52:53.4   0.3                          T                                        4814925
RJF   000.42 077.7 m E Sg      2012/01/12 08:52:58.1  -0.7                          T               17.0  .30        Md 1.7  4814928
CAF   000.86 109.4 m E Pg      2012/01/12 08:53:00.9  -0.1                          T                                        4814940
CAF   000.86 109.4 m E P       2012/01/12 08:53:02.9   0.1                          T                                        4814924
CAF   000.86 109.4 m E Sg      2012/01/12 08:53:12.7   0.3                          T                                        4814929
CAF   000.86 109.4 m E Sn      2012/01/12 08:53:15.5   0.3                          T               31.1  .34 Ml 2.7         4814930
TCF   001.40 039.4 m E Sg      2012/01/12 08:53:29.6   0.3                          T               32.8  .28 Ml 3.1         4814934
MFF   001.58 332.0 m E Sg      2012/01/12 08:53:35.1   0.3                          T                7.3  .41 Ml 2.5         4814931
BGF   001.90 044.2 m E Sg      2012/01/12 08:53:44.6  -0.2                          T               19.9  .34 Ml 2.9         4814933
MTLF  002.09 153.3 m E Sg      2012/01/12 08:53:50.9   0.1                          T                1.2  .27 Ml 1.9         4814939
AVF   002.31 046.1 m E Sg      2012/01/12 08:53:57.7   0.0                          T                3.2  .33 Ml 2.3         4814935
LASF  002.38 117.6 m E Sg      2012/01/12 08:54:00.0   0.1                          T                1.6  .28 Ml 2.0         4814938
ETSF  002.55 205.4 m E Sg      2012/01/12 08:54:05.2  -0.2                          T                1.3  .27 Ml 2.0         4814937

.
EVENT     268500
    Date      Time       Latitude Longitude    Depth    Ndef Nsta Gap    Mag1  N    Mag2  N    Mag3  N   Author         ID
       rms   OT_Error      Smajor Sminor Az        Err   mdist  Mdist     Err        Err        Err      Quality

2012/01/12 09:21:02.0     44.1442    6.9465      2.0      20    5 087  Ml 1.5  2  Md 1.4  2              js067245    268520

      0.11   +-  0.03        .6     .4  122.92 +-  0.0    0.08   1.00   +-0.2      +-0.1                 m i ke

FRANCE
Sta     Dist  EvAz     Phase      Date       Time     TRes  Azim  AzRes  Slow  SRes Def   SNR       Amp   Per   Mag1   Mag2       ID
SBF   000.45 128.4 m E Pg      2012/01/12 09:21:10.6  -0.1                          T                                        4814949
SBF   000.45 128.4 m E Sg      2012/01/12 09:21:16.4  -0.3                          T                4.3  .27        Md 1.4  4814950
MBDF  000.60 347.9 m E Pg      2012/01/12 09:21:13.3  -0.1                          T                                        4814941
MBDF  000.60 347.9 m E Sg      2012/01/12 09:21:21.2  -0.1                          T                7.8  .84        Md 1.3  4814942
FRF   000.62 200.5 m E Pg      2012/01/12 09:21:13.8   0.1                          T                                        4814945
FRF   000.62 200.5 m E Sg      2012/01/12 09:21:21.9   0.0                          T                1.7  .21                4814946
LMR   000.87 201.5 m E Pg      2012/01/12 09:21:18.3   0.0                          T                                        4814947
LMR   000.87 201.5 m E Sg      2012/01/12 09:21:29.6   0.0                          T                 .7  .17 Ml 1.4         4814948
SMRF  001.00 260.8 m E Pg      2012/01/12 09:21:21.7   0.8                          T                                        4814943
SMRF  001.00 260.8 m E Sn      2012/01/12 09:21:35.6   0.2                          T                2.2  .29 Ml 1.7         4814944

.
EVENT     268542
    Date      Time       Latitude Longitude    Depth    Ndef Nsta Gap    Mag1  N    Mag2  N    Mag3  N   Author         ID
       rms   OT_Error      Smajor Sminor Az        Err   mdist  Mdist     Err        Err        Err      Quality

2012/01/12 17:51:53.5     45.9133    6.7812      2.0      17    9 111  Ml 1.9  6  Md 2.0  1              js067245    268562

      0.24   +-  0.05       1.5     .8  100.89 +-  0.0    0.17   2.17   +-0.3      +-                    m i ke

FRANCE
Sta     Dist  EvAz     Phase      Date       Time     TRes  Azim  AzRes  Slow  SRes Def   SNR       Amp   Per   Mag1   Mag2       ID
LPL   000.40 184.9 m E Pg      2012/01/12 17:52:01.5   0.1                          T                                        4814954
LPG   000.42 182.9 m E Pg      2012/01/12 17:52:01.6  -0.2                          T                                        4814955
LPG   000.42 182.9 m E Sg      2012/01/12 17:52:07.1  -0.2                          T               10.8  .46        Md 2.0  4814956
CABF  000.85 325.7 m E Pg      2012/01/12 17:52:09.8   0.3                          T                                        4814972
CABF  000.85 325.7 m E Sn      2012/01/12 17:52:23.4   0.2                          T                6.5  .36                4814973
ORIF  001.18 212.9 m E Pg      2012/01/12 17:52:15.6   0.0                          T                                        4814958
ORIF  001.18 212.9 m E Sg      2012/01/12 17:52:31.2   0.2                          T                3.4  .33 Ml 1.9         4814959
MBDF  001.19 180.3 m E Pg      2012/01/12 17:52:15.8  -0.1                          T                                        4814957
MBDF  001.19 180.3 m E Sg      2012/01/12 17:52:31.3   0.1                          T                 .8  .27 Ml 1.4         4814960
VIVF  001.82 235.3 m E Pg      2012/01/12 17:52:27.4   0.0                          T                                        4814961
VIVF  001.82 235.3 m E Sg      2012/01/12 17:52:51.0   0.1                          T                3.0  .24 Ml 2.3         4814962
HINF  001.90 001.5 m E Pg      2012/01/12 17:52:28.7  -0.3                          T                                        4814966
HINF  001.90 001.5 m E Sg      2012/01/12 17:52:53.4  -0.1                          T                3.0  .31 Ml 2.2         4814971
HAU   002.11 352.1 m E Pg      2012/01/12 17:52:32.7   0.0                          T                                        4814963
HAU   002.11 352.1 m E Sg      2012/01/12 17:52:59.9  -0.1                          T                2.2  .28 Ml 1.9         4814965
SMF   002.17 290.8 m E Pg      2012/01/12 17:52:33.7   0.0                          T                                        4814964
SMF   002.17 290.8 m E Sg      2012/01/12 17:53:01.7   0.1                          T                1.3  .26 Ml 1.9         4814970

.
EVENT     268543
    Date      Time       Latitude Longitude    Depth    Ndef Nsta Gap    Mag1  N    Mag2  N    Mag3  N   Author         ID
       rms   OT_Error      Smajor Sminor Az        Err   mdist  Mdist     Err        Err        Err      Quality

2012/01/12 23:00:00.7     44.7369    6.6243      2.0      12    7 092  Ml 1.5  3  Md 1.5  2              js067245    268563

      0.18   +-  0.05       1.1     .9   79.57 +-  0.0    0.11   1.41   +-0.2      +-0.2                 m i ke

FRANCE
Sta     Dist  EvAz     Phase      Date       Time     TRes  Azim  AzRes  Slow  SRes Def   SNR       Amp   Per   Mag1   Mag2       ID
MBDF  000.11 095.4 m E Pg      2012/01/12 23:00:03.2  -0.1                          T                                        4814986
MBDF  000.11 095.4 m E Sg      2012/01/12 23:00:04.7  -0.1                          T               20.5  .28        Md 1.7  4814987
ORIF  000.56 289.2 m E Pg      2012/01/12 23:00:11.6   0.1                          T                                        4814984
ORIF  000.56 289.2 m E Sg      2012/01/12 23:00:18.2  -0.6                          T                2.2  .22        Md 1.4  4814985
LPG   000.77 006.7 m E Pg      2012/01/12 23:00:15.5   0.0                          T                                        4814980
LPG   000.77 006.7 m E Sg      2012/01/12 23:00:25.8   0.3                          T                 .5  .22                4814981
LPL   000.78 005.6 m E Pg      2012/01/12 23:00:15.6  -0.1                          T                                        4814982
LPL   000.78 005.6 m E Sg      2012/01/12 23:00:26.0   0.0                          T                 .4  .20                4814983
FRF   001.18 179.2 m E Pg      2012/01/12 23:00:22.7   0.0                          T                                        4814977
FRF   001.18 179.2 m E Sg      2012/01/12 23:00:38.1   0.2                          T                1.5  .29 Ml 1.6         4814979
VIVF  001.39 275.6 m E Sg      2012/01/12 23:00:44.9   0.1                          T                 .4  .26 Ml 1.2         4814976
LMR   001.41 183.4 m E Sg      2012/01/12 23:00:45.0   0.0                          T                 .8  .23 Ml 1.6         4814978

.
