BEGIN GSE2.0
MSG_TYPE DATA
MSG_ID 27-SEP-1211:43:04  FRA_NDC
E-MAIL
DATA_TYPE BULLETIN
Reviewed Bulletin (REB) # P2012-038  from French NDC for regional phases     PERIOD 19 SEP 2012 TO 25 SEP 2012 Cenalt JP S
EVENT     283571
    Date      Time       Latitude Longitude    Depth    Ndef Nsta Gap    Mag1  N    Mag2  N    Mag3  N   Author         ID
       rms   OT_Error      Smajor Sminor Az        Err   mdist  Mdist     Err        Err        Err      Quality

2012/09/19 02:32:45.1     47.3042    6.5562      7.0 f    54   19 152  Ml 2.2 14  Md 2.5  3              bulletin    283671
                                                                                                         _ldg
      0.44   +-  0.05       1.2     .7  107.80 +-  0.0    0.55   3.74   +-0.3      +-0.2                 m i ke

FRANCE
Sta     Dist  EvAz     Phase      Date       Time     TRes  Azim  AzRes  Slow  SRes Def   SNR       Amp   Per   Mag1   Mag2       ID
HINF  000.55 021.3 m E Pg      2012/09/19 02:32:55.4  -0.2                          T                                        5073336
HINF  000.55 021.3 m E P       2012/09/19 02:32:57.0   0.1                          T                                        5073848
HINF  000.55 021.3 m E Sg      2012/09/19 02:33:03.2   0.3                          T                                        5073327
HINF  000.55 021.3 m E Sn      2012/09/19 02:33:06.7   0.0                          T               16.0  .22        Md 2.6  5073849
HAU   000.72 348.7 m E Pg      2012/09/19 02:32:58.5  -0.2                          T                                        5073337
HAU   000.72 348.7 m E Pn      2012/09/19 02:32:59.9  -0.2                          T                                        5074666
HAU   000.72 348.7 m E Sg      2012/09/19 02:33:08.3   0.2                          T                                        5074651
HAU   000.72 348.7 m E Sn      2012/09/19 02:33:10.3  -0.4                          T               19.0  .24        Md 2.6  5073328
CABF  000.76 205.0 m E Pg      2012/09/19 02:32:59.5  -0.2                          T                                        5073335
CABF  000.76 205.0 m E P       2012/09/19 02:33:01.5   0.4                          T                                        5074665
CABF  000.76 205.0 m E Sg      2012/09/19 02:33:09.9   0.2                          T               15.1  .20        Md 2.4  5073326
CDF   001.21 023.4 m E Pn      2012/09/19 02:33:06.7  -0.2                          T                                        5074668
CDF   001.21 023.4 m E Pg      2012/09/19 02:33:07.8   0.0                          T                                        5073333
CDF   001.21 023.4 m E P       2012/09/19 02:33:08.5  -0.2                          T                                        5074669
CDF   001.21 023.4 m E Sn      2012/09/19 02:33:22.1  -0.4                          T                                        5074649
CDF   001.21 023.4 m E Sg      2012/09/19 02:33:24.0   0.5                          T                9.1  .24 Ml 2.6         5073330
SFTF  001.36 311.9 m E Pn      2012/09/19 02:33:08.8  -0.1                          T                                        5074667
SFTF  001.36 311.9 m E Pg      2012/09/19 02:33:10.9   0.3                          T                                        5073843
SFTF  001.36 311.9 m E Sg      2012/09/19 02:33:28.3   0.0                          T                                        5074650
PAGF  001.37 336.2 m E Pg      2012/09/19 02:33:11.0   0.3 160.8  5.1               T                                        5073334
PAGF  001.37 336.2 m E Sg      2012/09/19 02:33:28.8   0.4                          T                4.4  .20 Ml 2.3         5073329
MEZF  001.57 320.4 m E Pg      2012/09/19 02:33:14.5   0.1 144.3  5.0               T                                        5073841
MEZF  001.57 320.4 m E Sg      2012/09/19 02:33:34.7   0.2                          T               10.7  .34 Ml 2.6         5073840
LOR   001.84 269.9 m E Pn      2012/09/19 02:33:15.1  -0.2                          T                                        5074672
LOR   001.84 269.9 m E Pg      2012/09/19 02:33:19.3   0.0  87.7  -0.2              T                                        5073332
LOR   001.84 269.9 m E Sn      2012/09/19 02:33:36.9  -0.6                          T                                        5074648
LOR   001.84 269.9 m E Sg      2012/09/19 02:33:43.0   0.0  91.2  3.3               T                9.9  .20 Ml 2.9         5073331
SMF   001.97 251.5 m E Pn      2012/09/19 02:33:17.5   0.3                          T                                        5074663
SMF   001.97 251.5 m E Pg      2012/09/19 02:33:21.5  -0.3                          T                                        5073839
SMF   001.97 251.5 m E Sg      2012/09/19 02:33:46.8  -0.4                          T                2.4  .16 Ml 2.4         5073838
LPL   001.79 176.0 m E Pg      2012/09/19 02:33:18.8   0.0                          T                                        5073851
LPL   001.79 176.0 m E Sg      2012/09/19 02:33:42.1   0.2                          T                 .9  .21 Ml 1.8         5073850
AVF   002.25 258.0 m E Pn      2012/09/19 02:33:21.3   0.4                          T                                        5074664
AVF   002.25 258.0 m E Pg      2012/09/19 02:33:26.6  -0.2                          T                                        5073845
AVF   002.25 258.0 m E Sg      2012/09/19 02:33:55.7  -0.2                          T                 .8  .18 Ml 1.9         5073844
ORIF  002.43 191.4 m E Pn      2012/09/19 02:33:24.6   1.1                          T                                        5074655
ORIF  002.43 191.4 m E Pg      2012/09/19 02:33:30.4   0.0                          T                                        5073852
ORIF  002.43 191.4 m E Sg      2012/09/19 02:34:01.2  -0.5                          T                1.0  .19 Ml 2.0         5073853
BGF   002.65 255.0 m E Pn      2012/09/19 02:33:27.0   0.6                          T                                        5074662
BGF   002.65 255.0 m E Pg      2012/09/19 02:33:34.3   0.1                          T                                        5073847
BGF   002.65 255.0 m E Sg      2012/09/19 02:34:08.5   0.1                          T                2.1  .22 Ml 2.3         5073846
MBDF  002.58 176.6 m E P       2012/09/19 02:33:28.0  -0.3                          T                                        5074656
MBDF  002.58 176.6 m E Pg      2012/09/19 02:33:33.5   0.3                          T                                        5074657
MBDF  002.58 176.6 m E Sg      2012/09/19 02:34:06.4   0.0                          T                 .6  .24 Ml 1.7         5074654
TCF   003.15 252.8 m E Pn      2012/09/19 02:33:33.7   0.4                          T                                        5074671
TCF   003.15 252.8 m E Pg      2012/09/19 02:33:43.3  -0.2                          T                                        5073856
TCF   003.15 252.8 m E Sg      2012/09/19 02:34:23.9  -0.2                          T                1.2  .27 Ml 2.2         5073855
HYF   002.67 270.7 m E Pg      2012/09/19 02:33:34.3  -0.3                          T                                        5073857
HYF   002.67 270.7 m E Sg      2012/09/19 02:34:08.9   0.0                          T                                        5073858
BAIF  003.17 331.4 m E P       2012/09/19 02:33:35.8  -0.7                          T                                        5074670
VIVF  002.78 208.8 m E Pg      2012/09/19 02:33:36.6  -0.1                          T                                        5074658
VIVF  002.78 208.8 m E Sg      2012/09/19 02:34:12.3   0.0                          T                2.1  .23 Ml 2.3         5073854
LASF  003.74 211.3 m E Pg      2012/09/19 02:33:54.4   0.0                          T                                        5074659
LASF  003.74 211.3 m E Sg      2012/09/19 02:34:42.6   0.2                          T                 .9  .26 Ml 2.1         5074653

.
EVENT     283572
    Date      Time       Latitude Longitude    Depth    Ndef Nsta Gap    Mag1  N    Mag2  N    Mag3  N   Author         ID
       rms   OT_Error      Smajor Sminor Az        Err   mdist  Mdist     Err        Err        Err      Quality

2012/09/19 03:24:16.5     45.9107     .6359      4.0 f    50   19 112  Ml 2.2 19  Md 2.4  3              bulletin    283672
                                                                                                         _ldg
      0.34   +-  0.04        .9     .7   94.47 +-  0.0    0.87   3.20   +-0.3      +-0.1                 m i ke

FRANCE
Sta     Dist  EvAz     Phase      Date       Time     TRes  Azim  AzRes  Slow  SRes Def   SNR       Amp   Per   Mag1   Mag2       ID
RJF   000.87 134.1 m E Pg      2012/09/19 03:24:32.8  -0.1                          T                                        5073349
RJF   000.87 134.1 m E Pn      2012/09/19 03:24:33.8  -0.1                          T                                        5077602
RJF   000.87 134.1 m E Sg      2012/09/19 03:24:43.9  -0.2                          T               13.3  .22 Ml 2.2 Md 2.4  5073344
MFF   000.88 322.2 m E Pg      2012/09/19 03:24:33.1   0.0                          T                                        5073353
MFF   000.88 322.2 m E Sg      2012/09/19 03:24:44.5   0.0                          T                5.1  .16 Ml 2.4 Md 2.5  5073338
LFF   000.97 175.6 m E Pg      2012/09/19 03:24:34.8   0.0                          T                                        5073348
LFF   000.97 175.6 m E Pn      2012/09/19 03:24:35.5   0.1                          T                                        5077600
LFF   000.97 175.6 m E Sg      2012/09/19 03:24:47.5   0.1                          T               12.9  .24 Ml 2.4 Md 2.3  5073345
TCF   001.16 070.4 m E Pg      2012/09/19 03:24:38.8   0.5                          T                                        5073352
TCF   001.16 070.4 m E Sg      2012/09/19 03:24:53.4   0.1                          T               10.1  .16 Ml 2.7         5073339
CAF   001.41 133.9 m E Pn      2012/09/19 03:24:41.6   0.3                          T                                        5077601
CAF   001.41 133.9 m E Pg      2012/09/19 03:24:42.8   0.0                          T                                        5073347
CAF   001.41 133.9 m E Sg      2012/09/19 03:25:01.0   0.0                          T                8.7  .24 Ml 2.6         5073346
BGF   001.67 066.3 m E Pn      2012/09/19 03:24:45.2   0.4                          T                                        5077605
BGF   001.67 066.3 m E Pg      2012/09/19 03:24:47.5  -0.1                          T                                        5073350
BGF   001.67 066.3 m E Sg      2012/09/19 03:25:08.3  -0.7                          T               19.3  .30 Ml 2.9         5073343
HYF   001.94 044.8 m E Pn      2012/09/19 03:24:48.4  -0.1                          T                                        5077604
HYF   001.94 044.8 m E Pg      2012/09/19 03:24:52.6   0.0                          T                                        5073351
HYF   001.94 044.8 m E Sg      2012/09/19 03:25:17.3  -0.2                          T                                        5073342
AVF   002.08 064.0 m E Pn      2012/09/19 03:24:50.2  -0.1                          T                                        5077603
AVF   002.08 064.0 m E Pg      2012/09/19 03:24:55.1   0.0                          T                                        5077613
AVF   002.08 064.0 m E Sn      2012/09/19 03:25:15.0  -0.1                          T                                        5077612
AVF   002.08 064.0 m E Sg      2012/09/19 03:25:21.6  -0.3                          T                2.0  .25 Ml 2.1         5073340
SMF   002.34 070.6 m E Pg      2012/09/19 03:24:59.9  -0.1                          T                                        5077614
SMF   002.34 070.6 m E Sg      2012/09/19 03:25:29.4  -0.7                          T                1.0  .16 Ml 2.1         5073341
MTLF  002.81 155.7 m E Pn      2012/09/19 03:25:00.3   0.0                          T                                        5077619
MTLF  002.81 155.7 m E Pg      2012/09/19 03:25:08.4  -0.1                          T                                        5073962
MTLF  002.81 155.7 m E Sg      2012/09/19 03:25:44.8   0.1                          T                  1  .20 Ml 2.1         5073960
EPF   002.89 184.3 m E Pn      2012/09/19 03:25:01.5   0.0                          T                                        5077618
EPF   002.89 184.3 m E Pg      2012/09/19 03:25:11.0   0.9                          T                                        5073961
EPF   002.89 184.3 m E Sn      2012/09/19 03:25:34.0  -0.6                          T                                        5077599
EPF   002.89 184.3 m E Sg      2012/09/19 03:25:47.5   0.3                          T                 .6  .17 Ml 1.9         5073959
LASF  002.93 127.6 m E Pn      2012/09/19 03:25:02.2   0.2                          T                                        5077620
LASF  002.93 127.6 m E Pg      2012/09/19 03:25:11.1   0.2                          T                                        5073957
LASF  002.93 127.6 m E Sg      2012/09/19 03:25:48.7   0.2                          T                                        5073967
LOR   002.60 057.4 m E Pg      2012/09/19 03:25:05.1   0.2                          T                                        5077610
LOR   002.60 057.4 m E Sn      2012/09/19 03:25:27.6  -0.2                          T                                        5077611
LOR   002.60 057.4 m E Sg      2012/09/19 03:25:37.4  -1.0 237.5  -2.3              T                1.0  .22 Ml 2.0         5073963
SJPF  003.10 206.1 m E Pg      2012/09/19 03:25:13.6  -0.3                          T                                        5073969
SJPF  003.10 206.1 m E Sg      2012/09/19 03:25:53.3  -0.5                          T                 .6  .24 Ml 1.8         5073970
ETSF  003.13 196.3 m E Pg      2012/09/19 03:25:14.4  -0.2                          T                                        5073958
ETSF  003.13 196.3 m E Sg      2012/09/19 03:25:55.3   0.5                          T                 .5  .20 Ml 1.9         5073968
GRR   002.68 338.2 m E Sn      2012/09/19 03:25:29.6   0.0                          T                                        5077617
GRR   002.68 338.2 m E Sg      2012/09/19 03:25:40.5  -0.1                          T                2.5  .24 Ml 2.2         5073966
LDF   002.73 349.4 m E Sn      2012/09/19 03:25:30.4  -0.5                          T                                        5077616
LDF   002.73 349.4 m E Sg      2012/09/19 03:25:42.0  -0.3                          T                 .8  .19 Ml 2.0         5073965
FLN   002.95 345.5 m E Sg      2012/09/19 03:25:49.4   0.2                          T                 .8  .20 Ml 1.9         5073964
SGMF  003.20 318.2 m E Sg      2012/09/19 03:25:57.2   0.2                          T                3.3  .31 Ml 2.5         5077615

.
EVENT     283658
    Date      Time       Latitude Longitude    Depth    Ndef Nsta Gap    Mag1  N    Mag2  N    Mag3  N   Author         ID
       rms   OT_Error      Smajor Sminor Az        Err   mdist  Mdist     Err        Err        Err      Quality

2012/09/19 06:15:31.4     42.7547    1.4485     10.0      15    4 095  Ml 1.2  2  Md 1.3  2              bulletin    283758
                                                                                                         _ldg
      0.16   +-  0.04        .9     .7  172.87 +-  0.0    0.21   2.20   +-0.1      +-0.0                 m i ke

PYRENEES
Sta     Dist  EvAz     Phase      Date       Time     TRes  Azim  AzRes  Slow  SRes Def   SNR       Amp   Per   Mag1   Mag2       ID
MTLF  000.81 043.6 m E Pg      2012/09/19 06:15:46.9   0.1                          T                                        5075229
MTLF  000.81 043.6 m E Sg      2012/09/19 06:15:57.3  -0.1                          T                  1  .27        Md 1.3  5075230
EPF   000.86 289.1 m E Pg      2012/09/19 06:15:47.7   0.0                          T                                        5075231
EPF   000.86 289.1 m E Sg      2012/09/19 06:15:59.0   0.1                          T                 .7  .26 Ml 1.2 Md 1.3  5075232
ETSF  001.48 276.2 m E Pn      2012/09/19 06:15:56.4  -0.2                          T                                        5074959
ETSF  001.48 276.2 m E Sn      2012/09/19 06:16:14.8  -0.1                          T                 .2  .15 Ml 1.1         5074958
LASF  002.20 052.2 m E Pn      2012/09/19 06:16:06.2  -0.1                          T                                        5074957

.
EVENT     283731
    Date      Time       Latitude Longitude    Depth    Ndef Nsta Gap    Mag1  N    Mag2  N    Mag3  N   Author         ID
       rms   OT_Error      Smajor Sminor Az        Err   mdist  Mdist     Err        Err        Err      Quality

2012/09/19 10:15:11.1     43.5230    6.6636       .0 f    20    8 091  Ml 2.0  6  Md 1.9  3              bulletin    283831
                                                                                                         _ldg
      0.23   +-  0.07       1.4    1.3   75.55 +-  0.0    0.04   1.99   +-0.2      +-0.3                 m i km

NEAR SOUTH COAST OF FRANCE
Sta     Dist  EvAz     Phase      Date       Time     TRes  Azim  AzRes  Slow  SRes Def   SNR       Amp   Per   Mag1   Mag2       ID
FRF   000.04 342.0 m E Pg      2012/09/19 10:15:11.8  -0.3                          T                                Md 1.6  5076553
FRF   000.04 342.0 m E Sg      2012/09/19 10:15:12.5  -0.3                          T                                        5076552
LMR   000.22 210.8 m E Pg      2012/09/19 10:15:15.8   0.0                          T                                        5076555
LMR   000.22 210.8 m E Sg      2012/09/19 10:15:19.2   0.3                          T               21.4  .18        Md 1.9  5076554
SBF   000.65 058.5 m E Pg      2012/09/19 10:15:23.9   0.1                          T                                        5076551
SBF   000.65 058.5 m E Pn      2012/09/19 10:15:26.7   0.4                          T                                Md 2.2  5076550
SBF   000.65 058.5 m E Sg      2012/09/19 10:15:32.6   0.0                          T               15.8  .34                5076545
SMRF  000.91 300.2 m E Pg      2012/09/19 10:15:28.5   0.0                          T                                        5076549
SMRF  000.91 300.2 m E Sg      2012/09/19 10:15:40.3  -0.2                          T                3.4  .28 Ml 1.9         5076546
MBDF  001.21 003.7 m E Pg      2012/09/19 10:15:34.2   0.1                          T                                        5076547
MBDF  001.21 003.7 m E Sg      2012/09/19 10:15:49.8  -0.1                          T                1.5  .20 Ml 1.8         5076542
ORIF  001.50 338.3 m E Pn      2012/09/19 10:15:38.2   0.3                          T                                        5076548
ORIF  001.50 338.3 m E Sn      2012/09/19 10:15:57.3   0.0                          T                6.6  .52 Ml 2.1         5076543
PGF   001.97 118.8 m E Pn      2012/09/19 10:15:44.0  -0.2                          T                                        5076540
PGF   001.97 118.8 m E Sn      2012/09/19 10:16:07.9  -0.5                          T                1.1  .19 Ml 2.2         5076539
LPL   001.99 001.4 m E Pn      2012/09/19 10:15:44.7   0.0                          T                                        5076544
LPL   001.99 001.4 m E Sn      2012/09/19 10:16:08.7  -0.4                          T                1.1  .31 Ml 1.8         5076541

.
