EVENT     256090
    Date      Time       Latitude Longitude    Depth    Ndef Nsta Gap    Mag1  N    Mag2  N    Mag3  N   Author         ID
       rms   OT_Error      Smajor Sminor Az        Err   mdist  Mdist     Err        Err        Err      Quality

2011/02/16 17:28:12.5     46.5928    2.1225      4.0 f    27   10 116  Ml 2.1 10  Md 2.1  3              js067245    256110

      0.36   +-  0.08       2.1    1.3  157.90 +-  0.0    0.31   1.67   +-0.2      +-0.0                 m i ke

FRANCE
Sta     Dist  EvAz     Phase      Date       Time     TRes  Azim  AzRes  Slow  SRes Def   SNR       Amp   Per   Mag1   Mag2       ID
TCF   000.31 168.7 m E Pg      2011/02/16 17:28:18.6   0.0                          T                                        4650432
TCF   000.31 168.7 m E Sg      2011/02/16 17:28:21.9  -0.9                          T                7.6  .28        Md 2.1  4650416
BGF   000.50 093.7 m E Pg      2011/02/16 17:28:22.0  -0.1                          T                                        4650428
BGF   000.50 093.7 m E Sg      2011/02/16 17:28:28.0  -0.7                          T               16.7  .34        Md 2.1  4650420
HYF   000.76 027.5 m E Pn      2011/02/16 17:28:28.1  -0.3                          T                                        4650429
HYF   000.76 027.5 m E Sg      2011/02/16 17:28:34.5  -2.4                          T                                        4650419
AVF   000.87 076.4 m E Pg      2011/02/16 17:28:28.9   0.0                          T                                        4650431
AVF   000.87 076.4 m E P       2011/02/16 17:28:30.8   0.2                          T                                        4653016
AVF   000.87 076.4 m E Sg      2011/02/16 17:28:39.8  -0.3                          T                4.5  .22 Ml 2.1         4650417
AVF   000.87 076.4 m E Sn      2011/02/16 17:28:42.5   0.3                          T                1.4  .13 Ml 1.8         4653017
SSF   001.06 063.2 m E Pg      2011/02/16 17:28:32.5   0.2                          T                                        4650412
SSF   001.06 063.2 m E Sn      2011/02/16 17:28:46.9   0.1                          T                5.0  .22 Ml 2.3         4650414
SMF   001.19 086.8 m E Pn      2011/02/16 17:28:34.5   0.3                          T                                        4650430
SMF   001.19 086.8 m E P       2011/02/16 17:28:35.7  -0.2                          T                                        4653015
SMF   001.19 086.8 m E Sg      2011/02/16 17:28:49.6  -0.5                          T                3.5  .28 Ml 2.0         4650418
RJF   001.36 198.4 m E Pg      2011/02/16 17:28:38.4   0.6                          T                                        4650426
RJF   001.36 198.4 m E Sg      2011/02/16 17:28:55.7   0.4                          T                5.6  .24 Ml 2.0         4650423
LOR   001.37 059.8 m E P       2011/02/16 17:28:38.6   0.1                          T                                        4650413
LOR   001.37 059.8 m E Sg      2011/02/16 17:28:55.6  -0.2                          T                5.3  .23 Ml 2.4         4650415
MFF   001.56 271.2 m E Pn      2011/02/16 17:28:38.7  -0.7                          T                                        4650425
MFF   001.56 271.2 m E P       2011/02/16 17:28:41.4   0.1                          T                                        4653014
MFF   001.56 271.2 m E Sg      2011/02/16 17:29:02.7   0.9                          T                2.0  .22 Ml 2.2         4650424
CAF   001.67 181.4 m E Sg      2011/02/16 17:29:05.1   0.0                          T                3.1  .26 Ml 2.2         4650422

.
EVENT     256092
    Date      Time       Latitude Longitude    Depth    Ndef Nsta Gap    Mag1  N    Mag2  N    Mag3  N   Author         ID
       rms   OT_Error      Smajor Sminor Az        Err   mdist  Mdist     Err        Err        Err      Quality

2011/02/16 19:16:56.8     43.1577    -.6836      2.0      41    8 079  Ml 2.4  7  Md 2.4  3              js067245    256112

      0.75   +-  0.09       1.8    1.5  166.75 +-  0.0    0.07   3.61   +-0.2      +-0.0                 m i ke

PYRENEES
Sta     Dist  EvAz     Phase      Date       Time     TRes  Azim  AzRes  Slow  SRes Def   SNR       Amp   Per   Mag1   Mag2       ID
ETSF  000.27 160.5 m E Pg      2011/02/16 19:17:01.5  -0.8                          T                                        4650442
ETSF  000.27 160.5 m E Sg      2011/02/16 19:17:04.3  -1.7                          T               89.7  .18        Md 2.4  4650438
SJPF  000.40 263.8 m E Pg      2011/02/16 19:17:04.2  -0.3                          T                                        4650441
SJPF  000.40 263.8 m E Sg      2011/02/16 19:17:09.2  -0.6                          T               65.1  .26        Md 2.4  4650439
EPF   000.76 099.3 m E Pg      2011/02/16 19:17:11.0  -0.2                          T                                        4650440
EPF   000.76 099.3 m E Sg      2011/02/16 19:17:20.0  -1.1                          T               10.3  .24        Md 2.4  4650437
LFF   002.06 029.5 m E Pg      2011/02/16 19:17:34.9  -0.1                          T                                        4650449
LFF   002.06 029.5 m E Sg      2011/02/16 19:18:01.5   0.1                          T               12.8  .42 Ml 2.5         4650453
MTLF  002.13 084.1 m E Pg      2011/02/16 19:17:35.9  -0.4                          T                                        4650455
MTLF  002.13 084.1 m E Sg      2011/02/16 19:18:02.8  -0.9                          T                2.2  .23 Ml 2.2         4650456
CAF   002.66 047.3 m E Pg      2011/02/16 19:17:44.6  -1.5                          T                                        4650448
CAF   002.66 047.3 m E Sg      2011/02/16 19:18:19.6  -0.7                          T                4.2  .31 Ml 2.5         4650454
RJF   002.67 035.6 m E Pg      2011/02/16 19:17:46.6   0.3                          T                                        4650450
RJF   002.67 035.6 m E Sg      2011/02/16 19:18:20.2  -0.3                          T                5.4  .35 Ml 2.2         4650452
MFF   003.47 006.1 m E Pg      2011/02/16 19:18:00.8  -0.2                          T                                        4650447
MFF   003.47 006.1 m E Sg      2011/02/16 19:18:45.6   0.2                          T                1.9  .22 Ml 2.6         4650451

.
EVENT     256093
    Date      Time       Latitude Longitude    Depth    Ndef Nsta Gap    Mag1  N    Mag2  N    Mag3  N   Author         ID
       rms   OT_Error      Smajor Sminor Az        Err   mdist  Mdist     Err        Err        Err      Quality

2011/02/16 22:09:46.4     50.3330    7.8076     11.0 f    76   19 046  Ml 3.0 18  Md 3.0  3              js067245    256113

      0.62   +-  0.07       1.3    1.1   82.02 +-  0.0    0.10   5.51   +-0.3      +-0.2                 m i ke

GERMANY
Sta     Dist  EvAz     Phase      Date       Time     TRes  Azim  AzRes  Slow  SRes Def   SNR       Amp   Per   Mag1   Mag2       ID
RUP   000.79 217.6 m E Pg      2011/02/16 22:10:01.1  -0.5                          T                                        4650516
RUP   000.79 217.6 m E Pn      2011/02/16 22:10:02.7   0.6                          T                                        4650499
RUP   000.79 217.6 m E Sg      2011/02/16 22:10:11.3  -0.7                          T                                Md 3.0  4650472
LANF  001.35 180.1 m E Pn      2011/02/16 22:10:10.6   1.0                          T                                        4650498
LANF  001.35 180.1 m E Pg      2011/02/16 22:10:11.4  -0.4                          T                                        4650515
LANF  001.35 180.1 m E Sg      2011/02/16 22:10:28.5  -0.8                          T               66.3  .31 Ml 3.3 Md 3.2  4650471
CDF   001.95 190.4 m E Pn      2011/02/16 22:10:18.1   0.2                          T                                        4650497
CDF   001.95 190.4 m E Pg      2011/02/16 22:10:22.0  -0.9                          T                                        4650514
CDF   001.95 190.4 m E Sg      2011/02/16 22:10:47.3  -0.8                          T               25.4  .40 Ml 3.1         4650470
GIVF  001.93 264.3 m E Pn      2011/02/16 22:10:18.4   0.9                          T                                        4650501
GIVF  001.93 264.3 m E Pg      2011/02/16 22:10:22.2  -0.1                          T                                        4650512
GIVF  001.93 264.3 m E Sg      2011/02/16 22:10:46.9  -0.3                          T               31.3  .30 Ml 3.2 Md 2.8  4650474
PAGF  002.24 218.2 m E Pn      2011/02/16 22:10:22.0   0.3                          T                                        4650496
PAGF  002.24 218.2 m E Pg      2011/02/16 22:10:27.4  -0.6                          T                                        4650513
PAGF  002.24 218.2 m E Sg      2011/02/16 22:10:56.4  -0.5                          T                5.8  .30 Ml 2.5         4650469
BAIF  002.33 264.6 m E Pn      2011/02/16 22:10:23.8   0.9                          T                                        4650500
BAIF  002.33 264.6 m E Pg      2011/02/16 22:10:29.6  -0.1                          T                                        4650506
BAIF  002.33 264.6 m E Sg      2011/02/16 22:10:59.3  -0.4                          T               17.0  .26 Ml 3.1         4650473
THEF  002.42 210.1 m E Pn      2011/02/16 22:10:24.6   0.5                          T                                        4650493
THEF  002.42 210.1 m E Pg      2011/02/16 22:10:30.4  -1.0                          T                                        4650509
THEF  002.42 210.1 m E Sg      2011/02/16 22:11:01.9  -0.5                          T               20.3  .21 Ml 3.3         4650466
HAU   002.52 202.9 m E Pn      2011/02/16 22:10:25.9   0.4                          T                                        4650492
HAU   002.52 202.9 m E Pg      2011/02/16 22:10:32.3  -0.9                          T                                        4650508
HAU   002.52 202.9 m E Sg      2011/02/16 22:11:05.0  -0.6                          T               16.9  .30 Ml 2.9         4650465
HINF  002.60 194.4 m E Pn      2011/02/16 22:10:26.8   0.2                          T                                        4650491
HINF  002.60 194.4 m E Pg      2011/02/16 22:10:33.8  -0.8                          T                                        4650507
HINF  002.60 194.4 m E Sg      2011/02/16 22:11:07.3  -0.7                          T               14.8  .33 Ml 3.0         4650464
MEZF  002.57 225.5 m E Pn      2011/02/16 22:10:26.8   0.7                          T                                        4650495
MEZF  002.57 225.5 m E Pg      2011/02/16 22:10:34.3   0.3  41.5  -1.9              T                                        4650511
MEZF  002.57 225.5 m E Sg      2011/02/16 22:11:06.6  -0.5                          T               32.2  .44 Ml 3.2         4650468
SFTF  002.80 221.5 m E Pn      2011/02/16 22:10:29.8   0.5                          T                                        4650494
SFTF  002.80 221.5 m E Pg      2011/02/16 22:10:37.6  -0.7  46.5  7.1               T                                        4650510
SFTF  002.80 221.5 m E Sg      2011/02/16 22:11:13.7  -0.6                          T               14.6  .24 Ml 3.2         4650467
CABF  003.90 197.7 m E Pn      2011/02/16 22:10:45.2   0.8                          T                                        4650487
CABF  003.90 197.7 m E Pg      2011/02/16 22:10:58.2  -0.5                          T                                        4650477
CABF  003.90 197.7 m E Sg      2011/02/16 22:11:47.9  -0.8                          T                3.7  .40 Ml 2.6         4650486
LOR   004.03 221.9 m E Pn      2011/02/16 22:10:46.1   0.1  42.9  4.0               T                                        4650502
LOR   004.03 221.9 m E Pg      2011/02/16 22:11:00.5  -0.5  50.4  11.5              T                                        4650505
LOR   004.03 221.9 m E Sn      2011/02/16 22:11:31.6   1.2                          T                                        4650461
LOR   004.03 221.9 m E Sg      2011/02/16 22:11:52.1  -0.5                          T                9.4  .49 Ml 3.0         4650476
SSF   004.34 222.7 m E Pn      2011/02/16 22:10:50.0  -0.3                          T                                        4650503
SSF   004.34 222.7 m E Pg      2011/02/16 22:11:06.1  -0.6                          T                                        4650504
SSF   004.34 222.7 m E Sg      2011/02/16 22:12:01.8  -0.6                          T                7.0  .35 Ml 3.1         4650475
SMF   004.54 217.1 m E Pn      2011/02/16 22:10:53.5   0.6                          T                                        4650490
SMF   004.54 217.1 m E Pg      2011/02/16 22:11:10.1  -0.2                          T                                        4650479
SMF   004.54 217.1 m E Sg      2011/02/16 22:12:08.1  -0.5                          T                4.6  .33 Ml 2.9         4650484
HYF   004.59 230.1 m E Pn      2011/02/16 22:10:54.6   0.9                          T                                        4650489
HYF   004.59 230.1 m E Pg      2011/02/16 22:11:11.3   0.0                          T                                        4650480
HYF   004.59 230.1 m E Sg      2011/02/16 22:12:09.7  -0.5                          T                                        4650483
AVF   004.62 221.5 m E Pn      2011/02/16 22:10:54.9   0.9                          T                                        4650488
AVF   004.62 221.5 m E Pg      2011/02/16 22:11:11.4  -0.4                          T                                        4650478
AVF   004.62 221.5 m E Sg      2011/02/16 22:12:10.3  -0.7                          T                1.3  .24 Ml 2.5         4650485
TCF   005.51 224.8 m E Pn      2011/02/16 22:11:07.2   1.0                          T                                        4650462
TCF   005.51 224.8 m E Sg      2011/02/16 22:12:38.4  -0.4                          T                2.5  .37 Ml 2.9         4650463
BGF   005.02 223.0 m E Pg      2011/02/16 22:11:19.0  -0.1                          T                                        4650481
BGF   005.02 223.0 m E Sg      2011/02/16 22:12:22.9  -0.6                          T               16.2  .46 Ml 3.4         4650482

.
EVENT     256094
    Date      Time       Latitude Longitude    Depth    Ndef Nsta Gap    Mag1  N    Mag2  N    Mag3  N   Author         ID
       rms   OT_Error      Smajor Sminor Az        Err   mdist  Mdist     Err        Err        Err      Quality

2011/02/17 00:14:56.5     43.0491    -.7623      3.0 f     6    3 170             Md 1.2  2              js067245    256114

      0.04   +-  0.02       1.0     .3   15.82 +-  0.0    0.21   0.81              +-0.0                 m i ke

PYRENEES
Sta     Dist  EvAz     Phase      Date       Time     TRes  Azim  AzRes  Slow  SRes Def   SNR       Amp   Per   Mag1   Mag2       ID
ETSF  000.21 135.2 m E Pg      2011/02/17 00:15:00.9   0.0                          T                                        4650524
ETSF  000.21 135.2 m E Sg      2011/02/17 00:15:03.8  -0.1                          T                5.4  .29        Md 1.1  4650521
SJPF  000.35 280.9 m E Pg      2011/02/17 00:15:03.2   0.0                          T                                        4650523
SJPF  000.35 280.9 m E Sg      2011/02/17 00:15:07.9   0.0                          T                2.7  .29        Md 1.2  4650520
EPF   000.81 091.0 m E Pg      2011/02/17 00:15:11.8   0.0                          T                                        4650519
EPF   000.81 091.0 m E Sg      2011/02/17 00:15:22.3  -0.1                          T                 .7  .27                4650522

.
EVENT     256262
    Date      Time       Latitude Longitude    Depth    Ndef Nsta Gap    Mag1  N    Mag2  N    Mag3  N   Author         ID
       rms   OT_Error      Smajor Sminor Az        Err   mdist  Mdist     Err        Err        Err      Quality

2011/02/17 00:42:27.0     42.8502    1.6420      4.0 f    14    4 119  Ml 1.2  3  Md 1.5  1              js067245    256282

      0.19   +-  0.05       1.0     .8  134.45 +-  0.0    0.38   2.03   +-0.2      +-                    m i ke

PYRENEES
Sta     Dist  EvAz     Phase      Date       Time     TRes  Azim  AzRes  Slow  SRes Def   SNR       Amp   Per   Mag1   Mag2       ID
MTLF  000.65 040.5 m E Pg      2011/02/17 00:42:39.4   0.2                          T                                        4653021
MTLF  000.65 040.5 m E Pn      2011/02/17 00:42:41.3  -0.1                          T                                        4653022
MTLF  000.65 040.5 m E Sg      2011/02/17 00:42:47.7   0.0                          T                                        4653024
MTLF  000.65 040.5 m E Sn      2011/02/17 00:42:51.6   0.1                          T                2.0  .18        Md 1.5  4653023
EPF   000.97 281.1 m E Pg      2011/02/17 00:42:45.2  -0.1                          T                                        4653025
EPF   000.97 281.1 m E Sg      2011/02/17 00:42:57.5  -0.5                          T                                        4653026
EPF   000.97 281.1 m E Sn      2011/02/17 00:42:59.0  -0.3                          T                 .7  .22 Ml 1.3         4653027
ETSF  001.62 272.5 m E Pg      2011/02/17 00:42:57.4   0.1                          T                                        4653018
ETSF  001.62 272.5 m E Sg      2011/02/17 00:43:18.2   0.1                          T                 .1  .15 Ml  .9         4653019
LASF  002.03 052.0 m E Sg      2011/02/17 00:43:30.5  -0.2                          T                 .2  .23 Ml 1.2         4653020

.
