EVENT     277156
    Date      Time       Latitude Longitude    Depth    Ndef Nsta Gap    Mag1  N    Mag2  N    Mag3  N   Author         ID
       rms   OT_Error      Smajor Sminor Az        Err   mdist  Mdist     Err        Err        Err      Quality

2012/05/30 05:07:31.5     44.9214   11.0391      2.0      91   25 034  Ml 3.5 13                         bulletin    277256
                                                                                                         _ldg
      1.02   +-  0.12       3.9    2.6   47.94 +-  0.0    0.15   6.37   +-0.3                            m i ke

NORTHERN ITALY
Sta     Dist  EvAz     Phase      Date       Time     TRes  Azim  AzRes  Slow  SRes Def   SNR       Amp   Per   Mag1   Mag2       ID
PGF   002.80 212.6 m E Pn      2012/05/30 05:08:16.3   0.8                          T                                        4976377
PGF   002.80 212.6 m E Sn      2012/05/30 05:08:48.7   0.9                          T               34.4  .31 Ml 3.7         4976340
SBF   002.79 249.0 m E Pn      2012/05/30 05:08:17.3   1.9                          T                                        4976376
SBF   002.79 249.0 m E Sn      2012/05/30 05:08:50.1   2.4                          T              162.0  .46 Ml 3.9         4976341
MBDF  003.04 267.8 m E Pn      2012/05/30 05:08:17.8  -1.2                          T                                        4976369
MBDF  003.04 267.8 m E Sn      2012/05/30 05:09:01.8   8.0                          T               35.0  .52 Ml 3.3         4976345
LPL   003.10 282.6 m E Pn      2012/05/30 05:08:20.9   1.1                          T                                        4976371
LPG   003.08 282.3 m E Pn      2012/05/30 05:08:21.5   1.8                          T                                        4976372
FRF   003.44 248.2 m E Pn      2012/05/30 05:08:25.5   1.4                          T                                        4976374
FRF   003.44 248.2 m E Sn      2012/05/30 05:09:04.6   1.6                          T               46.6  .42 Ml 3.6         4976343
ORIF  003.66 271.8 m E Pn      2012/05/30 05:08:27.3   0.0                          T                                        4976370
ORIF  003.66 271.8 m E Sn      2012/05/30 05:09:09.8   1.2                          T               29.8  .50 Ml 3.4         4976344
LMR   003.63 245.6 m E Pn      2012/05/30 05:08:27.5   0.8                          T                                        4976375
LMR   003.63 245.6 m E Sn      2012/05/30 05:09:09.3   1.7                          T               36.0  .32 Ml 3.6         4976342
CABF  003.86 297.7 m E Pn      2012/05/30 05:08:30.6   0.6                          T                                        4976360
SMRF  004.02 258.3 m E Pn      2012/05/30 05:08:32.9   0.7                          T                                        4976373
HINF  004.10 316.5 m E Pn      2012/05/30 05:08:32.9  -0.2                          T                                        4976359
CDF   004.35 324.8 m E Pn      2012/05/30 05:08:36.6   0.0                          T                                        4976355
HAU   004.47 315.3 m E Pn      2012/05/30 05:08:38.2  -0.1                          T                                        4976358
HAU   004.47 315.3 m E Sn      2012/05/30 05:09:29.5   1.6                          T               66.9  .48 Ml 3.7         4976351
VIVF  004.52 271.4 m E Pn      2012/05/30 05:08:38.8  -0.2                          T                                        4976368
VIVF  004.52 271.4 m E Sn      2012/05/30 05:09:29.5   0.4                          T                4.0  .38 Ml 2.8         4976346
LANF  004.62 332.6 m E Pn      2012/05/30 05:08:41.1   0.8                          T                                        4976354
THEF  004.80 315.4 m E Pn      2012/05/30 05:08:43.3   0.6                          T                                        4976357
LASF  005.21 263.2 m E Pn      2012/05/30 05:08:46.3  -1.9                          T                                        4976367
LASF  005.21 263.2 m E Sn      2012/05/30 05:09:45.1  -0.2                          T                4.3  .36 Ml 3.0         4976347
SMF   005.32 291.4 m E Pn      2012/05/30 05:08:50.0   0.2                          T                                        4976365
SFTF  005.28 310.6 m E Pn      2012/05/30 05:08:50.3   1.1                          T                                        4976356
LOR   005.52 297.7 m E Pn      2012/05/30 05:08:52.5   0.1                          T                                        4976353
LOR   005.52 297.7 m E Sn      2012/05/30 05:09:54.3   1.5                          T                7.8  .32 Ml 3.4         4976352
SSF   005.67 294.8 m E Pn      2012/05/30 05:08:53.8  -0.7                          T                                        4976361
SSF   005.67 294.8 m E Sn      2012/05/30 05:09:57.3   0.9                          T                9.5  .48 Ml 3.4         4976350
AVF   005.69 291.9 m E Pn      2012/05/30 05:08:54.6  -0.1                          T                                        4976363
BGF   005.96 288.8 m E Pn      2012/05/30 05:08:58.8   0.3                          T                                        4976364
BGF   005.96 288.8 m E Sn      2012/05/30 05:10:04.6   1.3                          T               36.7  .52 Ml 3.9         4976348
TCF   006.34 285.6 m E Pn      2012/05/30 05:09:04.3   0.6                          T                                        4976362
TCF   006.34 285.6 m E Sn      2012/05/30 05:10:13.1   0.6                          T               11.8  .60 Ml 3.5         4976349
CAF   006.37 273.2 m E Pn      2012/05/30 05:09:04.6   0.5                          T                                        4976366

.
EVENT     277157
    Date      Time       Latitude Longitude    Depth    Ndef Nsta Gap    Mag1  N    Mag2  N    Mag3  N   Author         ID
       rms   OT_Error      Smajor Sminor Az        Err   mdist  Mdist     Err        Err        Err      Quality

2012/05/30 05:48:27.6     43.2541    5.8259       .0 f    21   10 167  Ml 2.6  7                         bulletin    277257
                                                                                                         _ldg
      0.50   +-  0.14       2.9    1.7   19.01 +-  0.0    0.51   2.64   +-0.5                            m i km

NEAR SOUTH COAST OF FRANCE
Sta     Dist  EvAz     Phase      Date       Time     TRes  Azim  AzRes  Slow  SRes Def   SNR       Amp   Per   Mag1   Mag2       ID
LMR   000.51 080.7 m E Pg      2012/05/30 05:48:37.9   0.4                          T                                        4976390
LMR   000.51 080.7 m E Sg      2012/05/30 05:48:44.5   0.2                          T               42.9  .22                4976389
FRF   000.67 062.6 m E Pg      2012/05/30 05:48:40.6   0.1                          T                                        4976387
FRF   000.67 062.6 m E Sg      2012/05/30 05:48:49.6   0.1                          T               11.1  .26                4976388
SMRF  000.74 345.9 m E Pn      2012/05/30 05:48:44.8   0.8                          T                                        4976386
SMRF  000.74 345.9 m E Sn      2012/05/30 05:48:56.1   0.7                          T               25.4  .28                4976381
SBF   001.32 062.0 m E Pg      2012/05/30 05:48:52.9   0.3                          T                                        4976385
SBF   001.32 062.0 m E Sg      2012/05/30 05:49:10.1   0.3                          T               60.0  .28 Ml 3.3         4976382
MBDF  001.62 024.5 m E Pg      2012/05/30 05:48:57.8  -0.5                          T                                        4976393
MBDF  001.62 024.5 m E Sg      2012/05/30 05:49:19.6   0.2                          T                8.1  .48 Ml 2.3         4976392
ORIF  001.66 001.3 m E Pg      2012/05/30 05:48:58.6  -0.3                          T                                        4976394
ORIF  001.66 001.3 m E Sg      2012/05/30 05:49:20.4  -0.2                          T                4.3  .28 Ml 2.3         4976391
LASF  001.65 300.6 m E Pg      2012/05/30 05:48:58.9   0.3                          T                                        4976378
LASF  001.65 300.6 m E Sg      2012/05/30 05:49:20.1   0.1                          T                3.5  .28 Ml 2.2         4976380
VIVF  001.80 333.0 m E Pg      2012/05/30 05:49:01.5   0.1                          T                                        4976395
VIVF  001.80 333.0 m E Sg      2012/05/30 05:49:24.4  -0.5                          T                1.6  .22 Ml 2.0         4976379
PGF   002.44 105.8 m E Pn      2012/05/30 05:49:07.3   0.2                          T                                        4976384
PGF   002.44 105.8 m E Sn      2012/05/30 05:49:34.7  -1.3                          T                8.2  .22 Ml 3.1         4976383
MTLF  002.64 273.1 m E Pn      2012/05/30 05:49:09.6  -0.1                          T                                        5011315

.
EVENT     277158
    Date      Time       Latitude Longitude    Depth    Ndef Nsta Gap    Mag1  N    Mag2  N    Mag3  N   Author         ID
       rms   OT_Error      Smajor Sminor Az        Err   mdist  Mdist     Err        Err        Err      Quality

2012/05/30 05:57:21.4     44.5049    6.6985      2.0      73   21 039  Ml 2.8 18  Md 2.7  1              bulletin    277258
                                                                                                         _ldg
      0.84   +-  0.07       1.7    1.3   53.68 +-  0.0    0.09   3.77   +-0.3      +-                    m i ke

FRANCE
Sta     Dist  EvAz     Phase      Date       Time     TRes  Azim  AzRes  Slow  SRes Def   SNR       Amp   Per   Mag1   Mag2       ID
MBDF  000.23 013.2 m E Pg      2012/05/30 05:57:25.9  -0.2                          T                                        4976413
MBDF  000.23 013.2 m E Sg      2012/05/30 05:57:29.4   0.1                          T               98.5  .22        Md 2.7  4976416
ORIF  000.72 305.6 m E Pg      2012/05/30 05:57:34.4  -0.6                          T                                        4976412
ORIF  000.72 305.6 m E Sg      2012/05/30 05:57:42.5  -1.9                          T               90.0  .22                4976398
SBF   000.83 140.2 m E Pg      2012/05/30 05:57:37.2   0.0                          T                                        4976405
SBF   000.83 140.2 m E Sg      2012/05/30 05:57:48.2   0.2                          T               72.5  .22                5011336
FRF   000.94 182.3 m E Pg      2012/05/30 05:57:39.3   0.1                          T                                        4976407
FRF   000.94 182.3 m E Sg      2012/05/30 05:57:51.2  -0.2                          T              100.3  .20 Ml 3.5         5011338
SMRF  000.97 237.2 m E Pg      2012/05/30 05:57:39.9   0.4                          T                                        4976408
SMRF  000.97 237.2 m E Sg      2012/05/30 05:57:53.3   1.2                          T               40.0  .24 Ml 3.0         4976401
LPL   001.01 001.3 m E Pg      2012/05/30 05:57:40.2  -0.5                          T                                        4976410
LPL   001.01 001.3 m E Sg      2012/05/30 05:57:53.1  -0.7                          T               30.1  .34 Ml 2.8         4976399
LPG   000.99 002.1 m E Pg      2012/05/30 05:57:40.8   0.3                          T                                        4976409
LPG   000.99 002.1 m E Sg      2012/05/30 05:57:53.1  -0.2                          T               17.2  .29 Ml 2.6         4976400
LMR   001.18 186.7 m E Pg      2012/05/30 05:57:43.6   0.2                          T                                        4976406
LMR   001.18 186.7 m E Sg      2012/05/30 05:57:58.7   0.0                          T               44.6  .20 Ml 3.3         5011337
VIVF  001.49 284.4 m E Pg      2012/05/30 05:57:47.9  -1.3                          T                                        4976411
VIVF  001.49 284.4 m E Sg      2012/05/30 05:58:06.7  -1.7                          T               26.4  .26 Ml 3.0         4976397
LASF  002.09 259.1 m E Pn      2012/05/30 05:57:56.0   0.3                          T                                        4976403
LASF  002.09 259.1 m E Pg      2012/05/30 05:58:00.6   0.4                          T                                        4976414
LASF  002.09 259.1 m E Sn      2012/05/30 05:58:20.3  -0.4                          T                7.1  .24 Ml 2.7         4976396
CABF  002.15 348.7 m E Pg      2012/05/30 05:58:01.5   0.0                          T                                        5011330
CABF  002.15 348.7 m E Sg      2012/05/30 05:58:29.7   0.5                          T                5.6  .30 Ml 2.5         5011321
PGF   002.57 138.7 m E Pn      2012/05/30 05:58:02.6   0.2                          T                                        4976404
PGF   002.57 138.7 m E Sn      2012/05/30 05:58:32.8   0.4                          T                6.2  .26 Ml 2.9         4976415
CAF   003.33 278.9 m E Pn      2012/05/30 05:58:13.0   0.4                          T                                        5011333
CAF   003.33 278.9 m E Sn      2012/05/30 05:58:50.5   0.0                          T                4.2  .36 Ml 2.6         5011319
AVF   003.28 315.4 m E P       2012/05/30 05:58:13.8  -1.1                          T                                        5011329
AVF   003.28 315.4 m E Sg      2012/05/30 05:59:04.3   0.2                          T                5.1  .38 Ml 2.6         5011322
LOR   003.40 325.3 m E Pn      2012/05/30 05:58:14.0   0.4                          T                                        5011327
LOR   003.40 325.3 m E Sg      2012/05/30 05:59:08.3   0.1                          T                5.0  .38 Ml 2.6         5011326
BGF   003.40 308.5 m E Pn      2012/05/30 05:58:14.5   1.0                          T                                        5011331
BGF   003.40 308.5 m E Sg      2012/05/30 05:59:07.6  -0.4                          T                9.4  .36 Ml 2.9         5011320
MTLF  003.44 251.8 m E P       2012/05/30 05:58:14.6  -2.6                          T                                        4976402
MTLF  003.44 251.8 m E Sn      2012/05/30 05:58:52.7  -0.3                          T                                        5011335
MTLF  003.44 251.8 m E Sg      2012/05/30 05:59:09.4   0.1                          T                1.8  .34 Ml 2.3         5011334
HAU   003.51 356.2 m E Pn      2012/05/30 05:58:15.3   0.2                          T                                        5011328
HAU   003.51 356.2 m E Sn      2012/05/30 05:58:55.1   0.4                          T                3.4  .27 Ml 2.4         5011324
RJF   003.77 284.1 m E Pn      2012/05/30 05:58:18.9   0.3                          T                                        5011332
SMF   002.93 317.9 m E Sg      2012/05/30 05:58:53.7   0.2                          T                6.4  .28 Ml 2.8         5011323
TCF   003.63 301.0 m E Sg      2012/05/30 05:59:15.4   0.2                          T                2.7  .39 Ml 2.4         5011325

.
