EVENT     271126
    Date      Time       Latitude Longitude    Depth    Ndef Nsta Gap    Mag1  N    Mag2  N    Mag3  N   Author         ID
       rms   OT_Error      Smajor Sminor Az        Err   mdist  Mdist     Err        Err        Err      Quality

2012/03/02 07:15:50.8     44.4894    6.7054     10.0     170   41 018  Ml 4.1 26  Md 3.7  3              js067245    271147

      1.32   +-  0.09       2.2    1.9   51.27 +-  0.0    0.08  10.65   +-0.3      +-0.1                 m i ke

FRANCE
Sta     Dist  EvAz     Phase      Date       Time     TRes  Azim  AzRes  Slow  SRes Def   SNR       Amp   Per   Mag1   Mag2       ID
MBDF  000.24 011.2 m E Pg      2012/03/02 07:15:55.9  -0.2                          T                                        4858841
MBDF  000.24 011.2 m E Sg      2012/03/02 07:15:59.5  -0.1                          T   001.0     9867.9  .38        Md 3.7  4858821
ORIF  000.73 306.4 m E Pg      2012/03/02 07:16:04.4  -0.4                          T   001.0                                4858826
ORIF  000.73 306.4 m E Sg      2012/03/02 07:16:13.9  -0.5                          T             3321.8  .44                4864885
SBF   000.82 139.8 m E Pg      2012/03/02 07:16:06.6   0.2                          T   001.0                                4858809
SBF   000.82 139.8 m E Sg      2012/03/02 07:16:17.2   0.1                          T   001.0     4088.6  .38                4858810
FRF   000.93 182.6 m E Pg      2012/03/02 07:16:08.6   0.3                          T   001.0                                4858789
FRF   000.93 182.6 m E Sg      2012/03/02 07:16:21.1   0.6                          T   001.0     2758.7  .26 Ml 4.8         4858790
SMRF  000.96 238.1 m E Pg      2012/03/02 07:16:09.7   0.7                          T   001.0                                4858834
SMRF  000.96 238.1 m E Sg      2012/03/02 07:16:23.2   1.7                          T   001.0     1613.2  .30 Ml 4.5         4858835
LPG   001.01 001.8 m E Pg      2012/03/02 07:16:10.0  -0.2                          T   001.0                                4858803
LPG   001.01 001.8 m E Sg      2012/03/02 07:16:24.1   0.8                          T   001.0     1292.8  .54 Ml 4.2         4858804
LPL   001.03 001.1 m E Pg      2012/03/02 07:16:10.3  -0.1                          T   001.0                                4858805
LPL   001.03 001.1 m E Sg      2012/03/02 07:16:25.2   1.4                          T             1221.0  .48 Ml 4.2         4864907
LMR   001.16 187.1 m E Pn      2012/03/02 07:16:12.9   1.3                          T   001.0                                4858799
LMR   001.16 187.1 m E Pg      2012/03/02 07:16:13.8   1.1                          T                                        4858840
LMR   001.16 187.1 m E Sg      2012/03/02 07:16:28.7   1.0                          T   001.0     1695.6  .22 Ml 4.8         4858800
VIVF  001.50 284.9 m E P       2012/03/02 07:16:18.1   0.0                          T   001.0                                4858831
VIVF  001.50 284.9 m E Sg      2012/03/02 07:16:38.2   0.1                          T   001.0      590.1  .40 Ml 4.2 Md 3.7  4858833
LASF  002.09 259.6 m E P       2012/03/02 07:16:25.7  -0.9                          T   001.0                                4858794
LASF  002.09 259.6 m E Sn      2012/03/02 07:16:51.9   3.3                          T   001.0      169.3  .38 Ml 3.9         4858795
CABF  002.17 348.7 m E P       2012/03/02 07:16:28.6   0.8                          T   001.0                                4858817
CABF  002.17 348.7 m E Sn      2012/03/02 07:16:55.1   4.5                          T   001.0      708.4  .64 Ml 4.3         4858818
PGF   002.56 138.5 m E P       2012/03/02 07:16:32.5  -0.9                          T   001.0                                4858807
PGF   002.56 138.5 m E Sn      2012/03/02 07:17:02.9   2.9                          T   001.0      265.5  .26 Ml 4.6         4858808
SMF   002.95 318.0 m E P       2012/03/02 07:16:38.6  -0.3                          T   001.0                                4858811
SMF   002.95 318.0 m E Sg      2012/03/02 07:17:24.7   1.3                          T              276.3  .62 Ml 4.1         4865191
AVF   003.29 315.6 m E P       2012/03/02 07:16:42.9  -0.8                          T   001.0                                4858782
AVF   003.29 315.6 m E Sg      2012/03/02 07:17:35.4   1.3                          T              267.2  .64 Ml 4.1         4865188
CAF   003.34 279.1 m E P       2012/03/02 07:16:43.8  -0.6                          T   001.0                                4858784
HINF  003.33 001.7 m E P       2012/03/02 07:16:43.8  -0.5                          T   001.0                                4858820
MTLF  003.44 252.1 m E P       2012/03/02 07:16:44.8  -1.0                          T   001.0                                4858823
MTLF  003.44 252.1 m E Sn      2012/03/02 07:17:21.0   0.1                          T   001.0       85.4  .48 Ml 3.8         4858824
MTLF  003.44 252.1 m E Sg      2012/03/02 07:17:40.4   1.7                          T   001.0       80.6  .60 Ml 3.7         4858825
BGF   003.41 308.7 m E P       2012/03/02 07:16:45.2  -0.2                          T   001.0                                4858783
BGF   003.41 308.7 m E Sg      2012/03/02 07:17:36.1  -1.8                          T              582.8  .70 Ml 4.4         4865187
SSF   003.41 320.1 m E P       2012/03/02 07:16:45.3  -0.1                          T   001.0                                4858812
SSF   003.41 320.1 m E Sg      2012/03/02 07:17:39.2   1.4                          T              185.3  .60 Ml 4.1         4865190
LOR   003.42 325.4 m E P       2012/03/02 07:16:45.5   0.0 145.6  2.2               T   001.0                                4858801
LOR   003.42 325.4 m E Sn      2012/03/02 07:17:21.4   0.9                          T   001.0      104.4  .44 Ml 3.9         4858802
LOR   003.42 325.4 m E Sg      2012/03/02 07:17:37.7  -0.4                          T              149.4  .48 Ml 4.0 Md 3.8  4865189
HAU   003.53 356.1 m E P       2012/03/02 07:16:46.4  -0.7                          T   001.0                                4858792
HAU   003.53 356.1 m E Sn      2012/03/02 07:17:28.7   5.7                          T   001.0      178.0  .38 Ml 4.0         4858793
TCF   003.64 301.2 m E P       2012/03/02 07:16:48.4  -0.3                          T   001.0                                4858813
TCF   003.64 301.2 m E Sg      2012/03/02 07:17:47.2   2.1                          T   001.0      152.1  .68 Ml 4.0         4858814
THEF  003.77 352.7 m E P       2012/03/02 07:16:50.0  -0.6                          T                                        4864880
RJF   003.78 284.3 m E P       2012/03/02 07:16:50.1  -0.5                          T   001.0                                4858780
CDF   003.94 005.5 m E P       2012/03/02 07:16:52.1  -1.0                          T   001.0                                4858785
HYF   003.97 315.8 m E P       2012/03/02 07:16:53.0  -0.3                          T                                        4864881
HYF   003.97 315.8 m E Sg      2012/03/02 07:17:57.9   2.5                          T                                        4865192
SFTF  003.89 343.3 m E P       2012/03/02 07:16:53.2   1.0 147.5  -14.7             T                                        4864879
PAGF  004.12 350.9 m E P       2012/03/02 07:16:55.2  -0.3 169.2  -1.0              T                                        4864878
LFF   004.28 278.1 m E P       2012/03/02 07:16:57.1  -0.6                          T                                        4864884
LFF   004.28 278.1 m E Sg      2012/03/02 07:18:09.1   4.3                          T   001.0      174.4  .68 Ml 4.0         4858798
MEZF  004.17 344.7 m E P       2012/03/02 07:16:57.6   1.4 165.3  1.7               T   001.0                                4858822
EPF   004.84 254.7 m E Pn      2012/03/02 07:17:03.4   1.8                          T   001.0                                4858786
EPF   004.84 254.7 m E Sg      2012/03/02 07:18:26.2   3.9                          T   001.0       42.6  .44 Ml 3.8         4858787
MFF   005.26 296.1 m E P       2012/03/02 07:17:10.6  -1.0                          T   001.0                                4858806
SJPF  005.90 259.3 m E P       2012/03/02 07:17:18.2  -2.5                          T   001.0                                4858830
GIVF  005.76 347.8 m E P       2012/03/02 07:17:18.3  -0.4                          T   001.0                                4858819
BAIF  005.83 343.9 m E P       2012/03/02 07:17:19.1  -0.5                          T   001.0                                4858815
BAIF  005.83 343.9 m E Sn      2012/03/02 07:18:24.3   6.3                          T   001.0       31.4  .55 Ml 3.8         4858816
LDF   006.25 313.5 m E P       2012/03/02 07:17:24.3  -1.2                          T                                        4864883
LDF   006.25 313.5 m E Sg      2012/03/02 07:19:09.9   3.6                          T               66.7  .68 Ml 4.1         4865193
GRR   006.52 309.4 m E P       2012/03/02 07:17:27.9  -1.5                          T   001.0                                4858791
GRR   006.52 309.4 m E Sg      2012/03/02 07:19:19.7   4.8                          T               65.5  .80 Ml 4.0         4865194
FLN   006.54 313.4 m E P       2012/03/02 07:17:28.1  -1.5 136.9  8.7               T   001.0                                4858788
SGMF  007.43 303.7 m E P       2012/03/02 07:17:39.7  -2.4                          T   001.0                                4858829
SGMF  007.43 303.7 m E Sg      2012/03/02 07:19:44.6   1.4                          T               20.2  .56 Ml 3.9         4864977
QUIF  007.66 300.1 m E P       2012/03/02 07:17:42.7  -2.6                          T   001.0                                4858827
ROSF  007.90 302.7 m E P       2012/03/02 07:17:46.3  -2.3                          T   001.0                                4858828

.
EVENT     271154
    Date      Time       Latitude Longitude    Depth    Ndef Nsta Gap    Mag1  N    Mag2  N    Mag3  N   Author         ID
       rms   OT_Error      Smajor Sminor Az        Err   mdist  Mdist     Err        Err        Err      Quality

2012/03/02 07:19:27.4     44.5106    6.6911      2.0      27    9 047  Ml 2.0  6  Md 1.9  3              js067245    271175

      1.44   +-  0.16       3.7    2.9   70.65 +-  0.0    0.09   1.48   +-0.2      +-0.2                 m i ke

FRANCE
Sta     Dist  EvAz     Phase      Date       Time     TRes  Azim  AzRes  Slow  SRes Def   SNR       Amp   Per   Mag1   Mag2       ID
MBDF  000.22 014.8 m E Pg      2012/03/02 07:19:32.2   0.2                          T                                        4865208
MBDF  000.22 014.8 m E Sg      2012/03/02 07:19:35.7   0.6                          T               27.7  .34        Md 1.7  4865207
ORIF  000.71 305.5 m E Pg      2012/03/02 07:19:40.6  -0.2                          T                                        4865206
ORIF  000.71 305.5 m E Sg      2012/03/02 07:19:49.7  -0.4                          T               11.6  .38        Md 1.8  4865198
SBF   000.84 140.2 m E Pg      2012/03/02 07:19:44.4   1.2                          T                                        4865195
SBF   000.84 140.2 m E Sg      2012/03/02 07:19:55.2   1.0                          T                7.4  .22        Md 2.1  4865196
SMRF  000.96 236.7 m E Pg      2012/03/02 07:19:46.5   1.0                          T                                        4865204
SMRF  000.96 236.7 m E Sn      2012/03/02 07:20:00.4   0.6                          T                6.3  .38 Ml 2.0         4865200
LPG   000.99 002.5 m E Pg      2012/03/02 07:19:46.7   0.4                          T                                        4865202
LPG   000.99 002.5 m E Sg      2012/03/02 07:19:59.2   0.1                          T                3.7  .38 Ml 1.8         4865201
LPL   001.01 001.7 m E Pg      2012/03/02 07:19:47.2   0.7                          T                                        4865205
LPL   001.01 001.7 m E Sg      2012/03/02 07:19:59.9   0.4                          T                3.2  .27 Ml 1.9         4865707
LMR   001.18 186.4 m E Pg      2012/03/02 07:19:49.9   0.4                          T                                        4865203
LMR   001.18 186.4 m E Sg      2012/03/02 07:20:04.7  -0.1                          T                3.6  .18 Ml 2.2         4865197
VIVF  001.48 284.2 m E Pg      2012/03/02 07:19:54.3  -0.7                          T                                        4865711
VIVF  001.48 284.2 m E Sg      2012/03/02 07:20:13.2  -0.9                          T                3.1  .30 Ml 2.0         4865710
FRF   000.95 181.9 m E Sg      2012/03/02 07:20:00.9   3.4                          T                7.4  .24 Ml 2.3         4865199

.
EVENT     271156
    Date      Time       Latitude Longitude    Depth    Ndef Nsta Gap    Mag1  N    Mag2  N    Mag3  N   Author         ID
       rms   OT_Error      Smajor Sminor Az        Err   mdist  Mdist     Err        Err        Err      Quality

2012/03/02 08:00:45.2     44.5021    6.7316      2.0      26    7 066  Ml 1.6  3  Md 1.6  3              js067245    271177

      0.41   +-  0.06       1.3     .9   49.32 +-  0.0    0.06   1.18   +-0.1      +-0.1                 m i ke

FRANCE
Sta     Dist  EvAz     Phase      Date       Time     TRes  Azim  AzRes  Slow  SRes Def   SNR       Amp   Per   Mag1   Mag2       ID
MBDF  000.23 007.2 m E Pg      2012/03/02 08:00:50.8   0.9                          T                                        4865724
MBDF  000.23 007.2 m E Sg      2012/03/02 08:00:53.5   0.5                          T                5.3  .30        Md 1.7  4865725
ORIF  000.74 304.7 m E Pg      2012/03/02 08:00:59.2   0.0                          T                                        4865723
ORIF  000.74 304.7 m E Sg      2012/03/02 08:01:08.8  -0.1                          T                1.0  .21        Md 1.5  4865721
SBF   000.82 141.4 m E Pg      2012/03/02 08:01:00.7   0.1                          T                                        4865720
SBF   000.82 141.4 m E Sn      2012/03/02 08:01:13.8  -0.3                          T                1.7  .22        Md 1.6  4865712
FRF   000.94 183.7 m E Pn      2012/03/02 08:01:04.0   0.2                          T                                        4865714
FRF   000.94 183.7 m E P       2012/03/02 08:01:04.8  -0.2                          T                                        4865715
FRF   000.94 183.7 m E Sg      2012/03/02 08:01:14.9  -0.3                          T                1.5  .26 Ml 1.6         4865716
SMRF  000.98 238.1 m E Sg      2012/03/02 08:01:16.7   0.2                          T                1.5  .32 Ml 1.5         4865722
LPG   001.00 000.8 m E Sn      2012/03/02 08:01:18.9   0.2                          T                                        4865717
LMR   001.18 187.9 m E Sg      2012/03/02 08:01:23.0   0.5                          T                1.8  .35 Ml 1.6         4865713

.
EVENT     271166
    Date      Time       Latitude Longitude    Depth    Ndef Nsta Gap    Mag1  N    Mag2  N    Mag3  N   Author         ID
       rms   OT_Error      Smajor Sminor Az        Err   mdist  Mdist     Err        Err        Err      Quality

2012/03/02 09:27:38.7     44.4926    6.6534      2.0      30    8 071  Ml 1.8  5  Md 1.5  2              js067245    271187

      0.31   +-  0.07       1.4     .9   55.89 +-  0.0    0.11   1.16   +-0.3      +-0.1                 m i ke

FRANCE
Sta     Dist  EvAz     Phase      Date       Time     TRes  Azim  AzRes  Slow  SRes Def   SNR       Amp   Per   Mag1   Mag2       ID
MBDF  000.25 019.7 m E Pg      2012/03/02 09:27:43.9   0.1                          T                                        4865743
MBDF  000.25 019.7 m E Sg      2012/03/02 09:27:47.4   0.3                          T                5.9  .28        Md 1.5  4865742
ORIF  000.70 307.9 m E Pg      2012/03/02 09:27:51.8  -0.1                          T                                        4865741
ORIF  000.70 307.9 m E Sg      2012/03/02 09:28:00.6  -0.5                          T                5.4  .30                4865740
SBF   000.84 137.9 m E Pg      2012/03/02 09:27:54.8   0.2                          T                                        4865745
SBF   000.84 137.9 m E Sg      2012/03/02 09:28:05.4  -0.2                          T                3.0  .26        Md 1.6  4865744
FRF   000.93 180.3 m E P       2012/03/02 09:27:58.2   0.0                          T                                        4865738
FRF   000.93 180.3 m E Sg      2012/03/02 09:28:08.4   0.1                          T                3.5  .20 Ml 2.1         4866818
SMRF  000.93 236.7 m E Sn      2012/03/02 09:28:10.1  -0.2                          T                 .8  .21 Ml 1.4         4866817
LPG   001.01 003.9 m E Sg      2012/03/02 09:28:10.8  -0.2                          T                1.1  .19 Ml 1.6         4866816
LPL   001.03 003.1 m E Sg      2012/03/02 09:28:11.5   0.1                          T                4.3  .22 Ml 2.1         4865739
LMR   001.16 185.2 m E Sg      2012/03/02 09:28:15.5   0.1                          T                2.2  .24 Ml 1.9         4865737

.
EVENT     271171
    Date      Time       Latitude Longitude    Depth    Ndef Nsta Gap    Mag1  N    Mag2  N    Mag3  N   Author         ID
       rms   OT_Error      Smajor Sminor Az        Err   mdist  Mdist     Err        Err        Err      Quality

2012/03/02 10:54:42.8     44.2505    8.4227       .0 f    22    5 207  Ml 2.0  4  Md 2.0  1              js067245    271192

      0.24   +-  0.11       2.3    1.1  118.26 +-  0.0    0.09   2.07   +-0.3      +-                    m i km

NORTHERN ITALY
Sta     Dist  EvAz     Phase      Date       Time     TRes  Azim  AzRes  Slow  SRes Def   SNR       Amp   Per   Mag1   Mag2       ID
SBF   000.81 241.8 m E Pn      2012/03/02 10:55:00.0  -0.1                          T                                        4866822
SBF   000.81 241.8 m E Sn      2012/03/02 10:55:11.3  -1.1                          T               15.7  .30        Md 2.0  4866823
MBDF  001.27 292.5 m E Pn      2012/03/02 10:55:06.6   0.0                          T                                        4866826
MBDF  001.27 292.5 m E Sg      2012/03/02 10:55:23.6  -0.2                          T                1.8  .35 Ml 1.6         4866827
FRF   001.46 242.4 m E Pn      2012/03/02 10:55:08.7  -0.1                          T                                        4866825
FRF   001.46 242.4 m E Pg      2012/03/02 10:55:10.3   0.0                          T                                        4866824
FRF   001.46 242.4 m E Sn      2012/03/02 10:55:27.0  -0.6                          T                                        4866830
FRF   001.46 242.4 m E Sg      2012/03/02 10:55:29.2   0.0                          T                4.6  .32 Ml 2.2         4866829
LMR   001.66 237.2 m E Pg      2012/03/02 10:55:13.9  -0.1                          T                                        4866820
LMR   001.66 237.2 m E Sg      2012/03/02 10:55:35.8   0.2                          T                2.0  .20 Ml 2.1         4866821
SMRF  002.07 263.4 m E Pg      2012/03/02 10:55:21.9   0.4                          T                                        4866819
SMRF  002.07 263.4 m E Sg      2012/03/02 10:55:47.8  -0.6                          T                4.1  .49 Ml 2.1         4866828

.
