EVENT     263551
    Date      Time       Latitude Longitude    Depth    Ndef Nsta Gap    Mag1  N    Mag2  N    Mag3  N   Author         ID
       rms   OT_Error      Smajor Sminor Az        Err   mdist  Mdist     Err        Err        Err      Quality

2011/09/02 16:38:08.7     47.5066    7.6570     10.0      16    5 075  Ml 1.8  4  Md 1.8  1              js067245    263551

      0.39   +-  0.09       1.5    1.2    7.77 +-  0.0    0.17   1.40   +-0.3      +-                    m i ke

SWITZERLAND
Sta     Dist  EvAz     Phase      Date       Time     TRes  Azim  AzRes  Slow  SRes Def   SNR       Amp   Per   Mag1   Mag2       ID
HINF  000.63 300.0 m E Pg      2011/09/02 16:38:20.6  -0.1                          T                                        4755676
HINF  000.63 300.0 m E Sg      2011/09/02 16:38:28.7  -0.4                          T                                        4755677
HINF  000.63 300.0 m E Sn      2011/09/02 16:38:31.0  -0.7                          T                2.0  .26        Md 1.8  4755678
CDF   000.94 344.4 m E Pg      2011/09/02 16:38:26.5  -0.1                          T                                        4755683
CDF   000.94 344.4 m E Sg      2011/09/02 16:38:39.2   0.3                          T                3.6  .31 Ml 2.0         4755684
HAU   001.01 300.0 m E Pg      2011/09/02 16:38:27.7  -0.2                          T                                        4755679
HAU   001.01 300.0 m E Sg      2011/09/02 16:38:41.4   0.3                          T                1.8  .20 Ml 1.6         4755680
THEF  001.33 303.4 m E Pg      2011/09/02 16:38:33.9   0.2                          T                                        4755681
THEF  001.33 303.4 m E Sg      2011/09/02 16:38:51.1   0.1                          T                2.5  .22 Ml 2.0         4755682
CABF  001.40 230.7 m E Sg      2011/09/02 16:38:53.3   0.2                          T                 .8  .24 Ml 1.5         4755675

.
EVENT     263552
    Date      Time       Latitude Longitude    Depth    Ndef Nsta Gap    Mag1  N    Mag2  N    Mag3  N   Author         ID
       rms   OT_Error      Smajor Sminor Az        Err   mdist  Mdist     Err        Err        Err      Quality

2011/09/02 16:45:54.6     47.5091    7.6620     10.0      18    5 076  Ml 1.7  4  Md 1.8  1              js067245    263552

      0.36   +-  0.07       1.2    1.0  159.71 +-  0.0    0.17   1.40   +-0.2      +-                    m i ke

SWITZERLAND
Sta     Dist  EvAz     Phase      Date       Time     TRes  Azim  AzRes  Slow  SRes Def   SNR       Amp   Per   Mag1   Mag2       ID
HINF  000.63 299.7 m E Pg      2011/09/02 16:46:06.4  -0.2                          T                                        4755707
HINF  000.63 299.7 m E Sg      2011/09/02 16:46:14.6  -0.4                          T                                        4755708
HINF  000.63 299.7 m E Sn      2011/09/02 16:46:16.9  -0.8                          T                2.2  .32        Md 1.8  4755709
CDF   000.94 344.1 m E Pg      2011/09/02 16:46:12.3  -0.1                          T                                        4755715
CDF   000.94 344.1 m E Sg      2011/09/02 16:46:25.0   0.3                          T                2.3  .22 Ml 1.9         4755716
HAU   001.02 299.7 m E Pg      2011/09/02 16:46:13.5  -0.2                          T                                        4755711
HAU   001.02 299.7 m E Sg      2011/09/02 16:46:27.2   0.1                          T                2.1  .22 Ml 1.6         4755712
THEF  001.33 303.3 m E Pg      2011/09/02 16:46:19.6   0.0                          T                                        4755713
THEF  001.33 303.3 m E Sg      2011/09/02 16:46:37.0   0.1                          T                1.9  .22 Ml 1.9         4755714
CABF  001.40 230.7 m E Pg      2011/09/02 16:46:20.8  -0.1                          T                                        4755706
CABF  001.40 230.7 m E Sg      2011/09/02 16:46:39.1   0.0                          T                 .6  .20 Ml 1.5         4755710

.
EVENT     263621
    Date      Time       Latitude Longitude    Depth    Ndef Nsta Gap    Mag1  N    Mag2  N    Mag3  N   Author         ID
       rms   OT_Error      Smajor Sminor Az        Err   mdist  Mdist     Err        Err        Err      Quality

2011/09/02 16:58:59.6     47.5102    7.6610     10.0      20    5 076  Ml 1.6  4  Md 1.7  1              js067245    263621

      0.29   +-  0.06       1.2    1.0  146.11 +-  0.0    0.18   1.40   +-0.2      +-                    m i ke

SWITZERLAND
Sta     Dist  EvAz     Phase      Date       Time     TRes  Azim  AzRes  Slow  SRes Def   SNR       Amp   Per   Mag1   Mag2       ID
HINF  000.63 299.6 m E Pg      2011/09/02 16:59:11.5  -0.1                          T                                        4755719
HINF  000.63 299.6 m E Sg      2011/09/02 16:59:19.5  -0.4                          T                                        4755720
HINF  000.63 299.6 m E Sn      2011/09/02 16:59:21.8  -0.7                          T                1.6  .21        Md 1.7  4755721
CDF   000.94 344.1 m E Pg      2011/09/02 16:59:17.3  -0.1                          T                                        4755726
CDF   000.94 344.1 m E Sg      2011/09/02 16:59:29.9   0.3                          T                2.6  .31 Ml 1.8         4755727
HAU   001.02 299.7 m E Pg      2011/09/02 16:59:18.5  -0.2                          T                                        4755722
HAU   001.02 299.7 m E Sg      2011/09/02 16:59:32.1   0.2                          T                1.2  .18 Ml 1.4         4755723
THEF  001.33 303.2 m E Pg      2011/09/02 16:59:24.7   0.2                          T                                        4755724
THEF  001.33 303.2 m E Sg      2011/09/02 16:59:42.0   0.2                          T                2.0  .26 Ml 1.9         4755725
CABF  001.40 230.7 m E Pg      2011/09/02 16:59:25.9   0.0                          T                                        4755717
CABF  001.40 230.7 m E Sg      2011/09/02 16:59:44.0  -0.1                          T                 .7  .26 Ml 1.4         4755718

.
EVENT     263452
    Date      Time       Latitude Longitude    Depth    Ndef Nsta Gap    Mag1  N    Mag2  N    Mag3  N   Author         ID
       rms   OT_Error      Smajor Sminor Az        Err   mdist  Mdist     Err        Err        Err      Quality

2011/09/02 17:39:58.8     47.1492    1.4802      4.0 f    15    8 200  Ml 2.0  9  Md 1.8  1              js067245    263452

      0.82   +-  0.15       3.1    1.8  167.14 +-  0.0    1.00   1.85   +-0.2      +-                    m i ke

FRANCE
Sta     Dist  EvAz     Phase      Date       Time     TRes  Azim  AzRes  Slow  SRes Def   SNR       Amp   Per   Mag1   Mag2       ID
TCF   001.00 149.5 m E Pg      2011/09/02 17:40:18.1   0.5                          T                                        4755750
TCF   001.00 149.5 m E Sg      2011/09/02 17:40:30.8   0.3                          T                1.7  .20 Ml 1.8 Md 1.8  4755739
BGF   001.11 121.8 m E Pg      2011/09/02 17:40:19.4  -0.2                          T                                        4755748
BGF   001.11 121.8 m E Sg      2011/09/02 17:40:34.2   0.3                          T                7.6  .30 Ml 2.3         4755742
MFF   001.24 244.5 m E Pg      2011/09/02 17:40:21.8  -0.2                          T                                        4755746
MFF   001.24 244.5 m E Sg      2011/09/02 17:40:38.4   0.3                          T                1.7  .16 Ml 2.1         4755745
AVF   001.33 104.9 m E Pg      2011/09/02 17:40:23.8   0.1                          T                                        4755749
AVF   001.33 104.9 m E Sg      2011/09/02 17:40:40.3  -0.6                          T                1.9  .25 Ml 1.8         4755740
SSF   001.39 092.9 m E Pg      2011/09/02 17:40:24.8   0.2                          T                                        4755751
SSF   001.39 092.9 m E Sg      2011/09/02 17:40:42.5  -0.1                          T                1.7  .20 Ml 2.0         4755738
LOR   001.63 084.9 m E Pn      2011/09/02 17:40:26.5   0.0                          T                                        4755752
LOR   001.63 084.9 m E Pg      2011/09/02 17:40:29.0  -0.2 268.8  2.1               T                                        4755736
LOR   001.63 084.9 m E Sg      2011/09/02 17:40:50.3   0.2 254.8  -11.9             T                2.1  .24 Ml 2.0         4755737
SMF   001.70 106.4 m E Sg      2011/09/02 17:40:52.1  -0.2                          T                1.4  .26 Ml 1.9         4755741
RJF   001.85 179.2 m E Sg      2011/09/02 17:40:56.3  -0.6                          T                1.7  .20 Ml 1.8         4755744

.
EVENT     263453
    Date      Time       Latitude Longitude    Depth    Ndef Nsta Gap    Mag1  N    Mag2  N    Mag3  N   Author         ID
       rms   OT_Error      Smajor Sminor Az        Err   mdist  Mdist     Err        Err        Err      Quality

2011/09/02 21:00:24.3     50.2493   12.4370     10.0 f    33    8 100  Ml 3.0  8                         js067245    263453

      0.23   +-  0.05       1.0     .7  132.87 +-  0.0    0.02   6.76   +-0.2                            m i ke

GERMANY
Sta     Dist  EvAz     Phase      Date       Time     TRes  Azim  AzRes  Slow  SRes Def   SNR       Amp   Per   Mag1   Mag2       ID
CDF   003.84 243.4 m E Pn      2011/09/02 21:01:21.6  -0.1                          T                                        4755961
CDF   003.84 243.4 m E Pg      2011/09/02 21:01:35.6   0.0                          T                                        4755960
CDF   003.84 243.4 m E Sg      2011/09/02 21:02:24.7  -0.2                          T               16.3  .58 Ml 3.2         4755963
HINF  004.41 238.6 m E Pn      2011/09/02 21:01:29.2  -0.1                          T                                        4755950
HINF  004.41 238.6 m E Pg      2011/09/02 21:01:45.3  -0.6                          T                                        4755949
HINF  004.41 238.6 m E Sg      2011/09/02 21:02:42.8   0.4                          T               14.4  .58 Ml 3.1         4755951
HAU   004.59 243.0 m E Pn      2011/09/02 21:01:31.5  -0.1                          T                                        4755953
HAU   004.59 243.0 m E Pg      2011/09/02 21:01:49.3   0.2                          T                                        4755952
HAU   004.59 243.0 m E Sg      2011/09/02 21:02:47.6  -0.4                          T               15.4  .50 Ml 3.0         4755954
PAGF  004.70 251.4 m E Pn      2011/09/02 21:01:33.0  -0.2                          T                                        4755957
PAGF  004.70 251.4 m E Pg      2011/09/02 21:01:51.4   0.2                          T                                        4755956
PAGF  004.70 251.4 m E Sg      2011/09/02 21:02:51.3  -0.2                          T                3.0  .60 Ml 2.5         4755958
SMF   006.76 241.0 m E Pg      2011/09/02 21:02:28.9  -0.2                          T                                        4755947
SMF   006.76 241.0 m E Sg      2011/09/02 21:03:56.2   0.4                          T                4.0  .50 Ml 3.1         4755948
GIVF  004.90 271.2 m E Sg      2011/09/02 21:02:57.6  -0.1                          T                5.0  .33 Ml 3.0         4755962
MEZF  005.13 252.9 m E Sg      2011/09/02 21:03:04.8  -0.1                          T                4.6  .42 Ml 2.9         4755955
SSF   006.72 245.1 m E Sg      2011/09/02 21:03:55.0   0.4                          T                3.2  .42 Ml 3.2         4755959

.
EVENT     263454
    Date      Time       Latitude Longitude    Depth    Ndef Nsta Gap    Mag1  N    Mag2  N    Mag3  N   Author         ID
       rms   OT_Error      Smajor Sminor Az        Err   mdist  Mdist     Err        Err        Err      Quality

2011/09/02 21:16:26.0     50.2440   12.4340     10.0      64   19 084  Ml 3.4 19                         js067245    263454

      0.40   +-  0.06       1.4     .8  129.55 +-  0.0    0.01   7.89   +-0.2                            m i ke

GERMANY
Sta     Dist  EvAz     Phase      Date       Time     TRes  Azim  AzRes  Slow  SRes Def   SNR       Amp   Per   Mag1   Mag2       ID
RUP   003.51 263.2 m E Pn      2011/09/02 21:17:18.1  -0.7                          T                                        4756007
RUP   003.51 263.2 m E Pg      2011/09/02 21:17:31.0  -0.1                          T                                        4756006
RUP   003.51 263.2 m E Sg      2011/09/02 21:18:16.0  -0.1                          T                                        4755969
CDF   003.84 243.5 m E Pn      2011/09/02 21:17:23.9   0.6                          T                                        4756005
CDF   003.84 243.5 m E Pg      2011/09/02 21:17:37.4   0.3                          T                                        4756004
CDF   003.84 243.5 m E Sg      2011/09/02 21:18:26.6   0.1                          T               40.1  .60 Ml 3.5         4755970
HINF  004.40 238.6 m E Pn      2011/09/02 21:17:30.8   0.0                          T                                        4755995
HINF  004.40 238.6 m E Pg      2011/09/02 21:17:46.8  -0.7                          T                                        4755994
HINF  004.40 238.6 m E Sg      2011/09/02 21:18:43.1  -0.8                          T               37.2  .56 Ml 3.6         4755975
HAU   004.58 243.1 m E Pn      2011/09/02 21:17:33.4   0.1                          T                                        4755997
HAU   004.58 243.1 m E Pg      2011/09/02 21:17:50.7   0.0                          T                                        4755996
HAU   004.58 243.1 m E Sg      2011/09/02 21:18:49.2  -0.3                          T               36.2  .48 Ml 3.4         4755974
PAGF  004.70 251.5 m E Pn      2011/09/02 21:17:35.5   0.7                          T                                        4756003
PAGF  004.70 251.5 m E Pg      2011/09/02 21:17:53.0   0.2  65.3  -1.1              T                                        4756002
PAGF  004.70 251.5 m E Sg      2011/09/02 21:18:53.1   0.0                          T               13.2  .89 Ml 3.0         4755971
GIVF  004.89 271.3 m E Pn      2011/09/02 21:17:37.8   0.3                          T                                        4756009
GIVF  004.89 271.3 m E Pg      2011/09/02 21:17:56.9   0.4                          T                                        4756008
GIVF  004.89 271.3 m E Sg      2011/09/02 21:18:58.7  -0.5                          T               22.5  .54 Ml 3.5         4755967
MEZF  005.13 253.0 m E Pn      2011/09/02 21:17:40.4  -0.3                          T                                        4756001
MEZF  005.13 253.0 m E Pg      2011/09/02 21:18:00.8   0.0                          T                                        4756000
MEZF  005.13 253.0 m E Sg      2011/09/02 21:19:06.7   0.2                          T               20.6  .72 Ml 3.4         4755972
SFTF  005.26 250.0 m E Pn      2011/09/02 21:17:42.2  -0.3  72.7  8.3               T                                        4755999
SFTF  005.26 250.0 m E Pg      2011/09/02 21:18:03.1  -0.1                          T                                        4755998
SFTF  005.26 250.0 m E Sg      2011/09/02 21:19:11.1   0.4                          T               22.9  .71 Ml 3.4         4755973
CABF  005.57 231.7 m E Pn      2011/09/02 21:17:46.7  -0.1                          T                                        4755993
CABF  005.57 231.7 m E Pg      2011/09/02 21:18:08.8  -0.3                          T                                        4755992
CABF  005.57 231.7 m E Sg      2011/09/02 21:19:20.6   0.1                          T               26.6  .76 Ml 3.5         4755976
LOR   006.40 245.6 m E Pn      2011/09/02 21:17:58.1   0.0  64.2  5.0               T                                        4756011
LOR   006.40 245.6 m E Pg      2011/09/02 21:18:24.2  -0.1  61.4  2.2               T                                        4756010
LOR   006.40 245.6 m E Sg      2011/09/02 21:19:46.6   0.3                          T               14.8  .64 Ml 3.5         4755964
SMF   006.75 241.1 m E Pn      2011/09/02 21:18:01.9  -0.9                          T                                        4755989
SMF   006.75 241.1 m E Pg      2011/09/02 21:18:31.2   0.4                          T                                        4755988
SMF   006.75 241.1 m E Sg      2011/09/02 21:19:57.4   0.1                          T               10.4  .50 Ml 3.5         4755978
SSF   006.72 245.1 m E Pn      2011/09/02 21:18:02.0  -0.3                          T                                        4756013
SSF   006.72 245.1 m E Pg      2011/09/02 21:18:29.9  -0.2                          T                                        4756012
SSF   006.72 245.1 m E Sg      2011/09/02 21:19:56.2   0.1                          T                6.4  .44 Ml 3.5         4755965
AVF   006.95 243.7 m E Pn      2011/09/02 21:18:05.4  -0.1                          T                                        4755991
AVF   006.95 243.7 m E Pg      2011/09/02 21:18:34.8   0.5                          T                                        4755990
AVF   006.95 243.7 m E Sg      2011/09/02 21:20:02.8  -0.6                          T                7.6  .60 Ml 3.3         4755977
LPL   006.09 221.2 m E Pg      2011/09/02 21:18:18.5  -0.3                          T                                        4755985
LPL   006.09 221.2 m E Sg      2011/09/02 21:19:37.1   0.3                          T                1.1  .22 Ml 2.8         4755982
LPG   006.10 221.0 m E Pg      2011/09/02 21:18:18.5  -0.4                          T                                        4755984
LPG   006.10 221.0 m E Sg      2011/09/02 21:19:37.8   0.8                          T               12.6  .86 Ml 3.3         4755983
ORIF  006.93 222.2 m E Pg      2011/09/02 21:18:34.1   0.0                          T                                        4755986
ORIF  006.93 222.2 m E Sg      2011/09/02 21:20:02.8   0.0                          T                7.8  .77 Ml 3.2         4755981
BAIF  005.29 271.2 m E Sg      2011/09/02 21:19:11.1  -0.5                          T               24.2  .88 Ml 3.4         4755968
VIVF  007.52 227.2 m E Sg      2011/09/02 21:20:21.9   0.6                          T                4.8  .60 Ml 3.2         4755980
TCF   007.89 243.8 m E Sg      2011/09/02 21:20:33.2   0.6                          T                7.1  .66 Ml 3.5         4755966

.
