EVENT     288414
    Date      Time       Latitude Longitude    Depth    Ndef Nsta Gap    Mag1  N    Mag2  N    Mag3  N   Author         ID
       rms   OT_Error      Smajor Sminor Az        Err   mdist  Mdist     Err        Err        Err      Quality

2012/12/13 18:13:39.5     42.5640   13.0114     10.0 f    88   15 046  Ml 3.2  7                         bulletin    288514
                                                                                                         _ldg
      1.02   +-  0.12       4.1    2.8   60.64 +-  0.0    0.31   8.27   +-0.2                            m i ke

CENTRAL ITALY
Sta     Dist  EvAz     Phase      Date       Time     TRes  Azim  AzRes  Slow  SRes Def   SNR       Amp   Per   Mag1   Mag2       ID
PGF   002.96 271.0 m E P       2012/12/13 18:14:28.2   0.4                          T                                        5138631
PGF   002.96 271.0 m E Sn      2012/12/13 18:14:58.8   0.4                          T                                        5138654
FRF   004.77 284.2 m E P       2012/12/13 18:14:52.6  -0.7                          T                                        5138647
FRF   004.77 284.2 m E Sn      2012/12/13 18:15:42.6   1.2                          T                                        5138670
LMR   004.83 281.4 m E P       2012/12/13 18:14:54.1  -0.1                          T                                        5138630
LMR   004.83 281.4 m E Sn      2012/12/13 18:15:43.2   0.4                          T                                        5138653
MBDF  005.02 297.6 m E P       2012/12/13 18:14:58.0   1.0                          T                                        5138643
MBDF  005.02 297.6 m E Sn      2012/12/13 18:15:48.2   0.7                          T                                        5138671
LPG   005.38 305.1 m E P       2012/12/13 18:15:02.7   0.3                          T                                        5138645
LPG   005.38 305.1 m E Sn      2012/12/13 18:15:57.0   0.6                          T                4.8  .56 Ml 2.9         5138652
LPL   005.40 305.2 m E P       2012/12/13 18:15:03.7   1.2                          T                                        5138644
LPL   005.40 305.2 m E Sn      2012/12/13 18:15:57.3   0.5                          T                                        5138651
SMRF  005.61 287.1 m E P       2012/12/13 18:15:05.7   0.4                          T                                        5138646
HINF  006.82 322.5 m E Pn      2012/12/13 18:15:17.6   0.3                          T                                        5138641
HINF  006.82 322.5 m E P       2012/12/13 18:15:22.4   0.1                          T                                        5138638
HINF  006.82 322.5 m E Sn      2012/12/13 18:16:30.7   0.3                          T                2.8  .35 Ml 3.1         5138650
LASF  006.85 285.9 m E P       2012/12/13 18:15:21.3  -1.3                          T                                        5138642
HAU   007.19 321.5 m E Pn      2012/12/13 18:15:22.4   0.2                          T                                        5138640
HAU   007.19 321.5 m E P       2012/12/13 18:15:27.6   0.2                          T                                        5138639
HAU   007.19 321.5 m E Sn      2012/12/13 18:16:39.0  -0.2                          T                3.0  .29 Ml 3.1         5138649
CDF   007.10 327.4 m E Pn      2012/12/13 18:15:24.0   2.8                          T                                        5138637
CDF   007.10 327.4 m E Sn      2012/12/13 18:16:37.4   0.2                          T                 .8  .20 Ml 3.0         5138662
PAGF  007.87 322.0 m E Pn      2012/12/13 18:15:31.8   0.2                          T                                        5138664
PAGF  007.87 322.0 m E P       2012/12/13 18:15:36.9  -0.1                          T                                        5138663
PAGF  007.87 322.0 m E Sn      2012/12/13 18:16:55.8   0.2                          T                2.0  .22 Ml 3.4         5138669
SFTF  007.95 317.9 m E Pn      2012/12/13 18:15:33.0   0.3 144.0  11.8              T                                        5138667
SFTF  007.95 317.9 m E P       2012/12/13 18:15:37.8  -0.3                          T                                        5138666
SFTF  007.95 317.9 m E Sn      2012/12/13 18:16:58.0   0.5                          T                3.3  .35 Ml 3.4         5138656
MEZF  008.15 319.5 m E Pn      2012/12/13 18:15:35.5   0.2                          T                                        5138665
MEZF  008.15 319.5 m E P       2012/12/13 18:15:40.6  -0.2                          T                                        5138668
MEZF  008.15 319.5 m E Sn      2012/12/13 18:17:02.2   0.1                          T                3.1  .28 Ml 3.5         5138655
CAF   008.27 290.3 m E P       2012/12/13 18:15:42.1  -0.4                          T                                        5138636

.
EVENT     288437
    Date      Time       Latitude Longitude    Depth    Ndef Nsta Gap    Mag1  N    Mag2  N    Mag3  N   Author         ID
       rms   OT_Error      Smajor Sminor Az        Err   mdist  Mdist     Err        Err        Err      Quality

2012/12/13 20:35:44.3     45.4573    6.6491      2.0      11    5 157  Ml 1.9  1  Md 1.7  5              bulletin    288537
                                                                                                         _ldg
      0.25   +-  0.09       3.3    1.3  136.11 +-  0.0    0.08   1.52   +-         +-0.1                 m i ke

FRANCE
Sta     Dist  EvAz     Phase      Date       Time     TRes  Azim  AzRes  Slow  SRes Def   SNR       Amp   Per   Mag1   Mag2       ID
LPL   000.08 044.7 m E Pg      2012/12/13 20:35:46.4  -0.1                          T                                        5138679
LPL   000.08 044.7 m E Sg      2012/12/13 20:35:47.8  -0.1                          T                9.0  .14        Md 1.7  5138681
LPG   000.08 060.7 m E Pg      2012/12/13 20:35:46.6   0.0                          T                                        5138680
LPG   000.08 060.7 m E Sg      2012/12/13 20:35:47.9   0.0                          T               33.9  .18        Md 1.8  5138682
MBDF  000.74 173.2 m E Pg      2012/12/13 20:35:58.3  -0.1                          T                                        5138678
MBDF  000.74 173.2 m E Sg      2012/12/13 20:36:07.9  -0.1                          T                1.2  .20        Md 1.6  5138677
ORIF  000.77 225.5 m E Pg      2012/12/13 20:35:59.1   0.2                          T                                        5138693
ORIF  000.77 225.5 m E Sg      2012/12/13 20:36:08.1  -0.8                          T                2.0  .25        Md 1.6  5138692
VIVF  001.52 247.4 m E Sg      2012/12/13 20:36:32.1  -0.3                          T                2.9  .38 Ml 1.9         5161332

.
EVENT     288411
    Date      Time       Latitude Longitude    Depth    Ndef Nsta Gap    Mag1  N    Mag2  N    Mag3  N   Author         ID
       rms   OT_Error      Smajor Sminor Az        Err   mdist  Mdist     Err        Err        Err      Quality

2012/12/13 21:39:27.0     41.0924   19.7786     10.0 f    81   16 025  Ml 4.3  6                         bulletin    288511
                                                                                                         _ldg
      0.69   +-  0.08       2.9    1.7   40.62 +-  0.0    0.26  13.38   +-0.2                            m i ke

ALBANIA
Sta     Dist  EvAz     Phase      Date       Time     TRes  Azim  AzRes  Slow  SRes Def   SNR       Amp   Per   Mag1   Mag2       ID
PGF   008.18 283.8 m E Pn      2012/12/13 21:41:22.9  -0.6                          T                                        5138366
MBDF  010.21 295.2 m E Pn      2012/12/13 21:41:52.1   1.0                          T                                        5138341
MBDF  010.21 295.2 m E Sn      2012/12/13 21:43:39.6   0.5                          T                                        5138369
FRF   010.03 288.6 m E P       2012/12/13 21:41:53.3  -1.1                          T                                        5138340
LPG   010.47 299.2 m E Pn      2012/12/13 21:41:54.6  -0.2                          T                                        5138343
LPG   010.47 299.2 m E Sn      2012/12/13 21:43:46.1   0.8                          T               33.3  .72 Ml 4.5         5138367
LPL   010.48 299.3 m E Pn      2012/12/13 21:41:55.8   0.9                          T                                        5138342
LPL   010.48 299.3 m E Sn      2012/12/13 21:43:45.1  -0.6                          T               26.0  .72 Ml 4.4         5138368
ORIF  010.87 295.2 m E Pn      2012/12/13 21:42:02.4   2.3                          T                                        5138365
CABF  011.32 303.7 m E Pn      2012/12/13 21:42:07.1   1.0                          T                                        5138360
HINF  011.42 310.4 m E Pn      2012/12/13 21:42:08.5   1.0                          T                                        5138359
HINF  011.42 310.4 m E Sn      2012/12/13 21:44:08.7   1.0                          T               22.7 1.04 Ml 4.3         5138372
VIVF  011.69 293.8 m E Pn      2012/12/13 21:42:10.7  -0.4                          T                                        5138364
CDF   011.50 313.7 m E Pn      2012/12/13 21:42:10.8   2.1                          T                                        5138357
HAU   011.80 310.3 m E Pn      2012/12/13 21:42:13.3   0.6                          T                                        5138358
HAU   011.80 310.3 m E Sn      2012/12/13 21:44:18.6   1.5                          T               10.7  .56 Ml 4.0         5138373
SMF   012.76 301.1 m E Pn      2012/12/13 21:42:25.2  -0.5                          T                                        5138362
SMF   012.76 301.1 m E Sn      2012/12/13 21:44:40.5   0.6                          T               17.0  .78 Ml 4.4         5138371
LOR   012.98 303.7 m E Pn      2012/12/13 21:42:28.4  -0.3                          T                                        5138356
LOR   012.98 303.7 m E Sn      2012/12/13 21:44:45.3   0.2                          T                8.4  .48 Ml 4.3         5138374
AVF   013.13 301.2 m E Pn      2012/12/13 21:42:29.8  -0.8                          T                                        5138361
SSF   013.12 302.5 m E Pn      2012/12/13 21:42:30.3  -0.4                          T                                        5138355
SSF   013.12 302.5 m E Sn      2012/12/13 21:44:47.9  -0.7                          T                                        5138375
BGF   013.38 299.7 m E Pn      2012/12/13 21:42:34.4   0.2                          T                                        5138363
BGF   013.38 299.7 m E Sn      2012/12/13 21:44:54.9   0.2                          T                                        5138370

.
