EVENT     264832
    Date      Time       Latitude Longitude    Depth    Ndef Nsta Gap    Mag1  N    Mag2  N    Mag3  N   Author         ID
       rms   OT_Error      Smajor Sminor Az        Err   mdist  Mdist     Err        Err        Err      Quality

2011/10/06 06:10:32.4     43.1009    -.6928     17.7       6    4 140  Ml 1.4  1  Md 1.3  2              js067245    264852

      0.22   +-  0.17       2.9    1.3   16.35 +-  1.3    0.02   2.14   +-         +-0.1                 m i ke

PYRENEES
Sta     Dist  EvAz     Phase      Date       Time     TRes  Azim  AzRes  Slow  SRes Def   SNR       Amp   Per   Mag1   Mag2       ID
ETSF  000.22 154.1 m E Pg      2011/10/06 06:10:37.9   0.0                          T                                        4768242
ETSF  000.22 154.1 m E Sg      2011/10/06 06:10:41.1  -0.4                          T                9.3  .18        Md 1.4  4768241
SJPF  000.39 272.0 m E Pg      2011/10/06 06:10:40.4  -0.1                          T                                        4768240
SJPF  000.39 272.0 m E Sg      2011/10/06 06:10:45.6  -0.4                          T                2.2  .26        Md 1.3  4768239
EPF   000.76 095.0 m E Sg      2011/10/06 06:10:57.4   0.1                          T                1.2  .20                4768238
MTLF  002.14 082.6 m E Sg      2011/10/06 06:11:39.9   0.0                          T                 .3  .21 Ml 1.4         4771497

.
EVENT     264820
    Date      Time       Latitude Longitude    Depth    Ndef Nsta Gap    Mag1  N    Mag2  N    Mag3  N   Author         ID
       rms   OT_Error      Smajor Sminor Az        Err   mdist  Mdist     Err        Err        Err      Quality

2011/10/06 06:13:12.8     49.1879    8.0779      2.0      15    6 056  Ml 2.1  3  Md 1.9  1              js067245    264840

      0.51   +-  0.09       1.9    1.6  120.87 +-  0.0    0.03   2.24   +-0.2      +-                    m i ke

GERMANY
Sta     Dist  EvAz     Phase      Date       Time     TRes  Azim  AzRes  Slow  SRes Def   SNR       Amp   Per   Mag1   Mag2       ID
LANF  000.27 220.9 m E Pg      2011/10/06 06:13:18.4   0.2                          T                                        4766874
LANF  000.27 220.9 m E Sg      2011/10/06 06:13:22.2   0.3                          T               12.5  .23        Md 1.9  4766873
RUP   000.84 308.1 m E Pg      2011/10/06 06:13:28.7   0.0                          T                                        4766871
RUP   000.84 308.1 m E Sg      2011/10/06 06:13:39.6   0.0                          T                                        4766872
THEF  001.68 236.0 m E Pn      2011/10/06 06:13:40.8  -0.7                          T                                        4768250
THEF  001.68 236.0 m E P       2011/10/06 06:13:42.9  -0.6                          T                                        4768249
THEF  001.68 236.0 m E Sg      2011/10/06 06:14:06.1   0.3                          T                4.3  .26 Ml 2.3         4768252
HAU   001.65 224.8 m E P       2011/10/06 06:13:42.3  -0.8                          T                                        4768248
HAU   001.65 224.8 m E Sg      2011/10/06 06:14:05.5   0.7                          T                2.4  .19 Ml 2.0         4768253
SFTF  002.24 245.1 m E Pn      2011/10/06 06:13:48.4  -0.7                          T                                        4768251
HINF  001.60 211.2 m E Sg      2011/10/06 06:14:03.5   0.3                          T                2.3  .24 Ml 2.1         4768254

.
EVENT     264780
    Date      Time       Latitude Longitude    Depth    Ndef Nsta Gap    Mag1  N    Mag2  N    Mag3  N   Author         ID
       rms   OT_Error      Smajor Sminor Az        Err   mdist  Mdist     Err        Err        Err      Quality

2011/10/06 09:54:57.6     47.6343    6.2428       .0 f    15    8 120  Ml 2.0  5  Md 2.0  1              js067245    264800

      0.60   +-  0.10       2.0    1.5  125.06 +-  0.0    0.38   2.14   +-0.3      +-                    m i km

FRANCE
Sta     Dist  EvAz     Phase      Date       Time     TRes  Azim  AzRes  Slow  SRes Def   SNR       Amp   Per   Mag1   Mag2       ID
HAU   000.38 010.8 m E Pg      2011/10/06 09:55:04.6  -0.6                          T                                        4771517
HAU   000.38 010.8 m E Sg      2011/10/06 09:55:10.7   0.3                          T               59.2  .84        Md 2.0  4771518
HINF  000.45 065.9 m E Pg      2011/10/06 09:55:06.7   0.2                          T                                        4771513
HINF  000.45 065.9 m E Sg      2011/10/06 09:55:12.7   0.0                          T               33.1  .84                4771516
SFTF  000.99 305.6 m E Pg      2011/10/06 09:55:16.4   0.0 130.0  5.3               T                                        4771509
SFTF  000.99 305.6 m E Sn      2011/10/06 09:55:31.6   0.3                          T                4.9  .20 Ml 2.2         4771510
PAGF  000.98 339.6 m E Pg      2011/10/06 09:55:16.4   0.1                          T                                        4771511
PAGF  000.98 339.6 m E Sn      2011/10/06 09:55:31.5   0.3                          T                1.2  .21 Ml 1.6         4771512
CABF  001.03 186.0 m E Pg      2011/10/06 09:55:17.2   0.0                          T                                        4771514
CABF  001.03 186.0 m E Sg      2011/10/06 09:55:31.1   0.3                          T                3.9  .20 Ml 2.1         4771515
THEF  000.62 344.4 m E Sg      2011/10/06 09:55:18.0   0.1                          T               10.9  .20                4771508
LOR   001.66 258.1 m E Pg      2011/10/06 09:55:28.7  -0.1  78.6  2.2               T                                        4771519
LOR   001.66 258.1 m E Sg      2011/10/06 09:55:50.8   0.4  76.8  0.4               T                3.7  .22 Ml 2.3         4771520
AVF   002.14 247.9 m E Pg      2011/10/06 09:55:37.7   0.1                          T                                        4771506
AVF   002.14 247.9 m E Sg      2011/10/06 09:56:05.1  -0.3                          T                 .7  .24 Ml 1.7         4771507

.
EVENT     264781
    Date      Time       Latitude Longitude    Depth    Ndef Nsta Gap    Mag1  N    Mag2  N    Mag3  N   Author         ID
       rms   OT_Error      Smajor Sminor Az        Err   mdist  Mdist     Err        Err        Err      Quality

2011/10/06 11:16:09.5     44.2044    9.5489      2.0      14    6 267  Ml 2.3  6  Md 2.4  2              js067245    264801

      0.27   +-  0.20       4.8    2.8   30.49 +-  0.0    1.56   2.87   +-0.3      +-0.1                 m i ke

NORTHERN ITALY
Sta     Dist  EvAz     Phase      Date       Time     TRes  Azim  AzRes  Slow  SRes Def   SNR       Amp   Per   Mag1   Mag2       ID
SBF   001.56 258.1 m E Pn      2011/10/06 11:16:36.2  -0.5                          T                                        4766923
SBF   001.56 258.1 m E Pg      2011/10/06 11:16:38.0  -0.7                          T                                        4768279
SBF   001.56 258.1 m E Sg      2011/10/06 11:16:59.0   0.1                          T                8.1  .24 Ml 2.6 Md 2.5  4766917
MBDF  002.06 285.7 m E Pn      2011/10/06 11:16:43.6   0.1                          T                                        4766922
MBDF  002.06 285.7 m E Sn      2011/10/06 11:17:07.6  -0.6                          T                4.8  .33 Ml 2.4 Md 2.4  4769585
FRF   002.19 254.0 m E Pn      2011/10/06 11:16:45.2   0.0                          T                                        4766920
FRF   002.19 254.0 m E Sn      2011/10/06 11:17:10.9  -0.4                          T                6.9  .42 Ml 2.5         4766916
LMR   002.37 249.5 m E Pn      2011/10/06 11:16:47.6   0.1                          T                                        4766921
LMR   002.37 249.5 m E Sn      2011/10/06 11:17:15.8   0.3                          T                3.0  .34 Ml 2.3         4766918
SMRF  002.87 266.8 m E Pn      2011/10/06 11:16:54.4   0.0                          T                                        4766919
SMRF  002.87 266.8 m E Sn      2011/10/06 11:17:28.2   0.6                          T                                        4771523
SMRF  002.87 266.8 m E Sg      2011/10/06 11:17:39.4  -0.3                          T                 .6  .22 Ml 1.8         4771522
ORIF  002.72 286.5 m E Sn      2011/10/06 11:17:24.0   0.0                          T                2.1  .36 Ml 2.1         4771521

.
EVENT     264783
    Date      Time       Latitude Longitude    Depth    Ndef Nsta Gap    Mag1  N    Mag2  N    Mag3  N   Author         ID
       rms   OT_Error      Smajor Sminor Az        Err   mdist  Mdist     Err        Err        Err      Quality

2011/10/06 13:07:42.4     42.7432     .6113      5.0 f    31    5 048  Ml 2.4  4  Md 2.0  2              js067245    264803

      0.66   +-  0.08       2.0    1.3   17.66 +-  0.0    0.32   2.64   +-0.1      +-0.0                 m i ke

PYRENEES
Sta     Dist  EvAz     Phase      Date       Time     TRes  Azim  AzRes  Slow  SRes Def   SNR       Amp   Per   Mag1   Mag2       ID
EPF   000.35 325.3 m E Pg      2011/10/06 13:07:49.0  -0.3                          T                                        4766931
EPF   000.35 325.3 m E Sg      2011/10/06 13:07:53.8  -0.2                          T               12.0  .20        Md 2.1  4766927
ETSF  000.88 280.6 m E Pg      2011/10/06 13:07:58.6  -0.4                          T                                        4766930
ETSF  000.88 280.6 m E Sg      2011/10/06 13:08:09.4  -1.0                          T               11.8  .28 Ml 2.4 Md 2.0  4766926
MTLF  001.32 062.5 m E Pg      2011/10/06 13:08:07.1   0.0                          T                                        4766929
MTLF  001.32 062.5 m E Sg      2011/10/06 13:08:24.5   0.3                          T                8.3  .34 Ml 2.3         4766928
SJPF  001.40 286.0 m E Pg      2011/10/06 13:08:08.5   0.0                          T                                        4766924
SJPF  001.40 286.0 m E Sg      2011/10/06 13:08:26.8   0.2                          T                6.1  .34 Ml 2.2         4766925
RJF   002.64 014.0 m E Pn      2011/10/06 13:08:24.4   0.6                          T                                        4768280

.
EVENT     264785
    Date      Time       Latitude Longitude    Depth    Ndef Nsta Gap    Mag1  N    Mag2  N    Mag3  N   Author         ID
       rms   OT_Error      Smajor Sminor Az        Err   mdist  Mdist     Err        Err        Err      Quality

2011/10/06 15:37:45.8     43.4184    -.6024      5.0 f    75   18 069  Ml 3.0 15  Md 2.9  5              js067245    264805

      0.59   +-  0.06       1.4    1.0  114.97 +-  0.0    0.32   5.26   +-0.2      +-0.1                 m i ke

PYRENEES
Sta     Dist  EvAz     Phase      Date       Time     TRes  Azim  AzRes  Slow  SRes Def   SNR       Amp   Per   Mag1   Mag2       ID
ETSF  000.52 176.5 m E Pg      2011/10/06 15:37:55.1  -0.8                          T   001.0                                4766490
ETSF  000.52 176.5 m E Sg      2011/10/06 15:38:01.6  -1.2                          T   001.0       58.6  .24        Md 2.8  4766491
SJPF  000.55 236.4 m E Pg      2011/10/06 15:37:55.7  -0.6                          T   001.0                                4766495
SJPF  000.55 236.4 m E Sg      2011/10/06 15:38:03.8   0.3                          T   001.0       47.8  .28        Md 2.8  4766496
EPF   000.79 119.1 m E Pg      2011/10/06 15:38:00.6  -0.2                          T   001.0                        Md 2.9  4766480
EPF   000.79 119.1 m E Pn      2011/10/06 15:38:02.4   0.3                          T                                        4768306
EPF   000.79 119.1 m E Sg      2011/10/06 15:38:11.3   0.2                          T              129.7  .44                4768292
MTLF  002.06 091.2 m E Pn      2011/10/06 15:38:19.2  -0.1                          T   001.0                                4766492
MTLF  002.06 091.2 m E Pg      2011/10/06 15:38:23.7  -0.3                          T                                        4768294
MTLF  002.06 091.2 m E Sn      2011/10/06 15:38:44.2   0.3                          T                                        4768293
MTLF  002.06 091.2 m E Sg      2011/10/06 15:38:49.8  -0.7                          T   001.0       20.7  .34 Ml 3.0         4766493
LFF   001.80 032.0 m E Pg      2011/10/06 15:38:19.5   0.2                          T   001.0                                4766486
LFF   001.80 032.0 m E Sn      2011/10/06 15:38:38.4   0.7                          T   001.0                                4766487
LFF   001.80 032.0 m E Sg      2011/10/06 15:38:42.7   0.1                          T               40.6  .36 Ml 3.0 Md 2.9  4768320
CAF   002.44 050.9 m E Pn      2011/10/06 15:38:24.3  -0.2                          T                                        4768305
CAF   002.44 050.9 m E Pg      2011/10/06 15:38:30.8  -0.4                          T   001.0                                4766477
CAF   002.44 050.9 m E Sn      2011/10/06 15:38:53.5   0.5                          T   001.0                                4766478
CAF   002.44 050.9 m E Sg      2011/10/06 15:39:01.8  -0.8                          T   001.0       10.3  .20 Ml 3.0         4766479
RJF   002.42 038.1 m E Pg      2011/10/06 15:38:30.4  -0.4                          T   001.0                                4766473
RJF   002.42 038.1 m E Sn      2011/10/06 15:38:51.5  -1.0                          T   001.0                                4766474
RJF   002.42 038.1 m E Sg      2011/10/06 15:39:02.6   0.7                          T   001.0       17.3  .24 Ml 2.8 Md 3.0  4766475
MFF   003.20 005.6 m E Pn      2011/10/06 15:38:34.7  -0.1                          T                                        4768304
MFF   003.20 005.6 m E Pg      2011/10/06 15:38:45.1   0.0                          T                                        4768291
MFF   003.20 005.6 m E Sn      2011/10/06 15:39:10.9  -0.2                          T                                        4768311
MFF   003.20 005.6 m E Sg      2011/10/06 15:39:26.2   0.0                          T   001.0        8.3  .26 Ml 3.1         4766488
LASF  003.30 077.0 m E Pn      2011/10/06 15:38:36.5   0.3                          T   001.0                                4766482
LASF  003.30 077.0 m E Sn      2011/10/06 15:39:13.6   0.1                          T   001.0          8  .36 Ml 2.8         4766483
TCF   003.50 033.9 m E Pn      2011/10/06 15:38:37.8  -1.1                          T                                        4768300
TCF   003.50 033.9 m E Pg      2011/10/06 15:38:51.2   0.5                          T                                        4768317
TCF   003.50 033.9 m E Sn      2011/10/06 15:39:18.0  -0.2                          T                                        4768315
TCF   003.50 033.9 m E Sg      2011/10/06 15:39:35.5  -0.1                          T                6.4  .27 Ml 3.0         4768318
BGF   003.98 036.7 m E Pn      2011/10/06 15:38:44.6  -0.8                          T                                        4768314
BGF   003.98 036.7 m E Sg      2011/10/06 15:39:50.5  -0.1                          T               20.3  .32 Ml 3.4         4768297
VIVF  004.06 067.5 m E Pn      2011/10/06 15:38:46.0   0.4                          T   001.0                                4766497
VIVF  004.06 067.5 m E Sg      2011/10/06 15:39:52.7  -0.4                          T   001.0                                4766498
GRR   004.97 358.0 m E Pn      2011/10/06 15:38:59.2   0.2                          T                                        4768303
GRR   004.97 358.0 m E Pg      2011/10/06 15:39:17.3  -0.5                          T                                        4768312
GRR   004.97 358.0 m E Sn      2011/10/06 15:39:53.3  -0.2                          T                                        4768295
LDF   005.19 003.5 m E Pn      2011/10/06 15:39:01.6  -0.3                          T                                        4768302
LDF   005.19 003.5 m E Sn      2011/10/06 15:39:59.8   1.2                          T   001.0                                4766484
LDF   005.19 003.5 m E Sg      2011/10/06 15:40:29.8   1.6                          T   001.0          4  .44 Ml 2.8         4766485
ROSF  005.26 340.2 m E Pn      2011/10/06 15:39:02.9   0.1                          T                                        4768313
AVF   004.38 038.3 m E Sn      2011/10/06 15:39:39.2  -0.2                          T   001.0          4  .44 Ml 2.7         4766476
AVF   004.38 038.3 m E Sg      2011/10/06 15:40:03.6   0.5                          T                9.0  .48 Ml 3.0         4768319
SSF   004.66 037.1 m E Sn      2011/10/06 15:39:46.2   0.3                          T   001.0        3.4  .44 Ml 2.8         4766489
SSF   004.66 037.1 m E Sg      2011/10/06 15:40:10.8  -0.9                          T                                        4768316
QUIF  004.84 339.1 m E Sn      2011/10/06 15:39:51.7   1.3                          T   001.0        3.9  .24 Ml 3.0         4766494

.
