EVENT     264786
    Date      Time       Latitude Longitude    Depth    Ndef Nsta Gap    Mag1  N    Mag2  N    Mag3  N   Author         ID
       rms   OT_Error      Smajor Sminor Az        Err   mdist  Mdist     Err        Err        Err      Quality

2011/10/06 17:11:48.1     44.4740    9.4064      2.0     107   28 053  Ml 3.3 24  Md 3.1  6              js067245    264806

      0.78   +-  0.10       2.2    2.0  142.46 +-  0.0    0.18   7.39   +-0.2      +-0.1                 m i ke

NORTHERN ITALY
Sta     Dist  EvAz     Phase      Date       Time     TRes  Azim  AzRes  Slow  SRes Def   SNR       Amp   Per   Mag1   Mag2       ID
SBF   001.54 247.4 m E Pn      2011/10/06 17:12:14.1  -0.9                          T   001.0                                4766520
SBF   001.54 247.4 m E Pg      2011/10/06 17:12:16.8  -0.2                          T                                        4768336
SBF   001.54 247.4 m E Sn      2011/10/06 17:12:32.9  -1.6                          T   001.0      138.6  .29 Ml 3.7 Md 3.1  4766521
MBDF  001.90 278.6 m E Pn      2011/10/06 17:12:19.5  -0.4                          T   001.0                                4766529
MBDF  001.90 278.6 m E Pg      2011/10/06 17:12:23.2  -0.4                          T                                        4768334
MBDF  001.90 278.6 m E Sn      2011/10/06 17:12:41.5  -1.6                          T   001.0      172.7  .73 Ml 3.6         4766530
MBDF  001.90 278.6 m E Sg      2011/10/06 17:12:48.7   0.7                          T                                Md 3.1  4768337
PGF   001.95 188.9 m E Pn      2011/10/06 17:12:20.1  -0.5                          T   001.0                                4766518
PGF   001.95 188.9 m E Sn      2011/10/06 17:12:44.2   0.0                          T   001.0       39.0  .26 Ml 3.6         4766519
FRF   002.19 246.3 m E Pn      2011/10/06 17:12:22.9  -0.8                          T   001.0                                4766503
FRF   002.19 246.3 m E Pg      2011/10/06 17:12:29.0   0.2                          T                                        4768335
FRF   002.19 246.3 m E Sn      2011/10/06 17:12:49.1  -0.7                          T   001.0       57.4  .48 Ml 3.4 Md 3.2  4766504
LPG   002.14 299.4 m E Pn      2011/10/06 17:12:23.7   0.2                          T   001.0                        Md 3.1  4766514
LPG   002.14 299.4 m E Pg      2011/10/06 17:12:28.3   0.0                          T                                        4768322
LPG   002.14 299.4 m E Sn      2011/10/06 17:12:48.5  -0.5                          T               44.8  .49 Ml 3.2 Md 3.0  4768324
LPL   002.16 299.7 m E Pn      2011/10/06 17:12:24.1   0.4                          T   001.0                                4766515
LPL   002.16 299.7 m E Sn      2011/10/06 17:12:49.4  -0.1                          T   001.0       43.5  .48 Ml 3.2         4766516
LMR   002.38 242.4 m E Pn      2011/10/06 17:12:25.4  -0.9                          T   001.0                                4766510
LMR   002.38 242.4 m E Sn      2011/10/06 17:12:53.8  -0.7                          T   001.0       27.4  .28 Ml 3.3 Md 3.3  4766511
ORIF  002.55 281.2 m E Pn      2011/10/06 17:12:30.5   1.7                          T   001.0                                4766532
ORIF  002.55 281.2 m E Sn      2011/10/06 17:12:58.6   0.0                          T   001.0       68.9  .54 Ml 3.4         4766533
ORIF  002.55 281.2 m E S       2011/10/06 17:13:03.3  -0.2                          T                                        4768325
ORIF  002.55 281.2 m E Sg      2011/10/06 17:13:07.5  -0.9                          T                                        4768326
SMRF  002.80 261.1 m E Pn      2011/10/06 17:12:32.7   0.7                          T   001.0                                4766536
SMRF  002.80 261.1 m E Pg      2011/10/06 17:12:40.1   0.1                          T                                        4768321
SMRF  002.80 261.1 m E Sg      2011/10/06 17:13:16.9   0.9                          T               40.5  .58 Ml 3.2         4768323
CABF  003.16 313.7 m E Pn      2011/10/06 17:12:37.7   0.6                          T   001.0                                4766526
CABF  003.16 313.7 m E P       2011/10/06 17:12:40.1   0.0                          T                                        4768329
VIVF  003.40 278.1 m E Pn      2011/10/06 17:12:41.0   0.8                          T   001.0                                4766534
VIVF  003.40 278.1 m E P       2011/10/06 17:12:43.3   0.0                          T                                        4768333
VIVF  003.40 278.1 m E Sn      2011/10/06 17:13:19.1   0.4                          T   001.0       15.1  .62 Ml 2.9         4766535
VIVF  003.40 278.1 m E Sg      2011/10/06 17:13:35.6   0.9                          T                                        4768327
HINF  003.79 332.9 m E Pn      2011/10/06 17:12:45.3  -0.2                          T   001.0                                4766528
HINF  003.79 332.9 m E Sn      2011/10/06 17:13:28.2   0.3                          T               18.4  .42 Ml 3.2         4768342
LASF  004.01 266.2 m E Pn      2011/10/06 17:12:48.3  -0.1                          T   001.0                                4766508
LASF  004.01 266.2 m E Sn      2011/10/06 17:13:33.6   0.4                          T   001.0        4.5  .39 Ml 2.7         4766509
HAU   004.12 330.1 m E Pn      2011/10/06 17:12:50.0   0.0                          T   001.0                                4766506
HAU   004.12 330.1 m E P       2011/10/06 17:12:53.9   0.3                          T                                        4768330
HAU   004.12 330.1 m E Sn      2011/10/06 17:13:36.8   0.8                          T   001.0       63.3  .66 Ml 3.4         4766507
CDF   004.21 340.3 m E Pn      2011/10/06 17:12:50.4  -0.9                          T   001.0                                4766501
CDF   004.21 340.3 m E Sn      2011/10/06 17:13:37.6  -0.5                          T   001.0       10.1  .49 Ml 3.1         4766502
THEF  004.44 329.0 m E Pn      2011/10/06 17:12:54.7   0.4                          T                                        4768343
SMF   004.47 301.0 m E Pn      2011/10/06 17:12:55.6   0.8                          T   001.0                                4766522
SMF   004.47 301.0 m E P       2011/10/06 17:12:58.6   0.0                          T                                        4768328
SMF   004.47 301.0 m E Sn      2011/10/06 17:13:44.9   0.5                          T   001.0       22.5  .48 Ml 3.4         4766523
LOR   004.78 307.8 m E Pn      2011/10/06 17:12:59.3   0.3 125.8  2.1               T   001.0                                4766512
LOR   004.78 307.8 m E Sn      2011/10/06 17:13:52.1   0.5                          T   001.0       14.4  .36 Ml 3.4         4766513
SFTF  004.80 322.5 m E Pn      2011/10/06 17:12:59.9   0.6                          T                                        4768344
PAGF  004.81 329.4 m E Pn      2011/10/06 17:13:00.1   0.7 155.8  9.1               T                                        4768345
AVF   004.84 300.7 m E Pn      2011/10/06 17:13:00.6   0.9                          T   001.0                                4766499
BGF   005.06 296.6 m E Pn      2011/10/06 17:13:02.8   0.0                          T   001.0                                4766500
BGF   005.06 296.6 m E Sn      2011/10/06 17:13:58.1  -0.2                          T               17.6  .38 Ml 3.6         4768339
CAF   005.25 277.5 m E Pn      2011/10/06 17:13:06.0   0.5                          T                                        4768332
CAF   005.25 277.5 m E P       2011/10/06 17:13:09.1  -0.6                          T                                        4768331
MTLF  005.32 260.2 m E Pn      2011/10/06 17:13:06.3   0.0                          T   001.0                                4766531
RUP   005.47 343.8 m E Pn      2011/10/06 17:13:08.3  -0.2                          T                                        4768341
TCF   005.38 292.2 m E Pn      2011/10/06 17:13:08.5   1.2                          T   001.0                                4766524
TCF   005.38 292.2 m E Sn      2011/10/06 17:14:07.7   1.5                          T   001.0        5.3  .49 Ml 3.0         4766525
SSF   004.87 304.2 m E Sn      2011/10/06 17:13:55.0   1.1                          T                8.6  .53 Ml 3.1         4768340
ETSF  007.39 261.2 m E Sn      2011/10/06 17:14:53.4  -0.9                          T   001.0        3.2  .60 Ml 3.0         4766527

.
EVENT     264822
    Date      Time       Latitude Longitude    Depth    Ndef Nsta Gap    Mag1  N    Mag2  N    Mag3  N   Author         ID
       rms   OT_Error      Smajor Sminor Az        Err   mdist  Mdist     Err        Err        Err      Quality

2011/10/07 04:21:15.2     44.7738    3.0498      4.0 f    42   13 068  Ml 2.3 15  Md 2.4  4              js067245    264842

      0.51   +-  0.05       1.1     .8  102.19 +-  0.0    0.72   2.89   +-0.2      +-0.1                 m i ke

FRANCE
Sta     Dist  EvAz     Phase      Date       Time     TRes  Azim  AzRes  Slow  SRes Def   SNR       Amp   Per   Mag1   Mag2       ID
CAF   000.72 282.6 m E Pg      2011/10/07 04:21:28.9   0.1                          T   001.0                                4766627
CAF   000.72 282.6 m E Pn      2011/10/07 04:21:30.2  -0.4                          T                                        4768386
CAF   000.72 282.6 m E Sg      2011/10/07 04:21:37.9  -0.3                          T   001.0       11.7  .18        Md 2.3  4766628
LASF  000.91 140.1 m E Pg      2011/10/07 04:21:32.4   0.1                          T   001.0                                4766630
LASF  000.91 140.1 m E Sg      2011/10/07 04:21:44.2   0.1                          T   001.0        6.6  .24 Ml 2.2 Md 2.5  4766631
VIVF  001.16 085.4 m E Pn      2011/10/07 04:21:36.5  -0.1                          T   001.0                                4766646
VIVF  001.16 085.4 m E Pg      2011/10/07 04:21:37.0   0.0                          T   001.0                                4766647
VIVF  001.16 085.4 m E Sg      2011/10/07 04:21:52.2   0.3                          T   001.0       16.4  .34 Ml 2.6 Md 2.3  4766648
RJF   001.21 296.6 m E Pn      2011/10/07 04:21:37.1  -0.2                          T   001.0                                4766621
RJF   001.21 296.6 m E Pg      2011/10/07 04:21:38.4   0.6                          T                                        4768387
RJF   001.21 296.6 m E Sg      2011/10/07 04:21:53.2  -0.3                          T                8.6  .24 Ml 2.1 Md 2.5  4766932
MTLF  001.55 203.0 m E Pn      2011/10/07 04:21:42.2   0.2                          T                                        4768384
MTLF  001.55 203.0 m E Pg      2011/10/07 04:21:44.1  -0.1                          T   001.0                                4766644
MTLF  001.55 203.0 m E Sn      2011/10/07 04:22:01.5   0.2                          T   001.0        7.3  .18 Ml 2.7         4766645
MTLF  001.55 203.0 m E Sg      2011/10/07 04:22:03.9  -0.3                          T                                        4768383
LFF   001.65 276.6 m E Pn      2011/10/07 04:21:43.2   0.0                          T                                        4768385
LFF   001.65 276.6 m E Sn      2011/10/07 04:22:03.8   0.1                          T   001.0                                4766632
LFF   001.65 276.6 m E Sg      2011/10/07 04:22:07.0  -0.2                          T   001.0        6.5  .28 Ml 2.3         4766633
TCF   001.63 339.0 m E Pn      2011/10/07 04:21:43.5   0.6                          T                                        4768389
TCF   001.63 339.0 m E Pg      2011/10/07 04:21:45.8   0.3                          T   001.0                                4766641
TCF   001.63 339.0 m E Sn      2011/10/07 04:22:03.4   0.3                          T   001.0        2.8  .24 Ml 2.2         4766642
TCF   001.63 339.0 m E Sg      2011/10/07 04:22:05.9  -0.7                          T                2.7  .22 Ml 2.2         4768388
BGF   001.79 355.5 m E Pg      2011/10/07 04:21:48.7   0.2                          T   001.0                                4766624
BGF   001.79 355.5 m E Sn      2011/10/07 04:22:07.4   0.4                          T   001.0                                4766625
BGF   001.79 355.5 m E Sg      2011/10/07 04:22:11.4  -0.2                          T   001.0        5.4  .26 Ml 2.5         4766626
SMF   001.95 016.2 m E Pg      2011/10/07 04:21:51.4  -0.2                          T   001.0                                4766637
SMF   001.95 016.2 m E Sg      2011/10/07 04:22:16.4  -0.3                          T   001.0        2.8  .24 Ml 2.3         4766638
AVF   002.03 005.9 m E Pg      2011/10/07 04:21:52.6  -0.3                          T   001.0                                4766622
AVF   002.03 005.9 m E Sg      2011/10/07 04:22:18.6  -0.4                          T   001.0        1.4  .20 Ml 2.0         4766623
SSF   002.31 007.8 m E Pg      2011/10/07 04:21:58.0  -0.1                          T   001.0                                4766639
SSF   002.31 007.8 m E Sg      2011/10/07 04:22:27.6  -0.2                          T   001.0        1.6  .30 Ml 2.1         4766640
LOR   002.56 012.4 m E Pg      2011/10/07 04:22:02.4  -0.3 194.6  1.5               T   001.0                                4766634
LOR   002.56 012.4 m E Sg      2011/10/07 04:22:36.2   0.6                          T   001.0        1.7  .23 Ml 2.2         4766635
EPF   002.62 229.3 m E Sg      2011/10/07 04:22:37.5  -0.1                          T   001.0        3.3  .24 Ml 2.5         4766629

.
EVENT     264825
    Date      Time       Latitude Longitude    Depth    Ndef Nsta Gap    Mag1  N    Mag2  N    Mag3  N   Author         ID
       rms   OT_Error      Smajor Sminor Az        Err   mdist  Mdist     Err        Err        Err      Quality

2011/10/07 07:24:04.6     39.0282     .1894      2.0      39    4 083  Ml 3.4  3  Md 3.4  1              js067245    264845

      0.85   +-  0.16       3.9    2.9  139.82 +-  0.0    0.90   6.55   +-0.1      +-                    m i ke

SPAIN
Sta     Dist  EvAz     Phase      Date       Time     TRes  Azim  AzRes  Slow  SRes Def   SNR       Amp   Per   Mag1   Mag2       ID
ETSF  003.91 351.9 m E Pn      2011/10/07 07:25:04.4   0.7                          T                                        4766946
ETSF  003.91 351.9 m E Sg      2011/10/07 07:26:07.2   0.0                          T               35.6  .68 Ml 3.3         4771576
EPF   004.00 001.6 m E Pn      2011/10/07 07:25:06.0   1.1                          T                                        4766944
EPF   004.00 001.6 m E Sg      2011/10/07 07:26:10.3   0.3                          T               20.7  .50 Ml 3.3         4771575
SJPF  004.22 345.8 m E Pn      2011/10/07 07:25:08.2   0.4                          T                                        4766945
SJPF  004.22 345.8 m E Sg      2011/10/07 07:26:16.3  -0.5                          T               42.2  .71 Ml 3.5 Md 3.4  4768410
CAF   006.06 012.7 m E Pn      2011/10/07 07:25:33.2   0.3                          T                                        4766943

.
EVENT     264925
    Date      Time       Latitude Longitude    Depth    Ndef Nsta Gap    Mag1  N    Mag2  N    Mag3  N   Author         ID
       rms   OT_Error      Smajor Sminor Az        Err   mdist  Mdist     Err        Err        Err      Quality

2011/10/07 23:17:58.1     47.6087    7.5066     10.0      12    4 066  Ml 1.7  2  Md 1.4  3              js067245    264945

      0.21   +-  0.04        .9     .7  146.43 +-  0.0    0.19   1.39   +-0.1      +-0.1                 m i ke

SWITZERLAND
Sta     Dist  EvAz     Phase      Date       Time     TRes  Azim  AzRes  Slow  SRes Def   SNR       Amp   Per   Mag1   Mag2       ID
HINF  000.49 295.5 m E Pg      2011/10/07 23:18:07.6   0.0                          T                                        4768442
HINF  000.49 295.5 m E Sg      2011/10/07 23:18:13.6  -0.6                          T                1.6  .20        Md 1.5  4768441
CDF   000.82 349.2 m E Pg      2011/10/07 23:18:13.9   0.2                          T                                        4768446
CDF   000.82 349.2 m E Sg      2011/10/07 23:18:24.4   0.0                          T                  1  .21        Md 1.5  4768445
HAU   000.88 297.4 m E Pg      2011/10/07 23:18:14.5  -0.1                          T                                        4768443
HAU   000.88 297.4 m E Sg      2011/10/07 23:18:26.2   0.1                          T                3.0  .24 Ml 1.6 Md 1.3  4768444
CABF  001.39 224.7 m E Sg      2011/10/07 23:18:42.2   0.0                          T                1.6  .26 Ml 1.8         4768440

.
EVENT     264844
    Date      Time       Latitude Longitude    Depth    Ndef Nsta Gap    Mag1  N    Mag2  N    Mag3  N   Author         ID
       rms   OT_Error      Smajor Sminor Az        Err   mdist  Mdist     Err        Err        Err      Quality

2011/10/08 09:33:23.1     42.8699     .1743      2.0       5    3 201  Ml 1.6  1  Md 1.2  2              js067245    264864

      0.21   +-  0.17       6.6    1.3  160.37 +-  0.0    0.20   1.57   +-         +-0.2                 m i ke

PYRENEES
Sta     Dist  EvAz     Phase      Date       Time     TRes  Azim  AzRes  Slow  SRes Def   SNR       Amp   Per   Mag1   Mag2       ID
EPF   000.20 037.1 m E Pg      2011/10/08 09:33:27.2  -0.1                          T                                        4767693
EPF   000.20 037.1 m E Sg      2011/10/08 09:33:29.6  -0.4                          T               12.0  .22        Md 1.3  4767692
ETSF  000.54 273.3 m E Pg      2011/10/08 09:33:33.3  -0.2                          T                                        4767691
ETSF  000.54 273.3 m E Sg      2011/10/08 09:33:40.6   0.0                          T                1.1  .21        Md 1.1  4767690
MTLF  001.57 071.8 m E Sg      2011/10/08 09:34:12.6  -0.1                          T                1.2  .38 Ml 1.6         4771582

.
