EVENT     259235
    Date      Time       Latitude Longitude    Depth    Ndef Nsta Gap    Mag1  N    Mag2  N    Mag3  N   Author         ID
       rms   OT_Error      Smajor Sminor Az        Err   mdist  Mdist     Err        Err        Err      Quality

2011/05/12 18:00:10.3     43.1012    -.2133      2.0     179   34 055  Ml 3.5 36  Md 3.4  3              js067245    259235

      0.79   +-  0.05       1.2     .9  150.46 +-  0.0    0.22   7.46   +-0.3      +-0.0                 m i ke

PYRENEES
Sta     Dist  EvAz     Phase      Date       Time     TRes  Azim  AzRes  Slow  SRes Def   SNR       Amp   Per   Mag1   Mag2       ID
ETSF  000.32 231.5 m E Pg      2011/05/12 18:00:15.5  -1.2                          T                                        4690359
ETSF  000.32 231.5 m E Sg      2011/05/12 18:00:19.5  -1.6                          T             1612.3  .32        Md 3.4  4690355
EPF   000.41 099.7 m E Pg      2011/05/12 18:00:18.0  -0.2                          T                                        4690357
EPF   000.41 099.7 m E Sg      2011/05/12 18:00:24.1   0.4                          T              239.2  .26        Md 3.4  4690354
SJPF  000.74 271.3 m E Pg      2011/05/12 18:00:23.1  -1.1                          T                                        4690358
SJPF  000.74 271.3 m E Sg      2011/05/12 18:00:33.8  -0.1                          T              114.7  .24        Md 3.5  4690356
MTLF  001.79 081.5 m E Pn      2011/05/12 18:00:39.7  -0.8                          T                                        4690422
MTLF  001.79 081.5 m E Pg      2011/05/12 18:00:43.9   0.3                          T                                        4690350
MTLF  001.79 081.5 m E Sg      2011/05/12 18:01:06.6  -0.1                          T               39.1  .24 Ml 3.4         4690407
LFF   001.96 020.2 m E Pn      2011/05/12 18:00:42.3  -0.5                          T                                        4690424
LFF   001.96 020.2 m E Pg      2011/05/12 18:00:46.8   0.1                          T                                        4690352
LFF   001.96 020.2 m E Sg      2011/05/12 18:01:12.2   0.2                          T              178.3  .25 Ml 3.9         4690405
CAF   002.46 041.2 m E Pn      2011/05/12 18:00:48.7  -0.8                          T                                        4690423
CAF   002.46 041.2 m E Pg      2011/05/12 18:00:56.1   0.2                          T                                        4690353
CAF   002.46 041.2 m E Sg      2011/05/12 18:01:27.0  -0.5                          T               92.2  .20 Ml 4.0         4690406
RJF   002.53 028.9 m E Pn      2011/05/12 18:00:49.0  -1.5                          T                                        4690425
RJF   002.53 028.9 m E Pg      2011/05/12 18:00:57.0  -0.2                          T                                        4690351
RJF   002.53 028.9 m E Sg      2011/05/12 18:01:29.7   0.0                          T              112.4  .24 Ml 3.7         4690404
LASF  003.11 070.4 m E Pn      2011/05/12 18:00:57.7  -0.8                          T                                        4690421
LASF  003.11 070.4 m E Pg      2011/05/12 18:01:07.8  -0.1                          T                                        4690457
LASF  003.11 070.4 m E Sg      2011/05/12 18:01:47.2  -0.7                          T               33.6  .36 Ml 3.4         4690408
MFF   003.50 000.8 m E Pn      2011/05/12 18:01:03.6  -0.2                          T                                        4690426
MFF   003.50 000.8 m E Pg      2011/05/12 18:01:14.8  -0.3                          T                                        4690349
MFF   003.50 000.8 m E Sg      2011/05/12 18:02:00.7   0.6                          T               23.4  .16 Ml 3.9         4690403
TCF   003.62 027.6 m E Pn      2011/05/12 18:01:04.5  -1.0                          T                                        4690442
TCF   003.62 027.6 m E Pg      2011/05/12 18:01:17.4   0.0                          T                                        4690445
TCF   003.62 027.6 m E Sg      2011/05/12 18:02:04.1   0.1                          T               49.1  .26 Ml 3.9         4690385
VIVF  003.94 061.9 m E Pn      2011/05/12 18:01:09.7   0.0                          T                                        4690420
VIVF  003.94 061.9 m E Pg      2011/05/12 18:01:23.6   0.4                          T                                        4690456
VIVF  003.94 061.9 m E Sg      2011/05/12 18:02:13.2  -0.5                          T               38.3  .50 Ml 3.5         4690409
BGF   004.08 031.1 m E Pn      2011/05/12 18:01:11.0  -0.7                          T                                        4690433
BGF   004.08 031.1 m E Pg      2011/05/12 18:01:26.0   0.1                          T                                        4690347
BGF   004.08 031.1 m E Sg      2011/05/12 18:02:18.4   0.2                          T              107.1  .36 Ml 4.1         4690395
SMRF  004.30 076.3 m E Pn      2011/05/12 18:01:14.5  -0.1                          T                                        4690416
SMRF  004.30 076.3 m E Sg      2011/05/12 18:02:24.3  -0.7                          T                8.6  .50 Ml 3.0         4690413
AVF   004.47 033.2 m E Pn      2011/05/12 18:01:17.0   0.1                          T                                        4690436
AVF   004.47 033.2 m E Pg      2011/05/12 18:01:32.9  -0.1                          T                                        4690449
AVF   004.47 033.2 m E Sg      2011/05/12 18:02:30.5   0.1                          T               22.8  .36 Ml 3.6         4690392
SMF   004.57 037.7 m E Pn      2011/05/12 18:01:18.5   0.3                          T                                        4690435
SMF   004.57 037.7 m E Pg      2011/05/12 18:01:35.0   0.3                          T                                        4690450
SMF   004.57 037.7 m E Sg      2011/05/12 18:02:33.2  -0.2                          T               17.8  .26 Ml 3.6         4690393
HYF   004.63 024.8 m E Pn      2011/05/12 18:01:19.6   0.5                          T                                        4690434
HYF   004.63 024.8 m E Pg      2011/05/12 18:01:35.7  -0.2                          T                                        4690451
HYF   004.63 024.8 m E Sg      2011/05/12 18:02:35.6   0.3                          T                                        4690394
SSF   004.76 032.3 m E Pn      2011/05/12 18:01:19.9  -1.0                          T                                        4690443
SSF   004.76 032.3 m E Pg      2011/05/12 18:01:37.9  -0.3                          T                                        4690446
SSF   004.76 032.3 m E Sg      2011/05/12 18:02:39.1  -0.1                          T               23.5  .28 Ml 3.8         4690384
ORIF  004.76 065.5 m E Pn      2011/05/12 18:01:20.8  -0.1                          T                                        4690419
ORIF  004.76 065.5 m E Sg      2011/05/12 18:02:38.7  -0.6                          T               14.3  .88 Ml 3.0         4690410
FRF   005.03 082.4 m E Pn      2011/05/12 18:01:24.2  -0.3                          T                                        4690415
FRF   005.03 082.4 m E Sg      2011/05/12 18:02:46.8  -0.8                          T                5.9  .46 Ml 3.0         4690414
LOR   005.06 033.2 m E Pn      2011/05/12 18:01:24.8  -0.2                          T                                        4690444
LOR   005.06 033.2 m E Pg      2011/05/12 18:01:44.0   0.1 227.6  11.5              T                                        4690447
LOR   005.06 033.2 m E Sg      2011/05/12 18:02:49.0   0.2                          T               18.9  .28 Ml 3.7         4690383
QUIF  005.24 337.7 m E Pn      2011/05/12 18:01:27.1  -0.4                          T                                        4690429
QUIF  005.24 337.7 m E Sg      2011/05/12 18:02:55.1   0.7                          T               21.5  .50 Ml 3.6         4690399
SGMF  005.41 343.1 m E Pn      2011/05/12 18:01:29.5  -0.2                          T                                        4690430
SGMF  005.41 343.1 m E Sg      2011/05/12 18:02:56.7  -2.9                          T               16.9  .54 Ml 3.5         4690398
LDF   005.49 000.6 m E Pn      2011/05/12 18:01:30.3  -0.6                          T                                        4690427
LDF   005.49 000.6 m E Pg      2011/05/12 18:01:50.3  -1.5                          T                                        4690452
LDF   005.49 000.6 m E Sg      2011/05/12 18:03:03.1   0.9                          T               17.9  .42 Ml 3.6         4690401
LPL   005.54 061.8 m E Pn      2011/05/12 18:01:31.6  -0.2                          T                                        4690418
LPL   005.54 061.8 m E Pg      2011/05/12 18:01:52.6  -0.3                          T                                        4690455
LPL   005.54 061.8 m E Sg      2011/05/12 18:03:03.4  -0.5                          T                6.1  .58 Ml 3.0         4690411
LPG   005.54 062.0 m E Pn      2011/05/12 18:01:31.7  -0.1                          T                                        4690417
LPG   005.54 062.0 m E Pg      2011/05/12 18:01:53.0   0.0                          T                                        4690454
LPG   005.54 062.0 m E Sg      2011/05/12 18:03:03.7  -0.4                          T                3.9  .50 Ml 2.9         4690412
FLN   005.67 358.2 m E Pn      2011/05/12 18:01:31.8  -1.3                          T                                        4690428
FLN   005.67 358.2 m E Sg      2011/05/12 18:03:08.5   0.9                          T               21.2  .48 Ml 3.5         4690400
ROSF  005.66 338.8 m E Pn      2011/05/12 18:01:31.9  -1.2                          T                                        4690431
ROSF  005.66 338.8 m E Sg      2011/05/12 18:03:08.5   1.2                          T                9.7  .36 Ml 3.4         4690397
CABF  005.69 049.7 m E Pn      2011/05/12 18:01:33.5  -0.1                          T                                        4690437
CABF  005.69 049.7 m E Pg      2011/05/12 18:01:55.3  -0.2                          T                                        4690448
CABF  005.69 049.7 m E Sg      2011/05/12 18:03:08.2  -0.3                          T               20.4  .68 Ml 3.5         4690391
SFTF  006.29 034.0 m E Pn      2011/05/12 18:01:41.9   0.2                          T                                        4690440
SFTF  006.29 034.0 m E Sg      2011/05/12 18:03:27.1  -0.1                          T               24.6  .77 Ml 3.7         4690389
MEZF  006.53 032.4 m E Pn      2011/05/12 18:01:45.4   0.3                          T                                        4690441
MEZF  006.53 032.4 m E Sg      2011/05/12 18:03:34.7   0.0                          T               20.5  .58 Ml 3.7         4690388
GRR   005.31 355.3 m E Pg      2011/05/12 18:01:48.2  -0.1                          T                                        4690453
GRR   005.31 355.3 m E Sg      2011/05/12 18:02:56.9   0.5                          T               19.1  .38 Ml 3.5         4690402
PAGF  006.85 035.2 m E Pn      2011/05/12 18:01:49.4   0.1                          T                                        4690382
PAGF  006.85 035.2 m E Sg      2011/05/12 18:03:44.4  -0.2                          T                5.9  .78 Ml 3.1         4690387
HINF  006.85 044.1 m E Pn      2011/05/12 18:01:49.6   0.2                          T                                        4690438
HINF  006.85 044.1 m E Sg      2011/05/12 18:03:44.5  -0.1                          T                4.4  .30 Ml 3.4         4690390
CDF   007.46 042.0 m E Pn      2011/05/12 18:01:57.8   0.1                          T                                        4690439
CDF   007.46 042.0 m E Sg      2011/05/12 18:04:03.6   0.0                          T                3.9  .48 Ml 3.4         4690386

.
EVENT     259589
    Date      Time       Latitude Longitude    Depth    Ndef Nsta Gap    Mag1  N    Mag2  N    Mag3  N   Author         ID
       rms   OT_Error      Smajor Sminor Az        Err   mdist  Mdist     Err        Err        Err      Quality

2011/05/12 20:24:17.8     42.8477   -1.2302      2.0      26    3 079  Ml 0.8  1  Md 0.9  2              js067245    259589

      0.18   +-  0.03        .8     .6   19.27 +-  0.0    0.01   1.17   +-         +-0.1                 m i ke

PYRENEES
Sta     Dist  EvAz     Phase      Date       Time     TRes  Azim  AzRes  Slow  SRes Def   SNR       Amp   Per   Mag1   Mag2       ID
SJPF  000.27 000.8 m E Pg      2011/05/12 20:24:23.2   0.1                          T                                        4701088
SJPF  000.27 000.8 m E Sg      2011/05/12 20:24:26.7   0.0                          T                 .7  .20        Md 1.0  4701089
ETSF  000.50 083.9 m E Pg      2011/05/12 20:24:27.6   0.2                          T                                        4701086
ETSF  000.50 083.9 m E Sg      2011/05/12 20:24:33.7  -0.3                          T                 .4  .20        Md  .8  4701087
EPF   001.17 080.5 m E Pg      2011/05/12 20:24:39.6  -0.2                          T                                        4701084
EPF   001.17 080.5 m E Sg      2011/05/12 20:24:54.7  -0.2                          T                 .1  .15 Ml  .8         4701085

.
EVENT     259590
    Date      Time       Latitude Longitude    Depth    Ndef Nsta Gap    Mag1  N    Mag2  N    Mag3  N   Author         ID
       rms   OT_Error      Smajor Sminor Az        Err   mdist  Mdist     Err        Err        Err      Quality

2011/05/12 20:57:35.8     42.2643    2.3361      7.0 f    21    4 046  Ml 1.5  4                         js067245    259590

      0.43   +-  0.08       1.6    1.2    6.88 +-  0.0    0.12   2.23   +-0.1                            m i ke

PYRENEES
Sta     Dist  EvAz     Phase      Date       Time     TRes  Azim  AzRes  Slow  SRes Def   SNR       Amp   Per   Mag1   Mag2       ID
MTLF  001.08 355.4 m E Pg      2011/05/12 20:57:56.1   0.0                          T                                        4701092
MTLF  001.08 355.4 m E Sg      2011/05/12 20:58:10.3   0.2                          T                 .5  .18 Ml 1.3         4701093
EPF   001.66 298.1 m E Pg      2011/05/12 20:58:06.2  -0.6                          T                                        4701094
EPF   001.66 298.1 m E Sg      2011/05/12 20:58:28.6   0.4                          T                 .5  .21 Ml 1.5         4701095
LASF  002.13 031.1 m E Sg      2011/05/12 20:58:43.1   0.4                          T                 .8  .37 Ml 1.6         4701090
ETSF  002.23 287.5 m E Sg      2011/05/12 20:58:46.1   0.0                          T                 .4  .23 Ml 1.5         4701091

.
EVENT     259236
    Date      Time       Latitude Longitude    Depth    Ndef Nsta Gap    Mag1  N    Mag2  N    Mag3  N   Author         ID
       rms   OT_Error      Smajor Sminor Az        Err   mdist  Mdist     Err        Err        Err      Quality

2011/05/12 21:33:40.8     45.0761    5.8273      2.0      13    6 159  Ml 1.0  1  Md 1.2  2              js067245    259236

      0.36   +-  0.04        .8     .5  147.93 +-  0.0    0.16   1.11   +-         +-0.1                 m i ke

FRANCE
Sta     Dist  EvAz     Phase      Date       Time     TRes  Azim  AzRes  Slow  SRes Def   SNR       Amp   Per   Mag1   Mag2       ID
ORIF  000.16 166.6 m E Pg      2011/05/12 21:33:44.0  -0.2                          T                                        4690469
ORIF  000.16 166.6 m E Sg      2011/05/12 21:33:46.0  -0.5                          T               26.2  .26        Md 1.3  4690468
LPL   000.78 055.1 m E Pg      2011/05/12 21:33:55.7   0.0                          T                                        4701099
LPL   000.78 055.1 m E Sg      2011/05/12 21:34:06.0   0.2                          T                 .6  .28                4701102
LPG   000.78 056.8 m E Pg      2011/05/12 21:33:56.0   0.2                          T                                        4701098
LPG   000.78 056.8 m E Sg      2011/05/12 21:34:06.4   0.5                          T                 .4  .22        Md 1.1  4701101
VIVF  000.85 255.4 m E Pg      2011/05/12 21:33:56.7  -0.1                          T                                        4701100
VIVF  000.85 255.4 m E Sg      2011/05/12 21:34:07.4  -0.4                          T                 .7  .23                4701103
SMRF  001.11 189.4 m E Pg      2011/05/12 21:34:01.4  -0.3                          T                                        4701096
SMRF  001.11 189.4 m E Sg      2011/05/12 21:34:15.4  -0.8                          T                 .4  .30 Ml 1           4701097
MBDF  000.76 117.2 m E Sg      2011/05/12 21:34:04.8  -0.3                          T                1.0  .26                4690465

.
