EVENT     256119
    Date      Time       Latitude Longitude    Depth    Ndef Nsta Gap    Mag1  N    Mag2  N    Mag3  N   Author         ID
       rms   OT_Error      Smajor Sminor Az        Err   mdist  Mdist     Err        Err        Err      Quality

2011/02/18 01:10:09.9     35.8595   -4.4659      2.0     114   21 159  Ml 4.1 11                         js067245    256139

      2.15   +-  0.54      11.8    5.8  172.51 +-  0.0    0.74  13.22   +-0.3                            m i ke

STRAIT OF GIBRALTAR
Sta     Dist  EvAz     Phase      Date       Time     TRes  Azim  AzRes  Slow  SRes Def   SNR       Amp   Per   Mag1   Mag2       ID
EVOP  003.95 313.5 m E Pn      2011/02/18 01:11:10.9   1.4                          T                                        4651007
EVOP  003.95 313.5 m E Sn      2011/02/18 01:11:54.9   1.3                          T              125.1  .24 Ml 4.4         4651006
SJPF  007.66 018.1 m E Pn      2011/02/18 01:12:04.0   4.0                          T                                        4651049
SJPF  007.66 018.1 m E Sn      2011/02/18 01:13:21.6  -0.8                          T               16.3  .41 Ml 4.0         4651022
ETSF  007.65 022.1 m E Pn      2011/02/18 01:12:04.1   4.2                          T                                        4651048
ETSF  007.65 022.1 m E Sn      2011/02/18 01:13:21.4  -0.8                          T               18.0  .42 Ml 4.0         4651021
EPF   008.07 026.0 m E Pn      2011/02/18 01:12:08.8   3.2                          T                                        4651047
EPF   008.07 026.0 m E Sn      2011/02/18 01:13:31.2  -0.9                          T               16.6  .36 Ml 4.1         4651020
LFF   009.90 022.0 m E Pn      2011/02/18 01:12:33.5   3.0                          T                                        4651046
LFF   009.90 022.0 m E Sn      2011/02/18 01:14:15.0  -0.7                          T                6.3  .29 Ml 3.9         4651024
CAF   010.33 026.8 m E Pn      2011/02/18 01:12:39.6   3.2                          T                                        4651045
CAF   010.33 026.8 m E Sn      2011/02/18 01:14:25.4  -0.8                          T                3.1  .48 Ml 3.6         4651023
RJF   010.47 023.9 m E Pn      2011/02/18 01:12:40.7   2.5                          T                                        4651044
RJF   010.47 023.9 m E Sn      2011/02/18 01:14:28.5  -0.9                          T               10.3  .66 Ml 3.7         4651025
MFF   011.21 015.5 m E Pn      2011/02/18 01:12:50.0   1.7                          T                                        4651043
TCF   011.57 023.7 m E Pn      2011/02/18 01:12:56.2   3.0                          T                                        4651031
BGF   012.02 025.0 m E Pn      2011/02/18 01:13:01.9   2.6                          T                                        4651035
QUIF  012.09 004.2 m E Pn      2011/02/18 01:13:03.7   3.4                          T                                        4651039
QUIF  012.09 004.2 m E Sn      2011/02/18 01:15:07.8  -0.2                          T               24.0  .61 Ml 4.6         4651027
AVF   012.39 025.8 m E Pn      2011/02/18 01:13:04.9   0.5                          T                                        4651032
SMF   012.45 027.5 m E Pn      2011/02/18 01:13:06.8   1.6                          T                                        4651033
SGMF  012.47 005.9 m E Pn      2011/02/18 01:13:08.9   3.5                          T                                        4651038
ROSF  012.50 003.7 m E Pn      2011/02/18 01:13:09.4   3.5                          T                                        4651037
ROSF  012.50 003.7 m E Sn      2011/02/18 01:15:17.4  -0.5                          T               13.4  .56 Ml 4.4         4651028
SSF   012.68 025.6 m E Pn      2011/02/18 01:13:09.6   1.3                          T                                        4651030
HYF   012.57 022.8 m E Pn      2011/02/18 01:13:09.7   2.8                          T                                        4651034
LOR   012.98 026.0 m E Pn      2011/02/18 01:13:12.0  -0.4                          T                                        4651029
GRR   012.80 010.9 m E Pn      2011/02/18 01:13:12.4   2.4                          T                                        4651042
GRR   012.80 010.9 m E Sn      2011/02/18 01:15:24.8  -0.3                          T                8.7  .59 Ml 4.1         4651026
LDF   013.12 012.8 m E Pn      2011/02/18 01:13:17.9   3.5                          T                                        4651041
FLN   013.22 011.6 m E Pn      2011/02/18 01:13:18.4   2.7                          T                                        4651040

.
EVENT     256122
    Date      Time       Latitude Longitude    Depth    Ndef Nsta Gap    Mag1  N    Mag2  N    Mag3  N   Author         ID
       rms   OT_Error      Smajor Sminor Az        Err   mdist  Mdist     Err        Err        Err      Quality

2011/02/18 02:48:20.8     43.1761   -1.0819     16.0 f    20    3 218  Ml 1.6  1  Md 1.5  2              js067245    256142

      0.50   +-  0.25       5.0    2.6  165.80 +-  0.0    0.12   1.05   +-         +-0.3                 m i ke

PYRENEES
Sta     Dist  EvAz     Phase      Date       Time     TRes  Azim  AzRes  Slow  SRes Def   SNR       Amp   Per   Mag1   Mag2       ID
SJPF  000.12 239.1 m E Pg      2011/02/18 02:48:25.1   0.5                          T                                        4651055
SJPF  000.12 239.1 m E Sg      2011/02/18 02:48:26.9  -0.3                          T               17.2  .20        Md 1.7  4651053
ETSF  000.47 125.7 m E Pg      2011/02/18 02:48:31.2   0.9                          T                                        4651054
ETSF  000.47 125.7 m E Sg      2011/02/18 02:48:35.8  -1.0                          T                2.5  .24        Md 1.3  4651052
EPF   001.05 097.5 m E Pg      2011/02/18 02:48:40.5  -0.2                          T                                        4651050
EPF   001.05 097.5 m E Sg      2011/02/18 02:48:53.9  -0.6                          T                1.3  .23 Ml 1.6         4651051

.
EVENT     256120
    Date      Time       Latitude Longitude    Depth    Ndef Nsta Gap    Mag1  N    Mag2  N    Mag3  N   Author         ID
       rms   OT_Error      Smajor Sminor Az        Err   mdist  Mdist     Err        Err        Err      Quality

2011/02/18 04:08:48.8     51.4739    6.6474      2.0      53   18 237  Ml 2.8 19  Md 2.9  2              js067245    256140

      0.72   +-  0.21       3.5    2.7   13.48 +-  0.0    0.25   5.75   +-0.3      +-0.4                 m i ke

GERMANY
Sta     Dist  EvAz     Phase      Date       Time     TRes  Azim  AzRes  Slow  SRes Def   SNR       Amp   Per   Mag1   Mag2       ID
RUP   001.79 171.4 m E Pn      2011/02/18 04:09:18.7  -0.3                          T                                        4651090
RUP   001.79 171.4 m E Pg      2011/02/18 04:09:21.9  -0.3                          T                                        4653849
RUP   001.79 171.4 m E Sn      2011/02/18 04:09:40.9  -0.2                          T                                Md 3.1  4651084
GIVF  001.80 220.8 m E Pn      2011/02/18 04:09:19.4   0.4                          T                                        4651091
GIVF  001.80 220.8 m E P       2011/02/18 04:09:20.8  -0.3                          T                                        4653851
GIVF  001.80 220.8 m E Sn      2011/02/18 04:09:41.5   0.5                          T               16.3  .20 Ml 3.1 Md 2.6  4651086
BAIF  002.10 228.5 m E Pn      2011/02/18 04:09:23.8   0.7                          T                                        4651089
BAIF  002.10 228.5 m E Pg      2011/02/18 04:09:28.2   0.4                          T                                        4653850
BAIF  002.10 228.5 m E Sn      2011/02/18 04:09:48.8   0.5                          T               11.9  .44 Ml 2.7         4651085
LANF  002.60 163.0 m E Pn      2011/02/18 04:09:28.6  -1.5                          T                                        4651077
LANF  002.60 163.0 m E Sg      2011/02/18 04:10:10.0  -0.7                          T               11.3  .44 Ml 2.8         4651056
CDF   003.09 172.2 m E Pn      2011/02/18 04:09:35.7  -1.1                          T                                        4651076
PAGF  002.98 191.9 m E Pn      2011/02/18 04:09:35.7   0.5  23.2  12.0              T                                        4651075
PAGF  002.98 191.9 m E Pg      2011/02/18 04:09:44.3   0.3                          T                                        4653848
PAGF  002.98 191.9 m E Sn      2011/02/18 04:10:08.3  -1.1  17.9  6.7               T                2.8  .47 Ml 2.2         4651058
CDF   003.09 172.2 m E Sg      2011/02/18 04:10:24.0  -1.9                          T                5.2  .47 Ml 2.6         4651057
MEZF  003.15 199.7 m E Pn      2011/02/18 04:09:37.5   0.0                          T                                        4651074
MEZF  003.15 199.7 m E Sg      2011/02/18 04:10:26.4  -1.1                          T                4.8  .40 Ml 2.5         4651059
THEF  003.28 187.7 m E Pn      2011/02/18 04:09:39.4   0.2                          T                                        4651072
THEF  003.28 187.7 m E Sg      2011/02/18 04:10:30.6  -1.0                          T                4.4  .27 Ml 2.7         4651061
HAU   003.48 183.3 m E Pn      2011/02/18 04:09:41.6  -0.4                          T                                        4651071
HAU   003.48 183.3 m E Sg      2011/02/18 04:10:37.1  -0.8                          T                3.5  .28 Ml 2.4         4651062
SFTF  003.43 198.3 m E Pn      2011/02/18 04:09:41.6   0.3                          T                                        4651073
SFTF  003.43 198.3 m E Sg      2011/02/18 04:10:35.3  -1.2                          T                4.8  .31 Ml 2.7         4651060
HINF  003.66 177.8 m E Pn      2011/02/18 04:09:44.0  -0.6                          T                                        4651070
HINF  003.66 177.8 m E Sg      2011/02/18 04:10:43.3  -0.4                          T                3.2  .45 Ml 2.4         4651063
LOR   004.59 204.5 m E Pn      2011/02/18 04:09:56.5  -0.5  17.8  -4.6              T                                        4651088
LOR   004.59 204.5 m E Pg      2011/02/18 04:10:13.9   0.2  24.7  2.4               T                                        4651079
LOR   004.59 204.5 m E Sn      2011/02/18 04:10:47.7  -0.1                          T              200.2 2.34 Ml 3.7         4651083
LOR   004.59 204.5 m E Sg      2011/02/18 04:11:11.8  -0.7  22.6  0.2               T                3.2  .35 Ml 2.8         4651081
SSF   004.87 206.2 m E Pn      2011/02/18 04:10:00.3  -0.6                          T                                        4651087
SSF   004.87 206.2 m E Pg      2011/02/18 04:10:19.3   0.5                          T                                        4651078
SSF   004.87 206.2 m E Sn      2011/02/18 04:10:54.8   0.2                          T                                        4651082
SSF   004.87 206.2 m E Sg      2011/02/18 04:11:20.9  -0.5                          T                3.4  .43 Ml 2.8         4651080
AVF   005.16 206.0 m E Pn      2011/02/18 04:10:04.3  -0.6                          T                                        4651069
AVF   005.16 206.0 m E Sg      2011/02/18 04:11:29.9  -0.4                          T                1.6  .42 Ml 2.5         4651064
SMF   005.17 202.0 m E Pn      2011/02/18 04:10:04.9  -0.2                          T                                        4651068
SMF   005.17 202.0 m E Sg      2011/02/18 04:11:29.6  -1.1                          T                4.2  .42 Ml 2.9         4651065
FLN   005.33 242.2 m E Pn      2011/02/18 04:10:07.0  -0.2                          T               34.5 1.28 Ml 3.2         4653845
BGF   005.52 208.4 m E Pn      2011/02/18 04:10:09.8   0.1                          T                                        4651067
BGF   005.52 208.4 m E Sg      2011/02/18 04:11:41.1  -0.5                          T                9.4  .58 Ml 3.2         4651066
GRR   005.75 240.4 m E Pn      2011/02/18 04:10:12.8   0.0                          T                                        4653846
GRR   005.75 240.4 m E Sn      2011/02/18 04:11:14.6  -0.8                          T                1.7  .24 Ml 2.7         4653847

.
EVENT     256121
    Date      Time       Latitude Longitude    Depth    Ndef Nsta Gap    Mag1  N    Mag2  N    Mag3  N   Author         ID
       rms   OT_Error      Smajor Sminor Az        Err   mdist  Mdist     Err        Err        Err      Quality

2011/02/18 04:26:43.5     51.5957   16.1321      1.0 f   114   23 079  Ml 4.1 22                         js067245    256141

      0.79   +-  0.11       2.9    1.5    3.23 +-  0.0    0.76  12.70   +-0.3                            m i sr

POLAND
Sta     Dist  EvAz     Phase      Date       Time     TRes  Azim  AzRes  Slow  SRes Def   SNR       Amp   Per   Mag1   Mag2       ID
LANF  005.94 247.1 m E Pn      2011/02/18 04:28:11.5   1.1                          T                                        4651147
LANF  005.94 247.1 m E Pg      2011/02/18 04:28:33.9   0.4                          T                                        4651099
LANF  005.94 247.1 m E Sg      2011/02/18 04:29:49.4  -0.2                          T              164.0  .77 Ml 4.4         4651140
RUP   006.07 255.4 m E Pn      2011/02/18 04:28:12.8   0.5                          T                                        4651148
RUP   006.07 255.4 m E Pg      2011/02/18 04:28:35.9   0.1                          T                                        4651100
RUP   006.07 255.4 m E Sg      2011/02/18 04:29:52.8  -1.0                          T                                        4651141
CDF   006.54 244.3 m E Pn      2011/02/18 04:28:19.4   0.8                          T                                        4651146
CDF   006.54 244.3 m E Pg      2011/02/18 04:28:45.2   0.8                          T                                        4651098
CDF   006.54 244.3 m E Sg      2011/02/18 04:30:08.3   0.1                          T              168.0 1.10 Ml 4.5         4651139
HINF  007.11 241.5 m E Pn      2011/02/18 04:28:28.5   2.2                          T                                        4651142
HINF  007.11 241.5 m E Sg      2011/02/18 04:30:26.1   0.2                          T               42.1  .64 Ml 4.1         4651112
GIVF  007.32 262.6 m E Pn      2011/02/18 04:28:28.7  -0.3                          T                                        4651137
GIVF  007.32 262.6 m E Sg      2011/02/18 04:30:32.0  -0.4                          T               77.9 1.12 Ml 4.1         4651105
THEF  007.36 246.7 m E Pn      2011/02/18 04:28:29.9   0.1                          T                                        4651133
THEF  007.36 246.7 m E Sg      2011/02/18 04:30:33.9   0.0                          T               49.5  .87 Ml 4.1         4651110
HAU   007.28 244.2 m E Pn      2011/02/18 04:28:30.1   1.5                          T                                        4651143
HAU   007.28 244.2 m E Sg      2011/02/18 04:30:31.1  -0.2                          T               57.9  .78 Ml 4.0         4651111
PAGF  007.36 249.6 m E Pn      2011/02/18 04:28:30.2   0.5  73.3  11.7              T                                        4651138
PAGF  007.36 249.6 m E Pg      2011/02/18 04:29:00.6   1.2  71.7  10.0              T                                        4651097
PAGF  007.36 249.6 m E Sg      2011/02/18 04:30:33.4  -0.3                          T               14.4  .83 Ml 3.5         4651107
BAIF  007.71 263.2 m E Pn      2011/02/18 04:28:34.6   0.2                          T                                        4651136
BAIF  007.71 263.2 m E Sg      2011/02/18 04:30:44.6   0.0                          T               26.7  .85 Ml 3.9         4651106
MEZF  007.78 250.9 m E Pn      2011/02/18 04:28:35.4   0.1  83.0  20.6              T                                        4651135
MEZF  007.78 250.9 m E Sg      2011/02/18 04:30:46.5  -0.2                          T               54.5 1.00 Ml 4.1         4651108
SFTF  007.93 249.0 m E Pn      2011/02/18 04:28:37.5   0.1                          T                                        4651134
SFTF  007.93 249.0 m E Sg      2011/02/18 04:30:51.6   0.1                          T               93.9 1.20 Ml 4.3         4651109
CABF  008.26 236.8 m E Pn      2011/02/18 04:28:42.2   0.1                          T                                        4651132
CABF  008.26 236.8 m E Pg      2011/02/18 04:29:17.0   0.8                          T                                        4651096
CABF  008.26 236.8 m E Sg      2011/02/18 04:31:02.3   0.3                          T              142.5 1.22 Ml 4.5         4651113
LPG   008.71 229.2 m E Pn      2011/02/18 04:28:48.2  -0.3                          T                                        4651124
LPG   008.71 229.2 m E Sg      2011/02/18 04:31:16.3   0.0                          T               46.3 1.20 Ml 4.1         4651123
LPL   008.71 229.3 m E Pn      2011/02/18 04:28:48.4   0.1                          T                                        4651125
LPL   008.71 229.3 m E Sg      2011/02/18 04:31:16.1   0.0                          T               41.3 1.22 Ml 4.1         4651122
LOR   009.09 246.4 m E Pn      2011/02/18 04:28:53.9   0.6  65.9  8.8               T                                        4651145
LOR   009.09 246.4 m E Sg      2011/02/18 04:31:27.8  -0.1                          T               61.7 1.26 Ml 4.3         4651104
MBDF  009.29 225.9 m E Pn      2011/02/18 04:28:55.9  -0.2                          T                                        4651127
MBDF  009.29 225.9 m E Sg      2011/02/18 04:31:34.0  -0.1                          T               22.5 1.08 Ml 3.9         4651120
SMF   009.46 243.2 m E Pn      2011/02/18 04:28:58.1  -0.2                          T                                        4651130
SMF   009.46 243.2 m E Sg      2011/02/18 04:31:38.9  -0.3                          T               26.3  .82 Ml 4.1         4651115
SSF   009.41 246.1 m E Pn      2011/02/18 04:28:58.8   1.2                          T                                        4651144
SSF   009.41 246.1 m E Sg      2011/02/18 04:31:37.9   0.2                          T               50.4 1.28 Ml 4.3         4651103
ORIF  009.55 229.6 m E Pn      2011/02/18 04:28:59.7   0.1                          T                                        4651126
ORIF  009.55 229.6 m E Sg      2011/02/18 04:31:42.4   0.0                          T               44.0 1.30 Ml 4.2         4651121
AVF   009.65 245.1 m E Pn      2011/02/18 04:29:00.5  -0.3                          T                                        4651131
AVF   009.65 245.1 m E Sg      2011/02/18 04:31:45.1   0.0                          T               44.7 1.34 Ml 4.2         4651114
HYF   009.80 249.0 m E Pn      2011/02/18 04:29:02.7  -0.1                          T                                        4651129
HYF   009.80 249.0 m E Sg      2011/02/18 04:31:49.8  -0.1                          T                                        4651116
BGF   010.07 245.1 m E Pn      2011/02/18 04:29:06.4  -0.1                          T                                        4651128
BGF   010.07 245.1 m E Sg      2011/02/18 04:31:58.0  -0.3                          T               30.7  .86 Ml 4.3         4651117
VIVF  010.19 233.0 m E Pn      2011/02/18 04:29:08.3   0.1                          T                                        4651118
VIVF  010.19 233.0 m E Sg      2011/02/18 04:32:01.6  -0.4                          T               22.4 1.08 Ml 4.1         4651119

.
