EVENT     299916
    Date      Time       Latitude Longitude    Depth    Ndef Nsta Gap    Mag1  N    Mag2  N    Mag3  N   Author         ID
       rms   OT_Error      Smajor Sminor Az        Err   mdist  Mdist     Err        Err        Err      Quality

2013/05/29 06:41:13.0     47.6750    5.9832       .0 f    14    8 100  Ml 1.8  3  Md 1.8  2              bulletin    300016
                                                                                                         _ldg
      0.19   +-  0.05       1.2     .8  143.90 +-  0.0    0.41   1.79   +-0.2      +-0.3                 m i km

FRANCE
Sta     Dist  EvAz     Phase      Date       Time     TRes  Azim  AzRes  Slow  SRes Def   SNR       Amp   Per   Mag1   Mag2       ID
HAU   000.41 036.5 m E Pg      2013/05/29 06:41:20.9  -0.3                          T                                        5296998
HAU   000.41 036.5 m E Sg      2013/05/29 06:41:26.8  -0.1                          T                9.1  .28        Md 2.0  5296997
HINF  000.60 076.1 m E Pg      2013/05/29 06:41:24.9   0.1                          T                                        5296996
HINF  000.60 076.1 m E Sg      2013/05/29 06:41:32.9   0.0                          T                3.3  .22        Md 1.6  5296995
SFTF  000.83 310.2 m E Pg      2013/05/29 06:41:28.8  -0.1 130.6  1.0               T                                        5296990
SFTF  000.83 310.2 m E Sg      2013/05/29 06:41:39.8   0.0                          T                9.8  .40                5296989
PAGF  000.90 349.0 m E Pg      2013/05/29 06:41:30.2   0.0 169.6  0.8               T                                        5296994
PAGF  000.90 349.0 m E Sg      2013/05/29 06:41:42.0   0.0                          T                1.7  .21 Ml 1.7         5296993
CABF  001.07 176.1 m E Pg      2013/05/29 06:41:33.2  -0.1                          T                                        5296988
CDF   001.14 049.1 m E Pg      2013/05/29 06:41:34.9   0.2                          T                                        5296992
CDF   001.14 049.1 m E Sg      2013/05/29 06:41:49.8   0.2                          T                3.3  .34 Ml 2.0         5296991
LOR   001.50 255.0 m E Pg      2013/05/29 06:41:41.3   0.1                          T                                        5296987
SMF   001.79 235.6 m E Pg      2013/05/29 06:41:46.6   0.0                          T                                        5296999
SMF   001.79 235.6 m E Sg      2013/05/29 06:42:09.9   0.1                          T                1.0  .22 Ml 1.8         5297000

.
EVENT     299920
    Date      Time       Latitude Longitude    Depth    Ndef Nsta Gap    Mag1  N    Mag2  N    Mag3  N   Author         ID
       rms   OT_Error      Smajor Sminor Az        Err   mdist  Mdist     Err        Err        Err      Quality

2013/05/29 08:20:15.7     42.7198   -1.7204      2.0      17    3 105  Ml 2.1  2  Md 2.1  2              bulletin    300020
                                                                                                         _ldg
      0.42   +-  0.13       2.3    2.0  117.03 +-  0.0    0.12   2.34   +-0.1      +-0.0                 m i ke

PYRENEES
Sta     Dist  EvAz     Phase      Date       Time     TRes  Azim  AzRes  Slow  SRes Def   SNR       Amp   Per   Mag1   Mag2       ID
SJPF  000.54 042.6 m E Pg      2013/05/29 08:20:25.8  -0.1                          T                                        5297006
SJPF  000.54 042.6 m E Sg      2013/05/29 08:20:33.2   0.2                          T               16.8  .38        Md 2.1  5297001
ETSF  000.87 077.8 m E Pg      2013/05/29 08:20:32.4   0.2                          T                                        5297005
ETSF  000.87 077.8 m E Sg      2013/05/29 08:20:43.6   0.1                          T                3.3  .18 Ml 2.0 Md 2.1  5297002
EPF   001.55 077.7 m E Pg      2013/05/29 08:20:44.5   0.0                          T                                        5297004
EPF   001.55 077.7 m E Sg      2013/05/29 08:21:05.0   0.5                          T                2.5  .20 Ml 2.2         5297003

.
EVENT     299949
    Date      Time       Latitude Longitude    Depth    Ndef Nsta Gap    Mag1  N    Mag2  N    Mag3  N   Author         ID
       rms   OT_Error      Smajor Sminor Az        Err   mdist  Mdist     Err        Err        Err      Quality

2013/05/29 13:16:12.7     49.6393   -1.6124       .0 f    38   15 260  Ml 2.9 10  Md 2.8  2              bulletin    300049
                                                                                                         _ldg
      0.58   +-  0.11       2.3    1.2  173.40 +-  0.0    1.15   5.34   +-0.2      +-0.0                 m i km

FRANCE
Sta     Dist  EvAz     Phase      Date       Time     TRes  Azim  AzRes  Slow  SRes Def   SNR       Amp   Per   Mag1   Mag2       ID
FLN   001.15 139.4 m E Pg      2013/05/29 13:16:34.4   0.0 322.1  1.8               T                                        5297185
FLN   001.15 139.4 m E P       2013/05/29 13:16:35.9   0.0 319.0  -1.3              T                                        5302365
FLN   001.15 139.4 m E Sg      2013/05/29 13:16:49.6   0.2 317.2  -3.0              T               42.0  .20 Ml 3.1 Md 2.8  5297184
GRR   001.35 158.1 m E Pn      2013/05/29 13:16:37.4   0.2                          T                                        5297171
GRR   001.35 158.1 m E Pg      2013/05/29 13:16:38.1   0.0                          T                                        5297181
GRR   001.35 158.1 m E P       2013/05/29 13:16:38.8   0.0                          T                                        5302363
GRR   001.35 158.1 m E Sg      2013/05/29 13:16:55.7   0.0                          T               39.2  .20 Ml 3.1 Md 2.8  5297180
LDF   001.43 136.3 m E Pn      2013/05/29 13:16:38.5   0.1                          T                                        5302364
LDF   001.43 136.3 m E Pg      2013/05/29 13:16:39.7   0.0                          T                                        5297182
LDF   001.43 136.3 m E Sg      2013/05/29 13:16:58.7   0.3                          T               18.5  .24 Ml 2.9         5297183
SGMF  001.52 204.5 m E Pn      2013/05/29 13:16:39.7   0.1                          T                                        5297175
SGMF  001.52 204.5 m E Pg      2013/05/29 13:16:41.3   0.0                          T                                        5297177
SGMF  001.52 204.5 m E Sg      2013/05/29 13:17:01.2   0.1                          T               19.7  .24 Ml 3.0         5297176
ROSF  001.70 220.6 m E Pn      2013/05/29 13:16:42.0  -0.1                          T                                        5297174
ROSF  001.70 220.6 m E P       2013/05/29 13:16:44.0   0.1                          T                                        5297178
ROSF  001.70 220.6 m E Sg      2013/05/29 13:17:06.5  -0.3                          T               10.6  .16 Ml 2.9         5297179
QUIF  002.01 211.4 m E Pn      2013/05/29 13:16:46.1  -0.1                          T                                        5297173
QUIF  002.01 211.4 m E Sg      2013/05/29 13:17:16.1  -0.1                          T                9.2  .27 Ml 2.7         5297172
MFF   003.19 161.5 m E Pn      2013/05/29 13:17:02.0  -0.3                          T                                        5297193
MFF   003.19 161.5 m E Pg      2013/05/29 13:17:12.4   0.3                          T                                        5297192
MFF   003.19 161.5 m E Sg      2013/05/29 13:17:53.5   0.2                          T                3.2  .25 Ml 2.8         5297191
TCF   004.22 141.1 m E Pn      2013/05/29 13:17:16.3  -0.1                          T                                        5297190
TCF   004.22 141.1 m E Sn      2013/05/29 13:18:03.7   0.0                          T                                        5297189
SSF   004.28 125.1 m E Pn      2013/05/29 13:17:16.9  -0.2                          T                                        5302367
BGF   004.29 134.2 m E Pn      2013/05/29 13:17:17.1  -0.2                          T                                        5302366
AVF   004.37 128.8 m E Pn      2013/05/29 13:17:18.0  -0.4                          T                                        5297187
AVF   004.37 128.8 m E Sn      2013/05/29 13:18:06.9  -0.4                          T                1.3  .25 Ml 2.5         5297188
LOR   004.35 121.0 m E Pn      2013/05/29 13:17:18.1   0.0                          T                                        5302368
LOR   004.35 121.0 m E Sn      2013/05/29 13:18:06.5  -0.1                          T                1.6  .20 Ml 2.6         5302358
SMF   004.72 127.3 m E Pn      2013/05/29 13:17:23.8   0.6                          T                                        5297186
RJF   004.83 152.8 m E Pn      2013/05/29 13:17:24.7   0.0                          T                                        5302362
RJF   004.83 152.8 m E Sn      2013/05/29 13:18:17.5  -0.6                          T                                        5302359
CAF   005.34 150.7 m E Pn      2013/05/29 13:17:31.7   0.1                          T                                        5302361
CAF   005.34 150.7 m E Sn      2013/05/29 13:18:30.0  -0.3                          T                                        5302360

.
EVENT     299994
    Date      Time       Latitude Longitude    Depth    Ndef Nsta Gap    Mag1  N    Mag2  N    Mag3  N   Author         ID
       rms   OT_Error      Smajor Sminor Az        Err   mdist  Mdist     Err        Err        Err      Quality

2013/05/29 16:25:39.8     45.8289    7.5738      5.0 f    20    4 081  Ml 2.1  2  Md 2.2  2              bulletin    300094
                                                                                                         _ldg
      0.26   +-  0.06       1.2     .9  135.61 +-  0.0    0.21   1.50   +-0.3      +-0.1                 m i ke

NORTHERN ITALY
Sta     Dist  EvAz     Phase      Date       Time     TRes  Azim  AzRes  Slow  SRes Def   SNR       Amp   Per   Mag1   Mag2       ID
LPG   000.67 240.4 m E Pg      2013/05/29 16:25:52.7  -0.1                          T                                        5297235
LPG   000.67 240.4 m E Sg      2013/05/29 16:26:01.4  -0.1                          T               10.8  .17        Md 2.2  5297234
LPL   000.67 242.4 m E Pg      2013/05/29 16:25:52.8   0.1                          T                                        5297237
LPL   000.67 242.4 m E Sg      2013/05/29 16:26:01.1  -0.4                          T                6.4  .31        Md 2.1  5297233
MBDF  001.24 207.5 m E Pg      2013/05/29 16:26:03.4   0.2                          T                                        5297236
MBDF  001.24 207.5 m E Sg      2013/05/29 16:26:19.9   0.6                          T                5.1  .20 Ml 2.3         5297232
ORIF  001.50 233.3 m E Pg      2013/05/29 16:26:07.8  -0.1                          T                                        5297239
ORIF  001.50 233.3 m E Sg      2013/05/29 16:26:27.7   0.4                          T                1.6  .23 Ml 1.9         5297238

.
EVENT     300003
    Date      Time       Latitude Longitude    Depth    Ndef Nsta Gap    Mag1  N    Mag2  N    Mag3  N   Author         ID
       rms   OT_Error      Smajor Sminor Az        Err   mdist  Mdist     Err        Err        Err      Quality

2013/05/29 18:39:35.8     36.1489    1.8844     30.0      32    7 251  Ml 3.0  6                         bulletin    300103
                                                                                                         _ldg
      0.79   +-  0.51      10.9    4.8  157.70 +-  0.0    2.90  10.04   +-0.2                            m i ke

NORTHERN ALGERIA
Sta     Dist  EvAz     Phase      Date       Time     TRes  Azim  AzRes  Slow  SRes Def   SNR       Amp   Per   Mag1   Mag2       ID
EPF   006.98 350.6 m E P       2013/05/29 18:41:18.6  -0.1                          T                                        5297467
EPF   006.98 350.6 m E Sn      2013/05/29 18:42:27.6  -0.2                          T                1.8  .34 Ml 3.0         5297468
ETSF  007.00 345.1 m E P       2013/05/29 18:41:18.9  -0.2                          T                                        5297466
ETSF  007.00 345.1 m E Sn      2013/05/29 18:42:28.4   0.0                          T                 .7  .24 Ml 2.7         5297469
SJPF  007.36 341.9 m E P       2013/05/29 18:41:24.9   1.0                          T                                        5297471
SJPF  007.36 341.9 m E Sn      2013/05/29 18:42:36.5  -0.2                          T                2.4  .32 Ml 3.2         5297470
LMR   008.01 025.0 m E P       2013/05/29 18:41:32.3  -0.7                          T                                        5297475
LMR   008.01 025.0 m E Sn      2013/05/29 18:42:52.7   0.4                          T                 .6  .23 Ml 2.9         5297465
FRF   008.26 024.9 m E P       2013/05/29 18:41:36.4   0.0                          T                                        5297474
FRF   008.26 024.9 m E Sn      2013/05/29 18:42:58.2   0.0                          T                1.2  .23 Ml 3.2         5297464
SMRF  008.31 018.8 m E P       2013/05/29 18:41:37.9   0.5                          T                                        5297473
SMRF  008.31 018.8 m E Sn      2013/05/29 18:42:59.7   0.1                          T                1.5  .38 Ml 3.1         5297463
LPG   010.04 020.0 m E P       2013/05/29 18:42:01.2  -0.3                          T                                        5297472

.
EVENT     300008
    Date      Time       Latitude Longitude    Depth    Ndef Nsta Gap    Mag1  N    Mag2  N    Mag3  N   Author         ID
       rms   OT_Error      Smajor Sminor Az        Err   mdist  Mdist     Err        Err        Err      Quality

2013/05/29 20:06:02.1     44.4089    7.4312     11.0 f    25    5 135  Ml 1.5  2  Md 1.5  2              bulletin    300108
                                                                                                         _ldg
      0.25   +-  0.06       1.4     .8   51.06 +-  0.0    0.16   1.26   +-0.1      +-0.1                 m i ke

NORTHERN ITALY
Sta     Dist  EvAz     Phase      Date       Time     TRes  Azim  AzRes  Slow  SRes Def   SNR       Amp   Per   Mag1   Mag2       ID
SBF   000.55 179.7 m E Pg      2013/05/29 20:06:12.9   0.2                          T                                        5297749
SBF   000.55 179.7 m E Sg      2013/05/29 20:06:20.0   0.0                          T                8.1  .22        Md 1.6  5297750
MBDF  000.57 304.2 m E Pg      2013/05/29 20:06:13.3   0.1                          T                                        5297752
MBDF  000.57 304.2 m E Sg      2013/05/29 20:06:20.9   0.1                          T                1.6  .26        Md 1.5  5297751
FRF   001.02 214.0 m E Pg      2013/05/29 20:06:21.6   0.3                          T                                        5297748
FRF   001.02 214.0 m E Sg      2013/05/29 20:06:34.2  -0.3                          T                 .7  .18 Ml 1.4         5297747
ORIF  001.22 295.3 m E Pg      2013/05/29 20:06:25.0  -0.1                          T                                        5297755
LMR   001.26 212.1 m E Pg      2013/05/29 20:06:26.2   0.4                          T                                        5297753
LMR   001.26 212.1 m E Sg      2013/05/29 20:06:41.8  -0.4                          T                 .9  .22 Ml 1.6         5297754

.
EVENT     299996
    Date      Time       Latitude Longitude    Depth    Ndef Nsta Gap    Mag1  N    Mag2  N    Mag3  N   Author         ID
       rms   OT_Error      Smajor Sminor Az        Err   mdist  Mdist     Err        Err        Err      Quality

2013/05/29 20:27:05.1     43.1176    -.3753      2.0      16    4 164  Ml 1.6  1  Md 1.5  2              bulletin    300096
                                                                                                         _ldg
      0.82   +-  0.25       5.4    2.5    8.38 +-  0.0    0.24   2.48   +-         +-0.0                 m i ke

PYRENEES
Sta     Dist  EvAz     Phase      Date       Time     TRes  Azim  AzRes  Slow  SRes Def   SNR       Amp   Per   Mag1   Mag2       ID
ETSF  000.26 211.7 m E Pg      2013/05/29 20:27:09.9  -0.4                          T                                        5297214
ETSF  000.26 211.7 m E Sg      2013/05/29 20:27:12.4  -1.4                          T               13.9  .23        Md 1.5  5297213
EPF   000.53 099.2 m E Pg      2013/05/29 20:27:15.5   0.2                          T                                        5297212
EPF   000.53 099.2 m E Sg      2013/05/29 20:27:23.4   1.1                          T                3.0  .20        Md 1.5  5297211
SJPF  000.62 269.9 m E Sg      2013/05/29 20:27:24.9  -0.2                          T                2.2  .23                5302433
MTLF  001.91 082.4 m E Sg      2013/05/29 20:28:05.2  -0.1                          T                 .6  .21 Ml 1.6         5302432

.
EVENT     299997
    Date      Time       Latitude Longitude    Depth    Ndef Nsta Gap    Mag1  N    Mag2  N    Mag3  N   Author         ID
       rms   OT_Error      Smajor Sminor Az        Err   mdist  Mdist     Err        Err        Err      Quality

2013/05/29 21:40:13.7     42.8841    -.9663      2.0      17    3 089  Ml 1.7  1  Md 1.5  2              bulletin    300097
                                                                                                         _ldg
      0.60   +-  0.14       3.5    2.0   17.92 +-  0.0    0.28   2.76   +-         +-0.0                 m i ke

PYRENEES
Sta     Dist  EvAz     Phase      Date       Time     TRes  Azim  AzRes  Slow  SRes Def   SNR       Amp   Per   Mag1   Mag2       ID
ETSF  000.30 087.1 m E Pg      2013/05/29 21:40:19.1  -0.5                          T                                        5297208
ETSF  000.30 087.1 m E Sg      2013/05/29 21:40:24.2   0.5                          T               10.9  .28        Md 1.4  5297207
SJPF  000.30 320.4 m E Pg      2013/05/29 21:40:19.6   0.1                          T                                        5297210
SJPF  000.30 320.4 m E Sg      2013/05/29 21:40:24.7   1.1                          T               14.3  .29        Md 1.5  5297209
EPF   000.97 080.9 m E Pg      2013/05/29 21:40:32.4   0.4                          T                                        5297206
EPF   000.97 080.9 m E Sg      2013/05/29 21:40:44.7   0.1                          T                1.6  .19 Ml 1.7         5297205

.
