EVENT     257893
    Date      Time       Latitude Longitude    Depth    Ndef Nsta Gap    Mag1  N    Mag2  N    Mag3  N   Author         ID
       rms   OT_Error      Smajor Sminor Az        Err   mdist  Mdist     Err        Err        Err      Quality

2011/04/02 22:13:04.6     42.2829   -6.7331     20.0 f    98   15 045  Ml 2.6  6                         js067245    257893

      0.79   +-  0.08       1.9    1.4  134.43 +-  0.0    0.34   8.73   +-0.1                            m i ke

SPAIN
Sta     Dist  EvAz     Phase      Date       Time     TRes  Azim  AzRes  Slow  SRes Def   SNR       Amp   Per   Mag1   Mag2       ID
SJPF  004.14 076.6 m E Pn      2011/04/02 22:14:05.3   0.5                          T                                        4669333
SJPF  004.14 076.6 m E Sn      2011/04/02 22:14:49.5  -0.2                          T                                        4669324
SJPF  004.14 076.6 m E Sg      2011/04/02 22:15:14.1  -0.4                          T                2.8  .39 Ml 2.5         4669327
ETSF  004.60 080.2 m E Pn      2011/04/02 22:14:12.0   0.9                          T                                        4669332
ETSF  004.60 080.2 m E Sn      2011/04/02 22:15:00.4  -0.3                          T                                        4669325
ETSF  004.60 080.2 m E Sg      2011/04/02 22:15:28.4  -0.5                          T                2.2  .26 Ml 2.7         4669328
EPF   005.27 079.5 m E Pn      2011/04/02 22:14:21.5   1.3                          T                                        4669331
EPF   005.27 079.5 m E Sn      2011/04/02 22:15:16.8   0.1                          T                                        4669326
EPF   005.27 079.5 m E Sg      2011/04/02 22:15:49.4  -0.3                          T                2.0  .31 Ml 2.7         4669329
LFF   006.04 061.4 m E Pn      2011/04/02 22:14:30.6   0.0                          T                                        4669334
QUIF  006.17 022.9 m E Pn      2011/04/02 22:14:32.4   0.0                          T                                        4669340
QUIF  006.17 022.9 m E Sn      2011/04/02 22:15:37.3  -0.9                          T                 .7  .29 Ml 2.5         4669321
MFF   006.39 045.3 m E Pn      2011/04/02 22:14:35.3  -0.1                          T                                        4669337
ROSF  006.53 020.8 m E Pn      2011/04/02 22:14:36.9  -0.3                          T                                        4669342
SGMF  006.66 024.8 m E Pn      2011/04/02 22:14:38.4  -0.6                          T                                        4669341
RJF   006.69 060.4 m E Pn      2011/04/02 22:14:39.1  -0.4                          T                                        4669335
RJF   006.69 060.4 m E P       2011/04/02 22:14:43.9  -0.5                          T                                        4669336
RJF   006.69 060.4 m E Sn      2011/04/02 22:15:50.3  -0.3                          T                 .9  .27 Ml 2.4         4669322
MTLF  006.67 077.9 m E Pn      2011/04/02 22:14:39.6   0.4                          T                                        4669330
GRR   007.37 032.1 m E Pn      2011/04/02 22:14:48.3  -0.5                          T                                        4669339
TCF   007.56 055.0 m E Pn      2011/04/02 22:14:51.5   0.1                          T                                        4669345
TCF   007.56 055.0 m E Sn      2011/04/02 22:16:11.3  -0.1                          T                                        4669346
LDF   007.84 034.1 m E Pn      2011/04/02 22:14:54.7  -0.4                          T                                        4669338
SMF   008.73 056.4 m E Pn      2011/04/02 22:15:07.0  -0.2                          T                                        4669344
CAF   006.91 064.6 m E Sn      2011/04/02 22:15:55.9   0.0                          T                 .4  .27 Ml 2.4         4669323

.
EVENT     257905
    Date      Time       Latitude Longitude    Depth    Ndef Nsta Gap    Mag1  N    Mag2  N    Mag3  N   Author         ID
       rms   OT_Error      Smajor Sminor Az        Err   mdist  Mdist     Err        Err        Err      Quality

2011/04/02 23:23:23.7     44.0959    6.8934      2.0      12    7 125  Ml 1.3  3  Md 1.6  2              js067245    257905

      0.21   +-  0.08       1.7    1.2   80.58 +-  0.0    0.46   1.42   +-0.1      +-0.0                 m i ke

FRANCE
Sta     Dist  EvAz     Phase      Date       Time     TRes  Azim  AzRes  Slow  SRes Def   SNR       Amp   Per   Mag1   Mag2       ID
SBF   000.46 120.6 m E Pg      2011/04/02 23:23:32.8   0.3                          T                                        4669349
SBF   000.46 120.6 m E Sg      2011/04/02 23:23:38.4  -0.1                          T                3.5  .27        Md 1.6  4669350
FRF   000.56 198.5 m E Pg      2011/04/02 23:23:34.4   0.0                          T                                        4669357
FRF   000.56 198.5 m E Sg      2011/04/02 23:23:41.9   0.1                          T                1.4  .22        Md 1.6  4669358
MBDF  000.64 352.2 m E Pg      2011/04/02 23:23:35.7  -0.2                          T                                        4669355
MBDF  000.64 352.2 m E Sg      2011/04/02 23:23:44.4   0.1                          T                 .9  .24                4669356
LMR   000.81 200.2 m E Pg      2011/04/02 23:23:38.7  -0.3                          T                                        4669351
LMR   000.81 200.2 m E Sg      2011/04/02 23:23:49.7   0.2                          T                 .5  .14                4669352
SMRF  000.96 263.3 m E Pg      2011/04/02 23:23:41.7   0.0                          T                                        4669353
SMRF  000.96 263.3 m E Sg      2011/04/02 23:23:54.6   0.4                          T                1.1  .26 Ml 1.4         4669354
ORIF  001.10 318.9 m E Sg      2011/04/02 23:23:58.8   0.3                          T                 .6  .22 Ml 1.3         4669348
LPL   001.42 355.4 m E Sg      2011/04/02 23:24:09.1   0.1                          T                 .4  .19 Ml 1.3         4669347

.
EVENT     257907
    Date      Time       Latitude Longitude    Depth    Ndef Nsta Gap    Mag1  N    Mag2  N    Mag3  N   Author         ID
       rms   OT_Error      Smajor Sminor Az        Err   mdist  Mdist     Err        Err        Err      Quality

2011/04/03 01:35:15.2     43.4728    7.2467     15.0      11    6 236  Ml 1.5  3  Md 1.9  3              js067245    257907

      0.22   +-  0.14       2.9    1.3  133.29 +-  0.0    0.41   2.06   +-0.2      +-0.0                 m i ke

NEAR SOUTH COAST OF FRANCE
Sta     Dist  EvAz     Phase      Date       Time     TRes  Azim  AzRes  Slow  SRes Def   SNR       Amp   Per   Mag1   Mag2       ID
SBF   000.41 019.3 m E Pg      2011/04/03 01:35:23.6   0.0                          T                                        4669362
SBF   000.41 019.3 m E Sg      2011/04/03 01:35:29.1  -0.2                          T                5.5  .18        Md 1.8  4669363
FRF   000.45 281.6 m E Pg      2011/04/03 01:35:24.0   0.0                          T                                        4669368
FRF   000.45 281.6 m E Sg      2011/04/03 01:35:29.5  -0.7                          T                3.4  .26        Md 1.9  4669369
LMR   000.56 255.8 m E Pg      2011/04/03 01:35:26.0   0.0                          T                                        4669364
LMR   000.56 255.8 m E Pn      2011/04/03 01:35:27.1   0.1                          T                                        4669365
LMR   000.56 255.8 m E Sg      2011/04/03 01:35:33.6   0.1                          T                6.5  .24                4669366
LMR   000.56 255.8 m E Sn      2011/04/03 01:35:35.6   0.1                          T                3.1  .24        Md 1.9  4669367
MBDF  001.30 344.9 m E Sg      2011/04/03 01:35:56.8   0.1                          T                 .6  .28 Ml 1.2         4669359
SMRF  001.31 293.1 m E Sg      2011/04/03 01:35:57.3   0.4                          T                1.8  .30 Ml 1.7         4669361
LPG   002.06 350.2 m E Sg      2011/04/03 01:36:20.4   0.1                          T                 .4  .23 Ml 1.5         4669360

.
EVENT     257908
    Date      Time       Latitude Longitude    Depth    Ndef Nsta Gap    Mag1  N    Mag2  N    Mag3  N   Author         ID
       rms   OT_Error      Smajor Sminor Az        Err   mdist  Mdist     Err        Err        Err      Quality

2011/04/03 02:14:29.1     44.3123    7.2559      2.0      17    9 180  Ml 1.6  7  Md 1.9  2              js067245    257908

      0.31   +-  0.10       2.2    1.1   81.42 +-  0.0    0.47   1.92   +-0.4      +-0.1                 m i ke

NORTHERN ITALY
Sta     Dist  EvAz     Phase      Date       Time     TRes  Azim  AzRes  Slow  SRes Def   SNR       Amp   Per   Mag1   Mag2       ID
SBF   000.47 163.9 m E Pg      2011/04/03 02:14:38.1   0.0                          T                                        4669379
SBF   000.47 163.9 m E Sg      2011/04/03 02:14:44.2  -0.1                          T               12.0  .42        Md 1.9  4669380
MBDF  000.54 320.3 m E Pg      2011/04/03 02:14:39.5  -0.1                          T                                        4669385
MBDF  000.54 320.3 m E Sg      2011/04/03 02:14:47.5   0.8                          T                4.5  .24        Md 1.8  4669386
FRF   000.87 210.6 m E Pg      2011/04/03 02:14:45.1  -0.4                          T                                        4669383
FRF   000.87 210.6 m E Sg      2011/04/03 02:14:56.2  -0.6                          T                4.1  .30 Ml 1.9         4669384
LMR   001.12 209.2 m E Pg      2011/04/03 02:14:50.1   0.2                          T                                        4669381
LMR   001.12 209.2 m E Sg      2011/04/03 02:15:04.0  -0.4                          T                6.7  .20 Ml 2.4         4669382
ORIF  001.15 302.1 m E Pg      2011/04/03 02:14:50.8   0.0                          T                                        4669378
ORIF  001.15 302.1 m E Sg      2011/04/03 02:15:05.4  -0.4                          T                 .8  .20 Ml 1.5         4669371
SMRF  001.26 255.1 m E Pg      2011/04/03 02:14:52.2  -0.4                          T                                        4669375
SMRF  001.26 255.1 m E Sg      2011/04/03 02:15:08.5  -0.3                          T                1.4  .26 Ml 1.7         4669374
LPG   001.24 343.3 m E Pg      2011/04/03 02:14:52.4  -0.2                          T                                        4669376
LPG   001.24 343.3 m E Sg      2011/04/03 02:15:09.1   0.5                          T                 .7  .28 Ml 1.3         4669373
LPL   001.26 343.0 m E Pg      2011/04/03 02:14:52.8  -0.1                          T                                        4669377
LPL   001.26 343.0 m E Sg      2011/04/03 02:15:09.0  -0.2                          T                 .6  .24 Ml 1.3         4669372
VIVF  001.92 287.3 m E Sg      2011/04/03 02:15:29.7   0.0                          T                 .3  .25 Ml 1.3         4669370

.
EVENT     257909
    Date      Time       Latitude Longitude    Depth    Ndef Nsta Gap    Mag1  N    Mag2  N    Mag3  N   Author         ID
       rms   OT_Error      Smajor Sminor Az        Err   mdist  Mdist     Err        Err        Err      Quality

2011/04/03 02:43:40.5     44.3071   10.4746      2.0      20   10 181  Ml 2.1  6                         js067245    257909

      0.38   +-  0.20       5.0    2.4   59.04 +-  0.0    0.12   4.76   +-0.3                            m i ke

NORTHERN ITALY
Sta     Dist  EvAz     Phase      Date       Time     TRes  Azim  AzRes  Slow  SRes Def   SNR       Amp   Per   Mag1   Mag2       ID
PGF   002.06 211.9 m E Pn      2011/04/03 02:44:14.5   0.0                          T                                        4669395
PGF   002.06 211.9 m E Sn      2011/04/03 02:44:39.0  -0.3                          T                2.0  .32 Ml 2.3         4669387
SBF   002.23 259.6 m E Pn      2011/04/03 02:44:17.2   0.3                          T                                        4669407
SBF   002.23 259.6 m E Sn      2011/04/03 02:44:42.8  -0.6                          T                7.3  .50 Ml 2.4         4669388
MBDF  002.68 280.3 m E Pn      2011/04/03 02:44:24.0   1.0                          T                                        4669402
MBDF  002.68 280.3 m E Sn      2011/04/03 02:44:54.4   0.2                          T                 .7  .26 Ml 1.8         4669392
FRF   002.86 256.2 m E Pn      2011/04/03 02:44:24.9  -0.4                          T                                        4669405
FRF   002.86 256.2 m E Sn      2011/04/03 02:44:58.3   0.0                          T                 .8  .16 Ml 2.1         4669389
LPL   002.92 295.8 m E Pn      2011/04/03 02:44:26.4   0.0                          T                                        4669408
LPL   002.92 295.8 m E P       2011/04/03 02:44:29.4   0.1                          T                                        4669404
LPL   002.92 295.8 m E Sn      2011/04/03 02:45:00.4   0.4                          T                 .7  .30 Ml 1.8         4669391
LMR   003.03 252.7 m E Pn      2011/04/03 02:44:27.1  -0.5                          T                                        4669406
LMR   003.03 252.7 m E Sn      2011/04/03 02:45:02.3   0.0                          T                 .7  .25 Ml 1.9         4669390
ORIF  003.34 282.2 m E Pn      2011/04/03 02:44:32.2   0.3                          T                                        4669397
ORIF  003.34 282.2 m E P       2011/04/03 02:44:35.3   0.3                          T                                        4669403
SMRF  003.54 266.3 m E Pn      2011/04/03 02:44:34.9   0.3                          T                                        4669396
CABF  003.85 308.3 m E P       2011/04/03 02:44:41.8  -0.5                          T                                        4669393
LASF  004.76 269.5 m E Pn      2011/04/03 02:44:51.5   0.2                          T                                        4669394

.
EVENT     257914
    Date      Time       Latitude Longitude    Depth    Ndef Nsta Gap    Mag1  N    Mag2  N    Mag3  N   Author         ID
       rms   OT_Error      Smajor Sminor Az        Err   mdist  Mdist     Err        Err        Err      Quality

2011/04/03 04:27:06.7     42.3800    1.6545      5.0 f    54    9 027  Ml 2.3 10  Md 2.4  2              js067245    257914

      0.45   +-  0.04        .9     .8    5.96 +-  0.0    0.10   3.31   +-0.3      +-0.0                 m i ke

PYRENEES
Sta     Dist  EvAz     Phase      Date       Time     TRes  Azim  AzRes  Slow  SRes Def   SNR       Amp   Per   Mag1   Mag2       ID
MTLF  001.05 023.1 m E Pn      2011/04/03 04:27:26.8   0.3                          T                                        4670374
MTLF  001.05 023.1 m E Pg      2011/04/03 04:27:27.3   1.0                          T                                        4670375
MTLF  001.05 023.1 m E Sg      2011/04/03 04:27:40.1   0.2                          T                8.0  .24 Ml 2.4 Md 2.5  4670378
EPF   001.17 304.3 m E Pn      2011/04/03 04:27:27.9  -0.3                          T                                        4670373
EPF   001.17 304.3 m E Pg      2011/04/03 04:27:29.7   1.0                          T                                        4670376
EPF   001.17 304.3 m E Sg      2011/04/03 04:27:44.5   0.8                          T                6.1  .18 Ml 2.4 Md 2.4  4670379
ETSF  001.71 288.3 m E Pn      2011/04/03 04:27:35.4  -0.2                          T                                        4670399
ETSF  001.71 288.3 m E Pg      2011/04/03 04:27:38.7   0.0                          T                                        4670400
ETSF  001.71 288.3 m E Sn      2011/04/03 04:27:56.5  -0.1                          T                                        4670390
ETSF  001.71 288.3 m E Sg      2011/04/03 04:28:01.3   0.4                          T                9.3  .29 Ml 2.6         4670381
LASF  002.34 042.8 m E Pn      2011/04/03 04:27:45.4   1.3                          T                                        4670372
LASF  002.34 042.8 m E Pg      2011/04/03 04:27:50.3   0.1                          T                                        4670377
LASF  002.34 042.8 m E Sn      2011/04/03 04:28:11.5   0.0                          T                                        4670389
LASF  002.34 042.8 m E Sg      2011/04/03 04:28:21.2   0.9                          T                2.7  .26 Ml 2.3         4670380
CAF   002.56 006.5 m E Pn      2011/04/03 04:27:47.2   0.1                          T                                        4670396
CAF   002.56 006.5 m E Pg      2011/04/03 04:27:54.4   0.1                          T                                        4670397
CAF   002.56 006.5 m E Sn      2011/04/03 04:28:16.8  -0.1                          T                                        4670391
CAF   002.56 006.5 m E Sg      2011/04/03 04:28:27.3   0.0                          T                3.3  .34 Ml 2.3         4670382
SJPF  002.24 290.0 m E Pg      2011/04/03 04:27:48.3  -0.1                          T                                        4670398
SJPF  002.24 290.0 m E Sg      2011/04/03 04:28:18.2   0.9                          T                4.6  .35 Ml 2.4         4670383
LFF   002.64 345.8 m E Pg      2011/04/03 04:27:55.5  -0.2                          T                                        4670395
LFF   002.64 345.8 m E Sn      2011/04/03 04:28:18.5  -0.2                          T                                        4670392
LFF   002.64 345.8 m E Sg      2011/04/03 04:28:29.8   0.1                          T                1.4  .25 Ml 1.9         4670386
RJF   002.93 358.1 m E Pg      2011/04/03 04:28:00.6  -0.4                          T                                        4670394
RJF   002.93 358.1 m E Sn      2011/04/03 04:28:25.4   0.0                          T                                        4670393
RJF   002.93 358.1 m E Sg      2011/04/03 04:28:38.7   0.1                          T                 .9  .15 Ml 1.8         4670387
VIVF  003.31 040.5 m E Sg      2011/04/03 04:28:50.5   0.1                          T                 .8  .24 Ml 2.0         4670388

.
