EVENT     261007
    Date      Time       Latitude Longitude    Depth    Ndef Nsta Gap    Mag1  N    Mag2  N    Mag3  N   Author         ID
       rms   OT_Error      Smajor Sminor Az        Err   mdist  Mdist     Err        Err        Err      Quality

2011/07/03 15:43:44.5     44.8396    7.6547      2.0 f    13    7 232  Ml 1.7  6  Md 1.9  1              js067245    261007

      0.29   +-  0.21       4.2    1.8   72.48 +-  0.0    0.64   2.12   +-0.2      +-                    m i ke

NORTHERN ITALY
Sta     Dist  EvAz     Phase      Date       Time     TRes  Azim  AzRes  Slow  SRes Def   SNR       Amp   Per   Mag1   Mag2       ID
MBDF  000.64 260.2 m E Pg      2011/07/03 15:43:58.0   1.2                          T                                        4715477
MBDF  000.64 260.2 m E Sg      2011/07/03 15:44:05.8   0.6                          T                7.8  .18        Md 1.9  4715476
LPG   000.92 316.2 m E Pg      2011/07/03 15:44:02.0  -0.1                          T                                        4719984
LPG   000.92 316.2 m E Sg      2011/07/03 15:44:13.4  -0.6                          T                1.9  .22 Ml 1.7         4719981
LPL   000.94 316.4 m E Pg      2011/07/03 15:44:02.7   0.3                          T                                        4719986
LPL   000.94 316.4 m E Sg      2011/07/03 15:44:14.2  -0.4                          T                3.6  .28 Ml 1.9         4719982
SBF   000.99 189.2 m E Pg      2011/07/03 15:44:03.1   0.0                          T                                        4719989
SBF   000.99 189.2 m E Sg      2011/07/03 15:44:15.7  -0.2                          T                2.6  .22 Ml 1.9         4719990
ORIF  001.26 274.2 m E Pg      2011/07/03 15:44:08.2   0.0                          T                                        4719985
ORIF  001.26 274.2 m E Sg      2011/07/03 15:44:24.2  -0.3                          T                1.7  .32 Ml 1.7         4719983
FRF   001.47 209.9 m E Pg      2011/07/03 15:44:10.7  -1.2                          T                                        4719987
FRF   001.47 209.9 m E Sn      2011/07/03 15:44:28.8  -0.1                          T                 .8  .21 Ml 1.7         4719988
VIVF  002.12 271.5 m E Sn      2011/07/03 15:44:44.6   0.0                          T                 .5  .26 Ml 1.5         4719980

.
EVENT     260990
    Date      Time       Latitude Longitude    Depth    Ndef Nsta Gap    Mag1  N    Mag2  N    Mag3  N   Author         ID
       rms   OT_Error      Smajor Sminor Az        Err   mdist  Mdist     Err        Err        Err      Quality

2011/07/03 16:46:22.4     47.3364   -2.1130      2.0      28   11 181  Ml 2.6 14  Md 2.6  3              js067245    260990

      1.67   +-  0.19       4.5    2.1   33.87 +-  0.0    0.92   3.77   +-0.2      +-0.0                 m i ke

FRANCE
Sta     Dist  EvAz     Phase      Date       Time     TRes  Azim  AzRes  Slow  SRes Def   SNR       Amp   Per   Mag1   Mag2       ID
QUIF  000.92 309.6 m E Pg      2011/07/03 16:46:39.4  -0.2                          T                                        4715487
QUIF  000.92 309.6 m E Pn      2011/07/03 16:46:40.7   0.0                          T                                        4720001
QUIF  000.92 309.6 m E Sg      2011/07/03 16:46:51.0  -0.6                          T                7.5  .19 Ml 2.4 Md 2.6  4715481
SGMF  000.97 342.1 m E Pn      2011/07/03 16:46:40.7  -0.7                          T                                        4720000
SGMF  000.97 342.1 m E Pg      2011/07/03 16:46:40.9   0.3                          T                                        4715488
SGMF  000.97 342.1 m E Sg      2011/07/03 16:46:52.8  -0.3                          T               14.0  .18 Ml 2.7 Md 2.6  4715482
ROSF  001.27 322.4 m E Pn      2011/07/03 16:46:45.1  -0.4                          T                                        4720002
ROSF  001.27 322.4 m E Pg      2011/07/03 16:46:46.2   0.1                          T                                        4715489
ROSF  001.27 322.4 m E Sg      2011/07/03 16:47:02.0  -0.6                          T                7.6  .18 Ml 2.6 Md 2.6  4715483
GRR   001.35 038.3 m E Pn      2011/07/03 16:46:47.0   0.4                          T                                        4720003
GRR   001.35 038.3 m E Pg      2011/07/03 16:46:48.0   0.4                          T                                        4715485
GRR   001.35 038.3 m E Sg      2011/07/03 16:47:04.7  -0.3                          T                9.4  .20 Ml 2.5         4715479
MFF   001.53 117.9 m E Pg      2011/07/03 16:46:51.5   0.5                          T                                        4715484
MFF   001.53 117.9 m E Sg      2011/07/03 16:47:10.9   0.1                          T               12.5  .18 Ml 3.1         4715478
FLN   001.80 036.9 m E Pn      2011/07/03 16:46:53.2   0.5                          T                                        4720004
FLN   001.80 036.9 m E Pg      2011/07/03 16:46:55.7  -0.2 213.8  -4.3              T                                        4715538
FLN   001.80 036.9 m E Sg      2011/07/03 16:47:18.1  -1.0 197.9  -20.2             T                5.9  .18 Ml 2.5         4715537
LDF   001.84 046.0 m E Pn      2011/07/03 16:46:53.6   0.3                          T                                        4720005
LDF   001.84 046.0 m E Pg      2011/07/03 16:46:56.2  -0.4                          T                                        4715486
LDF   001.84 046.0 m E Sg      2011/07/03 16:47:19.5  -0.7                          T                5.1  .24 Ml 2.5         4715480
TCF   003.15 107.9 m E Sg      2011/07/03 16:47:59.2  -2.1                          T                6.1  .40 Ml 2.7         4719993
RJF   003.23 127.6 m E Sg      2011/07/03 16:48:03.5  -0.4                          T                3.5  .26 Ml 2.3         4719994
BGF   003.49 101.1 m E Sg      2011/07/03 16:48:11.7   0.0                          T               12.0  .44 Ml 3.0         4719992
CAF   003.77 128.2 m E Sg      2011/07/03 16:48:20.5  -0.3                          T                2.4  .26 Ml 2.6         4719991

.
EVENT     261008
    Date      Time       Latitude Longitude    Depth    Ndef Nsta Gap    Mag1  N    Mag2  N    Mag3  N   Author         ID
       rms   OT_Error      Smajor Sminor Az        Err   mdist  Mdist     Err        Err        Err      Quality

2011/07/03 19:26:03.2     49.0365    9.3490     15.4      16    5 060  Ml 1.9  4                         js067245    261008

      0.50   +-  0.08       1.5    1.3  143.83 +-  1.0    0.29   2.25   +-0.1                            m i ke

GERMANY
Sta     Dist  EvAz     Phase      Date       Time     TRes  Azim  AzRes  Slow  SRes Def   SNR       Amp   Per   Mag1   Mag2       ID
LANF  001.02 267.4 m E Pn      2011/07/03 19:26:21.5   0.1                          T                                        4720013
LANF  001.02 267.4 m E Sg      2011/07/03 19:26:35.7   0.0                          T                1.5  .15 Ml 1.8         4720007
CDF   001.51 246.3 m E Pg      2011/07/03 19:26:31.4   0.0                          T                                        4720012
CDF   001.51 246.3 m E Sg      2011/07/03 19:26:51.0   0.0                          T                1.2  .25 Ml 1.8         4720008
HINF  002.06 234.6 m E Pg      2011/07/03 19:26:41.6   0.0                          T                                        4720011
HINF  002.06 234.6 m E Sg      2011/07/03 19:27:08.1  -0.1                          T                1.5  .22 Ml 2.0         4720010
RUP   001.64 294.9 m E Sg      2011/07/03 19:26:55.0   0.0                          T                                        4720006
HAU   002.25 243.8 m E Sg      2011/07/03 19:27:13.9   0.0                          T                2.2  .31 Ml 1.9         4720009

.
EVENT     260982
    Date      Time       Latitude Longitude    Depth    Ndef Nsta Gap    Mag1  N    Mag2  N    Mag3  N   Author         ID
       rms   OT_Error      Smajor Sminor Az        Err   mdist  Mdist     Err        Err        Err      Quality

2011/07/04 00:45:08.3     43.0260     .1487      2.0      35    7 092  Ml 1.8  5  Md 2.3  2              js067245    260982

      0.73   +-  0.12       2.3    2.0    3.11 +-  0.0    0.14   2.48   +-0.1      +-0.1                 m i ke

FRANCE
Sta     Dist  EvAz     Phase      Date       Time     TRes  Azim  AzRes  Slow  SRes Def   SNR       Amp   Per   Mag1   Mag2       ID
EPF   000.14 088.2 m E Pg      2011/07/04 00:45:11.1  -0.2                          T                                        4715491
EPF   000.14 088.2 m E Sg      2011/07/04 00:45:13.1  -0.2                          T               35.0  .18        Md 2.4  4715490
ETSF  000.54 256.5 m E Pg      2011/07/04 00:45:17.6  -1.0                          T                                        4715550
ETSF  000.54 256.5 m E Sg      2011/07/04 00:45:25.3  -0.3                          T                7.1  .28        Md 2.2  4715547
SJPF  001.01 275.4 m E Pg      2011/07/04 00:45:29.8   2.6                          T                                        4715548
SJPF  001.01 275.4 m E Sg      2011/07/04 00:45:39.7  -0.6                          T                1.8  .26 Ml 1.7         4715546
MTLF  001.55 077.5 m E Pg      2011/07/04 00:45:36.7  -0.4                          T                                        4715549
MTLF  001.55 077.5 m E Sg      2011/07/04 00:45:56.5  -0.6                          T                1.7  .24 Ml 1.9         4715545
LFF   001.96 012.4 m E Pg      2011/07/04 00:45:45.0   0.3                          T                                        4715542
LFF   001.96 012.4 m E Sg      2011/07/04 00:46:10.2   0.2                          T                3.2  .37 Ml 2.0         4715541
CAF   002.35 035.4 m E Pg      2011/07/04 00:45:52.2   0.3                          T                                        4715544
CAF   002.35 035.4 m E Sg      2011/07/04 00:46:22.2   0.0                          T                1.3  .29 Ml 1.9         4715539
RJF   002.48 022.9 m E Pg      2011/07/04 00:45:54.1  -0.2                          T                                        4715543
RJF   002.48 022.9 m E Sg      2011/07/04 00:46:25.3  -0.9                          T                1.4  .24 Ml 1.8         4715540

.
EVENT     260983
    Date      Time       Latitude Longitude    Depth    Ndef Nsta Gap    Mag1  N    Mag2  N    Mag3  N   Author         ID
       rms   OT_Error      Smajor Sminor Az        Err   mdist  Mdist     Err        Err        Err      Quality

2011/07/04 01:12:58.2     42.5820    1.2381     10.0 f    19    3 090  Ml 1.6  2  Md 1.9  1              js067245    260983

      0.43   +-  0.09       2.0    1.4    9.32 +-  0.0    0.02   1.84   +-0.4      +-                    m i ke

PYRENEES
Sta     Dist  EvAz     Phase      Date       Time     TRes  Azim  AzRes  Slow  SRes Def   SNR       Amp   Per   Mag1   Mag2       ID
EPF   000.80 304.4 m E Pg      2011/07/04 01:13:12.8  -0.6                          T                                        4720018
EPF   000.80 304.4 m E Sg      2011/07/04 01:13:22.9  -0.9                          T                3.0  .30        Md 1.9  4720019
MTLF  001.05 043.1 m E Pg      2011/07/04 01:13:18.1   0.3                          T                                        4720016
MTLF  001.05 043.1 m E Sg      2011/07/04 01:13:31.5   0.1                          T                 .7  .22 Ml 1.3         4720017
ETSF  001.36 284.0 m E Pg      2011/07/04 01:13:23.8   0.0                          T                                        4720014
ETSF  001.36 284.0 m E Sg      2011/07/04 01:13:41.0  -0.4                          T                1.9  .26 Ml 1.8         4720015

.
EVENT     261012
    Date      Time       Latitude Longitude    Depth    Ndef Nsta Gap    Mag1  N    Mag2  N    Mag3  N   Author         ID
       rms   OT_Error      Smajor Sminor Az        Err   mdist  Mdist     Err        Err        Err      Quality

2011/07/04 04:44:29.7     46.3363   12.9773     10.0 f    49   20 087  Ml 3.0 13  Md 3.0  5              js067245    261012

      1.15   +-  0.14       4.7    2.7    8.36 +-  0.0    0.23   7.46   +-0.3      +-0.1                 m i ke

NORTHERN ITALY
Sta     Dist  EvAz     Phase      Date       Time     TRes  Azim  AzRes  Slow  SRes Def   SNR       Amp   Per   Mag1   Mag2       ID
CDF   004.39 300.3 m E Pn      2011/07/04 04:45:34.8   0.2                          T                                        4716171
CDF   004.39 300.3 m E Sn      2011/07/04 04:46:22.4  -0.3                          T                4.8  .38 Ml 2.9 Md 2.9  4716162
CDF   004.39 300.3 m E Sg      2011/07/04 04:46:46.1  -1.4                          T                7.4  .52 Ml 3.0         4720022
LANF  004.38 309.0 m E Pn      2011/07/04 04:45:35.0   0.7                          T                                        4716170
LANF  004.38 309.0 m E Sn      2011/07/04 04:46:23.9   1.5                          T                                Md 3.0  4716161
HINF  004.44 291.7 m E Pn      2011/07/04 04:45:35.7   0.6                          T                                        4716168
HINF  004.44 291.7 m E Sn      2011/07/04 04:46:24.2   0.5                          T               10.9  .33 Ml 3.3 Md 2.9  4716164
MBDF  004.65 252.0 m E Pn      2011/07/04 04:45:37.7  -0.3                          T                                        4720035
MBDF  004.65 252.0 m E Sn      2011/07/04 04:46:29.1   0.2                          T                2.6  .30 Ml 2.7         4720024
LPL   004.43 261.6 m E P       2011/07/04 04:45:38.3  -0.8                          T                                        4720033
LPL   004.43 261.6 m E Sn      2011/07/04 04:46:24.5   0.6                          T                3.0  .45 Ml 2.6         4720025
LPG   004.43 261.3 m E P       2011/07/04 04:45:38.4  -0.6                          T                                        4720032
CABF  004.77 275.8 m E Pn      2011/07/04 04:45:40.8   1.2                          T                                        4716167
HAU   004.82 292.7 m E Pn      2011/07/04 04:45:40.9   0.6                          T                                        4716169
HAU   004.82 292.7 m E Sn      2011/07/04 04:46:32.6  -0.2                          T               18.0  .60 Ml 3.1 Md 2.9  4716163
SBF   004.64 239.8 m E P       2011/07/04 04:45:41.5  -0.3                          T                                        4720030
SBF   004.64 239.8 m E Sn      2011/07/04 04:46:29.0   0.5                          T               17.7  .30 Ml 3.6         4720028
FRF   005.28 240.6 m E Pn      2011/07/04 04:45:46.8   0.3                          T                                        4720031
FRF   005.28 240.6 m E Sn      2011/07/04 04:46:44.3   0.5                          T                1.7  .29 Ml 2.7         4720026
ORIF  005.18 256.7 m E P       2011/07/04 04:45:48.6  -0.8                          T                                        4720034
SFTF  005.72 292.0 m E Pn      2011/07/04 04:45:52.1  -0.4                          T                                        4720038
VIVF  006.01 258.7 m E Pn      2011/07/04 04:45:56.2  -0.3                          T                                        4720036
LOR   006.33 281.8 m E Pn      2011/07/04 04:46:00.4  -0.4 103.6  8.4               T                                        4720040
LOR   006.33 281.8 m E Sn      2011/07/04 04:47:09.6   0.7                          T                2.7  .32 Ml 3.1         4720021
SMF   006.32 276.1 m E Pn      2011/07/04 04:46:01.3   0.7                          T                                        4716165
SMF   006.32 276.1 m E Sn      2011/07/04 04:47:08.4  -0.2                          T                2.3  .41 Ml 2.9 Md 3.2  4716160
AVF   006.65 277.4 m E Pn      2011/07/04 04:46:06.0   0.9                          T                                        4716166
BGF   007.00 275.5 m E Pn      2011/07/04 04:46:10.3   0.3                          T                                        4720037
BGF   007.00 275.5 m E Sn      2011/07/04 04:47:25.4   0.4                          T                5.6  .30 Ml 3.5         4720023
TCF   007.46 273.5 m E Pn      2011/07/04 04:46:16.1  -0.1                          T                                        4720039
PGF   004.74 218.4 m E Sn      2011/07/04 04:46:31.4   0.4                          T                2.6  .29 Ml 3.0         4720029
LMR   005.49 239.2 m E Sn      2011/07/04 04:46:48.7  -0.1                          T                3.1  .36 Ml 2.9         4720027

.
EVENT     261014
    Date      Time       Latitude Longitude    Depth    Ndef Nsta Gap    Mag1  N    Mag2  N    Mag3  N   Author         ID
       rms   OT_Error      Smajor Sminor Az        Err   mdist  Mdist     Err        Err        Err      Quality

2011/07/04 07:03:28.1     47.6255    7.6742     16.5      15    5 124  Ml 2.1  3  Md 1.6  1              js067245    261014

      0.26   +-  0.06       1.1     .7  175.60 +-  0.8    0.31   1.60   +-0.5      +-                    m i ke

SWITZERLAND
Sta     Dist  EvAz     Phase      Date       Time     TRes  Azim  AzRes  Slow  SRes Def   SNR       Amp   Per   Mag1   Mag2       ID
HINF  000.59 289.3 m E Pg      2011/07/04 07:03:39.5  -0.1                          T                                        4720048
HINF  000.59 289.3 m E Sg      2011/07/04 07:03:47.4  -0.1                          T                7.1  .24        Md 1.6  4720041
CDF   000.83 341.4 m E Pg      2011/07/04 07:03:43.9  -0.2                          T                                        4720046
CDF   000.83 341.4 m E Sg      2011/07/04 07:03:55.3   0.2                          T                2.1  .20                4720044
HAU   000.97 293.5 m E Pg      2011/07/04 07:03:46.5   0.0                          T                                        4720047
HAU   000.97 293.5 m E Sg      2011/07/04 07:03:59.3   0.0                          T               17.0  .30 Ml 2.3         4720042
THEF  001.28 298.7 m E Pg      2011/07/04 07:03:52.3   0.1                          T                                        4720045
THEF  001.28 298.7 m E Sg      2011/07/04 07:04:09.0   0.1                          T                7.6  .25 Ml 2.4         4720043
PAGF  001.60 306.2 m E Pg      2011/07/04 07:03:58.1   0.0                          T                                        4720049
PAGF  001.60 306.2 m E Sg      2011/07/04 07:04:18.7  -0.2                          T                 .9  .33 Ml 1.5         4720050

.
