EVENT     265803
    Date      Time       Latitude Longitude    Depth    Ndef Nsta Gap    Mag1  N    Mag2  N    Mag3  N   Author         ID
       rms   OT_Error      Smajor Sminor Az        Err   mdist  Mdist     Err        Err        Err      Quality

2011/10/29 23:31:43.3     45.7011   -3.2911      5.0 f    66   22 210  Ml 2.9 24  Md 3.1  2              js067245    265823

      0.54   +-  0.11       2.2    1.3   67.90 +-  0.0    2.22   6.67   +-0.2      +-0.1                 m i ke

BAY OF BISCAY
Sta     Dist  EvAz     Phase      Date       Time     TRes  Azim  AzRes  Slow  SRes Def   SNR       Amp   Per   Mag1   Mag2       ID
QUIF  002.22 002.2 m E Pn      2011/10/29 23:32:19.4   0.5                          T   001.0                                4779333
QUIF  002.22 002.2 m E Pg      2011/10/29 23:32:24.3  -0.2                          T                                        4780181
QUIF  002.22 002.2 m E Sn      2011/10/29 23:32:43.0  -2.1                          T   001.0         25  .24 Ml 3.3         4779334
QUIF  002.22 002.2 m E Sg      2011/10/29 23:32:52.5  -0.5                          T               25.6  .24 Ml 3.3 Md 3.0  4780166
MFF   002.36 066.5 m E Pn      2011/10/29 23:32:21.3   0.3                          T   001.0                                4779321
MFF   002.36 066.5 m E Pg      2011/10/29 23:32:27.2   0.0                          T                                        4780179
MFF   002.36 066.5 m E Sn      2011/10/29 23:32:48.8   0.2                          T   001.0                                4779322
MFF   002.36 066.5 m E Sg      2011/10/29 23:32:57.3  -0.3                          T   001.0        8.8  .20 Ml 3.1 Md 3.1  4779323
SGMF  002.60 010.9 m E P       2011/10/29 23:32:26.7  -0.2                          T                                        4780161
SGMF  002.60 010.9 m E Pg      2011/10/29 23:32:31.4  -0.2                          T   001.0                                4779338
SGMF  002.60 010.9 m E Sg      2011/10/29 23:33:04.9  -0.1                          T   001.0       19.3  .40 Ml 3.0         4779340
SJPF  002.98 149.5 m E Pn      2011/10/29 23:32:28.6  -0.8                          T   001.0                                4779341
SJPF  002.98 149.5 m E P       2011/10/29 23:32:31.9  -0.4                          T                                        4780176
SJPF  002.98 149.5 m E Sn      2011/10/29 23:33:02.9  -0.5                          T                2.9  .21 Ml 2.6         4780452
LFF   002.94 103.6 m E Pn      2011/10/29 23:32:29.4   0.6                          T   001.0                                4779320
LFF   002.94 103.6 m E Pg      2011/10/29 23:32:38.2   0.3                          T                                        4780177
LFF   002.94 103.6 m E Sg      2011/10/29 23:33:15.7   0.0                          T               10.7  .26 Ml 2.9         4780163
ROSF  002.64 000.3 m E Pg      2011/10/29 23:32:32.0  -0.2                          T                                        4780182
ROSF  002.64 000.3 m E Sg      2011/10/29 23:33:05.2  -0.9                          T   001.0       16.7  .30 Ml 3.1         4779336
ETSF  003.42 144.0 m E Pn      2011/10/29 23:32:35.3  -0.1                          T   001.0                                4779331
ETSF  003.42 144.0 m E Sn      2011/10/29 23:33:14.2   0.2                          T                                        4780158
RJF   003.40 095.0 m E Pn      2011/10/29 23:32:35.4   0.3                          T   001.0                                4779301
RJF   003.40 095.0 m E Pg      2011/10/29 23:32:45.4  -0.9                          T                                        4780178
RJF   003.40 095.0 m E Sg      2011/10/29 23:33:29.7  -0.4                          T   001.0        9.8  .24 Ml 2.8         4779302
FLN   003.61 031.0 m E Pn      2011/10/29 23:32:38.4   0.5 210.8  -2.2              T   001.0                                4779312
FLN   003.61 031.0 m E Sg      2011/10/29 23:33:34.6  -1.9 212.8  -0.2              T   001.0       11.2  .40 Ml 2.9         4779313
LDF   003.61 035.6 m E Pn      2011/10/29 23:32:39.0   1.1                          T   001.0                                4779317
LDF   003.61 035.6 m E Sn      2011/10/29 23:33:18.1  -0.3                          T   001.0                                4779318
LDF   003.61 035.6 m E Sg      2011/10/29 23:33:36.1  -0.4                          T   001.0        4.3  .24 Ml 2.8         4779319
EPF   003.73 134.4 m E Pn      2011/10/29 23:32:39.5  -0.1                          T   001.0                                4779311
EPF   003.73 134.4 m E Sn      2011/10/29 23:33:21.1  -0.2                          T                                        4780451
EPF   003.73 134.4 m E Sg      2011/10/29 23:33:41.1   0.8                          T                3.3  .20 Ml 2.8         4780450
CAF   003.86 099.7 m E Pn      2011/10/29 23:32:41.5   0.2                          T   001.0                                4779309
CAF   003.86 099.7 m E Sn      2011/10/29 23:33:24.6   0.2                          T                                        4780162
CAF   003.86 099.7 m E Sg      2011/10/29 23:33:43.5  -0.8                          T   001.0        3.8  .20 Ml 2.9         4779310
TCF   003.88 079.3 m E Pn      2011/10/29 23:32:41.8   0.1                          T   001.0                                4779327
TCF   003.88 079.3 m E P       2011/10/29 23:32:45.1   0.1                          T                                        4780159
TCF   003.88 079.3 m E Sn      2011/10/29 23:33:25.4   0.6                          T                                        4780160
TCF   003.88 079.3 m E Sg      2011/10/29 23:33:44.2  -0.7                          T   001.0        5.7  .26 Ml 3.0         4779328
GRR   003.16 030.9 m E Pg      2011/10/29 23:32:41.9   0.1                          T                                        4780180
GRR   003.16 030.9 m E Sn      2011/10/29 23:33:07.0  -0.6                          T   001.0                                4779314
GRR   003.16 030.9 m E Sg      2011/10/29 23:33:21.1  -1.4                          T   001.0        3.2  .16 Ml 2.6         4779315
BGF   004.35 076.5 m E Pn      2011/10/29 23:32:48.3   0.2                          T   001.0                                4779306
BGF   004.35 076.5 m E Sn      2011/10/29 23:33:35.3  -0.8                          T   001.0                                4779307
BGF   004.35 076.5 m E Sg      2011/10/29 23:33:59.6  -0.1                          T   001.0       19.1  .49 Ml 3.3         4779308
MTLF  004.59 119.0 m E Pn      2011/10/29 23:32:50.7  -0.6                          T   001.0                                4779332
MTLF  004.59 119.0 m E Pg      2011/10/29 23:33:08.0  -0.3                          T                                        4780167
MTLF  004.59 119.0 m E Sn      2011/10/29 23:33:40.8  -1.1                          T                2.1  .26 Ml 2.7         4780449
AVF   004.74 074.3 m E Pn      2011/10/29 23:32:53.5   0.3                          T   001.0                                4779303
AVF   004.74 074.3 m E Sn      2011/10/29 23:33:44.2  -1.1                          T   001.0                                4779304
AVF   004.74 074.3 m E Sg      2011/10/29 23:34:12.3   0.7                          T   001.0        4.6  .48 Ml 2.8         4779305
SSF   004.90 071.4 m E Pn      2011/10/29 23:32:55.0  -0.4                          T   001.0                                4779326
LASF  005.33 105.2 m E Pn      2011/10/29 23:33:01.0   0.6                          T   001.0                                4779316
BAIF  006.67 046.4 m E Pn      2011/10/29 23:33:19.9   0.4                          T   001.0                                4779329
BAIF  006.67 046.4 m E Sn      2011/10/29 23:34:31.3  -0.1                          T   001.0          4  .88 Ml 2.9         4779330
SMF   005.04 076.7 m E Sn      2011/10/29 23:33:51.7  -1.0                          T   001.0                                4779324
SMF   005.04 076.7 m E Sg      2011/10/29 23:34:21.3   0.0                          T   001.0        4.8  .40 Ml 3.0         4779325
VIVF  005.68 095.7 m E Sg      2011/10/29 23:34:42.9   1.7                          T   001.0        2.7  .52 Ml 2.7         4779342

.
EVENT     265804
    Date      Time       Latitude Longitude    Depth    Ndef Nsta Gap    Mag1  N    Mag2  N    Mag3  N   Author         ID
       rms   OT_Error      Smajor Sminor Az        Err   mdist  Mdist     Err        Err        Err      Quality

2011/10/29 23:40:41.2     43.0099     .4668      2.0       6    3 187  Ml 1.5  1  Md 1.5  2              js067245    265824

      0.53   +-  0.37      29.3    4.6  173.20 +-  0.0    0.10   1.32   +-         +-0.3                 m i ke

FRANCE
Sta     Dist  EvAz     Phase      Date       Time     TRes  Azim  AzRes  Slow  SRes Def   SNR       Amp   Per   Mag1   Mag2       ID
EPF   000.10 282.4 m E Pg      2011/10/29 23:40:42.8  -0.6                          T                                        4779896
EPF   000.10 282.4 m E Sg      2011/10/29 23:40:45.0   0.1                          T               15.5  .18        Md 1.7  4779895
ETSF  000.76 261.9 m E Pg      2011/10/29 23:40:55.3  -0.3                          T                                        4779893
ETSF  000.76 261.9 m E Sg      2011/10/29 23:41:06.8   1.2                          T                1.3  .31        Md 1.3  4779894
MTLF  001.32 074.9 m E Pg      2011/10/29 23:41:05.9   0.0                          T                                        4779891
MTLF  001.32 074.9 m E Sg      2011/10/29 23:41:23.5   0.5                          T                1.0  .29 Ml 1.5         4779892

.
EVENT     265817
    Date      Time       Latitude Longitude    Depth    Ndef Nsta Gap    Mag1  N    Mag2  N    Mag3  N   Author         ID
       rms   OT_Error      Smajor Sminor Az        Err   mdist  Mdist     Err        Err        Err      Quality

2011/10/30 00:26:28.4     43.1278    -.9846     15.0      27    3 171  Ml 0.8  1  Md 1.3  2              js067245    265837

      0.20   +-  0.07       1.3     .9  163.45 +-  0.0    0.18   0.98   +-         +-0.1                 m i ke

PYRENEES
Sta     Dist  EvAz     Phase      Date       Time     TRes  Azim  AzRes  Slow  SRes Def   SNR       Amp   Per   Mag1   Mag2       ID
SJPF  000.18 265.4 m E Pg      2011/10/30 00:26:33.0   0.2                          T                                        4779444
SJPF  000.18 265.4 m E Sg      2011/10/30 00:26:36.4   0.5                          T                3.4  .23        Md 1.3  4779445
ETSF  000.39 126.1 m E Pg      2011/10/30 00:26:35.6  -0.8                          T                                        4779442
ETSF  000.39 126.1 m E Sg      2011/10/30 00:26:41.2  -0.6                          T                1.3  .16        Md 1.4  4779443
EPF   000.98 095.3 m E Pg      2011/10/30 00:26:46.9  -0.1                          T                                        4779449
EPF   000.98 095.3 m E Sg      2011/10/30 00:26:59.7   0.0                          T                 .2  .19 Ml  .8         4779450

.
EVENT     265818
    Date      Time       Latitude Longitude    Depth    Ndef Nsta Gap    Mag1  N    Mag2  N    Mag3  N   Author         ID
       rms   OT_Error      Smajor Sminor Az        Err   mdist  Mdist     Err        Err        Err      Quality

2011/10/30 01:04:38.5     42.9712   -1.6015      2.0      39    3 106  Ml 1.3  1  Md 1.6  2              js067245    265838

      0.45   +-  0.12       2.0    1.8   38.66 +-  0.0    0.15   1.50   +-         +-0.2                 m i ke

PYRENEES
Sta     Dist  EvAz     Phase      Date       Time     TRes  Azim  AzRes  Slow  SRes Def   SNR       Amp   Per   Mag1   Mag2       ID
SJPF  000.31 062.6 m E Pg      2011/10/30 01:04:44.7   0.1                          T                                        4779497
SJPF  000.31 062.6 m E Sg      2011/10/30 01:04:47.9  -0.8                          T                2.5  .29        Md 1.7  4779498
ETSF  000.77 095.1 m E Pg      2011/10/30 01:04:53.0  -0.1                          T                                        4779495
ETSF  000.77 095.1 m E Sg      2011/10/30 01:05:03.0  -0.1                          T                 .8  .27        Md 1.5  4779496
EPF   001.43 087.0 m E Pg      2011/10/30 01:05:05.3   0.2                          T                                        4779493
EPF   001.43 087.0 m E Sg      2011/10/30 01:05:23.8   0.2                          T                 .5  .22 Ml 1.3         4779494

.
EVENT     265853
    Date      Time       Latitude Longitude    Depth    Ndef Nsta Gap    Mag1  N    Mag2  N    Mag3  N   Author         ID
       rms   OT_Error      Smajor Sminor Az        Err   mdist  Mdist     Err        Err        Err      Quality

2011/10/30 02:15:21.9     47.5959    7.7781     17.5      12    5 085  Ml 1.1  4  Md 1.3  2              js067245    265873

      0.24   +-  0.06       1.0     .8    7.57 +-  0.8    0.12   1.68   +-0.4      +-0.2                 m i ke

SWITZERLAND
Sta     Dist  EvAz     Phase      Date       Time     TRes  Azim  AzRes  Slow  SRes Def   SNR       Amp   Per   Mag1   Mag2       ID
HINF  000.66 289.8 m E Pg      2011/10/30 02:15:34.8   0.0                          T                                        4779501
HINF  000.66 289.8 m E Sg      2011/10/30 02:15:43.6  -0.1                          T                 .5  .20        Md 1.5  4779502
CDF   000.88 337.8 m E Pg      2011/10/30 02:15:38.9   0.0                          T                                        4779499
CDF   000.88 337.8 m E Sg      2011/10/30 02:15:50.6   0.1                          T                 .2  .17 Ml 1.0 Md 1.2  4779500
HAU   001.05 293.6 m E Sg      2011/10/30 02:15:55.4   0.0                          T                  1  .25 Ml 1.2         4779521
CABF  001.52 230.2 m E Sg      2011/10/30 02:16:10.0  -0.1                          T                 .6  .20 Ml 1.5         4779503
PAGF  001.68 305.6 m E Sg      2011/10/30 02:16:14.9  -0.1                          T                 .1  .20 Ml  .6         4779520

.
EVENT     265819
    Date      Time       Latitude Longitude    Depth    Ndef Nsta Gap    Mag1  N    Mag2  N    Mag3  N   Author         ID
       rms   OT_Error      Smajor Sminor Az        Err   mdist  Mdist     Err        Err        Err      Quality

2011/10/30 03:43:56.4     44.5803    8.1064     10.0 f    26   10 207  Ml 2.4 10  Md 2.3  2              js067245    265839

      0.25   +-  0.11       2.0    1.0   72.35 +-  0.0    0.86   2.46   +-0.4      +-0.0                 m i ke

NORTHERN ITALY
Sta     Dist  EvAz     Phase      Date       Time     TRes  Azim  AzRes  Slow  SRes Def   SNR       Amp   Per   Mag1   Mag2       ID
SBF   000.86 214.2 m E Pg      2011/10/30 03:44:12.6  -0.1                          T                                        4779506
SBF   000.86 214.2 m E Sg      2011/10/30 03:44:23.4  -0.7                          T               38.5  .22 Ml 3.0 Md 2.3  4779507
MBDF  000.96 279.2 m E Pg      2011/10/30 03:44:14.9   0.1                          T                                        4779514
MBDF  000.96 279.2 m E Sg      2011/10/30 03:44:27.4   0.1                          T                5.4  .16 Ml 2.3 Md 2.3  4779515
LPG   001.33 314.2 m E Pg      2011/10/30 03:44:21.6   0.0                          T                                        4779527
LPG   001.33 314.2 m E Sg      2011/10/30 03:44:39.1   0.3                          T                3.0  .25 Ml 2.0         4779522
LPL   001.35 314.3 m E Pg      2011/10/30 03:44:22.0   0.1                          T                                        4779528
LPL   001.35 314.3 m E Sg      2011/10/30 03:44:39.7   0.3                          T                3.2  .25 Ml 2.1         4779523
FRF   001.46 226.4 m E Pg      2011/10/30 03:44:23.7   0.0                          T                                        4779511
FRF   001.46 226.4 m E Sg      2011/10/30 03:44:43.2   0.5                          T               12.3  .24 Ml 2.8         4779512
ORIF  001.62 282.8 m E P       2011/10/30 03:44:25.2  -0.3                          T                                        4779533
ORIF  001.62 282.8 m E Pg      2011/10/30 03:44:26.5  -0.3                          T                                        4779532
ORIF  001.62 282.8 m E Sg      2011/10/30 03:44:48.2   0.5                          T                2.8  .25 Ml 2.1         4779513
LMR   001.70 223.3 m E P       2011/10/30 03:44:26.5   0.0                          T                                        4779509
LMR   001.70 223.3 m E Pg      2011/10/30 03:44:27.7  -0.3                          T                                        4779508
LMR   001.70 223.3 m E Sg      2011/10/30 03:44:48.7  -1.3                          T                9.7  .24 Ml 2.7         4779510
PGF   002.13 162.0 m E Pn      2011/10/30 03:44:30.4   0.0                          T                                        4779505
PGF   002.13 162.0 m E Sn      2011/10/30 03:44:55.9   0.5                          T                1.6  .22 Ml 2.3         4779504
SMRF  001.92 252.5 m E Pg      2011/10/30 03:44:32.3   0.2                          T                                        4779526
SMRF  001.92 252.5 m E Sg      2011/10/30 03:44:56.8   0.0                          T                2.3  .23 Ml 2.2         4779525
VIVF  002.46 277.6 m E Pn      2011/10/30 03:44:34.8  -0.1                          T                                        4779531
VIVF  002.46 277.6 m E P       2011/10/30 03:44:37.6   0.1                          T                                        4779530
VIVF  002.46 277.6 m E Pg      2011/10/30 03:44:42.2   0.0                          T                                        4779529
VIVF  002.46 277.6 m E Sn      2011/10/30 03:45:03.2   0.0                          T                 .9  .21 Ml 1.9         4779524

.
