EVENT     268548
    Date      Time       Latitude Longitude    Depth    Ndef Nsta Gap    Mag1  N    Mag2  N    Mag3  N   Author         ID
       rms   OT_Error      Smajor Sminor Az        Err   mdist  Mdist     Err        Err        Err      Quality

2012/01/13 03:15:58.8     44.5037    7.2485     10.0      32    9 119  Ml 1.7  7  Md 1.7  2              js067245    268568

      0.23   +-  0.04        .9     .6   55.52 +-  0.0    0.00   1.87   +-0.2      +-0.3                 m i ke

NORTHERN ITALY
Sta     Dist  EvAz     Phase      Date       Time     TRes  Azim  AzRes  Slow  SRes Def   SNR       Amp   Per   Mag1   Mag2       ID
MBDF  000.41 303.4 m E Pg      2012/01/13 03:16:07.1   0.1                          T                                        4815021
MBDF  000.41 303.4 m E Sg      2012/01/13 03:16:12.0  -0.5                          T                3.8  .20        Md 1.9  4815004
SBF   000.65 168.1 m E Pg      2012/01/13 03:16:11.3   0.0                          T                                        4815014
SBF   000.65 168.1 m E Sg      2012/01/13 03:16:20.1   0.1                          T                1.8  .23        Md 1.5  4815013
FRF   001.04 204.9 m E Pg      2012/01/13 03:16:18.2   0.0                          T                                        4815016
FRF   001.04 204.9 m E Sg      2012/01/13 03:16:31.6  -0.2                          T                3.5  .25 Ml 2.0         4815011
LPG   001.05 340.6 m E Pg      2012/01/13 03:16:18.9  -0.1                          T                                        4815018
LPG   001.05 340.6 m E Sg      2012/01/13 03:16:32.6   0.0                          T                1.8  .23 Ml 1.7         4815009
ORIF  001.06 293.5 m E Pg      2012/01/13 03:16:19.0   0.2                          T                                        4815020
ORIF  001.06 293.5 m E Sn      2012/01/13 03:16:32.0  -0.2                          T                 .7  .18 Ml 1.4         4815007
LPL   001.08 340.3 m E Pg      2012/01/13 03:16:19.4   0.1                          T                                        4815019
LPL   001.08 340.3 m E Sg      2012/01/13 03:16:33.2  -0.1                          T                1.5  .28 Ml 1.6         4815008
LMR   001.29 204.8 m E Pg      2012/01/13 03:16:22.7  -0.1                          T                                        4815015
LMR   001.29 204.8 m E Sg      2012/01/13 03:16:39.5   0.0                          T                1.8  .20 Ml 1.9         4815012
SMRF  001.31 246.9 m E Pg      2012/01/13 03:16:23.3  -0.1                          T                                        4815017
SMRF  001.31 246.9 m E Sg      2012/01/13 03:16:41.2   0.8                          T                3.1  .33 Ml 1.9         4815010
VIVF  001.87 281.8 m E Sn      2012/01/13 03:16:50.9  -0.6                          T                                        4815006
VIVF  001.87 281.8 m E Sg      2012/01/13 03:16:57.5  -0.3                          T                 .7  .30 Ml 1.6         4815005

.
EVENT     268549
    Date      Time       Latitude Longitude    Depth    Ndef Nsta Gap    Mag1  N    Mag2  N    Mag3  N   Author         ID
       rms   OT_Error      Smajor Sminor Az        Err   mdist  Mdist     Err        Err        Err      Quality

2012/01/13 03:18:51.1     44.5083    7.2499     10.0      61   12 085  Ml 2.4  8  Md 2.3  2              js067245    268569

      0.29   +-  0.03        .7     .5   47.28 +-  0.0    0.00   3.71   +-0.3      +-0.1                 m i ke

NORTHERN ITALY
Sta     Dist  EvAz     Phase      Date       Time     TRes  Azim  AzRes  Slow  SRes Def   SNR       Amp   Per   Mag1   Mag2       ID
MBDF  000.41 302.8 m E Pg      2012/01/13 03:18:59.4   0.1                          T   001.0                                4813382
MBDF  000.41 302.8 m E Sg      2012/01/13 03:19:04.4  -0.3                          T   001.0       18.7  .16        Md 2.4  4813383
SBF   000.66 168.3 m E Pg      2012/01/13 03:19:03.8   0.1                          T   001.0                                4813380
SBF   000.66 168.3 m E Sg      2012/01/13 03:19:12.5   0.1                          T               10.6  .21        Md 2.2  4815028
FRF   001.04 204.9 m E Pn      2012/01/13 03:19:10.2   0.0                          T   001.0                                4813369
FRF   001.04 204.9 m E Pg      2012/01/13 03:19:11.0   0.4                          T   001.0                                4813368
FRF   001.04 204.9 m E Sg      2012/01/13 03:19:24.3   0.0                          T   001.0       10.5  .20 Ml 2.6         4813370
LPG   001.05 340.5 m E Pg      2012/01/13 03:19:11.0  -0.1                          T                                        4815024
LPG   001.05 340.5 m E Sn      2012/01/13 03:19:24.7   0.2                          T   001.0        6.6  .20 Ml 2.4         4813376
ORIF  001.06 293.2 m E Pg      2012/01/13 03:19:11.1   0.0                          T   001.0                                4813384
ORIF  001.06 293.2 m E Sn      2012/01/13 03:19:24.2  -0.2                          T   001.0                                4813386
ORIF  001.06 293.2 m E Sg      2012/01/13 03:19:25.0   0.1                          T   001.0        4.2  .16 Ml 2.3         4813387
LPL   001.07 340.2 m E Pg      2012/01/13 03:19:11.2  -0.3                          T                                        4815025
LPL   001.07 340.2 m E Sg      2012/01/13 03:19:25.4   0.0                          T   001.0        5.4  .22 Ml 2.2         4813379
LMR   001.29 204.8 m E Pn      2012/01/13 03:19:13.7   0.2                          T   001.0                                4813372
LMR   001.29 204.8 m E Pg      2012/01/13 03:19:15.2   0.0                          T                                        4815023
LMR   001.29 204.8 m E Sn      2012/01/13 03:19:29.7  -0.1                          T   001.0                                4813374
LMR   001.29 204.8 m E Sg      2012/01/13 03:19:31.0   0.1                          T   001.0       11.5  .20 Ml 2.7         4813373
SMRF  001.32 246.7 m E Pn      2012/01/13 03:19:13.9  -0.1                          T   001.0                                4813390
SMRF  001.32 246.7 m E Pg      2012/01/13 03:19:15.6  -0.1                          T   001.0                                4813391
SMRF  001.32 246.7 m E Sg      2012/01/13 03:19:32.7  -0.1                          T   001.0       21.5  .40 Ml 2.7         4813392
VIVF  001.87 281.6 m E P       2012/01/13 03:19:23.2  -0.5                          T   001.0                                4813388
VIVF  001.87 281.6 m E Pg      2012/01/13 03:19:25.7  -0.2                          T                                        4815022
VIVF  001.87 281.6 m E Sg      2012/01/13 03:19:50.0  -0.1                          T   001.0        2.3  .40 Ml 1.9         4813389
CABF  002.26 339.2 m E P       2012/01/13 03:19:29.4   0.1                          T   001.0                                4813381
LASF  002.47 261.1 m E P       2012/01/13 03:19:32.2  -0.1                          T   001.0                                4813371
BGF   003.71 305.1 m E P       2012/01/13 03:19:49.7  -0.2                          T   001.0                                4813367

.
EVENT     268555
    Date      Time       Latitude Longitude    Depth    Ndef Nsta Gap    Mag1  N    Mag2  N    Mag3  N   Author         ID
       rms   OT_Error      Smajor Sminor Az        Err   mdist  Mdist     Err        Err        Err      Quality

2012/01/13 10:35:47.4     43.4431    2.1132       .0 f    15    7 109  Ml 2.2  6  Md 2.0  1              js067245    268575

      0.60   +-  0.05        .9     .7  145.49 +-  0.0    0.13   2.03   +-0.2      +-                    m i km

FRANCE
Sta     Dist  EvAz     Phase      Date       Time     TRes  Azim  AzRes  Slow  SRes Def   SNR       Amp   Per   Mag1   Mag2       ID
MTLF  000.13 143.2 m E Pg      2012/01/13 10:35:50.3  -0.1                          T                                        4815042
MTLF  000.13 143.2 m E Sg      2012/01/13 10:35:52.5   0.1                          T              111.4  .24        Md 2.0  4815043
EPF   001.36 252.9 m E Pg      2012/01/13 10:36:13.1   0.0                          T                                        4815040
EPF   001.36 252.9 m E Sg      2012/01/13 10:36:30.9   0.0                          T                5.5  .20 Ml 2.4         4815041
LASF  001.41 062.8 m E Pg      2012/01/13 10:36:14.3   0.2                          T                                        4815032
LASF  001.41 062.8 m E Sg      2012/01/13 10:36:32.5   0.0                          T                2.6  .21 Ml 2.1         4815033
CAF   001.48 358.7 m E Pg      2012/01/13 10:36:15.4   0.1                          T                                        4815038
CAF   001.48 358.7 m E Sg      2012/01/13 10:36:34.5  -0.3                          T                3.4  .18 Ml 2.3         4815039
LFF   001.79 327.0 m E Pg      2012/01/13 10:36:20.9  -0.1                          T                                        4815030
LFF   001.79 327.0 m E Sg      2012/01/13 10:36:44.1  -0.2                          T                6.2  .24 Ml 2.4         4815031
ETSF  002.03 255.4 m E Pg      2012/01/13 10:36:25.6   0.1                          T                                        4815036
ETSF  002.03 255.4 m E Sg      2012/01/13 10:36:51.9   0.1                          T                1.8  .27 Ml 2.0         4815037
RJF   001.91 347.3 m E Sg      2012/01/13 10:36:48.0   0.0                          T                2.8  .20 Ml 2.0         4815029

.
EVENT     268557
    Date      Time       Latitude Longitude    Depth    Ndef Nsta Gap    Mag1  N    Mag2  N    Mag3  N   Author         ID
       rms   OT_Error      Smajor Sminor Az        Err   mdist  Mdist     Err        Err        Err      Quality

2012/01/13 14:01:51.7     47.2634   10.8052      2.0      50   13 054  Ml 2.9 11                         js067245    268577

      1.29   +-  0.14       3.7    2.8    8.40 +-  0.0    0.53   5.12   +-0.3                            m i ke

AUSTRIA
Sta     Dist  EvAz     Phase      Date       Time     TRes  Azim  AzRes  Slow  SRes Def   SNR       Amp   Per   Mag1   Mag2       ID
HINF  002.73 283.1 m E Pn      2012/01/13 14:02:34.9   0.1                          T                                        4815063
HINF  002.73 283.1 m E P       2012/01/13 14:02:37.7   0.1                          T                                        4815062
HINF  002.73 283.1 m E Pg      2012/01/13 14:02:42.5   0.0                          T                                        4815061
HINF  002.73 283.1 m E Sg      2012/01/13 14:03:18.4   0.8                          T               21.6  .28 Ml 3.3         4815052
HAU   003.10 285.5 m E Pn      2012/01/13 14:02:39.9   0.1                          T                                        4815065
HAU   003.10 285.5 m E Pg      2012/01/13 14:02:49.0  -0.3                          T                                        4815064
HAU   003.10 285.5 m E Sg      2012/01/13 14:03:29.8   0.7                          T               23.1  .28 Ml 3.1         4815051
LANF  002.64 311.6 m E Pg      2012/01/13 14:02:40.8   0.0                          T                                        4815046
LANF  002.64 311.6 m E Sg      2012/01/13 14:03:14.3  -0.5                          T               34.0  .47 Ml 3.2         4815045
THEF  003.39 288.3 m E Pn      2012/01/13 14:02:43.7   0.0                          T                                        4815067
THEF  003.39 288.3 m E Pg      2012/01/13 14:02:54.3  -0.2                          T                                        4815066
THEF  003.39 288.3 m E Sg      2012/01/13 14:03:38.2   0.3                          T               18.0  .28 Ml 3.3         4815050
SFTF  004.00 285.7 m E Pn      2012/01/13 14:02:52.0  -0.1 123.4  21.9              T                                        4815068
SFTF  004.00 285.7 m E Sg      2012/01/13 14:03:57.7   0.5                          T                7.2  .22 Ml 3.2         4815049
MBDF  003.79 229.4 m E P       2012/01/13 14:02:52.4  -0.2                          T                                        4815057
MBDF  003.79 229.4 m E Sn      2012/01/13 14:03:31.6  -0.1                          T                1.1  .23 Ml 2.3         4815055
CABF  003.30 260.3 m E Pg      2012/01/13 14:02:53.0   0.1                          T                                        4815060
CABF  003.30 260.3 m E Sg      2012/01/13 14:03:35.5   0.3                          T                3.7  .29 Ml 2.6         4815053
ORIF  004.15 237.4 m E P       2012/01/13 14:02:57.7  -0.1                          T                                        4815056
PAGF  003.65 292.6 m E Pg      2012/01/13 14:02:59.2  -0.2 119.8  11.0              T                                        4815069
PAGF  003.65 292.6 m E Sg      2012/01/13 14:03:45.7  -0.6 119.8  11.0              T                3.6  .24 Ml 2.8         4815047
VIVF  004.90 242.8 m E Pn      2012/01/13 14:03:05.1   0.8                          T                                        4815058
VIVF  004.90 242.8 m E Sn      2012/01/13 14:03:58.4   0.1                          T                1.6  .26 Ml 2.6         4815054
AVF   005.12 267.4 m E Pn      2012/01/13 14:03:07.0  -0.2                          T                                        4815059
LOR   004.73 272.6 m E Pg      2012/01/13 14:03:19.4   0.2  88.7  1.2               T                                        4815070
LOR   004.73 272.6 m E Sg      2012/01/13 14:04:19.7  -0.1  87.2  -0.3              T                3.2  .23 Ml 3.0         4815044
MEZF  004.07 289.9 m E Sg      2012/01/13 14:03:59.3   0.3                          T                5.6  .30 Ml 2.9         4815048

.
EVENT     268558
    Date      Time       Latitude Longitude    Depth    Ndef Nsta Gap    Mag1  N    Mag2  N    Mag3  N   Author         ID
       rms   OT_Error      Smajor Sminor Az        Err   mdist  Mdist     Err        Err        Err      Quality

2012/01/13 14:11:54.8     42.9378     .0175      2.0       8    4 189  Ml 1.4  2  Md 1.3  2              js067245    268578

      0.12   +-  0.07       4.9     .6  172.38 +-  0.0    0.25   1.66   +-0.0      +-0.0                 m i ke

PYRENEES
Sta     Dist  EvAz     Phase      Date       Time     TRes  Azim  AzRes  Slow  SRes Def   SNR       Amp   Per   Mag1   Mag2       ID
EPF   000.25 068.6 m E Pg      2012/01/13 14:11:59.9   0.0                          T                                        4815077
EPF   000.25 068.6 m E Sg      2012/01/13 14:12:03.0  -0.3                          T                4.4  .16        Md 1.2  4815078
ETSF  000.43 264.9 m E Pg      2012/01/13 14:12:03.1   0.0                          T                                        4815075
ETSF  000.43 264.9 m E Sg      2012/01/13 14:12:08.6  -0.2                          T                4.0  .34        Md 1.3  4815076
SJPF  000.93 281.3 m E Pg      2012/01/13 14:12:12.2  -0.1                          T                                        4815072
SJPF  000.93 281.3 m E Sg      2012/01/13 14:12:24.3   0.0                          T                1.1  .28 Ml 1.4         4815074
MTLF  001.66 075.2 m E Pg      2012/01/13 14:12:25.7  -0.1                          T                                        4815071
MTLF  001.66 075.2 m E Sg      2012/01/13 14:12:47.3   0.1                          T                 .5  .23 Ml 1.5         4815073

.
EVENT     268590
    Date      Time       Latitude Longitude    Depth    Ndef Nsta Gap    Mag1  N    Mag2  N    Mag3  N   Author         ID
       rms   OT_Error      Smajor Sminor Az        Err   mdist  Mdist     Err        Err        Err      Quality

2012/01/13 15:22:52.0     42.8648     .0090     25.0       7    4 201  Ml 1.6  2  Md 1.7  2              js067245    268610

      0.18   +-  0.22      11.0    1.4  171.58 +-  0.0    0.29   1.69   +-0.2      +-0.1                 m i ke

PYRENEES
Sta     Dist  EvAz     Phase      Date       Time     TRes  Azim  AzRes  Slow  SRes Def   SNR       Amp   Per   Mag1   Mag2       ID
EPF   000.29 055.6 m E Pg      2012/01/13 15:22:59.0  -0.1                          T                                        4815082
EPF   000.29 055.6 m E Sg      2012/01/13 15:23:03.9  -0.1                          T                5.3  .20        Md 1.7  4815083
ETSF  000.42 274.8 m E Pg      2012/01/13 15:23:01.2   0.1                          T                                        4815084
ETSF  000.42 274.8 m E Sg      2012/01/13 15:23:07.0  -0.3                          T                6.3  .18        Md 1.6  4815085
SJPF  000.94 285.8 m E Pg      2012/01/13 15:23:10.1   0.0                          T                                        4815079
SJPF  000.94 285.8 m E Sg      2012/01/13 15:23:22.9   0.3                          T                1.2  .26 Ml 1.5         4815080
MTLF  001.69 072.8 m E Sg      2012/01/13 15:23:45.9   0.4                          T                1.6  .32 Ml 1.8         4815081

.
EVENT     268591
    Date      Time       Latitude Longitude    Depth    Ndef Nsta Gap    Mag1  N    Mag2  N    Mag3  N   Author         ID
       rms   OT_Error      Smajor Sminor Az        Err   mdist  Mdist     Err        Err        Err      Quality

2012/01/13 19:45:35.9     45.1007    7.3126     18.6      27    6 151  Ml 1.7  3  Md 1.8  3              js067245    268611

      0.29   +-  0.13       1.8    1.0  104.09 +-  1.3    0.06   1.89   +-0.1      +-0.0                 m i ke

NORTHERN ITALY
Sta     Dist  EvAz     Phase      Date       Time     TRes  Azim  AzRes  Slow  SRes Def   SNR       Amp   Per   Mag1   Mag2       ID
MBDF  000.54 226.0 m E Pg      2012/01/13 19:45:47.0   0.3                          T                                        4815096
MBDF  000.54 226.0 m E Sg      2012/01/13 19:45:53.6  -0.5                          T                3.5  .20        Md 1.8  4815088
LPG   000.56 315.3 m E Pg      2012/01/13 19:45:47.4   0.1                          T                                        4815093
LPG   000.56 315.3 m E Sg      2012/01/13 19:45:55.0   0.0                          T                4.2  .20        Md 1.8  4815086
LPL   000.58 315.6 m E Pg      2012/01/13 19:45:47.7   0.1                          T                                        4815094
LPL   000.58 315.6 m E Sg      2012/01/13 19:45:55.3  -0.3                          T                2.6  .21        Md 1.7  4815087
ORIF  001.03 260.3 m E Pg      2012/01/13 19:45:55.6   0.0                          T                                        4815095
ORIF  001.03 260.3 m E Sg      2012/01/13 19:46:09.2   0.1                          T                2.2  .26 Ml 1.8         4815089
VIVF  001.89 263.5 m E Pg      2012/01/13 19:46:11.0  -0.2                          T                                        4815092
VIVF  001.89 263.5 m E Sg      2012/01/13 19:46:35.4  -0.2                          T                 .8  .31 Ml 1.6         4815090
FRF   001.61 197.5 m E Sg      2012/01/13 19:46:27.0   0.0                          T                1.0  .20 Ml 1.8         4815091

.
