EVENT     283374
    Date      Time       Latitude Longitude    Depth    Ndef Nsta Gap    Mag1  N    Mag2  N    Mag3  N   Author         ID
       rms   OT_Error      Smajor Sminor Az        Err   mdist  Mdist     Err        Err        Err      Quality

2012/09/15 20:58:35.8     43.5612    7.9633      6.0 f    21    6 135  Ml 1.3  5  Md 1.6  2              bulletin    283474
                                                                                                         _ldg
      0.50   +-  0.16       2.8    2.4   94.56 +-  0.0    0.34   2.02   +-0.3      +-0.1                 m i ke

NEAR SOUTH COAST OF FRANCE
Sta     Dist  EvAz     Phase      Date       Time     TRes  Azim  AzRes  Slow  SRes Def   SNR       Amp   Per   Mag1   Mag2       ID
SBF   000.49 308.4 m E Pg      2012/09/15 20:58:46.0   0.8                          T                                        5071002
SBF   000.49 308.4 m E Sg      2012/09/15 20:58:52.0   0.3                          T                8.6  .29        Md 1.5  5071001
FRF   000.96 270.4 m E Pg      2012/09/15 20:58:54.0   0.3                          T                                        5070999
FRF   000.96 270.4 m E Sg      2012/09/15 20:59:06.0  -0.2                          T                 .5  .18 Ml 1.3 Md 1.7  5071000
LMR   001.08 258.4 m E Pg      2012/09/15 20:58:55.5  -0.6                          T                                        5070998
LMR   001.08 258.4 m E Sg      2012/09/15 20:59:09.1  -1.0                          T                 .2  .19 Ml  .9         5070997
PGF   001.27 142.8 m E Pn      2012/09/15 20:58:58.3  -0.2                          T                                        5070992
PGF   001.27 142.8 m E Sn      2012/09/15 20:59:14.7  -0.1                          T                 .6  .19 Ml 1.7         5070993
MBDF  001.45 324.0 m E Pg      2012/09/15 20:59:03.3   0.3                          T                                        5072258
MBDF  001.45 324.0 m E Sn      2012/09/15 20:59:20.2   1.0                          T                 .3  .20 Ml 1.2         5070991
SMRF  001.78 284.3 m E Pg      2012/09/15 20:59:09.3   0.4                          T                                        5072257
SMRF  001.78 284.3 m E Sg      2012/09/15 20:59:32.4   0.5                          T                 .3  .23 Ml 1.2         5070995

.
EVENT     283375
    Date      Time       Latitude Longitude    Depth    Ndef Nsta Gap    Mag1  N    Mag2  N    Mag3  N   Author         ID
       rms   OT_Error      Smajor Sminor Az        Err   mdist  Mdist     Err        Err        Err      Quality

2012/09/15 23:44:38.0     45.2659    3.8816      3.0 f    40   16 054  Ml 1.7 16  Md 2.2  3              bulletin    283475
                                                                                                         _ldg
      0.33   +-  0.05       1.2    1.1  156.36 +-  0.0    0.69   3.27   +-0.2      +-0.1                 m i ke

FRANCE
Sta     Dist  EvAz     Phase      Date       Time     TRes  Azim  AzRes  Slow  SRes Def   SNR       Amp   Per   Mag1   Mag2       ID
VIVF  000.69 125.9 m E Pg      2012/09/15 23:44:51.0  -0.2                          T                                        5071087
VIVF  000.69 125.9 m E Sg      2012/09/15 23:44:59.8  -0.5                          T                2.4  .18        Md 2.3  5071086
LASF  001.19 180.9 m E Pn      2012/09/15 23:45:00.2   0.3                          T                                        5071085
LASF  001.19 180.9 m E Sg      2012/09/15 23:45:15.9   0.1                          T                2.4  .22 Ml 1.9 Md 2.0  5071084
CAF   001.33 255.8 m E Pn      2012/09/15 23:45:01.6  -0.3                          T                                        5071081
CAF   001.33 255.8 m E Pg      2012/09/15 23:45:02.5  -0.4                          T                                        5072259
CAF   001.33 255.8 m E Sn      2012/09/15 23:45:19.2   0.1                          T                1.2  .16 Ml 1.8 Md 2.2  5071080
SMF   001.38 358.8 m E Pn      2012/09/15 23:45:03.0   0.5                          T                                        5071074
SMF   001.38 358.8 m E Sg      2012/09/15 23:45:20.7  -0.9                          T                1.6  .18 Ml 1.9         5071079
ORIF  001.46 103.1 m E Pn      2012/09/15 23:45:04.0   0.3                          T                                        5071236
ORIF  001.46 103.1 m E Sn      2012/09/15 23:45:22.0  -0.2                          T                 .3  .20 Ml 1.2         5071235
BGF   001.48 331.1 m E Pn      2012/09/15 23:45:04.0   0.1                          T                                        5071076
BGF   001.48 331.1 m E Pg      2012/09/15 23:45:05.5  -0.2                          T                                        5072260
BGF   001.48 331.1 m E Sg      2012/09/15 23:45:24.8   0.0                          T                2.4  .35 Ml 1.9         5071075
AVF   001.57 346.6 m E Pn      2012/09/15 23:45:04.8  -0.3                          T                                        5071072
AVF   001.57 346.6 m E P       2012/09/15 23:45:07.1   0.1                          T                                        5072267
AVF   001.57 346.6 m E Sn      2012/09/15 23:45:25.5   0.8                          T                 .5  .15 Ml 1.5         5071071
TCF   001.55 311.7 m E Pn      2012/09/15 23:45:05.2   0.3                          T                                        5071070
TCF   001.55 311.7 m E P       2012/09/15 23:45:06.9   0.1                          T                                        5072268
TCF   001.55 311.7 m E Sn      2012/09/15 23:45:24.7   0.3                          T                 .4  .16 Ml 1.5         5071069
RJF   001.67 272.2 m E Pn      2012/09/15 23:45:06.7   0.3                          T                                        5071077
RJF   001.67 272.2 m E Pg      2012/09/15 23:45:09.0  -0.1                          T                                        5071232
RJF   001.67 272.2 m E Sn      2012/09/15 23:45:27.3   0.2                          T                                        5071078
RJF   001.67 272.2 m E Sg      2012/09/15 23:45:30.9   0.2                          T                 .8  .19 Ml 1.4         5071073
LOR   002.00 359.6 m E Pn      2012/09/15 23:45:11.7   0.7                          T                                        5071065
LOR   002.00 359.6 m E Pg      2012/09/15 23:45:15.2  -0.1                          T                                        5071064
LOR   002.00 359.6 m E Sg      2012/09/15 23:45:39.7  -1.4 182.5  3.0               T                1.3  .33 Ml 1.8         5071063
CABF  002.04 048.1 m E Pn      2012/09/15 23:45:11.8   0.1                          T                                        5071068
CABF  002.04 048.1 m E Sg      2012/09/15 23:45:42.1  -0.4                          T                 .5  .24 Ml 1.5         5071067
LFF   002.25 262.8 m E Pn      2012/09/15 23:45:14.6   0.3                          T                                        5071233
LFF   002.25 262.8 m E Pg      2012/09/15 23:45:20.0   0.2                          T                                        5072266
LFF   002.25 262.8 m E Sg      2012/09/15 23:45:48.3  -0.4                          T                1.3  .28 Ml 1.8         5071234
MTLF  002.27 212.4 m E Pn      2012/09/15 23:45:14.6   0.0                          T                                        5071083
MTLF  002.27 212.4 m E Pg      2012/09/15 23:45:19.9  -0.1                          T                                        5072265
MTLF  002.27 212.4 m E Sg      2012/09/15 23:45:48.9  -0.4                          T                 .5  .18 Ml 1.7         5071082
MFF   003.11 296.9 m E Pn      2012/09/15 23:45:26.3   0.2                          T                                        5071230
MFF   003.11 296.9 m E Sn      2012/09/15 23:46:01.1  -0.5                          T                 .3  .19 Ml 1.8         5071231
HINF  003.27 037.7 m E Pn      2012/09/15 23:45:28.3   0.0                          T                                        5071066
HINF  003.27 037.7 m E Sn      2012/09/15 23:46:05.3  -0.2                          T                 .7  .36 Ml 1.8         5071229
LPL   002.02 081.9 m E Sg      2012/09/15 23:45:41.7  -0.3                          T                 .8  .37 Ml 1.6         5072264

.
EVENT     283380
    Date      Time       Latitude Longitude    Depth    Ndef Nsta Gap    Mag1  N    Mag2  N    Mag3  N   Author         ID
       rms   OT_Error      Smajor Sminor Az        Err   mdist  Mdist     Err        Err        Err      Quality

2012/09/16 04:36:22.2     43.0949    -.3931      5.0 f    11    5 131  Ml 1.2  2  Md 1.3  3              bulletin    283480
                                                                                                         _ldg
      0.24   +-  0.08       2.8    1.4  163.08 +-  0.0    0.03   2.55   +-0.2      +-0.1                 m i ke

PYRENEES
Sta     Dist  EvAz     Phase      Date       Time     TRes  Azim  AzRes  Slow  SRes Def   SNR       Amp   Per   Mag1   Mag2       ID
ETSF  000.23 211.9 m E Pg      2012/09/16 04:36:27.1   0.1                          T                                        5071348
ETSF  000.23 211.9 m E Sg      2012/09/16 04:36:29.8  -0.4                          T                2.0  .20        Md 1.4  5071347
EPF   000.54 096.6 m E Pg      2012/09/16 04:36:32.3  -0.3                          T                                        5071346
EPF   000.54 096.6 m E Sg      2012/09/16 04:36:39.8   0.0                          T                1.1  .22        Md 1.3  5071345
SJPF  000.61 272.0 m E Pg      2012/09/16 04:36:33.7  -0.1                          T                                        5071355
SJPF  000.61 272.0 m E Sg      2012/09/16 04:36:41.6  -0.2                          T                 .2  .19        Md 1.3  5071354
MTLF  001.92 081.8 m E Pn      2012/09/16 04:36:53.9   0.0                          T                                        5071353
MTLF  001.92 081.8 m E Sn      2012/09/16 04:37:17.7   0.6                          T                                        5071352
MTLF  001.92 081.8 m E Sg      2012/09/16 04:37:22.8   0.0                          T                 .1  .17 Ml 1.1         5071351
CAF   002.55 043.2 m E Pn      2012/09/16 04:37:02.5   0.0                          T                                        5071350
CAF   002.55 043.2 m E Sn      2012/09/16 04:37:32.0   0.0                          T                 .2  .18 Ml 1.3         5071349

.
EVENT     283381
    Date      Time       Latitude Longitude    Depth    Ndef Nsta Gap    Mag1  N    Mag2  N    Mag3  N   Author         ID
       rms   OT_Error      Smajor Sminor Az        Err   mdist  Mdist     Err        Err        Err      Quality

2012/09/16 05:05:57.7     42.9826   -1.1917      2.0      19    4 091  Ml 1.4  2  Md 1.5  2              bulletin    283481
                                                                                                         _ldg
      0.31   +-  0.06       1.2    1.1  104.73 +-  0.0    0.12   3.05   +-0.1      +-0.2                 m i ke

PYRENEES
Sta     Dist  EvAz     Phase      Date       Time     TRes  Azim  AzRes  Slow  SRes Def   SNR       Amp   Per   Mag1   Mag2       ID
SJPF  000.13 349.4 m E Pg      2012/09/16 05:06:00.6   0.1                          T                                        5071374
SJPF  000.13 349.4 m E Sg      2012/09/16 05:06:02.5   0.0                          T               27.4  .24        Md 1.6  5071373
ETSF  000.47 100.0 m E Pg      2012/09/16 05:06:06.3  -0.5                          T                                        5071372
ETSF  000.47 100.0 m E Sg      2012/09/16 05:06:12.6  -0.5                          T                1.1  .21        Md 1.4  5071371
EPF   001.12 087.1 m E Pg      2012/09/16 05:06:18.9   0.1                          T                                        5071378
EPF   001.12 087.1 m E Sg      2012/09/16 05:06:33.0  -0.4                          T                 .4  .18 Ml 1.3         5071377
CAF   003.05 049.3 m E Pn      2012/09/16 05:06:44.8  -0.3                          T                                        5071376
CAF   003.05 049.3 m E Sn      2012/09/16 05:07:20.1   0.1                          T                 .2  .18 Ml 1.5         5071375

.
EVENT     283385
    Date      Time       Latitude Longitude    Depth    Ndef Nsta Gap    Mag1  N    Mag2  N    Mag3  N   Author         ID
       rms   OT_Error      Smajor Sminor Az        Err   mdist  Mdist     Err        Err        Err      Quality

2012/09/16 05:34:28.1     43.0981    -.8656      2.0      19    5 059  Ml 1.4  3  Md 1.5  2              bulletin    283485
                                                                                                         _ldg
      0.36   +-  0.07       1.8    1.1    1.59 +-  0.0    0.11   2.27   +-0.2      +-0.0                 m i ke

PYRENEES
Sta     Dist  EvAz     Phase      Date       Time     TRes  Azim  AzRes  Slow  SRes Def   SNR       Amp   Per   Mag1   Mag2       ID
SJPF  000.26 273.4 m E Pg      2012/09/16 05:34:33.1  -0.2                          T                                        5071417
SJPF  000.26 273.4 m E Sg      2012/09/16 05:34:36.5  -0.4                          T                6.7  .25        Md 1.5  5071416
ETSF  000.30 131.5 m E Pg      2012/09/16 05:34:33.8  -0.2                          T                                        5071415
ETSF  000.30 131.5 m E Sg      2012/09/16 05:34:38.0  -0.1                          T                3.5  .17        Md 1.4  5071414
EPF   000.89 094.0 m E Pg      2012/09/16 05:34:44.8   0.1                          T                                        5071421
EPF   000.89 094.0 m E Sg      2012/09/16 05:34:56.4   0.1                          T                 .6  .21 Ml 1.2         5071420
LFF   002.17 031.6 m E Pn      2012/09/16 05:35:03.2  -0.2                          T                                        5071423
LFF   002.17 031.6 m E Sn      2012/09/16 05:35:29.1  -0.3                          T                1.1  .30 Ml 1.6         5071422
MTLF  002.27 082.8 m E Pn      2012/09/16 05:35:04.3  -0.4                          T                                        5071419
MTLF  002.27 082.8 m E Sn      2012/09/16 05:35:31.4  -0.2                          T                 .2  .21 Ml 1.3         5071418

.
EVENT     283387
    Date      Time       Latitude Longitude    Depth    Ndef Nsta Gap    Mag1  N    Mag2  N    Mag3  N   Author         ID
       rms   OT_Error      Smajor Sminor Az        Err   mdist  Mdist     Err        Err        Err      Quality

2012/09/16 10:07:24.7     42.9993   -1.2435      2.0       8    4 265  Ml 1.0  2  Md 1.2  2              bulletin    283487
                                                                                                         _ldg
      0.16   +-  0.20       4.4    1.5   47.95 +-  0.0    0.11   2.55   +-0.1      +-0.2                 m i ke

PYRENEES
Sta     Dist  EvAz     Phase      Date       Time     TRes  Azim  AzRes  Slow  SRes Def   SNR       Amp   Per   Mag1   Mag2       ID
SJPF  000.11 006.8 m E Pg      2012/09/16 10:07:27.3   0.0                          T                                        5071427
SJPF  000.11 006.8 m E Sg      2012/09/16 10:07:28.7  -0.3                          T                2.8  .18        Md 1.3  5071426
ETSF  000.51 101.1 m E Pg      2012/09/16 10:07:34.5  -0.1                          T                                        5071425
ETSF  000.51 101.1 m E Sg      2012/09/16 10:07:41.6   0.2                          T                 .2  .18        Md 1.1  5071424
EPF   001.16 087.9 m E Sg      2012/09/16 10:08:01.5  -0.1                          T                 .3  .20 Ml 1.1         5071429
MTLF  002.55 081.1 m E Pn      2012/09/16 10:08:05.3   0.0                          T                                        5071428
MTLF  002.55 081.1 m E Sn      2012/09/16 10:08:34.9  -0.2                          T                 .1  .15 Ml  .9         5071430

.
