EVENT     267177
    Date      Time       Latitude Longitude    Depth    Ndef Nsta Gap    Mag1  N    Mag2  N    Mag3  N   Author         ID
       rms   OT_Error      Smajor Sminor Az        Err   mdist  Mdist     Err        Err        Err      Quality

2011/12/08 06:20:35.4     42.1478    9.5064      2.0      20   10 326  Ml 2.2  9  Md 2.1  1              js067245    267197

      0.70   +-  0.30       5.6    4.7   73.20 +-  0.0    0.55   4.56   +-0.3      +-                    m i ke

CORSICA, FRANCE
Sta     Dist  EvAz     Phase      Date       Time     TRes  Azim  AzRes  Slow  SRes Def   SNR       Amp   Per   Mag1   Mag2       ID
PGF   000.55 317.0 m E Pg      2011/12/08 06:20:45.9  -0.1                          T                                        4797324
PGF   000.55 317.0 m E Sg      2011/12/08 06:20:53.0  -0.2                          T               69.4  .20        Md 2.1  4797325
SBF   002.29 319.2 m E Pn      2011/12/08 06:21:12.8   0.3                          T                                        4797317
SBF   002.29 319.2 m E Sn      2011/12/08 06:21:39.7   0.1                          T                4.8  .28 Ml 2.5         4797311
LMR   002.51 299.2 m E Pn      2011/12/08 06:21:15.7   0.4                          T                                        4797318
LMR   002.51 299.2 m E Sn      2011/12/08 06:21:44.6  -0.1                          T                 .7  .14 Ml 2.0         4797312
FRF   002.53 304.8 m E Pn      2011/12/08 06:21:16.1   0.4                          T                                        4797319
FRF   002.53 304.8 m E Sn      2011/12/08 06:21:45.7   0.3                          T                2.8  .30 Ml 2.3         4797313
MBDF  003.26 323.2 m E P       2011/12/08 06:21:28.9   0.1                          T                                        4797322
MBDF  003.26 323.2 m E Sn      2011/12/08 06:22:03.0   0.2                          T                5.0  .51 Ml 2.5         4797316
SMRF  003.41 303.7 m E P       2011/12/08 06:21:30.9   0.0                          T                                        4797320
SMRF  003.41 303.7 m E Sn      2011/12/08 06:22:05.9  -0.5                          T                 .4  .27 Ml 1.7         4797314
ORIF  003.82 317.6 m E Pn      2011/12/08 06:21:33.0  -0.5                          T                                        4797321
ORIF  003.82 317.6 m E Sn      2011/12/08 06:22:16.4   0.1                          T                 .7  .25 Ml 2.1         4798966
LASF  004.56 296.9 m E Pn      2011/12/08 06:21:42.8  -0.6                          T                                        4797323
LASF  004.56 296.9 m E Sn      2011/12/08 06:22:33.9   0.1                          T                 .8  .28 Ml 2.3         4798967
LPG   003.90 330.2 m E Sn      2011/12/08 06:22:18.7   0.4                          T                 .4  .32 Ml 1.8         4797315
LPL   003.92 330.1 m E Sn      2011/12/08 06:22:18.9   0.1                          T                1.2  .33 Ml 2.2         4798968

.
EVENT     267255
    Date      Time       Latitude Longitude    Depth    Ndef Nsta Gap    Mag1  N    Mag2  N    Mag3  N   Author         ID
       rms   OT_Error      Smajor Sminor Az        Err   mdist  Mdist     Err        Err        Err      Quality

2011/12/08 06:26:46.1     42.1139    9.4446      2.0      17    8 326  Ml 1.9  6  Md 1.8  1              js067245    267275

      0.55   +-  0.24       4.4    3.8   88.77 +-  0.0    0.55   4.54   +-0.3      +-                    m i ke

CORSICA, FRANCE
Sta     Dist  EvAz     Phase      Date       Time     TRes  Azim  AzRes  Slow  SRes Def   SNR       Amp   Per   Mag1   Mag2       ID
PGF   000.55 322.9 m E Pg      2011/12/08 06:26:56.4  -0.3                          T                                        4797360
PGF   000.55 322.9 m E Sg      2011/12/08 06:27:03.5  -0.3                          T               34.4  .22        Md 1.8  4797361
SBF   002.29 320.5 m E Pn      2011/12/08 06:27:23.1   0.0                          T                                        4797359
SBF   002.29 320.5 m E Sn      2011/12/08 06:27:50.0  -0.2                          T                3.2  .25 Ml 2.4         4797347
LMR   002.48 300.4 m E Pn      2011/12/08 06:27:26.0   0.2                          T                                        4797358
LMR   002.48 300.4 m E Sn      2011/12/08 06:27:55.1   0.3                          T                 .4  .19 Ml 1.7         4797348
FRF   002.51 306.0 m E Pn      2011/12/08 06:27:26.4   0.2                          T                                        4797357
FRF   002.51 306.0 m E Sn      2011/12/08 06:27:56.2   0.6                          T                 .4  .22 Ml 1.7         4797349
MBDF  003.26 324.2 m E P       2011/12/08 06:27:39.4  -0.2                          T                                        4797354
MBDF  003.26 324.2 m E Sn      2011/12/08 06:28:13.5   0.0                          T                 .1  .16 Ml 1.4         4797352
SMRF  003.39 304.6 m E P       2011/12/08 06:27:41.4   0.1                          T                                        4797356
SMRF  003.39 304.6 m E Sn      2011/12/08 06:28:16.4  -0.2                          T                 .7  .23 Ml 2.0         4797350
LPG   003.90 331.0 m E P       2011/12/08 06:27:49.1   0.2                          T                                        4797355
LPG   003.90 331.0 m E Sn      2011/12/08 06:28:29.3   0.1                          T                 .7  .28 Ml 2.0         4797351
LASF  004.54 297.5 m E Pn      2011/12/08 06:27:53.3  -0.4                          T                                        4797353

.
EVENT     267178
    Date      Time       Latitude Longitude    Depth    Ndef Nsta Gap    Mag1  N    Mag2  N    Mag3  N   Author         ID
       rms   OT_Error      Smajor Sminor Az        Err   mdist  Mdist     Err        Err        Err      Quality

2011/12/08 06:35:33.0     42.1440    9.4861      2.0      19    9 326  Ml 2.3  8  Md 2.3  1              js067245    267198

      0.40   +-  0.20       3.5    3.2   82.14 +-  0.0    0.54   4.55   +-0.3      +-                    m i ke

CORSICA, FRANCE
Sta     Dist  EvAz     Phase      Date       Time     TRes  Azim  AzRes  Slow  SRes Def   SNR       Amp   Per   Mag1   Mag2       ID
PGF   000.54 318.4 m E Pg      2011/12/08 06:35:43.2  -0.2                          T                                        4797342
PGF   000.54 318.4 m E Sg      2011/12/08 06:35:50.9   0.3                          T              114.4  .20        Md 2.3  4797343
SBF   002.28 319.5 m E Pn      2011/12/08 06:36:10.0   0.0                          T                                        4797341
SBF   002.28 319.5 m E Sn      2011/12/08 06:36:36.9  -0.1                          T               10.0  .28 Ml 2.8         4797329
LMR   002.49 299.5 m E Pn      2011/12/08 06:36:13.0   0.3                          T                                        4797340
LMR   002.49 299.5 m E Sn      2011/12/08 06:36:42.0   0.1                          T                3.0  .25 Ml 2.4         4797330
FRF   002.52 305.1 m E Pn      2011/12/08 06:36:13.4   0.3                          T                                        4797339
FRF   002.52 305.1 m E Sn      2011/12/08 06:36:42.7   0.1                          T                2.0  .26 Ml 2.2         4797331
MBDF  003.25 323.5 m E P       2011/12/08 06:36:26.2   0.0                          T                                        4797336
MBDF  003.25 323.5 m E Sn      2011/12/08 06:37:00.3   0.1                          T                3.2  .38 Ml 2.4         4797334
SMRF  003.40 303.9 m E P       2011/12/08 06:36:28.0  -0.2                          T                                        4797338
SMRF  003.40 303.9 m E Sn      2011/12/08 06:37:03.2  -0.4                          T                 .8  .32 Ml 1.9         4797332
LPG   003.89 330.4 m E P       2011/12/08 06:36:35.8   0.2                          T                                        4797337
LPG   003.89 330.4 m E Sn      2011/12/08 06:37:16.1   0.4                          T                 .6  .23 Ml 2.1         4797333
LASF  004.55 297.0 m E Pn      2011/12/08 06:36:40.5  -0.3                          T                                        4797335
LASF  004.55 297.0 m E Sn      2011/12/08 06:37:31.1   0.0                          T                1.1  .27 Ml 2.4         4798970
LPL   003.92 330.4 m E Sn      2011/12/08 06:37:16.4   0.2                          T                 .4  .28 Ml 1.8         4798969

.
EVENT     267256
    Date      Time       Latitude Longitude    Depth    Ndef Nsta Gap    Mag1  N    Mag2  N    Mag3  N   Author         ID
       rms   OT_Error      Smajor Sminor Az        Err   mdist  Mdist     Err        Err        Err      Quality

2011/12/08 06:40:07.2     42.1478    9.4667      2.0      14    7 329  Ml 1.9  6  Md 1.7  1              js067245    267276

      0.49   +-  0.24       4.0    3.7   86.89 +-  0.0    0.53   3.88   +-0.2      +-                    m i ke

CORSICA, FRANCE
Sta     Dist  EvAz     Phase      Date       Time     TRes  Azim  AzRes  Slow  SRes Def   SNR       Amp   Per   Mag1   Mag2       ID
PGF   000.53 319.3 m E Pg      2011/12/08 06:40:17.1  -0.2                          T                                        4797376
PGF   000.53 319.3 m E Sg      2011/12/08 06:40:24.3  -0.1                          T               26.7  .22        Md 1.7  4797377
SBF   002.27 319.7 m E Pn      2011/12/08 06:40:43.9  -0.1                          T                                        4797374
SBF   002.27 319.7 m E Sn      2011/12/08 06:41:10.8  -0.1                          T                1.9  .25 Ml 2.1         4797365
LMR   002.48 299.5 m E Pn      2011/12/08 06:40:46.9   0.2                          T                                        4797373
LMR   002.48 299.5 m E Sn      2011/12/08 06:41:15.9   0.1                          T                1.6  .27 Ml 2.1         4797366
FRF   002.51 305.2 m E Pn      2011/12/08 06:40:47.3   0.2                          T                                        4797372
FRF   002.51 305.2 m E Sn      2011/12/08 06:41:17.0   0.5                          T                 .6  .22 Ml 1.8         4797367
MBDF  003.24 323.6 m E P       2011/12/08 06:41:00.2  -0.1                          T                                        4797371
MBDF  003.24 323.6 m E Sn      2011/12/08 06:41:34.2   0.1                          T                 .4  .20 Ml 1.8         4797370
SMRF  003.39 304.0 m E Sn      2011/12/08 06:41:37.1  -0.4                          T                 .2  .20 Ml 1.6         4797368
LPG   003.88 330.5 m E Sn      2011/12/08 06:41:50.0   0.4                          T                 .3  .22 Ml 1.8         4797369

.
EVENT     267179
    Date      Time       Latitude Longitude    Depth    Ndef Nsta Gap    Mag1  N    Mag2  N    Mag3  N   Author         ID
       rms   OT_Error      Smajor Sminor Az        Err   mdist  Mdist     Err        Err        Err      Quality

2011/12/08 06:58:16.3     42.1687    9.5041      2.0      18   11 326  Ml 2.2 10  Md 2.0  1              js067245    267199

      0.23   +-  0.16       2.6    2.5   72.03 +-  0.0    0.53   4.55   +-0.2      +-                    m i ke

CORSICA, FRANCE
Sta     Dist  EvAz     Phase      Date       Time     TRes  Azim  AzRes  Slow  SRes Def   SNR       Amp   Per   Mag1   Mag2       ID
PGF   000.53 315.6 m E Pg      2011/12/08 06:58:26.3  -0.2                          T                                        4797390
PGF   000.53 315.6 m E Sg      2011/12/08 06:58:33.7   0.1                          T               63.6  .20        Md 2.0  4797391
SBF   002.27 318.8 m E Pn      2011/12/08 06:58:53.1   0.0                          T                                        4797389
SBF   002.27 318.8 m E Sn      2011/12/08 06:59:20.1   0.0                          T                5.8  .24 Ml 2.6         4797380
LMR   002.49 298.8 m E Pn      2011/12/08 06:58:56.2   0.2                          T                                        4797388
LMR   002.49 298.8 m E Sn      2011/12/08 06:59:25.1  -0.2                          T                2.6  .28 Ml 2.3         4797381
FRF   002.52 304.5 m E Pn      2011/12/08 06:58:56.4   0.1                          T                                        4797387
FRF   002.52 304.5 m E Sn      2011/12/08 06:59:26.2   0.3                          T                1.5  .26 Ml 2.1         4797382
MBDF  003.24 323.0 m E P       2011/12/08 06:59:09.4   0.0                          T                                        4797386
MBDF  003.24 323.0 m E Sn      2011/12/08 06:59:43.5   0.2                          T                 .5  .20 Ml 1.9         4797385
SMRF  003.40 303.4 m E Sn      2011/12/08 06:59:46.4  -0.5                          T                 .9  .31 Ml 2.0         4797383
ORIF  003.81 317.4 m E Sn      2011/12/08 06:59:57.0   0.3                          T                2.4  .36 Ml 2.4         4798972
LPG   003.88 330.0 m E Sn      2011/12/08 06:59:59.0   0.3                          T                 .7  .26 Ml 2.1         4797384
LPL   003.90 330.0 m E Sn      2011/12/08 06:59:59.2   0.1                          T                 .6  .29 Ml 2.0         4798971
VIVF  004.42 309.0 m E Sn      2011/12/08 07:00:11.4   0.0                          T                 .9  .25 Ml 2.3         4798973
LASF  004.55 296.7 m E Sn      2011/12/08 07:00:14.5   0.1                          T                 .5  .23 Ml 2.1         4798974

.
EVENT     267211
    Date      Time       Latitude Longitude    Depth    Ndef Nsta Gap    Mag1  N    Mag2  N    Mag3  N   Author         ID
       rms   OT_Error      Smajor Sminor Az        Err   mdist  Mdist     Err        Err        Err      Quality

2011/12/08 11:42:11.6     42.7074    -.8063      2.0       6    3 254  Ml 1.5  1  Md 1.6  2              js067245    267231

      0.12   +-  0.22       5.1    1.5   11.20 +-  0.0    0.26   0.90   +-         +-0.1                 m i ke

PYRENEES
Sta     Dist  EvAz     Phase      Date       Time     TRes  Azim  AzRes  Slow  SRes Def   SNR       Amp   Per   Mag1   Mag2       ID
ETSF  000.26 043.5 m E Pg      2011/12/08 11:42:16.8  -0.1                          T                                        4797404
ETSF  000.26 043.5 m E Sg      2011/12/08 11:42:20.7   0.2                          T                6.2  .26        Md 1.6  4797405
SJPF  000.51 323.0 m E Pg      2011/12/08 11:42:21.4   0.1                          T                                        4797402
SJPF  000.51 323.0 m E Sg      2011/12/08 11:42:27.8  -0.2                          T                4.6  .28        Md 1.5  4797403
EPF   000.90 068.7 m E Pg      2011/12/08 11:42:28.6   0.0                          T                                        4797400
EPF   000.90 068.7 m E Sg      2011/12/08 11:42:40.4   0.1                          T                1.8  .31 Ml 1.5         4797401

.
EVENT     267219
    Date      Time       Latitude Longitude    Depth    Ndef Nsta Gap    Mag1  N    Mag2  N    Mag3  N   Author         ID
       rms   OT_Error      Smajor Sminor Az        Err   mdist  Mdist     Err        Err        Err      Quality

2011/12/08 17:17:32.8     42.7889   -1.2397      2.0      17    3 188  Ml 1.5  1  Md 1.3  2              js067245    267239

      0.43   +-  0.17       3.8    2.1    8.66 +-  0.0    0.05   1.19   +-         +-0.0                 m i ke

PYRENEES
Sta     Dist  EvAz     Phase      Date       Time     TRes  Azim  AzRes  Slow  SRes Def   SNR       Amp   Per   Mag1   Mag2       ID
SJPF  000.32 001.9 m E Pg      2011/12/08 17:17:39.3   0.2                          T                                        4797522
SJPF  000.32 001.9 m E Sg      2011/12/08 17:17:43.6   0.1                          T                4.0  .25        Md 1.3  4797521
ETSF  000.51 077.4 m E Pg      2011/12/08 17:17:42.8   0.2                          T                                        4797519
ETSF  000.51 077.4 m E P       2011/12/08 17:17:43.9   0.2                          T                                        4797517
ETSF  000.51 077.4 m E Sg      2011/12/08 17:17:50.1   0.7                          T                1.7  .34        Md 1.3  4797520
EPF   001.19 077.7 m E Pg      2011/12/08 17:17:54.4  -0.5                          T                                        4797518
EPF   001.19 077.7 m E Sg      2011/12/08 17:18:10.5   0.2                          T                1.2  .29 Ml 1.5         4799273

.
EVENT     267220
    Date      Time       Latitude Longitude    Depth    Ndef Nsta Gap    Mag1  N    Mag2  N    Mag3  N   Author         ID
       rms   OT_Error      Smajor Sminor Az        Err   mdist  Mdist     Err        Err        Err      Quality

2011/12/08 17:38:59.4     43.1371    -.6266      2.0      29    7 110  Ml 1.9  4  Md 2.0  3              js067245    267240

      0.45   +-  0.09       2.0    1.3  171.56 +-  0.0    0.07   2.77   +-0.2      +-0.1                 m i ke

PYRENEES
Sta     Dist  EvAz     Phase      Date       Time     TRes  Azim  AzRes  Slow  SRes Def   SNR       Amp   Per   Mag1   Mag2       ID
ETSF  000.24 168.3 m E Pg      2011/12/08 17:39:04.0  -0.3                          T                                        4797534
ETSF  000.24 168.3 m E Sg      2011/12/08 17:39:07.3  -0.3                          T               23.5  .18        Md 1.9  4797533
SJPF  000.44 267.1 m E Pg      2011/12/08 17:39:07.9   0.1                          T                                        4797532
SJPF  000.44 267.1 m E Sg      2011/12/08 17:39:13.5  -0.1                          T                6.5  .22        Md 2.0  4797531
EPF   000.72 098.2 m E Pg      2011/12/08 17:39:13.1   0.1                          T                                        4797529
EPF   000.72 098.2 m E Sg      2011/12/08 17:39:22.7   0.3                          T                2.0  .18        Md 2.1  4797530
MTLF  002.09 083.4 m E Pg      2011/12/08 17:39:38.6   0.4                          T                                        4797524
MTLF  002.09 083.4 m E Sg      2011/12/08 17:40:04.8  -0.3                          T                 .8  .25 Ml 1.7         4797525
CAF   002.64 046.4 m E Pg      2011/12/08 17:39:48.0  -0.4                          T                                        4797523
CAF   002.64 046.4 m E Sg      2011/12/08 17:40:22.5   0.1                          T                 .9  .24 Ml 1.9         4797527
LFF   002.05 028.2 m E Sg      2011/12/08 17:40:05.1   1.0                          T                4.5  .33 Ml 2.2         4797528
RJF   002.66 034.7 m E Sg      2011/12/08 17:40:23.1   0.2                          T                1.9  .22 Ml 1.9         4797526

.
