EVENT     257560
    Date      Time       Latitude Longitude    Depth    Ndef Nsta Gap    Mag1  N    Mag2  N    Mag3  N   Author         ID
       rms   OT_Error      Smajor Sminor Az        Err   mdist  Mdist     Err        Err        Err      Quality

2011/03/25 01:04:30.1     46.2339    1.8575      2.0      26   11 101  Ml 1.7 10  Md 2.0  3              js067245    257560

      0.67   +-  0.08       2.0    1.2  145.73 +-  0.0    0.25   1.72   +-0.2      +-0.0                 m i ke

FRANCE
Sta     Dist  EvAz     Phase      Date       Time     TRes  Azim  AzRes  Slow  SRes Def   SNR       Amp   Per   Mag1   Mag2       ID
TCF   000.25 077.4 m E Pg      2011/03/25 01:04:35.2   0.1                          T                                        4663905
TCF   000.25 077.4 m E Sg      2011/03/25 01:04:38.5   0.0                          T                3.1  .22        Md 2.0  4663966
BGF   000.76 064.3 m E Pg      2011/03/25 01:04:44.9   0.6                          T                                        4663899
BGF   000.76 064.3 m E Sg      2011/03/25 01:04:54.6   0.3                          T                4.7  .28        Md 1.9  4663972
RJF   000.96 194.5 m E Pg      2011/03/25 01:04:48.4   0.3                          T                                        4663981
RJF   000.96 194.5 m E Sg      2011/03/25 01:05:00.7   0.2                          T                2.9  .37 Ml 1.4         4663975
AVF   001.17 061.1 m E Pg      2011/03/25 01:04:52.1   0.1                          T                                        4663902
AVF   001.17 061.1 m E Sg      2011/03/25 01:05:07.1  -0.1                          T                1.4  .26 Ml 1.6         4663969
HYF   001.17 027.2 m E Pg      2011/03/25 01:04:52.4   0.5                          T                                        4663900
HYF   001.17 027.2 m E Sg      2011/03/25 01:05:07.5   0.5                          T                                        4663971
CAF   001.32 173.6 m E Pg      2011/03/25 01:04:54.3  -0.4                          T                                        4663978
CAF   001.32 173.6 m E Sg      2011/03/25 01:05:11.7   0.0                          T                1.4  .25 Ml 1.7         4663977
SSF   001.41 053.3 m E Pg      2011/03/25 01:04:56.1  -0.2                          T                                        4663904
SSF   001.41 053.3 m E Sg      2011/03/25 01:05:14.2  -0.2                          T                2.2  .37 Ml 1.9         4663967
SMF   001.43 072.6 m E Pg      2011/03/25 01:04:56.7  -0.1                          T                                        4663901
SMF   001.43 072.6 m E Sg      2011/03/25 01:05:15.3   0.0                          T                1.2  .27 Ml 1.7         4663970
MFF   001.43 285.6 m E Pg      2011/03/25 01:04:57.0   0.2                          T                                        4663980
MFF   001.43 285.6 m E Sg      2011/03/25 01:05:15.1  -0.3                          T                1.1  .25 Ml 1.8         4663974
LFF   001.51 211.6 m E Pg      2011/03/25 01:04:58.2  -0.1                          T                                        4663979
LFF   001.51 211.6 m E Sg      2011/03/25 01:05:17.9   0.1                          T                1.5  .36 Ml 1.5         4663976
LOR   001.72 052.3 m E Pg      2011/03/25 01:05:01.6  -0.5 238.0  4.2               T                                        4663903
LOR   001.72 052.3 m E Sg      2011/03/25 01:05:23.8  -0.6                          T                2.1  .37 Ml 1.9         4663968

.
EVENT     257562
    Date      Time       Latitude Longitude    Depth    Ndef Nsta Gap    Mag1  N    Mag2  N    Mag3  N   Author         ID
       rms   OT_Error      Smajor Sminor Az        Err   mdist  Mdist     Err        Err        Err      Quality

2011/03/25 03:11:11.9     42.8550    -.4732      2.0      20    4 156  Ml 1.9  1  Md 1.9  3              js067245    257562

      0.45   +-  0.14       3.8    2.0  152.96 +-  0.0    0.08   2.26   +-         +-0.0                 m i ke

PYRENEES
Sta     Dist  EvAz     Phase      Date       Time     TRes  Azim  AzRes  Slow  SRes Def   SNR       Amp   Per   Mag1   Mag2       ID
ETSF  000.08 304.6 m E Pg      2011/03/25 03:11:14.0   0.2                          T                                        4663994
ETSF  000.08 304.6 m E Sg      2011/03/25 03:11:15.3   0.3                          T               46.6  .24        Md 1.9  4663993
SJPF  000.61 295.3 m E Pg      2011/03/25 03:11:23.2  -0.2                          T                                        4663989
SJPF  000.61 295.3 m E Sg      2011/03/25 03:11:31.5   0.1                          T                1.5  .30        Md 1.9  4663991
EPF   000.62 073.4 m E Pg      2011/03/25 03:11:23.4  -0.4                          T                                        4663990
EPF   000.62 073.4 m E Sg      2011/03/25 03:11:32.2   0.3                          T                2.0  .32        Md 1.8  4663992
LFF   002.26 022.4 m E Pg      2011/03/25 03:11:54.5   0.6                          T                                        4663987
LFF   002.26 022.4 m E Sg      2011/03/25 03:12:24.6   1.7                          T                3.3  .48 Ml 1.9         4663988

.
EVENT     257742
    Date      Time       Latitude Longitude    Depth    Ndef Nsta Gap    Mag1  N    Mag2  N    Mag3  N   Author         ID
       rms   OT_Error      Smajor Sminor Az        Err   mdist  Mdist     Err        Err        Err      Quality

2011/03/25 05:17:56.1     50.3413    7.8469     10.0      15    6 081  Ml 2.1  5  Md 2.3  1              js067245    257742

      0.35   +-  0.07       1.3    1.2   15.76 +-  0.0    0.10   2.61   +-0.1      +-                    m i ke

GERMANY
Sta     Dist  EvAz     Phase      Date       Time     TRes  Azim  AzRes  Slow  SRes Def   SNR       Amp   Per   Mag1   Mag2       ID
RUP   000.82 218.7 m E Pg      2011/03/25 05:18:11.5  -0.1                          T                                        4668252
RUP   000.82 218.7 m E Sg      2011/03/25 05:18:22.2  -0.2                          T                                Md 2.3  4668253
LANF  001.36 181.2 m E Pg      2011/03/25 05:18:21.7   0.1                          T                                        4668250
LANF  001.36 181.2 m E Sg      2011/03/25 05:18:39.2  -0.1                          T                3.4  .27 Ml 2.1         4668251
GIVF  001.96 264.1 m E Pg      2011/03/25 05:18:32.4  -0.1                          T                                        4668244
GIVF  001.96 264.1 m E Sg      2011/03/25 05:18:57.4  -0.4                          T                3.7  .24 Ml 2.4         4668245
CDF   001.97 191.2 m E Pg      2011/03/25 05:18:32.8  -0.1                          T                                        4668248
CDF   001.97 191.2 m E Sg      2011/03/25 05:18:58.2   0.0                          T                1.2  .23 Ml 2.0         4668249
BAIF  002.36 264.5 m E Pg      2011/03/25 05:18:39.6  -0.3                          T                                        4668242
BAIF  002.36 264.5 m E Sg      2011/03/25 05:19:10.2   0.0                          T                2.0  .33 Ml 2.1         4668243
HINF  002.61 194.9 m E Pg      2011/03/25 05:18:44.5  -0.1                          T                                        4668246
HINF  002.61 194.9 m E Sg      2011/03/25 05:19:18.0  -0.2                          T                2.2  .32 Ml 2.2         4668247

.
EVENT     257563
    Date      Time       Latitude Longitude    Depth    Ndef Nsta Gap    Mag1  N    Mag2  N    Mag3  N   Author         ID
       rms   OT_Error      Smajor Sminor Az        Err   mdist  Mdist     Err        Err        Err      Quality

2011/03/25 07:02:33.4     42.8480    -.3728      2.0      10    4 215  Ml 1.8  2  Md 1.7  3              js067245    257563

      0.22   +-  0.29      13.0    1.2    2.21 +-  0.0    0.15   1.96   +-0.1      +-0.0                 m i ke

PYRENEES
Sta     Dist  EvAz     Phase      Date       Time     TRes  Azim  AzRes  Slow  SRes Def   SNR       Amp   Per   Mag1   Mag2       ID
ETSF  000.15 290.3 m E Pg      2011/03/25 07:02:36.1  -0.5                          T                                        4664010
ETSF  000.15 290.3 m E Sg      2011/03/25 07:02:38.4  -0.2                          T                7.4  .18        Md 1.7  4664009
EPF   000.55 070.6 m E Pg      2011/03/25 07:02:44.2   0.1                          T                                        4664006
EPF   000.55 070.6 m E Sg      2011/03/25 07:02:50.9  -0.4                          T                1.9  .18        Md 1.6  4664007
SJPF  000.68 293.3 m E Pg      2011/03/25 07:02:46.3   0.0                          T                                        4664005
SJPF  000.68 293.3 m E Sg      2011/03/25 07:02:55.2   0.0                          T                2.9  .30        Md 1.7  4664008
MTLF  001.96 074.6 m E Pg      2011/03/25 07:03:09.9   0.0                          T                                        4664011
MTLF  001.96 074.6 m E Sg      2011/03/25 07:03:35.0  -0.1                          T                  1  .32 Ml 1.7         4664012

.
EVENT     257591
    Date      Time       Latitude Longitude    Depth    Ndef Nsta Gap    Mag1  N    Mag2  N    Mag3  N   Author         ID
       rms   OT_Error      Smajor Sminor Az        Err   mdist  Mdist     Err        Err        Err      Quality

2011/03/25 07:28:22.4     41.7694    2.9734      8.0 f    29    5 233  Ml 2.2  5                         cm165940    257591

      0.25   +-  0.11       1.8    1.0  139.75 +-  0.0    0.13   3.39   +-0.2                            m i ke

SPAIN
Sta     Dist  EvAz     Phase      Date       Time     TRes  Azim  AzRes  Slow  SRes Def   SNR       Amp   Per   Mag1   Mag2       ID
MTLF  001.67 340.7 m E Pn      2011/03/25 07:28:50.3   0.1                          T                                        4664126
MTLF  001.67 340.7 m E Sn      2011/03/25 07:29:11.6   1.1                          T                2.0  .20 Ml 2.1         4664121
EPF   002.32 303.7 m E Pn      2011/03/25 07:28:59.5   0.3                          T                                        4664125
EPF   002.32 303.7 m E Sg      2011/03/25 07:29:35.8   0.3                          T                2.8  .22 Ml 2.4         4664120
LASF  002.40 015.4 m E Pn      2011/03/25 07:28:59.8  -0.3                          T                                        4664123
LASF  002.40 015.4 m E Sn      2011/03/25 07:29:27.8  -0.1                          T                 .9  .27 Ml 1.8         4664122
ETSF  002.85 294.5 m E Pn      2011/03/25 07:29:07.1   0.7                          T                                        4664124
ETSF  002.85 294.5 m E Sg      2011/03/25 07:29:52.4   0.4                          T                2.7  .37 Ml 2.3         4664119
SJPF  003.39 294.8 m E Pn      2011/03/25 07:29:14.1   0.5                          T                                        4664117
SJPF  003.39 294.8 m E Sg      2011/03/25 07:30:08.8   0.3                          T                1.9  .36 Ml 2.2         4664118

.
EVENT     257583
    Date      Time       Latitude Longitude    Depth    Ndef Nsta Gap    Mag1  N    Mag2  N    Mag3  N   Author         ID
       rms   OT_Error      Smajor Sminor Az        Err   mdist  Mdist     Err        Err        Err      Quality

2011/03/25 07:59:16.2     43.0053     .1782     15.0      16    4 155  Ml 2.0  3  Md 2.0  3              js067245    257583

      0.32   +-  0.09       2.2    1.4    1.57 +-  0.0    0.12   1.53   +-0.5      +-0.0                 m i ke

FRANCE
Sta     Dist  EvAz     Phase      Date       Time     TRes  Azim  AzRes  Slow  SRes Def   SNR       Amp   Per   Mag1   Mag2       ID
EPF   000.12 078.0 m E Pg      2011/03/25 07:59:20.0   0.1                          T                                        4664098
EPF   000.12 078.0 m E Sg      2011/03/25 07:59:22.6   0.1                          T               31.0  .17        Md 2.0  4664095
ETSF  000.55 259.1 m E Pg      2011/03/25 07:59:26.8  -0.3                          T                                        4664097
ETSF  000.55 259.1 m E Sg      2011/03/25 07:59:34.0  -0.5                          T               14.8  .25        Md 2.0  4664096
SJPF  001.03 276.5 m E Pg      2011/03/25 07:59:36.0   0.3                          T                                        4664091
SJPF  001.03 276.5 m E Sg      2011/03/25 07:59:50.0   0.7                          T                  1  .25 Ml 1.4 Md 2.0  4664094
MTLF  001.53 076.6 m E Pg      2011/03/25 07:59:44.6  -0.2                          T                                        4664092
MTLF  001.53 076.6 m E Sg      2011/03/25 08:00:04.9   0.2                          T                3.7  .26 Ml 2.2         4664093

.
EVENT     257594
    Date      Time       Latitude Longitude    Depth    Ndef Nsta Gap    Mag1  N    Mag2  N    Mag3  N   Author         ID
       rms   OT_Error      Smajor Sminor Az        Err   mdist  Mdist     Err        Err        Err      Quality

2011/03/25 11:51:24.4     42.9221   -1.1084       .0 f     6    3 242  Ml 1.5  1  Md 1.6  3              js067245    257594

      0.19   +-  0.36      10.7    1.9   31.62 +-  0.0    0.21   1.07   +-         +-0.0                 m i km

PYRENEES
Sta     Dist  EvAz     Phase      Date       Time     TRes  Azim  AzRes  Slow  SRes Def   SNR       Amp   Per   Mag1   Mag2       ID
SJPF  000.21 335.9 m E Pg      2011/03/25 11:51:28.7  -0.1                          T                                        4664181
SJPF  000.21 335.9 m E Sg      2011/03/25 11:51:31.6  -0.3                          T               17.8  .22        Md 1.6  4664178
ETSF  000.40 093.1 m E Pg      2011/03/25 11:51:32.3  -0.2                          T                                        4664180
ETSF  000.40 093.1 m E Sg      2011/03/25 11:51:37.8  -0.2                          T                7.9  .28        Md 1.5  4664179
EPF   001.07 083.7 m E Pg      2011/03/25 11:51:44.9   0.2                          T                                        4664176
EPF   001.07 083.7 m E Sg      2011/03/25 11:51:58.7   0.0                          T                 .8  .18 Ml 1.5 Md 1.5  4664177

.
EVENT     257679
    Date      Time       Latitude Longitude    Depth    Ndef Nsta Gap    Mag1  N    Mag2  N    Mag3  N   Author         ID
       rms   OT_Error      Smajor Sminor Az        Err   mdist  Mdist     Err        Err        Err      Quality

2011/03/25 12:59:22.5     50.3329    7.7951      8.0 f    46   12 075  Ml 2.6 13  Md 2.6  2              cm165940    257679

      0.46   +-  0.07       1.4    1.1   41.03 +-  0.0    0.10   4.33   +-0.2      +-0.1                 m i ke

GERMANY
Sta     Dist  EvAz     Phase      Date       Time     TRes  Azim  AzRes  Slow  SRes Def   SNR       Amp   Per   Mag1   Mag2       ID
GIVF  001.92 264.2 m E Pn      2011/03/25 12:59:54.3   0.5                          T                                        4665059
GIVF  001.92 264.2 m E Pg      2011/03/25 12:59:58.4   0.1                          T                                        4665066
GIVF  001.92 264.2 m E Sg      2011/03/25 13:00:23.1   0.0                          T               14.8  .36 Ml 2.8 Md 2.6  4665044
CDF   001.95 190.2 m E Pn      2011/03/25 12:59:54.4   0.0                          T                                        4665057
CDF   001.95 190.2 m E Pg      2011/03/25 12:59:57.9  -1.0                          T                                        4665064
CDF   001.95 190.2 m E Sg      2011/03/25 13:00:23.8  -0.4                          T                6.4  .26 Ml 2.7 Md 2.5  4665046
PAGF  002.23 218.0 m E Pn      2011/03/25 12:59:58.3   0.2                          T                                        4665054
PAGF  002.23 218.0 m E Pg      2011/03/25 13:00:03.8  -0.2                          T                                        4665032
PAGF  002.23 218.0 m E Sg      2011/03/25 13:00:32.3  -0.5                          T                1.8  .30 Ml 2.0         4665043
BAIF  002.32 264.6 m E Pn      2011/03/25 12:59:59.3   0.0                          T                                        4665058
BAIF  002.32 264.6 m E Pg      2011/03/25 13:00:05.1  -0.5                          T                                        4665065
BAIF  002.32 264.6 m E Sn      2011/03/25 13:00:27.3   1.0                          T                8.3  .26 Ml 2.8         4665045
HAU   002.52 202.7 m E Pn      2011/03/25 13:00:02.3   0.3                          T                                        4665051
HAU   002.52 202.7 m E Pg      2011/03/25 13:00:07.8  -1.5                          T                                        4665061
HAU   002.52 202.7 m E Sg      2011/03/25 13:00:41.3  -0.4                          T                9.0  .36 Ml 2.5         4665048
MEZF  002.56 225.4 m E Pn      2011/03/25 13:00:02.9   0.4                          T                                        4665053
MEZF  002.56 225.4 m E Pg      2011/03/25 13:00:08.7  -1.4                          T                                        4665063
MEZF  002.56 225.4 m E Sg      2011/03/25 13:00:42.7  -0.3                          T                5.0  .22 Ml 2.7         4665038
HINF  002.59 194.2 m E Pn      2011/03/25 13:00:03.5   0.4                          T                                        4665050
HINF  002.59 194.2 m E Pg      2011/03/25 13:00:09.5  -1.3                          T                                        4665060
HINF  002.59 194.2 m E Sg      2011/03/25 13:00:43.7  -0.4                          T                4.8  .25 Ml 2.6         4665049
LANF  001.35 179.7 m E Sg      2011/03/25 13:00:04.9  -0.5                          T               30.7  .36 Ml 2.9         4668272
THEF  002.41 209.9 m E Pg      2011/03/25 13:00:05.2  -2.2                          T                                        4668270
THEF  002.41 209.9 m E Sg      2011/03/25 13:00:37.6  -0.8                          T                7.2  .21 Ml 2.8         4668271
SFTF  002.79 221.3 m E Pn      2011/03/25 13:00:06.0   0.3                          T                                        4665052
SFTF  002.79 221.3 m E Pg      2011/03/25 13:00:13.3  -1.0                          T                                        4665062
SFTF  002.79 221.3 m E Sg      2011/03/25 13:00:49.8  -0.4                          T                6.4  .33 Ml 2.7         4665047
LOR   004.02 221.8 m E Pn      2011/03/25 13:00:22.5   0.0                          T                                        4665056
LOR   004.02 221.8 m E Pg      2011/03/25 13:00:36.7  -0.3                          T                                        4665042
LOR   004.02 221.8 m E Sn      2011/03/25 13:01:06.5  -0.4                          T                                        4665035
LOR   004.02 221.8 m E Sg      2011/03/25 13:01:28.1  -0.5                          T                2.0  .32 Ml 2.5         4665040
SSF   004.33 222.6 m E Pn      2011/03/25 13:00:26.8   0.2                          T                                        4665055
SSF   004.33 222.6 m E Pg      2011/03/25 13:00:42.5  -0.3                          T                                        4665041
SSF   004.33 222.6 m E Sg      2011/03/25 13:01:38.0  -0.3                          T                 .7  .28 Ml 2.2         4665039

.
