EVENT     261886
    Date      Time       Latitude Longitude    Depth    Ndef Nsta Gap    Mag1  N    Mag2  N    Mag3  N   Author         ID
       rms   OT_Error      Smajor Sminor Az        Err   mdist  Mdist     Err        Err        Err      Quality

2011/07/28 07:25:25.8     43.0350    -.0108      2.0      26    8 097  Ml 2.1  6  Md 2.1  2              js067245    261886

      0.35   +-  0.06       1.4    1.1    5.52 +-  0.0    0.07   3.00   +-0.2      +-0.0                 m i ke

PYRENEES
Sta     Dist  EvAz     Phase      Date       Time     TRes  Azim  AzRes  Slow  SRes Def   SNR       Amp   Per   Mag1   Mag2       ID
EPF   000.26 090.9 m E Pg      2011/07/28 07:25:30.6  -0.3                          T                                        4728870
EPF   000.26 090.9 m E Sg      2011/07/28 07:25:34.7   0.2                          T               14.4  .23        Md 2.1  4728866
ETSF  000.42 251.5 m E Pg      2011/07/28 07:25:33.9  -0.2                          T                                        4728869
ETSF  000.42 251.5 m E Sg      2011/07/28 07:25:39.6   0.0                          T               18.9  .23        Md 2.1  4728867
SJPF  000.89 275.4 m E Pg      2011/07/28 07:25:42.5  -0.1                          T                                        4728856
SJPF  000.89 275.4 m E Sg      2011/07/28 07:25:54.7   0.5                          T                2.2  .24 Ml 1.7         4728863
MTLF  001.66 078.6 m E Pg      2011/07/28 07:25:56.7   0.0                          T                                        4728868
MTLF  001.66 078.6 m E Sg      2011/07/28 07:26:17.9  -0.2                          T                2.3  .23 Ml 2.1         4728865
LFF   001.98 015.6 m E Pg      2011/07/28 07:26:02.2  -0.4                          T                                        4728858
LFF   001.98 015.6 m E Sg      2011/07/28 07:26:28.8   0.7                          T                7.1  .38 Ml 2.3         4728862
CAF   002.41 037.7 m E Pg      2011/07/28 07:26:10.3  -0.3                          T                                        4728859
CAF   002.41 037.7 m E Sg      2011/07/28 07:26:42.2   0.5                          T                1.7  .22 Ml 2.2         4728864
RJF   002.52 025.3 m E Pg      2011/07/28 07:26:12.5  -0.1                          T                                        4728857
RJF   002.52 025.3 m E Sg      2011/07/28 07:26:44.9  -0.1                          T                1.7  .23 Ml 1.9         4728861
LASF  003.00 068.4 m E Pg      2011/07/28 07:26:21.6   0.2                          T                                        4728855
LASF  003.00 068.4 m E Sg      2011/07/28 07:26:59.9   0.0                          T                1.2  .25 Ml 2.1         4728860

.
EVENT     261917
    Date      Time       Latitude Longitude    Depth    Ndef Nsta Gap    Mag1  N    Mag2  N    Mag3  N   Author         ID
       rms   OT_Error      Smajor Sminor Az        Err   mdist  Mdist     Err        Err        Err      Quality

2011/07/28 16:13:39.0     44.4856   -3.1037     15.0      15    7 268  Ml 2.4  5  Md 2.5  3              js067245    261917

      0.36   +-  0.39       7.7    3.1   72.94 +-  0.0    1.93   3.71   +-0.1      +-0.1                 m i ke

BAY OF BISCAY
Sta     Dist  EvAz     Phase      Date       Time     TRes  Azim  AzRes  Slow  SRes Def   SNR       Amp   Per   Mag1   Mag2       ID
SJPF  001.93 134.6 m E Pn      2011/07/28 16:14:09.1  -0.6                          T                                        4729175
SJPF  001.93 134.6 m E Sg      2011/07/28 16:14:39.6  -0.4                          T                6.2  .41 Ml 2.4 Md 2.5  4729330
ETSF  002.43 129.8 m E Pn      2011/07/28 16:14:16.6   0.0                          T                                        4729174
ETSF  002.43 129.8 m E Sn      2011/07/28 16:14:43.8  -0.5                          T                                        4729169
ETSF  002.43 129.8 m E Sg      2011/07/28 16:14:56.2   0.5                          T                3.3  .35 Ml 2.3 Md 2.4  4729170
LFF   002.78 079.3 m E Pn      2011/07/28 16:14:20.8  -0.4                          T                                        4729172
LFF   002.78 079.3 m E Pg      2011/07/28 16:14:31.0   0.4                          T                                        4730434
LFF   002.78 079.3 m E Sn      2011/07/28 16:14:52.3  -0.1                          T                9.1  .37 Ml 2.6 Md 2.6  4729171
EPF   002.89 119.0 m E Pn      2011/07/28 16:14:23.4   0.6                          T                                        4729173
EPF   002.89 119.0 m E Sn      2011/07/28 16:14:55.3   0.2                          T                                        4729168
EPF   002.89 119.0 m E Sg      2011/07/28 16:15:09.9   0.1                          T                3.6  .32 Ml 2.5         4729332
MFF   002.97 043.4 m E Pn      2011/07/28 16:14:23.7   0.0                          T                                        4730433
MFF   002.97 043.4 m E Pg      2011/07/28 16:14:33.9  -0.1                          T                                        4730432
RJF   003.38 074.4 m E Pn      2011/07/28 16:14:29.9   0.4                          T                                        4729331
CAF   003.71 081.4 m E Sn      2011/07/28 16:15:13.9  -0.9                          T                1.7  .34 Ml 2.3         4729333

.
EVENT     261920
    Date      Time       Latitude Longitude    Depth    Ndef Nsta Gap    Mag1  N    Mag2  N    Mag3  N   Author         ID
       rms   OT_Error      Smajor Sminor Az        Err   mdist  Mdist     Err        Err        Err      Quality

2011/07/28 17:24:52.4     44.0113    1.9939       .0 f    13    6 114  Ml 1.8  5  Md 1.9  1              js067245    261920

      0.67   +-  0.09       2.1    1.5   93.79 +-  0.0    0.69   2.10   +-0.2      +-                    m i km

FRANCE
Sta     Dist  EvAz     Phase      Date       Time     TRes  Azim  AzRes  Slow  SRes Def   SNR       Amp   Per   Mag1   Mag2       ID
MTLF  000.69 166.3 m E Pg      2011/07/28 17:25:05.4  -0.3                          T                                        4729346
MTLF  000.69 166.3 m E Sg      2011/07/28 17:25:15.4   0.5                          T                3.9  .26        Md 1.9  4729342
CAF   000.92 003.1 m E Pg      2011/07/28 17:25:09.9   0.0                          T                                        4729345
CAF   000.92 003.1 m E Sg      2011/07/28 17:25:22.9   1.0                          T                5.6  .27 Ml 2.1         4729343
RJF   001.34 345.4 m E Pg      2011/07/28 17:25:17.4  -0.2                          T                                        4729337
RJF   001.34 345.4 m E Sg      2011/07/28 17:25:34.9  -0.1                          T                2.6  .19 Ml 1.8         4729344
LASF  001.35 086.6 m E Pg      2011/07/28 17:25:17.9   0.1                          T                                        4729338
LASF  001.35 086.6 m E Sg      2011/07/28 17:25:35.0  -0.3                          T                3.9  .37 Ml 2.0         4729341
EPF   001.55 231.4 m E Pg      2011/07/28 17:25:21.5  -0.1                          T                                        4729339
EPF   001.55 231.4 m E Sg      2011/07/28 17:25:42.3   0.5                          T                1.4  .31 Ml 1.7         4729340
VIVF  002.10 065.3 m E Sg      2011/07/28 17:25:58.7  -0.1                          T                 .7  .25 Ml 1.6         4729336

.
EVENT     261926
    Date      Time       Latitude Longitude    Depth    Ndef Nsta Gap    Mag1  N    Mag2  N    Mag3  N   Author         ID
       rms   OT_Error      Smajor Sminor Az        Err   mdist  Mdist     Err        Err        Err      Quality

2011/07/28 17:37:37.9     45.1624    6.6603      2.0      10    4 235  Ml 1.9  1  Md 1.9  3              js067245    261926

      0.36   +-  0.39      11.3    1.8  130.12 +-  0.0    0.34   1.44   +-         +-0.0                 m i ke

FRANCE
Sta     Dist  EvAz     Phase      Date       Time     TRes  Azim  AzRes  Slow  SRes Def   SNR       Amp   Per   Mag1   Mag2       ID
LPG   000.34 010.8 m E Pg      2011/07/28 17:37:44.8  -0.1                          T                                        4729356
LPG   000.34 010.8 m E Sg      2011/07/28 17:37:49.3  -0.2                          T                5.8  .35        Md 1.8  4729350
LPL   000.36 008.2 m E Pg      2011/07/28 17:37:44.9  -0.3                          T                                        4729355
LPL   000.36 008.2 m E Sg      2011/07/28 17:37:49.7  -0.2                          T                3.0  .21        Md 1.9  4729349
ORIF  000.60 246.5 m E Pg      2011/07/28 17:37:49.5   0.0                          T                                        4729354
ORIF  000.60 246.5 m E Sg      2011/07/28 17:37:56.7  -0.8                          T                3.7  .26        Md 1.9  4729351
VIVF  001.44 258.4 m E Pg      2011/07/28 17:38:05.1   0.2                          T                                        4729353
VIVF  001.44 258.4 m E Sg      2011/07/28 17:38:24.1   0.6                          T                2.2  .30 Ml 1.9         4729352

.
EVENT     261919
    Date      Time       Latitude Longitude    Depth    Ndef Nsta Gap    Mag1  N    Mag2  N    Mag3  N   Author         ID
       rms   OT_Error      Smajor Sminor Az        Err   mdist  Mdist     Err        Err        Err      Quality

2011/07/28 19:20:43.0     44.3724    7.3053      2.0      17    8 188  Ml 2.2  5  Md 2.1  3              js067245    261919

      0.29   +-  0.14       3.1    1.3   75.75 +-  0.0    0.26   1.94   +-0.4      +-0.1                 m i ke

NORTHERN ITALY
Sta     Dist  EvAz     Phase      Date       Time     TRes  Azim  AzRes  Slow  SRes Def   SNR       Amp   Per   Mag1   Mag2       ID
MBDF  000.52 313.1 m E Pg      2011/07/28 19:20:53.2   0.0                          T                                        4729371
MBDF  000.52 313.1 m E Sg      2011/07/28 19:21:00.4   0.4                          T               15.1  .24        Md 2.1  4729365
SBF   000.52 169.5 m E Pg      2011/07/28 19:20:53.4   0.5                          T                                        4729370
SBF   000.52 169.5 m E Sg      2011/07/28 19:20:59.5  -0.3                          T               20.5  .23        Md 2.2  4729361
FRF   000.94 210.6 m E Pg      2011/07/28 19:21:00.6  -0.1                          T                                        4729368
FRF   000.94 210.6 m E Sg      2011/07/28 19:21:12.6  -0.2                          T               13.2  .23 Ml 2.6 Md 2.1  4729363
ORIF  001.15 298.7 m E Pg      2011/07/28 19:21:04.9   0.1                          T                                        4729369
ORIF  001.15 298.7 m E Sg      2011/07/28 19:21:19.5  -0.2                          T                2.8  .24 Ml 1.9         4729364
LMR   001.19 209.3 m E Pg      2011/07/28 19:21:05.0  -0.1                          T                                        4729367
LMR   001.19 209.3 m E Sg      2011/07/28 19:21:20.3  -0.2                          T                8.0  .18 Ml 2.6         4729362
LPL   001.21 340.6 m E Pg      2011/07/28 19:21:05.6  -0.4                          T                                        4729366
LPG   001.19 340.9 m E Sg      2011/07/28 19:21:20.9  -0.2                          T                                        4729358
VIVF  001.94 285.3 m E Sn      2011/07/28 19:21:40.1   1.3                          T                 .9  .22 Ml 1.8         4729357

.
EVENT     261921
    Date      Time       Latitude Longitude    Depth    Ndef Nsta Gap    Mag1  N    Mag2  N    Mag3  N   Author         ID
       rms   OT_Error      Smajor Sminor Az        Err   mdist  Mdist     Err        Err        Err      Quality

2011/07/28 20:01:28.1     44.4585   -3.3071     15.0      12    6 273  Ml 2.1  4  Md 2.2  2              js067245    261921

      0.45   +-  0.62      13.9    5.9   89.72 +-  0.0    2.02   3.53   +-0.2      +-0.2                 m i ke

BAY OF BISCAY
Sta     Dist  EvAz     Phase      Date       Time     TRes  Azim  AzRes  Slow  SRes Def   SNR       Amp   Per   Mag1   Mag2       ID
SJPF  002.02 131.0 m E Pn      2011/07/28 20:01:59.6  -0.4                          T                                        4729381
SJPF  002.02 131.0 m E Sn      2011/07/28 20:02:22.8  -0.6                          T                3.2  .33 Ml 2.2 Md 2.3  4729377
ETSF  002.53 127.1 m E Pn      2011/07/28 20:02:07.6   0.6                          T                                        4729380
ETSF  002.53 127.1 m E Sn      2011/07/28 20:02:34.0  -1.7                          T                3.7  .58 Ml 2.1 Md 2.1  4729376
LFF   002.93 079.1 m E Pn      2011/07/28 20:02:12.2  -0.1                          T                                        4729378
LFF   002.93 079.1 m E Pg      2011/07/28 20:02:22.7   0.3                          T                                        4730476
EPF   003.00 117.1 m E Pn      2011/07/28 20:02:14.5   1.0                          T                                        4729379
EPF   003.00 117.1 m E Sn      2011/07/28 20:02:46.1  -0.9                          T                4.9  .53 Ml 2.4         4729375
MFF   003.09 044.9 m E Pn      2011/07/28 20:02:14.6   0.1                          T                                        4729372
MFF   003.09 044.9 m E Pg      2011/07/28 20:02:24.8  -0.5                          T                                        4730477
RJF   003.53 074.5 m E Pn      2011/07/28 20:02:20.9   0.3                          T                                        4729374
RJF   003.53 074.5 m E Sn      2011/07/28 20:03:00.1   0.6                          T                1.1  .25 Ml 1.8         4729373

.
EVENT     261922
    Date      Time       Latitude Longitude    Depth    Ndef Nsta Gap    Mag1  N    Mag2  N    Mag3  N   Author         ID
       rms   OT_Error      Smajor Sminor Az        Err   mdist  Mdist     Err        Err        Err      Quality

2011/07/28 21:03:53.7     43.1025    -.7209      2.0       6    3 183             Md 1.1  3              js067245    261922

      0.24   +-  0.15       5.4    2.3   12.88 +-  0.0    0.24   0.78              +-0.3                 m i ke

PYRENEES
Sta     Dist  EvAz     Phase      Date       Time     TRes  Azim  AzRes  Slow  SRes Def   SNR       Amp   Per   Mag1   Mag2       ID
ETSF  000.24 149.7 m E Pg      2011/07/28 21:03:58.3  -0.1                          T                                        4729387
ETSF  000.24 149.7 m E Sg      2011/07/28 21:04:01.9   0.2                          T               12.6  .20        Md 1.4  4729385
SJPF  000.37 271.8 m E Pg      2011/07/28 21:04:00.6  -0.2                          T                                        4729386
SJPF  000.37 271.8 m E Sg      2011/07/28 21:04:06.3   0.6                          T                1.3  .27        Md  .9  4729384
EPF   000.78 094.9 m E Pg      2011/07/28 21:04:08.6   0.1                          T                                        4729382
EPF   000.78 094.9 m E Sg      2011/07/28 21:04:18.5  -0.1                          T                 .5  .19        Md 1.0  4729383

.
EVENT     261923
    Date      Time       Latitude Longitude    Depth    Ndef Nsta Gap    Mag1  N    Mag2  N    Mag3  N   Author         ID
       rms   OT_Error      Smajor Sminor Az        Err   mdist  Mdist     Err        Err        Err      Quality

2011/07/29 02:19:21.4     43.0859    -.6560      2.0       6    3 180             Md 1.1  3              js067245    261923

      0.15   +-  0.09       2.8    1.4   13.08 +-  0.0    0.20   0.73              +-0.3                 m i ke

PYRENEES
Sta     Dist  EvAz     Phase      Date       Time     TRes  Azim  AzRes  Slow  SRes Def   SNR       Amp   Per   Mag1   Mag2       ID
ETSF  000.20 159.2 m E Pg      2011/07/29 02:19:25.5  -0.1                          T                                        4729393
ETSF  000.20 159.2 m E Sg      2011/07/29 02:19:28.4   0.1                          T                6.8  .22        Md 1.4  4729390
SJPF  000.42 274.0 m E Pg      2011/07/29 02:19:29.4   0.0                          T                                        4729392
SJPF  000.42 274.0 m E Sg      2011/07/29 02:19:35.2   0.2                          T                1.7  .25        Md 1.0  4729391
EPF   000.73 094.0 m E Pg      2011/07/29 02:19:35.2  -0.1                          T                                        4729388
EPF   000.73 094.0 m E Sg      2011/07/29 02:19:45.1   0.3                          T                 .7  .23        Md  .9  4729389

.
EVENT     261924
    Date      Time       Latitude Longitude    Depth    Ndef Nsta Gap    Mag1  N    Mag2  N    Mag3  N   Author         ID
       rms   OT_Error      Smajor Sminor Az        Err   mdist  Mdist     Err        Err        Err      Quality

2011/07/29 04:00:14.9     44.8264    6.6897      2.0      26    8 098  Ml 2.1  4  Md 2.2  2              js067245    261924

      0.73   +-  0.10       2.1    1.7   82.11 +-  0.0    0.11   1.50   +-0.2      +-0.2                 m i ke

FRANCE
Sta     Dist  EvAz     Phase      Date       Time     TRes  Azim  AzRes  Slow  SRes Def   SNR       Amp   Per   Mag1   Mag2       ID
MBDF  000.12 149.7 m E Pg      2011/07/29 04:00:17.3  -0.3                          T                                        4729457
MBDF  000.12 149.7 m E Sg      2011/07/29 04:00:19.4   0.0                          T               79.4  .26        Md 2.3  4729450
ORIF  000.58 279.4 m E Pg      2011/07/29 04:00:25.9  -0.2                          T                                        4729456
ORIF  000.58 279.4 m E Sg      2011/07/29 04:00:33.6  -0.2                          T                9.2  .23        Md 2.0  4729449
LPG   000.67 003.7 m E Pg      2011/07/29 04:00:28.2   0.1                          T                                        4729454
LPG   000.67 003.7 m E Sg      2011/07/29 04:00:37.2   0.4                          T                3.5  .24                4729448
LPL   000.69 002.5 m E Pg      2011/07/29 04:00:28.3   0.0                          T                                        4729455
LPL   000.69 002.5 m E Sg      2011/07/29 04:00:38.2   0.9                          T                7.6  .38                4729445
SBF   001.10 150.7 m E Pg      2011/07/29 04:00:36.3   0.7                          T                                        4729451
SBF   001.10 150.7 m E Sg      2011/07/29 04:00:50.6   0.7                          T                4.9  .26 Ml 2.1         4729444
FRF   001.27 181.4 m E Pg      2011/07/29 04:00:39.3   0.7                          T                                        4729453
FRF   001.27 181.4 m E Sg      2011/07/29 04:00:55.6   0.6                          T                6.2  .26 Ml 2.4         4729447
VIVF  001.44 271.9 m E Pg      2011/07/29 04:00:42.6   0.8                          T                                        4729443
VIVF  001.44 271.9 m E Sg      2011/07/29 04:01:00.1  -0.2                          T                1.7  .25 Ml 1.8         4729442
LMR   001.50 185.0 m E Pg      2011/07/29 04:00:42.9   0.1                          T                                        4729452
LMR   001.50 185.0 m E Sg      2011/07/29 04:01:02.5   0.3                          T                3.1  .28 Ml 2.1         4729446

.
