EVENT     284438
    Date      Time       Latitude Longitude    Depth    Ndef Nsta Gap    Mag1  N    Mag2  N    Mag3  N   Author         ID
       rms   OT_Error      Smajor Sminor Az        Err   mdist  Mdist     Err        Err        Err      Quality

2012/10/04 18:30:17.8     44.8923    8.1419     20.0 f    32    8 130  Ml 1.8  8                         bulletin    284539
                                                                                                         _ldg
      0.53   +-  0.13       2.7    1.9   48.16 +-  0.0    0.16   2.05   +-0.2                            m i ke

NORTHERN ITALY
Sta     Dist  EvAz     Phase      Date       Time     TRes  Azim  AzRes  Slow  SRes Def   SNR       Amp   Per   Mag1   Mag2       ID
MBDF  000.99 260.9 m E Pg      2012/10/04 18:30:36.8   0.0                          T                                        5084606
MBDF  000.99 260.9 m E Sg      2012/10/04 18:30:50.6   0.7                          T                3.0  .40 Ml 1.7         5084605
LPL   001.18 302.6 m E Pn      2012/10/04 18:30:37.8  -0.1                          T                                        5084618
LPL   001.18 302.6 m E Pg      2012/10/04 18:30:40.0  -0.3                          T                                        5084604
LPL   001.18 302.6 m E Sn      2012/10/04 18:30:54.3   2.0                          T                4.2  .36 Ml 2.0         5084617
SBF   001.15 206.5 m E Pg      2012/10/04 18:30:39.4  -0.2                          T                                        5084602
SBF   001.15 206.5 m E Sg      2012/10/04 18:30:54.4  -0.2                          T                3.3  .23 Ml 2.0         5084607
LPG   001.15 302.1 m E Pg      2012/10/04 18:30:39.9   0.0                          T                                        5092795
LPG   001.15 302.1 m E Sg      2012/10/04 18:30:54.6  -0.5                          T                3.4  .38 Ml 1.8         5084616
ORIF  001.61 271.7 m E Pn      2012/10/04 18:30:43.6   0.0                          T                                        5084620
ORIF  001.61 271.7 m E Pg      2012/10/04 18:30:48.2   0.1                          T                                        5092796
ORIF  001.61 271.7 m E Sg      2012/10/04 18:31:08.8   0.0                          T                2.3  .35 Ml 1.9         5084619
FRF   001.71 219.4 m E Pn      2012/10/04 18:30:44.8   0.0                          T                                        5084613
FRF   001.71 219.4 m E Pg      2012/10/04 18:30:47.7  -2.1                          T                                        5084609
FRF   001.71 219.4 m E Sn      2012/10/04 18:31:04.6  -0.2                          T                                        5084612
FRF   001.71 219.4 m E Sg      2012/10/04 18:31:12.0   0.0                          T                  1  .19 Ml 1.9         5084623
LMR   001.95 217.6 m E Pn      2012/10/04 18:30:48.1   0.0                          T                                        5084611
LMR   001.95 217.6 m E Pg      2012/10/04 18:30:53.7  -0.5                          T                                        5084608
LMR   001.95 217.6 m E Sn      2012/10/04 18:31:10.1  -0.4                          T                                        5084610
LMR   001.95 217.6 m E Sg      2012/10/04 18:31:18.8  -0.6                          T                 .6  .20 Ml 1.7         5084622
SMRF  002.05 244.4 m E Pn      2012/10/04 18:30:49.9   0.3                          T                                        5084615
SMRF  002.05 244.4 m E Sn      2012/10/04 18:31:13.2   0.1                          T                                        5084614
SMRF  002.05 244.4 m E Sg      2012/10/04 18:31:23.3   0.6                          T                 .3  .19 Ml 1.4         5084621

.
EVENT     284439
    Date      Time       Latitude Longitude    Depth    Ndef Nsta Gap    Mag1  N    Mag2  N    Mag3  N   Author         ID
       rms   OT_Error      Smajor Sminor Az        Err   mdist  Mdist     Err        Err        Err      Quality

2012/10/04 23:17:09.1     44.6321    7.2541     13.0 f    32    7 129  Ml 1.7  5  Md 1.8  2              bulletin    284540
                                                                                                         _ldg
      0.38   +-  0.07       1.7    1.1   65.50 +-  0.0    0.13   1.40   +-0.2      +-0.0                 m i ke

NORTHERN ITALY
Sta     Dist  EvAz     Phase      Date       Time     TRes  Azim  AzRes  Slow  SRes Def   SNR       Amp   Per   Mag1   Mag2       ID
MBDF  000.36 285.6 m E Pg      2012/10/04 23:17:16.7   0.1                          T                                        5084655
MBDF  000.36 285.6 m E Sg      2012/10/04 23:17:21.0  -0.5                          T                4.4  .18        Md 1.9  5084663
SBF   000.78 170.3 m E Pg      2012/10/04 23:17:24.7   0.6                          T                                        5084664
SBF   000.78 170.3 m E Sg      2012/10/04 23:17:34.8   0.5                          T                1.2  .19        Md 1.8  5084656
LPL   000.96 337.5 m E Pg      2012/10/04 23:17:27.2  -0.3                          T                                        5084651
LPL   000.96 337.5 m E Sg      2012/10/04 23:17:39.7  -0.3                          T                1.1  .25 Ml 1.4         5084661
ORIF  001.02 286.8 m E Pg      2012/10/04 23:17:28.6   0.1                          T                                        5084654
ORIF  001.02 286.8 m E Sg      2012/10/04 23:17:41.5  -0.3                          T                1.0  .19 Ml 1.6         5084662
FRF   001.16 202.4 m E Pg      2012/10/04 23:17:31.1   0.3                          T                                        5084653
FRF   001.16 202.4 m E Sg      2012/10/04 23:17:45.9   0.0                          T                2.0  .23 Ml 1.9         5084658
LMR   001.40 202.8 m E Pg      2012/10/04 23:17:35.2  -0.2                          T                                        5084652
LMR   001.40 202.8 m E Sn      2012/10/04 23:17:53.9   3.8                          T                1.4  .21 Ml 1.8         5084657
SMRF  001.37 242.0 m E Pg      2012/10/04 23:17:35.6   0.7                          T                                        5084660
SMRF  001.37 242.0 m E Sg      2012/10/04 23:17:52.7   0.0                          T                1.3  .29 Ml 1.6         5084659

.
EVENT     284440
    Date      Time       Latitude Longitude    Depth    Ndef Nsta Gap    Mag1  N    Mag2  N    Mag3  N   Author         ID
       rms   OT_Error      Smajor Sminor Az        Err   mdist  Mdist     Err        Err        Err      Quality

2012/10/04 23:19:47.7     44.9951    8.2149     22.0 f    32    6 114  Ml 1.8  6  Md 1.9  1              bulletin    284541
                                                                                                         _ldg
      0.88   +-  0.23       5.0    3.5   69.38 +-  0.0    0.18   2.07   +-0.2      +-                    m i ke

NORTHERN ITALY
Sta     Dist  EvAz     Phase      Date       Time     TRes  Azim  AzRes  Slow  SRes Def   SNR       Amp   Per   Mag1   Mag2       ID
MBDF  001.06 255.9 m E Pg      2012/10/04 23:20:07.9  -0.2                          T                                        5084668
MBDF  001.06 255.9 m E Sg      2012/10/04 23:20:22.1   0.0                          T                5.3  .47 Ml 1.9 Md 1.9  5084670
LPL   001.17 297.0 m E P       2012/10/04 23:20:09.1  -0.2                          T                                        5084666
LPL   001.17 297.0 m E Sg      2012/10/04 23:20:25.3  -0.2                          T                2.5  .36 Ml 1.7         5084669
SBF   001.26 206.5 m E Pg      2012/10/04 23:20:12.0   0.3                          T                                        5084665
SBF   001.26 206.5 m E Sg      2012/10/04 23:20:28.3   0.1                          T                5.2  .26 Ml 2.2         5084671
ORIF  001.66 268.2 m E Pn      2012/10/04 23:20:14.1   0.1                          T                                        5084667
ORIF  001.66 268.2 m E Pg      2012/10/04 23:20:18.6  -0.4                          T                                        5092838
ORIF  001.66 268.2 m E Sn      2012/10/04 23:20:33.6   0.3                          T                 .6  .22 Ml 1.5         5084672
FRF   001.82 218.7 m E Pn      2012/10/04 23:20:16.7   0.6                          T                                        5084674
FRF   001.82 218.7 m E Sn      2012/10/04 23:20:37.5   0.4                          T                1.4  .29 Ml 1.9         5084673
LMR   002.07 217.1 m E Pn      2012/10/04 23:20:19.6   0.2                          T                                        5084676
LMR   002.07 217.1 m E Sg      2012/10/04 23:20:53.3   0.3                          T                1.1  .32 Ml 1.8         5084675

.
EVENT     284441
    Date      Time       Latitude Longitude    Depth    Ndef Nsta Gap    Mag1  N    Mag2  N    Mag3  N   Author         ID
       rms   OT_Error      Smajor Sminor Az        Err   mdist  Mdist     Err        Err        Err      Quality

2012/10/04 23:30:35.7     44.6230    7.1941      2.0      17    5 149  Ml 1.1  4  Md 1.2  1              bulletin    284542
                                                                                                         _ldg
      0.24   +-  0.08       1.8     .9   81.81 +-  0.0    0.12   1.38   +-0.1      +-                    m i ke

NORTHERN ITALY
Sta     Dist  EvAz     Phase      Date       Time     TRes  Azim  AzRes  Slow  SRes Def   SNR       Amp   Per   Mag1   Mag2       ID
MBDF  000.32 289.1 m E Pg      2012/10/04 23:30:42.2   0.1                          T                                        5084684
MBDF  000.32 289.1 m E Sg      2012/10/04 23:30:46.3  -0.1                          T                3.3  .24        Md 1.2  5084682
ORIF  000.98 288.0 m E Pg      2012/10/04 23:30:53.3  -0.9                          T                                        5084680
ORIF  000.98 288.0 m E Sg      2012/10/04 23:31:06.6  -0.3                          T                                        5084679
ORIF  000.98 288.0 m E Sn      2012/10/04 23:31:08.5  -0.1                          T                 .3  .18 Ml 1           5084688
LPL   000.95 340.0 m E Pg      2012/10/04 23:30:53.6  -0.2                          T                                        5084686
LPL   000.95 340.0 m E Sg      2012/10/04 23:31:06.0  -0.2                          T                                        5084685
LPL   000.95 340.0 m E Sn      2012/10/04 23:31:08.0  -0.1                          T                 .4  .18 Ml 1.1         5084687
FRF   001.13 200.6 m E Pg      2012/10/04 23:30:57.0   0.2                          T                                        5084683
FRF   001.13 200.6 m E Sg      2012/10/04 23:31:10.8  -0.7                          T                 .4  .17 Ml 1.3         5084681
LMR   001.38 201.2 m E Pg      2012/10/04 23:31:01.2  -0.2                          T                                        5084677
LMR   001.38 201.2 m E Sn      2012/10/04 23:31:18.0   0.0                          T                 .3  .21 Ml 1.2         5084678

.
EVENT     284542
    Date      Time       Latitude Longitude    Depth    Ndef Nsta Gap    Mag1  N    Mag2  N    Mag3  N   Author         ID
       rms   OT_Error      Smajor Sminor Az        Err   mdist  Mdist     Err        Err        Err      Quality

2012/10/04 23:31:53.8     41.8542    1.7783      3.0 f    19    2 126  Ml 1.5  3                         bulletin    284643
                                                                                                         _ldg
      0.38   +-  0.08       1.4    1.1    8.03 +-  0.0    0.24   1.59   +-0.3                            m i ke

SPAIN
Sta     Dist  EvAz     Phase      Date       Time     TRes  Azim  AzRes  Slow  SRes Def   SNR       Amp   Per   Mag1   Mag2       ID
MTLF  001.52 012.2 m E Pg      2012/10/04 23:32:22.0  -0.1                          T                                        5092842
MTLF  001.52 012.2 m E Sg      2012/10/04 23:32:42.0   0.2                          T                 .4  .25 Ml 1.3         5092843
EPF   001.59 318.3 m E Pg      2012/10/04 23:32:23.3  -0.1                          T                                        5092841
EPF   001.59 318.3 m E Sg      2012/10/04 23:32:43.6  -0.3                          T                1.2  .23 Ml 1.8         5092844

.
EVENT     284443
    Date      Time       Latitude Longitude    Depth    Ndef Nsta Gap    Mag1  N    Mag2  N    Mag3  N   Author         ID
       rms   OT_Error      Smajor Sminor Az        Err   mdist  Mdist     Err        Err        Err      Quality

2012/10/05 00:49:07.9     44.6180    7.2392     10.0 f    28    7 126  Ml 1.5  6  Md 1.4  3              bulletin    284544
                                                                                                         _ldg
      0.27   +-  0.08       1.6     .9   74.00 +-  0.0    0.11   1.39   +-0.2      +-0.1                 m i ke

NORTHERN ITALY
Sta     Dist  EvAz     Phase      Date       Time     TRes  Azim  AzRes  Slow  SRes Def   SNR       Amp   Per   Mag1   Mag2       ID
MBDF  000.35 288.2 m E Pg      2012/10/05 00:49:15.2   0.1                          T                                        5084701
MBDF  000.35 288.2 m E Sg      2012/10/05 00:49:19.5  -0.4                          T                                Md 1.4  5084697
SBF   000.77 169.4 m E Pg      2012/10/05 00:49:23.3   0.7                          T                                        5084707
SBF   000.77 169.4 m E Sg      2012/10/05 00:49:32.9   0.3                          T                 .8  .19        Md 1.3  5084708
LPL   000.97 338.4 m E Pg      2012/10/05 00:49:26.7   0.3                          T                                        5084704
LPL   000.97 338.4 m E Sg      2012/10/05 00:49:39.0   0.0                          T                 .7  .20 Ml 1.4 Md 1.6  5084705
ORIF  001.01 287.7 m E Pg      2012/10/05 00:49:27.4   0.3                          T                                        5084700
ORIF  001.01 287.7 m E Sg      2012/10/05 00:49:39.7  -0.6                          T                 .9  .27 Ml 1.3         5084706
FRF   001.14 202.2 m E Pg      2012/10/05 00:49:30.0   0.7                          T                                        5084699
FRF   001.14 202.2 m E Sg      2012/10/05 00:49:43.9  -0.2                          T                1.2  .27 Ml 1.6         5084698
SMRF  001.36 242.3 m E Pg      2012/10/05 00:49:33.4   0.1                          T                                        5084703
SMRF  001.36 242.3 m E Sg      2012/10/05 00:49:50.7  -0.2                          T                 .7  .30 Ml 1.3         5084702
LMR   001.39 202.6 m E Pg      2012/10/05 00:49:33.8   0.0                          T                                        5084695
LMR   001.39 202.6 m E Sg      2012/10/05 00:49:52.4   0.6                          T                2.1  .26 Ml 1.9         5084696

.
EVENT     284444
    Date      Time       Latitude Longitude    Depth    Ndef Nsta Gap    Mag1  N    Mag2  N    Mag3  N   Author         ID
       rms   OT_Error      Smajor Sminor Az        Err   mdist  Mdist     Err        Err        Err      Quality

2012/10/05 01:50:48.8     44.6727    6.3038      2.0      10    5 206  Ml 1.3  4  Md 1.4  2              bulletin    284545
                                                                                                         _ldg
      0.14   +-  0.08       2.0     .8   98.54 +-  0.0    0.34   1.35   +-0.1      +-0.1                 m i ke

FRANCE
Sta     Dist  EvAz     Phase      Date       Time     TRes  Azim  AzRes  Slow  SRes Def   SNR       Amp   Per   Mag1   Mag2       ID
MBDF  000.34 080.6 m E Pg      2012/10/05 01:50:55.6   0.1                          T                                        5084713
MBDF  000.34 080.6 m E Sg      2012/10/05 01:50:59.7  -0.4                          T                3.9  .22        Md 1.3  5084711
LPL   000.90 019.6 m E Pg      2012/10/05 01:51:05.9   0.0                          T                                        5091737
LPL   000.90 019.6 m E Sg      2012/10/05 01:51:17.4  -0.2                          T                 .7  .27 Ml 1.2 Md 1.4  5091736
FRF   001.14 167.4 m E Pg      2012/10/05 01:51:10.1   0.0                          T                                        5084712
FRF   001.14 167.4 m E Sg      2012/10/05 01:51:24.8  -0.1                          T                 .4  .16 Ml 1.3         5084710
SBF   001.15 134.5 m E Pg      2012/10/05 01:51:10.4   0.1                          T                                        5091735
SBF   001.15 134.5 m E Sg      2012/10/05 01:51:25.3   0.1                          T                  1  .24 Ml 1.5         5091734
LMR   001.35 173.6 m E Pg      2012/10/05 01:51:13.8  -0.1                          T                                        5084714
LMR   001.35 173.6 m E Sg      2012/10/05 01:51:31.5   0.2                          T                 .4  .17 Ml 1.4         5084709

.
EVENT     284447
    Date      Time       Latitude Longitude    Depth    Ndef Nsta Gap    Mag1  N    Mag2  N    Mag3  N   Author         ID
       rms   OT_Error      Smajor Sminor Az        Err   mdist  Mdist     Err        Err        Err      Quality

2012/10/05 03:10:49.6     44.6059    7.1612     15.0      14    6 183  Ml 1.4  5  Md 1.3  3              bulletin    284548
                                                                                                         _ldg
      0.17   +-  0.10       2.4    1.1   64.34 +-  0.0    0.30   1.36   +-0.2      +-0.1                 m i ke

NORTHERN ITALY
Sta     Dist  EvAz     Phase      Date       Time     TRes  Azim  AzRes  Slow  SRes Def   SNR       Amp   Per   Mag1   Mag2       ID
MBDF  000.30 293.7 m E Pg      2012/10/05 03:10:56.3   0.1                          T                                        5084732
MBDF  000.30 293.7 m E Sg      2012/10/05 03:11:00.9   0.2                          T                4.8  .24        Md 1.3  5084731
SBF   000.77 165.0 m E Pg      2012/10/05 03:11:04.6   0.2                          T                                        5091741
SBF   000.77 165.0 m E Sg      2012/10/05 03:11:14.6   0.1                          T                1.1  .23        Md 1.3  5091740
LPL   000.96 341.7 m E Pn      2012/10/05 03:11:07.1  -0.2                          T                                        5084740
LPL   000.96 341.7 m E Sn      2012/10/05 03:11:20.0   0.2                          T                 .7  .25 Ml 1.2 Md 1.5  5084739
ORIF  000.96 289.3 m E Pg      2012/10/05 03:11:08.0   0.0                          T                                        5084737
ORIF  000.96 289.3 m E Sg      2012/10/05 03:11:20.6   0.0                          T                 .4  .21 Ml 1.1         5084738
FRF   001.11 199.7 m E Pg      2012/10/05 03:11:11.2   0.7                          T                                        5084734
FRF   001.11 199.7 m E Sg      2012/10/05 03:11:25.0   0.0                          T                1.3  .26 Ml 1.6         5084733
LMR   001.36 200.5 m E Pg      2012/10/05 03:11:14.7  -0.3                          T                                        5084735
LMR   001.36 200.5 m E Sg      2012/10/05 03:11:32.9   0.2                          T                 .7  .24 Ml 1.5         5084736

.
