EVENT     272208
    Date      Time       Latitude Longitude    Depth    Ndef Nsta Gap    Mag1  N    Mag2  N    Mag3  N   Author         ID
       rms   OT_Error      Smajor Sminor Az        Err   mdist  Mdist     Err        Err        Err      Quality

2012/03/21 08:52:10.1     47.8014    5.8310       .0 f     9    5 202  Ml 2.2  2  Md 2.0  1              js067245    272228

      0.75   +-  0.48      10.7    5.6  103.19 +-  0.0    0.40   1.20   +-0.1      +-                    m i ke

FRANCE
Sta     Dist  EvAz     Phase      Date       Time     TRes  Azim  AzRes  Slow  SRes Def   SNR       Amp   Per   Mag1   Mag2       ID
HAU   000.40 059.4 m E Pg      2012/03/21 08:52:17.9  -0.3                          T                                        4894434
HAU   000.40 059.4 m E Sg      2012/03/21 08:52:23.3  -0.5                          T               75.1 1.14        Md 2.0  4894428
THEF  000.44 014.3 m E Pg      2012/03/21 08:52:19.1   0.2                          T                                        4894432
THEF  000.44 014.3 m E Sg      2012/03/21 08:52:24.0  -0.9                          T              110.1 1.08                4894429
HINF  000.69 088.3 m E Pg      2012/03/21 08:52:24.4   0.9                          T                                        4894433
HINF  000.69 088.3 m E Sg      2012/03/21 08:52:30.9  -1.8                          T               45.3 1.02                4894430
CABF  001.20 171.5 m E Pg      2012/03/21 08:52:32.7  -0.3                          T                                        4894431
CABF  001.20 171.5 m E Sg      2012/03/21 08:52:49.0   0.2                          T               11.0  .49 Ml 2.3         4894427
CDF   001.15 057.2 m E Sg      2012/03/21 08:52:47.9   1.0                          T                5.2  .42 Ml 2.1         4894607

.
EVENT     272213
    Date      Time       Latitude Longitude    Depth    Ndef Nsta Gap    Mag1  N    Mag2  N    Mag3  N   Author         ID
       rms   OT_Error      Smajor Sminor Az        Err   mdist  Mdist     Err        Err        Err      Quality

2012/03/21 11:01:58.4     46.2916    7.3497      2.0      74   25 049  Ml 2.7 25  Md 2.5  3              js067245    272233

      0.83   +-  0.07       1.4    1.2  103.30 +-  0.0    0.08   3.56   +-0.3      +-0.1                 m i ke

SWITZERLAND
Sta     Dist  EvAz     Phase      Date       Time     TRes  Azim  AzRes  Slow  SRes Def   SNR       Amp   Per   Mag1   Mag2       ID
LPL   000.89 209.3 m E Pg      2012/03/21 11:02:15.3  -0.1                          T   001.0                                4879811
LPL   000.89 209.3 m E Pn      2012/03/21 11:02:16.6   0.1                          T   001.0                                4879812
LPL   000.89 209.3 m E Sg      2012/03/21 11:02:25.9  -1.0                          T                8.1  .24 Ml 2.3 Md 2.5  4894453
LPG   000.90 208.0 m E Pg      2012/03/21 11:02:15.5  -0.1                          T   001.0                                4879808
LPG   000.90 208.0 m E Pn      2012/03/21 11:02:16.7   0.0                          T   001.0                                4879809
LPG   000.90 208.0 m E Sg      2012/03/21 11:02:27.4   0.1                          T   001.0       19.8  .22 Ml 2.7 Md 2.4  4879810
CABF  000.93 290.6 m E Pg      2012/03/21 11:02:16.1   0.2                          T   001.0                                4879821
CABF  000.93 290.6 m E Sg      2012/03/21 11:02:28.7   0.7                          T   001.0       28.1  .24 Ml 2.9 Md 2.6  4879822
HINF  001.56 347.6 m E Pn      2012/03/21 11:02:27.2   1.7                          T   001.0                                4879823
HINF  001.56 347.6 m E Sn      2012/03/21 11:02:45.0  -0.2                          T                                        4894449
HINF  001.56 347.6 m E Sg      2012/03/21 11:02:47.6  -0.2                          T               28.3  .22 Ml 3.2         4894450
MBDF  001.62 194.8 m E Pg      2012/03/21 11:02:29.1   0.4                          T   001.0                                4879824
MBDF  001.62 194.8 m E Sg      2012/03/21 11:02:48.9  -0.7                          T   001.0       14.7  .52 Ml 2.5         4879825
HAU   001.85 338.6 m E Pn      2012/03/21 11:02:30.1   0.7                          T   001.0                                4879804
HAU   001.85 338.6 m E Pg      2012/03/21 11:02:32.0  -0.8                          T                                        4894437
HAU   001.85 338.6 m E Sg      2012/03/21 11:02:56.7   0.1                          T               27.6  .25 Ml 3.0         4894451
ORIF  001.72 217.4 m E Pg      2012/03/21 11:02:30.8   0.3                          T   001.0                                4879827
ORIF  001.72 217.4 m E Sg      2012/03/21 11:02:52.9   0.2                          T   001.0       13.8  .34 Ml 2.7         4879828
CDF   002.12 358.7 m E Pn      2012/03/21 11:02:33.2   0.0                          T   001.0                                4879800
CDF   002.12 358.7 m E P       2012/03/21 11:02:35.8   0.2                          T                                        4894448
CDF   002.12 358.7 m E Pg      2012/03/21 11:02:38.1   0.2                          T   001.0                                4879801
CDF   002.12 358.7 m E Sg      2012/03/21 11:03:04.8  -0.5                          T   001.0        7.6  .31 Ml 2.7         4879802
VIVF  002.37 233.6 m E Pn      2012/03/21 11:02:38.3   1.9                          T   001.0                                4879829
VIVF  002.37 233.6 m E Sg      2012/03/21 11:03:12.7  -0.1                          T   001.0       12.8  .24 Ml 3.0         4879831
LOR   002.59 293.4 m E Pn      2012/03/21 11:02:38.9  -0.6                          T   001.0                                4879806
LOR   002.59 293.4 m E Sg      2012/03/21 11:03:18.5  -1.3                          T   001.0        4.4  .18 Ml 2.7         4879807
PAGF  002.52 334.6 m E P       2012/03/21 11:02:41.1   0.0                          T                                        4894436
PAGF  002.52 334.6 m E Pg      2012/03/21 11:02:44.7  -0.4                          T                                        4894435
PAGF  002.52 334.6 m E Sg      2012/03/21 11:03:16.9  -0.7                          T                1.4  .26 Ml 2.0         4894455
SSF   002.76 287.6 m E Pn      2012/03/21 11:02:41.7   0.0                          T   001.0                                4879816
SSF   002.76 287.6 m E Sn      2012/03/21 11:03:13.0  -0.6                          T   001.0                                4879818
SSF   002.76 287.6 m E Sg      2012/03/21 11:03:24.1  -0.8                          T   001.0        5.8  .34 Ml 2.7         4879819
AVF   002.80 281.7 m E Pn      2012/03/21 11:02:43.6   1.3                          T   001.0                                4879797
AVF   002.80 281.7 m E Sg      2012/03/21 11:03:26.5   0.1                          T                1.8  .27 Ml 2.2         4894447
SBF   002.43 178.5 m E Pg      2012/03/21 11:02:43.7   0.2                          T                                        4894442
SBF   002.43 178.5 m E Sg      2012/03/21 11:03:14.9   0.1                          T                7.3  .32 Ml 2.7         4894441
SMF   002.45 279.6 m E Pg      2012/03/21 11:02:44.4   0.5                          T                                        4894438
SMF   002.45 279.6 m E Sn      2012/03/21 11:03:06.9   0.5                          T   001.0                                4879814
SMF   002.45 279.6 m E Sg      2012/03/21 11:03:15.1  -0.3                          T   001.0        5.8  .24 Ml 2.7         4879815
BGF   003.13 276.5 m E Pn      2012/03/21 11:02:47.9   1.1                          T   001.0                                4879799
BGF   003.13 276.5 m E Sg      2012/03/21 11:03:37.5   1.0                          T                9.0  .42 Ml 2.8         4894454
SMRF  002.63 209.1 m E Pg      2012/03/21 11:02:47.9   0.6                          T                                        4894444
FRF   002.78 190.6 m E Pg      2012/03/21 11:02:50.0   0.2                          T                                        4894443
FRF   002.78 190.6 m E Sg      2012/03/21 11:03:27.6   2.0                          T   001.0        6.9  .44 Ml 2.6         4879803
THEF  002.15 335.0 m E Sg      2012/03/21 11:03:06.1   0.2                          T               17.8  .27 Ml 3.1         4894452
SFTF  002.48 321.4 m E Sg      2012/03/21 11:03:16.1  -0.1                          T               15.5  .39 Ml 2.9         4894457
MEZF  002.71 325.6 m E Sg      2012/03/21 11:03:21.6  -1.8                          T               17.9  .40 Ml 3.0         4894456
TCF   003.56 271.8 m E Sn      2012/03/21 11:03:33.1   0.1                          T   001.0        4.9  .24 Ml 2.9         4879820
LMR   003.02 191.7 m E Sg      2012/03/21 11:03:34.1   1.0                          T   001.0        8.3  .60 Ml 2.6         4879805
LASF  003.32 229.4 m E Sg      2012/03/21 11:03:40.9  -1.6                          T                                        4894440
HYF   003.38 288.5 m E Sg      2012/03/21 11:03:45.2   0.7                          T                                        4894439

.
EVENT     272239
    Date      Time       Latitude Longitude    Depth    Ndef Nsta Gap    Mag1  N    Mag2  N    Mag3  N   Author         ID
       rms   OT_Error      Smajor Sminor Az        Err   mdist  Mdist     Err        Err        Err      Quality

2012/03/21 11:34:44.5     43.1225    -.6952      2.0      32    5 101  Ml 2.2  2  Md 2.1  3              js067245    272259

      1.37   +-  0.19       4.4    2.5    2.12 +-  0.0    0.04   2.76   +-0.0      +-0.1                 m i ke

PYRENEES
Sta     Dist  EvAz     Phase      Date       Time     TRes  Azim  AzRes  Slow  SRes Def   SNR       Amp   Per   Mag1   Mag2       ID
ETSF  000.24 155.9 m E Pg      2012/03/21 11:34:49.6   0.1                          T                                        4894469
ETSF  000.24 155.9 m E Sg      2012/03/21 11:34:53.1   0.3                          T               42.6  .16        Md 2.2  4894465
SJPF  000.39 268.8 m E Pg      2012/03/21 11:34:52.8   0.7                          T                                        4894468
SJPF  000.39 268.8 m E Sg      2012/03/21 11:34:57.8   0.6                          T               36.9  .20        Md 2.1  4894466
EPF   000.76 096.6 m E Pg      2012/03/21 11:34:59.5   0.5                          T                                        4894467
EPF   000.76 096.6 m E Sg      2012/03/21 11:35:10.2   1.2                          T                9.4  .18        Md 2.2  4894464
MTLF  002.14 083.1 m E Pg      2012/03/21 11:35:23.1  -1.2                          T                                        4894463
MTLF  002.14 083.1 m E Sg      2012/03/21 11:35:49.3  -2.6                          T                2.6  .28 Ml 2.2         4894462
LFF   002.09 029.2 m E Pg      2012/03/21 11:35:24.4   1.0                          T                                        4894472

.
EVENT     272240
    Date      Time       Latitude Longitude    Depth    Ndef Nsta Gap    Mag1  N    Mag2  N    Mag3  N   Author         ID
       rms   OT_Error      Smajor Sminor Az        Err   mdist  Mdist     Err        Err        Err      Quality

2012/03/21 11:46:57.3     46.0244    6.8814      2.0      29   10 065  Ml 1.9  8  Md 1.6  3              js067245    272260

      0.46   +-  0.05       1.2     .8  110.02 +-  0.0    0.04   2.29   +-0.2      +-0.2                 m i ke

SWITZERLAND
Sta     Dist  EvAz     Phase      Date       Time     TRes  Azim  AzRes  Slow  SRes Def   SNR       Amp   Per   Mag1   Mag2       ID
LPL   000.52 191.7 m E Pg      2012/03/21 11:47:07.4  -0.1                          T                                        4894482
LPL   000.52 191.7 m E Sg      2012/03/21 11:47:13.5  -0.8                          T                3.3  .32        Md 1.6  4894481
LPG   000.53 189.8 m E Pg      2012/03/21 11:47:07.6  -0.2                          T                                        4894479
LPG   000.53 189.8 m E Sg      2012/03/21 11:47:14.3  -0.6                          T                6.8  .27        Md 1.5  4894480
CABF  000.80 317.1 m E Pg      2012/03/21 11:47:12.8   0.3                          T                                        4894490
CABF  000.80 317.1 m E Sg      2012/03/21 11:47:23.3   0.3                          T                4.5  .33        Md 1.9  4894487
MBDF  001.30 183.5 m E Pg      2012/03/21 11:47:21.5  -0.2                          T                                        4894483
MBDF  001.30 183.5 m E Sg      2012/03/21 11:47:38.7   0.1                          T                1.1  .22 Ml 1.6         4894484
ORIF  001.31 212.9 m E Pg      2012/03/21 11:47:22.0   0.1                          T                                        4894489
ORIF  001.31 212.9 m E Sg      2012/03/21 11:47:38.9   0.1                          T                1.7  .29 Ml 1.7         4894478
VIVF  001.94 233.9 m E Pg      2012/03/21 11:47:33.2  -0.3                          T                                        4894488
VIVF  001.94 233.9 m E Sn      2012/03/21 11:47:54.3   1.1                          T                                        4894486
VIVF  001.94 233.9 m E Sg      2012/03/21 11:47:58.6   0.0                          T                2.3  .23 Ml 2.2         4894485
HINF  001.79 359.4 m E Sg      2012/03/21 11:47:54.0   0.2                          T                1.7  .30 Ml 1.9         4894477
HAU   002.02 349.8 m E Sg      2012/03/21 11:48:00.1  -0.6                          T                2.5  .31 Ml 1.9         4894476
SMF   002.20 287.5 m E Sg      2012/03/21 11:48:05.6  -0.7                          T                1.1  .22 Ml 2.0         4894491
THEF  002.29 345.0 m E Sg      2012/03/21 11:48:09.4   0.2                          T                3.0  .30 Ml 2.3         4894475

.
EVENT     272262
    Date      Time       Latitude Longitude    Depth    Ndef Nsta Gap    Mag1  N    Mag2  N    Mag3  N   Author         ID
       rms   OT_Error      Smajor Sminor Az        Err   mdist  Mdist     Err        Err        Err      Quality

2012/03/21 18:23:56.4     46.0252    6.8833      3.0 f    32   11 049  Ml 1.9  7  Md 2.0  2              js067245    272282

      0.39   +-  0.04        .9     .7   93.94 +-  0.0    0.04   2.77   +-0.4      +-0.1                 m i ke

SWITZERLAND
Sta     Dist  EvAz     Phase      Date       Time     TRes  Azim  AzRes  Slow  SRes Def   SNR       Amp   Per   Mag1   Mag2       ID
LPL   000.52 191.8 m E Pg      2012/03/21 18:24:06.5  -0.1                          T                                        4894506
LPL   000.52 191.8 m E Sg      2012/03/21 18:24:13.2  -0.3                          T                                        4894505
LPG   000.54 190.0 m E Pg      2012/03/21 18:24:06.9  -0.1                          T                                        4894503
LPG   000.54 190.0 m E Sg      2012/03/21 18:24:14.4   0.3                          T                4.5  .26        Md 2.0  4894504
CABF  000.80 317.0 m E Pg      2012/03/21 18:24:11.9   0.1                          T                                        4894501
CABF  000.80 317.0 m E Sg      2012/03/21 18:24:22.5   0.3                          T                2.2  .26        Md 2.0  4894500
MBDF  001.30 183.5 m E Pg      2012/03/21 18:24:20.7  -0.2                          T                                        4894571
MBDF  001.30 183.5 m E Sg      2012/03/21 18:24:38.0   0.2                          T                 .8  .26 Ml 1.4         4894570
ORIF  001.31 212.9 m E Pg      2012/03/21 18:24:21.5   0.4                          T                                        4894572
ORIF  001.31 212.9 m E Sg      2012/03/21 18:24:38.2   0.1                          T                1.1  .35 Ml 1.5         4894569
HINF  001.79 359.4 m E Pg      2012/03/21 18:24:29.6  -0.3                          T                                        4894498
HINF  001.79 359.4 m E Sg      2012/03/21 18:24:53.0   0.0                          T                1.3  .26 Ml 1.8         4894499
VIVF  001.95 233.9 m E Pg      2012/03/21 18:24:33.1   0.4                          T                                        4894568
VIVF  001.95 233.9 m E Sg      2012/03/21 18:24:57.7  -0.1                          T                1.7  .22 Ml 2.1         4894502
HAU   002.01 349.7 m E Sg      2012/03/21 18:24:59.5  -0.4                          T                                        4894497
SMF   002.20 287.5 m E Sg      2012/03/21 18:25:05.1  -0.4                          T                1.1  .22 Ml 1.9         4894567
SFTF  002.52 330.7 m E Sg      2012/03/21 18:25:15.4  -0.2                          T                6.9  .53 Ml 2.4         4894566
MEZF  002.77 333.9 m E Sg      2012/03/21 18:25:23.7   0.1                          T                3.5  .36 Ml 2.4         4894565

.
EVENT     272302
    Date      Time       Latitude Longitude    Depth    Ndef Nsta Gap    Mag1  N    Mag2  N    Mag3  N   Author         ID
       rms   OT_Error      Smajor Sminor Az        Err   mdist  Mdist     Err        Err        Err      Quality

2012/03/21 19:43:08.8     46.0339    6.8718      2.0      12    3 122  Ml 1.0  1  Md 1.1  2              js067245    272322

      0.17   +-  0.05       1.6     .9  119.70 +-  0.0    0.03   1.32   +-         +-0.1                 m i ke

SWITZERLAND
Sta     Dist  EvAz     Phase      Date       Time     TRes  Azim  AzRes  Slow  SRes Def   SNR       Amp   Per   Mag1   Mag2       ID
LPL   000.53 190.7 m E Pg      2012/03/21 19:43:19.0  -0.1                          T                                        4894574
LPL   000.53 190.7 m E Sg      2012/03/21 19:43:25.7  -0.3                          T                1.2  .34        Md 1.0  4894573
LPG   000.54 189.0 m E Pg      2012/03/21 19:43:19.4  -0.1                          T                                        4894576
LPG   000.54 189.0 m E Sg      2012/03/21 19:43:26.4  -0.2                          T                1.4  .25        Md 1.2  4894575
ORIF  001.32 212.4 m E Sg      2012/03/21 19:43:50.7   0.1                          T                 .2  .20 Ml 1.0         4898039

.
