EVENT     259547
    Date      Time       Latitude Longitude    Depth    Ndef Nsta Gap    Mag1  N    Mag2  N    Mag3  N   Author         ID
       rms   OT_Error      Smajor Sminor Az        Err   mdist  Mdist     Err        Err        Err      Quality

2011/05/22 17:10:10.4     44.6227    7.2463      2.0      19    9 191  Ml 1.8  8  Md 2.1  1              js067245    259547

      1.18   +-  0.19       3.8    1.9   74.54 +-  0.0    0.35   1.85   +-0.4      +-                    m i ke

NORTHERN ITALY
Sta     Dist  EvAz     Phase      Date       Time     TRes  Azim  AzRes  Slow  SRes Def   SNR       Amp   Per   Mag1   Mag2       ID
MBDF  000.35 287.3 m E Pg      2011/05/22 17:10:17.6   0.2                          T                                        4698853
MBDF  000.35 287.3 m E Sg      2011/05/22 17:10:22.3   0.1                          T               22.0  .24        Md 2.1  4698854
SBF   000.77 169.8 m E Pg      2011/05/22 17:10:24.9  -0.1                          T                                        4698846
SBF   000.77 169.8 m E Sg      2011/05/22 17:10:35.3   0.2                          T                2.1  .17                4698845
LPG   000.94 338.3 m E Pg      2011/05/22 17:10:28.3  -0.2                          T                                        4698850
LPG   000.94 338.3 m E Sg      2011/05/22 17:10:40.8   0.1                          T                1.6  .18 Ml 1.7         4698841
LPL   000.97 338.0 m E Pg      2011/05/22 17:10:28.7  -0.1                          T                                        4698851
LPL   000.97 338.0 m E Sg      2011/05/22 17:10:41.3  -0.1                          T                2.7  .27 Ml 1.8         4698840
ORIF  001.02 287.4 m E Pg      2011/05/22 17:10:29.4  -0.2                          T                                        4698852
ORIF  001.02 287.4 m E Sg      2011/05/22 17:10:42.8   0.0                          T                3.1  .27 Ml 1.9         4698839
FRF   001.15 202.3 m E Pg      2011/05/22 17:10:31.9   0.1                          T                                        4698849
FRF   001.15 202.3 m E Sg      2011/05/22 17:10:46.7   0.0                          T                7.0  .27 Ml 2.3         4698843
LMR   001.39 202.7 m E Pg      2011/05/22 17:10:36.4   0.1                          T                                        4698847
LMR   001.39 202.7 m E Sg      2011/05/22 17:10:54.4   0.0                          T                4.3  .23 Ml 2.3         4698844
VIVF  001.85 278.2 m E P       2011/05/22 17:10:43.5   0.0                          T                                        4698848
VIVF  001.85 278.2 m E Sg      2011/05/22 17:11:08.9   0.3                          T                 .4  .26 Ml 1.3         4698838
SMRF  001.36 242.3 m E Sg      2011/05/22 17:10:53.8   0.3                          T                 .5  .23 Ml 1.3         4698842

.
EVENT     259546
    Date      Time       Latitude Longitude    Depth    Ndef Nsta Gap    Mag1  N    Mag2  N    Mag3  N   Author         ID
       rms   OT_Error      Smajor Sminor Az        Err   mdist  Mdist     Err        Err        Err      Quality

2011/05/22 17:41:49.6     44.6280    9.4221      2.0      50   22 048  Ml 2.9 14                         js067245    259546

      0.94   +-  0.16       3.9    3.1   13.64 +-  0.0    0.14   5.34   +-0.2                            m i ke

NORTHERN ITALY
Sta     Dist  EvAz     Phase      Date       Time     TRes  Azim  AzRes  Slow  SRes Def   SNR       Amp   Per   Mag1   Mag2       ID
SBF   001.62 242.5 m E Pn      2011/05/22 17:42:16.4  -1.1                          T   001.0                                4694467
SBF   001.62 242.5 m E Sg      2011/05/22 17:42:41.6   0.9                          T   001.0       49.4  .32 Ml 3.3         4694468
MBDF  001.89 273.9 m E Pn      2011/05/22 17:42:21.7   0.4                          T   001.0                                4694477
MBDF  001.89 273.9 m E Sn      2011/05/22 17:42:44.6   0.2                          T               29.8  .44 Ml 3.0         4698855
LPG   002.08 295.6 m E Pn      2011/05/22 17:42:22.4  -1.7                          T   001.0                                4694462
LPG   002.08 295.6 m E Sn      2011/05/22 17:42:49.2   0.1                          T               20.8  .50 Ml 2.8         4698857
PGF   002.10 188.6 m E Pn      2011/05/22 17:42:23.4  -0.7                          T   001.0                                4694465
PGF   002.10 188.6 m E Sn      2011/05/22 17:42:48.7  -0.6                          T   001.0        5.5  .32 Ml 2.7         4694466
LPL   002.10 295.9 m E Pn      2011/05/22 17:42:24.6   0.3                          T   001.0                                4694463
LPL   002.10 295.9 m E Sn      2011/05/22 17:42:49.0   0.5                          T   001.0       22.1  .32 Ml 3.1         4694464
FRF   002.27 242.9 m E Pn      2011/05/22 17:42:25.4  -0.8                          T   001.0                                4694452
FRF   002.27 242.9 m E Sn      2011/05/22 17:42:52.7  -0.4                          T   001.0                                4694453
FRF   002.27 242.9 m E Sg      2011/05/22 17:43:01.0   0.2                          T   001.0       18.1  .36 Ml 3.0         4694454
LMR   002.47 239.4 m E Pn      2011/05/22 17:42:28.4  -0.6                          T   001.0                                4694458
LMR   002.47 239.4 m E Sn      2011/05/22 17:42:57.7  -0.3                          T   001.0        6.6  .20 Ml 2.8         4694459
ORIF  002.54 277.8 m E P       2011/05/22 17:42:32.4  -0.2                          T                                        4698859
ORIF  002.54 277.8 m E Sn      2011/05/22 17:43:00.0   0.3                          T               28.8  .44 Ml 3.1         4698856
SMRF  002.84 258.1 m E Pn      2011/05/22 17:42:33.9  -0.2                          T   001.0                                4694480
SMRF  002.84 258.1 m E Sn      2011/05/22 17:43:07.3   0.5                          T                                        4698858
CABF  003.07 311.5 m E Pn      2011/05/22 17:42:36.9  -0.4                          T   001.0                                4694474
VIVF  003.39 275.5 m E Pn      2011/05/22 17:42:43.0   1.4                          T   001.0                                4694478
VIVF  003.39 275.5 m E Sn      2011/05/22 17:43:20.2   0.2                          T   001.0        6.4  .48 Ml 2.6         4694479
HINF  003.65 331.7 m E Pn      2011/05/22 17:42:45.0  -0.2                          T   001.0                                4694475
HINF  003.65 331.7 m E Sn      2011/05/22 17:43:26.6   0.3                          T   001.0       12.8  .36 Ml 3.1         4694476
HAU   003.99 328.9 m E Pn      2011/05/22 17:42:49.0   0.2                          T   001.0                                4694455
CDF   004.06 339.4 m E Pn      2011/05/22 17:42:49.0  -0.8                          T   001.0                                4694451
LASF  004.03 264.1 m E Pn      2011/05/22 17:42:51.5   1.2                          T   001.0                                4694456
LASF  004.03 264.1 m E Sn      2011/05/22 17:43:36.1   0.8                          T   001.0        3.7  .52 Ml 2.5         4694457
SMF   004.40 299.2 m E Pn      2011/05/22 17:42:55.0   0.7                          T   001.0                                4694469
LOR   004.69 306.2 m E Pn      2011/05/22 17:42:59.5   0.2                          T   001.0                                4694460
LOR   004.69 306.2 m E Sn      2011/05/22 17:43:52.7   1.6                          T   001.0        5.8  .36 Ml 3.0         4694461
AVF   004.77 299.1 m E Pn      2011/05/22 17:43:01.2   0.9                          T   001.0                                4694448
SSF   004.80 302.6 m E Pn      2011/05/22 17:43:02.5   1.8                          T   001.0                                4694470
SSF   004.80 302.6 m E Sn      2011/05/22 17:43:53.2  -0.4                          T   001.0        3.6  .44 Ml 2.8         4694471
BGF   005.00 295.0 m E Pn      2011/05/22 17:43:04.5   1.0                          T   001.0                                4694449
TCF   005.34 290.7 m E Pn      2011/05/22 17:43:09.5   1.4                          T   001.0                                4694472
TCF   005.34 290.7 m E Sn      2011/05/22 17:44:09.8   3.3                          T   001.0        5.1  .32 Ml 3.2         4694473
CAF   005.25 275.8 m E Pn      2011/05/22 17:43:10.1   3.2                          T   001.0                                4694450

.
EVENT     259540
    Date      Time       Latitude Longitude    Depth    Ndef Nsta Gap    Mag1  N    Mag2  N    Mag3  N   Author         ID
       rms   OT_Error      Smajor Sminor Az        Err   mdist  Mdist     Err        Err        Err      Quality

2011/05/22 20:26:06.9     42.8351   -1.3657      2.0      30    3 102  Ml 1.1  1  Md 1.3  2              js067245    259540

      0.36   +-  0.08       1.7    1.1   41.09 +-  0.0    0.07   1.27   +-         +-0.1                 m i ke

PYRENEES
Sta     Dist  EvAz     Phase      Date       Time     TRes  Azim  AzRes  Slow  SRes Def   SNR       Amp   Per   Mag1   Mag2       ID
SJPF  000.30 020.3 m E Pg      2011/05/22 20:26:12.7   0.0                          T                                        4698864
SJPF  000.30 020.3 m E Sg      2011/05/22 20:26:16.7   0.0                          T                2.2  .28        Md 1.3  4698865
ETSF  000.60 083.6 m E Pg      2011/05/22 20:26:18.3   0.0                          T                                        4698862
ETSF  000.60 083.6 m E Sg      2011/05/22 20:26:26.0  -0.1                          T                 .8  .30        Md 1.2  4698863
EPF   001.27 080.6 m E Pg      2011/05/22 20:26:30.6   0.0                          T                                        4698860
EPF   001.27 080.6 m E Sg      2011/05/22 20:26:46.9  -0.2                          T                 .3  .20 Ml 1.1         4698861

.
EVENT     259548
    Date      Time       Latitude Longitude    Depth    Ndef Nsta Gap    Mag1  N    Mag2  N    Mag3  N   Author         ID
       rms   OT_Error      Smajor Sminor Az        Err   mdist  Mdist     Err        Err        Err      Quality

2011/05/22 21:35:35.3     44.4806    7.2706      2.0      21    9 188  Ml 2.3  8  Md 2.2  1              js067245    259548

      0.56   +-  0.13       2.6    1.2   73.65 +-  0.0    0.43   1.89   +-0.3      +-                    m i ke

NORTHERN ITALY
Sta     Dist  EvAz     Phase      Date       Time     TRes  Azim  AzRes  Slow  SRes Def   SNR       Amp   Per   Mag1   Mag2       ID
MBDF  000.43 304.8 m E Pg      2011/05/22 21:35:44.0   0.2                          T                                        4698885
MBDF  000.43 304.8 m E Sg      2011/05/22 21:35:49.7   0.2                          T               69.2  .40        Md 2.2  4698886
SBF   000.63 169.1 m E Pg      2011/05/22 21:35:47.4   0.1                          T                                        4698880
SBF   000.63 169.1 m E Sg      2011/05/22 21:35:55.5   0.0                          T               15.5  .26                4698868
FRF   001.02 206.3 m E Pg      2011/05/22 21:35:54.4  -0.1                          T                                        4698882
FRF   001.02 206.3 m E Sg      2011/05/22 21:36:07.5  -0.3                          T               10.3  .20 Ml 2.6         4698871
LPG   001.08 340.3 m E Pg      2011/05/22 21:35:55.7  -0.3                          T                                        4698883
LPG   001.08 340.3 m E Sg      2011/05/22 21:36:10.2   0.3                          T                4.2  .28 Ml 2.0         4698874
ORIF  001.08 294.3 m E Pg      2011/05/22 21:35:55.8   0.1                          T                                        4698884
ORIF  001.08 294.3 m E Sg      2011/05/22 21:36:09.0  -0.7                          T                7.6  .22 Ml 2.4         4698876
LMR   001.27 205.9 m E Pg      2011/05/22 21:35:58.7  -0.3                          T                                        4698881
LMR   001.27 205.9 m E Sn      2011/05/22 21:36:14.9  -0.2                          T                                        4698870
LMR   001.27 205.9 m E Sg      2011/05/22 21:36:15.6   0.1                          T                8.2  .20 Ml 2.6         4698869
SMRF  001.32 248.1 m E Pg      2011/05/22 21:36:00.2   0.2                          T                                        4698872
SMRF  001.32 248.1 m E Sg      2011/05/22 21:36:17.3   0.2                          T                3.4  .25 Ml 2.1         4698873
VIVF  001.89 282.4 m E Pn      2011/05/22 21:36:07.4   0.5                          T                                        4698879
VIVF  001.89 282.4 m E Pg      2011/05/22 21:36:10.5   0.0                          T                                        4698878
VIVF  001.89 282.4 m E Sg      2011/05/22 21:36:34.9   0.0                          T                 .9  .19 Ml 1.9         4698877
LPL   001.10 340.0 m E Sg      2011/05/22 21:36:10.2  -0.3                          T                5.6  .34 Ml 2.1         4698875

.
EVENT     259541
    Date      Time       Latitude Longitude    Depth    Ndef Nsta Gap    Mag1  N    Mag2  N    Mag3  N   Author         ID
       rms   OT_Error      Smajor Sminor Az        Err   mdist  Mdist     Err        Err        Err      Quality

2011/05/22 21:59:22.2     42.8266   -1.0829      2.0      27    3 098  Ml 1.0  1  Md 1.1  2              js067245    259541

      0.26   +-  0.05       1.0     .9   51.59 +-  0.0    0.11   1.06   +-         +-0.2                 m i ke

PYRENEES
Sta     Dist  EvAz     Phase      Date       Time     TRes  Azim  AzRes  Slow  SRes Def   SNR       Amp   Per   Mag1   Mag2       ID
SJPF  000.30 340.0 m E Pg      2011/05/22 21:59:28.1  -0.1                          T                                        4698891
SJPF  000.30 340.0 m E Sg      2011/05/22 21:59:32.5   0.2                          T                1.1  .26        Md 1.0  4698892
ETSF  000.39 079.2 m E Pg      2011/05/22 21:59:29.9   0.1                          T                                        4698889
ETSF  000.39 079.2 m E Sg      2011/05/22 21:59:35.3   0.2                          T                 .8  .24        Md 1.3  4698890
EPF   001.06 078.5 m E Pg      2011/05/22 21:59:42.1  -0.1                          T                                        4698887
EPF   001.06 078.5 m E Sg      2011/05/22 21:59:56.0   0.0                          T                 .3  .20 Ml 1           4698888

.
EVENT     259549
    Date      Time       Latitude Longitude    Depth    Ndef Nsta Gap    Mag1  N    Mag2  N    Mag3  N   Author         ID
       rms   OT_Error      Smajor Sminor Az        Err   mdist  Mdist     Err        Err        Err      Quality

2011/05/23 01:01:07.0     37.8397   10.1651      2.0      22    7 282  Ml 2.9  2                         js067245    259549

      0.94   +-  0.96      22.7    5.5  127.00 +-  0.0    1.76  10.48   +-0.3                            m i ke

TUNISIA
Sta     Dist  EvAz     Phase      Date       Time     TRes  Azim  AzRes  Slow  SRes Def   SNR       Amp   Per   Mag1   Mag2       ID
PGF   004.79 349.6 m E P       2011/05/23 01:02:21.5  -0.6                          T                                        4698910
PGF   004.79 349.6 m E Sn      2011/05/23 01:03:11.0   0.1                          T                4.0  .38 Ml 3.1         4698902
LMR   006.15 334.3 m E Pn      2011/05/23 01:02:38.1   1.6                          T                                        4698907
LMR   006.15 334.3 m E Sn      2011/05/23 01:03:42.6  -0.8                          T                 .9  .27 Ml 2.6         4698901
FRF   006.31 336.0 m E Pn      2011/05/23 01:02:39.6   0.8                          T                                        4698905
FRF   006.31 336.0 m E P       2011/05/23 01:02:43.0  -0.4                          T                                        4698906
SBF   006.36 341.9 m E Pn      2011/05/23 01:02:39.7   0.1                          T                                        4698908
SBF   006.36 341.9 m E P       2011/05/23 01:02:44.3   0.0                          T                                        4698909
SMRF  007.05 331.9 m E P       2011/05/23 01:02:54.0   0.2                          T                                        4698904
ORIF  007.77 336.9 m E P       2011/05/23 01:03:03.8  -0.3                          T                                        4698900
LASF  007.85 324.5 m E P       2011/05/23 01:03:05.4   0.4                          T                                        4698903

.
EVENT     259553
    Date      Time       Latitude Longitude    Depth    Ndef Nsta Gap    Mag1  N    Mag2  N    Mag3  N   Author         ID
       rms   OT_Error      Smajor Sminor Az        Err   mdist  Mdist     Err        Err        Err      Quality

2011/05/23 01:03:50.3     42.8993    -.5293     15.0       6    3 190             Md 1.0  3              js067245    259553

      0.53   +-  0.44      30.2    6.0    4.50 +-  0.0    0.02   0.65              +-0.3                 m i ke

PYRENEES
Sta     Dist  EvAz     Phase      Date       Time     TRes  Azim  AzRes  Slow  SRes Def   SNR       Amp   Per   Mag1   Mag2       ID
ETSF  000.02 268.2 m E Pg      2011/05/23 01:03:52.7  -0.5                          T                                        4698915
ETSF  000.02 268.2 m E Sg      2011/05/23 01:03:55.4   0.3                          T               10.8  .36        Md 1.4  4698916
SJPF  000.55 293.0 m E Pg      2011/05/23 01:04:01.5   0.4                          T                                        4698913
SJPF  000.55 293.0 m E Sg      2011/05/23 01:04:07.9  -0.7                          T                 .4  .19        Md  .8  4698914
EPF   000.65 078.1 m E Pg      2011/05/23 01:04:03.3   0.4                          T                                        4698911
EPF   000.65 078.1 m E Sg      2011/05/23 01:04:10.7  -0.9                          T                 .8  .25        Md  .9  4698912

.
