EVENT     275426
    Date      Time       Latitude Longitude    Depth    Ndef Nsta Gap    Mag1  N    Mag2  N    Mag3  N   Author         ID
       rms   OT_Error      Smajor Sminor Az        Err   mdist  Mdist     Err        Err        Err      Quality

2012/05/03 08:24:19.4     44.3899    7.4280      2.0      28    8 131  Ml 1.7  7  Md 1.7  3              bulletin    275526
                                                                                                         _ldg
      0.17   +-  0.04       1.0     .5   70.19 +-  0.0    0.16   1.40   +-0.3      +-0.1                 m i ke

NORTHERN ITALY
Sta     Dist  EvAz     Phase      Date       Time     TRes  Azim  AzRes  Slow  SRes Def   SNR       Amp   Per   Mag1   Mag2       ID
SBF   000.53 179.4 m E Pg      2012/05/03 08:24:29.5   0.0                          T                                        4936776
SBF   000.53 179.4 m E Sg      2012/05/03 08:24:36.1  -0.3                          T                1.5  .17        Md 1.7  4936775
MBDF  000.58 305.9 m E Pg      2012/05/03 08:24:30.6   0.1                          T                                        4936784
MBDF  000.58 305.9 m E Sg      2012/05/03 08:24:38.4   0.3                          T                1.7  .20        Md 1.6  4936785
FRF   001.00 214.5 m E Pg      2012/05/03 08:24:38.1   0.0                          T                                        4936780
FRF   001.00 214.5 m E Sg      2012/05/03 08:24:51.3   0.1                          T                2.2  .22 Ml 1.9 Md 1.9  4936779
LPG   001.21 336.8 m E Pg      2012/05/03 08:24:42.2  -0.1                          T                                        4936783
LPG   001.21 336.8 m E Sg      2012/05/03 08:24:58.2   0.3                          T                 .6  .23 Ml 1.3         4936774
LMR   001.25 212.5 m E Pn      2012/05/03 08:24:42.2   0.1                          T                                        4936778
LMR   001.25 212.5 m E Sn      2012/05/03 08:24:58.5   0.0                          T                2.7  .20 Ml 2.1         4936777
ORIF  001.22 296.1 m E Pg      2012/05/03 08:24:42.3  -0.1                          T                                        4936771
ORIF  001.22 296.1 m E Sg      2012/05/03 08:24:58.2   0.0                          T                2.5  .42 Ml 1.7         4936770
LPL   001.23 336.6 m E Pg      2012/05/03 08:24:42.3  -0.3                          T                                        4936773
LPL   001.23 336.6 m E Sg      2012/05/03 08:24:58.6   0.1                          T                1.7  .32 Ml 1.6         4936772
SMRF  001.40 253.4 m E Pn      2012/05/03 08:24:44.4   0.2                          T                                        4936782
SMRF  001.40 253.4 m E Sn      2012/05/03 08:25:01.6  -0.5                          T                 .5  .18 Ml 1.4         4936781

.
EVENT     275379
    Date      Time       Latitude Longitude    Depth    Ndef Nsta Gap    Mag1  N    Mag2  N    Mag3  N   Author         ID
       rms   OT_Error      Smajor Sminor Az        Err   mdist  Mdist     Err        Err        Err      Quality

2012/05/03 08:30:36.9     45.8403    4.6691       .0 f    18    7 157  Ml 2.2  2  Md 2.3  3              bulletin    275479
                                                                                                         _ldg
      0.61   +-  0.14       6.5    2.2   62.61 +-  0.0    0.98   1.53   +-0.1      +-0.2                 m i km

FRANCE
Sta     Dist  EvAz     Phase      Date       Time     TRes  Azim  AzRes  Slow  SRes Def   SNR       Amp   Per   Mag1   Mag2       ID
SMF   000.99 324.8 m E Pg      2012/05/03 08:30:55.1  -0.7                          T                                        4936317
SMF   000.99 324.8 m E Sg      2012/05/03 08:31:08.9   0.1                          T                                Md 2.1  4936315
VIVF  000.98 179.8 m E Pg      2012/05/03 08:30:55.5  -0.2                          T                                        4936311
VIVF  000.98 179.8 m E Sg      2012/05/03 08:31:09.4   0.7                          T                8.1  .28 Ml 2.3 Md 2.4  4936310
ORIF  001.26 136.8 m E Pn      2012/05/03 08:31:00.5   0.1                          T                                        4936318
ORIF  001.26 136.8 m E Sn      2012/05/03 08:31:16.7  -0.4                          T                4.5  .30 Ml 2.1         4936309
AVF   001.32 316.6 m E Pn      2012/05/03 08:31:00.8  -0.3                          T                                        4936316
AVF   001.32 316.6 m E Sn      2012/05/03 08:31:18.4  -0.1                          T                                Md 2.4  4936314
SSF   001.46 327.1 m E Pn      2012/05/03 08:31:03.2   0.2                          T                                        4936306
SSF   001.46 327.1 m E Sn      2012/05/03 08:31:21.9  -0.1                          T                                        4936305
BGF   001.46 300.2 m E Pn      2012/05/03 08:31:03.3   0.4                          T                                        4936312
BGF   001.46 300.2 m E Sn      2012/05/03 08:31:22.0   0.2                          T                                        4936313
LOR   001.53 338.9 m E Pn      2012/05/03 08:31:03.8  -0.2 159.6  1.2               T                                        4936307
LOR   001.53 338.9 m E Sn      2012/05/03 08:31:22.6  -1.1                          T                                        4936308

.
EVENT     275442
    Date      Time       Latitude Longitude    Depth    Ndef Nsta Gap    Mag1  N    Mag2  N    Mag3  N   Author         ID
       rms   OT_Error      Smajor Sminor Az        Err   mdist  Mdist     Err        Err        Err      Quality

2012/05/03 08:57:24.3     51.5444   16.2079      1.0 f    48   15 102  Ml 4.1 13                         bulletin    275542
                                                                                                         _ldg
      0.71   +-  0.19       5.0    2.9    1.16 +-  0.0    1.20  11.06   +-0.2                            m i sr

POLAND
Sta     Dist  EvAz     Phase      Date       Time     TRes  Azim  AzRes  Slow  SRes Def   SNR       Amp   Per   Mag1   Mag2       ID
CDF   006.56 244.9 m E Pn      2012/05/03 08:58:59.6  -0.1                          T                                        4936949
CDF   006.56 244.9 m E Sg      2012/05/03 09:00:50.4   0.7                          T               81.9  .94 Ml 4.2         4936947
HAU   007.30 244.8 m E Pn      2012/05/03 08:59:10.7   1.0                          T                                        4936938
HAU   007.30 244.8 m E Sg      2012/05/03 09:01:13.3   0.6                          T               54.1  .96 Ml 3.8         4936945
GIVF  007.36 263.1 m E Pn      2012/05/03 08:59:10.9   0.4                          T                                        4936937
GIVF  007.36 263.1 m E Sg      2012/05/03 09:01:15.0   0.5                          T                                        4936943
SFTF  007.95 249.5 m E Pn      2012/05/03 08:59:17.8  -0.7                          T                                        4936940
SFTF  007.95 249.5 m E Sg      2012/05/03 09:01:33.2   0.2                          T              128.8 1.44 Ml 4.4         4936941
CABF  008.27 237.3 m E Pn      2012/05/03 08:59:25.1   2.1                          T                                        4936933
CABF  008.27 237.3 m E Sg      2012/05/03 09:01:45.6   2.4                          T               52.0 1.20 Ml 4.1         4936939
LOR   009.12 246.8 m E Pn      2012/05/03 08:59:35.1   0.7                          T                                        4936934
LOR   009.12 246.8 m E Sg      2012/05/03 09:02:07.5  -1.9                          T               62.9 1.52 Ml 4.2         4936935
FLN   011.06 262.0 m E Pn      2012/05/03 09:00:00.2  -0.7                          T                                        4936932
FLN   011.06 262.0 m E Sn      2012/05/03 09:01:59.9   1.6                          T                                        4936926
LANF  005.97 247.8 m E Sg      2012/05/03 09:00:31.4   0.2                          T              200.0 1.15 Ml 4.3         4936948
HINF  007.12 242.1 m E Sg      2012/05/03 09:01:06.6  -0.6                          T               39.9  .70 Ml 4.0         4936946
THEF  007.39 247.3 m E Sg      2012/05/03 09:01:15.6   0.2                          T               32.9  .33 Ml 4.3         4936944
PAGF  007.38 250.2 m E Sg      2012/05/03 09:01:16.1   0.8                          T               27.3 1.32 Ml 3.6         4936942
BAIF  007.75 263.6 m E Sg      2012/05/03 09:01:25.8  -0.9                          T              102.4 1.48 Ml 4.2         4936936
SMF   009.48 243.7 m E Sg      2012/05/03 09:02:22.1   1.5                          T               12.5  .72 Ml 3.9         4936929
AVF   009.67 245.6 m E Sg      2012/05/03 09:02:26.6   0.0                          T               23.6 1.07 Ml 4.0         4936930
TCF   010.60 245.7 m E Sg      2012/05/03 09:02:56.6   0.8                          T                                        4936931

.
EVENT     275381
    Date      Time       Latitude Longitude    Depth    Ndef Nsta Gap    Mag1  N    Mag2  N    Mag3  N   Author         ID
       rms   OT_Error      Smajor Sminor Az        Err   mdist  Mdist     Err        Err        Err      Quality

2012/05/03 09:33:51.5     48.1853    -.0446       .0 f    13    7 189  Ml 2.4  4  Md 2.3  3              bulletin    275481
                                                                                                         _ldg
      0.32   +-  0.13       2.9    1.8   72.10 +-  0.0    0.41   2.16   +-0.2      +-0.3                 m i km

FRANCE
Sta     Dist  EvAz     Phase      Date       Time     TRes  Azim  AzRes  Slow  SRes Def   SNR       Amp   Per   Mag1   Mag2       ID
LDF   000.41 352.8 m E Pg      2012/05/03 09:33:59.7   0.1                          T                                        4936333
LDF   000.41 352.8 m E Sg      2012/05/03 09:34:05.4   0.1                          T              161.5 1.04        Md 2.5  4936330
GRR   000.58 290.8 m E Pg      2012/05/03 09:34:02.7   0.0                          T                                        4936334
GRR   000.58 290.8 m E Sg      2012/05/03 09:34:10.5   0.0                          T              113.7  .94        Md 2.5  4936329
FLN   000.65 333.4 m E Pg      2012/05/03 09:34:03.1  -0.8                          T                                        4936332
FLN   000.65 333.4 m E Sg      2012/05/03 09:34:12.7   0.1                          T              133.7 1.26        Md 1.9  4936328
MFF   001.59 182.5 m E Pn      2012/05/03 09:34:19.2   0.0                          T                                        4941409
MFF   001.59 182.5 m E Pg      2012/05/03 09:34:21.2   0.0                          T                                        4941408
MFF   001.59 182.5 m E Sn      2012/05/03 09:34:39.7   0.3                          T                4.1  .23 Ml 2.5         4941407
SGMF  001.68 273.3 m E Pn      2012/05/03 09:34:20.2  -0.3                          T                                        4936331
SGMF  001.68 273.3 m E Sn      2012/05/03 09:34:40.8  -0.9                          T                7.0  .35 Ml 2.4         4936327
QUIF  002.11 263.8 m E Sg      2012/05/03 09:34:59.0   0.7                          T                1.5  .23 Ml 2.1         4941405
ROSF  002.16 275.2 m E Sg      2012/05/03 09:35:00.3   0.4                          T                8.8  .44 Ml 2.5         4941406

.
EVENT     275384
    Date      Time       Latitude Longitude    Depth    Ndef Nsta Gap    Mag1  N    Mag2  N    Mag3  N   Author         ID
       rms   OT_Error      Smajor Sminor Az        Err   mdist  Mdist     Err        Err        Err      Quality

2012/05/03 10:08:00.7     49.4219    6.8331       .0 f     5    3 304  Ml 2.7  2  Md 2.4  2              bulletin    275484
                                                                                                         _ldg
      0.91   +-  2.27      42.0   22.7  134.93 +-  0.0    0.78   1.61   +-0.2      +-0.2                 m i km

GERMANY
Sta     Dist  EvAz     Phase      Date       Time     TRes  Azim  AzRes  Slow  SRes Def   SNR       Amp   Per   Mag1   Mag2       ID
LANF  000.78 124.3 m E Pg      2012/05/03 10:08:15.4  -0.2                          T                                        4936335
LANF  000.78 124.3 m E Sg      2012/05/03 10:08:25.5  -0.4                          T               20.6  .37        Md 2.2  4936336
CDF   001.05 163.7 m E Pg      2012/05/03 10:08:21.1   0.3                          T                                        4936338
CDF   001.05 163.7 m E Sg      2012/05/03 10:08:36.1   1.5                          T               27.6  .37 Ml 2.8 Md 2.6  4936337
HINF  001.61 179.5 m E Sg      2012/05/03 10:08:50.1  -1.8                          T                9.7  .36 Ml 2.5         4941411

.
EVENT     275386
    Date      Time       Latitude Longitude    Depth    Ndef Nsta Gap    Mag1  N    Mag2  N    Mag3  N   Author         ID
       rms   OT_Error      Smajor Sminor Az        Err   mdist  Mdist     Err        Err        Err      Quality

2012/05/03 10:09:47.7     43.2284    6.1806       .0 f    10    5 263  Ml 2.1  3  Md 2.2  2              bulletin    275486
                                                                                                         _ldg
      0.35   +-  0.50      10.2    3.4   12.30 +-  0.0    0.26   1.70   +-0.4      +-0.1                 m i km

NEAR SOUTH COAST OF FRANCE
Sta     Dist  EvAz     Phase      Date       Time     TRes  Azim  AzRes  Slow  SRes Def   SNR       Amp   Per   Mag1   Mag2       ID
LMR   000.26 066.2 m E Pg      2012/05/03 10:09:53.4   0.3                          T                                        4936350
LMR   000.26 066.2 m E Sg      2012/05/03 10:09:56.9   0.0                          T               28.0  .44        Md 2.1  4936349
FRF   000.48 045.5 m E Pg      2012/05/03 10:09:56.2  -0.8                          T                                        4936347
FRF   000.48 045.5 m E Sg      2012/05/03 10:10:03.1  -0.4                          T               45.7  .83        Md 2.3  4936348
SMRF  000.87 329.7 m E Pg      2012/05/03 10:10:04.5   0.2                          T                                        4936346
SMRF  000.87 329.7 m E Sg      2012/05/03 10:10:16.2   0.4                          T                3.6  .36 Ml 1.7         4936345
SBF   001.11 054.8 m E Pg      2012/05/03 10:10:09.0   0.1                          T                                        4941419
SBF   001.11 054.8 m E Sg      2012/05/03 10:10:23.3  -0.2                          T               19.2  .37 Ml 2.6         4941420
ORIF  001.70 352.8 m E P       2012/05/03 10:10:18.5  -0.6                          T                                        4941417
ORIF  001.70 352.8 m E Sn      2012/05/03 10:10:39.1   0.5                          T                3.6  .45 Ml 2.0         4941418

.
EVENT     275382
    Date      Time       Latitude Longitude    Depth    Ndef Nsta Gap    Mag1  N    Mag2  N    Mag3  N   Author         ID
       rms   OT_Error      Smajor Sminor Az        Err   mdist  Mdist     Err        Err        Err      Quality

2012/05/03 10:13:51.8     44.7123    2.5361       .0 f    10    5 141  Ml 2.0  4  Md 1.8  1              bulletin    275482
                                                                                                         _ldg
      0.18   +-  0.06       1.7    1.0   21.74 +-  0.0    0.40   1.53   +-0.3      +-                    m i km

FRANCE
Sta     Dist  EvAz     Phase      Date       Time     TRes  Azim  AzRes  Slow  SRes Def   SNR       Amp   Per   Mag1   Mag2       ID
CAF   000.40 302.6 m E Pg      2012/05/03 10:13:59.8   0.0                          T                                        4941425
CAF   000.40 302.6 m E Sg      2012/05/03 10:14:05.5   0.3                          T                3.6  .16        Md 1.8  4941426
LASF  001.14 123.4 m E Pg      2012/05/03 10:14:13.5   0.0                          T                                        4941421
LASF  001.14 123.4 m E Sg      2012/05/03 10:14:28.4   0.0                          T               15.4  .56 Ml 2.3         4941422
LFF   001.30 280.7 m E Pn      2012/05/03 10:14:15.7   0.0                          T                                        4941433
LFF   001.30 280.7 m E Sg      2012/05/03 10:14:32.8  -0.4                          T                5.8  .29 Ml 2.1         4941434
MTLF  001.39 189.6 m E Pg      2012/05/03 10:14:18.2   0.2                          T                                        4941423
MTLF  001.39 189.6 m E Sg      2012/05/03 10:14:35.8  -0.4                          T                1.9  .24 Ml 1.9         4941424
VIVF  001.53 083.9 m E Pg      2012/05/03 10:14:20.6   0.0                          T                                        4941436
VIVF  001.53 083.9 m E Sg      2012/05/03 10:14:40.4  -0.2                          T                1.4  .34 Ml 1.7         4941437

.
EVENT     275383
    Date      Time       Latitude Longitude    Depth    Ndef Nsta Gap    Mag1  N    Mag2  N    Mag3  N   Author         ID
       rms   OT_Error      Smajor Sminor Az        Err   mdist  Mdist     Err        Err        Err      Quality

2012/05/03 10:22:13.7     47.1532   -1.8851       .0 f    15   10 197  Ml 2.0  7                         bulletin    275483
                                                                                                         _ldg
      0.41   +-  0.18       4.3    2.2   36.54 +-  0.0    1.16   3.60   +-0.2                            m i km

FRANCE
Sta     Dist  EvAz     Phase      Date       Time     TRes  Azim  AzRes  Slow  SRes Def   SNR       Amp   Per   Mag1   Mag2       ID
QUIF  001.16 311.8 m E Pg      2012/05/03 10:22:34.0  -0.5                          T                                        4941449
QUIF  001.16 311.8 m E Sg      2012/05/03 10:22:51.5   0.8                          T                1.5  .15 Ml 1.9         4941450
SGMF  001.19 337.9 m E Pg      2012/05/03 10:22:36.8   0.6                          T                                        4941447
SGMF  001.19 337.9 m E Sg      2012/05/03 10:22:51.8   0.0                          T                3.0  .25 Ml 2.0         4941448
MFF   001.31 114.2 m E Pg      2012/05/03 10:22:38.5   0.0                          T                                        4941441
MFF   001.31 114.2 m E Sg      2012/05/03 10:22:55.7   0.0                          T                3.0  .16 Ml 2.4         4941442
GRR   001.42 028.9 m E Pg      2012/05/03 10:22:40.7   0.3                          T                                        4941443
GRR   001.42 028.9 m E Sg      2012/05/03 10:22:58.7  -0.1                          T                2.7  .16 Ml 2.1         4941444
ROSF  001.51 322.1 m E Pg      2012/05/03 10:22:41.7  -0.3                          T                                        4941445
ROSF  001.51 322.1 m E Sg      2012/05/03 10:23:02.1   0.3                          T                2.2  .19 Ml 2.1         4941446
HYF   003.09 086.2 m E Pn      2012/05/03 10:23:00.3  -1.6                          T                                        4941439
BGF   003.30 098.7 m E Pn      2012/05/03 10:23:04.8   0.0                          T                                        4941454
AVF   003.60 093.9 m E Pn      2012/05/03 10:23:09.1   0.1                          T                                        4941438
FLN   001.87 029.8 m E Sg      2012/05/03 10:23:11.8  -1.1                          T                1.5  .22 Ml 1.9         4941440
LDF   001.87 038.8 m E Sg      2012/05/03 10:23:12.8  -0.1                          T                1.5  .21 Ml 2.0         4941453

.
