EVENT     255945
    Date      Time       Latitude Longitude    Depth    Ndef Nsta Gap    Mag1  N    Mag2  N    Mag3  N   Author         ID
       rms   OT_Error      Smajor Sminor Az        Err   mdist  Mdist     Err        Err        Err      Quality

2011/02/12 19:07:05.4     44.2539    6.1600      2.0      24   11 072  Ml 1.7  7  Md 1.7  3              cm165940    255965

      0.47   +-  0.04        .9     .7   87.26 +-  0.0    0.50   3.00   +-0.2      +-0.0                 m i ke

FRANCE
Sta     Dist  EvAz     Phase      Date       Time     TRes  Azim  AzRes  Slow  SRes Def   SNR       Amp   Per   Mag1   Mag2       ID
SMRF  000.50 236.8 m E Pg      2011/02/12 19:07:15.2   0.1                          T                                        4646384
SMRF  000.50 236.8 m E Sg      2011/02/12 19:07:21.9   0.1                          T                5.1  .30        Md 1.8  4646373
MBDF  000.64 042.6 m E Pg      2011/02/12 19:07:17.6  -0.2                          T                                        4646383
MBDF  000.64 042.6 m E Sg      2011/02/12 19:07:26.3   0.0                          T                 .9  .18        Md 1.7  4646365
ORIF  000.69 343.3 m E Pg      2011/02/12 19:07:18.7   0.0                          T                                        4646382
ORIF  000.69 343.3 m E Sg      2011/02/12 19:07:27.8   0.0                          T                4.2  .43        Md 1.7  4646364
FRF   000.78 152.9 m E Pg      2011/02/12 19:07:19.9  -0.2                          T                                        4646380
FRF   000.78 152.9 m E Sg      2011/02/12 19:07:29.9  -0.3                          T                4.2  .20                4646375
LMR   000.95 164.5 m E Pg      2011/02/12 19:07:23.2  -0.1                          T                                        4646379
LMR   000.95 164.5 m E Sg      2011/02/12 19:07:35.8   0.1                          T                3.7  .20 Ml 2.1         4646374
SBF   001.00 112.6 m E Pg      2011/02/12 19:07:24.5   0.2                          T                                        4646378
SBF   001.00 112.6 m E Sg      2011/02/12 19:07:37.3   0.1                          T                2.3  .30 Ml 1.7         4646377
VIVF  001.22 300.0 m E Pg      2011/02/12 19:07:28.2  -0.1                          T                                        4646381
VIVF  001.22 300.0 m E Sg      2011/02/12 19:07:44.0  -0.1                          T                1.0  .25 Ml 1.5         4646376
LPG   001.31 018.5 m E Pg      2011/02/12 19:07:30.3   0.0                          T                                        4646370
LPG   001.31 018.5 m E Sg      2011/02/12 19:07:47.1  -0.2                          T                1.1  .29 Ml 1.5         4646363
LPL   001.33 017.7 m E Pg      2011/02/12 19:07:30.7   0.2                          T                                        4646371
LPL   001.33 017.7 m E Sg      2011/02/12 19:07:47.5  -0.1                          T                2.3  .31 Ml 1.8         4646372
LASF  001.67 264.7 m E Pn      2011/02/12 19:07:34.1   0.2                          T                                        4646369
LASF  001.67 264.7 m E Sn      2011/02/12 19:07:54.7   0.0                          T                 .8  .20 Ml 1.7         4646366
MTLF  003.00 253.6 m E Pn      2011/02/12 19:07:52.0   0.0                          T                                        4646368
MTLF  003.00 253.6 m E Sn      2011/02/12 19:08:26.5   0.1                          T                 .3  .18 Ml 1.6         4646367

.
EVENT     256033
    Date      Time       Latitude Longitude    Depth    Ndef Nsta Gap    Mag1  N    Mag2  N    Mag3  N   Author         ID
       rms   OT_Error      Smajor Sminor Az        Err   mdist  Mdist     Err        Err        Err      Quality

2011/02/12 23:21:42.0     49.8584    7.6097     14.4       8    4 115  Ml 1.2  3  Md 1.6  1              js067245    256053

      0.21   +-  0.05       1.4     .8  132.35 +-  0.5    0.05   1.80   +-0.2      +-                    m i ke

GERMANY
Sta     Dist  EvAz     Phase      Date       Time     TRes  Azim  AzRes  Slow  SRes Def   SNR       Amp   Per   Mag1   Mag2       ID
RUP   000.39 246.4 m E Pg      2011/02/12 23:21:50.1   0.2                          T                                        4649297
RUP   000.39 246.4 m E Sg      2011/02/12 23:21:55.0  -0.3                          T                                Md 1.6  4649298
LANF  000.89 171.7 m E Pg      2011/02/12 23:21:59.0   0.1                          T                                        4649295
LANF  000.89 171.7 m E Sg      2011/02/12 23:22:10.5  -0.1                          T                 .6  .13 Ml 1.4         4649296
CDF   001.46 188.7 m E P       2011/02/12 23:22:08.3  -0.1                          T                                        4649293
CDF   001.46 188.7 m E Sg      2011/02/12 23:22:28.4  -0.2                          T                 .1  .16 Ml 1.1         4649294
PAGF  001.80 224.2 m E Pn      2011/02/12 23:22:09.6  -1.3                          T                                        4649292
PAGF  001.80 224.2 m E Sg      2011/02/12 23:22:38.8   0.0                          T                 .1  .17 Ml 1           4649291

.
EVENT     255942
    Date      Time       Latitude Longitude    Depth    Ndef Nsta Gap    Mag1  N    Mag2  N    Mag3  N   Author         ID
       rms   OT_Error      Smajor Sminor Az        Err   mdist  Mdist     Err        Err        Err      Quality

2011/02/13 07:43:46.3     43.8139    3.2257      2.0      16    6 153  Ml 1.7  6  Md 1.9  2              js067245    255962

      1.52   +-  0.16       5.2    2.4  151.94 +-  0.0    0.53   2.24   +-0.2      +-0.1                 m i ke

NEAR SOUTH COAST OF FRANCE
Sta     Dist  EvAz     Phase      Date       Time     TRes  Azim  AzRes  Slow  SRes Def   SNR       Amp   Per   Mag1   Mag2       ID
LASF  000.53 059.9 m E Pg      2011/02/13 07:43:56.4   0.0                          T                                        4646471
LASF  000.53 059.9 m E Sg      2011/02/13 07:44:03.5   0.2                          T                3.6  .29        Md 1.9  4646467
MTLF  000.87 237.5 m E Pg      2011/02/13 07:44:02.8   0.1                          T                                        4649299
MTLF  000.87 237.5 m E P       2011/02/13 07:44:05.1   0.4                          T                                        4646470
MTLF  000.87 237.5 m E Sg      2011/02/13 07:44:13.9  -0.2                          T                2.6  .25 Ml 1.8 Md 1.8  4646468
CAF   001.39 323.6 m E Pg      2011/02/13 07:44:11.8  -0.4                          T                                        4646464
CAF   001.39 323.6 m E Sg      2011/02/13 07:44:29.9  -0.3                          T                 .7  .16 Ml 1.6         4646463
VIVF  001.47 044.4 m E Pg      2011/02/13 07:44:13.7  -0.1                          T                                        4646469
VIVF  001.47 044.4 m E Sg      2011/02/13 07:44:31.7  -1.1                          T                 .8  .25 Ml 1.5         4646465
SMRF  001.71 083.7 m E Pg      2011/02/13 07:44:18.4   0.3                          T                                        4646461
SMRF  001.71 083.7 m E Sg      2011/02/13 07:44:40.4   0.3                          T                1.1  .36 Ml 1.6         4646460
EPF   002.24 250.6 m E Pg      2011/02/13 07:44:28.1   0.0                          T                                        4646462
EPF   002.24 250.6 m E Sg      2011/02/13 07:44:57.5   0.5                          T                1.0  .19 Ml 2.0         4646466

.
EVENT     255933
    Date      Time       Latitude Longitude    Depth    Ndef Nsta Gap    Mag1  N    Mag2  N    Mag3  N   Author         ID
       rms   OT_Error      Smajor Sminor Az        Err   mdist  Mdist     Err        Err        Err      Quality

2011/02/13 08:51:49.5     44.2645    6.1922      2.0      25   10 064  Ml 2.1  6  Md 2.1  3              js067245    255953

      0.51   +-  0.07       1.5    1.2   67.43 +-  0.0    0.14   1.69   +-0.3      +-0.1                 m i ke

FRANCE
Sta     Dist  EvAz     Phase      Date       Time     TRes  Azim  AzRes  Slow  SRes Def   SNR       Amp   Per   Mag1   Mag2       ID
SMRF  000.53 237.2 m E Pg      2011/02/13 08:51:59.9   0.3                          T                                        4646491
SMRF  000.53 237.2 m E Sg      2011/02/13 08:52:06.4  -0.2                          T               13.4  .26        Md 2.1  4646479
MBDF  000.62 041.7 m E Pg      2011/02/13 08:52:01.5   0.1                          T                                        4646493
MBDF  000.62 041.7 m E Sg      2011/02/13 08:52:09.2  -0.4                          T                4.7  .25        Md 2.0  4646483
ORIF  000.69 341.3 m E Pg      2011/02/13 08:52:02.5  -0.2                          T                                        4646492
ORIF  000.69 341.3 m E Sg      2011/02/13 08:52:12.0   0.3                          T               16.5  .46        Md 2.0  4646482
FRF   000.78 154.8 m E Pg      2011/02/13 08:52:03.5  -0.6                          T                                        4646490
FRF   000.78 154.8 m E Sg      2011/02/13 08:52:13.6  -0.6                          T               16.2  .24                4646485
LMR   000.96 166.0 m E Pg      2011/02/13 08:52:07.2  -0.3                          T                                        4646489
LMR   000.96 166.0 m E Sg      2011/02/13 08:52:20.3   0.4                          T               14.0  .24 Ml 2.6         4646484
SBF   000.98 113.7 m E Pg      2011/02/13 08:52:08.6   0.6                          T                                        4646487
SBF   000.98 113.7 m E Sg      2011/02/13 08:52:20.3  -0.5                          T               18.8  .40 Ml 2.5         4646478
VIVF  001.24 299.1 m E Pg      2011/02/13 08:52:12.3  -0.4                          T                                        4646488
VIVF  001.24 299.1 m E Sg      2011/02/13 08:52:28.9   0.3                          T                3.7  .28 Ml 2.0         4646486
LPG   001.30 017.7 m E Pg      2011/02/13 08:52:14.0   0.0                          T                                        4646476
LPG   001.30 017.7 m E Sg      2011/02/13 08:52:30.7  -0.1                          T                2.5  .32 Ml 1.8         4646480
LPL   001.31 016.9 m E Pg      2011/02/13 08:52:14.2   0.0                          T                                        4646477
LPL   001.31 016.9 m E Sg      2011/02/13 08:52:31.2   0.0                          T                1.2  .20 Ml 1.7         4646481
LASF  001.69 264.4 m E Pn      2011/02/13 08:52:18.2  -0.1                          T                                        4646475
LASF  001.69 264.4 m E Sn      2011/02/13 08:52:38.5  -0.8                          T                2.6  .28 Ml 2.1         4646474

.
EVENT     255943
    Date      Time       Latitude Longitude    Depth    Ndef Nsta Gap    Mag1  N    Mag2  N    Mag3  N   Author         ID
       rms   OT_Error      Smajor Sminor Az        Err   mdist  Mdist     Err        Err        Err      Quality

2011/02/13 16:57:32.2     35.7456   -8.9200     15.0 f    60    4 287  Ml 3.3  4                         js067245    255963

      0.49   +-  0.17       3.2    2.2   39.09 +-  0.0    1.39  10.21   +-0.3                            m i ke

WEST OF GIBRALTAR
Sta     Dist  EvAz     Phase      Date       Time     TRes  Azim  AzRes  Slow  SRes Def   SNR       Amp   Per   Mag1   Mag2       ID
EVOP  002.85 012.7 m E Pn      2011/02/13 16:58:14.7  -0.5                          T                                        4646495
EVOP  002.85 012.7 m E Sn      2011/02/13 16:58:46.7  -0.5                          T               34.6  .24 Ml 3.6         4646494
SJPF  009.46 036.6 m E Pn      2011/02/13 16:59:45.1  -0.3                          T                                        4646501
SJPF  009.46 036.6 m E Sn      2011/02/13 17:01:25.2  -0.1                          T                1.1  .33 Ml 3.2         4646498
ETSF  009.64 039.7 m E Pn      2011/02/13 16:59:47.9   0.0                          T                                        4646500
ETSF  009.64 039.7 m E Sn      2011/02/13 17:01:29.5  -0.1                          T                 .6  .33 Ml 2.9         4646497
EPF   010.21 041.8 m E Pn      2011/02/13 16:59:54.7  -0.9                          T                                        4646499
EPF   010.21 041.8 m E Sn      2011/02/13 17:01:42.9  -0.2                          T                1.6  .33 Ml 3.4         4646496

.
