EVENT     268963
    Date      Time       Latitude Longitude    Depth    Ndef Nsta Gap    Mag1  N    Mag2  N    Mag3  N   Author         ID
       rms   OT_Error      Smajor Sminor Az        Err   mdist  Mdist     Err        Err        Err      Quality

2012/01/22 20:05:46.7     40.8846    1.6198     10.0 f    35    6 112  Ml 2.4  7                         js067245    268983

      0.62   +-  0.15       2.5    2.1  160.94 +-  0.0    0.62   4.38   +-0.2                            m i ke

BALEARIC ISLANDS, SPAIN
Sta     Dist  EvAz     Phase      Date       Time     TRes  Azim  AzRes  Slow  SRes Def   SNR       Amp   Per   Mag1   Mag2       ID
EPF   002.35 336.4 m E Pn      2012/01/22 20:06:23.6   0.0                          T                                        4821526
EPF   002.35 336.4 m E Pg      2012/01/22 20:06:30.0  -0.3                          T                                        4821525
EPF   002.35 336.4 m E Sg      2012/01/22 20:06:59.7  -0.9                          T                 10  .38 Ml 2.7         4821519
MTLF  002.49 010.1 m E Pn      2012/01/22 20:06:25.6   0.0                          T                                        4821524
MTLF  002.49 010.1 m E Pg      2012/01/22 20:06:32.8  -0.1                          T                                        4821523
MTLF  002.49 010.1 m E Sg      2012/01/22 20:07:04.9  -0.1                          T                2.2  .31 Ml 2.2         4821520
ETSF  002.59 321.8 m E Pn      2012/01/22 20:06:26.9   0.0                          T                                        4821528
ETSF  002.59 321.8 m E Pg      2012/01/22 20:06:34.2  -0.6                          T                                        4821527
ETSF  002.59 321.8 m E Sg      2012/01/22 20:07:08.3   0.2                          T                7.6  .36 Ml 2.7         4821518
SJPF  003.07 317.3 m E Pn      2012/01/22 20:06:33.8   0.3                          T                                        4821530
SJPF  003.07 317.3 m E Pg      2012/01/22 20:06:43.2  -0.5                          T                                        4821529
SJPF  003.07 317.3 m E Sg      2012/01/22 20:07:23.4   0.2                          T                3.9  .28 Ml 2.6         4821517
LMR   004.38 054.5 m E Pn      2012/01/22 20:06:51.3   0.0                          T                                        4821522
LMR   004.38 054.5 m E Sn      2012/01/22 20:07:39.6   0.2                          T                1.2  .29 Ml 2.4         4821521
CAF   004.05 004.5 m E Sg      2012/01/22 20:07:53.8   0.0                          T                1.2  .26 Ml 2.3         4821516

.
EVENT     268964
    Date      Time       Latitude Longitude    Depth    Ndef Nsta Gap    Mag1  N    Mag2  N    Mag3  N   Author         ID
       rms   OT_Error      Smajor Sminor Az        Err   mdist  Mdist     Err        Err        Err      Quality

2012/01/22 20:48:31.0     43.0624     .1769      2.0      92   19 057  Ml 2.7 16  Md 2.7  3              js067245    268984

      0.62   +-  0.05       1.3    1.0  146.86 +-  0.0    0.08   6.08   +-0.2      +-0.3                 m i ke

FRANCE
Sta     Dist  EvAz     Phase      Date       Time     TRes  Azim  AzRes  Slow  SRes Def   SNR       Amp   Per   Mag1   Mag2       ID
EPF   000.12 105.0 m E Pg      2012/01/22 20:48:34.8   0.1                          T                                        4821537
EPF   000.12 105.0 m E Sg      2012/01/22 20:48:37.2   0.7                          T   001.0      295.9  .20        Md 3.0  4818992
ETSF  000.56 253.4 m E Pg      2012/01/22 20:48:41.7  -1.2                          T   001.0                                4818999
ETSF  000.56 253.4 m E Sg      2012/01/22 20:48:48.9  -1.3                          T   001.0       63.8  .22        Md 2.8  4819000
SJPF  001.03 273.3 m E Pg      2012/01/22 20:48:51.0  -0.3                          T                                        4821547
SJPF  001.03 273.3 m E P       2012/01/22 20:48:53.1  -0.3                          T   001.0                                4819009
SJPF  001.03 273.3 m E Sn      2012/01/22 20:49:04.3  -1.7                          T   001.0       14.3  .24 Ml 2.6 Md 2.5  4819010
MTLF  001.52 078.7 m E Pn      2012/01/22 20:48:57.8  -0.7                          T   001.0                                4819001
MTLF  001.52 078.7 m E Pg      2012/01/22 20:49:00.5   0.2                          T   001.0                                4819002
MTLF  001.52 078.7 m E Sn      2012/01/22 20:49:17.5  -0.1                          T   001.0                                4819003
MTLF  001.52 078.7 m E Sg      2012/01/22 20:49:20.4   0.5                          T   001.0       16.4  .24 Ml 2.9         4819004
LFF   001.92 012.0 m E Pn      2012/01/22 20:49:03.8  -0.2                          T                                        4821535
LFF   001.92 012.0 m E Pg      2012/01/22 20:49:08.1   0.4                          T                                        4821534
LFF   001.92 012.0 m E Sn      2012/01/22 20:49:26.8  -0.4                          T   001.0                                4818996
LFF   001.92 012.0 m E Sg      2012/01/22 20:49:32.3  -0.1                          T   001.0       18.3  .28 Ml 2.8         4818997
CAF   002.31 035.5 m E Pn      2012/01/22 20:49:09.2  -0.1                          T   001.0                                4818989
CAF   002.31 035.5 m E Pg      2012/01/22 20:49:15.0   0.1                          T                                        4821533
CAF   002.31 035.5 m E Sn      2012/01/22 20:49:36.3  -0.2                          T   001.0                                4818990
CAF   002.31 035.5 m E Sg      2012/01/22 20:49:44.5  -0.1                          T   001.0          8  .20 Ml 2.9         4818991
RJF   002.44 022.8 m E Pn      2012/01/22 20:49:10.7  -0.3                          T                                        4821532
RJF   002.44 022.8 m E Pg      2012/01/22 20:49:17.1  -0.2                          T                                        4821531
RJF   002.44 022.8 m E Sn      2012/01/22 20:49:39.2  -0.5                          T   001.0                                4818985
RJF   002.44 022.8 m E Sg      2012/01/22 20:49:48.9   0.2                          T   001.0       13.2  .32 Ml 2.6         4818986
LASF  002.86 068.0 m E Pn      2012/01/22 20:49:17.0   0.2                          T   001.0                                4818993
LASF  002.86 068.0 m E Pg      2012/01/22 20:49:23.8  -1.3                          T                                        4821536
LASF  002.86 068.0 m E Sg      2012/01/22 20:50:01.8   0.0                          T                7.1  .31 Ml 2.8         4821543
TCF   003.54 023.5 m E Pn      2012/01/22 20:49:25.8  -0.2                          T                                        4821553
TCF   003.54 023.5 m E Pg      2012/01/22 20:49:37.5   0.0                          T                                        4821552
TCF   003.54 023.5 m E Sg      2012/01/22 20:50:23.2   0.2                          T                3.2  .28 Ml 2.6         4821540
BGF   003.98 027.6 m E Pn      2012/01/22 20:49:32.4   0.4                          T   001.0                                4818987
BGF   003.98 027.6 m E Pg      2012/01/22 20:49:46.0   0.3                          T                                        4821551
BGF   003.98 027.6 m E Sg      2012/01/22 20:50:37.1   0.4                          T   001.0       11.6  .40 Ml 3.1         4818988
VIVF  003.71 059.5 m E Pg      2012/01/22 20:49:40.6  -0.1                          T                                        4821546
VIVF  003.71 059.5 m E Sg      2012/01/22 20:50:28.1  -0.2                          T   001.0        4.5  .32 Ml 2.7         4819011
SMRF  004.03 075.1 m E Pg      2012/01/22 20:49:46.3  -0.3                          T                                        4821545
SMRF  004.03 075.1 m E Sn      2012/01/22 20:50:17.6  -0.2                          T   001.0        8.5  .68 Ml 2.8         4819012
SMRF  004.03 075.1 m E Sg      2012/01/22 20:50:38.0  -0.4                          T                 .6  .18 Ml 2.2         4821544
QUIF  005.39 335.3 m E Pn      2012/01/22 20:49:49.0  -1.2                          T   001.0                                4819005
GRR   005.38 352.6 m E Pn      2012/01/22 20:49:51.1   0.1                          T                                        4821548
SGMF  005.53 340.7 m E Pn      2012/01/22 20:49:52.0  -0.1                          T   001.0                                4819008
ROSF  005.80 336.6 m E Pn      2012/01/22 20:49:55.0  -0.8                          T   001.0                                4819006
AVF   004.36 030.1 m E Sg      2012/01/22 20:50:48.6   0.2                          T                1.7  .31 Ml 2.5         4821541
SMF   004.43 034.8 m E Sg      2012/01/22 20:50:51.2   0.4                          T   001.0        1.8  .40 Ml 2.4         4818998
LDF   005.54 357.9 m E Sn      2012/01/22 20:50:53.2  -0.5                          T   001.0                                4818994
LDF   005.54 357.9 m E Sg      2012/01/22 20:51:25.4   0.1                          T   001.0         .6  .26 Ml 2.3         4818995

.
EVENT     268965
    Date      Time       Latitude Longitude    Depth    Ndef Nsta Gap    Mag1  N    Mag2  N    Mag3  N   Author         ID
       rms   OT_Error      Smajor Sminor Az        Err   mdist  Mdist     Err        Err        Err      Quality

2012/01/22 21:02:20.8     43.1470   14.0122     20.0 f    60   18 064  Ml 3.7 10                         js067245    268985

      1.26   +-  0.21       5.2    3.9   99.75 +-  0.0    0.32  13.13   +-0.3                            m i ke

ADRIATIC SEA
Sta     Dist  EvAz     Phase      Date       Time     TRes  Azim  AzRes  Slow  SRes Def   SNR       Amp   Per   Mag1   Mag2       ID
PGF   003.73 262.5 m E P       2012/01/22 21:03:18.5  -0.6                          T                                        4821584
SBF   004.84 280.8 m E P       2012/01/22 21:03:34.2  -0.4                          T   001.0                                4818969
SBF   004.84 280.8 m E Sn      2012/01/22 21:04:21.5  -1.1                          T                6.3  .33 Ml 3.1         4821581
MBDF  005.46 289.3 m E Pn      2012/01/22 21:03:40.8   1.7                          T   001.0                                4818979
FRF   005.39 276.9 m E P       2012/01/22 21:03:41.3  -1.0                          T   001.0                                4818964
LPL   005.73 296.9 m E Pn      2012/01/22 21:03:44.3   1.4                          T   001.0                                4818968
LPL   005.73 296.9 m E Sn      2012/01/22 21:04:43.0  -1.2                          T               25.1  .46 Ml 3.8         4821583
LPG   005.71 296.8 m E Pn      2012/01/22 21:03:44.8   2.1                          T   001.0                                4818967
LPG   005.71 296.8 m E Sn      2012/01/22 21:04:42.8  -1.0                          T               19.4  .48 Ml 3.6         4821582
ORIF  006.12 289.6 m E P       2012/01/22 21:03:52.2  -0.6                          T                                        4821585
CABF  006.61 304.3 m E Pn      2012/01/22 21:03:55.2   0.5                          T   001.0                                4818976
HINF  006.86 315.3 m E Pn      2012/01/22 21:03:58.9   0.8                          T                                        4821586
HINF  006.86 315.3 m E Sn      2012/01/22 21:05:11.1   0.2                          T   001.0        8.6  .36 Ml 3.6         4818978
VIVF  006.95 287.4 m E P       2012/01/22 21:04:02.9  -1.4                          T   001.0                                4818981
HAU   007.25 314.8 m E Pn      2012/01/22 21:04:04.8   1.6                          T                                        4821554
HAU   007.25 314.8 m E Sn      2012/01/22 21:05:19.7  -0.4                          T               11.4  .32 Ml 3.6         4821579
SMF   008.02 299.3 m E Pn      2012/01/22 21:04:15.4   1.6                          T   001.0                                4818971
SMF   008.02 299.3 m E Sn      2012/01/22 21:05:38.3  -0.3                          T   001.0       16.5  .48 Ml 4.0         4818972
LOR   008.27 303.4 m E Pn      2012/01/22 21:04:19.5   2.3 127.3  11.1              T   001.0                                4818966
LOR   008.27 303.4 m E Sn      2012/01/22 21:05:44.3  -0.2 129.1  13.0              T                5.9  .30 Ml 3.8         4821578
AVF   008.39 299.4 m E Pn      2012/01/22 21:04:21.0   2.2                          T   001.0                                4818982
AVF   008.39 299.4 m E Sn      2012/01/22 21:05:46.7  -0.6                          T   001.0        4.1  .56 Ml 3.3         4818983
SSF   008.40 301.4 m E Pn      2012/01/22 21:04:21.5   2.6                          T   001.0                                4818973
SSF   008.40 301.4 m E Sn      2012/01/22 21:05:47.0  -0.6                          T   001.0        7.8  .48 Ml 3.8         4818974
BGF   008.63 297.1 m E Pn      2012/01/22 21:04:23.9   1.8                          T   001.0                                4818984
BGF   008.63 297.1 m E Sn      2012/01/22 21:05:52.5  -0.7                          T               12.3  .48 Ml 3.9         4821580
TCF   008.97 294.5 m E Pn      2012/01/22 21:04:28.5   1.7                          T   001.0                                4818975
ROSF  013.13 299.2 m E Pn      2012/01/22 21:05:25.2   1.8                          T   001.0                                4818980

.
EVENT     268967
    Date      Time       Latitude Longitude    Depth    Ndef Nsta Gap    Mag1  N    Mag2  N    Mag3  N   Author         ID
       rms   OT_Error      Smajor Sminor Az        Err   mdist  Mdist     Err        Err        Err      Quality

2012/01/23 00:09:30.6     47.4753   10.2102      2.0      28   10 089  Ml 2.4  6                         js067245    268987

      1.31   +-  0.23       3.7    3.6  115.23 +-  0.0    0.09   5.12   +-0.3                            m i ke

AUSTRIA
Sta     Dist  EvAz     Phase      Date       Time     TRes  Azim  AzRes  Slow  SRes Def   SNR       Amp   Per   Mag1   Mag2       ID
HINF  002.30 279.8 m E Pn      2012/01/23 00:10:07.6  -0.2                          T                                        4822267
HINF  002.30 279.8 m E Pg      2012/01/23 00:10:13.1  -0.2                          T                                        4822266
HINF  002.30 279.8 m E Sn      2012/01/23 00:10:33.6  -1.3                          T                                        4822269
HINF  002.30 279.8 m E Sg      2012/01/23 00:10:43.0   0.1                          T                9.5  .32 Ml 2.7         4822268
HAU   002.66 282.9 m E Pn      2012/01/23 00:10:12.6  -0.1                          T                                        4822264
HAU   002.66 282.9 m E Pg      2012/01/23 00:10:20.1   0.1                          T                                        4822263
HAU   002.66 282.9 m E Sg      2012/01/23 00:10:54.0  -0.2                          T                4.5  .25 Ml 2.4         4822265
LPL   003.10 232.1 m E Pg      2012/01/23 00:10:28.2  -0.1                          T                                        4822255
LPG   003.10 231.6 m E Pg      2012/01/23 00:10:28.5   0.1                          T                                        4822254
PAGF  003.20 291.4 m E Pg      2012/01/23 00:10:29.6  -0.4 106.4  -1.6              T                                        4822258
PAGF  003.20 291.4 m E Sg      2012/01/23 00:11:11.0   0.0 121.9  13.9              T                 .9  .33 Ml 1.9         4822261
AVF   004.73 264.2 m E Pn      2012/01/23 00:10:40.9   0.1                          T                                        4822257
BGF   005.12 262.4 m E P       2012/01/23 00:10:49.9  -0.3                          T                                        4822256
CABF  002.95 254.5 m E Sg      2012/01/23 00:11:03.2  -0.1                          T                3.5  .34 Ml 2.4         4822262
SFTF  003.56 283.7 m E Sg      2012/01/23 00:11:21.8  -0.5 104.4  4.5               T                2.9  .38 Ml 2.4         4822260
LOR   004.32 269.6 m E Sg      2012/01/23 00:11:45.8  -0.2  95.9  11.0              T                 .8  .26 Ml 2.2         4822259

.
EVENT     268968
    Date      Time       Latitude Longitude    Depth    Ndef Nsta Gap    Mag1  N    Mag2  N    Mag3  N   Author         ID
       rms   OT_Error      Smajor Sminor Az        Err   mdist  Mdist     Err        Err        Err      Quality

2012/01/23 03:00:01.4     42.9964    -.6099      2.0       6    3 162             Md 1.5  2              js067245    268988

      0.47   +-  0.25       8.4    4.6   17.75 +-  0.0    0.10   0.70              +-0.2                 m i ke

PYRENEES
Sta     Dist  EvAz     Phase      Date       Time     TRes  Azim  AzRes  Slow  SRes Def   SNR       Amp   Per   Mag1   Mag2       ID
ETSF  000.10 159.1 m E Pg      2012/01/23 03:00:03.7   0.0                          T                                        4822381
ETSF  000.10 159.1 m E Sg      2012/01/23 03:00:05.5   0.1                          T               20.0  .20        Md 1.7  4822382
SJPF  000.47 284.7 m E Pg      2012/01/23 03:00:10.6   0.3                          T                                        4822379
SJPF  000.47 284.7 m E Sg      2012/01/23 03:00:15.8  -0.6                          T                1.3  .29        Md 1.4  4822380
EPF   000.70 086.9 m E Pg      2012/01/23 03:00:14.2  -0.4                          T                                        4822377
EPF   000.70 086.9 m E Sg      2012/01/23 03:00:24.8   1.0                          T                 .6  .18                4822378

.
