EVENT     276212
    Date      Time       Latitude Longitude    Depth    Ndef Nsta Gap    Mag1  N    Mag2  N    Mag3  N   Author         ID
       rms   OT_Error      Smajor Sminor Az        Err   mdist  Mdist     Err        Err        Err      Quality

2012/05/18 13:12:12.4     34.0183    1.7635     30.0     149   15 076  Ml 4.0 12                         bulletin    276312
                                                                                                         _ldg
      1.18   +-  0.17       4.6    3.3   13.00 +-  0.0    1.42  84.01   +-0.4                            m i ke

NORTHERN ALGERIA
Sta     Dist  EvAz     Phase      Date       Time     TRes  Azim  AzRes  Slow  SRes Def   SNR       Amp   Per   Mag1   Mag2       ID
ETSF  009.05 349.1 m E P       2012/05/18 13:14:24.6   0.4                          T                                        4948467
ETSF  009.05 349.1 m E Sn      2012/05/18 13:15:53.9   0.0                          T               11.0  .63 Ml 3.8         4981154
EPF   009.07 353.4 m E P       2012/05/18 13:14:24.7   0.4                          T                                        4948466
EPF   009.07 353.4 m E Sn      2012/05/18 13:15:53.8  -0.5                          T               11.8  .59 Ml 3.9         4981155
MTLF  009.32 002.0 m E P       2012/05/18 13:14:27.2  -0.5                          T                                        4948465
MTLF  009.32 002.0 m E Sn      2012/05/18 13:16:00.1   0.0                          T                2.9  .42 Ml 3.4         4981156
SJPF  009.38 346.4 m E P       2012/05/18 13:14:29.0   0.4                          T                                        4948468
SJPF  009.38 346.4 m E Sn      2012/05/18 13:16:02.2   0.6                          T               12.2  .67 Ml 3.9         4981153
LMR   010.01 020.3 m E P       2012/05/18 13:14:35.1  -2.2                          T                                        4948457
LMR   010.01 020.3 m E Sn      2012/05/18 13:16:19.4   2.7                          T                8.1  .28 Ml 4.2         4948451
PGF   010.24 031.6 m E P       2012/05/18 13:14:38.5  -2.1                          T                                        4948459
PGF   010.24 031.6 m E Sn      2012/05/18 13:16:23.5   1.3                          T               15.9  .39 Ml 4.6         4948453
LASF  010.17 008.6 m E P       2012/05/18 13:14:39.9   0.3                          T                                        4948464
LASF  010.17 008.6 m E Sn      2012/05/18 13:16:21.4   0.7                          T                3.7  .31 Ml 3.8         4981157
FRF   010.26 020.3 m E P       2012/05/18 13:14:40.8   0.1                          T                                        4948460
FRF   010.26 020.3 m E Sn      2012/05/18 13:16:24.6   1.9                          T               13.0  .35 Ml 4.4         4948450
SMRF  010.37 015.5 m E P       2012/05/18 13:14:42.5   0.1                          T                                        4948461
SMRF  010.37 015.5 m E Sn      2012/05/18 13:16:27.4   2.0                          T                                        4948449
SBF   010.77 022.5 m E P       2012/05/18 13:14:47.3  -0.6                          T                                        4948458
SBF   010.77 022.5 m E Sn      2012/05/18 13:16:34.4  -0.6                          T               11.4  .35 Ml 4.4         4948452
CAF   010.90 001.1 m E P       2012/05/18 13:14:49.5   0.0                          T                                        4948455
CAF   010.90 001.1 m E Sn      2012/05/18 13:16:37.9   0.0                          T                3.4  .48 Ml 3.7         4981152
VIVF  011.05 010.9 m E P       2012/05/18 13:14:51.9   0.2                          T                                        4948463
VIVF  011.05 010.9 m E Sn      2012/05/18 13:16:41.5  -0.2                          T                2.7  .40 Ml 3.7         4981158
ORIF  011.34 015.0 m E P       2012/05/18 13:14:55.7   0.1                          T                                        4948462
LPL   012.10 016.9 m E P       2012/05/18 13:15:05.7  -0.3                          T                                        4948456
HINF  014.31 014.0 m E P       2012/05/18 13:15:34.9  -0.1                          T                                        4948454

.
EVENT     276796
    Date      Time       Latitude Longitude    Depth    Ndef Nsta Gap    Mag1  N    Mag2  N    Mag3  N   Author         ID
       rms   OT_Error      Smajor Sminor Az        Err   mdist  Mdist     Err        Err        Err      Quality

2012/05/18 16:07:03.4     46.9349    8.7272      4.0 f    19    5 108  Ml 1.9  5                         bulletin    276896
                                                                                                         _ldg
      0.25   +-  0.05       1.2     .9   26.67 +-  0.0    0.07   1.98   +-0.2                            m i ke

SWITZERLAND
Sta     Dist  EvAz     Phase      Date       Time     TRes  Azim  AzRes  Slow  SRes Def   SNR       Amp   Per   Mag1   Mag2       ID
HINF  001.55 305.4 m E Pg      2012/05/18 16:07:32.3   0.0                          T                                        4981164
HINF  001.55 305.4 m E Sg      2012/05/18 16:07:52.6   0.2                          T                4.4  .33 Ml 2.2         4981165
CDF   001.77 327.0 m E Pg      2012/05/18 16:07:36.5   0.0                          T                                        4981168
CDF   001.77 327.0 m E Sg      2012/05/18 16:07:59.5   0.1                          T                 .7  .16 Ml 1.9         4981169
CABF  001.84 260.8 m E Pg      2012/05/18 16:07:37.7  -0.1                          T                                        4981162
CABF  001.84 260.8 m E Sg      2012/05/18 16:08:01.5  -0.1                          T                1.0  .31 Ml 1.7         4981163
HAU   001.94 304.4 m E Pg      2012/05/18 16:07:39.6   0.2                          T                                        4981166
HAU   001.94 304.4 m E Sg      2012/05/18 16:08:04.2  -0.2                          T                2.7  .24 Ml 2.0         4981167
LPL   001.98 225.0 m E Pg      2012/05/18 16:07:40.1  -0.4                          T                                        4981160
LPL   001.98 225.0 m E Sn      2012/05/18 16:08:00.0  -0.1                          T                 .6  .25 Ml 1.6         4981161

.
EVENT     276219
    Date      Time       Latitude Longitude    Depth    Ndef Nsta Gap    Mag1  N    Mag2  N    Mag3  N   Author         ID
       rms   OT_Error      Smajor Sminor Az        Err   mdist  Mdist     Err        Err        Err      Quality

2012/05/18 19:40:18.1     44.9347   11.3250      2.0      93   19 081  Ml 3.2 11                         bulletin    276319
                                                                                                         _ldg
      0.91   +-  0.11       3.2    2.4  107.56 +-  0.0    0.23   5.87   +-0.1                            m i ke

NORTHERN ITALY
Sta     Dist  EvAz     Phase      Date       Time     TRes  Azim  AzRes  Slow  SRes Def   SNR       Amp   Per   Mag1   Mag2       ID
PGF   002.92 216.1 m E Pn      2012/05/18 19:41:03.3  -0.5                          T                                        4948598
PGF   002.92 216.1 m E Sn      2012/05/18 19:41:37.7   0.2                          T                                        4948616
SBF   002.99 250.3 m E Pn      2012/05/18 19:41:05.7   1.0                          T                                        4948615
SBF   002.99 250.3 m E Sn      2012/05/18 19:41:42.8   3.8                          T               33.3  .32 Ml 3.4         4948622
MBDF  003.25 267.9 m E Pn      2012/05/18 19:41:10.0   1.6                          T                                        4948609
LPG   003.28 281.5 m E Pn      2012/05/18 19:41:10.4   1.4                          T                                        4948612
LPL   003.30 281.8 m E Pn      2012/05/18 19:41:12.4   3.3                          T                                        4948611
FRF   003.63 249.4 m E Pn      2012/05/18 19:41:13.4   0.1                          T                                        4948613
FRF   003.63 249.4 m E Sn      2012/05/18 19:41:55.0   0.7                          T               13.9  .38 Ml 3.2         4948607
LMR   003.82 246.9 m E Pn      2012/05/18 19:41:15.0  -0.9                          T                                        4948614
LMR   003.82 246.9 m E Sn      2012/05/18 19:41:57.9  -0.8                          T               14.4  .33 Ml 3.3         4948606
ORIF  003.87 271.7 m E Pn      2012/05/18 19:41:18.1   1.4                          T                                        4948610
CABF  004.03 296.4 m E Pn      2012/05/18 19:41:19.7   0.8                          T                                        4948617
HINF  004.23 314.6 m E Pn      2012/05/18 19:41:22.2   0.6                          T                                        4948621
HINF  004.23 314.6 m E Sn      2012/05/18 19:42:08.4  -0.2                          T                8.3  .30 Ml 3.1         4948620
CDF   004.46 322.7 m E Pn      2012/05/18 19:41:24.6  -0.1                          T                                        4948599
CDF   004.46 322.7 m E Sn      2012/05/18 19:42:13.5  -0.6                          T                5.0  .27 Ml 3.1         4948600
HAU   004.61 313.5 m E Pn      2012/05/18 19:41:27.3   0.6                          T                                        4948618
HAU   004.61 313.5 m E Sn      2012/05/18 19:42:17.9   0.2                          T               12.5  .32 Ml 3.2         4948619
VIVF  004.73 271.4 m E Pn      2012/05/18 19:41:28.2  -0.2                          T                                        4948608
SMF   005.51 290.7 m E Pn      2012/05/18 19:41:38.8  -0.2                          T                                        4948604
SMF   005.51 290.7 m E Sn      2012/05/18 19:42:38.7  -0.4                          T                4.8  .31 Ml 3.2         4948605
AVF   005.87 291.3 m E Pn      2012/05/18 19:41:43.4  -0.4                          T                                        4948603
LANF  004.71 330.5 m E Sn      2012/05/18 19:42:20.0  -0.1                          T               11.0  .45 Ml 3.2         4948623
THEF  004.94 313.8 m E Sn      2012/05/18 19:42:24.8  -0.6                          T                7.7  .25 Ml 3.3         4948602
SFTF  005.43 309.3 m E Sn      2012/05/18 19:42:37.0  -0.3                          T                2.9  .23 Ml 3.1         4948601
LOR   005.69 296.8 m E Sn      2012/05/18 19:42:42.3  -1.3                          T                5.5  .30 Ml 3.3         4948624

.
EVENT     276220
    Date      Time       Latitude Longitude    Depth    Ndef Nsta Gap    Mag1  N    Mag2  N    Mag3  N   Author         ID
       rms   OT_Error      Smajor Sminor Az        Err   mdist  Mdist     Err        Err        Err      Quality

2012/05/18 20:10:52.7     44.2049   10.1779      5.0 f    57   17 083  Ml 2.7 14                         bulletin    276320
                                                                                                         _ldg
      0.63   +-  0.05       1.5     .9   29.29 +-  0.0    0.16   5.45   +-0.3                            m i ke

NORTHERN ITALY
Sta     Dist  EvAz     Phase      Date       Time     TRes  Azim  AzRes  Slow  SRes Def   SNR       Amp   Per   Mag1   Mag2       ID
PGF   001.87 207.8 m E Pn      2012/05/18 20:11:23.6   0.0                          T                                        4981316
PGF   001.87 207.8 m E Sn      2012/05/18 20:11:45.5  -0.7                          T               10.6  .30 Ml 3.0         4948685
SBF   002.01 261.2 m E Pn      2012/05/18 20:11:25.5  -0.1                          T                                        4981317
SBF   002.01 261.2 m E Sn      2012/05/18 20:11:49.8   0.2                          T               38.8  .40 Ml 3.2         4948686
MBDF  002.49 283.3 m E Pn      2012/05/18 20:11:32.7   0.4                          T                                        4981321
MBDF  002.49 283.3 m E Pg      2012/05/18 20:11:39.0  -0.1                          T                                        4948705
MBDF  002.49 283.3 m E Sg      2012/05/18 20:12:11.5   0.2                          T               11.9  .50 Ml 2.7         4981330
FRF   002.63 257.1 m E Pn      2012/05/18 20:11:34.4   0.4                          T                                        4948689
FRF   002.63 257.1 m E Sn      2012/05/18 20:12:04.3  -0.1                          T               12.2  .32 Ml 3.0         4948688
LMR   002.80 253.1 m E Pn      2012/05/18 20:11:36.1  -0.1                          T                                        4981318
LMR   002.80 253.1 m E Sn      2012/05/18 20:12:07.1  -1.2                          T                7.7  .22 Ml 2.9         4948687
LPL   002.78 299.4 m E Pn      2012/05/18 20:11:36.2  -0.1                          T                                        4981319
LPL   002.78 299.4 m E P       2012/05/18 20:11:39.1   0.1                          T                                        4981320
LPL   002.78 299.4 m E Pg      2012/05/18 20:11:44.6   0.1                          T                                        4948707
LPL   002.78 299.4 m E Sn      2012/05/18 20:12:08.8   0.6                          T                6.7  .48 Ml 2.5         4981327
LPG   002.76 299.1 m E P       2012/05/18 20:11:39.1   0.3                          T                                        4948708
LPG   002.76 299.1 m E Sn      2012/05/18 20:12:07.4  -0.3                          T                2.5  .28 Ml 2.3         4981328
ORIF  003.15 284.6 m E P       2012/05/18 20:11:44.2   0.0                          T                                        4948706
ORIF  003.15 284.6 m E Sn      2012/05/18 20:12:17.7   0.7                          T                4.3  .42 Ml 2.5         4981329
CABF  003.75 311.3 m E P       2012/05/18 20:11:52.6  -0.2                          T                                        4948702
VIVF  003.99 281.3 m E P       2012/05/18 20:11:56.3   0.3                          T                                        4948704
HINF  004.29 328.5 m E P       2012/05/18 20:11:59.9  -0.4                          T                                        4948694
HINF  004.29 328.5 m E Sn      2012/05/18 20:12:44.2   0.1                          T                3.3  .38 Ml 2.7         4948693
CDF   004.66 335.5 m E Pn      2012/05/18 20:12:02.4   0.6                          T                                        4981325
CDF   004.66 335.5 m E Sn      2012/05/18 20:12:53.5   0.5                          T                2.0  .32 Ml 2.7         4948696
HAU   004.64 326.3 m E P       2012/05/18 20:12:04.6  -0.6                          T                                        4948698
HAU   004.64 326.3 m E Sn      2012/05/18 20:12:52.9   0.5                          T                8.5  .40 Ml 2.9         4948697
SMF   005.08 300.9 m E Pn      2012/05/18 20:12:07.5   0.1                          T                                        4981322
SMF   005.08 300.9 m E Sn      2012/05/18 20:13:03.6   0.6                          T                4.5  .39 Ml 3.0         4948699
LOR   005.38 306.9 m E Pn      2012/05/18 20:12:11.3  -0.1 127.2  4.8               T                                        4981326
LOR   005.38 306.9 m E Pg      2012/05/18 20:12:32.1   0.0 117.6  -4.8              T                                        4948701
LOR   005.38 306.9 m E Sn      2012/05/18 20:13:10.3   0.2 129.2  6.8               T                2.7  .39 Ml 2.8         4948700
SFTF  005.36 320.1 m E P       2012/05/18 20:12:15.0  -0.3 139.9  3.5               T                                        4981324
AVF   005.45 300.7 m E P       2012/05/18 20:12:15.7  -0.9                          T                                        4981323

.
