EVENT     273476
    Date      Time       Latitude Longitude    Depth    Ndef Nsta Gap    Mag1  N    Mag2  N    Mag3  N   Author         ID
       rms   OT_Error      Smajor Sminor Az        Err   mdist  Mdist     Err        Err        Err      Quality

2012/04/12 09:29:30.6     45.8682    4.6361       .0 f    13    7 228  Ml 2.2  7  Md 2.0  1              js067245    273496

      0.35   +-  0.24       4.5    2.1  175.46 +-  0.0    0.95   1.74   +-0.2      +-                    m i km

FRANCE
Sta     Dist  EvAz     Phase      Date       Time     TRes  Azim  AzRes  Slow  SRes Def   SNR       Amp   Per   Mag1   Mag2       ID
SMF   000.95 324.9 m E Pg      2012/04/12 09:29:49.1   0.3                          T                                        4912352
SMF   000.95 324.9 m E Sg      2012/04/12 09:30:01.9   0.6                          T                8.5  .22 Ml 2.4 Md 2.0  4912351
CABF  001.25 053.1 m E Pg      2012/04/12 09:29:54.7   0.3                          T                                        4912349
CABF  001.25 053.1 m E Sg      2012/04/12 09:30:09.8  -0.9                          T                                        4912354
AVF   001.28 316.5 m E Pg      2012/04/12 09:29:54.7  -0.1                          T                                        4912353
AVF   001.28 316.5 m E Sg      2012/04/12 09:30:11.7   0.2                          T                2.5  .23 Ml 2.0         4912350
BGF   001.42 299.7 m E Pg      2012/04/12 09:29:57.2  -0.2                          T                                        4912345
BGF   001.42 299.7 m E Sg      2012/04/12 09:30:16.4   0.5                          T                6.8  .28 Ml 2.4         4912346
SSF   001.43 327.2 m E Pg      2012/04/12 09:29:57.5   0.0                          T                                        4910244
SSF   001.43 327.2 m E Sg      2012/04/12 09:30:16.1   0.0                          T                4.9  .26 Ml 2.4         4910245
LOR   001.50 339.3 m E Pg      2012/04/12 09:29:58.6  -0.3                          T                                        4910247
LOR   001.50 339.3 m E Sg      2012/04/12 09:30:18.0  -0.4                          T                6.7  .38 Ml 2.3         4910246
TCF   001.74 284.8 m E Sg      2012/04/12 09:30:25.5  -0.4                          T                1.9  .31 Ml 2.0         4910243

.
EVENT     273477
    Date      Time       Latitude Longitude    Depth    Ndef Nsta Gap    Mag1  N    Mag2  N    Mag3  N   Author         ID
       rms   OT_Error      Smajor Sminor Az        Err   mdist  Mdist     Err        Err        Err      Quality

2012/04/12 09:34:43.2     48.1971    -.2835       .0 f     8    4 257  Ml 2.5  1  Md 2.1  2              js067245    273497

      0.81   +-  0.38       7.2    2.6  146.83 +-  0.0    0.41   1.52   +-         +-0.1                 m i km

FRANCE
Sta     Dist  EvAz     Phase      Date       Time     TRes  Azim  AzRes  Slow  SRes Def   SNR       Amp   Per   Mag1   Mag2       ID
LDF   000.41 015.1 m E Pg      2012/04/12 09:34:51.2  -0.2                          T                                        4911019
LDF   000.41 015.1 m E Sg      2012/04/12 09:34:56.8  -0.2                          T              175.3 1.04        Md 2.1  4911017
GRR   000.43 296.7 m E Pg      2012/04/12 09:34:51.4  -0.3                          T                                        4911020
GRR   000.43 296.7 m E Sg      2012/04/12 09:34:57.3  -0.2                          T              130.6  .94        Md 2.0  4911016
FLN   000.58 346.9 m E Pg      2012/04/12 09:34:54.6   0.2 171.5  4.7               T                                        4911018
FLN   000.58 346.9 m E Sg      2012/04/12 09:35:02.7   0.4 161.2  -5.6              T               88.7 1.08                4911015
SGMF  001.52 273.0 m E Pg      2012/04/12 09:35:11.9   0.1                          T                                        4912550
SGMF  001.52 273.0 m E Sg      2012/04/12 09:35:31.9   0.2                          T               15.1  .50 Ml 2.5         4912551

.
EVENT     273478
    Date      Time       Latitude Longitude    Depth    Ndef Nsta Gap    Mag1  N    Mag2  N    Mag3  N   Author         ID
       rms   OT_Error      Smajor Sminor Az        Err   mdist  Mdist     Err        Err        Err      Quality

2012/04/12 09:36:18.8     47.3830    4.3643       .0 f    15    7 177  Ml 2.0  3  Md 1.9  1              js067245    273498

      0.64   +-  0.15       4.2    1.9  125.18 +-  0.0    0.36   1.84   +-0.1      +-                    m i km

FRANCE
Sta     Dist  EvAz     Phase      Date       Time     TRes  Azim  AzRes  Slow  SRes Def   SNR       Amp   Per   Mag1   Mag2       ID
LOR   000.36 251.7 m E Pg      2012/04/12 09:36:25.9  -0.1  74.5  3.1               T                                        4911028
LOR   000.36 251.7 m E Sg      2012/04/12 09:36:31.1   0.0  65.1  -6.2              T              118.9  .72        Md 1.9  4911024
SSF   000.67 241.5 m E Pg      2012/04/12 09:36:31.6   0.0                          T                                        4911027
SSF   000.67 241.5 m E Sg      2012/04/12 09:36:41.3   0.7                          T               47.4  .80                4911023
SMF   000.82 206.1 m E Pg      2012/04/12 09:36:34.5   0.0                          T                                        4911026
SMF   000.82 206.1 m E Sg      2012/04/12 09:36:45.9   0.6                          T               14.1  .28                4911021
AVF   000.91 229.8 m E Pg      2012/04/12 09:36:36.3   0.2                          T                                        4911025
AVF   000.91 229.8 m E Sg      2012/04/12 09:36:49.2   1.0                          T                7.1  .36 Ml 2.1         4911022
SFTF  000.94 028.7 m E Pg      2012/04/12 09:36:36.9   0.2                          T                                        4912359
SFTF  000.94 028.7 m E Sg      2012/04/12 09:36:48.7  -0.4 212.6  3.4               T                7.5  .37 Ml 2.1         4912358
BGF   001.33 232.1 m E Pg      2012/04/12 09:36:43.1  -0.7                          T                                        4912363
BGF   001.33 232.1 m E Sg      2012/04/12 09:37:00.6  -0.6                          T                                        4912362
TCF   001.84 234.3 m E Pn      2012/04/12 09:36:50.2   0.1                          T                                        4912357
TCF   001.84 234.3 m E Pg      2012/04/12 09:36:53.5   0.2                          T                                        4912356
TCF   001.84 234.3 m E Sg      2012/04/12 09:37:16.9  -0.3                          T                1.1  .19 Ml 2.0         4912355

.
EVENT     273479
    Date      Time       Latitude Longitude    Depth    Ndef Nsta Gap    Mag1  N    Mag2  N    Mag3  N   Author         ID
       rms   OT_Error      Smajor Sminor Az        Err   mdist  Mdist     Err        Err        Err      Quality

2012/04/12 09:39:42.1     46.2146     .7516       .0 f     9    4 143  Ml 2.2  4  Md 2.0  1              js067245    273499

      1.57   +-  0.21       6.5    3.3   30.99 +-  0.0    0.73   1.41   +-0.1      +-                    m i km

FRANCE
Sta     Dist  EvAz     Phase      Date       Time     TRes  Azim  AzRes  Slow  SRes Def   SNR       Amp   Per   Mag1   Mag2       ID
MFF   000.73 302.3 m E Pg      2012/04/12 09:39:56.7   0.6                          T                                        4911034
MFF   000.73 302.3 m E Sg      2012/04/12 09:40:05.2  -0.7                          T               42.6  .94        Md 2.0  4911029
TCF   001.01 085.3 m E Pg      2012/04/12 09:40:01.3  -0.1                          T                                        4911032
TCF   001.01 085.3 m E Sg      2012/04/12 09:40:14.4  -0.4                          T                7.1  .30 Ml 2.2         4911031
RJF   001.06 149.3 m E Pg      2012/04/12 09:40:02.1  -0.1                          T                                        4911033
RJF   001.06 149.3 m E Sg      2012/04/12 09:40:17.3   1.3                          T               22.2  .74 Ml 2.0         4911030
LFF   001.28 180.4 m E Sg      2012/04/12 09:40:22.2  -0.7                          T               11.0  .50 Ml 2.1         4912389

.
EVENT     273480
    Date      Time       Latitude Longitude    Depth    Ndef Nsta Gap    Mag1  N    Mag2  N    Mag3  N   Author         ID
       rms   OT_Error      Smajor Sminor Az        Err   mdist  Mdist     Err        Err        Err      Quality

2012/04/12 09:42:54.8     49.0391    -.2955       .0 f     9    4 282  Ml 2.0  1  Md 1.9  2              js067245    273500

      0.87   +-  0.79      12.8    5.4   19.16 +-  0.0    0.30   1.69   +-         +-0.2                 m i km

FRANCE
Sta     Dist  EvAz     Phase      Date       Time     TRes  Azim  AzRes  Slow  SRes Def   SNR       Amp   Per   Mag1   Mag2       ID
FLN   000.30 204.0 m E Pg      2012/04/12 09:43:01.0   0.1  18.5  -5.4              T                                        4911042
FLN   000.30 204.0 m E Sg      2012/04/12 09:43:05.1  -0.1  24.2  0.3               T               12.4  .32        Md 2.0  4911037
LDF   000.46 165.5 m E Pg      2012/04/12 09:43:03.1  -0.7                          T                                        4912392
LDF   000.46 165.5 m E Sg      2012/04/12 09:43:09.6  -0.6                          T                8.4  .34        Md 1.8  4911036
GRR   000.75 210.0 m E Pg      2012/04/12 09:43:09.2   0.0                          T                                        4911040
GRR   000.75 210.0 m E Pn      2012/04/12 09:43:11.9   0.6                          T                                        4912393
GRR   000.75 210.0 m E Sg      2012/04/12 09:43:19.3   0.1                          T                                        4911035
GRR   000.75 210.0 m E Sn      2012/04/12 09:43:24.1   1.3                          T                8.0  .22                4912394
SGMF  001.69 243.2 m E Sg      2012/04/12 09:43:48.0  -0.6                          T                2.5  .30 Ml 2.0         4912569

.
EVENT     273481
    Date      Time       Latitude Longitude    Depth    Ndef Nsta Gap    Mag1  N    Mag2  N    Mag3  N   Author         ID
       rms   OT_Error      Smajor Sminor Az        Err   mdist  Mdist     Err        Err        Err      Quality

2012/04/12 09:45:45.5     46.3129    2.0457       .0 f    12    8 211  Ml 2.0  6  Md 1.7  2              js067245    273501

      0.28   +-  0.17       3.7    1.6  127.49 +-  0.0    0.12   1.57   +-0.2      +-0.2                 m i km

FRANCE
Sta     Dist  EvAz     Phase      Date       Time     TRes  Azim  AzRes  Slow  SRes Def   SNR       Amp   Per   Mag1   Mag2       ID
TCF   000.12 102.2 m E Pg      2012/04/12 09:45:47.9  -0.3                          T                                        4911052
TCF   000.12 102.2 m E Sg      2012/04/12 09:45:49.8  -0.3                          T              124.7  .50        Md 1.6  4911051
BGF   000.61 065.8 m E Pg      2012/04/12 09:45:57.4   0.1                          T                                        4912398
AVF   001.02 061.6 m E Pg      2012/04/12 09:46:05.2   0.4                          T                                        4911048
AVF   001.02 061.6 m E Sg      2012/04/12 09:46:17.7  -0.5                          T                3.8  .26 Ml 2.0         4911046
RJF   001.07 200.3 m E Pg      2012/04/12 09:46:05.7  -0.1                          T                                        4912396
RJF   001.07 200.3 m E Sg      2012/04/12 09:46:20.3   0.3                          T                3.5  .25 Ml 1.7         4912399
SSF   001.25 052.8 m E Pg      2012/04/12 09:46:08.9  -0.3                          T                                        4912395
SSF   001.25 052.8 m E Sg      2012/04/12 09:46:25.3  -0.3                          T                5.4  .36 Ml 2.2         4911049
SMF   001.28 074.3 m E Sg      2012/04/12 09:46:26.8   0.2                          T                8.3  .60 Ml 2.1         4911045
CAF   001.39 179.5 m E Sg      2012/04/12 09:46:29.8   0.0                          T                3.3  .38 Ml 1.9         4912678
LOR   001.57 051.8 m E Sg      2012/04/12 09:46:35.7   0.2                          T                3.7  .30 Ml 2.2         4912680

.
EVENT     273482
    Date      Time       Latitude Longitude    Depth    Ndef Nsta Gap    Mag1  N    Mag2  N    Mag3  N   Author         ID
       rms   OT_Error      Smajor Sminor Az        Err   mdist  Mdist     Err        Err        Err      Quality

2012/04/12 09:47:32.8     47.5445    8.2061       .0 f     8    4 273  Ml 2.2  4  Md 2.1  1              js067245    273502

      0.34   +-  0.47       8.4    4.1   97.53 +-  0.0    0.95   1.72   +-0.1      +-                    m i km

SWITZERLAND
Sta     Dist  EvAz     Phase      Date       Time     TRes  Azim  AzRes  Slow  SRes Def   SNR       Amp   Per   Mag1   Mag2       ID
HINF  000.95 287.1 m E Pg      2012/04/12 09:47:51.1   0.0                          T                                        4911057
HINF  000.95 287.1 m E Sg      2012/04/12 09:48:04.1   0.5                          T                4.6  .22 Ml 2.1 Md 2.1  4911055
CDF   001.07 324.6 m E Pg      2012/04/12 09:47:53.0  -0.2                          T                                        4912402
CDF   001.07 324.6 m E Sg      2012/04/12 09:48:07.8   0.5                          T                8.5  .52 Ml 2.2         4912401
HAU   001.34 290.9 m E Pg      2012/04/12 09:47:57.8  -0.2                          T                                        4911056
HAU   001.34 290.9 m E Sg      2012/04/12 09:48:15.2  -0.3                          T                7.5  .28 Ml 2.2         4911054
CABF  001.72 238.0 m E Pg      2012/04/12 09:48:05.5   0.3                          T                                        4911053
CABF  001.72 238.0 m E Sg      2012/04/12 09:48:27.0  -0.7                          T                6.2  .48 Ml 2.2         4912400

.
EVENT     273483
    Date      Time       Latitude Longitude    Depth    Ndef Nsta Gap    Mag1  N    Mag2  N    Mag3  N   Author         ID
       rms   OT_Error      Smajor Sminor Az        Err   mdist  Mdist     Err        Err        Err      Quality

2012/04/12 09:51:49.8     44.0512    1.6874       .0 f    14    6 098  Ml 2.1  6  Md 2.0  1              js067245    273503

      0.58   +-  0.10       2.3    1.6   81.20 +-  0.0    0.81   2.21   +-0.3      +-                    m i km

FRANCE
Sta     Dist  EvAz     Phase      Date       Time     TRes  Azim  AzRes  Slow  SRes Def   SNR       Amp   Per   Mag1   Mag2       ID
MTLF  000.81 151.4 m E Pg      2012/04/12 09:52:05.3   0.0                          T                                        4911061
MTLF  000.81 151.4 m E Sn      2012/04/12 09:52:19.4   0.2                          T                6.5  .32        Md 2.0  4911058
CAF   000.92 017.0 m E Pg      2012/04/12 09:52:06.8  -0.5                          T                                        4911060
CAF   000.92 017.0 m E Sg      2012/04/12 09:52:18.7  -0.7                          T                6.0  .20 Ml 2.3         4911059
LFF   001.12 323.0 m E Pg      2012/04/12 09:52:11.5   0.5                          T                                        4912406
LFF   001.12 323.0 m E Sg      2012/04/12 09:52:26.2   0.5                          T                9.7  .28 Ml 2.2         4912407
RJF   001.26 354.5 m E Pg      2012/04/12 09:52:13.7   0.1                          T                                        4912408
RJF   001.26 354.5 m E Sg      2012/04/12 09:52:29.9  -0.2                          T                2.0  .21 Ml 1.6         4912409
EPF   001.41 224.3 m E Pg      2012/04/12 09:52:16.3  -0.3                          T                                        4912403
EPF   001.41 224.3 m E Sg      2012/04/12 09:52:35.1   0.1                          T                5.8  .38 Ml 2.2         4912404
LASF  001.56 088.3 m E Pg      2012/04/12 09:52:19.5   0.2                          T                                        4911062
LASF  001.56 088.3 m E Sg      2012/04/12 09:52:39.8   0.1                          T                2.9  .31 Ml 2.0         4912405

.
EVENT     273484
    Date      Time       Latitude Longitude    Depth    Ndef Nsta Gap    Mag1  N    Mag2  N    Mag3  N   Author         ID
       rms   OT_Error      Smajor Sminor Az        Err   mdist  Mdist     Err        Err        Err      Quality

2012/04/12 09:53:25.8     43.1475    6.0064       .0 f    19    6 197  Ml 2.6  4  Md 2.5  2              js067245    273504

      0.53   +-  0.29       6.1    3.5   21.58 +-  0.0    0.41   2.28   +-0.4      +-0.0                 m i km

NEAR SOUTH COAST OF FRANCE
Sta     Dist  EvAz     Phase      Date       Time     TRes  Azim  AzRes  Slow  SRes Def   SNR       Amp   Per   Mag1   Mag2       ID
LMR   000.41 062.9 m E Pg      2012/04/12 09:53:33.7  -0.3                          T                                        4911067
LMR   000.41 062.9 m E Sg      2012/04/12 09:53:39.4  -0.2                          T               21.3  .20        Md 2.5  4911063
FRF   000.62 048.3 m E Pg      2012/04/12 09:53:37.1  -0.8                          T                                        4911066
FRF   000.62 048.3 m E Sg      2012/04/12 09:53:46.0  -0.3                          T               11.7  .22        Md 2.4  4912419
SMRF  000.89 339.4 m E Pg      2012/04/12 09:53:42.4  -0.4                          T                                        4911065
SMRF  000.89 339.4 m E Sg      2012/04/12 09:53:54.2  -0.3                          T                8.8  .20 Ml 2.4         4912422
SBF   001.26 055.0 m E Pg      2012/04/12 09:53:49.4  -0.4                          T                                        4911064
SBF   001.26 055.0 m E Sg      2012/04/12 09:54:07.0   0.8                          T               38.1  .29 Ml 3.0         4912423
LASF  001.82 301.5 m E Pn      2012/04/12 09:53:56.5  -0.3                          T                                        4912704
LASF  001.82 301.5 m E Sn      2012/04/12 09:54:18.6  -0.7                          T                4.9  .50 Ml 2.2         4912705
PGF   002.28 104.2 m E Pn      2012/04/12 09:54:03.2   0.0                          T                                        4912421
PGF   002.28 104.2 m E Sn      2012/04/12 09:54:30.6   0.0                          T                4.5  .24 Ml 2.8         4912420

.
