EVENT     297261
    Date      Time       Latitude Longitude    Depth    Ndef Nsta Gap    Mag1  N    Mag2  N    Mag3  N   Author         ID
       rms   OT_Error      Smajor Sminor Az        Err   mdist  Mdist     Err        Err        Err      Quality

2013/05/01 11:08:48.3     40.4765   -5.9635     10.0 f    98    4 069  Ml 3.1  4  Md 3.1  2              bulletin    297361
                                                                                                         _ldg
      0.96   +-  0.09       1.9    1.8   69.31 +-  0.0    1.06   6.77   +-0.1      +-0.0                 m i ke

SPAIN
Sta     Dist  EvAz     Phase      Date       Time     TRes  Azim  AzRes  Slow  SRes Def   SNR       Amp   Per   Mag1   Mag2       ID
SJPF  004.41 051.8 m E Pn      2013/05/01 11:09:53.3   0.0                          T                                        5272932
SJPF  004.41 051.8 m E Sn      2013/05/01 11:10:42.5   0.8                          T                                        5272930
SJPF  004.41 051.8 m E Sg      2013/05/01 11:11:06.0  -0.7                          T                5.8  .20 Ml 3.2 Md 3.1  5272929
ETSF  004.71 057.4 m E Pn      2013/05/01 11:09:57.7   0.2                          T                                        5272931
ETSF  004.71 057.4 m E Pg      2013/05/01 11:10:15.2  -0.4                          T                                        5272928
ETSF  004.71 057.4 m E Sn      2013/05/01 11:10:49.0   0.0                          T                                        5272927
ETSF  004.71 057.4 m E Sg      2013/05/01 11:11:15.6  -0.4                          T                3.9  .24 Ml 3.0 Md 3.1  5272926
EPF   005.36 059.5 m E Pn      2013/05/01 11:10:06.9   0.6                          T                                        5272925
EPF   005.36 059.5 m E Sn      2013/05/01 11:11:04.8   0.4                          T                                        5272924
EPF   005.36 059.5 m E Sg      2013/05/01 11:11:35.4  -0.8                          T                4.8  .30 Ml 3.2         5272923
LFF   006.65 045.7 m E Pn      2013/05/01 11:10:22.9  -0.8                          T                                        5272922
LFF   006.65 045.7 m E Sn      2013/05/01 11:11:35.8   0.6                          T                                        5272921
LFF   006.65 045.7 m E Sg      2013/05/01 11:12:15.7  -0.7                          T                3.9  .39 Ml 3.0         5272920

.
EVENT     297369
    Date      Time       Latitude Longitude    Depth    Ndef Nsta Gap    Mag1  N    Mag2  N    Mag3  N   Author         ID
       rms   OT_Error      Smajor Sminor Az        Err   mdist  Mdist     Err        Err        Err      Quality

2013/05/01 16:44:02.9     50.3281    7.3964      6.0 f    47    9 045  Ml 2.3  5                         bulletin    297469
                                                                                                         _ldg
      0.82   +-  0.07       1.4    1.4  117.11 +-  0.0    0.06   3.85   +-0.2                            m i ke

GERMANY
Sta     Dist  EvAz     Phase      Date       Time     TRes  Azim  AzRes  Slow  SRes Def   SNR       Amp   Per   Mag1   Mag2       ID
RUP   000.66 199.2 m E Pg      2013/05/01 16:44:15.7   0.1                          T                                        5273742
GIVF  001.67 263.2 m E Pg      2013/05/01 16:44:33.8  -0.2                          T                                        5273773
GIVF  001.67 263.2 m E Sg      2013/05/01 16:44:55.3  -0.2                          T                9.4  .25 Ml 2.7         5273774
PAGF  002.08 212.2 m E Pn      2013/05/01 16:44:36.4  -0.2  19.5  -11.4             T                                        5273787
PAGF  002.08 212.2 m E Pg      2013/05/01 16:44:41.7   0.1                          T                                        5273790
PAGF  002.08 212.2 m E Sn      2013/05/01 16:45:00.5  -0.8                          T                                        5273789
PAGF  002.08 212.2 m E Sg      2013/05/01 16:45:09.3   0.8                          T                1.9  .24 Ml 2.1         5273788
CDF   001.92 182.4 m E Pg      2013/05/01 16:44:38.0  -0.7                          T                                        5273776
CDF   001.92 182.4 m E Sg      2013/05/01 16:45:03.2  -0.3                          T                2.2  .21 Ml 2.3         5273775
BAIF  002.07 263.7 m E Pg      2013/05/01 16:44:41.0  -0.3                          T                                        5273792
BAIF  002.07 263.7 m E Sg      2013/05/01 16:45:07.9  -0.1                          T                3.2  .21 Ml 2.4         5273791
HAU   002.42 196.9 m E Pg      2013/05/01 16:44:47.5  -0.4                          T                                        5273784
HAU   002.42 196.9 m E Sg      2013/05/01 16:45:19.3   0.1                          T                                        5273783
HINF  002.54 188.3 m E Pg      2013/05/01 16:44:49.9  -0.2                          T                                        5273782
HINF  002.54 188.3 m E Sg      2013/05/01 16:45:23.0   0.2                          T                                        5273781
SFTF  002.63 216.9 m E Pg      2013/05/01 16:44:51.0  -0.6  26.7  -8.4              T                                        5273786
SFTF  002.63 216.9 m E Sg      2013/05/01 16:45:26.0   0.5                          T                1.2  .21 Ml 2.1         5273785
LOR   003.85 218.7 m E Pn      2013/05/01 16:45:00.9   0.1  51.6  15.6              T                                        5273780
LOR   003.85 218.7 m E Pg      2013/05/01 16:45:14.2   0.0                          T                                        5273779
LOR   003.85 218.7 m E Sn      2013/05/01 16:45:43.0  -0.7                          T                                        5273778
LOR   003.85 218.7 m E Sg      2013/05/01 16:46:03.7   0.0                          T                                        5273777

.
EVENT     297265
    Date      Time       Latitude Longitude    Depth    Ndef Nsta Gap    Mag1  N    Mag2  N    Mag3  N   Author         ID
       rms   OT_Error      Smajor Sminor Az        Err   mdist  Mdist     Err        Err        Err      Quality

2013/05/01 19:38:54.8     43.8844    7.2707      2.0      10    5 125  Ml 1.5  2  Md 1.5  3              bulletin    297365
                                                                                                         _ldg
      0.08   +-  0.03        .7     .5  167.45 +-  0.0    0.12   1.23   +-0.1      +-0.1                 m i ke

NEAR SOUTH COAST OF FRANCE
Sta     Dist  EvAz     Phase      Date       Time     TRes  Azim  AzRes  Slow  SRes Def   SNR       Amp   Per   Mag1   Mag2       ID
SBF   000.12 100.1 m E Pg      2013/05/01 19:38:57.4  -0.1                          T                                        5272942
SBF   000.12 100.1 m E Sg      2013/05/01 19:38:59.3   0.1                          T               11.6  .24        Md 1.6  5272941
FRF   000.56 234.6 m E Pg      2013/05/01 19:39:05.3  -0.1                          T                                        5272938
FRF   000.56 234.6 m E Sg      2013/05/01 19:39:12.7   0.0                          T                2.7  .26        Md 1.6  5272937
LMR   000.78 225.4 m E Pg      2013/05/01 19:39:09.5   0.0                          T                                        5272940
LMR   000.78 225.4 m E Sg      2013/05/01 19:39:19.8   0.2                          T                 .8  .23        Md 1.4  5272939
MBDF  000.92 337.1 m E Pg      2013/05/01 19:39:12.2   0.1                          T                                        5272934
MBDF  000.92 337.1 m E Sg      2013/05/01 19:39:24.0   0.0                          T                1.4  .22 Ml 1.6         5272933
SMRF  001.23 274.9 m E Pg      2013/05/01 19:39:17.7   0.0                          T                                        5272936
SMRF  001.23 274.9 m E Sg      2013/05/01 19:39:33.5  -0.2                          T                1.0  .31 Ml 1.4         5272935

.
EVENT     297268
    Date      Time       Latitude Longitude    Depth    Ndef Nsta Gap    Mag1  N    Mag2  N    Mag3  N   Author         ID
       rms   OT_Error      Smajor Sminor Az        Err   mdist  Mdist     Err        Err        Err      Quality

2013/05/01 20:16:21.3     46.4487    1.4382      2.0      25   10 144  Ml 1.6 12  Md 1.7  1              bulletin    297368
                                                                                                         _ldg
      0.83   +-  0.06       1.5    1.0  166.43 +-  0.0    0.56   1.85   +-0.2      +-                    m i ke

FRANCE
Sta     Dist  EvAz     Phase      Date       Time     TRes  Azim  AzRes  Slow  SRes Def   SNR       Amp   Per   Mag1   Mag2       ID
TCF   000.56 106.5 m E Pg      2013/05/01 20:16:31.9   0.0                          T                                        5272960
TCF   000.56 106.5 m E P       2013/05/01 20:16:33.2   0.0                          T                                        5272975
TCF   000.56 106.5 m E Sg      2013/05/01 20:16:39.2  -0.1                          T                 .8  .21        Md 1.7  5272959
BGF   000.98 083.1 m E Pg      2013/05/01 20:16:39.7   0.1                          T                                        5272970
BGF   000.98 083.1 m E Sn      2013/05/01 20:16:54.1   0.0                          T                6.1  .26 Ml 2.2         5272963
MFF   001.10 278.6 m E Pg      2013/05/01 20:16:42.0   0.0                          T                                        5272957
MFF   001.10 278.6 m E Sg      2013/05/01 20:16:56.2  -0.1                          T                1.3  .21 Ml 1.8         5272958
RJF   001.15 177.2 m E Pg      2013/05/01 20:16:42.8   0.0                          T                                        5272969
RJF   001.15 177.2 m E Sg      2013/05/01 20:16:57.5  -0.1                          T                3.3  .28 Ml 1.6         5272964
AVF   001.36 074.8 m E Pn      2013/05/01 20:16:45.7   0.1                          T                                        5272961
AVF   001.36 074.8 m E Sg      2013/05/01 20:17:04.4   0.0                          T                 .5  .23 Ml 1.3         5272956
SSF   001.55 065.9 m E Pn      2013/05/01 20:16:48.2   0.0                          T                                        5272976
SSF   001.55 065.9 m E Sg      2013/05/01 20:17:10.0  -0.1                          T                 .5  .20 Ml 1.6         5272979
CAF   001.59 163.7 m E Pn      2013/05/01 20:16:48.7   0.0                          T                                        5272967
CAF   001.59 163.7 m E Sn      2013/05/01 20:17:08.5  -0.1                          T                1.3  .24 Ml 1.8         5272966
SMF   001.67 082.4 m E Pn      2013/05/01 20:16:50.0   0.1                          T                                        5272962
SMF   001.67 082.4 m E Sn      2013/05/01 20:17:10.8   0.2                          T                 .4  .20 Ml 1.4         5272955
LFF   001.59 198.2 m E Pg      2013/05/01 20:16:50.8   0.0                          T                                        5272968
LFF   001.59 198.2 m E Sn      2013/05/01 20:17:08.7   0.1                          T                1.4  .24 Ml 1.7         5272965
LOR   001.85 062.9 m E Pn      2013/05/01 20:16:52.1  -0.3 242.2  -2.4              T                                        5272977
LOR   001.85 062.9 m E Sg      2013/05/01 20:17:19.8   0.1                          T                 .8  .24 Ml 1.7         5272978

.
EVENT     297267
    Date      Time       Latitude Longitude    Depth    Ndef Nsta Gap    Mag1  N    Mag2  N    Mag3  N   Author         ID
       rms   OT_Error      Smajor Sminor Az        Err   mdist  Mdist     Err        Err        Err      Quality

2013/05/01 20:48:17.7     44.4114    7.3354      2.0      42    9 087  Ml 1.8  7  Md 1.6  1              bulletin    297367
                                                                                                         _ldg
      0.22   +-  0.03        .8     .5   50.27 +-  0.0    0.11   2.52   +-0.3      +-                    m i ke

NORTHERN ITALY
Sta     Dist  EvAz     Phase      Date       Time     TRes  Azim  AzRes  Slow  SRes Def   SNR       Amp   Per   Mag1   Mag2       ID
MBDF  000.51 308.2 m E Pg      2013/05/01 20:48:27.6   0.0                          T                                        5272990
MBDF  000.51 308.2 m E Sg      2013/05/01 20:48:34.6   0.3                          T                5.1  .23        Md 1.6  5272985
SBF   000.55 172.5 m E Pg      2013/05/01 20:48:28.5   0.2                          T                                        5272989
SBF   000.55 172.5 m E Sg      2013/05/01 20:48:35.4  -0.1                          T                6.3  .23                5272981
FRF   000.99 210.5 m E Pn      2013/05/01 20:48:35.8  -1.1                          T                                        5272988
FRF   000.99 210.5 m E Sg      2013/05/01 20:48:48.9  -0.1                          T                4.7  .20 Ml 2.2         5272994
ORIF  001.16 296.5 m E Pn      2013/05/01 20:48:38.6  -0.7                          T                                        5272984
ORIF  001.16 296.5 m E Sg      2013/05/01 20:48:54.8   0.4                          T                1.7  .29 Ml 1.6         5283718
LPG   001.16 339.3 m E Pn      2013/05/01 20:48:38.8  -0.9                          T                                        5272982
LPG   001.16 339.3 m E Sg      2013/05/01 20:48:54.8   0.0                          T                 .6  .23 Ml 1.3         5272992
LPL   001.18 339.0 m E Pn      2013/05/01 20:48:38.9  -1.0                          T                                        5272983
LPL   001.18 339.0 m E Sg      2013/05/01 20:48:55.5   0.0                          T                 .8  .24 Ml 1.4         5283717
LMR   001.23 209.3 m E Pn      2013/05/01 20:48:40.1  -0.1                          T                                        5272987
LMR   001.23 209.3 m E Sn      2013/05/01 20:48:54.9  -1.5                          T                1.8  .18 Ml 1.9         5272980
LMR   001.23 209.3 m E Sg      2013/05/01 20:48:56.9   0.3                          T                2.5  .20 Ml 2.0         5283716
SMRF  001.34 251.6 m E Pn      2013/05/01 20:48:41.8   0.1                          T                                        5272986
SMRF  001.34 251.6 m E Sg      2013/05/01 20:49:00.1   0.1                          T                5.3  .46 Ml 2.0         5272993
LASF  002.52 263.6 m E Pn      2013/05/01 20:48:57.7  -0.1                          T                                        5272991

.
