EVENT     278473
    Date      Time       Latitude Longitude    Depth    Ndef Nsta Gap    Mag1  N    Mag2  N    Mag3  N   Author         ID
       rms   OT_Error      Smajor Sminor Az        Err   mdist  Mdist     Err        Err        Err      Quality

2012/06/20 22:06:24.7     46.2251    -.2184     15.0      58   21 126  Ml 2.2 20  Md 2.4  2              bulletin    278573
                                                                                                         _ldg
      0.62   +-  0.08       1.7    1.1   49.59 +-  0.0    0.38   4.24   +-0.3      +-0.0                 m i ke

FRANCE
Sta     Dist  EvAz     Phase      Date       Time     TRes  Azim  AzRes  Slow  SRes Def   SNR       Amp   Per   Mag1   Mag2       ID
MFF   000.38 007.6 m E Pg      2012/06/20 22:06:33.2   0.8                          T   001.0                                5008145
MFF   000.38 007.6 m E Sg      2012/06/20 22:06:38.7   0.9                          T   001.0       29.2  .20        Md 2.4  5008146
LFF   001.45 152.0 m E Pn      2012/06/20 22:06:49.0   0.2                          T   001.0                                5008139
LFF   001.45 152.0 m E P       2012/06/20 22:06:51.0   0.2                          T   001.0                                5008140
LFF   001.45 152.0 m E Sn      2012/06/20 22:07:06.3  -0.1                          T   001.0        4.9  .24 Ml 2.2         5008141
LFF   001.45 152.0 m E Sg      2012/06/20 22:07:10.7   0.0                          T                9.3  .42 Ml 2.2         5022274
RJF   001.52 126.6 m E Pn      2012/06/20 22:06:50.4   0.6                          T   001.0                                5008126
RJF   001.52 126.6 m E Pg      2012/06/20 22:06:52.9  -0.3                          T   001.0                                5008127
RJF   001.52 126.6 m E Sn      2012/06/20 22:07:09.4   1.2                          T   001.0                                5008128
RJF   001.52 126.6 m E Sg      2012/06/20 22:07:12.4  -0.6                          T   001.0        7.5  .20 Ml 2.3         5008129
TCF   001.69 087.0 m E Pn      2012/06/20 22:06:52.3   0.2                          T                                        5008156
TCF   001.69 087.0 m E Pg      2012/06/20 22:06:56.4   0.1                          T   001.0                                5008148
TCF   001.69 087.0 m E Sn      2012/06/20 22:07:12.6   0.5                          T                                        5008155
TCF   001.69 087.0 m E Sg      2012/06/20 22:07:17.4  -0.7                          T                9.1  .20 Ml 2.8         5022278
CAF   002.06 128.2 m E Pn      2012/06/20 22:06:57.7   0.5                          T                                        5022272
CAF   002.06 128.2 m E Pg      2012/06/20 22:07:02.1  -1.1                          T   001.0                                5008133
CAF   002.06 128.2 m E Sg      2012/06/20 22:07:29.7  -0.1                          T   001.0        3.6  .22 Ml 2.4         5008134
BGF   002.15 080.0 m E Pn      2012/06/20 22:06:58.4   0.1                          T                                        5008160
BGF   002.15 080.0 m E Pg      2012/06/20 22:07:04.6  -0.1                          T   001.0                                5008130
BGF   002.15 080.0 m E Sn      2012/06/20 22:07:23.1   0.1                          T   001.0                                5008131
BGF   002.15 080.0 m E Sg      2012/06/20 22:07:32.4   0.0                          T   001.0       11.7  .30 Ml 2.8         5008132
HYF   002.23 061.0 m E Pn      2012/06/20 22:06:59.4   0.0                          T                                        5022826
HYF   002.23 061.0 m E Pg      2012/06/20 22:07:06.3   0.2                          T                                        5022825
HYF   002.23 061.0 m E Sn      2012/06/20 22:07:25.2   0.3                          T                                        5008159
HYF   002.23 061.0 m E Sg      2012/06/20 22:07:34.5  -0.3                          T                                        5022275
AVF   002.53 075.8 m E Pn      2012/06/20 22:07:03.8   0.3                          T                                        5008158
AVF   002.53 075.8 m E P       2012/06/20 22:07:05.8  -0.4                          T                                        5022828
AVF   002.53 075.8 m E Pg      2012/06/20 22:07:11.6  -0.1                          T                                        5022827
AVF   002.53 075.8 m E Sn      2012/06/20 22:07:32.2   0.0                          T                                        5008157
AVF   002.53 075.8 m E Sg      2012/06/20 22:07:44.2  -0.1                          T                1.7  .31 Ml 2.1         5022277
LDF   002.37 001.5 m E P       2012/06/20 22:07:04.3   0.3                          T                                        5022271
LDF   002.37 001.5 m E Sn      2012/06/20 22:07:28.2  -0.2                          T   001.0                                5008137
LDF   002.37 001.5 m E Sg      2012/06/20 22:07:39.3   0.0                          T   001.0        2.5  .25 Ml 2.3         5008138
GRR   002.21 348.9 m E Pg      2012/06/20 22:07:05.8   0.1                          T                                        5022822
GRR   002.21 348.9 m E Sg      2012/06/20 22:07:33.5  -0.7                          T   001.0        2.2  .12 Ml 2.4         5008136
SSF   002.70 070.6 m E P       2012/06/20 22:07:08.2  -0.5                          T                                        5008154
SSF   002.70 070.6 m E Pg      2012/06/20 22:07:14.6  -0.2                          T                                        5022830
SSF   002.70 070.6 m E Sg      2012/06/20 22:07:48.2  -1.3                          T   001.0        2.0  .26 Ml 2.3         5008147
LOR   002.99 068.1 m E Pn      2012/06/20 22:07:09.9   0.0                          T   001.0                                5008142
LOR   002.99 068.1 m E Pg      2012/06/20 22:07:20.2   0.0                          T                                        5022831
LOR   002.99 068.1 m E Sn      2012/06/20 22:07:44.1   0.8                          T   001.0                                5008143
LOR   002.99 068.1 m E Sg      2012/06/20 22:07:57.3  -1.4                          T   001.0        2.6  .33 Ml 2.3         5008144
FLN   002.55 356.1 m E Pg      2012/06/20 22:07:11.9  -0.1                          T                                        5022823
FLN   002.55 356.1 m E Sg      2012/06/20 22:07:44.1  -0.7                          T   001.0        2.1  .21 Ml 2.2         5008135
SGMF  002.58 322.7 m E Pg      2012/06/20 22:07:11.9  -0.7                          T   001.0                                5008152
SGMF  002.58 322.7 m E Sg      2012/06/20 22:07:45.7  -0.2                          T   001.0         .4  .16 Ml 1.7         5008153
ROSF  002.96 316.6 m E P       2012/06/20 22:07:12.6   0.2                          T   001.0                                5008150
ROSF  002.96 316.6 m E Sg      2012/06/20 22:07:57.6  -0.2                          T   001.0         .7  .18 Ml 2.0         5008151
QUIF  002.63 311.1 m E Pg      2012/06/20 22:07:13.7   0.1                          T                                        5022824
QUIF  002.63 311.1 m E Sg      2012/06/20 22:07:46.6  -0.8                          T   001.0         .7  .19 Ml 1.9         5008149
MTLF  003.36 148.1 m E Pg      2012/06/20 22:07:26.9  -0.2                          T                                        5022819
MTLF  003.36 148.1 m E Sg      2012/06/20 22:08:10.2  -0.1                          T                 .6  .25 Ml 1.9         5022820
MEZF  004.24 055.6 m E P       2012/06/20 22:07:30.1  -0.5                          T                                        5022829
SMF   002.84 080.0 m E Sg      2012/06/20 22:07:53.3  -0.6                          T                2.0  .28 Ml 2.2         5022276
EPF   003.22 172.7 m E Sg      2012/06/20 22:08:05.5  -0.4                          T                 .5  .16 Ml 2.0         5022273
ETSF  003.34 184.3 m E Sg      2012/06/20 22:08:09.0  -0.5                          T                1.1  .37 Ml 2.0         5022821

.
EVENT     278481
    Date      Time       Latitude Longitude    Depth    Ndef Nsta Gap    Mag1  N    Mag2  N    Mag3  N   Author         ID
       rms   OT_Error      Smajor Sminor Az        Err   mdist  Mdist     Err        Err        Err      Quality

2012/06/21 05:01:05.2     44.5074    6.6973      2.0      36    9 055  Ml 1.7  6  Md 1.8  2              bulletin    278581
                                                                                                         _ldg
      0.38   +-  0.07       1.3    1.0   52.96 +-  0.0    0.09   1.49   +-0.4      +-0.1                 m i ke

FRANCE
Sta     Dist  EvAz     Phase      Date       Time     TRes  Azim  AzRes  Slow  SRes Def   SNR       Amp   Per   Mag1   Mag2       ID
MBDF  000.23 013.5 m E Pg      2012/06/21 05:01:09.9   0.0                          T                                        5008430
MBDF  000.23 013.5 m E Sg      2012/06/21 05:01:13.1   0.0                          T               11.4  .34        Md 1.9  5008429
ORIF  000.71 305.5 m E Pg      2012/06/21 05:01:18.4  -0.4                          T                                        5008428
ORIF  000.71 305.5 m E Sg      2012/06/21 05:01:27.8  -0.4                          T                3.2  .22        Md 1.7  5008416
SBF   000.83 140.2 m E Pg      2012/06/21 05:01:21.3   0.3                          T                                        5008421
SBF   000.83 140.2 m E Sg      2012/06/21 05:01:32.6   0.7                          T                3.6  .27                5008420
SMRF  000.97 237.0 m E Pg      2012/06/21 05:01:24.0   0.6                          T                                        5008425
SMRF  000.97 237.0 m E Sg      2012/06/21 05:01:36.4   0.5                          T                1.2  .32 Ml 1.4         5008418
LPG   000.99 002.2 m E Pg      2012/06/21 05:01:24.1  -0.1                          T                                        5008427
LPG   000.99 002.2 m E Sg      2012/06/21 05:01:37.1   0.0                          T                 .7  .20 Ml 1.4         5008417
FRF   000.95 182.2 m E Pg      2012/06/21 05:01:24.2   1.2                          T                                        5008424
FRF   000.95 182.2 m E Sg      2012/06/21 05:01:35.9   0.6                          T                6.2  .20 Ml 2.3         5008419
LPL   001.01 001.4 m E Pg      2012/06/21 05:01:24.7   0.2                          T                                        5008426
LPL   001.01 001.4 m E Sg      2012/06/21 05:01:37.3  -0.2                          T                2.2  .37 Ml 1.6         5008415
LMR   001.18 186.7 m E Pg      2012/06/21 05:01:27.4   0.1                          T                                        5008423
LMR   001.18 186.7 m E Sg      2012/06/21 05:01:43.1   0.5                          T                2.5  .23 Ml 2.0         5008422
VIVF  001.49 284.3 m E Pn      2012/06/21 05:01:31.0  -0.3                          T                                        5008413
VIVF  001.49 284.3 m E Sn      2012/06/21 05:01:50.0  -0.2                          T                1.1  .22 Ml 1.7         5008412

.
EVENT     278482
    Date      Time       Latitude Longitude    Depth    Ndef Nsta Gap    Mag1  N    Mag2  N    Mag3  N   Author         ID
       rms   OT_Error      Smajor Sminor Az        Err   mdist  Mdist     Err        Err        Err      Quality

2012/06/21 06:10:55.0     43.0930    -.5875      2.0      18    4 161  Ml 1.8  1  Md 1.8  2              bulletin    278582
                                                                                                         _ldg
      0.34   +-  0.10       2.6    1.2   13.27 +-  0.0    0.08   2.60   +-         +-0.0                 m i ke

PYRENEES
Sta     Dist  EvAz     Phase      Date       Time     TRes  Azim  AzRes  Slow  SRes Def   SNR       Amp   Per   Mag1   Mag2       ID
ETSF  000.20 173.9 m E Pg      2012/06/21 06:10:59.2   0.1                          T                                        5008470
ETSF  000.20 173.9 m E Sg      2012/06/21 06:11:01.5  -0.3                          T               48.1  .26        Md 1.8  5008469
SJPF  000.47 272.7 m E Pg      2012/06/21 06:11:04.0   0.0                          T                                        5008468
SJPF  000.47 272.7 m E Sg      2012/06/21 06:11:10.1  -0.1                          T                5.1  .20        Md 1.8  5008466
EPF   000.68 095.0 m E Pg      2012/06/21 06:11:08.0   0.0                          T                                        5008467
EPF   000.68 095.0 m E Sg      2012/06/21 06:11:16.7  -0.3                          T                3.0  .20                5008465
MTLF  002.07 082.1 m E Pn      2012/06/21 06:11:29.0   0.0                          T                                        5008464
MTLF  002.07 082.1 m E Sn      2012/06/21 06:11:53.5  -0.3                          T                1.1  .28 Ml 1.8         5008463

.
EVENT     278515
    Date      Time       Latitude Longitude    Depth    Ndef Nsta Gap    Mag1  N    Mag2  N    Mag3  N   Author         ID
       rms   OT_Error      Smajor Sminor Az        Err   mdist  Mdist     Err        Err        Err      Quality

2012/06/21 10:12:11.7     43.6819    6.9610       .0 f    20    8 083  Ml 1.6  5  Md 2.1  1              bulletin    278615
                                                                                                         _ldg
      0.22   +-  0.06       1.4    1.1  124.75 +-  0.0    0.08   2.02   +-0.2      +-                    m i km

NEAR SOUTH COAST OF FRANCE
Sta     Dist  EvAz     Phase      Date       Time     TRes  Azim  AzRes  Slow  SRes Def   SNR       Amp   Per   Mag1   Mag2       ID
FRF   000.26 242.2 m E Pg      2012/06/21 10:12:16.9  -0.1                          T                                        5008778
FRF   000.26 242.2 m E Sg      2012/06/21 10:12:20.6  -0.1                          T               37.1  .72                5008777
SBF   000.39 062.0 m E Pg      2012/06/21 10:12:19.6   0.1                          T                                        5008774
SBF   000.39 062.0 m E Sg      2012/06/21 10:12:25.2   0.3                          T               44.9  .80        Md 2.1  5008771
LMR   000.48 223.5 m E Pg      2012/06/21 10:12:21.3   0.2                          T                                        5008776
LMR   000.48 223.5 m E Sg      2012/06/21 10:12:28.1   0.5                          T                4.2  .17                5008775
MBDF  001.05 352.6 m E Pg      2012/06/21 10:12:31.9   0.0                          T                                        5008781
MBDF  001.05 352.6 m E Sg      2012/06/21 10:12:45.3  -0.4                          T                 .6  .16 Ml 1.4         5008780
SMRF  001.05 286.8 m E Pn      2012/06/21 10:12:32.3   0.1                          T                                        5008773
SMRF  001.05 286.8 m E Sn      2012/06/21 10:12:46.9   0.2                          T                3.4  .33 Ml 1.8         5008772
ORIF  001.46 328.3 m E Pg      2012/06/21 10:12:39.1  -0.2                          T                                        5008779
ORIF  001.46 328.3 m E Sn      2012/06/21 10:12:56.9   0.2                          T                2.4  .40 Ml 1.8         5008786
LPG   001.82 355.4 m E Pn      2012/06/21 10:12:43.3   0.2                          T                                        5008785
LPG   001.82 355.4 m E Sg      2012/06/21 10:13:10.1   0.2                          T                 .7  .25 Ml 1.6         5008784
VIVF  002.02 306.3 m E Pn      2012/06/21 10:12:45.4   0.0                          T                                        5008783
VIVF  002.02 306.3 m E Sn      2012/06/21 10:13:09.8  -0.2                          T                 .4  .21 Ml 1.5         5008782

.
EVENT     278517
    Date      Time       Latitude Longitude    Depth    Ndef Nsta Gap    Mag1  N    Mag2  N    Mag3  N   Author         ID
       rms   OT_Error      Smajor Sminor Az        Err   mdist  Mdist     Err        Err        Err      Quality

2012/06/21 13:20:44.5     44.5076    6.7111      2.0      52   11 046  Ml 2.6  8  Md 2.6  1              bulletin    278617
                                                                                                         _ldg
      0.44   +-  0.06       1.3    1.0   67.00 +-  0.0    0.08   3.06   +-0.3      +-                    m i ke

FRANCE
Sta     Dist  EvAz     Phase      Date       Time     TRes  Azim  AzRes  Slow  SRes Def   SNR       Amp   Per   Mag1   Mag2       ID
MBDF  000.22 011.1 m E Pg      2012/06/21 13:20:49.2   0.0                          T   001.0                                5008578
MBDF  000.22 011.1 m E Sg      2012/06/21 13:20:52.2   0.0                          T               59.4  .22        Md 2.6  5008653
ORIF  000.72 305.0 m E Pg      2012/06/21 13:20:57.6  -0.6                          T   001.0                                5008579
ORIF  000.72 305.0 m E Sg      2012/06/21 13:21:06.3  -1.4                          T               32.1  .25                5008814
SBF   000.83 140.8 m E Pg      2012/06/21 13:21:00.0  -0.2                          T   001.0                                5008576
SBF   000.83 140.8 m E Sg      2012/06/21 13:21:10.6  -0.4                          T   001.0       44.1  .36                5008577
FRF   000.95 182.8 m E Pg      2012/06/21 13:21:02.6   0.3                          T   001.0                                5008565
FRF   000.95 182.8 m E Sg      2012/06/21 13:21:14.5  -0.1                          T   001.0       56.4  .20 Ml 3.3         5008566
SMRF  000.97 237.3 m E Pg      2012/06/21 13:21:03.1   0.2                          T   001.0                                5008582
SMRF  000.97 237.3 m E Sg      2012/06/21 13:21:15.6   0.1                          T               13.2  .28 Ml 2.5         5008652
LPG   000.99 001.6 m E Pg      2012/06/21 13:21:03.3  -0.2                          T   001.0                                5008571
LPG   000.99 001.6 m E Sn      2012/06/21 13:21:16.0  -1.0                          T   001.0        7.7  .20 Ml 2.4         5008572
LPL   001.01 000.9 m E Pg      2012/06/21 13:21:03.9   0.2                          T   001.0                                5008573
LPL   001.01 000.9 m E Sg      2012/06/21 13:21:16.8  -0.1                          T   001.0       15.6  .32 Ml 2.5         5008575
LMR   001.18 187.2 m E Pg      2012/06/21 13:21:06.6   0.0                          T   001.0                                5008569
LMR   001.18 187.2 m E Sn      2012/06/21 13:21:21.8  -0.4                          T   001.0       22.9  .24 Ml 2.9         5008570
VIVF  001.50 284.2 m E Pn      2012/06/21 13:21:11.0   0.2                          T   001.0                                5008580
VIVF  001.50 284.2 m E Sn      2012/06/21 13:21:29.9   0.3                          T   001.0       11.4  .26 Ml 2.7         5008581
LASF  002.09 259.1 m E Pn      2012/06/21 13:21:19.2   0.3                          T   001.0                                5008567
LASF  002.09 259.1 m E Sn      2012/06/21 13:21:42.6  -1.4                          T   001.0        2.3  .24 Ml 2.2         5008568
PGF   002.57 138.9 m E Pn      2012/06/21 13:21:25.5   0.1                          T                                        5008651
PGF   002.57 138.9 m E Sn      2012/06/21 13:21:55.5   0.0                          T                2.2  .18 Ml 2.7         5008813

.
