EVENT     285821
    Date      Time       Latitude Longitude    Depth    Ndef Nsta Gap    Mag1  N    Mag2  N    Mag3  N   Author         ID
       rms   OT_Error      Smajor Sminor Az        Err   mdist  Mdist     Err        Err        Err      Quality

2012/10/25 08:48:49.1     49.1151    5.4522       .0 f    11    6 166  Ml 1.9  1  Md 2.0  1              bulletin    285921
                                                                                                         _ldg
      1.93   +-  0.29       9.0    4.4   67.97 +-  0.0    0.59   3.58   +-         +-                    m i km

FRANCE
Sta     Dist  EvAz     Phase      Date       Time     TRes  Azim  AzRes  Slow  SRes Def   SNR       Amp   Per   Mag1   Mag2       ID
PAGF  000.59 162.1 m E Pg      2012/10/25 08:49:00.5   0.0 338.5  -3.7              T                                        5104256
PAGF  000.59 162.1 m E Sg      2012/10/25 08:49:07.6  -0.8                          T                4.1  .21        Md 2.0  5104255
SFTF  000.95 196.9 m E Pg      2012/10/25 08:49:07.1  -0.1 359.5  -17.1             T                                        5104330
GIVF  001.07 337.7 m E Pg      2012/10/25 08:49:09.1  -0.3                          T                                        5104335
GIVF  001.07 337.7 m E Sg      2012/10/25 08:49:22.7  -0.7                          T                                        5104328
BAIF  001.24 319.9 m E Pn      2012/10/25 08:49:12.8   0.6                          T                                        5104329
BAIF  001.24 319.9 m E Sg      2012/10/25 08:49:28.8  -0.1                          T                2.3  .23 Ml 1.9         5104327
HINF  001.60 143.8 m E Pg      2012/10/25 08:49:18.8  -0.4                          T                                        5104334
HINF  001.60 143.8 m E Sn      2012/10/25 08:49:37.2  -0.2                          T                                        5104333
TCF   003.58 219.0 m E Pg      2012/10/25 08:49:56.3   0.7                          T                                        5104332
TCF   003.58 219.0 m E Sn      2012/10/25 08:50:24.1  -0.5                          T                                        5104331

.
EVENT     285833
    Date      Time       Latitude Longitude    Depth    Ndef Nsta Gap    Mag1  N    Mag2  N    Mag3  N   Author         ID
       rms   OT_Error      Smajor Sminor Az        Err   mdist  Mdist     Err        Err        Err      Quality

2012/10/25 11:40:16.1     43.0115    -.2132       .0 f     8    4 160  Ml 1.8  1  Md 1.7  3              bulletin    285933
                                                                                                         _ldg
      0.35   +-  0.16      12.1    2.5  172.56 +-  0.0    0.28   1.81   +-         +-0.1                 m i km

PYRENEES
Sta     Dist  EvAz     Phase      Date       Time     TRes  Azim  AzRes  Slow  SRes Def   SNR       Amp   Per   Mag1   Mag2       ID
ETSF  000.28 246.2 m E Pg      2012/10/25 11:40:21.9   0.0                          T                                        5104354
ETSF  000.28 246.2 m E Sg      2012/10/25 11:40:26.0   0.1                          T               19.4  .25        Md 1.8  5104353
EPF   000.41 087.2 m E Pg      2012/10/25 11:40:23.8  -0.5                          T                                        5104352
EPF   000.41 087.2 m E Sg      2012/10/25 11:40:29.3  -0.6                          T               14.4  .23        Md 1.8  5104351
SJPF  000.75 278.2 m E Pg      2012/10/25 11:40:30.2  -0.3                          T                                        5104350
SJPF  000.75 278.2 m E Sg      2012/10/25 11:40:40.6   0.1                          T                4.2  .28        Md 1.6  5104349
MTLF  001.81 078.7 m E Pg      2012/10/25 11:40:50.5   0.5                          T                                        5104347
MTLF  001.81 078.7 m E Sg      2012/10/25 11:41:13.7   0.1                          T                1.1  .26 Ml 1.8         5104348

.
EVENT     285839
    Date      Time       Latitude Longitude    Depth    Ndef Nsta Gap    Mag1  N    Mag2  N    Mag3  N   Author         ID
       rms   OT_Error      Smajor Sminor Az        Err   mdist  Mdist     Err        Err        Err      Quality

2012/10/25 13:41:42.2     43.2917   -1.1363       .0 f     6    3 263  Ml 2.0  1  Md 2.3  2              bulletin    285939
                                                                                                         _ldg
      1.24   +-  2.11      45.8   15.9  155.63 +-  0.0    0.19   1.11   +-         +-0.1                 m i km

PYRENEES
Sta     Dist  EvAz     Phase      Date       Time     TRes  Azim  AzRes  Slow  SRes Def   SNR       Amp   Per   Mag1   Mag2       ID
SJPF  000.19 200.0 m E Pg      2012/10/25 13:41:46.9   0.6                          T                                        5104380
SJPF  000.19 200.0 m E Sg      2012/10/25 13:41:47.8  -1.3                          T               97.4  .21        Md 2.2  5104378
ETSF  000.58 132.7 m E Pg      2012/10/25 13:41:53.6   0.1                          T                                        5104379
ETSF  000.58 132.7 m E Sg      2012/10/25 13:41:59.5  -1.7                          T               13.3  .21        Md 2.4  5104377
EPF   001.11 103.1 m E Pg      2012/10/25 13:42:02.0  -1.3                          T                                        5104375
EPF   001.11 103.1 m E Sg      2012/10/25 13:42:20.1   2.2                          T                3.6  .28 Ml 2.0         5104376

.
EVENT     286398
    Date      Time       Latitude Longitude    Depth    Ndef Nsta Gap    Mag1  N    Mag2  N    Mag3  N   Author         ID
       rms   OT_Error      Smajor Sminor Az        Err   mdist  Mdist     Err        Err        Err      Quality

2012/10/25 18:44:48.9     47.6549    -.4238      2.0      17    8 137  Ml 2.0  8  Md 2.1  1              bulletin    286498
                                                                                                         _ldg
      0.81   +-  0.09       2.3    1.4   71.79 +-  0.0    0.79   2.71   +-0.3      +-                    m i ke

FRANCE
Sta     Dist  EvAz     Phase      Date       Time     TRes  Azim  AzRes  Slow  SRes Def   SNR       Amp   Per   Mag1   Mag2       ID
GRR   000.79 338.5 m E Pg      2012/10/25 18:45:03.8   0.1                          T                                        5116536
GRR   000.79 338.5 m E Sg      2012/10/25 18:45:13.8  -0.2                          T                4.9  .26        Md 2.1  5116531
LDF   000.96 012.0 m E Pg      2012/10/25 18:45:06.9   0.0                          T                                        5116535
LDF   000.96 012.0 m E Sg      2012/10/25 18:45:19.6   0.3                          T                5.7  .34 Ml 2.0         5116530
MFF   001.07 169.7 m E Pg      2012/10/25 18:45:08.8  -0.1                          T                                        5116533
MFF   001.07 169.7 m E Sg      2012/10/25 18:45:23.4   0.7                          T                8.4  .30 Ml 2.5         5116532
FLN   001.11 358.0 m E Pg      2012/10/25 18:45:09.8   0.2 172.7  -5.3              T                                        5116534
FLN   001.11 358.0 m E Sg      2012/10/25 18:45:23.4  -0.6                          T                1.8  .19 Ml 1.7         5116529
SGMF  001.55 293.5 m E Pg      2012/10/25 18:45:17.8   0.0                          T                                        5116539
SGMF  001.55 293.5 m E Sg      2012/10/25 18:45:38.0   0.1                          T                1.4  .26 Ml 1.8         5116528
QUIF  001.87 279.1 m E Pn      2012/10/25 18:45:20.0   0.0                          T                                        5116540
QUIF  001.87 279.1 m E Pg      2012/10/25 18:45:23.4  -0.1                          T                                        5116541
QUIF  001.87 279.1 m E Sg      2012/10/25 18:45:47.3  -0.3                          T                2.5  .29 Ml 2.1         5116543
ROSF  002.03 290.7 m E Sg      2012/10/25 18:45:52.2  -0.5                          T                 .6  .19 Ml 1.7         5116544
RJF   002.71 149.6 m E Sg      2012/10/25 18:46:13.4  -0.4                          T                3.3  .28 Ml 2.1         5116542

.
EVENT     286208
    Date      Time       Latitude Longitude    Depth    Ndef Nsta Gap    Mag1  N    Mag2  N    Mag3  N   Author         ID
       rms   OT_Error      Smajor Sminor Az        Err   mdist  Mdist     Err        Err        Err      Quality

2012/10/25 21:38:59.5     47.8552    7.5782     17.7      15    5 048  Ml 1.6  3  Md 1.7  2              bulletin    286308
                                                                                                         _ldg
      0.19   +-  0.03        .7     .6   21.93 +-  0.3    0.18   1.81   +-0.3      +-0.0                 m i ke

SWITZERLAND
Sta     Dist  EvAz     Phase      Date       Time     TRes  Azim  AzRes  Slow  SRes Def   SNR       Amp   Per   Mag1   Mag2       ID
HINF  000.49 265.8 m E Pg      2012/10/25 21:39:09.2  -0.1                          T                                        5109010
HINF  000.49 265.8 m E Sg      2012/10/25 21:39:16.0   0.0                          T                1.4  .18        Md 1.7  5109009
CDF   000.59 340.2 m E Pg      2012/10/25 21:39:11.1  -0.1                          T                                        5109008
CDF   000.59 340.2 m E Sg      2012/10/25 21:39:19.1  -0.1                          T                 .7  .16        Md 1.6  5109007
CABF  001.61 219.8 m E Pn      2012/10/25 21:39:25.6   0.2                          T                                        5109001
CABF  001.61 219.8 m E Sn      2012/10/25 21:39:44.3  -0.2                          T                 .3  .18 Ml 1.2         5109000
SFTF  001.74 282.5 m E Pn      2012/10/25 21:39:27.1  -0.1                          T                                        5109006
SFTF  001.74 282.5 m E Pg      2012/10/25 21:39:32.0   0.0                          T                                        5109005
SFTF  001.74 282.5 m E Sn      2012/10/25 21:39:47.7   0.1                          T                 .7  .19 Ml 1.7         5109004
MEZF  001.81 291.9 m E Pn      2012/10/25 21:39:28.2   0.0                          T                                        5109003
MEZF  001.81 291.9 m E Sn      2012/10/25 21:39:49.2   0.0                          T                1.1  .24 Ml 1.8         5109002

.
EVENT     285848
    Date      Time       Latitude Longitude    Depth    Ndef Nsta Gap    Mag1  N    Mag2  N    Mag3  N   Author         ID
       rms   OT_Error      Smajor Sminor Az        Err   mdist  Mdist     Err        Err        Err      Quality

2012/10/25 22:45:14.5     51.6013   16.2391      1.0 f    63   27 150  Ml 4.2 21                         bulletin    285948
                                                                                                         _ldg
      1.15   +-  0.29       7.1    4.0    4.52 +-  0.0    0.76  12.56   +-0.2                            m i sr

POLAND
Sta     Dist  EvAz     Phase      Date       Time     TRes  Azim  AzRes  Slow  SRes Def   SNR       Amp   Per   Mag1   Mag2       ID
CDF   006.60 244.6 m E P       2012/10/25 22:46:53.4  -1.8                          T                                        5104463
CDF   006.60 244.6 m E Sg      2012/10/25 22:48:40.4  -0.7                          T                                        5104458
PAGF  007.42 249.9 m E Pn      2012/10/25 22:47:01.8   0.3                          T                                        5105127
PAGF  007.42 249.9 m E Sg      2012/10/25 22:49:04.4  -2.3                          T              144.8 1.10 Ml 4.4         5104457
LPG   008.77 229.5 m E Pn      2012/10/25 22:47:20.0  -0.1                          T                                        5105130
LPG   008.77 229.5 m E Sg      2012/10/25 22:49:52.2   3.3                          T               51.9 1.08 Ml 4.2         5104439
LPL   008.76 229.7 m E P       2012/10/25 22:47:24.3  -1.3                          T                                        5104467
LPL   008.76 229.7 m E Sg      2012/10/25 22:49:47.7  -1.1                          T               37.1 1.14 Ml 4.0         5104440
LOR   009.16 246.6 m E P       2012/10/25 22:47:27.6  -3.2  70.2  13.0              T                                        5104462
LOR   009.16 246.6 m E Sg      2012/10/25 22:50:00.2  -0.6                          T               19.3  .74 Ml 4.0         5104460
ORIF  009.61 229.9 m E Pn      2012/10/25 22:47:31.0  -0.4                          T                                        5105129
ORIF  009.61 229.9 m E P       2012/10/25 22:47:36.5  -0.7                          T                                        5104466
ORIF  009.61 229.9 m E Sg      2012/10/25 22:50:10.0  -5.0                          T               46.0 1.12 Ml 4.3         5104441
MBDF  009.34 226.3 m E P       2012/10/25 22:47:32.7  -0.9                          T                                        5104465
MBDF  009.34 226.3 m E Sg      2012/10/25 22:50:07.2   0.5                          T               21.9 1.04 Ml 3.9         5104449
SBF   009.75 220.8 m E P       2012/10/25 22:47:36.9  -2.1                          T                                        5104470
FRF   010.32 222.5 m E P       2012/10/25 22:47:45.8  -1.0                          T                                        5104469
LMR   010.56 222.3 m E P       2012/10/25 22:47:48.1  -2.1                          T                                        5104468
SGMF  012.56 261.9 m E P       2012/10/25 22:48:17.0  -0.2                          T                                        5104464
SGMF  012.56 261.9 m E S       2012/10/25 22:50:39.1   0.1                          T                                        5105128
HINF  007.17 241.8 m E Sg      2012/10/25 22:48:59.6   0.8                          T               47.7  .64 Ml 4.2         5104455
GIVF  007.38 262.7 m E Sg      2012/10/25 22:49:07.6   2.2                          T               54.3  .94 Ml 4.1         5104448
BAIF  007.78 263.3 m E Sg      2012/10/25 22:49:18.7   1.0                          T               45.7  .98 Ml 4.0         5104459
MEZF  007.84 251.1 m E Sg      2012/10/25 22:49:19.7  -0.1                          T              175.4 1.56 Ml 4.4         5104447
SFTF  007.99 249.2 m E Sg      2012/10/25 22:49:27.4   3.0                          T               95.3 1.17 Ml 4.3         5104456
CABF  008.32 237.1 m E Sg      2012/10/25 22:49:35.7   0.8                          T               93.1  .96 Ml 4.5         5104454
SSF   009.47 246.3 m E Sg      2012/10/25 22:50:16.1   5.5                          T               27.4  .92 Ml 4.2         5104461
SMF   009.52 243.4 m E Sg      2012/10/25 22:50:17.8   5.7                          T               31.3  .96 Ml 4.2         5104452
AVF   009.71 245.3 m E Sg      2012/10/25 22:50:21.3   3.3                          T               25.2  .92 Ml 4.1         5104453
HYF   009.86 249.2 m E Sg      2012/10/25 22:50:24.3   1.5                          T                                        5104451
BGF   010.13 245.4 m E Sg      2012/10/25 22:50:33.6   2.5                          T               18.7  .62 Ml 4.2         5104450
VIVF  010.24 233.3 m E Sg      2012/10/25 22:50:35.0   0.3                          T               13.2 1.02 Ml 3.9         5104442
TCF   010.64 245.5 m E Sg      2012/10/25 22:50:50.1   2.8                          T               13.9  .80 Ml 4.1         5104446
LASF  011.21 232.7 m E Sg      2012/10/25 22:51:10.0   5.1                          T                9.6  .36 Ml 4.3         5104443
CAF   011.56 240.3 m E Sg      2012/10/25 22:51:13.2  -2.6                          T               26.6 1.34 Ml 4.2         5104444
LFF   012.28 243.2 m E Sg      2012/10/25 22:51:39.1   0.9                          T               13.1  .72 Ml 4.1         5104445

.
