EVENT     292139
    Date      Time       Latitude Longitude    Depth    Ndef Nsta Gap    Mag1  N    Mag2  N    Mag3  N   Author         ID
       rms   OT_Error      Smajor Sminor Az        Err   mdist  Mdist     Err        Err        Err      Quality

2013/02/15 22:03:48.3     46.8582    6.6732      6.0 f   138   31 020  Ml 3.0 33  Md 3.0  2              bulletin    292239
                                                                                                         _ldg
      0.58   +-  0.04        .9     .8   55.33 +-  0.0    0.16   5.32   +-0.3      +-0.1                 m i ke

SWITZERLAND
Sta     Dist  EvAz     Phase      Date       Time     TRes  Azim  AzRes  Slow  SRes Def   SNR       Amp   Per   Mag1   Mag2       ID
CABF  000.47 238.7 m E Pg      2013/02/15 22:03:57.6   0.1                          T   001.0                                5198302
CABF  000.47 238.7 m E P       2013/02/15 22:03:58.8   0.1                          T                                        5201640
CABF  000.47 238.7 m E Sg      2013/02/15 22:04:04.0   0.2                          T   001.0      399.5  .70        Md 3.1  5198303
HINF  000.97 007.2 m E Pn      2013/02/15 22:04:07.0   0.1                          T   001.0                                5198306
HINF  000.97 007.2 m E Sg      2013/02/15 22:04:19.1   0.0                          T   001.0       76.3  .25 Ml 3.3 Md 2.9  5198307
HAU   001.17 349.2 m E Pg      2013/02/15 22:04:10.2   0.0                          T   001.0                                5198283
HAU   001.17 349.2 m E P       2013/02/15 22:04:11.0  -0.3                          T                                        5201641
HAU   001.17 349.2 m E Sg      2013/02/15 22:04:25.5   0.1                          T   001.0       72.8  .22 Ml 3.2         5198286
LPL   001.34 178.2 m E P       2013/02/15 22:04:13.4  -0.6                          T                                        5201637
LPL   001.34 178.2 m E Sg      2013/02/15 22:04:30.7  -0.3                          T               24.5  .44 Ml 2.7         5198805
LPG   001.36 177.7 m E P       2013/02/15 22:04:14.0  -0.4                          T                                        5201636
LPG   001.36 177.7 m E Sg      2013/02/15 22:04:31.3  -0.4                          T   001.0       45.6  .42 Ml 3.0         5198276
CDF   001.61 014.5 m E Pn      2013/02/15 22:04:15.2  -0.4                          T   001.0                                5198277
CDF   001.61 014.5 m E P       2013/02/15 22:04:17.0  -0.7                          T                                        5201643
CDF   001.61 014.5 m E Pg      2013/02/15 22:04:18.0  -0.4                          T                                        5198819
CDF   001.61 014.5 m E Sn      2013/02/15 22:04:35.1  -0.4                          T   001.0                                5198278
CDF   001.61 014.5 m E Sg      2013/02/15 22:04:38.9  -0.3                          T               46.8  .42 Ml 3.2         5198820
SFTF  001.74 321.2 m E Pn      2013/02/15 22:04:17.4   0.0 145.1  5.1               T                                        5198319
SFTF  001.74 321.2 m E P       2013/02/15 22:04:19.0  -0.5                          T                                        5201642
SFTF  001.74 321.2 m E Pg      2013/02/15 22:04:20.9   0.2 138.8  -1.2              T                                        5198816
SFTF  001.74 321.2 m E Sn      2013/02/15 22:04:38.9   0.2                          T                                        5198320
SFTF  001.74 321.2 m E Sg      2013/02/15 22:04:43.7   0.4                          T               72.7  .33 Ml 3.5         5198815
PAGF  001.81 339.7 m E Pn      2013/02/15 22:04:18.2  -0.1 161.3  2.3               T                                        5198322
PAGF  001.81 339.7 m E Pg      2013/02/15 22:04:21.9  -0.1 158.6  -0.4              T                                        5198818
PAGF  001.81 339.7 m E Sn      2013/02/15 22:04:40.2  -0.1                          T                                        5198817
PAGF  001.81 339.7 m E Sg      2013/02/15 22:04:45.7   0.2 157.3  -1.7              T              117.5  .51 Ml 3.5         5198323
SMF   001.96 264.8 m E Pn      2013/02/15 22:04:20.3   0.0                          T   001.0                                5198290
SMF   001.96 264.8 m E Pg      2013/02/15 22:04:24.7   0.0                          T                                        5198814
SMF   001.96 264.8 m E Sn      2013/02/15 22:04:44.0   0.2                          T   001.0                                5198291
SMF   001.96 264.8 m E Sg      2013/02/15 22:04:50.5   0.5                          T   001.0       15.6  .20 Ml 3.1         5198293
LOR   001.97 283.1 m E Pn      2013/02/15 22:04:20.4  -0.1 103.9  2.9               T   001.0                                5198292
LOR   001.97 283.1 m E Pg      2013/02/15 22:04:25.5   0.6 103.3  2.3               T   001.0                                5198268
LOR   001.97 283.1 m E Sg      2013/02/15 22:04:50.7   0.4 100.6  -0.5              T               28.1  .24 Ml 3.3         5198324
MEZF  001.98 326.9 m E Pn      2013/02/15 22:04:20.5  -0.1 143.2  -2.5              T   001.0                                5198310
MEZF  001.98 326.9 m E Pg      2013/02/15 22:04:25.0   0.0 145.9  0.2               T   001.0                                5198311
MEZF  001.98 326.9 m E Sn      2013/02/15 22:04:44.2   0.1                          T                                        5198321
MEZF  001.98 326.9 m E Sg      2013/02/15 22:04:51.2   0.7 144.2  -1.6              T   001.0       17.4  .19 Ml 3.2         5198312
ORIF  002.02 196.2 m E Pn      2013/02/15 22:04:21.0  -0.3                          T   001.0                                5198313
ORIF  002.02 196.2 m E Pg      2013/02/15 22:04:25.5  -0.5                          T                                        5198806
ORIF  002.02 196.2 m E Sn      2013/02/15 22:04:44.7  -0.6                          T   001.0                                5198314
ORIF  002.02 196.2 m E Sg      2013/02/15 22:04:51.4  -0.5                          T   001.0       33.5  .52 Ml 3.0         5198315
MBDF  002.13 178.1 m E Pn      2013/02/15 22:04:22.4  -0.5                          T                                        5198333
MBDF  002.13 178.1 m E Pg      2013/02/15 22:04:28.0  -0.1                          T   001.0                                5198308
MBDF  002.13 178.1 m E Sg      2013/02/15 22:04:55.1  -0.5                          T   001.0       13.1  .51 Ml 2.6         5198309
SSF   002.18 276.5 m E Pn      2013/02/15 22:04:23.3   0.0                          T   001.0                                5198294
SSF   002.18 276.5 m E P       2013/02/15 22:04:25.7   0.0                          T                                        5201645
SSF   002.18 276.5 m E Pg      2013/02/15 22:04:29.3   0.5                          T   001.0                                5198295
SSF   002.18 276.5 m E Sg      2013/02/15 22:04:57.3   0.5                          T               24.1  .30 Ml 3.2         5198325
AVF   002.28 269.5 m E Pn      2013/02/15 22:04:24.1  -0.6                          T   001.0                                5198267
AVF   002.28 269.5 m E Pg      2013/02/15 22:04:31.1   0.4                          T                                        5201639
AVF   002.28 269.5 m E Sn      2013/02/15 22:04:51.1  -0.4                          T                7.0  .22 Ml 2.8         5198326
AVF   002.28 269.5 m E Sg      2013/02/15 22:05:00.3   0.3                          T   001.0                                5198270
VIVF  002.44 215.6 m E Pn      2013/02/15 22:04:26.4  -0.6                          T   001.0                                5198316
VIVF  002.44 215.6 m E Pg      2013/02/15 22:04:33.5  -0.1                          T   001.0                                5198317
VIVF  002.44 215.6 m E Sn      2013/02/15 22:04:54.9  -0.5                          T   001.0                                5198318
VIVF  002.44 215.6 m E Sg      2013/02/15 22:05:03.6  -1.5                          T               26.3  .34 Ml 3.2         5198807
BGF   002.65 264.9 m E Pn      2013/02/15 22:04:29.6  -0.2                          T   001.0                                5198272
BGF   002.65 264.9 m E Pg      2013/02/15 22:04:37.5   0.0                          T   001.0                                5198273
BGF   002.65 264.9 m E Sn      2013/02/15 22:05:00.5   0.2                          T   001.0                                5198274
BGF   002.65 264.9 m E Sg      2013/02/15 22:05:11.8   0.3                          T   001.0       22.0  .30 Ml 3.2         5198275
HYF   002.79 279.9 m E Pn      2013/02/15 22:04:30.9  -0.7                          T                                        5198328
HYF   002.79 279.9 m E Pg      2013/02/15 22:04:39.5  -0.5                          T                                        5198812
HYF   002.79 279.9 m E Sn      2013/02/15 22:05:03.9   0.3                          T                                        5198327
HYF   002.79 279.9 m E Sg      2013/02/15 22:05:16.4   0.6                          T                                        5198813
SBF   003.04 169.6 m E Pn      2013/02/15 22:04:34.7  -0.5                          T                                        5198798
SBF   003.04 169.6 m E Pg      2013/02/15 22:04:44.6  -0.2                          T                                        5198799
SBF   003.04 169.6 m E Sn      2013/02/15 22:05:08.7  -1.0                          T                                        5198801
SBF   003.04 169.6 m E Sg      2013/02/15 22:05:23.1  -0.8                          T                2.3  .28 Ml 2.3         5198800
TCF   003.13 261.1 m E Pn      2013/02/15 22:04:37.1   0.8                          T   001.0                                5198296
TCF   003.13 261.1 m E Pg      2013/02/15 22:04:46.3  -0.1                          T                                        5201644
TCF   003.13 261.1 m E Sn      2013/02/15 22:05:11.5  -0.3                          T   001.0                                5198297
TCF   003.13 261.1 m E Sg      2013/02/15 22:05:26.6   0.0                          T   001.0       11.9  .46 Ml 2.9         5198298
FRF   003.30 180.3 m E Pn      2013/02/15 22:04:38.3  -0.2                          T                                        5198803
FRF   003.30 180.3 m E Pg      2013/02/15 22:04:49.0  -0.4                          T                                        5198804
FRF   003.30 180.3 m E Sn      2013/02/15 22:05:15.3  -0.4                          T                                        5198802
FRF   003.30 180.3 m E Sg      2013/02/15 22:05:30.9  -0.8                          T   001.0        1.1  .23 Ml 2.2         5198281
GIVF  003.47 339.9 m E Pn      2013/02/15 22:04:41.2   0.2                          T                                        5198788
GIVF  003.47 339.9 m E Pg      2013/02/15 22:04:52.1  -0.5                          T                                        5198789
GIVF  003.47 339.9 m E Sn      2013/02/15 22:05:18.9  -1.0                          T   001.0        3.7  .26 Ml 2.7         5198304
GIVF  003.47 339.9 m E Sg      2013/02/15 22:05:36.6  -0.6                          T   001.0                                5198305
BAIF  003.60 333.8 m E Pn      2013/02/15 22:04:42.6  -0.1                          T   001.0                                5198299
BAIF  003.60 333.8 m E Sn      2013/02/15 22:05:22.7  -0.2                          T                                        5198790
BAIF  003.60 333.8 m E Sg      2013/02/15 22:05:41.6   0.5                          T   001.0        5.0  .36 Ml 2.7         5198300
CAF   003.75 240.7 m E Pn      2013/02/15 22:04:44.7  -0.1                          T                                        5198330
CAF   003.75 240.7 m E Pg      2013/02/15 22:04:57.7  -0.2                          T                                        5198810
CAF   003.75 240.7 m E Sn      2013/02/15 22:05:26.7   0.0                          T                                        5198331
CAF   003.75 240.7 m E Sg      2013/02/15 22:05:46.3   0.2                          T                8.2  .43 Ml 2.9         5198811
RJF   003.91 248.5 m E Pn      2013/02/15 22:04:46.5  -0.4                          T                                        5198329
RJF   003.91 248.5 m E Sg      2013/02/15 22:05:51.2   0.3                          T   001.0        4.5  .33 Ml 2.4         5198266
LASF  003.42 216.5 m E Pg      2013/02/15 22:04:51.5  -0.1                          T                                        5198809
LASF  003.42 216.5 m E Sn      2013/02/15 22:05:18.0  -0.6                          T                                        5198332
LASF  003.42 216.5 m E Sg      2013/02/15 22:05:35.7   0.3                          T               31.3  .58 Ml 3.3         5198808
LFF   004.56 247.3 m E Pn      2013/02/15 22:04:56.0   0.2                          T                                        5198796
LFF   004.56 247.3 m E Pg      2013/02/15 22:05:12.1  -0.6                          T                                        5198797
LFF   004.56 247.3 m E Sn      2013/02/15 22:05:45.2  -0.8                          T                                        5198795
LFF   004.56 247.3 m E Sg      2013/02/15 22:06:11.6   0.3                          T               13.1  .49 Ml 3.0         5198794
MFF   004.70 269.4 m E Pn      2013/02/15 22:04:56.9  -0.7                          T   001.0                                5198285
MFF   004.70 269.4 m E Sn      2013/02/15 22:05:48.3  -0.9                          T   001.0         .9  .26 Ml 2.5         5198288
MFF   004.70 269.4 m E Sg      2013/02/15 22:06:15.6   0.2                          T                1.4  .24 Ml 2.7         5201635
LDF   004.90 293.2 m E P       2013/02/15 22:05:04.0  -0.4                          T                                        5201638
LDF   004.90 293.2 m E Sg      2013/02/15 22:06:23.0   1.1                          T   001.0        4.3  .33 Ml 2.9         5198289
GRR   005.32 289.5 m E Pn      2013/02/15 22:05:06.0  -0.1                          T   001.0                                5198282
GRR   005.32 289.5 m E Pg      2013/02/15 22:05:26.4  -0.2                          T                                        5198792
GRR   005.32 289.5 m E Sn      2013/02/15 22:06:04.4   0.4                          T                                        5198793
GRR   005.32 289.5 m E Sg      2013/02/15 22:06:35.4   0.7                          T                1.5  .23 Ml 2.6         5198791
FLN   005.18 294.2 m E Sg      2013/02/15 22:06:31.4   0.8                          T   001.0        8.3  .40 Ml 3.1         5198280

.
EVENT     292140
    Date      Time       Latitude Longitude    Depth    Ndef Nsta Gap    Mag1  N    Mag2  N    Mag3  N   Author         ID
       rms   OT_Error      Smajor Sminor Az        Err   mdist  Mdist     Err        Err        Err      Quality

2013/02/16 00:00:07.9     44.7766    6.6150      2.0      28    9 080  Ml 1.6  5  Md 1.6  1              bulletin    292240
                                                                                                         _ldg
      0.34   +-  0.05       1.1     .8   77.63 +-  0.0    0.05   1.44   +-0.2      +-                    m i ke

FRANCE
Sta     Dist  EvAz     Phase      Date       Time     TRes  Azim  AzRes  Slow  SRes Def   SNR       Amp   Per   Mag1   Mag2       ID
MBDF  000.12 114.0 m E Pg      2013/02/16 00:00:10.1  -0.6                          T                                        5198357
MBDF  000.12 114.0 m E Sg      2013/02/16 00:00:12.1  -0.4                          T               28.5  .20        Md 1.6  5198353
ORIF  000.54 285.4 m E Pg      2013/02/16 00:00:18.2  -0.2                          T                                        5198356
ORIF  000.54 285.4 m E Sg      2013/02/16 00:00:24.8  -0.7                          T                2.6  .22                5198352
LPG   000.73 007.6 m E Pg      2013/02/16 00:00:22.3   0.3                          T                                        5198354
LPL   000.74 006.4 m E Pg      2013/02/16 00:00:22.3   0.1                          T                                        5198355
LPG   000.73 007.6 m E Sg      2013/02/16 00:00:31.2  -0.3                          T                1.5  .28                5198359
LPL   000.74 006.4 m E Sn      2013/02/16 00:00:35.1  -0.2                          T                 .8  .22                5201648
FRF   001.22 178.9 m E Pg      2013/02/16 00:00:30.6   0.0                          T                                        5198351
FRF   001.22 178.9 m E Sg      2013/02/16 00:00:47.0   0.7                          T                2.2  .27 Ml 1.9         5198358
LMR   001.44 183.1 m E Pg      2013/02/16 00:00:34.8   0.0                          T                                        5198350
LMR   001.44 183.1 m E Sg      2013/02/16 00:00:54.2   0.7                          T                 .5  .21 Ml 1.4         5198363
SBF   001.09 146.9 m E Sg      2013/02/16 00:00:43.0   0.6                          T                 .9  .24 Ml 1.5         5201646
SMRF  001.09 223.3 m E Sg      2013/02/16 00:00:43.5   0.8                          T                 .5  .19 Ml 1.3         5201647
VIVF  001.38 274.0 m E Sg      2013/02/16 00:00:52.1   0.4                          T                1.8  .32 Ml 1.7         5198362

.
EVENT     292339
    Date      Time       Latitude Longitude    Depth    Ndef Nsta Gap    Mag1  N    Mag2  N    Mag3  N   Author         ID
       rms   OT_Error      Smajor Sminor Az        Err   mdist  Mdist     Err        Err        Err      Quality

2013/02/16 02:08:14.3     42.8969    1.7695     17.8      15    4 088  Ml 1.5  3  Md 1.3  1              bulletin    292439
                                                                                                         _ldg
      0.72   +-  0.07       1.2    1.0  143.86 +-  1.1    0.25   2.04   +-0.2      +-                    m i ke

PYRENEES
Sta     Dist  EvAz     Phase      Date       Time     TRes  Azim  AzRes  Slow  SRes Def   SNR       Amp   Per   Mag1   Mag2       ID
MTLF  000.55 036.3 m E Pg      2013/02/16 02:08:25.4   0.2                          T                                        5201555
MTLF  000.55 036.3 m E Pn      2013/02/16 02:08:25.8  -0.1                          T                                        5201556
MTLF  000.55 036.3 m E Sg      2013/02/16 02:08:32.7   0.0                          T                 .5  .17        Md 1.3  5201557
EPF   001.06 277.7 m E Pg      2013/02/16 02:08:34.5   0.1                          T                                        5201560
EPF   001.06 277.7 m E Sg      2013/02/16 02:08:48.4   0.1                          T                1.6  .27 Ml 1.6         5201554
ETSF  001.71 270.8 m E Sg      2013/02/16 02:09:08.6   0.1                          T                 .3  .21 Ml 1.3         5201558
CAF   002.04 005.9 m E Sg      2013/02/16 02:09:18.8   0.1                          T                 .8  .23 Ml 1.7         5201559

.
