BEGIN GSE2.0
MSG_TYPE DATA
MSG_ID 09-JAN-1210:07:14  FRA_NDC
E-MAIL
DATA_TYPE BULLETIN
Reviewed Bulletin (REB) # P2011-052  from French NDC for regional phases     PERIOD 28 DEC 2011 TO 31 DEC 2011 SM,JP Santoire
EVENT     267894
    Date      Time       Latitude Longitude    Depth    Ndef Nsta Gap    Mag1  N    Mag2  N    Mag3  N   Author         ID
       rms   OT_Error      Smajor Sminor Az        Err   mdist  Mdist     Err        Err        Err      Quality

2011/12/28 03:28:19.1     47.1001    1.5438      3.0 f   128   36 066  Ml 3.1 46  Md 3.3  4              js067245    267914

      0.92   +-  0.04        .9     .7   18.38 +-  0.0    0.77   4.46   +-0.3      +-0.1                 m i ke

FRANCE
Sta     Dist  EvAz     Phase      Date       Time     TRes  Azim  AzRes  Slow  SRes Def   SNR       Amp   Per   Mag1   Mag2       ID
HYF   000.77 076.9 m E Pg      2011/12/28 03:28:33.5   0.0                          T                                        4807716
HYF   000.77 076.9 m E P       2011/12/28 03:28:34.6  -0.6                          T                                        4807718
HYF   000.77 076.9 m E Pn      2011/12/28 03:28:35.5   0.4                          T                                        4807717
HYF   000.77 076.9 m E Sg      2011/12/28 03:28:43.1  -0.4                          T                                        4807720
HYF   000.77 076.9 m E Sn      2011/12/28 03:28:46.9   0.3                          T                                Md 3.4  4807719
TCF   000.93 150.3 m E Pg      2011/12/28 03:28:37.2   0.6                          T   001.0                                4805507
TCF   000.93 150.3 m E Pn      2011/12/28 03:28:37.7   0.2                          T   001.0                                4805508
TCF   000.93 150.3 m E Sg      2011/12/28 03:28:49.0   0.2                          T   001.0        105  .28 Ml 3.4 Md 3.3  4805509
BGF   001.05 120.8 m E Pg      2011/12/28 03:28:38.6   0.0                          T                                        4807715
BGF   001.05 120.8 m E Pn      2011/12/28 03:28:39.3   0.3                          T   001.0                                4805475
BGF   001.05 120.8 m E Sg      2011/12/28 03:28:52.2  -0.1                          T   001.0      388.5  .36 Ml 3.9         4805476
BGF   001.05 120.8 m E Sn      2011/12/28 03:28:53.3   0.0                          T   001.0                        Md 3.4  4805477
MFF   001.26 247.4 m E Pn      2011/12/28 03:28:42.1   0.2                          T   001.0                                4805501
MFF   001.26 247.4 m E Pg      2011/12/28 03:28:42.7   0.1                          T   001.0                                4805500
MFF   001.26 247.4 m E Sn      2011/12/28 03:28:58.4   0.1                          T   001.0       61.5  .16 Ml 3.7         4805502
AVF   001.28 103.4 m E Pn      2011/12/28 03:28:42.4   0.3                          T   001.0                                4805474
AVF   001.28 103.4 m E Pg      2011/12/28 03:28:42.9   0.0                          T                                        4807722
AVF   001.28 103.4 m E Sg      2011/12/28 03:28:59.3  -0.1                          T               74.4  .32 Ml 3.3 Md 3.1  4807765
SSF   001.34 090.9 m E Pn      2011/12/28 03:28:43.3   0.3                          T   001.0                                4805506
SSF   001.34 090.9 m E Pg      2011/12/28 03:28:43.9  -0.2                          T   001.0                                4805505
SSF   001.34 090.9 m E Sg      2011/12/28 03:29:01.4  -0.1                          T               67.7  .36 Ml 3.3         4807738
LOR   001.59 083.1 m E Pn      2011/12/28 03:28:46.6   0.2 268.4  3.6               T   001.0                                4805498
LOR   001.59 083.1 m E Pg      2011/12/28 03:28:48.3  -0.4 268.3  3.5               T                                        4807739
LOR   001.59 083.1 m E Sn      2011/12/28 03:29:06.1  -0.1                          T   001.0       42.6  .24 Ml 3.3         4805499
LOR   001.59 083.1 m E Sg      2011/12/28 03:29:09.2   0.0 261.9  -2.8              T               43.7  .24 Ml 3.3         4807737
SMF   001.64 105.3 m E Pn      2011/12/28 03:28:47.4   0.3                          T   001.0                                4805503
SMF   001.64 105.3 m E Pg      2011/12/28 03:28:49.4  -0.2                          T                                        4807721
SMF   001.64 105.3 m E Sn      2011/12/28 03:29:07.5   0.0                          T   001.0       31.7  .24 Ml 3.2         4805504
SMF   001.64 105.3 m E Sg      2011/12/28 03:29:10.9   0.1                          T               35.3  .26 Ml 3.2         4807764
RJF   001.80 180.6 m E Pn      2011/12/28 03:28:49.4   0.2                          T   001.0                                4805472
RJF   001.80 180.6 m E Pg      2011/12/28 03:28:52.8   0.3                          T                                        4807704
RJF   001.80 180.6 m E Sn      2011/12/28 03:29:11.3   0.1                          T   001.0       33.6  .20 Ml 3.1         4805473
RJF   001.80 180.6 m E Sg      2011/12/28 03:29:15.7   0.1                          T               38.1  .22 Ml 3.1         4807706
LDF   001.87 323.7 m E Pn      2011/12/28 03:28:50.4   0.3                          T   001.0                                4805492
LDF   001.87 323.7 m E P       2011/12/28 03:28:52.8   0.5                          T   001.0                                4805493
LDF   001.87 323.7 m E Sn      2011/12/28 03:29:12.4  -0.5                          T   001.0       34.7  .32 Ml 3.2         4805494
LDF   001.87 323.7 m E Sg      2011/12/28 03:29:17.5  -0.4                          T               27.9  .26 Ml 3.2         4807708
GRR   002.07 309.4 m E Pn      2011/12/28 03:28:52.0   0.1                          T   001.0                                4805487
GRR   002.07 309.4 m E P       2011/12/28 03:28:55.3   0.1                          T                                        4807758
GRR   002.07 309.4 m E Pg      2011/12/28 03:28:57.6   0.1                          T                                        4807757
GRR   002.07 309.4 m E Sg      2011/12/28 03:29:24.1  -0.1                          T               25.3  .22 Ml 3.1         4807707
FLN   002.15 321.4 m E Pn      2011/12/28 03:28:54.1   0.1 139.7  -0.2              T   001.0                                4805485
FLN   002.15 321.4 m E P       2011/12/28 03:28:56.3   0.0                          T                                        4807756
FLN   002.15 321.4 m E Pg      2011/12/28 03:28:59.0   0.0                          T                                        4807755
FLN   002.15 321.4 m E Sn      2011/12/28 03:29:19.8   0.2 137.4  -2.5              T   001.0       20.6  .20 Ml 3.1         4805486
FLN   002.15 321.4 m E Sg      2011/12/28 03:29:26.6  -0.1                          T               21.2  .20 Ml 3.1         4807763
CAF   002.20 170.3 m E Pn      2011/12/28 03:28:54.9   0.1                          T   001.0                                4805478
CAF   002.20 170.3 m E Pg      2011/12/28 03:28:59.7  -0.3                          T   001.0                                4805479
CAF   002.20 170.3 m E Sn      2011/12/28 03:29:21.2   0.2                          T                                        4807703
CAF   002.20 170.3 m E Sg      2011/12/28 03:29:28.7   0.3                          T   001.0       20.3  .32 Ml 3.1         4805480
LFF   002.23 194.8 m E Pn      2011/12/28 03:28:55.6   0.5                          T   001.0                                4805495
LFF   002.23 194.8 m E Pg      2011/12/28 03:28:59.8  -0.7                          T                                        4807705
LFF   002.23 194.8 m E Sn      2011/12/28 03:29:21.2  -0.3                          T   001.0                                4805496
LFF   002.23 194.8 m E Sg      2011/12/28 03:29:29.8   0.6                          T   001.0       48.4  .36 Ml 3.2         4805497
SFTF  002.61 063.6 m E Pn      2011/12/28 03:29:00.2  -0.1                          T                                        4807732
SFTF  002.61 063.6 m E Pg      2011/12/28 03:29:07.6   0.2 237.8  -8.5              T                                        4807731
SFTF  002.61 063.6 m E Sg      2011/12/28 03:29:41.3   0.4 236.6  -9.6              T               16.9  .26 Ml 3.2         4807730
MEZF  002.75 058.0 m E Pn      2011/12/28 03:29:02.9   0.7 243.1  2.4               T   001.0                                4805520
MEZF  002.75 058.0 m E Pg      2011/12/28 03:29:10.0   0.0 251.8  11.1              T                                        4807734
MEZF  002.75 058.0 m E Sg      2011/12/28 03:29:44.1  -1.3 222.3  -18.4             T   001.0       16.3  .32 Ml 3.1         4805521
SGMF  003.00 294.1 m E Pn      2011/12/28 03:29:06.0   0.4                          T   001.0                                4805527
SGMF  003.00 294.1 m E Pg      2011/12/28 03:29:14.3  -0.4                          T                                        4807753
SGMF  003.00 294.1 m E Sn      2011/12/28 03:29:39.2  -0.8                          T   001.0        9.1  .24 Ml 3.0         4805528
SGMF  003.00 294.1 m E Sg      2011/12/28 03:29:53.0  -0.2                          T                8.9  .23 Ml 3.0         4807710
VIVF  003.13 134.7 m E Pn      2011/12/28 03:29:07.6   0.2                          T   001.0                                4805529
VIVF  003.13 134.7 m E Pg      2011/12/28 03:29:17.0  -0.1                          T                                        4807762
VIVF  003.13 134.7 m E Sg      2011/12/28 03:29:56.8  -0.5                          T   001.0       15.1  .36 Ml 3.1         4805530
THEF  003.21 067.8 m E Pn      2011/12/28 03:29:08.4  -0.1                          T                                        4807727
THEF  003.21 067.8 m E Pg      2011/12/28 03:29:18.5  -0.1                          T                                        4807726
THEF  003.21 067.8 m E Sg      2011/12/28 03:30:00.2   0.3                          T               17.9  .32 Ml 3.2         4807729
CABF  003.16 097.3 m E Pn      2011/12/28 03:29:09.4   1.5                          T   001.0                                4805512
CABF  003.16 097.3 m E Pg      2011/12/28 03:29:18.3   0.6                          T                                        4807723
CABF  003.16 097.3 m E Sg      2011/12/28 03:29:57.9  -0.3                          T   001.0       18.1  .44 Ml 3.1         4805513
QUIF  003.30 286.1 m E Pn      2011/12/28 03:29:10.1   0.5                          T   001.0                                4805524
QUIF  003.30 286.1 m E Pg      2011/12/28 03:29:19.8  -0.3                          T                                        4807754
QUIF  003.30 286.1 m E Sg      2011/12/28 03:30:01.2  -1.2                          T               10.0  .23 Ml 3.1         4807709
HAU   003.38 072.7 m E Pn      2011/12/28 03:29:10.7  -0.1                          T                                        4807728
HAU   003.38 072.7 m E Pg      2011/12/28 03:29:21.7   0.0                          T                                        4807725
HAU   003.38 072.7 m E Sn      2011/12/28 03:29:48.7  -0.3                          T   001.0                                4805488
HAU   003.38 072.7 m E Sg      2011/12/28 03:30:04.7  -0.3                          T   001.0       17.9  .36 Ml 3.0         4805489
LASF  003.43 150.9 m E Pn      2011/12/28 03:29:11.5   0.0                          T   001.0                                4805490
LASF  003.43 150.9 m E Pg      2011/12/28 03:29:22.4  -0.3                          T                                        4807761
LASF  003.43 150.9 m E Sg      2011/12/28 03:30:06.6  -0.1                          T   001.0       10.2  .48 Ml 2.9         4805491
ROSF  003.48 292.6 m E Pn      2011/12/28 03:29:12.5   0.4                          T   001.0                                4805525
ROSF  003.48 292.6 m E Pg      2011/12/28 03:29:23.3  -0.2                          T                                        4807752
ROSF  003.48 292.6 m E Sn      2011/12/28 03:29:50.7  -0.7                          T   001.0        7.7  .28 Ml 3.0         4805526
ROSF  003.48 292.6 m E Sg      2011/12/28 03:30:07.9  -0.2                          T                9.7  .32 Ml 3.0         4807711
BAIF  003.45 029.9 m E Pn      2011/12/28 03:29:13.5   1.8                          T   001.0                                4805510
BAIF  003.45 029.9 m E Sn      2011/12/28 03:29:50.7   0.1                          T   001.0        4.5  .28 Ml 2.7         4805511
BAIF  003.45 029.9 m E Sg      2011/12/28 03:30:07.0  -0.2                          T                6.4  .35 Ml 2.8         4807736
HINF  003.67 076.8 m E Pn      2011/12/28 03:29:14.3  -0.5                          T   001.0                                4805517
HINF  003.67 076.8 m E Pg      2011/12/28 03:29:27.2   0.1                          T                                        4807724
HINF  003.67 076.8 m E Sn      2011/12/28 03:29:53.2  -2.9                          T   001.0                                4805518
HINF  003.67 076.8 m E Sg      2011/12/28 03:30:13.9  -0.4                          T   001.0        8.1  .28 Ml 3.0         4805519
MTLF  003.79 172.5 m E Pn      2011/12/28 03:29:16.6   0.3                          T   001.0                                4805522
MTLF  003.79 172.5 m E Pg      2011/12/28 03:29:29.4   0.2                          T                                        4807700
MTLF  003.79 172.5 m E Sg      2011/12/28 03:30:17.6  -0.2                          T   001.0        5.4  .36 Ml 2.8         4805523
PAGF  003.17 061.1 m E Pg      2011/12/28 03:29:17.9   0.1 241.6  -2.6              T                                        4807733
PAGF  003.17 061.1 m E Sg      2011/12/28 03:29:58.0  -0.5 227.3  -16.9             T                5.6  .51 Ml 2.5         4807735
LPL   003.93 111.9 m E Pn      2011/12/28 03:29:18.7   0.2                          T                                        4807760
LPL   003.93 111.9 m E Pg      2011/12/28 03:29:31.9  -0.2                          T                                        4807759
LPL   003.93 111.9 m E Sg      2011/12/28 03:30:22.6   0.2                          T                3.4  .48 Ml 2.5         4807767
EPF   004.16 192.3 m E Pn      2011/12/28 03:29:20.4  -1.0                          T   001.0                                4805484
EPF   004.16 192.3 m E Sn      2011/12/28 03:30:06.5  -1.1                          T                                        4807702
EPF   004.16 192.3 m E Sg      2011/12/28 03:30:30.0   0.6                          T                5.8  .25 Ml 3.0         4807701
CDF   004.08 069.1 m E Pn      2011/12/28 03:29:20.6   0.1                          T   001.0                                4805481
CDF   004.08 069.1 m E Pg      2011/12/28 03:29:34.6  -0.2                          T                                        4807751
CDF   004.08 069.1 m E Sn      2011/12/28 03:30:03.2  -2.7                          T   001.0                                4805482
CDF   004.08 069.1 m E Sg      2011/12/28 03:30:26.9  -0.2                          T   001.0        8.6  .36 Ml 3.2         4805483
ETSF  004.46 200.3 m E Pn      2011/12/28 03:29:25.1  -0.4                          T   001.0                                4805514
ETSF  004.46 200.3 m E Sg      2011/12/28 03:30:38.3  -0.5                          T   001.0        8.1  .48 Ml 3.0         4805515
GIVF  003.71 034.7 m E Pg      2011/12/28 03:29:27.4  -0.3                          T                                        4807750
GIVF  003.71 034.7 m E Sg      2011/12/28 03:30:14.8  -0.5                          T   001.0       12.7  .40 Ml 3.1         4805516
ORIF  003.73 124.3 m E Sg      2011/12/28 03:30:20.2   4.2                          T                4.0  .41 Ml 2.6         4807699
LPG   003.95 112.0 m E Sg      2011/12/28 03:30:23.6   0.4                          T                1.9  .24 Ml 2.5         4807768
MBDF  004.35 121.1 m E Sg      2011/12/28 03:30:35.3  -0.3                          T                5.9  .67 Ml 2.7         4807766

.
