EVENT     264865
    Date      Time       Latitude Longitude    Depth    Ndef Nsta Gap    Mag1  N    Mag2  N    Mag3  N   Author         ID
       rms   OT_Error      Smajor Sminor Az        Err   mdist  Mdist     Err        Err        Err      Quality

2011/10/09 07:33:30.4     48.1069   -3.4979     11.0 f    32   12 257  Ml 2.4  8  Md 2.5  3              js067245    264885

      0.54   +-  0.16       2.8    1.8   75.26 +-  0.0    0.27   5.04   +-0.2      +-0.1                 m i ke

FRANCE
Sta     Dist  EvAz     Phase      Date       Time     TRes  Azim  AzRes  Slow  SRes Def   SNR       Amp   Per   Mag1   Mag2       ID
ROSF  000.27 033.1 m E Pg      2011/10/09 07:33:36.0  -0.1                          T                                        4768271
ROSF  000.27 033.1 m E P       2011/10/09 07:33:36.8  -0.5                          T                                        4768787
ROSF  000.27 033.1 m E Sg      2011/10/09 07:33:40.1   0.1                          T               22.7  .19        Md 2.6  4768270
QUIF  000.29 130.3 m E Pg      2011/10/09 07:33:36.6   0.3                          T                                        4768267
QUIF  000.29 130.3 m E Sg      2011/10/09 07:33:41.6   1.1                          T              136.4  .19        Md 2.4  4768266
SGMF  000.65 076.5 m E Pg      2011/10/09 07:33:43.1   0.4                          T                                        4768269
SGMF  000.65 076.5 m E Sn      2011/10/09 07:33:53.9   0.3                          T               32.6  .24        Md 2.4  4768268
GRR   001.79 080.0 m E Pn      2011/10/09 07:33:59.6   0.1                          T                                        4772172
GRR   001.79 080.0 m E Pg      2011/10/09 07:34:03.1  -0.5                          T                                        4768265
GRR   001.79 080.0 m E Sg      2011/10/09 07:34:26.8   0.1                          T                8.6  .20 Ml 2.7         4768264
FLN   002.11 070.8 m E Pn      2011/10/09 07:34:04.1   0.1                          T                                        4772174
FLN   002.11 070.8 m E Pg      2011/10/09 07:34:09.6  -0.1 257.3  4.2               T                                        4768282
FLN   002.11 070.8 m E Sn      2011/10/09 07:34:28.9   0.3                          T                                        4772163
FLN   002.11 070.8 m E Sg      2011/10/09 07:34:36.5  -0.4 253.8  0.7               T                6.1  .26 Ml 2.5         4768281
LDF   002.30 076.5 m E Pn      2011/10/09 07:34:07.1   0.6                          T                                        4772173
LDF   002.30 076.5 m E Pg      2011/10/09 07:34:13.0  -0.2                          T                                        4768261
LDF   002.30 076.5 m E Sn      2011/10/09 07:34:33.5   0.3                          T                                        4772164
LDF   002.30 076.5 m E Sg      2011/10/09 07:34:43.4   0.6                          T                3.2  .18 Ml 2.5         4768260
MFF   002.73 122.2 m E Pn      2011/10/09 07:34:12.7   0.3                          T                                        4772170
MFF   002.73 122.2 m E Pg      2011/10/09 07:34:20.9  -0.1                          T                                        4768259
MFF   002.73 122.2 m E Sn      2011/10/09 07:34:43.0  -0.4                          T                                        4772171
MFF   002.73 122.2 m E Sg      2011/10/09 07:34:55.7  -0.5                          T                3.1  .23 Ml 2.7         4768258
LFF   004.31 135.7 m E Pn      2011/10/09 07:34:34.0   0.1                          T                                        4772168
RJF   004.44 127.3 m E Pn      2011/10/09 07:34:35.7  -0.1                          T                                        4772169
RJF   004.44 127.3 m E Sn      2011/10/09 07:35:23.1  -1.3                          T                 .9  .21 Ml 2.0         4772165
CAF   004.99 127.6 m E Pn      2011/10/09 07:34:42.9  -0.3                          T                                        4772167
CAF   004.99 127.6 m E Sn      2011/10/09 07:35:35.4  -1.9                          T                1.1  .25 Ml 2.5         4772166
LOR   005.04 096.9 m E Pn      2011/10/09 07:34:43.8  -0.1                          T                                        4772160
LOR   005.04 096.9 m E Sn      2011/10/09 07:35:38.5  -0.1                          T                1.3  .29 Ml 2.5         4772161
AVF   004.83 103.3 m E Sn      2011/10/09 07:35:33.3  -0.3                          T                 .3  .22 Ml 2.0         4772162

.
EVENT     264854
    Date      Time       Latitude Longitude    Depth    Ndef Nsta Gap    Mag1  N    Mag2  N    Mag3  N   Author         ID
       rms   OT_Error      Smajor Sminor Az        Err   mdist  Mdist     Err        Err        Err      Quality

2011/10/09 08:23:02.1     46.7225    1.0908      2.0      34   14 096  Ml 2.2 14  Md 2.4  3              js067245    264874

      0.78   +-  0.08       1.7    1.4   11.26 +-  0.0    0.86   3.13   +-0.3      +-0.1                 m i ke

FRANCE
Sta     Dist  EvAz     Phase      Date       Time     TRes  Azim  AzRes  Slow  SRes Def   SNR       Amp   Per   Mag1   Mag2       ID
MFF   000.86 262.4 m E Pg      2011/10/09 08:23:18.0  -0.3                          T                                        4768475
MFF   000.86 262.4 m E Sg      2011/10/09 08:23:30.1   0.5                          T                5.9  .15 Ml 2.5 Md 2.2  4768476
TCF   000.89 118.9 m E Pg      2011/10/09 08:23:19.2   0.3                          T                                        4768465
TCF   000.89 118.9 m E Sg      2011/10/09 08:23:30.3  -0.1                          T                3.2  .18 Ml 2.1         4768464
BGF   001.22 097.1 m E Pg      2011/10/09 08:23:25.6   0.6                          T                                        4768471
BGF   001.22 097.1 m E Sg      2011/10/09 08:23:41.3   0.5                          T               13.2  .34 Ml 2.5 Md 2.4  4768470
AVF   001.56 086.7 m E Pn      2011/10/09 08:23:28.4  -0.7                          T                                        4769769
AVF   001.56 086.7 m E Pg      2011/10/09 08:23:31.0  -0.1                          T                                        4768467
AVF   001.56 086.7 m E Sg      2011/10/09 08:23:51.0  -0.2                          T                1.8  .26 Ml 1.9         4768466
RJF   001.45 168.0 m E Pg      2011/10/09 08:23:29.1  -0.1                          T                                        4768805
RJF   001.45 168.0 m E Sn      2011/10/09 08:23:46.1  -0.1                          T                                        4769766
RJF   001.45 168.0 m E Sg      2011/10/09 08:23:47.9   0.0                          T                9.6  .20 Ml 2.4         4768474
SSF   001.69 077.6 m E Pn      2011/10/09 08:23:31.6   0.7                          T                                        4769768
SSF   001.69 077.6 m E Pg      2011/10/09 08:23:33.5  -0.1                          T                                        4768462
SSF   001.69 077.6 m E Sg      2011/10/09 08:23:54.7  -0.7                          T                2.0  .27 Ml 2.1         4769767
CAF   001.92 158.9 m E Pn      2011/10/09 08:23:34.0  -0.2                          T                                        4769773
CAF   001.92 158.9 m E Pg      2011/10/09 08:23:37.8  -0.1                          T                                        4768463
CAF   001.92 158.9 m E Sn      2011/10/09 08:23:57.7   0.2                          T                                        4769774
CAF   001.92 158.9 m E Sg      2011/10/09 08:24:02.8   0.1                          T                                        4768804
LFF   001.80 188.0 m E Pg      2011/10/09 08:23:35.4  -0.2                          T                                        4768803
LFF   001.80 188.0 m E Sg      2011/10/09 08:23:59.7   0.8                          T               17.9  .46 Ml 2.6         4768461
SMF   001.90 091.3 m E Pg      2011/10/09 08:23:37.2  -0.2                          T                                        4769770
SMF   001.90 091.3 m E Sg      2011/10/09 08:24:01.4  -0.4                          T                1.9  .30 Ml 2.0         4768798
LOR   001.97 072.9 m E Pg      2011/10/09 08:23:38.3  -0.6 253.1  -1.9              T                                        4768460
LOR   001.97 072.9 m E Sg      2011/10/09 08:24:03.8  -0.5 241.0  -13.9             T                1.8  .28 Ml 2.0         4768459
LDF   002.04 336.8 m E Pg      2011/10/09 08:23:40.4   0.3                          T                                        4768801
LDF   002.04 336.8 m E Sg      2011/10/09 08:24:06.7   0.2                          T                1.0  .25 Ml 1.8         4769775
FLN   002.30 333.1 m E Pg      2011/10/09 08:23:44.6  -0.2 150.9  -1.0              T                                        4769772
GRR   002.13 322.3 m E Sg      2011/10/09 08:24:10.5   1.5                          T                                        4768802
QUIF  003.13 294.0 m E Sg      2011/10/09 08:24:40.4   0.0                          T                2.0  .24 Ml 2.4         4769771

.
EVENT     264887
    Date      Time       Latitude Longitude    Depth    Ndef Nsta Gap    Mag1  N    Mag2  N    Mag3  N   Author         ID
       rms   OT_Error      Smajor Sminor Az        Err   mdist  Mdist     Err        Err        Err      Quality

2011/10/09 08:52:44.3     42.5680     .4776      2.0      25    4 062  Ml 1.7  2  Md 1.9  2              js067245    264907

      0.58   +-  0.09       2.5    1.3   26.31 +-  0.0    0.23   1.79   +-0.1      +-0.1                 m i ke

PYRENEES
Sta     Dist  EvAz     Phase      Date       Time     TRes  Azim  AzRes  Slow  SRes Def   SNR       Amp   Per   Mag1   Mag2       ID
EPF   000.47 347.7 m E Pg      2011/10/09 08:52:53.2  -0.3                          T                                        4768542
EPF   000.47 347.7 m E Sg      2011/10/09 08:52:59.7   0.0                          T                1.6  .22        Md 2.0  4768539
ETSF  000.83 293.7 m E Pg      2011/10/09 08:52:59.7  -0.4                          T                                        4768543
ETSF  000.83 293.7 m E Sg      2011/10/09 08:53:10.7  -0.2                          T                1.2  .19        Md 1.8  4768541
MTLF  001.49 058.2 m E Pg      2011/10/09 08:53:12.5   0.4                          T                                        4768538
MTLF  001.49 058.2 m E Sg      2011/10/09 08:53:32.0   0.5                          T                 .9  .25 Ml 1.6         4768540
SJPF  001.37 294.1 m E Sg      2011/10/09 08:53:26.9  -0.6                          T                2.0  .29 Ml 1.8         4768806

.
EVENT     264855
    Date      Time       Latitude Longitude    Depth    Ndef Nsta Gap    Mag1  N    Mag2  N    Mag3  N   Author         ID
       rms   OT_Error      Smajor Sminor Az        Err   mdist  Mdist     Err        Err        Err      Quality

2011/10/09 12:23:18.4     44.7162   10.0936     10.0 f    90   24 049  Ml 3.3 14  Md 3.0  4              js067245    264875

      0.83   +-  0.11       3.2    2.3    4.37 +-  0.0    0.16   5.76   +-0.2      +-0.1                 m i ke

NORTHERN ITALY
Sta     Dist  EvAz     Phase      Date       Time     TRes  Azim  AzRes  Slow  SRes Def   SNR       Amp   Per   Mag1   Mag2       ID
SBF   002.09 246.9 m E Pn      2011/10/09 12:23:51.4  -0.4                          T   001.0                                4767353
SBF   002.09 246.9 m E Sn      2011/10/09 12:24:17.5   1.1                          T   001.0       57.7  .30 Ml 3.5 Md 2.9  4767354
PGF   002.31 200.5 m E Pn      2011/10/09 12:23:53.8  -1.1                          T   001.0                                4767352
MBDF  002.37 271.4 m E Pn      2011/10/09 12:23:55.2  -0.6                          T   001.0                                4767364
MBDF  002.37 271.4 m E Sg      2011/10/09 12:24:31.6  -1.5                          T                                        4768808
LPG   002.49 289.4 m E Pn      2011/10/09 12:23:56.4  -1.2                          T   001.0                                4767350
LPL   002.51 289.8 m E Pn      2011/10/09 12:23:57.0  -0.8                          T   001.0                                4767351
LPL   002.51 289.8 m E Sn      2011/10/09 12:24:28.0   1.5                          T               60.6  .46 Ml 3.4 Md 3.0  4768604
FRF   002.74 246.2 m E Pn      2011/10/09 12:23:59.9  -0.7                          T   001.0                                4767344
FRF   002.74 246.2 m E Sn      2011/10/09 12:24:32.5   0.8                          T   001.0       21.7  .32 Ml 3.2 Md 3.2  4767345
LMR   002.93 243.1 m E Pn      2011/10/09 12:24:02.3  -0.9                          T   001.0                                4767347
LMR   002.93 243.1 m E Sn      2011/10/09 12:24:36.6   0.3                          T   001.0       16.2  .28 Ml 3.2 Md 3.0  4767348
ORIF  003.01 275.3 m E Pn      2011/10/09 12:24:05.3   1.0                          T   001.0                                4767366
ORIF  003.01 275.3 m E Sn      2011/10/09 12:24:39.5   1.3                          T               36.6  .52 Ml 3.3         4768809
SMRF  003.32 258.7 m E Pn      2011/10/09 12:24:09.8   1.2                          T   001.0                                4767369
CABF  003.39 305.4 m E Pn      2011/10/09 12:24:10.1   0.6                          T   001.0                                4767360
CABF  003.39 305.4 m E Sn      2011/10/09 12:24:49.0   1.6                          T   001.0       14.7  .36 Ml 3.1         4767361
HINF  003.83 325.2 m E Pn      2011/10/09 12:24:14.8  -0.7                          T   001.0                                4767362
HINF  003.83 325.2 m E Sn      2011/10/09 12:24:59.1   1.2                          T   001.0       16.2  .42 Ml 3.2         4767363
VIVF  003.86 274.0 m E Pn      2011/10/09 12:24:16.3   0.4                          T   001.0                                4767367
CDF   004.18 333.3 m E Pn      2011/10/09 12:24:19.5  -0.8                          T   001.0                                4767342
CDF   004.18 333.3 m E Sn      2011/10/09 12:25:06.3   0.1                          T   001.0        7.3  .34 Ml 3.1         4767343
HAU   004.19 323.1 m E Pn      2011/10/09 12:24:20.0  -0.4                          T   001.0                                4767346
HAU   004.19 323.1 m E Sn      2011/10/09 12:25:07.6   1.2                          T               19.3  .40 Ml 3.2         4768608
SMF   004.79 296.0 m E Pn      2011/10/09 12:24:28.3  -0.2                          T   001.0                                4767355
SMF   004.79 296.0 m E Sn      2011/10/09 12:25:20.8   0.0                          T               12.7  .38 Ml 3.3         4768607
PAGF  004.88 323.5 m E Pn      2011/10/09 12:24:29.9   0.2                          T                                        4768610
SFTF  004.94 316.8 m E Pn      2011/10/09 12:24:30.7   0.1                          T                                        4768609
LOR   005.04 302.6 m E Pn      2011/10/09 12:24:31.0   0.1                          T   001.0                                4767349
LOR   005.04 302.6 m E Sn      2011/10/09 12:25:28.3   1.6                          T               27.3  .39 Ml 3.7         4768611
AVF   005.15 296.1 m E Pn      2011/10/09 12:24:33.1  -0.3                          T   001.0                                4767339
SSF   005.16 299.3 m E Pn      2011/10/09 12:24:33.5  -0.1                          T   001.0                                4767356
SSF   005.16 299.3 m E Sn      2011/10/09 12:25:28.7  -1.0                          T   001.0       26.8  .45 Ml 3.8         4767357
MEZF  005.14 319.3 m E Pn      2011/10/09 12:24:34.2   1.0                          T   001.0                                4767365
BGF   005.41 292.5 m E Pn      2011/10/09 12:24:36.9   0.0                          T   001.0                                4767340
BGF   005.41 292.5 m E Sn      2011/10/09 12:25:36.5   1.0                          T               14.1  .38 Ml 3.5         4768606
TCF   005.76 288.6 m E Pn      2011/10/09 12:24:41.6  -0.2                          T   001.0                                4767358
TCF   005.76 288.6 m E Sn      2011/10/09 12:25:43.1  -0.9                          T   001.0        2.5  .31 Ml 3.0         4767359
CAF   005.72 274.9 m E Pn      2011/10/09 12:24:42.0   0.9                          T                                        4768807

.
EVENT     264888
    Date      Time       Latitude Longitude    Depth    Ndef Nsta Gap    Mag1  N    Mag2  N    Mag3  N   Author         ID
       rms   OT_Error      Smajor Sminor Az        Err   mdist  Mdist     Err        Err        Err      Quality

2011/10/09 14:25:44.1     42.9378     .1627      2.0       6    4 191  Ml 1.1  2  Md 1.2  2              js067245    264908

      0.12   +-  0.13       6.8    1.0  165.39 +-  0.0    0.16   1.56   +-0.2      +-0.2                 m i ke

PYRENEES
Sta     Dist  EvAz     Phase      Date       Time     TRes  Azim  AzRes  Slow  SRes Def   SNR       Amp   Per   Mag1   Mag2       ID
EPF   000.16 054.5 m E Pg      2011/10/09 14:25:47.4   0.0                          T                                        4768817
EPF   000.16 054.5 m E Sg      2011/10/09 14:25:49.8   0.1                          T                4.7  .24        Md 1.3  4768816
ETSF  000.53 266.0 m E Pg      2011/10/09 14:25:54.4   0.1                          T                                        4768814
ETSF  000.53 266.0 m E Sg      2011/10/09 14:26:01.0  -0.3                          T                 .5  .24        Md 1.0  4768815
SJPF  001.03 280.3 m E Sg      2011/10/09 14:26:16.9   0.0                          T                 .3  .21 Ml  .9         4772193
MTLF  001.56 074.3 m E Sg      2011/10/09 14:26:33.1  -0.1                          T                 .4  .26 Ml 1.2         4772192

.
EVENT     264856
    Date      Time       Latitude Longitude    Depth    Ndef Nsta Gap    Mag1  N    Mag2  N    Mag3  N   Author         ID
       rms   OT_Error      Smajor Sminor Az        Err   mdist  Mdist     Err        Err        Err      Quality

2011/10/09 14:58:34.4     44.7624    6.5904      2.0       8    4 182             Md 1.4  2              js067245    264876

      0.45   +-  0.19       4.4    2.8   17.46 +-  0.0    0.13   0.76              +-0.3                 m i ke

FRANCE
Sta     Dist  EvAz     Phase      Date       Time     TRes  Azim  AzRes  Slow  SRes Def   SNR       Amp   Per   Mag1   Mag2       ID
MBDF  000.13 105.3 m E Pg      2011/10/09 14:58:37.1  -0.3                          T                                        4768666
MBDF  000.13 105.3 m E Sg      2011/10/09 14:58:39.7   0.4                          T               15.8  .24        Md 1.6  4768665
ORIF  000.53 287.4 m E Pg      2011/10/09 14:58:44.9   0.3                          T                                        4768664
ORIF  000.53 287.4 m E Sg      2011/10/09 14:58:51.1  -0.4                          T                2.3  .22        Md 1.2  4768663
LPL   000.76 007.5 m E Pg      2011/10/09 14:58:48.7  -0.2                          T                                        4769777
LPL   000.76 007.5 m E Sg      2011/10/09 14:58:59.9   1.0                          T                 .5  .19                4769776
LPG   000.74 008.8 m E Sg      2011/10/09 14:58:57.9  -0.5                          T                 .5  .22                4768662

.
