EVENT     261974
    Date      Time       Latitude Longitude    Depth    Ndef Nsta Gap    Mag1  N    Mag2  N    Mag3  N   Author         ID
       rms   OT_Error      Smajor Sminor Az        Err   mdist  Mdist     Err        Err        Err      Quality

2011/07/30 01:51:00.8     45.8931    9.5898      2.0      26   18 271  Ml 2.0  6  Md 1.9  3              js067245    261974

      0.69   +-  0.39       8.6    3.4  113.02 +-  0.0    2.03   7.42   +-0.2      +-0.2                 m i ke

NORTHERN ITALY
Sta     Dist  EvAz     Phase      Date       Time     TRes  Azim  AzRes  Slow  SRes Def   SNR       Amp   Per   Mag1   Mag2       ID
LPG   002.03 259.8 m E Pn      2011/07/30 01:51:34.3  -0.3                          T                                        4730184
LPG   002.03 259.8 m E Sn      2011/07/30 01:51:59.8   0.7                          T                1.5  .32 Ml 1.9 Md 2.0  4730172
LPL   002.04 260.4 m E Pn      2011/07/30 01:51:35.1   0.5                          T                                        4730177
LPL   002.04 260.4 m E Sn      2011/07/30 01:51:58.6  -0.6                          T                1.8  .29 Ml 2.0 Md 2.0  4730171
MBDF  002.31 240.6 m E Pn      2011/07/30 01:51:38.6   0.4                          T                                        4730179
MBDF  002.31 240.6 m E Sn      2011/07/30 01:52:05.2  -0.3                          T                 .7  .25 Ml 1.7 Md 1.7  4730173
CABF  002.53 287.7 m E Pn      2011/07/30 01:51:41.3   0.1                          T                                        4730187
HINF  002.69 316.7 m E Pn      2011/07/30 01:51:43.0  -0.3                          T                                        4730188
ORIF  002.79 250.9 m E Pn      2011/07/30 01:51:45.2   0.5                          T                                        4730178
ORIF  002.79 250.9 m E Sn      2011/07/30 01:52:16.4  -0.6                          T                2.8  .41 Ml 2.2         4730170
CDF   002.97 328.8 m E Pn      2011/07/30 01:51:46.9  -0.4                          T                                        4730192
HAU   003.07 314.8 m E Pn      2011/07/30 01:51:48.4   0.0                          T                                        4730189
VIVF  003.62 255.1 m E Pn      2011/07/30 01:51:55.8  -0.1                          T                                        4730180
VIVF  003.62 255.1 m E Sn      2011/07/30 01:52:36.4  -0.2                          T                 .8  .34 Ml 1.9         4730174
PAGF  003.74 316.7 m E Pn      2011/07/30 01:51:57.8   0.1                          T                                        4730191
SFTF  003.88 308.3 m E Pn      2011/07/30 01:51:59.7   0.3 128.3  3.3               T                                        4730190
SMF   004.06 282.7 m E Pn      2011/07/30 01:52:01.7  -0.2                          T                                        4730176
SMF   004.06 282.7 m E Sn      2011/07/30 01:52:47.4   0.3                          T                 .4  .18 Ml 2.0         4730175
LOR   004.18 291.2 m E Pn      2011/07/30 01:52:03.7   0.1 107.7  0.6               T                                        4730193
AVF   004.41 284.0 m E Pn      2011/07/30 01:52:06.5  -0.2                          T                                        4730186
BGF   004.73 280.5 m E Pn      2011/07/30 01:52:10.7  -0.3                          T                                        4730182
HYF   004.99 288.5 m E Pn      2011/07/30 01:52:14.9   0.4                          T                                        4730185
TCF   005.15 277.0 m E Pn      2011/07/30 01:52:16.7  -0.1                          T                                        4730183
FLN   007.42 296.4 m E Pn      2011/07/30 01:52:47.8   0.2                          T                                        4730181

.
EVENT     261971
    Date      Time       Latitude Longitude    Depth    Ndef Nsta Gap    Mag1  N    Mag2  N    Mag3  N   Author         ID
       rms   OT_Error      Smajor Sminor Az        Err   mdist  Mdist     Err        Err        Err      Quality

2011/07/30 06:48:36.6     42.8248    -.3099      2.0       6    3 225             Md 1.6  2              js067245    261971

      0.13   +-  0.26      10.9    1.2     .11 +-  0.0    0.20   0.73              +-0.1                 m i ke

PYRENEES
Sta     Dist  EvAz     Phase      Date       Time     TRes  Azim  AzRes  Slow  SRes Def   SNR       Amp   Per   Mag1   Mag2       ID
ETSF  000.20 292.0 m E Pg      2011/07/30 06:48:40.7   0.1                          T                                        4730311
ETSF  000.20 292.0 m E Sg      2011/07/30 06:48:43.1  -0.3                          T                3.7  .21        Md 1.5  4730314
EPF   000.52 066.5 m E Pg      2011/07/30 06:48:46.5   0.0                          T                                        4730313
EPF   000.52 066.5 m E Sg      2011/07/30 06:48:53.4   0.0                          T                1.1  .23        Md 1.6  4730312
SJPF  000.73 293.5 m E Pg      2011/07/30 06:48:50.3  -0.1                          T                                        4730934
SJPF  000.73 293.5 m E Sg      2011/07/30 06:49:00.1   0.2                          T                 .8  .21                4730935

.
EVENT     261981
    Date      Time       Latitude Longitude    Depth    Ndef Nsta Gap    Mag1  N    Mag2  N    Mag3  N   Author         ID
       rms   OT_Error      Smajor Sminor Az        Err   mdist  Mdist     Err        Err        Err      Quality

2011/07/30 06:54:28.7     46.3923    6.5294      2.0      12    8 188  Ml 1.9  8  Md 1.9  1              js067245    261981

      0.47   +-  0.29       4.6    3.0  120.15 +-  0.0    0.38   2.18   +-0.2      +-                    m i ke

SWITZERLAND
Sta     Dist  EvAz     Phase      Date       Time     TRes  Azim  AzRes  Slow  SRes Def   SNR       Amp   Per   Mag1   Mag2       ID
CABF  000.38 305.8 m E Pg      2011/07/30 06:54:36.3   0.2                          T                                        4730321
CABF  000.38 305.8 m E Sg      2011/07/30 06:54:41.5   0.4                          T                6.8  .38        Md 1.9  4730529
HINF  001.44 008.7 m E Pg      2011/07/30 06:54:55.1  -0.6                          T                                        4730319
HINF  001.44 008.7 m E Sg      2011/07/30 06:55:14.9   0.6                          T                1.9  .23 Ml 1.9         4730320
SMF   001.87 278.7 m E Pg      2011/07/30 06:55:03.4  -0.1                          T                                        4730530
SMF   001.87 278.7 m E Sg      2011/07/30 06:55:27.2  -0.5                          T                1.6  .19 Ml 2.1         4730315
ORIF  001.54 197.4 m E Sg      2011/07/30 06:55:18.3   0.8                          T                1.6  .24 Ml 1.9         4730936
HAU   001.62 355.7 m E Sg      2011/07/30 06:55:20.7   0.9                          T                4.1  .24 Ml 2.1         4730318
VIVF  002.01 221.0 m E Sg      2011/07/30 06:55:32.0  -0.2                          T                 .7  .24 Ml 1.7         4730937
LOR   002.03 296.5 m E Sg      2011/07/30 06:55:32.9   0.2                          T                 .9  .21 Ml 1.8         4730317
SSF   002.18 288.9 m E Sg      2011/07/30 06:55:36.8  -0.6                          T                1.5  .35 Ml 2.0         4730316

.
EVENT     261972
    Date      Time       Latitude Longitude    Depth    Ndef Nsta Gap    Mag1  N    Mag2  N    Mag3  N   Author         ID
       rms   OT_Error      Smajor Sminor Az        Err   mdist  Mdist     Err        Err        Err      Quality

2011/07/30 10:03:52.3     42.1702   -2.7188      2.0      19    4 118  Ml 2.2  3                         js067245    261972

      0.35   +-  0.10       2.3    1.5  126.63 +-  0.0    1.04   4.44   +-0.1                            m i ke

SPAIN
Sta     Dist  EvAz     Phase      Date       Time     TRes  Azim  AzRes  Slow  SRes Def   SNR       Amp   Per   Mag1   Mag2       ID
SJPF  001.45 049.0 m E Pn      2011/07/30 10:04:18.5   0.6                          T                                        4730328
SJPF  001.45 049.0 m E Sn      2011/07/30 10:04:36.7   0.3                          T                3.0  .23 Ml 2.1         4730326
ETSF  001.75 064.8 m E Pn      2011/07/30 10:04:22.3   0.2                          T                                        4730327
ETSF  001.75 064.8 m E Sn      2011/07/30 10:04:44.4   0.7                          T                2.9  .30 Ml 2.1         4730325
EPF   002.42 068.1 m E Pn      2011/07/30 10:04:30.7  -0.3                          T                                        4730322
EPF   002.42 068.1 m E Sn      2011/07/30 10:04:59.9   0.4                          T                2.6  .26 Ml 2.3         4730324
CAF   004.44 050.0 m E Sn      2011/07/30 10:05:47.7   0.0                          T                                        4730323

.
EVENT     261982
    Date      Time       Latitude Longitude    Depth    Ndef Nsta Gap    Mag1  N    Mag2  N    Mag3  N   Author         ID
       rms   OT_Error      Smajor Sminor Az        Err   mdist  Mdist     Err        Err        Err      Quality

2011/07/30 21:04:30.5     44.5673    6.9748      2.0      16    7 151  Ml 1.3  5  Md 1.3  3              js067245    261982

      0.28   +-  0.09       2.3    1.1   74.95 +-  0.0    0.14   1.28   +-0.1      +-0.1                 m i ke

FRANCE
Sta     Dist  EvAz     Phase      Date       Time     TRes  Azim  AzRes  Slow  SRes Def   SNR       Amp   Per   Mag1   Mag2       ID
MBDF  000.22 317.8 m E Pg      2011/07/30 21:04:35.2   0.2                          T                                        4730342
MBDF  000.22 317.8 m E Sg      2011/07/30 21:04:38.4   0.3                          T               16.9  .22        Md 1.3  4730336
ORIF  000.86 294.6 m E Pg      2011/07/30 21:04:46.9   0.1                          T                                        4730340
ORIF  000.86 294.6 m E Sg      2011/07/30 21:04:57.6  -0.2                          T                1.0  .25 Ml 1.3 Md 1.2  4730335
LPG   000.94 350.4 m E Pg      2011/07/30 21:04:48.4  -0.3                          T                                        4730339
LPL   000.96 349.8 m E Pg      2011/07/30 21:04:49.0   0.1                          T                                        4730341
LPL   000.96 349.8 m E Sg      2011/07/30 21:05:01.2  -0.3                          T                 .8  .25 Ml 1.3         4730331
FRF   001.03 193.3 m E Pg      2011/07/30 21:04:50.0   0.1                          T                                        4730338
FRF   001.03 193.3 m E Sg      2011/07/30 21:05:03.4   0.1                          T                 .4  .15 Ml 1.3         4730334
LMR   001.28 195.4 m E Pg      2011/07/30 21:04:54.8   0.4                          T                                        4730337
LMR   001.28 195.4 m E Sg      2011/07/30 21:05:10.5  -0.5                          T                 .2  .12 Ml 1.3         4730333
SBF   000.78 154.7 m E Sg      2011/07/30 21:04:55.4  -0.1                          T                                        4730332

.
EVENT     261973
    Date      Time       Latitude Longitude    Depth    Ndef Nsta Gap    Mag1  N    Mag2  N    Mag3  N   Author         ID
       rms   OT_Error      Smajor Sminor Az        Err   mdist  Mdist     Err        Err        Err      Quality

2011/07/30 23:49:23.0     38.1660   -1.4224      8.0 f    80    9 073  Ml 2.6  3  Md 3.3  3              js067245    261973

      0.80   +-  0.12       3.1    1.9  140.97 +-  0.0    0.35   9.83   +-0.2      +-0.1                 m i ke

SPAIN
Sta     Dist  EvAz     Phase      Date       Time     TRes  Azim  AzRes  Slow  SRes Def   SNR       Amp   Per   Mag1   Mag2       ID
ETSF  004.77 007.6 m E Pn      2011/07/30 23:50:31.8  -1.4                          T                                        4730356
ETSF  004.77 007.6 m E Sn      2011/07/30 23:51:24.4  -1.0                          T                 .9  .27 Ml 2.3 Md 3.3  4730344
SJPF  004.94 001.7 m E Pn      2011/07/30 23:50:36.5   1.0                          T                                        4730355
SJPF  004.94 001.7 m E Sn      2011/07/30 23:51:28.4  -1.1                          T                2.8  .34 Ml 2.8 Md 3.4  4730347
EPF   005.04 014.9 m E Pn      2011/07/30 23:50:38.2   1.4                          T                                        4730354
EPF   005.04 014.9 m E Sn      2011/07/30 23:51:31.0  -0.8                          T                1.6  .31 Ml 2.6 Md 3.3  4730343
MTLF  005.86 027.0 m E Pn      2011/07/30 23:50:47.8  -0.2                          T                                        4730352
LFF   006.96 012.8 m E Pn      2011/07/30 23:51:02.5  -0.4                          T                                        4730351
CAF   007.24 020.0 m E Pn      2011/07/30 23:51:06.5  -0.3                          T                                        4730353
RJF   007.46 016.2 m E Pn      2011/07/30 23:51:08.8  -0.9                          T                                        4730350
MFF   008.48 006.0 m E Pn      2011/07/30 23:51:22.8  -0.8                          T                                        4730349
QUIF  009.83 353.1 m E Pn      2011/07/30 23:51:41.8  -0.1                          T                                        4730348

.
EVENT     261983
    Date      Time       Latitude Longitude    Depth    Ndef Nsta Gap    Mag1  N    Mag2  N    Mag3  N   Author         ID
       rms   OT_Error      Smajor Sminor Az        Err   mdist  Mdist     Err        Err        Err      Quality

2011/07/31 05:39:26.5     45.3668    6.5310      2.0      12    5 153  Ml 1.6  1  Md 1.7  3              js067245    261983

      0.29   +-  0.09       3.1    1.3  137.08 +-  0.0    0.20   1.41   +-         +-0.1                 m i ke

FRANCE
Sta     Dist  EvAz     Phase      Date       Time     TRes  Azim  AzRes  Slow  SRes Def   SNR       Amp   Per   Mag1   Mag2       ID
LPL   000.21 043.4 m E Pg      2011/07/31 05:39:30.7  -0.2                          T                                        4730368
LPL   000.21 043.4 m E Sg      2011/07/31 05:39:34.2   0.5                          T                3.2  .21        Md 1.8  4730364
LPG   000.20 049.8 m E Pg      2011/07/31 05:39:30.8  -0.1                          T                                        4730367
LPG   000.20 049.8 m E Sg      2011/07/31 05:39:34.0   0.3                          T                4.5  .18        Md 1.8  4730363
MBDF  000.66 165.0 m E Pg      2011/07/31 05:39:38.8  -0.4                          T                                        4730360
MBDF  000.66 165.0 m E Sg      2011/07/31 05:39:48.6   0.7                          T                 .9  .24                4730362
ORIF  000.64 226.0 m E Pg      2011/07/31 05:39:38.8   0.0                          T                                        4730366
ORIF  000.64 226.0 m E Sg      2011/07/31 05:39:47.4   0.2                          T                2.1  .22        Md 1.5  4730365
VIVF  001.41 249.4 m E Pg      2011/07/31 05:39:52.9   0.0                          T                                        4730359
VIVF  001.41 249.4 m E Sg      2011/07/31 05:40:11.5   0.4                          T                 .9  .26 Ml 1.6         4730361

.
