EVENT     277685
    Date      Time       Latitude Longitude    Depth    Ndef Nsta Gap    Mag1  N    Mag2  N    Mag3  N   Author         ID
       rms   OT_Error      Smajor Sminor Az        Err   mdist  Mdist     Err        Err        Err      Quality

2012/06/07 11:49:04.6     46.0570    3.1217       .0 f    20    8 079  Ml 2.1  4  Md 2.0  1              bulletin    277794
                                                                                                         _ldg
      0.29   +-  0.08       1.9    1.3  127.72 +-  0.0    0.54   2.79   +-0.1      +-                    m i km

FRANCE
Sta     Dist  EvAz     Phase      Date       Time     TRes  Azim  AzRes  Slow  SRes Def   SNR       Amp   Per   Mag1   Mag2       ID
BGF   000.54 339.2 m E Pg      2012/06/07 11:49:15.0   0.0                          T                                        4991037
BGF   000.54 339.2 m E Sg      2012/06/07 11:49:22.6   0.3                          T              204.7 1.42                4991041
TCF   000.67 290.4 m E Pg      2012/06/07 11:49:17.8   0.2                          T                                        5017061
TCF   000.67 290.4 m E Sn      2012/06/07 11:49:31.0   0.2                          T              181.6 1.44                4991049
AVF   000.75 012.2 m E Pg      2012/06/07 11:49:18.9  -0.1                          T                                        5017062
AVF   000.75 012.2 m E Pn      2012/06/07 11:49:20.8  -0.2                          T                                        4991040
AVF   000.75 012.2 m E Sg      2012/06/07 11:49:29.8   0.9                          T                8.8  .22                4991035
SMF   000.77 040.0 m E Pg      2012/06/07 11:49:19.2  -0.2                          T                                        4991038
SMF   000.77 040.0 m E Sg      2012/06/07 11:49:29.7   0.0                          T                4.2  .27                4991034
SSF   001.04 014.6 m E Pg      2012/06/07 11:49:24.2  -0.1                          T                                        4991039
SSF   001.04 014.6 m E Sn      2012/06/07 11:49:39.3  -0.2                          T                8.7  .38 Ml 2.3         4991036
RJF   001.35 236.8 m E Pn      2012/06/07 11:49:29.0  -0.2                          T                                        4991047
RJF   001.35 236.8 m E Sn      2012/06/07 11:49:47.2   0.2                          T                7.8  .37 Ml 2.0         4991043
LOR   001.31 022.5 m E Pn      2012/06/07 11:49:29.2   0.5 204.8  1.8               T                                        4991033
LOR   001.31 022.5 m E Sn      2012/06/07 11:49:46.0  -0.1                          T                4.5  .35 Ml 2.1         4991032
CAF   001.35 213.7 m E Pn      2012/06/07 11:49:29.8   0.6                          T                                        4991048
CAF   001.35 213.7 m E Sn      2012/06/07 11:49:47.0  -0.1                          T               15.6  .92 Ml 2.2         4991042

.
EVENT     277690
    Date      Time       Latitude Longitude    Depth    Ndef Nsta Gap    Mag1  N    Mag2  N    Mag3  N   Author         ID
       rms   OT_Error      Smajor Sminor Az        Err   mdist  Mdist     Err        Err        Err      Quality

2012/06/07 13:45:16.6     47.1071    4.9099       .0 f    13    6 117  Ml 2.1  4  Md 2.0  1              bulletin    277799
                                                                                                         _ldg
      0.49   +-  0.10       2.8    1.8    7.86 +-  0.0    0.73   1.11   +-0.2      +-                    m i km

FRANCE
Sta     Dist  EvAz     Phase      Date       Time     TRes  Azim  AzRes  Slow  SRes Def   SNR       Amp   Per   Mag1   Mag2       ID
LOR   000.73 283.1 m E Pg      2012/06/07 13:45:31.0   0.3                          T                                        5017063
LOR   000.73 283.1 m E Pn      2012/06/07 13:45:32.8   0.1                          T                                        5017064
LOR   000.73 283.1 m E Sg      2012/06/07 13:45:39.9  -0.6 107.5  5.2               T                                        4991095
LOR   000.73 283.1 m E Sn      2012/06/07 13:45:44.6   0.4                          T               19.9  .26        Md 2.0  4991094
SSF   000.96 267.8 m E Pg      2012/06/07 13:45:34.7  -0.2                          T                                        4991093
SSF   000.96 267.8 m E Sg      2012/06/07 13:45:46.7  -0.8                          T                7.9  .24 Ml 2.4         4991092
CABF  000.95 121.1 m E Pg      2012/06/07 13:45:34.7  -0.1                          T                                        4991085
CABF  000.95 121.1 m E Sg      2012/06/07 13:45:47.0  -0.2                          T                2.8  .25 Ml 1.8         4991084
SMF   000.87 238.2 m E Pn      2012/06/07 13:45:34.8   0.2                          T                                        4991089
SMF   000.87 238.2 m E Sg      2012/06/07 13:45:44.8   0.2                          T                6.0  .22 Ml 2.2         4991088
AVF   001.11 254.0 m E Pg      2012/06/07 13:45:35.9  -1.8                          T                                        4991091
AVF   001.11 254.0 m E Sg      2012/06/07 13:45:52.2   0.0                          T                2.9  .20 Ml 2.0         4991090
SFTF  001.10 004.5 m E Pg      2012/06/07 13:45:37.4  -0.1                          T                                        4991096

.
EVENT     277715
    Date      Time       Latitude Longitude    Depth    Ndef Nsta Gap    Mag1  N    Mag2  N    Mag3  N   Author         ID
       rms   OT_Error      Smajor Sminor Az        Err   mdist  Mdist     Err        Err        Err      Quality

2012/06/07 16:43:01.6     47.0660    -.0062      2.0     106   32 100  Ml 3.2 31  Md 2.9  3              bulletin    277824
                                                                                                         _ldg
      0.67   +-  0.06       1.4    1.1   41.30 +-  0.0    0.47   5.09   +-0.3      +-0.1                 m i ke

FRANCE
Sta     Dist  EvAz     Phase      Date       Time     TRes  Azim  AzRes  Slow  SRes Def   SNR       Amp   Per   Mag1   Mag2       ID
MFF   000.47 191.7 m E Pg      2012/06/07 16:43:10.6  -0.1                          T                                Md 2.9  4991148
MFF   000.47 191.7 m E Sg      2012/06/07 16:43:16.5  -0.4                          T              137.8  .22                4991131
GRR   001.44 336.8 m E Pn      2012/06/07 16:43:27.1   0.0                          T                                        4991139
GRR   001.44 336.8 m E Pg      2012/06/07 16:43:28.5   0.0                          T                                        4991230
GRR   001.44 336.8 m E Sn      2012/06/07 16:43:45.7   0.2                          T                                        4991119
GRR   001.44 336.8 m E Sg      2012/06/07 16:43:47.7   0.6                          T              101.2  .32 Ml 3.4 Md 3.0  4991225
LDF   001.53 357.1 m E Pn      2012/06/07 16:43:28.3   0.0                          T                                        4991137
LDF   001.53 357.1 m E Pg      2012/06/07 16:43:30.2   0.1                          T                                        4991229
LDF   001.53 357.1 m E Sn      2012/06/07 16:43:47.5   0.0                          T                                        4991118
LDF   001.53 357.1 m E Sg      2012/06/07 16:43:49.6  -0.2                          T               67.8  .20 Ml 3.6         4991226
FLN   001.73 349.5 m E Pn      2012/06/07 16:43:30.7  -0.2                          T                                        4991136
FLN   001.73 349.5 m E Pg      2012/06/07 16:43:34.1   0.4 170.3  1.2               T                                        4991228
FLN   001.73 349.5 m E Sn      2012/06/07 16:43:52.1  -0.2                          T                                        4991117
FLN   001.73 349.5 m E Sg      2012/06/07 16:43:55.9  -0.1                          T               88.3  .22 Ml 3.6         4991227
TCF   001.71 116.2 m E Pn      2012/06/07 16:43:32.0   1.3                          T                                        4991147
TCF   001.71 116.2 m E Sn      2012/06/07 16:43:53.1   1.2                          T               35.9  .18 Ml 3.5 Md 2.9  4991114
HYF   001.82 082.6 m E Pn      2012/06/07 16:43:32.6   0.5                          T                                        4991144
HYF   001.82 082.6 m E Pg      2012/06/07 16:43:34.9  -0.5                          T                                        4991193
HYF   001.82 082.6 m E Sn      2012/06/07 16:43:55.0   0.7                          T                                        4991124
HYF   001.82 082.6 m E Sg      2012/06/07 16:43:58.6  -0.2                          T                                        4991192
BGF   002.02 103.5 m E Pn      2012/06/07 16:43:35.1   0.1                          T                                        4991143
BGF   002.02 103.5 m E Pg      2012/06/07 16:43:38.6  -0.6                          T                                        4991217
BGF   002.02 103.5 m E Sn      2012/06/07 16:43:59.3  -0.1                          T                                        4991190
BGF   002.02 103.5 m E Sg      2012/06/07 16:44:03.5  -1.8                          T              152.3  .34 Ml 3.9         4991191
SGMF  002.09 305.5 m E Pn      2012/06/07 16:43:35.9   0.0                          T                                        4991140
SGMF  002.09 305.5 m E Pg      2012/06/07 16:43:40.1  -0.4                          T                                        4991222
SGMF  002.09 305.5 m E Sn      2012/06/07 16:44:01.5   0.5                          T                                        4991113
SGMF  002.09 305.5 m E Sg      2012/06/07 16:44:07.1  -0.4                          T               23.1  .26 Ml 3.2         4991221
RJF   002.06 148.5 m E Pn      2012/06/07 16:43:36.6   1.2                          T                                        4991133
RJF   002.06 148.5 m E Pg      2012/06/07 16:43:39.1  -0.7                          T                                        4991216
RJF   002.06 148.5 m E Sn      2012/06/07 16:44:00.7   0.6                          T                                        4991126
RJF   002.06 148.5 m E Sg      2012/06/07 16:44:04.8  -1.5                          T               80.3  .38 Ml 3.2         4991189
LFF   002.19 166.0 m E Pn      2012/06/07 16:43:37.9   0.7                          T                                        4991134
LFF   002.19 166.0 m E Pg      2012/06/07 16:43:43.1   0.9                          T                                        4991188
LFF   002.19 166.0 m E Sg      2012/06/07 16:44:09.9  -0.5                          T               71.6  .38 Ml 3.4         4991215
AVF   002.32 095.6 m E Pn      2012/06/07 16:43:38.5  -0.5                          T                                        4991146
AVF   002.32 095.6 m E Sn      2012/06/07 16:44:05.1  -1.3                          T               28.1  .24 Ml 3.3         4991122
QUIF  002.31 292.8 m E Pn      2012/06/07 16:43:39.0   0.2                          T                                        4991141
QUIF  002.31 292.8 m E Sn      2012/06/07 16:44:05.2  -0.8                          T                                        4991120
QUIF  002.31 292.8 m E Sg      2012/06/07 16:44:12.6  -1.4                          T               17.5  .19 Ml 3.2         4991220
SSF   002.40 088.8 m E Pn      2012/06/07 16:43:39.8  -0.3                          T                                        4991142
SSF   002.40 088.8 m E Pg      2012/06/07 16:43:45.4  -0.7                          T                                        4991219
SSF   002.40 088.8 m E Sn      2012/06/07 16:44:08.6   0.2                          T               47.1  .34 Ml 3.5         4991121
ROSF  002.55 301.1 m E Pn      2012/06/07 16:43:42.3   0.3                          T                                        4991138
ROSF  002.55 301.1 m E Pg      2012/06/07 16:43:49.3   0.4                          T                                        4991224
ROSF  002.55 301.1 m E Sn      2012/06/07 16:44:11.3  -0.5                          T                                        4991112
ROSF  002.55 301.1 m E Sg      2012/06/07 16:44:21.1  -0.4                          T               24.0  .23 Ml 3.4         4991223
LOR   002.64 084.2 m E Pn      2012/06/07 16:43:42.9  -0.5                          T                                        4991135
LOR   002.64 084.2 m E Pg      2012/06/07 16:43:50.3  -0.4 263.5  -3.5              T                                        4991245
LOR   002.64 084.2 m E Sn      2012/06/07 16:44:14.3   0.1                          T                                        4991149
LOR   002.64 084.2 m E Sg      2012/06/07 16:44:21.3  -3.3                          T               22.9  .24 Ml 3.3         4991244
CAF   002.58 145.3 m E Pn      2012/06/07 16:43:42.9   0.3                          T                                        4991132
CAF   002.58 145.3 m E Pg      2012/06/07 16:43:49.8   0.3                          T                                        4991214
CAF   002.58 145.3 m E Sn      2012/06/07 16:44:12.6  -0.1                          T                                        4991128
CAF   002.58 145.3 m E Sg      2012/06/07 16:44:21.6  -1.1                          T               36.1  .26 Ml 3.5         4991187
SMF   002.67 097.7 m E Pn      2012/06/07 16:43:44.5   0.7                          T                                        4991145
SMF   002.67 097.7 m E Pg      2012/06/07 16:43:50.7  -0.5                          T                                        4991218
SMF   002.67 097.7 m E Sn      2012/06/07 16:44:15.3   0.4                          T               24.0  .22 Ml 3.4         4991123
SFTF  003.60 069.7 m E Pn      2012/06/07 16:43:56.6   0.2                          T                                        4991239
SFTF  003.60 069.7 m E Pg      2012/06/07 16:44:08.9   0.7                          T                                        4991238
SFTF  003.60 069.7 m E Sn      2012/06/07 16:44:37.0   0.0                          T                                        4991198
MEZF  003.70 065.3 m E Pn      2012/06/07 16:43:57.9   0.1                          T                                        4991236
MEZF  003.70 065.3 m E Pg      2012/06/07 16:44:10.2   0.1 253.7  4.6               T                                        4991237
MEZF  003.70 065.3 m E Sg      2012/06/07 16:44:57.2  -0.4                          T               22.6  .58 Ml 3.2         4991197
BAIF  004.10 041.5 m E Pn      2012/06/07 16:44:01.4  -1.8                          T                                        4991116
BAIF  004.10 041.5 m E Pg      2012/06/07 16:44:17.4   0.0                          T                                        4991243
BAIF  004.10 041.5 m E Sn      2012/06/07 16:44:47.7  -1.2                          T                3.9  .31 Ml 2.8         4991150
BAIF  004.10 041.5 m E Sg      2012/06/07 16:45:10.1   0.1                          T                4.9  .27 Ml 2.9         4991204
EPF   004.04 176.4 m E Pn      2012/06/07 16:44:01.6  -0.9                          T                                        4991130
EPF   004.04 176.4 m E Sn      2012/06/07 16:44:45.8  -1.8                          T                6.5  .24 Ml 3.1         4991129
VIVF  003.94 122.4 m E Pn      2012/06/07 16:44:01.7   0.6                          T                                        4991205
VIVF  003.94 122.4 m E Pg      2012/06/07 16:44:14.7   0.2                          T                                        4991206
VIVF  003.94 122.4 m E Sn      2012/06/07 16:44:45.8   0.6                          T                                        4991207
VIVF  003.94 122.4 m E Sg      2012/06/07 16:45:04.9  -0.3                          T                5.5  .27 Ml 2.9         4991208
LASF  004.04 136.4 m E Pn      2012/06/07 16:44:03.2   0.8                          T                                        4991186
LASF  004.04 136.4 m E Pg      2012/06/07 16:44:16.4   0.1                          T                                        4991185
LASF  004.04 136.4 m E Sg      2012/06/07 16:45:08.5   0.4                          T                3.5  .24 Ml 2.8         4991209
MTLF  004.04 156.3 m E Pn      2012/06/07 16:44:03.6   1.2                          T                                        4991111
MTLF  004.04 156.3 m E Sn      2012/06/07 16:44:49.0   1.4                          T                                        4991210
MTLF  004.04 156.3 m E Sg      2012/06/07 16:45:08.7   0.4                          T               15.7  .60 Ml 3.1         4991211
ETSF  004.19 185.6 m E Pn      2012/06/07 16:44:03.7  -0.7                          T                                        4991115
CABF  004.21 094.0 m E Pn      2012/06/07 16:44:05.4   0.6                          T                                        4991194
CABF  004.21 094.0 m E Sg      2012/06/07 16:45:13.4  -0.1                          T                2.8  .26 Ml 2.7         4991195
GIVF  004.42 044.8 m E Pn      2012/06/07 16:44:07.9   0.3                          T                                        4991241
GIVF  004.42 044.8 m E Pg      2012/06/07 16:44:24.3   1.0                          T                                        4991242
GIVF  004.42 044.8 m E Sn      2012/06/07 16:44:55.1  -1.4                          T                                        4991240
GIVF  004.42 044.8 m E Sg      2012/06/07 16:45:20.1   0.1                          T                3.1  .20 Ml 2.9         4991203
HAU   004.41 075.4 m E Pn      2012/06/07 16:44:08.0   0.6                          T                                        4991234
HAU   004.41 075.4 m E Pg      2012/06/07 16:44:23.5   0.4                          T                                        4991235
HAU   004.41 075.4 m E Sg      2012/06/07 16:45:20.2   0.5                          T                5.1  .26 Ml 2.8         4991232
HINF  004.71 078.3 m E Pn      2012/06/07 16:44:11.5  -0.2                          T                                        4991196
HINF  004.71 078.3 m E Sg      2012/06/07 16:45:30.0   0.7                          T                6.9  .32 Ml 3.1         4991231
CDF   005.09 072.0 m E Pn      2012/06/07 16:44:16.8   0.0                          T                                        4991201
CDF   005.09 072.0 m E Pg      2012/06/07 16:44:35.9   0.0                          T                                        4991202
CDF   005.09 072.0 m E Sn      2012/06/07 16:45:12.8   0.0                          T                                        4991199
CDF   005.09 072.0 m E Sg      2012/06/07 16:45:41.4   0.1                          T                6.8  .40 Ml 3.2         4991200
SJPF  004.05 192.8 m E Pg      2012/06/07 16:44:16.9   0.4                          T                                        4991213
SJPF  004.05 192.8 m E Sg      2012/06/07 16:45:07.7  -0.7                          T                2.8  .22 Ml 2.8         4991212
THEF  004.22 071.8 m E Sg      2012/06/07 16:45:14.1   0.3                          T                4.8  .21 Ml 3.0         4991233

.
