EVENT     263993
    Date      Time       Latitude Longitude    Depth    Ndef Nsta Gap    Mag1  N    Mag2  N    Mag3  N   Author         ID
       rms   OT_Error      Smajor Sminor Az        Err   mdist  Mdist     Err        Err        Err      Quality

2011/09/15 01:40:14.4     46.9256  -22.6700     45.4     138   38 073  Ml 4.6 26                         js067245    263994

      1.99   +-  0.34      11.0    5.2  146.93 +-  3.2    8.80  76.88   +-0.5                            m i ke

NORTH ATLANTIC OCEAN
Sta     Dist  EvAz     Phase      Date       Time     TRes  Azim  AzRes  Slow  SRes Def   SNR       Amp   Per   Mag1   Mag2       ID
ROSF  013.16 076.7 m E Pn      2011/09/15 01:43:16.4  -0.4                          T                                        4757664
ROSF  013.16 076.7 m E Sn      2011/09/15 01:45:30.7  -3.4                          T               40.7  .36 Ml 5.1         4757628
QUIF  013.25 078.6 m E Pn      2011/09/15 01:43:17.7  -0.2                          T                                        4757662
QUIF  013.25 078.6 m E Sn      2011/09/15 01:45:31.3  -4.9                          T               58.3  .52 Ml 5.1         4765240
SGMF  013.64 077.0 m E Pn      2011/09/15 01:43:23.1  -0.3                          T                                        4757663
SGMF  013.64 077.0 m E Sn      2011/09/15 01:45:39.4  -6.2                          T               27.9  .48 Ml 4.8         4757627
GRR   014.77 076.3 m E Pn      2011/09/15 01:43:38.8   0.2                          T                                        4757659
GRR   014.77 076.3 m E Sn      2011/09/15 01:46:10.9  -1.6                          T               28.2  .38 Ml 4.8         4765238
FLN   015.01 074.8 m E Pn      2011/09/15 01:43:42.0   0.1 265.7  -5.6              T                                        4757661
FLN   015.01 074.8 m E Sn      2011/09/15 01:46:14.5  -3.6                          T               31.4  .52 Ml 4.7         4765239
LDF   015.25 075.4 m E Pn      2011/09/15 01:43:45.3   0.1                          T                                        4757660
LDF   015.25 075.4 m E Sn      2011/09/15 01:46:21.3  -2.7                          T               14.5  .32 Ml 4.7         4757626
MFF   015.43 083.0 m E Pn      2011/09/15 01:43:47.8   0.0                          T                                        4757658
MFF   015.43 083.0 m E Sn      2011/09/15 01:46:23.7  -4.7                          T               39.4  .42 Ml 5.2         4765237
SJPF  015.63 096.3 m E Pn      2011/09/15 01:43:50.5   0.2                          T                                        4757637
SJPF  015.63 096.3 m E Sn      2011/09/15 01:46:28.3  -4.7                          T               11.9  .38 Ml 4.5         4765233
ETSF  016.16 096.4 m E Pn      2011/09/15 01:43:59.3   1.6                          T                                        4757657
ETSF  016.16 096.4 m E Sn      2011/09/15 01:46:44.5  -1.3                          T                7.1  .33 Ml 4.4         4765232
LFF   016.40 088.4 m E Pn      2011/09/15 01:44:01.6   0.8                          T                                        4757640
LFF   016.40 088.4 m E Sn      2011/09/15 01:46:45.7  -5.7                          T               11.9  .28 Ml 4.5         4765235
EPF   016.72 095.1 m E Pn      2011/09/15 01:44:06.6   1.2                          T                                        4757654
EPF   016.72 095.1 m E Sn      2011/09/15 01:46:58.4  -0.9                          T               10.4  .40 Ml 4.5         4765231
RJF   016.84 086.7 m E Pn      2011/09/15 01:44:07.4   0.5                          T                                        4757641
RJF   016.84 086.7 m E Sn      2011/09/15 01:46:56.6  -5.3                          T               12.6  .46 Ml 4.2         4765236
TCF   017.09 083.0 m E Pn      2011/09/15 01:44:10.6   0.2                          T                                        4757648
TCF   017.09 083.0 m E Sn      2011/09/15 01:46:58.6  -9.5                          T               13.2  .28 Ml 4.8         4757634
CAF   017.31 087.6 m E Pn      2011/09/15 01:44:12.9  -0.4                          T                                        4757656
CAF   017.31 087.6 m E Sn      2011/09/15 01:47:06.2  -7.0                          T               11.1  .30 Ml 4.6         4765234
HYF   017.22 079.6 m E Pn      2011/09/15 01:44:13.1   1.0                          T                                        4757651
HYF   017.22 079.6 m E Sn      2011/09/15 01:47:05.8  -5.3                          T                                        4757631
BGF   017.48 081.8 m E Pn      2011/09/15 01:44:16.1   0.5                          T                                        4757650
BGF   017.48 081.8 m E Sn      2011/09/15 01:47:11.3  -5.9                          T               71.6  .38 Ml 5.3         4757630
AVF   017.78 080.9 m E Pn      2011/09/15 01:44:19.6   0.0                          T                                        4757653
AVF   017.78 080.9 m E Sn      2011/09/15 01:47:18.8  -5.5                          T               18.6  .35 Ml 4.8         4757632
SSF   017.84 080.0 m E Pn      2011/09/15 01:44:20.7   0.3                          T                                        4757647
SSF   017.84 080.0 m E Sn      2011/09/15 01:47:20.6  -5.2                          T               14.2  .42 Ml 4.7         4757635
MTLF  017.90 092.5 m E Pn      2011/09/15 01:44:21.6   0.3                          T                                        4757655
MTLF  017.90 092.5 m E Sn      2011/09/15 01:47:21.1  -6.2                          T                6.1  .30 Ml 4.4         4765230
BAIF  018.05 070.1 m E Pn      2011/09/15 01:44:23.2   0.6                          T                                        4757645
LOR   018.04 079.2 m E Pn      2011/09/15 01:44:23.5   0.8 278.9  0.2               T                                        4757646
LOR   018.04 079.2 m E Sn      2011/09/15 01:47:27.7  -2.1                          T               22.5  .44 Ml 4.8         4757636
SMF   018.13 081.2 m E Pn      2011/09/15 01:44:24.2  -0.2                          T                                        4757652
SMF   018.13 081.2 m E Sn      2011/09/15 01:47:28.9 -13.2                          T                6.7  .21 Ml 4.6         4765241
SFTF  018.71 075.9 m E Pn      2011/09/15 01:44:32.5   1.3 261.7  -14.8             T                                        4757643
SFTF  018.71 075.9 m E Sn      2011/09/15 01:47:40.2 -14.7                          T               18.3  .52 Ml 4.6         4757633
LASF  018.78 089.0 m E Pn      2011/09/15 01:44:32.9   0.8                          T                                        4757639
LASF  018.78 089.0 m E Sn      2011/09/15 01:47:46.4 -10.3                          T                6.3  .38 Ml 4.3         4765229
HAU   019.60 076.2 m E Pn      2011/09/15 01:44:40.0  -1.4                          T                                        4765244
HAU   019.60 076.2 m E Sn      2011/09/15 01:48:01.8 -12.9                          T                6.7  .36 Ml 4.1         4765245
HINF  019.97 076.6 m E Pn      2011/09/15 01:44:42.5  -2.9                          T                                        4765243
HINF  019.97 076.6 m E Sn      2011/09/15 01:48:10.6 -12.0                          T                9.4  .42 Ml 2.5         4765242
CABF  019.66 080.3 m E Pn      2011/09/15 01:44:44.8   2.7                          T                                        4757642
CDF   020.17 074.7 m E Pn      2011/09/15 01:44:47.2  -0.5                          T                                        4757644
ORIF  019.92 085.3 m E P       2011/09/15 01:44:48.2   3.2                          T                                        4765226
SMRF  019.99 088.1 m E P       2011/09/15 01:44:48.4   2.7                          T                                        4765223
LPL   020.34 083.2 m E P       2011/09/15 01:44:49.6  -0.1                          T                                        4765225
LPG   020.36 083.2 m E P       2011/09/15 01:44:50.0   0.0                          T                                        4765224
MBDF  020.58 085.3 m E P       2011/09/15 01:44:52.7   0.6                          T                                        4765227
LMR   020.84 089.2 m E P       2011/09/15 01:44:54.0  -0.6                          T                                        4765221
FRF   020.86 088.5 m E P       2011/09/15 01:44:54.7  -0.1                          T                                        4765222
SBF   021.30 087.2 m E P       2011/09/15 01:45:01.7   2.4                          T                                        4765220
PGF   022.83 089.4 m E P       2011/09/15 01:45:16.0   1.5                          T                                        4765219
VIVF  019.11 086.2 m E Sn      2011/09/15 01:47:50.3 -13.7                          T                6.5  .38 Ml 4.3         4765228

.
EVENT     263994
    Date      Time       Latitude Longitude    Depth    Ndef Nsta Gap    Mag1  N    Mag2  N    Mag3  N   Author         ID
       rms   OT_Error      Smajor Sminor Az        Err   mdist  Mdist     Err        Err        Err      Quality

2011/09/15 07:12:57.1     42.8203    3.0288     10.0       9    3 170  Ml 1.8  2  Md 1.8  1              js067245    263995

      0.18   +-  0.07       1.9     .9   95.09 +-  0.0    0.35   2.22   +-0.0      +-                    m i ke

PYRENEES
Sta     Dist  EvAz     Phase      Date       Time     TRes  Azim  AzRes  Slow  SRes Def   SNR       Amp   Per   Mag1   Mag2       ID
MTLF  000.79 311.5 m E Pg      2011/09/15 07:13:11.8  -0.2                          T                                        4757758
MTLF  000.79 311.5 m E Pn      2011/09/15 07:13:13.0   0.3                          T                                        4757756
MTLF  000.79 311.5 m E Sg      2011/09/15 07:13:22.7   0.3                          T                                Md 1.8  4757757
MTLF  000.79 311.5 m E Sn      2011/09/15 07:13:23.7  -0.2                          T                6.8  .19                4757755
LASF  001.39 025.4 m E Pg      2011/09/15 07:13:23.0  -0.1                          T                                        4765287
LASF  001.39 025.4 m E Sg      2011/09/15 07:13:41.4   0.2                          T                2.5  .33 Ml 1.9         4765289
CAF   002.22 342.0 m E Sg      2011/09/15 07:14:07.0   0.1                          T                  1  .26 Ml 1.8         4765288

.
EVENT     264018
    Date      Time       Latitude Longitude    Depth    Ndef Nsta Gap    Mag1  N    Mag2  N    Mag3  N   Author         ID
       rms   OT_Error      Smajor Sminor Az        Err   mdist  Mdist     Err        Err        Err      Quality

2011/09/15 07:29:43.9     49.4990    8.5798     10.0      11    4 060  Ml 2.3  2  Md 2.0  2              js067245    264019

      0.35   +-  0.06       1.2    1.1   33.43 +-  0.0    0.08   2.51   +-0.1      +-0.0                 m i ke

GERMANY
Sta     Dist  EvAz     Phase      Date       Time     TRes  Azim  AzRes  Slow  SRes Def   SNR       Amp   Per   Mag1   Mag2       ID
LANF  000.73 224.7 m E Pn      2011/09/15 07:29:58.4  -0.3                          T                                        4757768
LANF  000.73 224.7 m E Sg      2011/09/15 07:30:06.9  -0.3                          T                 .4  .16        Md 2.0  4757764
RUP   001.01 282.2 m E Pg      2011/09/15 07:30:03.1   0.2                          T                                        4757771
RUP   001.01 282.2 m E Sg      2011/09/15 07:30:15.4  -0.6                          T                                Md 2.0  4757770
CDF   001.39 218.8 m E Pn      2011/09/15 07:30:07.5  -0.2                          T                                        4757765
CDF   001.39 218.8 m E Pg      2011/09/15 07:30:09.2  -0.7                          T                                        4757766
CDF   001.39 218.8 m E Sn      2011/09/15 07:30:24.9  -0.1                          T                4.8  .25 Ml 2.4         4757767
GIVF  002.51 285.4 m E Sg      2011/09/15 07:31:02.6  -0.1                          T                1.7  .18 Ml 2.3         4765290

.
EVENT     264002
    Date      Time       Latitude Longitude    Depth    Ndef Nsta Gap    Mag1  N    Mag2  N    Mag3  N   Author         ID
       rms   OT_Error      Smajor Sminor Az        Err   mdist  Mdist     Err        Err        Err      Quality

2011/09/15 10:11:24.5     47.5348    6.1273       .0 f    16    9 121  Ml 2.2  6  Md 2.1  3              js067245    264003

      0.66   +-  0.10       2.2    1.5  130.67 +-  0.0    0.49   1.80   +-0.3      +-0.2                 m i km

FRANCE
Sta     Dist  EvAz     Phase      Date       Time     TRes  Azim  AzRes  Slow  SRes Def   SNR       Amp   Per   Mag1   Mag2       ID
HAU   000.49 017.5 m E Pg      2011/09/15 10:11:34.2   0.0                          T                                        4765337
HAU   000.49 017.5 m E Sg      2011/09/15 10:11:40.8  -0.1                          T                9.6  .24        Md 2.3  4765338
HINF  000.57 059.8 m E Pg      2011/09/15 10:11:35.5  -0.1                          T                                        4765326
HINF  000.57 059.8 m E Sg      2011/09/15 10:11:43.0  -0.2                          T                4.7  .29        Md 2.0  4765334
THEF  000.70 352.7 m E Pn      2011/09/15 10:11:40.0  -0.2                          T                                        4765335
THEF  000.70 352.7 m E Sg      2011/09/15 10:11:47.6   0.3                          T                9.2  .29        Md 2.1  4765336
CABF  000.92 181.7 m E Pg      2011/09/15 10:11:42.6   0.4                          T                                        4765332
CABF  000.92 181.7 m E Sg      2011/09/15 10:11:53.8  -0.6                          T                6.3  .29 Ml 2.1         4765333
SFTF  000.99 312.8 m E Pg      2011/09/15 10:11:43.5   0.2 134.3  2.3               T                                        4765330
SFTF  000.99 312.8 m E Sn      2011/09/15 10:11:58.6   0.3                          T               12.6  .47 Ml 2.2         4765331
CDF   001.17 040.9 m E Pg      2011/09/15 10:11:46.7   0.0                          T                                        4765328
CDF   001.17 040.9 m E Sg      2011/09/15 10:12:02.1   0.0                          T                3.2  .23 Ml 2.1         4765329
LOR   001.56 261.0 m E Pg      2011/09/15 10:11:53.5  -0.3  73.1  -6.2              T                                        4765339
LOR   001.56 261.0 m E Sg      2011/09/15 10:12:14.3   0.0                          T                5.5  .20 Ml 2.5         4765340
PAGF  001.06 345.3 m E Sn      2011/09/15 10:12:00.0   0.3                          T                1.7  .28 Ml 1.6         4765327
SMF   001.80 241.2 m E Sg      2011/09/15 10:12:21.6   0.1                          T                3.1  .24 Ml 2.3         4765325

.
EVENT     264007
    Date      Time       Latitude Longitude    Depth    Ndef Nsta Gap    Mag1  N    Mag2  N    Mag3  N   Author         ID
       rms   OT_Error      Smajor Sminor Az        Err   mdist  Mdist     Err        Err        Err      Quality

2011/09/15 17:31:52.1     49.2323    6.0854       .0 f    23   12 095  Ml 2.1 10  Md 2.3  2              js067245    264008

      1.32   +-  0.14       2.6    2.4   69.06 +-  0.0    0.72   2.47   +-0.1      +-0.0                 m i km

GERMANY
Sta     Dist  EvAz     Phase      Date       Time     TRes  Azim  AzRes  Slow  SRes Def   SNR       Amp   Per   Mag1   Mag2       ID
PAGF  000.72 199.5 m E Pg      2011/09/15 17:32:06.1   0.2  32.9  13.7              T                                        4765408
PAGF  000.72 199.5 m E Sn      2011/09/15 17:32:19.0  -0.3  21.7  2.5               T                8.0  .76        Md 2.4  4765409
RUP   000.79 053.2 m E Pg      2011/09/15 17:32:07.2  -0.1                          T                                        4765412
RUP   000.79 053.2 m E Sg      2011/09/15 17:32:18.1   0.3                          T                                Md 2.3  4765413
MEZF  001.00 223.4 m E Pg      2011/09/15 17:32:11.4   0.4  33.3  -9.3              T                                        4765407
MEZF  001.00 223.4 m E Sn      2011/09/15 17:32:25.8  -0.2                          T                4.8  .22 Ml 2.2         4765397
THEF  001.01 183.5 m E Pg      2011/09/15 17:32:11.9   0.7                          T                                        4765392
THEF  001.01 183.5 m E Sg      2011/09/15 17:32:24.5   0.0                          T                6.7  .26 Ml 2.2         4765395
CDF   001.14 135.8 m E Pg      2011/09/15 17:32:13.8   0.1                          T                                        4765398
CDF   001.14 135.8 m E Sg      2011/09/15 17:32:29.0   0.4                          T                4.5  .33 Ml 2.1         4765399
LANF  001.16 101.9 m E Pg      2011/09/15 17:32:14.1   0.1                          T                                        4765400
LANF  001.16 101.9 m E Sn      2011/09/15 17:32:30.0   0.1                          T                5.7  .55 Ml 1.9         4765401
GIVF  001.20 317.2 m E Pg      2011/09/15 17:32:14.7   0.0                          T                                        4765402
GIVF  001.20 317.2 m E Sn      2011/09/15 17:32:30.9   0.2                          T                7.8  .39 Ml 2.2         4765403
HAU   001.24 171.8 m E Pg      2011/09/15 17:32:15.1  -0.5                          T                                        4765405
HAU   001.24 171.8 m E Sg      2011/09/15 17:32:30.3  -1.5                          T                3.5  .21 Ml 1.9         4765406
SFTF  001.24 214.4 m E Pg      2011/09/15 17:32:15.3  -0.2                          T                                        4765391
SFTF  001.24 214.4 m E Sg      2011/09/15 17:32:31.4  -0.3                          T                3.7  .20 Ml 2.2         4765396
BAIF  001.47 304.9 m E Pg      2011/09/15 17:32:19.4  -0.3                          T                                        4765410
BAIF  001.47 304.9 m E Sg      2011/09/15 17:32:38.9  -0.2                          T                2.8  .21 Ml 2.1         4765411
HINF  001.51 159.9 m E Pg      2011/09/15 17:32:20.4   0.0                          T                                        4765393
HINF  001.51 159.9 m E Sn      2011/09/15 17:32:38.1   0.0                          T                1.8  .25 Ml 1.9         4765394
LOR   002.47 218.0 m E Sg      2011/09/15 17:33:09.9  -0.1                          T                3.0  .36 Ml 2.2         4765404

.
