EVENT     265346
    Date      Time       Latitude Longitude    Depth    Ndef Nsta Gap    Mag1  N    Mag2  N    Mag3  N   Author         ID
       rms   OT_Error      Smajor Sminor Az        Err   mdist  Mdist     Err        Err        Err      Quality

2011/10/21 01:16:27.3     51.4954    6.5984      1.0 f    41   18 238  Ml 2.7 13  Md 2.9  2              js067245    265366

      1.20   +-  0.24       4.0    3.3    8.24 +-  0.0    0.29   5.96   +-0.3      +-0.2                 m i sr

GERMANY
Sta     Dist  EvAz     Phase      Date       Time     TRes  Azim  AzRes  Slow  SRes Def   SNR       Amp   Per   Mag1   Mag2       ID
GIVF  001.79 219.6 m E Pn      2011/10/21 01:16:57.6  -0.1                          T                                        4775294
GIVF  001.79 219.6 m E Pg      2011/10/21 01:17:00.0  -0.6                          T                                        4774446
GIVF  001.79 219.6 m E Sn      2011/10/21 01:17:19.8   0.0                          T                                        4774445
GIVF  001.79 219.6 m E Sg      2011/10/21 01:17:23.6  -0.2                          T               17.1  .22 Ml 3.0 Md 2.8  4775287
RUP   001.82 170.5 m E P       2011/10/21 01:17:00.4   0.2                          T                                        4775268
RUP   001.82 170.5 m E Pg      2011/10/21 01:17:01.2   0.0                          T                                        4774442
RUP   001.82 170.5 m E S       2011/10/21 01:17:23.3  -1.0                          T                                        4775285
BAIF  002.09 227.5 m E Pn      2011/10/21 01:17:01.9   0.2                          T                                        4774444
BAIF  002.09 227.5 m E Pg      2011/10/21 01:17:06.2   0.0                          T                                        4775284
BAIF  002.09 227.5 m E Sg      2011/10/21 01:17:32.7  -0.4                          T               13.0  .45 Ml 2.7         4775286
CDF   003.12 171.7 m E Pn      2011/10/21 01:17:14.8  -1.0                          T                                        4774440
CDF   003.12 171.7 m E Sg      2011/10/21 01:18:03.6  -1.7                          T                5.0  .49 Ml 2.6 Md 3.0  4775291
PAGF  003.00 191.2 m E Pg      2011/10/21 01:17:23.2   0.3                          T                                        4775272
PAGF  003.00 191.2 m E Sg      2011/10/21 01:18:01.6   0.2                          T                1.2  .34 Ml 2.0         4775296
LOR   004.59 204.0 m E Pn      2011/10/21 01:17:35.7  -0.1  36.9  15.0              T                                        4774435
LOR   004.59 204.0 m E Sn      2011/10/21 01:18:26.3  -0.4                          T                1.4  .29 Ml 2.5         4775290
LOR   004.59 204.0 m E Sg      2011/10/21 01:18:51.2  -0.1                          T                3.3  .35 Ml 2.8         4775295
SSF   004.88 205.7 m E Pn      2011/10/21 01:17:39.9   0.2                          T                                        4774436
SSF   004.88 205.7 m E Sn      2011/10/21 01:18:33.7   0.2                          T                1.2  .24 Ml 2.6         4775289
SSF   004.88 205.7 m E Sg      2011/10/21 01:19:00.1   0.0                          T                4.7  .41 Ml 3.0         4775288
AVF   005.17 205.6 m E Pn      2011/10/21 01:17:44.0   0.4                          T                                        4774433
SMF   005.18 201.5 m E Pn      2011/10/21 01:17:44.0   0.2                          T                                        4774432
SMF   005.18 201.5 m E Sg      2011/10/21 01:19:10.2   0.6                          T                2.4  .28 Ml 2.8         4775279
LDF   005.21 238.8 m E Pn      2011/10/21 01:17:44.3   0.1                          T                                        4775292
FLN   005.31 241.8 m E Pn      2011/10/21 01:17:45.5  -0.1  57.1  0.8               T                                        4775293
BGF   005.52 208.0 m E Pn      2011/10/21 01:17:47.7  -0.8                          T                                        4775276
BGF   005.52 208.0 m E Pg      2011/10/21 01:18:08.7  -0.7                          T                                        4775277
BGF   005.52 208.0 m E Sg      2011/10/21 01:19:20.8   0.6                          T                7.0  .46 Ml 3.2         4775278
GRR   005.73 240.0 m E Pn      2011/10/21 01:17:51.5   0.3                          T                                        4775274
GRR   005.73 240.0 m E Sn      2011/10/21 01:18:53.6  -0.2                          T                                        4775273
TCF   005.96 210.7 m E Pn      2011/10/21 01:17:54.4  -0.1                          T                                        4774434
THEF  003.29 187.1 m E Sg      2011/10/21 01:18:10.7   0.0                          T                5.5  .30 Ml 2.8         4775281
SFTF  003.45 197.6 m E Sg      2011/10/21 01:18:15.2  -0.2                          T                4.8  .32 Ml 2.7         4775280
HAU   003.50 182.8 m E Sg      2011/10/21 01:18:16.6  -0.5                          T                4.8  .38 Ml 2.4         4775283
HINF  003.69 177.3 m E Sg      2011/10/21 01:18:23.4   0.4                          T                                        4775282

.
EVENT     265347
    Date      Time       Latitude Longitude    Depth    Ndef Nsta Gap    Mag1  N    Mag2  N    Mag3  N   Author         ID
       rms   OT_Error      Smajor Sminor Az        Err   mdist  Mdist     Err        Err        Err      Quality

2011/10/21 01:52:46.1     48.3598   -4.3668     25.0      12    6 321  Ml 2.2  5  Md 2.3  3              js067245    265367

      0.81   +-  0.55       8.6    6.9  139.47 +-  0.0    0.73   2.83   +-0.2      +-0.1                 m i ke

FRANCE
Sta     Dist  EvAz     Phase      Date       Time     TRes  Azim  AzRes  Slow  SRes Def   SNR       Amp   Per   Mag1   Mag2       ID
ROSF  000.73 091.4 m E Pg      2011/10/21 01:53:00.5   0.1                          T                                        4774467
ROSF  000.73 091.4 m E Sg      2011/10/21 01:53:10.7   0.3                          T                4.7  .21        Md 2.2  4774466
QUIF  000.92 118.4 m E Pg      2011/10/21 01:53:03.3  -0.4                          T                                        4774463
QUIF  000.92 118.4 m E Sg      2011/10/21 01:53:15.4  -0.7                          T               11.3  .24 Ml 2.4 Md 2.3  4774462
SGMF  001.21 094.3 m E Pg      2011/10/21 01:53:09.0  -0.1                          T                                        4774465
SGMF  001.21 094.3 m E Sg      2011/10/21 01:53:25.8   0.8                          T                2.5  .25 Ml 1.9 Md 2.4  4774464
GRR   002.34 088.0 m E Pg      2011/10/21 01:53:30.0   0.4                          T                                        4774461
GRR   002.34 088.0 m E Sg      2011/10/21 01:53:58.8  -1.1                          T                2.9  .27 Ml 2.2         4774460
FLN   002.61 079.7 m E Sg      2011/10/21 01:54:08.0  -0.4                          T                5.2  .31 Ml 2.4         4774458
LDF   002.83 083.7 m E Sg      2011/10/21 01:54:15.4   0.1                          T                2.6  .31 Ml 2.3         4774459

.
EVENT     265406
    Date      Time       Latitude Longitude    Depth    Ndef Nsta Gap    Mag1  N    Mag2  N    Mag3  N   Author         ID
       rms   OT_Error      Smajor Sminor Az        Err   mdist  Mdist     Err        Err        Err      Quality

2011/10/21 07:08:27.8     44.6265   10.2927     10.0 f    44   12 095  Ml 2.9  7  Md 2.8  3              js067245    265426

      0.88   +-  0.15       3.5    2.4   58.49 +-  0.0    0.60   5.21   +-0.2      +-0.1                 m i ke

NORTHERN ITALY
Sta     Dist  EvAz     Phase      Date       Time     TRes  Azim  AzRes  Slow  SRes Def   SNR       Amp   Per   Mag1   Mag2       ID
SBF   002.19 250.6 m E Pn      2011/10/21 07:09:02.8   0.2                          T                                        4775489
SBF   002.19 250.6 m E Sn      2011/10/21 07:09:28.7   0.6                          T               41.6  .51 Ml 3.2 Md 2.7  4775480
PGF   002.28 204.8 m E Pn      2011/10/21 07:09:04.3   0.4                          T                                        4775484
PGF   002.28 204.8 m E P       2011/10/21 07:09:06.2  -0.2                          T                                        4775461
PGF   002.28 204.8 m E Pg      2011/10/21 07:09:09.9  -0.4                          T                                        4775460
PGF   002.28 204.8 m E Sn      2011/10/21 07:09:30.5   0.2                          T                4.1  .26 Ml 2.7 Md 2.7  4775463
MBDF  002.51 273.5 m E P       2011/10/21 07:09:09.9   0.1                          T                                        4775490
LPL   002.67 290.7 m E P       2011/10/21 07:09:11.6  -0.6                          T                                        4775486
LPL   002.67 290.7 m E Pg      2011/10/21 07:09:16.7  -1.1                          T                                        4775478
LPL   002.67 290.7 m E Sn      2011/10/21 07:09:41.0   1.1                          T               15.6  .52 Ml 2.8         4775467
LPL   002.67 290.7 m E Sg      2011/10/21 07:09:50.4  -1.7                          T                                        4775468
FRF   002.83 249.2 m E Pn      2011/10/21 07:09:11.9   0.6                          T                                        4775487
FRF   002.83 249.2 m E Sn      2011/10/21 07:09:44.8   1.3                          T               10.1  .36 Ml 2.9         4775481
LMR   003.02 246.0 m E Pn      2011/10/21 07:09:13.8  -0.1                          T                                        4775488
LMR   003.02 246.0 m E Sn      2011/10/21 07:09:48.8   0.9                          T               10.7  .32 Ml 3.0 Md 2.8  4775482
LMR   003.02 246.0 m E Sg      2011/10/21 07:10:01.5  -1.1                          T                                        4775462
LPG   002.66 290.4 m E Pg      2011/10/21 07:09:16.7  -0.8                          T                                        4775476
ORIF  003.16 276.9 m E P       2011/10/21 07:09:18.9   0.0                          T                                        4775485
SMRF  003.45 260.8 m E Pn      2011/10/21 07:09:19.8   0.1                          T                                        4775479
VIVF  004.01 275.3 m E Pn      2011/10/21 07:09:27.4   0.0                          T                                        4775466
CDF   004.32 332.3 m E Pn      2011/10/21 07:09:31.4  -0.2                          T                                        4775483
CDF   004.32 332.3 m E Sn      2011/10/21 07:10:19.6   0.4                          T                4.6  .38 Ml 2.9         4775477
LOR   005.21 302.8 m E Pn      2011/10/21 07:09:44.1   0.4 109.2  -8.9              T                                        4775465
LOR   005.21 302.8 m E Sn      2011/10/21 07:10:41.1   0.9                          T                                        4775464

.
EVENT     265410
    Date      Time       Latitude Longitude    Depth    Ndef Nsta Gap    Mag1  N    Mag2  N    Mag3  N   Author         ID
       rms   OT_Error      Smajor Sminor Az        Err   mdist  Mdist     Err        Err        Err      Quality

2011/10/21 11:49:53.9     48.1017    6.5667       .0 f    10    7 093  Ml 1.8  2  Md 1.6  3              js067245    265430

      0.31   +-  0.12       2.5    2.0  153.69 +-  0.0    0.18   1.53   +-0.1      +-0.1                 m i km

FRANCE
Sta     Dist  EvAz     Phase      Date       Time     TRes  Azim  AzRes  Slow  SRes Def   SNR       Amp   Per   Mag1   Mag2       ID
HAU   000.18 236.8 m E Pg      2011/10/21 11:49:57.5  -0.3                          T                                        4775562
HAU   000.18 236.8 m E Sg      2011/10/21 11:50:00.1  -0.3                          T               22.3  .26        Md 1.6  4775561
HINF  000.34 145.9 m E Pg      2011/10/21 11:50:01.2   0.4                          T                                        4775557
HINF  000.34 145.9 m E Sg      2011/10/21 11:50:05.8   0.1                          T                5.0  .24        Md 1.6  4775560
CDF   000.57 056.5 m E Pg      2011/10/21 11:50:04.8  -0.2                          T                                        4775558
CDF   000.57 056.5 m E Sg      2011/10/21 11:50:12.6  -0.1                          T                1.1  .22        Md 1.7  4775559
THEF  000.40 288.5 m E Sg      2011/10/21 11:50:08.1   0.6                          T                4.9  .24                4776213
PAGF  000.72 309.2 m E Sg      2011/10/21 11:50:17.9   0.5                          T                 .9  .45                4776214
LANF  001.20 042.6 m E Sn      2011/10/21 11:50:32.8   0.0                          T                1.9  .19 Ml 1.9         4776215
CABF  001.53 192.5 m E Sg      2011/10/21 11:50:42.6   0.0                          T                1.8  .32 Ml 1.8         4776212

.
EVENT     265423
    Date      Time       Latitude Longitude    Depth    Ndef Nsta Gap    Mag1  N    Mag2  N    Mag3  N   Author         ID
       rms   OT_Error      Smajor Sminor Az        Err   mdist  Mdist     Err        Err        Err      Quality

2011/10/21 13:59:11.1     42.8871    -.9218      6.0 f     6    3 228  Ml 1.2  1  Md 1.4  2              js067245    265443

      0.06   +-  0.11       4.1     .5   19.22 +-  0.0    0.27   0.94   +-         +-0.1                 m i ke

PYRENEES
Sta     Dist  EvAz     Phase      Date       Time     TRes  Azim  AzRes  Slow  SRes Def   SNR       Amp   Per   Mag1   Mag2       ID
ETSF  000.27 087.4 m E Pg      2011/10/21 13:59:16.6   0.0                          T                                        4775572
ETSF  000.27 087.4 m E Sg      2011/10/21 13:59:20.1  -0.1                          T                5.9  .18        Md 1.5  4775571
SJPF  000.32 315.6 m E Pg      2011/10/21 13:59:17.4   0.0                          T                                        4775569
SJPF  000.32 315.6 m E Sg      2011/10/21 13:59:21.7   0.0                          T                4.5  .31        Md 1.4  4775570
EPF   000.94 080.8 m E Pg      2011/10/21 13:59:28.8  -0.1                          T                                        4775567
EPF   000.94 080.8 m E Sg      2011/10/21 13:59:41.1   0.1                          T                 .5  .21 Ml 1.2         4775568

.
EVENT     265533
    Date      Time       Latitude Longitude    Depth    Ndef Nsta Gap    Mag1  N    Mag2  N    Mag3  N   Author         ID
       rms   OT_Error      Smajor Sminor Az        Err   mdist  Mdist     Err        Err        Err      Quality

2011/10/21 16:48:46.6     43.7977    2.0799       .0 f    14    6 105  Ml 1.9  5  Md 2.0  1              js067245    265553

      0.84   +-  0.09       2.0    1.4   94.58 +-  0.0    0.47   2.14   +-0.2      +-                    m i km

FRANCE
Sta     Dist  EvAz     Phase      Date       Time     TRes  Azim  AzRes  Slow  SRes Def   SNR       Amp   Per   Mag1   Mag2       ID
MTLF  000.47 167.6 m E Pg      2011/10/21 16:48:55.8   0.0                          T                                        4775622
MTLF  000.47 167.6 m E Sg      2011/10/21 16:49:02.0  -0.1                          T                1.9  .27        Md 2.0  4775621
CAF   001.13 359.4 m E Pg      2011/10/21 16:49:07.8  -0.2                          T                                        4775616
CAF   001.13 359.4 m E P       2011/10/21 16:49:09.8   0.2                          T                                        4775614
CAF   001.13 359.4 m E Sg      2011/10/21 16:49:23.0   0.2                          T                4.0  .28 Ml 2.0         4775615
LASF  001.31 077.2 m E Pn      2011/10/21 16:49:10.6  -0.1                          T                                        4775617
LASF  001.31 077.2 m E Pg      2011/10/21 16:49:11.3  -0.1                          T                                        4775620
LASF  001.31 077.2 m E Sn      2011/10/21 16:49:27.9  -0.1                          T                                        4775618
LASF  001.31 077.2 m E Sg      2011/10/21 16:49:28.9   0.3                          T                3.0  .22 Ml 2.1         4775619
EPF   001.48 239.4 m E Sg      2011/10/21 16:49:33.7  -0.2                          T                1.4  .20 Ml 1.9         4776220
RJF   001.56 345.2 m E Sg      2011/10/21 16:49:36.6   0.4                          T                2.0  .23 Ml 1.7         4776218
VIVF  002.14 059.5 m E Sg      2011/10/21 16:49:53.7  -0.6                          T                1.4  .23 Ml 2.0         4776219

.
