EVENT     261441
    Date      Time       Latitude Longitude    Depth    Ndef Nsta Gap    Mag1  N    Mag2  N    Mag3  N   Author         ID
       rms   OT_Error      Smajor Sminor Az        Err   mdist  Mdist     Err        Err        Err      Quality

2011/07/15 00:29:43.7     44.4438    7.3678      2.0      13    6 197  Ml 1.9  4  Md 2.1  3              js067245    261441

      0.36   +-  0.19       4.3    1.9   80.44 +-  0.0    0.51   1.37   +-0.2      +-0.0                 m i ke

NORTHERN ITALY
Sta     Dist  EvAz     Phase      Date       Time     TRes  Azim  AzRes  Slow  SRes Def   SNR       Amp   Per   Mag1   Mag2       ID
MBDF  000.51 303.8 m E Pg      2011/07/15 00:29:53.5  -0.1                          T                                        4721584
MBDF  000.51 303.8 m E Sg      2011/07/15 00:30:00.1  -0.2                          T                6.0  .16        Md 2.0  4721580
SBF   000.58 175.2 m E Pg      2011/07/15 00:29:54.7  -0.1                          T                                        4721582
SBF   000.58 175.2 m E Sg      2011/07/15 00:30:02.3  -0.1                          T                3.0  .22        Md 2.1  4721573
FRF   001.02 210.8 m E Pg      2011/07/15 00:30:03.3   0.5                          T                                        4721581
FRF   001.02 210.8 m E Sg      2011/07/15 00:30:15.5  -0.7                          T                3.2  .19 Ml 2.1 Md 2.1  4721578
LPG   001.14 337.7 m E Pg      2011/07/15 00:30:05.6   0.2                          T                                        4721574
LPG   001.14 337.7 m E Sg      2011/07/15 00:30:19.8  -0.4                          T                1.1  .24 Ml 1.5         4721575
LMR   001.27 209.5 m E Pg      2011/07/15 00:30:07.4   0.0                          T                                        4721583
LMR   001.27 209.5 m E Sn      2011/07/15 00:30:22.5  -0.9                          T                                        4721572
LMR   001.27 209.5 m E Sg      2011/07/15 00:30:23.8   0.0                          T                1.9  .18 Ml 2.0         4721577
SMRF  001.37 250.7 m E Pg      2011/07/15 00:30:09.2  -0.1                          T                                        4721576
SMRF  001.37 250.7 m E Sg      2011/07/15 00:30:27.7   0.7                          T                1.7  .24 Ml 1.8         4721579

.
EVENT     261442
    Date      Time       Latitude Longitude    Depth    Ndef Nsta Gap    Mag1  N    Mag2  N    Mag3  N   Author         ID
       rms   OT_Error      Smajor Sminor Az        Err   mdist  Mdist     Err        Err        Err      Quality

2011/07/15 02:06:06.9     44.3133    7.3690      2.0      17    9 194  Ml 2.1  6  Md 2.3  3              js067245    261442

      0.38   +-  0.17       3.9    1.7   81.84 +-  0.0    0.45   2.00   +-0.3      +-0.1                 m i ke

NORTHERN ITALY
Sta     Dist  EvAz     Phase      Date       Time     TRes  Azim  AzRes  Slow  SRes Def   SNR       Amp   Per   Mag1   Mag2       ID
SBF   000.45 173.9 m E Pg      2011/07/15 02:06:16.0   0.4                          T                                        4721601
SBF   000.45 173.9 m E Sg      2011/07/15 02:06:22.0   0.4                          T               31.0  .21        Md 2.3  4721592
MBDF  000.59 314.3 m E Pg      2011/07/15 02:06:18.5   0.1                          T                                        4721594
MBDF  000.59 314.3 m E Sg      2011/07/15 02:06:26.7   0.5                          T               39.6  .31        Md 2.2  4721586
FRF   000.92 215.0 m E Pg      2011/07/15 02:06:23.8  -0.3                          T                                        4721599
FRF   000.92 215.0 m E Sg      2011/07/15 02:06:36.4   0.4                          T                4.6  .18 Ml 2.2 Md 2.2  4721590
LMR   001.16 212.7 m E Pg      2011/07/15 02:06:28.3  -0.3                          T                                        4721600
LMR   001.16 212.7 m E Sg      2011/07/15 02:06:43.3  -0.3                          T                6.1  .19 Ml 2.4         4721591
ORIF  001.22 300.2 m E Pg      2011/07/15 02:06:30.0   0.1                          T                                        4721595
ORIF  001.22 300.2 m E Sg      2011/07/15 02:06:45.3  -0.4                          T                2.8  .22 Ml 2.0         4721587
LPL   001.29 339.6 m E Pg      2011/07/15 02:06:30.9  -0.3                          T                                        4721596
LPG   001.26 339.9 m E Pg      2011/07/15 02:06:30.9   0.0                          T                                        4721597
LPG   001.26 339.9 m E Sg      2011/07/15 02:06:47.9   0.6                          T                1.3  .22 Ml 1.7         4721588
SMRF  001.33 256.0 m E Pg      2011/07/15 02:06:32.5   0.6                          T                                        4721598
SMRF  001.33 256.0 m E Sg      2011/07/15 02:06:50.0   0.9                          T                5.9  .24 Ml 2.4         4721589
VIVF  002.00 286.7 m E Pn      2011/07/15 02:06:39.4  -0.6                          T                                        4721593
VIVF  002.00 286.7 m E Sn      2011/07/15 02:07:03.8  -0.3                          T                 .8  .19 Ml 1.8         4721585

.
EVENT     261443
    Date      Time       Latitude Longitude    Depth    Ndef Nsta Gap    Mag1  N    Mag2  N    Mag3  N   Author         ID
       rms   OT_Error      Smajor Sminor Az        Err   mdist  Mdist     Err        Err        Err      Quality

2011/07/15 03:09:14.9     45.3744    6.4537      2.0       8    4 192             Md 1.4  2              js067245    261443

      0.32   +-  0.15       4.7    1.8  130.14 +-  0.0    0.24   0.69              +-0.1                 m i ke

FRANCE
Sta     Dist  EvAz     Phase      Date       Time     TRes  Azim  AzRes  Slow  SRes Def   SNR       Amp   Per   Mag1   Mag2       ID
LPG   000.24 059.4 m E Pg      2011/07/15 03:09:19.8  -0.3                          T                                        4721603
LPG   000.24 059.4 m E Sg      2011/07/15 03:09:23.1  -0.3                          T                5.2  .20        Md 1.3  4721602
LPL   000.24 054.0 m E Pg      2011/07/15 03:09:19.9  -0.1                          T                                        4721607
LPL   000.24 054.0 m E Sg      2011/07/15 03:09:23.5   0.2                          T                3.9  .18        Md 1.4  4721605
ORIF  000.61 221.9 m E Pg      2011/07/15 03:09:26.6   0.0                          T                                        4721606
ORIF  000.61 221.9 m E Sg      2011/07/15 03:09:33.9  -0.7                          T                1.7  .24                4721604
MBDF  000.69 160.7 m E Pg      2011/07/15 03:09:28.1   0.0                          T                                        4725327
MBDF  000.69 160.7 m E Sg      2011/07/15 03:09:36.3  -0.7                          T                1.2  .21                4725328

.
EVENT     261450
    Date      Time       Latitude Longitude    Depth    Ndef Nsta Gap    Mag1  N    Mag2  N    Mag3  N   Author         ID
       rms   OT_Error      Smajor Sminor Az        Err   mdist  Mdist     Err        Err        Err      Quality

2011/07/15 03:29:03.5     46.1648    7.7476      6.0 f    63   19 053  Ml 2.5 16  Md 2.5  3              js067245    261450

      1.62   +-  0.15       3.8    2.6  127.74 +-  0.0    0.08   7.32   +-0.2      +-0.1                 m i ke

SWITZERLAND
Sta     Dist  EvAz     Phase      Date       Time     TRes  Azim  AzRes  Slow  SRes Def   SNR       Amp   Per   Mag1   Mag2       ID
LPL   000.96 227.9 m E Pg      2011/07/15 03:29:21.3  -0.5                          T   001.0                                4721260
LPL   000.96 227.9 m E Sg      2011/07/15 03:29:35.9   1.6                          T               19.4  .26 Ml 2.7 Md 2.4  4721608
LPG   000.96 226.6 m E Pg      2011/07/15 03:29:21.3  -0.6                          T   001.0                                4721258
LPG   000.96 226.6 m E Sg      2011/07/15 03:29:34.9   0.4                          T   001.0       16.3  .26 Ml 2.6 Md 2.5  4721259
CABF  001.23 291.8 m E Pn      2011/07/15 03:29:24.9  -0.8                          T   001.0                                4721267
CABF  001.23 291.8 m E Pg      2011/07/15 03:29:27.3   0.6                          T   001.0                                4721268
CABF  001.23 291.8 m E Sn      2011/07/15 03:29:42.5   0.8                          T   001.0       12.2  .32 Ml 2.5 Md 2.6  4721269
MBDF  001.59 205.9 m E Pg      2011/07/15 03:29:33.0  -0.3                          T   001.0                                4721273
MBDF  001.59 205.9 m E Sg      2011/07/15 03:29:54.5   0.6                          T   001.0        7.1  .29 Ml 2.5         4721274
HINF  001.76 340.0 m E Pn      2011/07/15 03:29:33.4   0.5                          T   001.0                                4721270
HINF  001.76 340.0 m E Sn      2011/07/15 03:29:54.3   0.0                          T   001.0        6.4  .24 Ml 2.6         4721271
ORIF  001.81 227.1 m E Pg      2011/07/15 03:29:37.6   0.3                          T   001.0                                4721275
ORIF  001.81 227.1 m E Sg      2011/07/15 03:30:00.8   0.1                          T   001.0       10.7  .36 Ml 2.6         4721276
HAU   002.08 333.1 m E Pn      2011/07/15 03:29:38.4   1.3                          T   001.0                                4721250
HAU   002.08 333.1 m E Pg      2011/07/15 03:29:41.8  -0.3                          T   001.0                                4721251
HAU   002.08 333.1 m E Sn      2011/07/15 03:30:01.4  -0.4                          T   001.0                                4721252
HAU   002.08 333.1 m E Sg      2011/07/15 03:30:07.2  -1.6                          T   001.0       11.7  .26 Ml 2.7         4721253
CDF   002.27 352.0 m E Pn      2011/07/15 03:29:40.6   0.8                          T   001.0                                4721245
CDF   002.27 352.0 m E Pg      2011/07/15 03:29:45.6  -0.2                          T   001.0                                4721246
CDF   002.27 352.0 m E Sn      2011/07/15 03:30:07.9   1.3                          T   001.0                                4721247
CDF   002.27 352.0 m E Sg      2011/07/15 03:30:13.9  -1.1                          T   001.0        4.5  .26 Ml 2.6         4721248
SBF   002.31 185.6 m E Pn      2011/07/15 03:29:42.8   2.4                          T   001.0                                4721261
SBF   002.31 185.6 m E Sg      2011/07/15 03:30:16.0  -0.2                          T                4.9  .26 Ml 2.6         4725332
VIVF  002.53 239.9 m E Pn      2011/07/15 03:29:43.8   0.5                          T   001.0                                4721278
VIVF  002.53 239.9 m E Pg      2011/07/15 03:29:50.5   0.1                          T                                        4725333
VIVF  002.53 239.9 m E Sn      2011/07/15 03:30:14.2   1.6                          T   001.0                                4721279
VIVF  002.53 239.9 m E Sg      2011/07/15 03:30:24.0   1.1                          T   001.0        3.4  .21 Ml 2.5         4721280
LOR   002.89 293.8 m E Pn      2011/07/15 03:29:50.5   2.3 109.8  -1.2              T   001.0                                4721255
LOR   002.89 293.8 m E Sg      2011/07/15 03:30:33.1  -1.2 122.2  11.2              T   001.0        3.3  .21 Ml 2.6         4721257
AVF   003.10 283.2 m E Pn      2011/07/15 03:29:52.8   1.8                          T   001.0                                4721241
AVF   003.10 283.2 m E Sg      2011/07/15 03:30:40.5  -0.2                          T   001.0        1.1  .25 Ml 2.1         4721242
SMRF  002.68 215.9 m E Pg      2011/07/15 03:29:52.0  -0.1                          T   001.0                                4721281
LASF  003.46 234.2 m E Pn      2011/07/15 03:29:55.5  -0.4                          T   001.0                                4721254
LASF  003.46 234.2 m E Pg      2011/07/15 03:30:52.1  44.6                          T                2.6  .31 Ml 2.4         4725331
BGF   003.42 278.4 m E Pn      2011/07/15 03:29:57.8   2.5                          T   001.0                                4721243
TCF   003.85 273.8 m E Pn      2011/07/15 03:30:03.4   2.2                          T   001.0                                4721265
TCF   003.85 273.8 m E Sg      2011/07/15 03:31:03.3  -0.8                          T   001.0         .7  .19 Ml 2.2         4721266
CAF   004.18 254.8 m E Pn      2011/07/15 03:30:07.4   1.6                          T   001.0                                4721244
SMF   002.75 281.5 m E Sn      2011/07/15 03:30:17.0  -0.7                          T   001.0                                4721262
SMF   002.75 281.5 m E Sg      2011/07/15 03:30:30.1   0.4                          T   001.0        2.8  .17 Ml 2.6         4721263
SGMF  007.32 290.3 m E Pn      2011/07/15 03:30:50.2   1.7                          T   001.0                                4721277

.
EVENT     261451
    Date      Time       Latitude Longitude    Depth    Ndef Nsta Gap    Mag1  N    Mag2  N    Mag3  N   Author         ID
       rms   OT_Error      Smajor Sminor Az        Err   mdist  Mdist     Err        Err        Err      Quality

2011/07/15 09:28:42.6     37.8184   -1.6092     10.0 f    76    7 124  Ml 2.9  6  Md 3.0  3              js067245    261451

      0.98   +-  0.16       3.8    2.0  147.24 +-  0.0    0.29  10.58   +-0.2      +-0.1                 m i ke

SPAIN
Sta     Dist  EvAz     Phase      Date       Time     TRes  Azim  AzRes  Slow  SRes Def   SNR       Amp   Per   Mag1   Mag2       ID
ETSF  005.14 008.6 m E Pn      2011/07/15 09:29:58.4   0.8                          T                                        4721611
ETSF  005.14 008.6 m E Sn      2011/07/15 09:30:53.8   0.3                          T                1.9  .37 Ml 2.6 Md 3.1  4723766
ETSF  005.14 008.6 m E Sg      2011/07/15 09:31:21.9  -1.7                          T                4.4  .54 Ml 2.8         4725339
SJPF  005.30 003.0 m E Pn      2011/07/15 09:29:59.1  -0.6                          T                                        4721612
SJPF  005.30 003.0 m E Sn      2011/07/15 09:30:57.2   0.0                          T                2.8  .31 Ml 2.9 Md 3.0  4723767
SJPF  005.30 003.0 m E Sg      2011/07/15 09:31:27.5  -1.0                          T                3.7  .41 Ml 2.9         4725338
EPF   005.41 015.3 m E Pn      2011/07/15 09:30:02.5   1.2                          T                                        4721610
EPF   005.41 015.3 m E Sn      2011/07/15 09:31:02.6   2.6                          T                6.0  .39 Ml 3.2 Md 2.9  4723765
EPF   005.41 015.3 m E Sg      2011/07/15 09:31:29.8  -2.5                          T                5.7  .45 Ml 3.1         4725337
MTLF  006.24 026.6 m E Pn      2011/07/15 09:30:12.7   0.2                          T                                        4725335
CAF   007.62 020.1 m E Pn      2011/07/15 09:30:31.8   0.5                          T                                        4721609
RJF   007.84 016.4 m E Pn      2011/07/15 09:30:34.0  -0.2                          T                                        4725336
ROSF  010.58 353.9 m E Pn      2011/07/15 09:31:11.6   0.0                          T                                        4725334

.
EVENT     261452
    Date      Time       Latitude Longitude    Depth    Ndef Nsta Gap    Mag1  N    Mag2  N    Mag3  N   Author         ID
       rms   OT_Error      Smajor Sminor Az        Err   mdist  Mdist     Err        Err        Err      Quality

2011/07/15 17:31:11.8     45.4959    6.5800      2.0       6    3 218             Md 1.5  2              js067245    261452

      0.22   +-  0.33      14.9    1.8  152.49 +-  0.0    0.11   0.76              +-0.1                 m i ke

FRANCE
Sta     Dist  EvAz     Phase      Date       Time     TRes  Azim  AzRes  Slow  SRes Def   SNR       Amp   Per   Mag1   Mag2       ID
LPL   000.11 079.1 m E Pg      2011/07/15 17:31:14.2  -0.2                          T                                        4721617
LPL   000.11 079.1 m E Sg      2011/07/15 17:31:16.1   0.0                          T                4.8  .17        Md 1.5  4721614
LPG   000.12 089.1 m E Pg      2011/07/15 17:31:14.5  -0.2                          T                                        4721616
LPG   000.12 089.1 m E Sg      2011/07/15 17:31:16.5   0.0                          T                7.4  .22        Md 1.6  4721615
ORIF  000.76 220.8 m E Pg      2011/07/15 17:31:26.3   0.1                          T                                        4725340
ORIF  000.76 220.8 m E Sg      2011/07/15 17:31:35.6  -0.5                          T                1.6  .18                4721613

.
