BEGIN GSE2.0
MSG_TYPE DATA
MSG_ID 16-MAR-1215:54:46  FRA_NDC
E-MAIL
DATA_TYPE BULLETIN
Reviewed Bulletin (REB) # P2012-009  from French NDC for regional phases     PERIOD 29 FEB 2012 TO 06 MAR 2012 S M., J-P S
EVENT     270964
    Date      Time       Latitude Longitude    Depth    Ndef Nsta Gap    Mag1  N    Mag2  N    Mag3  N   Author         ID
       rms   OT_Error      Smajor Sminor Az        Err   mdist  Mdist     Err        Err        Err      Quality

2012/02/29 01:02:38.1     45.3156    5.8452      2.0      10    4 190  Ml 1.9  1  Md 2.0  2              js067245    270985

      1.12   +-  0.24       5.8    2.8  146.21 +-  0.0    0.40   0.95   +-         +-0.1                 m i ke

FRANCE
Sta     Dist  EvAz     Phase      Date       Time     TRes  Azim  AzRes  Slow  SRes Def   SNR       Amp   Per   Mag1   Mag2       ID
ORIF  000.40 176.4 m E Pg      2012/02/29 01:02:46.0   0.1                          T                                        4862867
ORIF  000.40 176.4 m E Sg      2012/02/29 01:02:50.9  -0.3                          T                9.4  .42        Md 1.9  4862864
LPL   000.66 071.9 m E Pg      2012/02/29 01:02:50.9   0.1                          T                                        4862863
LPL   000.66 071.9 m E Sg      2012/02/29 01:02:58.8  -0.7                          T                2.4  .53        Md 2.0  4862869
LPG   000.66 073.8 m E Pg      2012/02/29 01:02:51.6   0.5                          T                                        4862868
LPG   000.66 073.8 m E Sg      2012/02/29 01:02:58.1  -1.6                          T                1.8  .43                4862862
VIVF  000.95 241.5 m E Pg      2012/02/29 01:02:55.8  -0.2                          T                                        4862865
VIVF  000.95 241.5 m E Sg      2012/02/29 01:03:08.1  -0.2                          T                3.8  .32 Ml 1.9         4862866

.
EVENT     270965
    Date      Time       Latitude Longitude    Depth    Ndef Nsta Gap    Mag1  N    Mag2  N    Mag3  N   Author         ID
       rms   OT_Error      Smajor Sminor Az        Err   mdist  Mdist     Err        Err        Err      Quality

2012/02/29 01:57:06.9     47.0692    1.6011      3.0 f    39   13 110  Ml 2.1 13  Md 2.1  6              js067245    270986

      0.30   +-  0.07       1.2    1.1  121.70 +-  0.0    0.74   2.21   +-0.2      +-0.2                 m i ke

FRANCE
Sta     Dist  EvAz     Phase      Date       Time     TRes  Azim  AzRes  Slow  SRes Def   SNR       Amp   Per   Mag1   Mag2       ID
HYF   000.74 073.9 m E Pg      2012/02/29 01:57:21.0   0.2                          T                                        4862938
HYF   000.74 073.9 m E Sg      2012/02/29 01:57:30.3  -0.2                          T                                Md 2.0  4862934
TCF   000.89 151.6 m E Pg      2012/02/29 01:57:23.8   0.2                          T   001.0                                4854218
TCF   000.89 151.6 m E Pn      2012/02/29 01:57:24.6  -0.1                          T                                        4862929
TCF   000.89 151.6 m E P       2012/02/29 01:57:25.6   0.1                          T                                        4862926
TCF   000.89 151.6 m E Sg      2012/02/29 01:57:34.9  -0.3                          T   001.0        4.3  .24 Ml 2.1 Md 2.1  4854219
TCF   000.89 151.6 m E Sn      2012/02/29 01:57:37.1  -0.2                          T                                        4862930
BGF   001.00 120.4 m E Pg      2012/02/29 01:57:25.7   0.1                          T   001.0                                4854200
BGF   001.00 120.4 m E Pn      2012/02/29 01:57:26.2   0.0                          T                                        4862943
BGF   001.00 120.4 m E Sg      2012/02/29 01:57:38.8   0.3                          T   001.0       12.4  .26 Ml 2.5         4854201
BGF   001.00 120.4 m E Sn      2012/02/29 01:57:40.3   0.4                          T                                Md 2.0  4862940
AVF   001.23 102.4 m E Pn      2012/02/29 01:57:29.4   0.0                          T                                        4862932
AVF   001.23 102.4 m E Pg      2012/02/29 01:57:30.1   0.1                          T   001.0                                4854199
AVF   001.23 102.4 m E P       2012/02/29 01:57:31.1   0.1                          T                                        4862931
AVF   001.23 102.4 m E Sg      2012/02/29 01:57:46.1   0.2                          T                2.4  .16 Ml 2.1 Md 2.2  4862941
MFF   001.29 249.4 m E Pn      2012/02/29 01:57:29.5  -0.7                          T   001.0                                4854213
MFF   001.29 249.4 m E Sn      2012/02/29 01:57:46.5  -0.4                          T   001.0        3.4  .16 Ml 2.4 Md 2.4  4854214
SSF   001.30 089.6 m E Pg      2012/02/29 01:57:30.9  -0.4                          T   001.0                                4854217
SSF   001.30 089.6 m E Sg      2012/02/29 01:57:48.1   0.1                          T                2.4  .18 Ml 2.2 Md 2.1  4862947
LOR   001.55 081.8 m E Pn      2012/02/29 01:57:33.7  -0.1                          T   001.0                                4854210
LOR   001.55 081.8 m E Pg      2012/02/29 01:57:35.6  -0.3                          T                                        4862946
LOR   001.55 081.8 m E Sn      2012/02/29 01:57:53.3   0.0                          T   001.0                                4854211
LOR   001.55 081.8 m E Sg      2012/02/29 01:57:55.7  -0.2                          T   001.0        4.0  .22 Ml 2.3         4854212
SMF   001.59 104.6 m E Pn      2012/02/29 01:57:34.1  -0.3                          T                                        4862937
SMF   001.59 104.6 m E Pg      2012/02/29 01:57:36.6   0.0                          T   001.0                                4854215
SMF   001.59 104.6 m E Sn      2012/02/29 01:57:54.0  -0.3                          T                                        4862933
SMF   001.59 104.6 m E Sg      2012/02/29 01:57:57.4   0.1                          T   001.0        1.9  .18 Ml 2.1         4854216
RJF   001.77 181.9 m E Pg      2012/02/29 01:57:39.7  -0.1                          T                                        4862942
RJF   001.77 181.9 m E Sn      2012/02/29 01:57:58.4   0.0                          T   001.0        2.8  .20 Ml 2.0         4854198
RJF   001.77 181.9 m E Sg      2012/02/29 01:58:02.8   0.2                          T                                        4862936
LDF   001.92 323.4 m E Pn      2012/02/29 01:57:39.7   1.0                          T   001.0                                4854207
LDF   001.92 323.4 m E Pg      2012/02/29 01:57:42.7   0.1                          T                                        4862944
LDF   001.92 323.4 m E Sn      2012/02/29 01:58:02.6   0.7                          T   001.0        1.3  .27 Ml 1.8         4854208
CAF   002.17 171.3 m E Pn      2012/02/29 01:57:42.0  -0.1                          T                                        4862935
CAF   002.17 171.3 m E Pg      2012/02/29 01:57:46.9  -0.3                          T   001.0                                4854202
CAF   002.17 171.3 m E Sn      2012/02/29 01:58:08.0   0.1                          T                                        4862927
CAF   002.17 171.3 m E Sg      2012/02/29 01:58:15.0  -0.1                          T   001.0        1.1  .30 Ml 1.8         4854203
GRR   002.12 309.4 m E Sn      2012/02/29 01:58:07.3   0.5                          T   001.0         .9  .20 Ml 1.7         4854206
LFF   002.21 196.0 m E Sg      2012/02/29 01:58:16.8   0.3                          T   001.0        2.1  .31 Ml 1.9         4854209

.
