EVENT     259964
    Date      Time       Latitude Longitude    Depth    Ndef Nsta Gap    Mag1  N    Mag2  N    Mag3  N   Author         ID
       rms   OT_Error      Smajor Sminor Az        Err   mdist  Mdist     Err        Err        Err      Quality

2011/06/04 18:06:50.2     43.8738   12.1081      2.0     121   29 034  Ml 3.7 23                         js067245    259964

      1.22   +-  0.11       3.7    2.3    5.32 +-  0.0    0.19  17.19   +-0.3                            m i ke

CENTRAL ITALY
Sta     Dist  EvAz     Phase      Date       Time     TRes  Azim  AzRes  Slow  SRes Def   SNR       Amp   Per   Mag1   Mag2       ID
PGF   002.63 240.8 m E Pn      2011/06/04 18:07:31.8  -0.1                          T   001.0                                4701949
PGF   002.63 240.8 m E Sn      2011/06/04 18:08:01.9  -0.6                          T   001.0       42.3  .32 Ml 3.7         4701951
SBF   003.38 271.4 m E Pn      2011/06/04 18:07:41.3  -0.7                          T   001.0                                4701952
SBF   003.38 271.4 m E Sn      2011/06/04 18:08:19.1  -1.3                          T              197.1  .58 Ml 4.0         4704080
FRF   003.97 267.4 m E Pn      2011/06/04 18:07:49.6  -0.5                          T   001.0                                4701938
FRF   003.97 267.4 m E Sn      2011/06/04 18:08:32.5  -1.9                          T   001.0       43.2  .44 Ml 3.7         4701939
MBDF  003.92 284.4 m E Pn      2011/06/04 18:07:49.6   0.0                          T                                        4704081
MBDF  003.92 284.4 m E Sn      2011/06/04 18:08:33.8   0.2                          T   001.0       88.4  .56 Ml 3.8         4701965
LMR   004.10 264.4 m E Pn      2011/06/04 18:07:50.9  -0.9                          T   001.0                                4701944
LMR   004.10 264.4 m E Sn      2011/06/04 18:08:36.3  -1.2                          T               12.2  .23 Ml 3.4         4704079
LPG   004.15 294.9 m E Pn      2011/06/04 18:07:54.4   1.5                          T   001.0                                4701947
LPG   004.15 294.9 m E Sn      2011/06/04 18:08:38.9  -0.2                          T               38.8  .50 Ml 3.6         4704078
LPL   004.17 295.1 m E Pn      2011/06/04 18:07:54.7   1.7                          T   001.0                                4701948
LPL   004.17 295.1 m E Sn      2011/06/04 18:08:38.6  -0.9                          T               46.7  .50 Ml 3.7         4704077
ORIF  004.58 285.3 m E Pn      2011/06/04 18:07:59.9   1.4                          T   001.0                                4701968
ORIF  004.58 285.3 m E Sn      2011/06/04 18:08:48.6  -0.6                          T   001.0       39.6  .48 Ml 3.7         4701969
SMRF  004.72 273.5 m E Pn      2011/06/04 18:08:00.9   0.6                          T   001.0                                4701972
SMRF  004.72 273.5 m E Sn      2011/06/04 18:08:51.6  -0.8                          T   001.0       18.6  .44 Ml 3.4         4701973
CABF  005.06 304.9 m E Pn      2011/06/04 18:08:06.6   1.6                          T   001.0                                4701959
CABF  005.06 304.9 m E Sn      2011/06/04 18:09:00.8   0.4                          T   001.0                                4701960
CABF  005.06 304.9 m E Sg      2011/06/04 18:09:27.7  -0.9                          T   001.0       35.1  .72 Ml 3.6         4701961
VIVF  005.42 283.0 m E Pn      2011/06/04 18:08:09.9   0.1                          T   001.0                                4701970
VIVF  005.42 283.0 m E Sn      2011/06/04 18:09:10.2   1.1                          T   001.0        9.1  .52 Ml 3.2         4701971
HINF  005.39 318.9 m E Pn      2011/06/04 18:08:10.1   0.7                          T   001.0                                4701963
HINF  005.39 318.9 m E Sn      2011/06/04 18:09:09.2   0.9                          T   001.0       61.1  .60 Ml 4.0         4701964
CDF   005.64 325.2 m E Pn      2011/06/04 18:08:13.5   0.6                          T   001.0                                4701937
CDF   005.64 325.2 m E Sn      2011/06/04 18:09:14.7   0.2                          T               99.8  .58 Ml 4.4         4704075
HAU   005.76 317.8 m E Pn      2011/06/04 18:08:15.4   1.0                          T   001.0                                4701940
HAU   005.76 317.8 m E Sn      2011/06/04 18:09:19.2   1.9                          T   001.0      124.8  .48 Ml 4.2         4701941
LASF  005.96 274.8 m E Pn      2011/06/04 18:08:17.2   0.1                          T   001.0                                4701942
LASF  005.96 274.8 m E Sn      2011/06/04 18:09:20.7  -1.2                          T   001.0        6.9  .52 Ml 3.2         4701943
PAGF  006.44 318.8 m E Pn      2011/06/04 18:08:24.3   0.6 131.2  -3.0              T                                        4704085
SMF   006.46 298.3 m E Pn      2011/06/04 18:08:24.5   0.6                          T   001.0                                4701953
SMF   006.46 298.3 m E Sn      2011/06/04 18:09:35.7   1.8                          T   001.0       15.6  .40 Ml 3.8         4701954
SFTF  006.55 313.8 m E Pn      2011/06/04 18:08:25.9   0.7 129.0  0.2               T                                        4704084
LOR   006.71 303.3 m E Pn      2011/06/04 18:08:28.5   1.1 127.3  9.9               T   001.0                                4701945
LOR   006.71 303.3 m E Sn      2011/06/04 18:09:40.8   0.9                          T   001.0       54.8  .48 Ml 4.3         4701946
SSF   006.84 300.8 m E Pn      2011/06/04 18:08:29.8   0.7                          T   001.0                                4701955
SSF   006.84 300.8 m E Sn      2011/06/04 18:09:42.3  -0.6                          T   001.0       15.4  .48 Ml 3.8         4701956
AVF   006.83 298.3 m E Pn      2011/06/04 18:08:30.3   1.4                          T   001.0                                4701932
AVF   006.83 298.3 m E Sn      2011/06/04 18:09:42.8   0.2                          T   001.0        7.3  .48 Ml 3.4         4701933
BGF   007.07 295.5 m E Pn      2011/06/04 18:08:32.7   0.5                          T   001.0                                4701934
BGF   007.07 295.5 m E Sn      2011/06/04 18:09:48.7   0.2                          T               16.3  .36 Ml 3.9         4704076
MTLF  007.20 269.2 m E Pn      2011/06/04 18:08:34.5   0.5                          T   001.0                                4701967
CAF   007.27 281.8 m E Pn      2011/06/04 18:08:36.0   1.0                          T   001.0                                4701935
CAF   007.27 281.8 m E Sg      2011/06/04 18:10:35.9  -1.8                          T   001.0        1.9  .36 Ml 3.0         4701936
TCF   007.41 292.5 m E Pn      2011/06/04 18:08:38.4   1.5                          T   001.0                                4701957
TCF   007.41 292.5 m E Sn      2011/06/04 18:09:58.3   1.6                          T   001.0        9.2  .44 Ml 3.7         4701958
RJF   007.70 284.4 m E Pn      2011/06/04 18:08:41.9   1.1                          T   001.0                                4701931
EPF   008.60 268.4 m E Pn      2011/06/04 18:08:53.8   0.6                          T                                        4704082
ETSF  009.28 268.3 m E Pn      2011/06/04 18:09:03.4   1.0                          T   001.0                                4701962
MEZF  006.74 315.9 m E Sn      2011/06/04 18:09:40.8   0.3                          T   001.0       19.9  .48 Ml 3.8         4701966

.
EVENT     259965
    Date      Time       Latitude Longitude    Depth    Ndef Nsta Gap    Mag1  N    Mag2  N    Mag3  N   Author         ID
       rms   OT_Error      Smajor Sminor Az        Err   mdist  Mdist     Err        Err        Err      Quality

2011/06/04 18:24:25.2     43.8416   11.9226      2.0      21   12 273  Ml 2.7  8                         js067245    259965

      0.48   +-  0.41       8.2    3.8  107.97 +-  0.0    0.08   7.07   +-0.3                            m i ke

CENTRAL ITALY
Sta     Dist  EvAz     Phase      Date       Time     TRes  Azim  AzRes  Slow  SRes Def   SNR       Amp   Per   Mag1   Mag2       ID
PGF   002.50 239.8 m E Pn      2011/06/04 18:25:05.4   0.2                          T                                        4704094
PGF   002.50 239.8 m E Sn      2011/06/04 18:25:35.4   1.0                          T                3.2  .36 Ml 2.5         4704093
SBF   003.25 271.9 m E Pn      2011/06/04 18:25:14.1  -1.2                          T                                        4704095
SBF   003.25 271.9 m E Sn      2011/06/04 18:25:52.2  -0.1                          T                9.4  .36 Ml 2.9         4704092
FRF   003.84 267.6 m E Pn      2011/06/04 18:25:22.6  -0.6                          T                                        4704096
FRF   003.84 267.6 m E Sn      2011/06/04 18:26:06.4   0.1                          T                1.5  .26 Ml 2.4         4704091
LPG   004.04 296.0 m E Pn      2011/06/04 18:25:28.0   1.5                          T                                        4704097
LPG   004.04 296.0 m E Sn      2011/06/04 18:26:11.9   0.3                          T                  1  .23 Ml 2.3         4704089
LPL   004.06 296.1 m E Pn      2011/06/04 18:25:28.5   1.8                          T                                        4704098
CABF  004.97 305.9 m E Pn      2011/06/04 18:25:39.6   0.8                          T                                        4704100
HINF  005.32 320.1 m E Pn      2011/06/04 18:25:43.7   0.1                          T                                        4704101
HINF  005.32 320.1 m E Sn      2011/06/04 18:26:41.7  -0.2                          T                6.2  .44 Ml 3.1         4704088
CDF   005.60 326.4 m E Pn      2011/06/04 18:25:47.0  -0.4                          T                                        4704104
CDF   005.60 326.4 m E Sn      2011/06/04 18:26:48.4  -0.1                          T                2.7  .36 Ml 3.0         4704086
HAU   005.70 318.9 m E Pn      2011/06/04 18:25:49.0   0.3                          T                                        4704102
HAU   005.70 318.9 m E Sn      2011/06/04 18:26:51.1   0.3                          T                4.5  .29 Ml 3.0         4704087
LOR   006.62 304.0 m E Pn      2011/06/04 18:26:01.0  -0.2                          T                                        4704103
MTLF  007.07 269.3 m E Pn      2011/06/04 18:26:07.4   0.2                          T                                        4704099
LMR   003.97 264.5 m E Sn      2011/06/04 18:26:09.0  -0.3                          T                1.3  .28 Ml 2.3         4704090

.
EVENT     259966
    Date      Time       Latitude Longitude    Depth    Ndef Nsta Gap    Mag1  N    Mag2  N    Mag3  N   Author         ID
       rms   OT_Error      Smajor Sminor Az        Err   mdist  Mdist     Err        Err        Err      Quality

2011/06/04 19:20:28.4     43.8370   11.9442      2.0      22   15 273  Ml 3.0  9                         js067245    259966

      0.62   +-  0.66      13.6    6.5  112.06 +-  0.0    2.51   7.08   +-0.3                            m i ke

CENTRAL ITALY
Sta     Dist  EvAz     Phase      Date       Time     TRes  Azim  AzRes  Slow  SRes Def   SNR       Amp   Per   Mag1   Mag2       ID
SBF   003.26 272.0 m E Pn      2011/06/04 19:21:17.9  -0.8                          T                                        4704118
SBF   003.26 272.0 m E Sn      2011/06/04 19:21:55.7  -0.1                          T               14.5  .41 Ml 3.0         4704117
FRF   003.85 267.7 m E Pn      2011/06/04 19:21:26.2  -0.5                          T                                        4704120
FRF   003.85 267.7 m E Sn      2011/06/04 19:22:10.2   0.4                          T                3.1  .33 Ml 2.6         4704114
LMR   003.98 264.6 m E Pn      2011/06/04 19:21:27.7  -0.7                          T                                        4704119
LMR   003.98 264.6 m E Sn      2011/06/04 19:22:12.7  -0.2                          T                1.5  .27 Ml 2.4         4704115
LPL   004.08 296.1 m E Pn      2011/06/04 19:21:31.9   1.9                          T                                        4704122
SMRF  004.60 273.9 m E Pn      2011/06/04 19:21:37.4   0.5                          T                                        4704121
PGF   002.51 240.1 m E Sn      2011/06/04 19:21:39.6   1.7                          T                4.6  .35 Ml 2.7         4704116
CABF  004.98 305.9 m E Pn      2011/06/04 19:21:42.7   0.5                          T                                        4704126
VIVF  005.31 283.6 m E Pn      2011/06/04 19:21:46.2  -0.5                          T                                        4704123
HINF  005.34 320.0 m E Pn      2011/06/04 19:21:47.1   0.1                          T                                        4704127
HINF  005.34 320.0 m E Sn      2011/06/04 19:22:44.6  -0.9                          T                9.8  .42 Ml 3.3         4704112
CDF   005.61 326.3 m E Pn      2011/06/04 19:21:50.6  -0.1                          T                                        4704129
CDF   005.61 326.3 m E Sn      2011/06/04 19:22:51.4  -0.6                          T                3.9  .27 Ml 3.3         4704110
HAU   005.71 318.8 m E Pn      2011/06/04 19:21:52.1   0.1                          T                                        4704128
HAU   005.71 318.8 m E Sn      2011/06/04 19:22:53.6  -0.7                          T                8.0  .30 Ml 3.2         4704111
SMF   006.37 299.0 m E Pn      2011/06/04 19:22:02.2   1.1                          T                                        4704125
LOR   006.63 304.0 m E Pn      2011/06/04 19:22:04.8   0.2                          T                                        4704130
LOR   006.63 304.0 m E Sn      2011/06/04 19:23:17.0   0.7                          T                6.6  .47 Ml 3.3         4704109
MTLF  007.08 269.3 m E Pn      2011/06/04 19:22:10.8   0.1                          T                                        4704124
MBDF  003.82 285.3 m E Sn      2011/06/04 19:22:12.1   2.8                          T               11.2  .46 Ml 3.0         4704113

.
EVENT     259967
    Date      Time       Latitude Longitude    Depth    Ndef Nsta Gap    Mag1  N    Mag2  N    Mag3  N   Author         ID
       rms   OT_Error      Smajor Sminor Az        Err   mdist  Mdist     Err        Err        Err      Quality

2011/06/04 19:43:52.4     42.9229     .3626      5.0       6    4 196  Ml 0.9  2  Md 1.1  2              js067245    259967

      0.21   +-  0.46      14.0    3.2  149.60 +-  4.4    0.11   1.42   +-0.5      +-0.1                 m i ke

PYRENEES
Sta     Dist  EvAz     Phase      Date       Time     TRes  Azim  AzRes  Slow  SRes Def   SNR       Amp   Per   Mag1   Mag2       ID
EPF   000.11 351.2 m E Pg      2011/06/04 19:43:54.8  -0.2                          T                                        4704135
EPF   000.11 351.2 m E Sg      2011/06/04 19:43:57.2   0.4                          T               20.6  .20        Md 1.1  4704136
ETSF  000.68 268.3 m E Pg      2011/06/04 19:44:05.5   0.2                          T                                        4704133
ETSF  000.68 268.3 m E Sg      2011/06/04 19:44:13.9  -0.3                          T                1.1  .25        Md 1.2  4704134
SJPF  001.18 279.8 m E Sg      2011/06/04 19:44:29.7  -0.1                          T                 .1  .16 Ml  .6         4704132
MTLF  001.42 072.3 m E Sn      2011/06/04 19:44:35.2   0.0                          T                 .4  .22 Ml 1.3         4704131

.
