EVENT     275827
    Date      Time       Latitude Longitude    Depth    Ndef Nsta Gap    Mag1  N    Mag2  N    Mag3  N   Author         ID
       rms   OT_Error      Smajor Sminor Az        Err   mdist  Mdist     Err        Err        Err      Quality

2012/05/10 13:37:04.8     47.3337    6.1019       .0 f     8    4 174  Ml 2.6  1  Md 1.9  3              bulletin    275927
                                                                                                         _ldg
      0.28   +-  0.14       5.6    2.0   97.72 +-  0.0    0.69   0.90   +-         +-0.1                 m i km

FRANCE
Sta     Dist  EvAz     Phase      Date       Time     TRes  Azim  AzRes  Slow  SRes Def   SNR       Amp   Per   Mag1   Mag2       ID
HAU   000.69 013.8 m E Pg      2012/05/10 13:37:18.0  -0.2                          T                                        4942689
HAU   000.69 013.8 m E Sg      2012/05/10 13:37:28.0   0.6                          T                5.6  .24        Md 2.0  4942688
HINF  000.70 046.2 m E Pg      2012/05/10 13:37:18.1  -0.3                          T                                        4942686
HINF  000.70 046.2 m E Sg      2012/05/10 13:37:28.4   0.6                          T                1.6  .16        Md 1.9  4942687
CABF  000.72 180.8 m E Pg      2012/05/10 13:37:19.0   0.1                          T                                        4942685
CABF  000.72 180.8 m E Sg      2012/05/10 13:37:28.4  -0.1                          T                2.9  .22        Md 1.8  4942684
THEF  000.90 355.4 m E Pg      2012/05/10 13:37:22.0   0.1                          T                                        4942720
THEF  000.90 355.4 m E Sg      2012/05/10 13:37:33.8   0.0                          T               44.1  .72 Ml 2.6         4942719

.
EVENT     275828
    Date      Time       Latitude Longitude    Depth    Ndef Nsta Gap    Mag1  N    Mag2  N    Mag3  N   Author         ID
       rms   OT_Error      Smajor Sminor Az        Err   mdist  Mdist     Err        Err        Err      Quality

2012/05/10 13:52:37.4     47.5313    8.1919       .0 f     6    3 322  Ml 1.9  3                         bulletin    275928
                                                                                                         _ldg
      0.06   +-  0.12       2.0    1.6  136.21 +-  0.0    0.95   1.33   +-0.2                            m i km

SWITZERLAND
Sta     Dist  EvAz     Phase      Date       Time     TRes  Azim  AzRes  Slow  SRes Def   SNR       Amp   Per   Mag1   Mag2       ID
HINF  000.95 288.0 m E Pg      2012/05/10 13:52:55.6   0.0                          T                                        4942707
HINF  000.95 288.0 m E Sg      2012/05/10 13:53:08.2   0.1                          T                2.6  .18 Ml 2.0         4942708
CDF   001.08 325.4 m E Pg      2012/05/10 13:52:57.9   0.0                          T                                        4942706
CDF   001.08 325.4 m E Sg      2012/05/10 13:53:12.1   0.0                          T                2.4  .18 Ml 2.1         4942705
HAU   001.33 291.6 m E Pg      2012/05/10 13:53:02.5   0.0                          T                                        4942710
HAU   001.33 291.6 m E Sg      2012/05/10 13:53:19.9  -0.1                          T                2.0  .25 Ml 1.7         4942709

.
EVENT     275829
    Date      Time       Latitude Longitude    Depth    Ndef Nsta Gap    Mag1  N    Mag2  N    Mag3  N   Author         ID
       rms   OT_Error      Smajor Sminor Az        Err   mdist  Mdist     Err        Err        Err      Quality

2012/05/10 13:53:36.3     47.5305    8.1932       .0 f     6    3 322  Ml 2.3  2  Md 1.8  1              bulletin    275929
                                                                                                         _ldg
      0.03   +-  0.06       1.1     .8  136.26 +-  0.0    0.95   1.33   +-0.2      +-                    m i km

SWITZERLAND
Sta     Dist  EvAz     Phase      Date       Time     TRes  Azim  AzRes  Slow  SRes Def   SNR       Amp   Per   Mag1   Mag2       ID
HINF  000.95 288.0 m E Pg      2012/05/10 13:53:54.4   0.0                          T                                        4942716
HINF  000.95 288.0 m E Sg      2012/05/10 13:54:07.0   0.0                          T               12.9  .50 Ml 2.2         4942715
CDF   001.08 325.4 m E Pg      2012/05/10 13:53:56.8   0.0                          T                                        4942713
CDF   001.08 325.4 m E Sg      2012/05/10 13:54:11.0   0.0                          T               10.8  .37 Ml 2.4         4942714
HAU   001.33 291.6 m E Pg      2012/05/10 13:54:01.4   0.0                          T                                        4942712
HAU   001.33 291.6 m E Sg      2012/05/10 13:54:18.8  -0.1                          T                                Md 1.8  4942711

.
EVENT     275831
    Date      Time       Latitude Longitude    Depth    Ndef Nsta Gap    Mag1  N    Mag2  N    Mag3  N   Author         ID
       rms   OT_Error      Smajor Sminor Az        Err   mdist  Mdist     Err        Err        Err      Quality

2012/05/10 18:55:42.2     44.4963    6.7160      2.0      88   24 039  Ml 2.4 21  Md 2.7  2              bulletin    275931
                                                                                                         _ldg
      0.78   +-  0.08       1.7    1.4   65.38 +-  0.0    0.07   4.17   +-0.4      +-0.2                 m i ke

FRANCE
Sta     Dist  EvAz     Phase      Date       Time     TRes  Azim  AzRes  Slow  SRes Def   SNR       Amp   Per   Mag1   Mag2       ID
MBDF  000.23 009.7 m E Pg      2012/05/10 18:55:47.1   0.0                          T                                        4942759
MBDF  000.23 009.7 m E Sg      2012/05/10 18:55:50.9   0.6                          T              228.9  .34        Md 2.8  4942760
SBF   000.82 140.5 m E Pg      2012/05/10 18:55:57.4  -0.3                          T                                        4942747
SBF   000.82 140.5 m E Sg      2012/05/10 18:56:07.9  -0.5                          T               44.5  .22        Md 2.5  4942748
FRF   000.94 183.1 m E Pg      2012/05/10 18:55:59.6  -0.3                          T                                        4942751
FRF   000.94 183.1 m E Sg      2012/05/10 18:56:12.1   0.1                          T               32.3  .20 Ml 3.0         4942752
SMRF  000.97 238.0 m E Pg      2012/05/10 18:56:01.0   0.5                          T                                        4942754
SMRF  000.97 238.0 m E Sg      2012/05/10 18:56:13.9   0.8                          T               42.0  .34 Ml 2.9         4942753
LPG   001.00 001.4 m E Pg      2012/05/10 18:56:01.1  -0.3                          T                                        4942755
LPG   001.00 001.4 m E Sg      2012/05/10 18:56:13.4  -1.0                          T                8.0  .17 Ml 2.5         4942756
LPL   001.02 000.6 m E Pg      2012/05/10 18:56:01.4  -0.2                          T                                        4942758
LPL   001.02 000.6 m E Sg      2012/05/10 18:56:14.5  -0.4                          T               15.6  .26 Ml 2.6         4942757
LMR   001.17 187.4 m E Pg      2012/05/10 18:56:04.3   0.1                          T                                        4942750
LMR   001.17 187.4 m E Sg      2012/05/10 18:56:19.6   0.2                          T               30.3  .26 Ml 3.0         4942749
VIVF  001.50 284.6 m E P       2012/05/10 18:56:09.1  -1.3                          T                                        4942762
VIVF  001.50 284.6 m E Sg      2012/05/10 18:56:29.2  -0.5                          T               12.7  .36 Ml 2.6         4942761
LASF  002.10 259.4 m E P       2012/05/10 18:56:16.9  -2.0                          T                                        4942764
LASF  002.10 259.4 m E Sn      2012/05/10 18:56:41.7   0.0                          T                4.1  .32 Ml 2.3         4942763
CABF  002.16 348.4 m E P       2012/05/10 18:56:18.0  -1.9                          T                                        4943568
CABF  002.16 348.4 m E Sn      2012/05/10 18:56:43.8   0.4                          T                1.5  .24 Ml 2.0         4943569
PGF   002.56 138.7 m E Pn      2012/05/10 18:56:23.1   0.1                          T                                        4942746
PGF   002.56 138.7 m E Sn      2012/05/10 18:56:52.4  -0.5                          T                5.0  .24 Ml 2.9         4942745
SMF   002.95 317.8 m E P       2012/05/10 18:56:28.9  -2.2                          T                                        4943572
SMF   002.95 317.8 m E Pg      2012/05/10 18:56:37.4   0.4                          T                                        4943571
SMF   002.95 317.8 m E Sn      2012/05/10 18:57:02.7   0.6                          T                                        4943570
SMF   002.95 317.8 m E Sg      2012/05/10 18:57:14.8   0.0                          T                1.9  .19 Ml 2.4         4943573
HINF  003.32 001.6 m E P       2012/05/10 18:56:33.7  -2.8                          T                                        4943567
HINF  003.32 001.6 m E Sn      2012/05/10 18:57:11.5   0.4                          T                 .7  .18 Ml 2.1         4943566
CAF   003.34 279.0 m E P       2012/05/10 18:56:34.2  -2.5                          T                                        4943580
CAF   003.34 279.0 m E Sn      2012/05/10 18:57:12.2   0.6                          T                 .7  .25 Ml 2.0         4943579
BGF   003.41 308.5 m E P       2012/05/10 18:56:35.4  -2.3                          T                                        4943575
BGF   003.41 308.5 m E Sn      2012/05/10 18:57:13.8   0.6                          T                                        4943574
BGF   003.41 308.5 m E Sg      2012/05/10 18:57:30.2   1.0                          T                6.5  .33 Ml 2.8         4943576
SSF   003.41 319.9 m E P       2012/05/10 18:56:35.5  -2.2                          T                                        4943911
SSF   003.41 319.9 m E Sg      2012/05/10 18:57:29.6   0.4                          T                1.5  .24 Ml 2.4         4943910
MTLF  003.45 252.0 m E P       2012/05/10 18:56:35.6  -2.6                          T                                        4943581
MTLF  003.45 252.0 m E Sn      2012/05/10 18:57:14.3   0.3                          T                 .9  .22 Ml 2.1         4943582
LOR   003.42 325.3 m E P       2012/05/10 18:56:35.7  -2.0                          T                                        4943909
LOR   003.42 325.3 m E Sg      2012/05/10 18:57:29.2  -0.1                          T                1.1  .22 Ml 2.2         4943908
HAU   003.52 356.0 m E P       2012/05/10 18:56:37.5  -1.7                          T                                        4943565
HAU   003.52 356.0 m E Sn      2012/05/10 18:57:16.4   0.6                          T                3.9  .29 Ml 2.5         4943564
TCF   003.65 301.0 m E P       2012/05/10 18:56:39.4  -1.6                          T                                        4943907
RJF   003.78 284.2 m E P       2012/05/10 18:56:39.8  -3.1                          T                                        4943578
RJF   003.78 284.2 m E Sn      2012/05/10 18:57:22.7   0.7                          T                 .4  .20 Ml 1.6         4943577
CDF   003.94 005.4 m E P       2012/05/10 18:56:43.0  -2.2                          T                                        4943913
CDF   003.94 005.4 m E Sn      2012/05/10 18:57:26.8   1.0                          T                 .8  .23 Ml 2.3         4943912
PAGF  004.12 350.8 m E P       2012/05/10 18:56:44.4  -3.3                          T                                        4943914
MEZF  004.17 344.6 m E P       2012/05/10 18:56:45.2  -3.2                          T                                        4943916
MEZF  004.17 344.6 m E Sn      2012/05/10 18:57:30.0  -1.2                          T                1.9  .28 Ml 2.5         4943915

.
EVENT     275832
    Date      Time       Latitude Longitude    Depth    Ndef Nsta Gap    Mag1  N    Mag2  N    Mag3  N   Author         ID
       rms   OT_Error      Smajor Sminor Az        Err   mdist  Mdist     Err        Err        Err      Quality

2012/05/10 22:23:55.8     44.4307    7.2937     15.0 f    45    7 084  Ml 1.7  4  Md 1.8  1              bulletin    275932
                                                                                                         _ldg
      0.35   +-  0.05       1.2     .8   55.52 +-  0.0    0.08   1.39   +-0.2      +-                    m i ke

NORTHERN ITALY
Sta     Dist  EvAz     Phase      Date       Time     TRes  Azim  AzRes  Slow  SRes Def   SNR       Amp   Per   Mag1   Mag2       ID
MBDF  000.48 308.6 m E Pg      2012/05/10 22:24:05.4  -0.1                          T                                Md 1.8  4942792
MBDF  000.48 308.6 m E Sg      2012/05/10 22:24:11.2  -0.8                          T                                        4942800
SBF   000.58 169.8 m E Pg      2012/05/10 22:24:07.1   0.0                          T                                        4942787
SBF   000.58 169.8 m E Sg      2012/05/10 22:24:14.3  -0.6                          T                                        4942797
FRF   000.99 208.5 m E Pg      2012/05/10 22:24:14.5   0.0                          T                                        4942791
FRF   000.99 208.5 m E Sg      2012/05/10 22:24:27.0  -0.5                          T                                        4942793
LPG   001.13 340.4 m E Pg      2012/05/10 22:24:17.7   0.2                          T                                        4942788
LPG   001.13 340.4 m E Sg      2012/05/10 22:24:32.6   0.3                          T                1.3  .24 Ml 1.6         4942795
LPL   001.16 340.0 m E Pg      2012/05/10 22:24:18.2   0.3                          T                                        4942794
LPL   001.16 340.0 m E Sg      2012/05/10 22:24:33.4   0.4                          T                1.1  .22 Ml 1.6         4942796
LMR   001.23 207.6 m E Pg      2012/05/10 22:24:18.9  -0.1                          T                                        4942790
LMR   001.23 207.6 m E Sg      2012/05/10 22:24:34.3  -0.8                          T                1.8  .19 Ml 1.9         4942798
SMRF  001.32 250.4 m E Pg      2012/05/10 22:24:21.2   0.6                          T                                        4942789
SMRF  001.32 250.4 m E Sg      2012/05/10 22:24:38.8   1.1                          T                1.8  .29 Ml 1.7         4942799

.
EVENT     276028
    Date      Time       Latitude Longitude    Depth    Ndef Nsta Gap    Mag1  N    Mag2  N    Mag3  N   Author         ID
       rms   OT_Error      Smajor Sminor Az        Err   mdist  Mdist     Err        Err        Err      Quality

2012/05/11 00:56:59.7     42.1767    2.4396     10.0 f    16    3 054  Ml 1.4  3                         bulletin    276128
                                                                                                         _ldg
      0.25   +-  0.05       1.0     .8    3.79 +-  0.0    0.19   2.16   +-0.1                            m i ke

PYRENEES
Sta     Dist  EvAz     Phase      Date       Time     TRes  Azim  AzRes  Slow  SRes Def   SNR       Amp   Per   Mag1   Mag2       ID
MTLF  001.18 352.1 m E Pg      2012/05/11 00:57:21.6  -0.1                          T                                        4946034
MTLF  001.18 352.1 m E Sg      2012/05/11 00:57:37.0   0.1                          T                 .6  .21 Ml 1.3         4946035
EPF   001.77 299.5 m E Pg      2012/05/11 00:57:32.4  -0.3                          T                                        4946032
EPF   001.77 299.5 m E Sg      2012/05/11 00:57:55.8   0.3                          T                 .6  .27 Ml 1.5         4946033
LASF  002.16 028.2 m E Sg      2012/05/11 00:58:07.5  -0.3                          T                 .5  .27 Ml 1.5         4946031

.
EVENT     275837
    Date      Time       Latitude Longitude    Depth    Ndef Nsta Gap    Mag1  N    Mag2  N    Mag3  N   Author         ID
       rms   OT_Error      Smajor Sminor Az        Err   mdist  Mdist     Err        Err        Err      Quality

2012/05/11 01:33:51.5     40.9728   -2.8072      2.0      36    3 095  Ml 1.9  3                         bulletin    275937
                                                                                                         _ldg
      0.54   +-  0.09       2.3    1.4  120.87 +-  0.0    0.59   3.17   +-0.1                            m i ke

SPAIN
Sta     Dist  EvAz     Phase      Date       Time     TRes  Azim  AzRes  Slow  SRes Def   SNR       Amp   Per   Mag1   Mag2       ID
SJPF  002.44 028.3 m E Pn      2012/05/11 01:34:30.6   0.0                          T                                        4946042
SJPF  002.44 028.3 m E Pg      2012/05/11 01:34:36.9   0.0                          T                                        4946041
SJPF  002.44 028.3 m E Sn      2012/05/11 01:34:59.0  -0.2                          T                                        4946044
SJPF  002.44 028.3 m E Sg      2012/05/11 01:35:08.3   0.0                          T                 .6  .23 Ml 1.7         4946043
ETSF  002.55 040.3 m E Pg      2012/05/11 01:34:38.8  -0.2                          T                                        4946036
ETSF  002.55 040.3 m E Sg      2012/05/11 01:35:12.1   0.3                          T                1.1  .25 Ml 2.0         4946040
EPF   003.12 047.7 m E Pg      2012/05/11 01:34:49.2  -0.1                          T                                        4946037
EPF   003.12 047.7 m E Sn      2012/05/11 01:35:15.5   0.1                          T                                        4946039
EPF   003.12 047.7 m E Sg      2012/05/11 01:35:29.9   0.5                          T                 .7  .21 Ml 2.0         4946038

.
