EVENT     264032
    Date      Time       Latitude Longitude    Depth    Ndef Nsta Gap    Mag1  N    Mag2  N    Mag3  N   Author         ID
       rms   OT_Error      Smajor Sminor Az        Err   mdist  Mdist     Err        Err        Err      Quality

2011/09/17 12:27:58.0     44.6598   10.3463     10.0 f   143   23 020  Ml 3.4 17                         js067245    264052

      1.19   +-  0.10       3.0    2.4   45.84 +-  0.0    0.11   7.37   +-0.2                            m i ke

NORTHERN ITALY
Sta     Dist  EvAz     Phase      Date       Time     TRes  Azim  AzRes  Slow  SRes Def   SNR       Amp   Per   Mag1   Mag2       ID
PTF   000.87 143.2 m E Pg      2011/09/17 12:28:14.2  -0.2                          T                                        4753480
SBF   002.24 250.2 m E Pn      2011/09/17 12:28:33.5   0.1                          T   001.0                                4753626
SBF   002.24 250.2 m E Pg      2011/09/17 12:28:38.4  -1.2                          T                                        4757872
SBF   002.24 250.2 m E Sn      2011/09/17 12:28:59.5   0.1                          T   001.0      211.9  .56 Ml 3.8         4753627
PGF   002.33 205.3 m E Pn      2011/09/17 12:28:34.2  -0.5                          T   001.0                                4753625
MBDF  002.55 272.8 m E Pn      2011/09/17 12:28:37.8   0.0                          T   001.0                                4753635
MBDF  002.55 272.8 m E P       2011/09/17 12:28:40.3  -0.2                          T                                        4757873
LPG   002.68 289.5 m E Pn      2011/09/17 12:28:39.9   0.2                          T   001.0                                4753620
LPG   002.68 289.5 m E Sn      2011/09/17 12:29:09.5  -0.8                          T   001.0       17.5  .30 Ml 3.1         4753621
LPG   002.68 289.5 m E Sg      2011/09/17 12:29:21.6  -0.9                          T   001.0       50.3  .56 Ml 3.3         4753622
LPL   002.70 289.8 m E Pn      2011/09/17 12:28:40.0   0.1                          T   001.0                                4753623
LPL   002.70 289.8 m E Pg      2011/09/17 12:28:47.1  -1.2                          T                                        4757874
LPL   002.70 289.8 m E Sg      2011/09/17 12:29:21.1  -1.9                          T   001.0         59  .48 Ml 3.4         4753624
FRF   002.88 248.9 m E Pn      2011/09/17 12:28:41.7  -0.4                          T   001.0                                4753612
FRF   002.88 248.9 m E Sn      2011/09/17 12:29:15.0   0.3                          T   001.0       44.2  .52 Ml 3.4         4753613
LMR   003.07 245.8 m E Pn      2011/09/17 12:28:44.0  -0.6                          T   001.0                                4753616
LMR   003.07 245.8 m E Sn      2011/09/17 12:29:19.4   0.2                          T   001.0       34.4  .37 Ml 3.4         4753617
ORIF  003.19 276.2 m E Pn      2011/09/17 12:28:48.0   1.6                          T   001.0                                4753638
ORIF  003.19 276.2 m E Sn      2011/09/17 12:29:25.1   2.9                          T   001.0       58.3  .56 Ml 3.5         4753639
SMRF  003.49 260.4 m E Pn      2011/09/17 12:28:51.5   1.1                          T   001.0                                4753642
CABF  003.57 304.7 m E Pn      2011/09/17 12:28:52.5   0.9                          T   001.0                                4753633
HINF  003.98 323.7 m E Pn      2011/09/17 12:28:57.3   0.1                          T   001.0                                4753634
HINF  003.98 323.7 m E Sn      2011/09/17 12:29:41.3   0.3                          T               15.4  .31 Ml 3.3         4757870
VIVF  004.05 274.8 m E Pn      2011/09/17 12:28:59.0   1.1                          T   001.0                                4753640
VIVF  004.05 274.8 m E Sn      2011/09/17 12:29:45.3   2.7                          T   001.0        7.3  .40 Ml 2.9         4753641
CDF   004.31 331.7 m E Pn      2011/09/17 12:29:01.3  -0.4                          T   001.0                                4753610
CDF   004.31 331.7 m E Sn      2011/09/17 12:29:49.2   0.3                          T               17.4  .35 Ml 3.5         4757869
CDF   004.31 331.7 m E Sg      2011/09/17 12:30:15.7   2.6                          T   001.0       23.9  .56 Ml 3.5         4753611
HAU   004.34 321.8 m E Pn      2011/09/17 12:29:02.5   0.4                          T   001.0                                4753614
HAU   004.34 321.8 m E Sn      2011/09/17 12:29:49.1  -0.6                          T   001.0       21.0  .34 Ml 3.3         4753615
LASF  004.69 265.1 m E Pn      2011/09/17 12:29:07.5   0.8                          T                                        4757875
LASF  004.69 265.1 m E Sn      2011/09/17 12:29:59.2   1.2                          T                                        4757871
SMF   004.97 295.8 m E Pn      2011/09/17 12:29:11.5   0.9                          T   001.0                                4753628
LOR   005.22 302.3 m E Pn      2011/09/17 12:29:14.7   0.7                          T   001.0                                4753618
LOR   005.22 302.3 m E Sn      2011/09/17 12:30:13.0   2.4                          T   001.0       21.1  .37 Ml 3.7         4753619
AVF   005.34 296.0 m E Pn      2011/09/17 12:29:15.5  -0.1                          T   001.0                                4753607
SSF   005.35 299.1 m E Pn      2011/09/17 12:29:16.0   0.3                          T   001.0                                4753629
SSF   005.35 299.1 m E Sn      2011/09/17 12:30:14.8   1.2                          T   001.0        4.8  .30 Ml 3.2         4753630
BGF   005.59 292.5 m E Pn      2011/09/17 12:29:19.5   0.5                          T   001.0                                4753608
BGF   005.59 292.5 m E Sn      2011/09/17 12:30:22.8   3.2                          T   001.0       15.6  .36 Ml 3.6         4753609
TCF   005.95 288.7 m E Pn      2011/09/17 12:29:26.1   2.2                          T   001.0                                4753631
TCF   005.95 288.7 m E Sn      2011/09/17 12:30:30.3   2.2                          T   001.0        6.7  .51 Ml 3.2         4753632
MTLF  006.01 260.2 m E Pn      2011/09/17 12:29:26.6   1.9                          T   001.0                                4753636
MTLF  006.01 260.2 m E Sn      2011/09/17 12:30:29.3  -0.2                          T   001.0        4.2  .56 Ml 3.0         4753637

.
EVENT     264034
    Date      Time       Latitude Longitude    Depth    Ndef Nsta Gap    Mag1  N    Mag2  N    Mag3  N   Author         ID
       rms   OT_Error      Smajor Sminor Az        Err   mdist  Mdist     Err        Err        Err      Quality

2011/09/17 13:02:15.6     44.6220   10.3075     10.0 f   114   25 036  Ml 3.3 20                         js067245    264054

      1.14   +-  0.11       3.4    2.4   39.05 +-  0.0    0.14   6.28   +-0.3                            m i ke

NORTHERN ITALY
Sta     Dist  EvAz     Phase      Date       Time     TRes  Azim  AzRes  Slow  SRes Def   SNR       Amp   Per   Mag1   Mag2       ID
PTF   000.86 140.2 m E Pg      2011/09/17 13:02:31.4  -0.5                          T                                        4753660
SBF   002.20 250.8 m E Pn      2011/09/17 13:02:50.4  -0.1                          T   001.0                                4753752
SBF   002.20 250.8 m E Pg      2011/09/17 13:02:51.4  -5.1                          T   001.0                                4753753
SBF   002.20 250.8 m E Sn      2011/09/17 13:03:15.9  -0.3                          T   001.0      190.8  .56 Ml 3.8         4753754
PGF   002.28 205.1 m E Pn      2011/09/17 13:02:50.9  -0.8                          T   001.0                                4753751
PGF   002.28 205.1 m E Sn      2011/09/17 13:03:17.9  -0.3                          T               36.4  .68 Ml 3.2         4766032
MBDF  002.52 273.6 m E Pn      2011/09/17 13:02:55.4   0.3                          T   001.0                                4753762
MBDF  002.52 273.6 m E Sn      2011/09/17 13:03:24.3   0.3                          T   001.0                                4753763
MBDF  002.52 273.6 m E Sg      2011/09/17 13:03:34.3  -0.9                          T   001.0       98.3  .60 Ml 3.5         4753764
LPL   002.69 290.7 m E Pn      2011/09/17 13:02:56.9  -0.5                          T   001.0                                4753749
LPL   002.69 290.7 m E Sn      2011/09/17 13:03:27.6  -0.4                          T   001.0       57.5  .56 Ml 3.4         4753750
LPG   002.67 290.4 m E Pn      2011/09/17 13:02:57.4   0.2                          T   001.0                                4753747
LPG   002.67 290.4 m E Sn      2011/09/17 13:03:26.9  -0.7                          T   001.0       51.4  .52 Ml 3.3         4753748
FRF   002.84 249.4 m E Pn      2011/09/17 13:02:59.4   0.2                          T   001.0                                4753741
FRF   002.84 249.4 m E Sn      2011/09/17 13:03:31.0   0.6                          T   001.0       36.7  .48 Ml 3.3         4753742
LMR   003.03 246.2 m E Pn      2011/09/17 13:03:01.4  -0.3                          T   001.0                                4753743
LMR   003.03 246.2 m E Sn      2011/09/17 13:03:35.5  -0.4                          T   001.0       26.9  .36 Ml 3.3         4753744
ORIF  003.17 276.9 m E Pn      2011/09/17 13:03:04.4   0.7                          T   001.0                                4753767
ORIF  003.17 276.9 m E Sn      2011/09/17 13:03:39.0  -0.3                          T   001.0       52.8  .56 Ml 3.4         4753768
SMRF  003.46 260.9 m E Pn      2011/09/17 13:03:08.5   0.9                          T   001.0                                4753771
SMRF  003.46 260.9 m E Sn      2011/09/17 13:03:47.2   1.0                          T   001.0       22.1  .56 Ml 3.1         4753772
CABF  003.57 305.4 m E Pn      2011/09/17 13:03:09.5   0.3                          T   001.0                                4753759
CABF  003.57 305.4 m E Sn      2011/09/17 13:03:48.3  -0.6                          T                                        4766037
CABF  003.57 305.4 m E Sg      2011/09/17 13:04:07.1  -0.5                          T   001.0       16.7  .60 Ml 3.0         4753760
HINF  003.99 324.3 m E Pn      2011/09/17 13:03:15.0   0.0                          T   001.0                                4753761
HINF  003.99 324.3 m E Sn      2011/09/17 13:03:58.7  -0.3                          T               12.9  .38 Ml 3.2         4766038
VIVF  004.02 275.3 m E Pn      2011/09/17 13:03:16.0   0.7                          T   001.0                                4753769
VIVF  004.02 275.3 m E Sn      2011/09/17 13:03:59.6  -0.1                          T   001.0        9.2  .44 Ml 3.0         4753770
CDF   004.33 332.2 m E Pn      2011/09/17 13:03:19.0  -0.6                          T   001.0                                4753739
CDF   004.33 332.2 m E Sn      2011/09/17 13:04:06.1  -1.0                          T   001.0        9.5  .24 Ml 3.4         4753740
HAU   004.36 322.4 m E Pn      2011/09/17 13:03:19.6  -0.3                          T                                        4766039
HAU   004.36 322.4 m E Sn      2011/09/17 13:04:07.8   0.1                          T               17.9  .26 Ml 3.3         4766040
LASF  004.66 265.5 m E Pn      2011/09/17 13:03:23.8  -0.2                          T                                        4766033
SMF   004.97 296.3 m E Pn      2011/09/17 13:03:28.0  -0.1                          T   001.0                                4753755
SMF   004.97 296.3 m E Sn      2011/09/17 13:04:23.4   1.2                          T   001.0       17.1  .52 Ml 3.4         4753756
LOR   005.22 302.7 m E Pn      2011/09/17 13:03:31.5  -0.1 124.3  6.1               T   001.0                                4753745
LOR   005.22 302.7 m E Sn      2011/09/17 13:04:29.2   1.0 123.9  5.7               T   001.0       12.3  .32 Ml 3.5         4753746
AVF   005.33 296.4 m E Pn      2011/09/17 13:03:33.0  -0.1                          T   001.0                                4753738
BGF   005.58 292.9 m E Pn      2011/09/17 13:03:37.0   0.5                          T                                        4766035
BGF   005.58 292.9 m E Sn      2011/09/17 13:04:36.7  -0.2                          T               17.0  .46 Ml 3.6         4766036
CAF   005.88 275.9 m E Pn      2011/09/17 13:03:40.4  -0.2                          T                                        4766034
TCF   005.94 289.1 m E Pn      2011/09/17 13:03:43.6   2.2                          T   001.0                                4753758
MTLF  005.98 260.5 m E Pn      2011/09/17 13:03:43.6   1.7                          T   001.0                                4753765
MTLF  005.98 260.5 m E Sn      2011/09/17 13:04:46.6   0.3                          T   001.0        3.1  .52 Ml 2.9         4753766
SSF   005.34 299.6 m E Sn      2011/09/17 13:04:33.2   2.0                          T   001.0        7.2  .44 Ml 3.3         4753757
RJF   006.28 279.3 m E Sg      2011/09/17 13:05:34.4   2.4                          T   001.0        5.5  .64 Ml 2.8         4753737

.
EVENT     264033
    Date      Time       Latitude Longitude    Depth    Ndef Nsta Gap    Mag1  N    Mag2  N    Mag3  N   Author         ID
       rms   OT_Error      Smajor Sminor Az        Err   mdist  Mdist     Err        Err        Err      Quality

2011/09/17 13:33:12.5     44.6492   10.2579     25.0      33   13 138  Ml 2.5 10                         js067245    264053

      0.24   +-  0.07       1.7    1.1   64.68 +-  0.0    0.12   4.92   +-0.2                            m i ke

NORTHERN ITALY
Sta     Dist  EvAz     Phase      Date       Time     TRes  Azim  AzRes  Slow  SRes Def   SNR       Amp   Per   Mag1   Mag2       ID
SBF   002.18 249.8 m E P       2011/09/17 13:33:48.3   0.3                          T                                        4766054
SBF   002.18 249.8 m E Sn      2011/09/17 13:34:10.1   0.3                          T               22.7  .54 Ml 2.9         4766051
PGF   002.29 204.0 m E P       2011/09/17 13:33:49.5  -0.2                          T                                        4766053
PGF   002.29 204.0 m E Sn      2011/09/17 13:34:12.3  -0.4                          T                2.3  .27 Ml 2.4         4766052
LPG   002.63 290.1 m E Pn      2011/09/17 13:33:51.8  -0.1                          T                                        4766059
LPG   002.63 290.1 m E Pg      2011/09/17 13:34:01.8   0.0                          T                                        4766058
LPG   002.63 290.1 m E Sn      2011/09/17 13:34:20.4  -0.5                          T                2.3  .30 Ml 2.2         4766048
LPL   002.64 290.4 m E Pn      2011/09/17 13:33:52.3   0.2                          T                                        4766061
LPL   002.64 290.4 m E Pg      2011/09/17 13:34:02.0   0.0                          T                                        4766060
LPL   002.64 290.4 m E Sn      2011/09/17 13:34:21.4   0.2                          T                6.8  .48 Ml 2.5         4766047
MBDF  002.49 273.0 m E P       2011/09/17 13:33:52.9   0.3                          T                                        4766063
MBDF  002.49 273.0 m E Sn      2011/09/17 13:34:17.6   0.2                          T                3.8  .37 Ml 2.3         4766045
FRF   002.82 248.6 m E P       2011/09/17 13:33:57.4   0.3                          T                                        4766056
FRF   002.82 248.6 m E Sn      2011/09/17 13:34:25.1   0.0                          T                7.0  .42 Ml 2.7         4766049
LMR   003.01 245.4 m E P       2011/09/17 13:33:59.8   0.0                          T                                        4766055
LMR   003.01 245.4 m E Sn      2011/09/17 13:34:29.6   0.0                          T                3.2  .29 Ml 2.5         4766050
ORIF  003.13 276.5 m E P       2011/09/17 13:34:01.7   0.0                          T                                        4766062
ORIF  003.13 276.5 m E Sn      2011/09/17 13:34:32.7   0.1                          T                4.9  .50 Ml 2.4         4766046
CABF  003.52 305.3 m E Pn      2011/09/17 13:34:03.7  -0.2                          T                                        4766066
CABF  003.52 305.3 m E P       2011/09/17 13:34:07.1  -0.2                          T                                        4766065
SMRF  003.43 260.3 m E P       2011/09/17 13:34:05.8  -0.1                          T                                        4766057
HINF  003.95 324.5 m E P       2011/09/17 13:34:13.5   0.2                          T                                        4766067
HINF  003.95 324.5 m E Sn      2011/09/17 13:34:52.5   0.2                          T                2.7  .35 Ml 2.5         4766044
CDF   004.29 332.4 m E Pn      2011/09/17 13:34:13.8  -0.5                          T                                        4766068
CDF   004.29 332.4 m E P       2011/09/17 13:34:17.6  -0.6                          T                                        4766069
CDF   004.29 332.4 m E Sn      2011/09/17 13:35:00.9   0.5                          T                1.8  .25 Ml 2.7         4766043
SMF   004.92 296.2 m E Pn      2011/09/17 13:34:22.7  -0.1                          T                                        4766064

.
