EVENT     287607
    Date      Time       Latitude Longitude    Depth    Ndef Nsta Gap    Mag1  N    Mag2  N    Mag3  N   Author         ID
       rms   OT_Error      Smajor Sminor Az        Err   mdist  Mdist     Err        Err        Err      Quality

2012/11/28 23:11:48.4     43.0691    -.4429      2.0      17    6 113  Ml 2.0  3  Md 2.0  2              bulletin    287707
                                                                                                         _ldg
      0.27   +-  0.08       2.0    1.4  148.20 +-  0.0    0.19   2.64   +-0.2      +-0.1                 m i ke

PYRENEES
Sta     Dist  EvAz     Phase      Date       Time     TRes  Azim  AzRes  Slow  SRes Def   SNR       Amp   Per   Mag1   Mag2       ID
ETSF  000.19 206.6 m E Pg      2012/11/28 23:11:52.1  -0.2                          T                                        5127134
ETSF  000.19 206.6 m E Sg      2012/11/28 23:11:54.7  -0.3                          T               59.1  .38        Md 1.9  5127133
EPF   000.58 093.6 m E Pg      2012/11/28 23:11:59.3  -0.1                          T                                        5127130
EPF   000.58 093.6 m E Sg      2012/11/28 23:12:07.0   0.1                          T                6.5  .24                5127129
SJPF  000.57 274.7 m E Pg      2012/11/28 23:11:59.4   0.0                          T                                        5127132
SJPF  000.57 274.7 m E Sg      2012/11/28 23:12:06.7  -0.1                          T                8.8  .31        Md 2.0  5127131
MTLF  001.96 081.1 m E Pn      2012/11/28 23:12:21.0   0.0                          T                                        5127121
MTLF  001.96 081.1 m E Pg      2012/11/28 23:12:24.9   0.0                          T                                        5127120
MTLF  001.96 081.1 m E Sn      2012/11/28 23:12:44.6  -0.1                          T                                        5127119
MTLF  001.96 081.1 m E Sg      2012/11/28 23:12:50.2   0.0                          T                  1  .24 Ml 1.8         5127118
LFF   002.06 024.1 m E Pn      2012/11/28 23:12:22.4   0.2                          T                                        5127128
LFF   002.06 024.1 m E Pg      2012/11/28 23:12:26.1  -0.5                          T                                        5127127
LFF   002.06 024.1 m E Sn      2012/11/28 23:12:47.2   0.4                          T                                        5127126
LFF   002.06 024.1 m E Sg      2012/11/28 23:12:53.1   0.1                          T                5.3  .31 Ml 2.3         5127125
RJF   002.64 031.6 m E Pn      2012/11/28 23:12:30.6   0.5                          T                                        5127124
RJF   002.64 031.6 m E Pg      2012/11/28 23:12:37.3  -0.1                          T                                        5127123
RJF   002.64 031.6 m E Sg      2012/11/28 23:13:10.6  -0.7                          T                1.7  .20 Ml 1.9         5127122

.
EVENT     287608
    Date      Time       Latitude Longitude    Depth    Ndef Nsta Gap    Mag1  N    Mag2  N    Mag3  N   Author         ID
       rms   OT_Error      Smajor Sminor Az        Err   mdist  Mdist     Err        Err        Err      Quality

2012/11/28 23:15:27.4     36.8830    5.1200     10.0 f   186   41 079  Ml 4.4 36                         bulletin    287708
                                                                                                         _ldg
      1.63   +-  0.20       4.6    3.7  159.82 +-  0.0    3.08  84.35   +-0.3                            m i ke

NORTHERN ALGERIA
Sta     Dist  EvAz     Phase      Date       Time     TRes  Azim  AzRes  Slow  SRes Def   SNR       Amp   Per   Mag1   Mag2       ID
PGF   006.40 026.7 m E Pn      2012/11/28 23:17:00.8   1.3                          T                                        5127347
PGF   006.40 026.7 m E P       2012/11/28 23:17:05.2   0.9                          T                                        5138837
PGF   006.40 026.7 m E Sn      2012/11/28 23:18:08.3   0.0                          T               94.6  .25 Ml 5.0         5127313
LMR   006.53 008.9 m E Pn      2012/11/28 23:17:03.1   1.9                          T                                        5127346
LMR   006.53 008.9 m E P       2012/11/28 23:17:05.5  -0.5                          T                                        5138839
LMR   006.53 008.9 m E Sn      2012/11/28 23:18:12.4   1.1                          T               36.1  .17 Ml 4.5         5127311
FRF   006.77 009.5 m E Pn      2012/11/28 23:17:06.0   1.5                          T                                        5127345
FRF   006.77 009.5 m E P       2012/11/28 23:17:08.8  -0.6                          T                                        5138840
FRF   006.77 009.5 m E Sn      2012/11/28 23:18:17.6   0.5                          T               40.4  .22 Ml 4.5         5127310
MTLF  006.82 341.9 m E P       2012/11/28 23:17:08.9  -1.2                          T                                        5127337
MTLF  006.82 341.9 m E Sn      2012/11/28 23:18:18.5   0.2                          T               42.1  .30 Ml 4.4         5127302
SBF   007.19 013.5 m E Pn      2012/11/28 23:17:11.8   1.5                          T                                        5127348
SBF   007.19 013.5 m E P       2012/11/28 23:17:15.1  -0.3                          T                                        5138838
SBF   007.19 013.5 m E Sn      2012/11/28 23:18:28.2   0.9                          T               62.4  .20 Ml 4.8         5127312
LASF  007.25 352.8 m E Pn      2012/11/28 23:17:11.9   0.9                          T                                        5127338
LASF  007.25 352.8 m E P       2012/11/28 23:17:16.1   0.0                          T                                        5138841
LASF  007.25 352.8 m E Sn      2012/11/28 23:18:29.3   0.7                          T               87.2  .31 Ml 4.7         5127303
SMRF  007.09 002.7 m E P       2012/11/28 23:17:13.7  -0.3                          T                                        5127344
SMRF  007.09 002.7 m E Sn      2012/11/28 23:18:25.7   0.8                          T               20.3  .31 Ml 4.1         5127309
EPF   007.15 330.6 m E P       2012/11/28 23:17:15.2   0.3                          T                                        5127336
EPF   007.15 330.6 m E Sn      2012/11/28 23:18:27.2   0.9                          T              164.9  .50 Ml 4.8         5127301
ETSF  007.43 325.8 m E P       2012/11/28 23:17:17.9  -0.8                          T                                        5127335
ETSF  007.43 325.8 m E Sn      2012/11/28 23:18:33.2   0.4                          T               99.2  .62 Ml 4.5         5127300
VIVF  007.97 357.7 m E P       2012/11/28 23:17:24.0  -2.2                          T                                        5127339
VIVF  007.97 357.7 m E Sn      2012/11/28 23:18:46.3   0.5                          T               59.2  .31 Ml 4.7         5127304
SJPF  007.90 323.9 m E P       2012/11/28 23:17:24.8  -0.4                          T                                        5127334
SJPF  007.90 323.9 m E Sn      2012/11/28 23:18:43.8  -0.3                          T               40.8  .45 Ml 4.4         5127299
MBDF  007.94 008.6 m E P       2012/11/28 23:17:25.6  -0.3                          T                                        5127340
MBDF  007.94 008.6 m E Sn      2012/11/28 23:18:45.4   0.4                          T               70.1  .61 Ml 4.5         5127305
ORIF  008.05 003.9 m E P       2012/11/28 23:17:27.0  -0.4                          T                                        5127341
ORIF  008.05 003.9 m E Sn      2012/11/28 23:18:48.1   0.4                          T               14.1  .40 Ml 4.0         5127306
CAF   008.36 344.9 m E P       2012/11/28 23:17:30.2  -1.5                          T                                        5127333
CAF   008.36 344.9 m E Sn      2012/11/28 23:18:55.4   0.3                          T               24.0  .32 Ml 4.4         5127298
LFF   008.70 339.0 m E P       2012/11/28 23:17:36.0  -0.4                          T                                        5127332
LFF   008.70 339.0 m E Sn      2012/11/28 23:19:03.5   0.3                          T               54.9  .56 Ml 4.3         5127297
LPG   008.69 007.6 m E P       2012/11/28 23:17:36.1  -0.6                          T                                        5127343
LPG   008.69 007.6 m E Sn      2012/11/28 23:19:03.5   0.1                          T               46.4  .63 Ml 4.4         5127308
LPL   008.71 007.5 m E P       2012/11/28 23:17:36.3  -0.5                          T                                        5127342
LPL   008.71 007.5 m E Sn      2012/11/28 23:19:04.0   0.3                          T               82.3  .69 Ml 4.6         5127307
RJF   008.84 343.2 m E P       2012/11/28 23:17:36.4  -1.9                          T                                        5127331
RJF   008.84 343.2 m E Sn      2012/11/28 23:19:07.2   0.7                          T               20.4  .34 Ml 4.0         5127296
TCF   009.65 347.9 m E P       2012/11/28 23:17:48.2  -1.3                          T                                        5138846
TCF   009.65 347.9 m E Sn      2012/11/28 23:19:27.1   1.3                          T               26.1  .61 Ml 4.3         5138834
BGF   009.81 350.8 m E P       2012/11/28 23:17:49.9  -1.9                          T                                        5127330
BGF   009.81 350.8 m E Sn      2012/11/28 23:19:30.1   0.3                          T               20.0  .32 Ml 4.5         5127295
SMF   009.80 354.8 m E P       2012/11/28 23:17:50.0  -1.6                          T                                        5127329
SMF   009.80 354.8 m E Sn      2012/11/28 23:19:29.0  -0.5                          T               13.1  .42 Ml 4.2         5127294
CABF  009.75 003.9 m E P       2012/11/28 23:17:50.4  -0.5                          T                                        5127322
CABF  009.75 003.9 m E Sn      2012/11/28 23:19:29.2   0.8                          T               11.5  .58 Ml 4.0         5127290
AVF   009.99 353.0 m E P       2012/11/28 23:17:51.9  -2.2                          T                                        5127328
AVF   009.99 353.0 m E Sn      2012/11/28 23:19:34.4   0.5                          T                6.6  .43 Ml 3.9         5127293
SSF   010.24 353.8 m E P       2012/11/28 23:17:56.0  -1.6                          T                                        5127317
SSF   010.24 353.8 m E Sn      2012/11/28 23:19:39.5  -0.5                          T                9.0  .49 Ml 4.1         5127285
LOR   010.42 355.2 m E P       2012/11/28 23:17:58.6  -1.5 171.8  -2.6              T                                        5127318
LOR   010.42 355.2 m E Sn      2012/11/28 23:19:45.1   0.8                          T                7.3  .41 Ml 4.1         5127284
MFF   010.47 339.6 m E P       2012/11/28 23:17:59.8  -1.1                          T                                        5127327
MFF   010.47 339.6 m E Sn      2012/11/28 23:19:46.0   0.4                          T               23.9  .66 Ml 4.5         5127292
HINF  011.00 006.1 m E P       2012/11/28 23:18:04.4  -3.7                          T                                        5127323
HINF  011.00 006.1 m E Sn      2012/11/28 23:19:59.4   1.2                          T                7.2  .38 Ml 4.2         5127291
SFTF  011.32 359.7 m E Pn      2012/11/28 23:18:05.4  -1.0                          T                                        5127321
SFTF  011.32 359.7 m E P       2012/11/28 23:18:12.4   0.1 176.2  -3.4              T                                        5138843
SFTF  011.32 359.7 m E Sn      2012/11/28 23:20:05.8   0.1                          T               12.7  .53 Ml 4.3         5138835
HAU   011.15 004.3 m E P       2012/11/28 23:18:06.8  -3.3                          T                                        5127316
HAU   011.15 004.3 m E Sn      2012/11/28 23:20:02.1   0.3                          T               23.6  .48 Ml 4.4         5127286
MEZF  011.61 359.8 m E Pn      2012/11/28 23:18:09.6  -0.8                          T                                        5127320
MEZF  011.61 359.8 m E P       2012/11/28 23:18:16.6   0.3 155.0  -24.8             T                                        5138844
MEZF  011.61 359.8 m E Sn      2012/11/28 23:20:13.1   0.3                          T               12.1  .47 Ml 4.4         5127287
CDF   011.63 007.1 m E P       2012/11/28 23:18:13.3  -3.3                          T                                        5127319
CDF   011.63 007.1 m E Sn      2012/11/28 23:20:14.5   1.2                          T                3.1  .36 Ml 4.0         5127283
PAGF  011.67 002.0 m E P       2012/11/28 23:18:15.2  -1.9                          T                                        5138845
LDF   012.32 343.5 m E P       2012/11/28 23:18:23.5  -2.3                          T                                        5127289
GRR   012.31 341.0 m E P       2012/11/28 23:18:24.4  -1.3                          T                                        5127273
FLN   012.56 342.7 m E P       2012/11/28 23:18:27.8  -1.3 160.9  2.0               T                                        5127288
QUIF  012.60 333.6 m E P       2012/11/28 23:18:29.2  -0.3                          T                                        5127326
SGMF  012.69 336.0 m E P       2012/11/28 23:18:30.7   0.0                          T                                        5127325
ROSF  013.00 334.3 m E P       2012/11/28 23:18:33.9  -1.0                          T                                        5127324
GIVF  013.22 359.2 m E P       2012/11/28 23:18:35.3  -2.5                          T                                        5127314
BAIF  013.19 357.4 m E P       2012/11/28 23:18:35.9  -1.5                          T                                        5127315
HYF   010.54 350.7 m E Sn      2012/11/28 23:19:46.2  -1.0                          T                                        5127272

.
