EVENT     268932
    Date      Time       Latitude Longitude    Depth    Ndef Nsta Gap    Mag1  N    Mag2  N    Mag3  N   Author         ID
       rms   OT_Error      Smajor Sminor Az        Err   mdist  Mdist     Err        Err        Err      Quality

2012/01/21 10:34:39.6     46.7821   -2.1732      5.0 f    70   22 160  Ml 2.8 25  Md 2.8  3              js067245    268952

      1.19   +-  0.12       2.8    1.6   51.93 +-  0.0    1.32   5.37   +-0.3      +-0.1                 m i ke

BAY OF BISCAY
Sta     Dist  EvAz     Phase      Date       Time     TRes  Azim  AzRes  Slow  SRes Def   SNR       Amp   Per   Mag1   Mag2       ID
QUIF  001.32 329.6 m E Pn      2012/01/21 10:35:03.6   0.5                          T                                        4821249
QUIF  001.32 329.6 m E Pg      2012/01/21 10:35:04.4   0.1                          T   001.0                                4818558
QUIF  001.32 329.6 m E Sn      2012/01/21 10:35:19.6  -0.3                          T                                        4821257
QUIF  001.32 329.6 m E Sg      2012/01/21 10:35:21.4   0.0                          T   001.0       29.8  .16 Ml 3.2 Md 2.8  4818559
MFF   001.41 096.6 m E Pn      2012/01/21 10:35:04.3   0.0                          T                                        4821245
MFF   001.41 096.6 m E Pg      2012/01/21 10:35:06.1   0.3                          T   001.0                                4818548
MFF   001.41 096.6 m E Sn      2012/01/21 10:35:21.8  -0.3                          T                                        4821260
MFF   001.41 096.6 m E Sg      2012/01/21 10:35:24.0   0.0                          T   001.0       30.8  .20 Ml 3.4 Md 2.9  4818549
SGMF  001.50 350.1 m E Pn      2012/01/21 10:35:05.4   0.0                          T                                        4821248
SGMF  001.50 350.1 m E Pg      2012/01/21 10:35:07.6   0.0                          T   001.0                                4818563
SGMF  001.50 350.1 m E Sn      2012/01/21 10:35:23.9  -0.3                          T                                        4821256
SGMF  001.50 350.1 m E Sg      2012/01/21 10:35:26.7  -0.2                          T   001.0       29.5  .28 Ml 3.1 Md 2.7  4818564
ROSF  001.72 334.8 m E Pn      2012/01/21 10:35:08.7   0.2                          T                                        4821247
ROSF  001.72 334.8 m E Pg      2012/01/21 10:35:11.6  -0.1                          T   001.0                                4818560
ROSF  001.72 334.8 m E Sn      2012/01/21 10:35:29.6  -0.1                          T   001.0                                4818561
ROSF  001.72 334.8 m E Sg      2012/01/21 10:35:33.8  -0.2                          T   001.0       14.4  .28 Ml 2.8         4818562
GRR   001.84 028.5 m E Pn      2012/01/21 10:35:09.9  -0.2                          T   001.0                                4818537
GRR   001.84 028.5 m E Pg      2012/01/21 10:35:13.4  -0.4                          T   001.0                                4818538
GRR   001.84 028.5 m E Sn      2012/01/21 10:35:31.7  -0.6                          T                                        4821259
GRR   001.84 028.5 m E Sg      2012/01/21 10:35:37.4  -0.1                          T   001.0        8.8  .20 Ml 2.7         4818539
FLN   002.29 029.3 m E Pn      2012/01/21 10:35:16.2   0.0                          T                                        4821266
FLN   002.29 029.3 m E Pg      2012/01/21 10:35:21.8  -0.3 204.2  -6.4              T                                        4821267
FLN   002.29 029.3 m E Sg      2012/01/21 10:35:51.5   0.0                          T   001.0        9.2  .24 Ml 2.7         4818536
LDF   002.28 036.6 m E Pn      2012/01/21 10:35:16.4   0.2                          T   001.0                                4818540
LDF   002.28 036.6 m E Pg      2012/01/21 10:35:21.4  -0.6                          T   001.0                                4818541
LDF   002.28 036.6 m E Sn      2012/01/21 10:35:42.4  -0.6                          T                                        4821258
LDF   002.28 036.6 m E Sg      2012/01/21 10:35:50.9  -0.4                          T   001.0       13.8  .48 Ml 2.7         4818542
RJF   002.96 118.6 m E Pn      2012/01/21 10:35:25.8   0.3                          T                                        4821244
RJF   002.96 118.6 m E Pg      2012/01/21 10:35:33.9  -0.7                          T   001.0                                4818526
RJF   002.96 118.6 m E Sn      2012/01/21 10:35:59.0  -0.3                          T                                        4821261
RJF   002.96 118.6 m E Sg      2012/01/21 10:36:12.0  -0.7                          T   001.0       11.8  .28 Ml 2.7         4818527
TCF   003.07 097.7 m E Pn      2012/01/21 10:35:27.8   0.9                          T   001.0                                4818553
TCF   003.07 097.7 m E Sn      2012/01/21 10:36:00.5  -1.3                          T   001.0                                4818554
TCF   003.07 097.7 m E Sg      2012/01/21 10:36:15.5  -0.4                          T   001.0       17.6  .56 Ml 3.0         4818555
LFF   002.75 131.1 m E Pn      2012/01/21 10:35:29.5   7.1                          T                                        4821243
LFF   002.75 131.1 m E Sn      2012/01/21 10:35:54.0  -0.1                          T   001.0                                4818543
LFF   002.75 131.1 m E Sg      2012/01/21 10:36:06.5   0.7                          T   001.0       10.5  .32 Ml 2.7         4818544
CAF   003.49 120.6 m E Pn      2012/01/21 10:35:32.9   0.2                          T   001.0                                4818532
CAF   003.49 120.6 m E Sn      2012/01/21 10:36:11.1  -0.9                          T                1.4  .21 Ml 2.4         4821263
CAF   003.49 120.6 m E Sg      2012/01/21 10:36:29.6   0.3                          T   001.0          6  .28 Ml 2.9         4818533
BGF   003.46 091.9 m E Pn      2012/01/21 10:35:33.6   1.4                          T   001.0                                4818529
BGF   003.46 091.9 m E Sn      2012/01/21 10:36:11.0  -0.3                          T   001.0                                4818530
BGF   003.46 091.9 m E Sg      2012/01/21 10:36:27.4  -0.8                          T   001.0         17  .32 Ml 3.3         4818531
SJPF  003.73 169.3 m E Pn      2012/01/21 10:35:35.9   0.0                          T   001.0                                4818565
SJPF  003.73 169.3 m E Sn      2012/01/21 10:36:16.5  -1.1                          T                 .7  .22 Ml 2.1         4821262
AVF   003.80 087.9 m E Pn      2012/01/21 10:35:37.5   0.7                          T   001.0                                4818528
AVF   003.80 087.9 m E Sn      2012/01/21 10:36:18.9  -0.2                          T                                        4821251
AVF   003.80 087.9 m E Sg      2012/01/21 10:36:38.4  -0.2                          T                1.7  .20 Ml 2.5         4821252
SSF   003.90 083.8 m E Pn      2012/01/21 10:35:39.0   0.7                          T   001.0                                4818551
SSF   003.90 083.8 m E Sn      2012/01/21 10:36:21.1  -0.6                          T                                        4821250
SSF   003.90 083.8 m E Sg      2012/01/21 10:36:41.6  -0.3                          T   001.0          6  .44 Ml 2.9         4818552
ETSF  004.05 163.0 m E Pn      2012/01/21 10:35:39.2  -1.1                          T                                        4821240
ETSF  004.05 163.0 m E Sn      2012/01/21 10:36:25.1  -0.2                          T                1.2  .29 Ml 2.3         4821264
EPF   004.15 153.7 m E Pn      2012/01/21 10:35:41.1  -0.7                          T                                        4821242
EPF   004.15 153.7 m E Sn      2012/01/21 10:36:25.6  -2.2                          T   001.0                                4818534
EPF   004.15 153.7 m E Sg      2012/01/21 10:36:50.2   0.3                          T   001.0        3.2  .24 Ml 2.8         4818535
LOR   004.15 081.1 m E Pn      2012/01/21 10:35:43.0   1.3 260.1  -5.4              T   001.0                                4818545
LOR   004.15 081.1 m E Sn      2012/01/21 10:36:25.6  -2.2 248.2  -17.3             T   001.0                                4818546
LOR   004.15 081.1 m E Sg      2012/01/21 10:36:49.5  -0.4 248.5  -17.0             T   001.0          4  .24 Ml 2.9         4818547
MTLF  004.64 136.3 m E Pn      2012/01/21 10:35:48.7   0.4                          T                                        4821241
MTLF  004.64 136.3 m E Sn      2012/01/21 10:36:38.3  -0.9                          T                 .9  .29 Ml 2.3         4821265
BAIF  005.37 050.0 m E Pn      2012/01/21 10:35:58.0  -0.1                          T   001.0                                4818556
BAIF  005.37 050.0 m E Sn      2012/01/21 10:36:54.2  -2.5                          T   001.0        5.5  .76 Ml 2.8         4818557
HYF   003.33 079.8 m E Sg      2012/01/21 10:36:23.8  -0.2                          T                                        4821253
SMF   004.14 089.7 m E Sg      2012/01/21 10:36:49.7   0.3                          T   001.0        3.1  .28 Ml 2.7         4818550

.
EVENT     268933
    Date      Time       Latitude Longitude    Depth    Ndef Nsta Gap    Mag1  N    Mag2  N    Mag3  N   Author         ID
       rms   OT_Error      Smajor Sminor Az        Err   mdist  Mdist     Err        Err        Err      Quality

2012/01/21 10:46:53.3     45.4971    7.0337      2.0       9    4 278  Ml 1.0  1  Md 1.2  2              js067245    268953

      1.67   +-  1.06      21.1    7.3   51.56 +-  0.0    0.20   1.00   +-         +-0.1                 m i ke

NORTHERN ITALY
Sta     Dist  EvAz     Phase      Date       Time     TRes  Azim  AzRes  Slow  SRes Def   SNR       Amp   Per   Mag1   Mag2       ID
LPL   000.21 275.3 m E Pg      2012/01/21 10:46:57.6  -0.3                          T                                        4821275
LPL   000.21 275.3 m E Sg      2012/01/21 10:47:00.3  -0.5                          T                8.8  .34        Md 1.3  4821276
LPG   000.20 270.3 m E Pg      2012/01/21 10:46:57.7   0.0                          T                                        4821273
LPG   000.20 270.3 m E Sg      2012/01/21 10:46:59.8  -0.6                          T               10.2  .18        Md 1.1  4821274
MBDF  000.79 193.6 m E Pg      2012/01/21 10:47:08.0  -0.5                          T                                        4821269
MBDF  000.79 193.6 m E Sg      2012/01/21 10:47:18.4  -0.4                          T                 .6  .21                4821270
ORIF  001.00 235.0 m E P       2012/01/21 10:47:14.6   0.2                          T                                        4821272
ORIF  001.00 235.0 m E Sn      2012/01/21 10:47:27.8   1.1                          T                 .3  .20 Ml 1.0         4821268

.
EVENT     268944
    Date      Time       Latitude Longitude    Depth    Ndef Nsta Gap    Mag1  N    Mag2  N    Mag3  N   Author         ID
       rms   OT_Error      Smajor Sminor Az        Err   mdist  Mdist     Err        Err        Err      Quality

2012/01/21 13:14:38.8     44.0459    5.9155      2.0       8    4 133  Ml 1.4  1  Md 1.5  2              js067245    268964

      0.63   +-  0.24       6.6    4.5   53.11 +-  0.0    0.26   0.87   +-         +-0.2                 m i ke

FRANCE
Sta     Dist  EvAz     Phase      Date       Time     TRes  Azim  AzRes  Slow  SRes Def   SNR       Amp   Per   Mag1   Mag2       ID
SMRF  000.26 254.2 m E Pg      2012/01/21 13:14:43.3  -0.6                          T                                        4821283
SMRF  000.26 254.2 m E Sg      2012/01/21 13:14:48.7   1.3                          T                2.9  .16        Md 1.6  4821284
FRF   000.72 132.2 m E Pg      2012/01/21 13:14:52.5   0.1                          T                                        4821281
FRF   000.72 132.2 m E Sg      2012/01/21 13:15:00.6  -1.1                          T                5.1  .27        Md 1.3  4821282
LMR   000.83 148.6 m E Pg      2012/01/21 13:14:54.6   0.1                          T                                        4821279
LMR   000.83 148.6 m E Sg      2012/01/21 13:15:06.1   0.8                          T                2.2  .24                4821280
ORIF  000.87 358.3 m E Pg      2012/01/21 13:14:55.2  -0.1                          T                                        4821277
ORIF  000.87 358.3 m E Sg      2012/01/21 13:15:07.4   0.7                          T                1.9  .40 Ml 1.4         4821278

.
EVENT     268934
    Date      Time       Latitude Longitude    Depth    Ndef Nsta Gap    Mag1  N    Mag2  N    Mag3  N   Author         ID
       rms   OT_Error      Smajor Sminor Az        Err   mdist  Mdist     Err        Err        Err      Quality

2012/01/21 18:47:28.3     43.0896    -.3807      2.0       7    3 183             Md 1.5  2              js067245    268954

      0.14   +-  0.08       2.6    1.1  177.11 +-  0.0    0.23   0.62              +-0.2                 m i ke

PYRENEES
Sta     Dist  EvAz     Phase      Date       Time     TRes  Azim  AzRes  Slow  SRes Def   SNR       Amp   Per   Mag1   Mag2       ID
ETSF  000.23 214.5 m E Pg      2012/01/21 18:47:33.1   0.1                          T                                        4821290
ETSF  000.23 214.5 m E Sg      2012/01/21 18:47:35.9  -0.3                          T               11.0  .26        Md 1.7  4821291
EPF   000.53 096.2 m E Pg      2012/01/21 18:47:38.3  -0.2                          T                                        4821288
EPF   000.53 096.2 m E Sg      2012/01/21 18:47:45.7   0.2                          T                5.1  .38        Md 1.4  4821289
SJPF  000.62 272.5 m E Pg      2012/01/21 18:47:40.0  -0.1                          T                                        4821285
SJPF  000.62 272.5 m E Sg      2012/01/21 18:47:48.1  -0.1                          T                                        4821287
SJPF  000.62 272.5 m E Sn      2012/01/21 18:47:52.4  -0.1                          T                1.9  .30                4821286

.
