EVENT     291225
    Date      Time       Latitude Longitude    Depth    Ndef Nsta Gap    Mag1  N    Mag2  N    Mag3  N   Author         ID
       rms   OT_Error      Smajor Sminor Az        Err   mdist  Mdist     Err        Err        Err      Quality

2013/01/30 17:34:41.4     45.0818    3.3431      2.0      28   13 084  Ml 1.9 14  Md 2.1  2              bulletin    291325
                                                                                                         _ldg
      0.17   +-  0.03        .7     .6   76.02 +-  0.0    0.92   2.46   +-0.2      +-0.1                 m i ke

FRANCE
Sta     Dist  EvAz     Phase      Date       Time     TRes  Azim  AzRes  Slow  SRes Def   SNR       Amp   Per   Mag1   Mag2       ID
CAF   000.92 260.7 m E Pg      2013/01/30 17:34:58.8   0.0                          T                                        5183446
CAF   000.92 260.7 m E Sg      2013/01/30 17:35:10.6  -0.1                          T                3.5  .18 Ml 2.1 Md 2.1  5183442
VIVF  000.97 103.0 m E Pg      2013/01/30 17:34:59.6   0.0                          T                                        5183448
VIVF  000.97 103.0 m E Sg      2013/01/30 17:35:12.2   0.0                          T                5.1  .20 Ml 2.2         5183445
LASF  001.07 159.8 m E Pg      2013/01/30 17:35:01.4  -0.1                          T                                        5183447
LASF  001.07 159.8 m E Sg      2013/01/30 17:35:15.5   0.1                          T                 .7  .14 Ml 1.5         5183444
RJF   001.31 280.4 m E Pn      2013/01/30 17:35:05.0   0.0                          T                                        5183439
RJF   001.31 280.4 m E Sn      2013/01/30 17:35:22.1   0.0                          T                3.2  .19 Ml 1.8 Md 2.0  5183428
TCF   001.44 327.0 m E Pn      2013/01/30 17:35:06.6  -0.3                          T                                        5183436
BGF   001.52 346.9 m E Pn      2013/01/30 17:35:07.5  -0.4                          T                                        5183440
BGF   001.52 346.9 m E Sn      2013/01/30 17:35:27.0   0.0                          T                3.1  .24 Ml 2.2         5183429
SMF   001.60 012.4 m E Pn      2013/01/30 17:35:09.0   0.0                          T                                        5183438
SMF   001.60 012.4 m E Sn      2013/01/30 17:35:28.9  -0.1                          T                1.1  .18 Ml 1.9         5183430
AVF   001.71 000.2 m E Pn      2013/01/30 17:35:10.3  -0.1                          T                                        5183437
AVF   001.71 000.2 m E Sn      2013/01/30 17:35:31.4  -0.2                          T                1.3  .22 Ml 1.9         5183431
MTLF  001.92 205.3 m E Pn      2013/01/30 17:35:13.4   0.1                          T                                        5183443
MTLF  001.92 205.3 m E Sn      2013/01/30 17:35:36.7   0.1                          T                1.7  .26 Ml 2.0         5183441
SMRF  001.94 123.9 m E Pn      2013/01/30 17:35:13.8   0.1                          T                                        5183426
SMRF  001.94 123.9 m E Sn      2013/01/30 17:35:37.2   0.0                          T                1.4  .30 Ml 1.9         5183427
SSF   001.98 003.2 m E Pn      2013/01/30 17:35:14.3   0.1                          T                                        5183435
SSF   001.98 003.2 m E Sn      2013/01/30 17:35:38.4   0.2                          T                1.2  .29 Ml 1.9         5183433
LOR   002.22 009.1 m E Pn      2013/01/30 17:35:17.6   0.2                          T                                        5183434
LOR   002.22 009.1 m E Sn      2013/01/30 17:35:43.9   0.1 189.8  0.3               T                 .5  .17 Ml 1.7         5183432
MBDF  002.46 097.1 m E Pn      2013/01/30 17:35:20.9  -0.1                          T                                        5183425

.
EVENT     291227
    Date      Time       Latitude Longitude    Depth    Ndef Nsta Gap    Mag1  N    Mag2  N    Mag3  N   Author         ID
       rms   OT_Error      Smajor Sminor Az        Err   mdist  Mdist     Err        Err        Err      Quality

2013/01/30 18:13:14.6     45.0505    3.3414      2.0      56   18 066  Ml 2.3 20  Md 2.2  3              bulletin    291327
                                                                                                         _ldg
      0.24   +-  0.02        .5     .4   83.10 +-  0.0    0.19   2.96   +-0.2      +-0.0                 m i ke

FRANCE
Sta     Dist  EvAz     Phase      Date       Time     TRes  Azim  AzRes  Slow  SRes Def   SNR       Amp   Per   Mag1   Mag2       ID
CAF   000.91 262.6 m E Pg      2013/01/30 18:13:31.8   0.0                          T   001.0                                5183394
CAF   000.91 262.6 m E Sg      2013/01/30 18:13:43.8   0.1                          T   001.0        8.1  .18 Ml 2.4 Md 2.2  5183395
VIVF  000.97 101.1 m E Pg      2013/01/30 18:13:32.7  -0.1                          T   001.0                                5183417
VIVF  000.97 101.1 m E Sg      2013/01/30 18:13:45.4   0.1                          T   001.0       14.6  .22 Ml 2.6 Md 2.2  5183418
LASF  001.04 159.1 m E Pg      2013/01/30 18:13:34.2   0.0                          T   001.0                                5183398
LASF  001.04 159.1 m E Sg      2013/01/30 18:13:47.6  -0.1                          T   001.0        4.3  .20 Ml 2.2 Md 2.2  5183399
RJF   001.32 281.8 m E Pg      2013/01/30 18:13:39.1  -0.2                          T   001.0                                5183386
RJF   001.32 281.8 m E Sg      2013/01/30 18:13:56.8   0.6                          T   001.0        8.2  .20 Ml 2.2         5183388
BGF   001.55 347.2 m E Pn      2013/01/30 18:13:41.4  -0.1                          T   001.0                                5183392
BGF   001.55 347.2 m E Pg      2013/01/30 18:13:43.6   0.1                          T                                        5193003
BGF   001.55 347.2 m E Sg      2013/01/30 18:14:03.1  -0.4                          T   001.0        8.1  .26 Ml 2.6         5183393
TCF   001.47 327.7 m E Pg      2013/01/30 18:13:42.0  -0.1                          T                                        5183455
TCF   001.47 327.7 m E Sg      2013/01/30 18:14:00.9  -0.2                          T   001.0        2.5  .21 Ml 2.1         5183412
SMF   001.63 012.2 m E Pn      2013/01/30 18:13:42.6  -0.1                          T                                        5183457
SMF   001.63 012.2 m E Pg      2013/01/30 18:13:45.0  -0.1                          T   001.0                                5183406
SMF   001.63 012.2 m E Sg      2013/01/30 18:14:05.5  -0.6                          T   001.0        4.2  .24 Ml 2.3         5183407
AVF   001.74 000.3 m E Pn      2013/01/30 18:13:44.3   0.2                          T   001.0                                5183390
AVF   001.74 000.3 m E Pg      2013/01/30 18:13:47.0   0.0                          T                                        5183456
AVF   001.74 000.3 m E Sg      2013/01/30 18:14:09.3  -0.2                          T                4.5  .27 Ml 2.4         5193004
ORIF  001.81 093.3 m E Pn      2013/01/30 18:13:45.7   0.5                          T   001.0                                5183416
LFF   001.85 267.5 m E Pn      2013/01/30 18:13:45.7   0.1                          T   001.0                                5183400
LFF   001.85 267.5 m E Pg      2013/01/30 18:13:49.2   0.2                          T                                        5193001
LFF   001.85 267.5 m E Sn      2013/01/30 18:14:08.0  -0.2                          T                                        5193002
LFF   001.85 267.5 m E Sg      2013/01/30 18:14:13.1   0.3                          T   001.0        6.8  .26 Ml 2.4         5183401
MTLF  001.89 205.7 m E Pn      2013/01/30 18:13:46.0  -0.2                          T   001.0                                5183414
MTLF  001.89 205.7 m E Pg      2013/01/30 18:13:50.0   0.2                          T                                        5192998
MTLF  001.89 205.7 m E Sg      2013/01/30 18:14:13.9  -0.2                          T   001.0        3.0  .18 Ml 2.4         5183415
SMRF  001.93 123.1 m E Pn      2013/01/30 18:13:46.6  -0.2                          T                                        5183460
SMRF  001.93 123.1 m E Pg      2013/01/30 18:13:50.4  -0.1                          T   001.0                                5183419
SMRF  001.93 123.1 m E Sn      2013/01/30 18:14:10.0  -0.1                          T                                        5192996
SMRF  001.93 123.1 m E Sg      2013/01/30 18:14:15.4   0.0                          T   001.0        3.7  .38 Ml 2.2         5183420
SSF   002.01 003.2 m E Pn      2013/01/30 18:13:47.9   0.0                          T                                        5193008
SSF   002.01 003.2 m E Pg      2013/01/30 18:13:52.1   0.0                          T   001.0                                5183409
SSF   002.01 003.2 m E Sn      2013/01/30 18:14:12.2   0.1                          T   001.0                                5183410
SSF   002.01 003.2 m E Sg      2013/01/30 18:14:18.1   0.1                          T                1.9  .22 Ml 2.3         5193007
LOR   002.25 009.0 m E Pn      2013/01/30 18:13:51.3   0.2 188.9  -0.5              T                                        5193005
LOR   002.25 009.0 m E Pg      2013/01/30 18:13:56.3  -0.1 190.0  0.6               T   001.0                                5183404
LOR   002.25 009.0 m E Sn      2013/01/30 18:14:18.3   0.6 186.5  -2.9              T                                        5183453
LOR   002.25 009.0 m E Sg      2013/01/30 18:14:24.9  -0.4 187.4  -2.0              T                2.0  .23 Ml 2.2         5193006
LPG   002.45 078.3 m E Pn      2013/01/30 18:13:54.5   0.3                          T                                        5192997
LMR   002.85 125.9 m E Pn      2013/01/30 18:13:59.5   0.2                          T                                        5183459
LMR   002.85 125.9 m E Sn      2013/01/30 18:14:32.2   0.1                          T   001.0                                5183402
LMR   002.85 125.9 m E Sg      2013/01/30 18:14:44.3   0.2                          T   001.0         .7  .26 Ml 1.8         5183403
EPF   002.96 228.0 m E Pn      2013/01/30 18:14:00.9   0.1                          T                                        5183458
EPF   002.96 228.0 m E Pg      2013/01/30 18:14:09.4  -0.2                          T                                        5192999
EPF   002.96 228.0 m E Sn      2013/01/30 18:14:34.5  -0.4                          T                                        5193000
EPF   002.96 228.0 m E Sg      2013/01/30 18:14:47.5  -0.1                          T   001.0        1.8  .19 Ml 2.4         5183396
MFF   002.89 303.7 m E Sg      2013/01/30 18:14:45.2  -0.2                          T                2.7  .31 Ml 2.5         5183454

.
EVENT     291226
    Date      Time       Latitude Longitude    Depth    Ndef Nsta Gap    Mag1  N    Mag2  N    Mag3  N   Author         ID
       rms   OT_Error      Smajor Sminor Az        Err   mdist  Mdist     Err        Err        Err      Quality

2013/01/30 18:17:50.1     44.7910    6.6859      2.0      15    7 132  Ml 1.2  2  Md 1.2  2              bulletin    291326
                                                                                                         _ldg
      0.19   +-  0.03        .9     .6   68.45 +-  0.0    0.09   1.46   +-0.1      +-0.0                 m i ke

FRANCE
Sta     Dist  EvAz     Phase      Date       Time     TRes  Azim  AzRes  Slow  SRes Def   SNR       Amp   Per   Mag1   Mag2       ID
MBDF  000.09 136.4 m E Pg      2013/01/30 18:17:52.2  -0.2                          T                                        5183473
MBDF  000.09 136.4 m E Sg      2013/01/30 18:17:53.7   0.0                          T               20.2  .26        Md 1.2  5183472
ORIF  000.59 282.8 m E Pg      2013/01/30 18:18:01.5   0.1                          T                                        5183470
ORIF  000.59 282.8 m E Sg      2013/01/30 18:18:08.7  -0.4                          T                1.4  .29        Md 1.2  5183471
LPG   000.71 003.7 m E Pg      2013/01/30 18:18:03.8   0.0                          T                                        5183465
LPG   000.71 003.7 m E Sg      2013/01/30 18:18:13.1   0.0                          T                1.1  .22                5183464
LPL   000.73 002.6 m E Pg      2013/01/30 18:18:04.1   0.0                          T                                        5183469
LPL   000.73 002.6 m E Sg      2013/01/30 18:18:13.6   0.0                          T                1.0  .23                5183468
SBF   001.07 149.6 m E Pg      2013/01/30 18:18:10.3   0.0                          T                                        5183462
FRF   001.23 181.3 m E Pn      2013/01/30 18:18:12.8   0.1                          T                                        5183466
FRF   001.23 181.3 m E Sg      2013/01/30 18:18:28.9  -0.1                          T                 .4  .21 Ml 1.2         5183467
LMR   001.46 185.1 m E Pn      2013/01/30 18:18:15.8   0.0                          T                                        5183463
LMR   001.46 185.1 m E Sn      2013/01/30 18:18:34.6   0.1                          T                 .2  .15 Ml 1.1         5183461

.
EVENT     291228
    Date      Time       Latitude Longitude    Depth    Ndef Nsta Gap    Mag1  N    Mag2  N    Mag3  N   Author         ID
       rms   OT_Error      Smajor Sminor Az        Err   mdist  Mdist     Err        Err        Err      Quality

2013/01/30 18:44:40.8     44.8159    6.7094      2.0      16    7 148  Ml 1.3  2  Md 1.2  2              bulletin    291328
                                                                                                         _ldg
      0.26   +-  0.04       1.2     .7   73.55 +-  0.0    0.10   1.49   +-0.1      +-0.0                 m i ke

FRANCE
Sta     Dist  EvAz     Phase      Date       Time     TRes  Azim  AzRes  Slow  SRes Def   SNR       Amp   Per   Mag1   Mag2       ID
MBDF  000.10 153.6 m E Pg      2013/01/30 18:44:43.1  -0.1                          T                                        5183491
MBDF  000.10 153.6 m E Sg      2013/01/30 18:44:44.6  -0.1                          T               28.6  .26        Md 1.3  5183488
ORIF  000.60 280.1 m E Pg      2013/01/30 18:44:52.3   0.0                          T                                        5183490
ORIF  000.60 280.1 m E Sg      2013/01/30 18:45:00.1  -0.1                          T                2.0  .30        Md 1.2  5183489
LPG   000.68 002.5 m E Pg      2013/01/30 18:44:54.0  -0.1                          T                                        5183485
LPG   000.68 002.5 m E Sg      2013/01/30 18:45:03.0   0.0                          T                1.5  .20                5183483
LPL   000.70 001.3 m E Pg      2013/01/30 18:44:54.4   0.1                          T                                        5183486
LPL   000.70 001.3 m E Sg      2013/01/30 18:45:03.3  -0.2                          T                1.6  .27                5183487
SBF   001.09 151.1 m E Pg      2013/01/30 18:45:01.1  -0.1                          T                                        5183480
FRF   001.26 182.1 m E Pn      2013/01/30 18:45:03.6  -0.1                          T                                        5183484
FRF   001.26 182.1 m E Sn      2013/01/30 18:45:20.2   0.0                          T                 .3  .16 Ml 1.2         5183482
LMR   001.49 185.6 m E Pn      2013/01/30 18:45:06.8  -0.1                          T                                        5183481
LMR   001.49 185.6 m E Pg      2013/01/30 18:45:08.9   0.3                          T                                        5183479
LMR   001.49 185.6 m E Sn      2013/01/30 18:45:25.7  -0.1                          T                 .4  .19 Ml 1.3         5183478

.
EVENT     291229
    Date      Time       Latitude Longitude    Depth    Ndef Nsta Gap    Mag1  N    Mag2  N    Mag3  N   Author         ID
       rms   OT_Error      Smajor Sminor Az        Err   mdist  Mdist     Err        Err        Err      Quality

2013/01/30 19:28:45.3     44.6548    6.7184      2.0       6    2 266             Md 1.1  2              bulletin    291329
                                                                                                         _ldg
      0.10   +-  0.16       4.2    1.0  165.88 +-  0.0    0.08   0.65              +-0.0                 m i ke

FRANCE
Sta     Dist  EvAz     Phase      Date       Time     TRes  Azim  AzRes  Slow  SRes Def   SNR       Amp   Per   Mag1   Mag2       ID
MBDF  000.08 027.7 m E Pg      2013/01/30 19:28:47.4   0.0                          T                                        5183497
MBDF  000.08 027.7 m E Sg      2013/01/30 19:28:48.6  -0.1                          T                7.9  .18        Md 1.0  5183496
ORIF  000.65 294.1 m E Pg      2013/01/30 19:28:57.7   0.0                          T                                        5183494
ORIF  000.65 294.1 m E Sg      2013/01/30 19:29:06.4   0.1                          T                 .4  .19        Md 1.1  5183495

.
