EVENT     297389
    Date      Time       Latitude Longitude    Depth    Ndef Nsta Gap    Mag1  N    Mag2  N    Mag3  N   Author         ID
       rms   OT_Error      Smajor Sminor Az        Err   mdist  Mdist     Err        Err        Err      Quality

2013/05/03 11:33:49.6     47.6367    6.2781       .0 f    16    9 122  Ml 2.1  6  Md 2.2  1              bulletin    297489
                                                                                                         _ldg
      0.73   +-  0.13       2.4    2.1  131.64 +-  0.0    0.37   1.94   +-0.2      +-                    m i km

FRANCE
Sta     Dist  EvAz     Phase      Date       Time     TRes  Azim  AzRes  Slow  SRes Def   SNR       Amp   Per   Mag1   Mag2       ID
HAU   000.37 007.3 m E Pg      2013/05/03 11:33:56.2  -0.9                          T                                        5274025
HAU   000.37 007.3 m E Sg      2013/05/03 11:34:01.4  -0.8                          T              105.8  .94        Md 2.2  5274028
HINF  000.43 064.9 m E Pg      2013/05/03 11:33:58.2   0.1                          T                                        5274024
HINF  000.43 064.9 m E Sg      2013/05/03 11:34:03.8  -0.1                          T               26.6  .84                5274027
PAGF  000.99 338.2 m E Pg      2013/05/03 11:34:08.5   0.1                          T                                        5274021
PAGF  000.99 338.2 m E Sg      2013/05/03 11:34:22.6   1.1                          T                6.2  .39 Ml 2.0         5284051
SFTF  001.01 304.7 m E Pg      2013/05/03 11:34:09.2   0.5 127.7  3.9               T                                        5274022
SFTF  001.01 304.7 m E Sg      2013/05/03 11:34:21.8  -0.3 129.4  5.5               T                                        5274030
CDF   001.03 040.4 m E Pg      2013/05/03 11:34:09.4   0.2                          T                                        5274020
CDF   001.03 040.4 m E Sg      2013/05/03 11:34:22.8   0.2                          T                4.6  .31 Ml 2.1         5274029
CABF  001.03 187.3 m E Pg      2013/05/03 11:34:09.4   0.1                          T                                        5274023
CABF  001.03 187.3 m E Sg      2013/05/03 11:34:22.9  -0.1                          T                3.7  .27 Ml 2.0         5274026
MEZF  001.19 316.9 m E Pg      2013/05/03 11:34:12.1   0.0 138.4  2.4               T                                        5274032
MEZF  001.19 316.9 m E Sg      2013/05/03 11:34:27.7   0.0                          T                4.2  .30 Ml 2.0         5274031
LOR   001.68 258.2 m E Sg      2013/05/03 11:34:42.9  -0.2  79.7  3.3               T                1.1  .20 Ml 1.9         5284050
SMF   001.94 240.1 m E Sg      2013/05/03 11:34:50.8  -0.2                          T                4.9  .34 Ml 2.3         5284049

.
EVENT     297405
    Date      Time       Latitude Longitude    Depth    Ndef Nsta Gap    Mag1  N    Mag2  N    Mag3  N   Author         ID
       rms   OT_Error      Smajor Sminor Az        Err   mdist  Mdist     Err        Err        Err      Quality

2013/05/03 16:48:00.4     42.5502     .4947      2.0      92   20 023  Ml 2.8 18  Md 3.1  2              bulletin    297505
                                                                                                         _ldg
      0.79   +-  0.07       1.6    1.4   26.88 +-  0.0    0.25   6.36   +-0.2      +-0.1                 m i ke

PYRENEES
Sta     Dist  EvAz     Phase      Date       Time     TRes  Azim  AzRes  Slow  SRes Def   SNR       Amp   Per   Mag1   Mag2       ID
EPF   000.49 346.7 m E Pg      2013/05/03 16:48:09.4  -0.5                          T                                        5274085
EPF   000.49 346.7 m E Sg      2013/05/03 16:48:17.1   0.7                          T               74.3  .26        Md 3.1  5274103
ETSF  000.85 294.5 m E Pg      2013/05/03 16:48:15.3  -1.2                          T                                        5274083
ETSF  000.85 294.5 m E Sg      2013/05/03 16:48:26.4  -1.2                          T               80.6  .42        Md 3.0  5274087
SJPF  001.38 294.6 m E Pn      2013/05/03 16:48:25.2   0.1                          T                                        5274082
SJPF  001.38 294.6 m E Pg      2013/05/03 16:48:26.8   0.5                          T                                        5284359
SJPF  001.38 294.6 m E Sg      2013/05/03 16:48:45.5   1.3                          T               54.8  .38 Ml 3.1         5274081
MTLF  001.49 057.4 m E Pg      2013/05/03 16:48:28.9   0.7                          T                                        5274084
MTLF  001.49 057.4 m E Sg      2013/05/03 16:48:47.9   0.4                          T               28.7  .30 Ml 3.0         5274086
LFF   002.40 004.2 m E P       2013/05/03 16:48:41.6   0.3                          T                                        5274095
LFF   002.40 004.2 m E Sn      2013/05/03 16:49:06.6  -0.4                          T               12.8  .33 Ml 2.7         5274089
LFF   002.40 004.2 m E Sg      2013/05/03 16:49:16.7   1.0                          T               40.8  .38 Ml 3.2         5284361
CAF   002.63 025.1 m E Pn      2013/05/03 16:48:42.0  -0.1                          T                                        5274104
CAF   002.63 025.1 m E Pg      2013/05/03 16:48:49.5   0.2                          T                                        5274094
CAF   002.63 025.1 m E Sn      2013/05/03 16:49:12.3  -0.4                          T               10.1  .36 Ml 2.8         5274105
CAF   002.63 025.1 m E Sg      2013/05/03 16:49:23.9   0.8                          T                8.0  .25 Ml 2.8         5284360
RJF   002.85 014.7 m E P       2013/05/03 16:48:47.9   0.1                          T                                        5274092
RJF   002.85 014.7 m E Pg      2013/05/03 16:48:54.0   0.7                          T                                        5274093
RJF   002.85 014.7 m E Sn      2013/05/03 16:49:17.7  -0.2                          T               19.3  .46 Ml 2.7         5274090
RJF   002.85 014.7 m E Sg      2013/05/03 16:49:31.0   1.1                          T               11.3  .38 Ml 2.5         5284362
LASF  002.89 057.0 m E P       2013/05/03 16:48:48.5   0.1                          T                                        5274091
LASF  002.89 057.0 m E Pg      2013/05/03 16:48:54.3   0.3                          T                                        5284358
LASF  002.89 057.0 m E Sg      2013/05/03 16:49:31.3   0.2                          T               21.0  .52 Ml 3.0         5274088
MFF   004.08 353.8 m E Pn      2013/05/03 16:49:02.0   0.3                          T                                        5274098
MFF   004.08 353.8 m E Sn      2013/05/03 16:49:46.7  -0.5                          T                                        5274101
MFF   004.08 353.8 m E Sg      2013/05/03 16:50:09.1   0.9                          T                6.1  .42 Ml 3.0         5284363
TCF   003.93 017.6 m E P       2013/05/03 16:49:02.9  -0.4                          T                                        5274099
TCF   003.93 017.6 m E Pg      2013/05/03 16:49:13.5   0.3                          T                                        5284371
TCF   003.93 017.6 m E Sn      2013/05/03 16:49:44.0   0.2                          T                4.9  .36 Ml 2.8         5274100
TCF   003.93 017.6 m E Sg      2013/05/03 16:50:04.4   0.6                          T                6.0  .37 Ml 2.9         5284370
AVF   004.70 024.7 m E Pn      2013/05/03 16:49:10.3   0.0                          T                                        5284369
AVF   004.70 024.7 m E Sg      2013/05/03 16:50:28.6   0.8                          T                1.9  .29 Ml 2.6         5284368
FRF   004.62 075.3 m E P       2013/05/03 16:49:12.7  -0.2                          T                                        5274096
SMF   004.74 029.1 m E P       2013/05/03 16:49:14.6  -0.1                          T                                        5274097
LPG   005.39 054.7 m E P       2013/05/03 16:49:24.0  -0.2                          T                                        5284356
LPL   005.39 054.5 m E P       2013/05/03 16:49:24.1   0.0                          T                                        5284355
FLN   006.25 354.1 m E Pn      2013/05/03 16:49:31.3   0.0                          T                                        5284367
ROSF  006.36 336.7 m E Pn      2013/05/03 16:49:33.2   0.3                          T                                        5274102
ROSF  006.36 336.7 m E Sn      2013/05/03 16:50:41.9   0.1                          T                 .6  .22 Ml 2.6         5284364
VIVF  003.81 051.3 m E Sg      2013/05/03 16:50:00.1   0.3                          T                4.0  .37 Ml 2.6         5284357
QUIF  005.96 335.5 m E Sn      2013/05/03 16:50:32.0   0.0                          T                1.3  .26 Ml 2.8         5284365
LDF   006.06 356.1 m E Sn      2013/05/03 16:50:34.5  -0.1                          T                1.5  .28 Ml 2.8         5284366

.
EVENT     297406
    Date      Time       Latitude Longitude    Depth    Ndef Nsta Gap    Mag1  N    Mag2  N    Mag3  N   Author         ID
       rms   OT_Error      Smajor Sminor Az        Err   mdist  Mdist     Err        Err        Err      Quality

2013/05/03 20:16:28.7     44.8800    6.6772      5.0 f    50   14 036  Ml 2.2  9  Md 2.5  5              bulletin    297506
                                                                                                         _ldg
      0.58   +-  0.08       1.7    1.4   80.38 +-  0.0    0.09   3.16   +-0.2      +-0.1                 m i ke

FRANCE
Sta     Dist  EvAz     Phase      Date       Time     TRes  Azim  AzRes  Slow  SRes Def   SNR       Amp   Per   Mag1   Mag2       ID
MBDF  000.17 156.3 m E Pg      2013/05/03 20:16:32.0  -0.5                          T                                        5274127
MBDF  000.17 156.3 m E Sg      2013/05/03 20:16:34.4  -0.5                          T               87.0  .18        Md 2.5  5274126
ORIF  000.57 274.1 m E Pg      2013/05/03 20:16:39.0  -0.7                          T                                        5274125
ORIF  000.57 274.1 m E Sg      2013/05/03 20:16:46.0  -1.2                          T               20.7  .20        Md 2.6  5274124
LPG   000.62 004.8 m E Pg      2013/05/03 20:16:40.6  -0.3                          T                                        5274122
LPG   000.62 004.8 m E Sg      2013/05/03 20:16:49.3   0.3                          T               15.0  .21        Md 2.4  5274119
LPL   000.64 003.5 m E Pg      2013/05/03 20:16:40.8  -0.3                          T                                        5274123
LPL   000.64 003.5 m E Sg      2013/05/03 20:16:49.8   0.3                          T                7.8  .21        Md 2.5  5274106
SBF   001.15 151.6 m E Pg      2013/05/03 20:16:50.8   0.4                          T                                        5274114
SBF   001.15 151.6 m E Sg      2013/05/03 20:17:05.6   0.3                          T                4.0  .23 Ml 2.1         5274113
SMRF  001.20 221.5 m E Pg      2013/05/03 20:16:51.5   0.3                          T                                        5284408
SMRF  001.20 221.5 m E P       2013/05/03 20:16:52.7   0.4                          T                                        5274110
SMRF  001.20 221.5 m E Sg      2013/05/03 20:17:07.4   0.6                          T                3.9  .35 Ml 2.0         5274109
FRF   001.32 181.0 m E Pg      2013/05/03 20:16:53.7   0.4                          T                                        5274118
FRF   001.32 181.0 m E Sg      2013/05/03 20:17:09.6  -0.9                          T                8.5  .23 Ml 2.6         5274117
VIVF  001.43 269.7 m E Pg      2013/05/03 20:16:56.0   0.7                          T                                        5274121
VIVF  001.43 269.7 m E Sg      2013/05/03 20:17:14.1   0.3                          T                3.0  .31 Ml 2.0         5274120
LMR   001.55 184.5 m E Pg      2013/05/03 20:16:57.9   0.3                          T                                        5274116
LMR   001.55 184.5 m E Sg      2013/05/03 20:17:17.9   0.3                          T                5.6  .20 Ml 2.5         5274115
CABF  001.78 346.8 m E Pg      2013/05/03 20:17:02.3   0.4                          T                                        5274112
CABF  001.78 346.8 m E Sg      2013/05/03 20:17:25.0   0.1                          T                2.4  .25 Ml 2.1         5274111
LASF  002.17 249.3 m E Pg      2013/05/03 20:17:09.4   0.3                          T                                        5284407
SMF   002.66 312.7 m E P       2013/05/03 20:17:13.3   0.2                          T                                        5284404
SMF   002.66 312.7 m E Sg      2013/05/03 20:17:52.5   0.4                          T                3.2  .31 Ml 2.4         5284410
BGF   003.16 303.4 m E P       2013/05/03 20:17:20.0  -0.3                          T                                        5284406
BGF   003.16 303.4 m E Sg      2013/05/03 20:18:08.5   0.5                          T                2.3  .22 Ml 2.5         5284405
AVF   003.01 310.6 m E Sg      2013/05/03 20:18:03.5   0.4                          T                  1  .29 Ml 2.0         5284409

.
EVENT     297407
    Date      Time       Latitude Longitude    Depth    Ndef Nsta Gap    Mag1  N    Mag2  N    Mag3  N   Author         ID
       rms   OT_Error      Smajor Sminor Az        Err   mdist  Mdist     Err        Err        Err      Quality

2013/05/03 23:34:56.6     44.5842    7.3890     15.0 f    43    8 101  Ml 1.6  6  Md 2.0  2              bulletin    297507
                                                                                                         _ldg
      0.29   +-  0.04       1.0     .7   54.00 +-  0.0    0.13   1.44   +-0.3      +-0.1                 m i ke

NORTHERN ITALY
Sta     Dist  EvAz     Phase      Date       Time     TRes  Azim  AzRes  Slow  SRes Def   SNR       Amp   Per   Mag1   Mag2       ID
MBDF  000.46 288.2 m E Pg      2013/05/03 23:35:06.4   0.4                          T                                        5274158
MBDF  000.46 288.2 m E Sg      2013/05/03 23:35:12.3   0.0                          T               15.4  .25        Md 1.9  5274157
SBF   000.72 177.3 m E Pg      2013/05/03 23:35:10.4  -0.1                          T                                        5274156
SBF   000.72 177.3 m E Sg      2013/05/03 23:35:20.2   0.1                          T                5.0  .22        Md 2.1  5274155
LPG   001.02 333.9 m E Pg      2013/05/03 23:35:16.0  -0.2                          T                                        5274152
LPG   001.02 333.9 m E Sg      2013/05/03 23:35:28.7  -0.8                          T                 .7  .21 Ml 1.3         5274170
LPL   001.04 333.7 m E Pg      2013/05/03 23:35:16.6   0.1                          T                                        5284411
LPL   001.04 333.7 m E Sg      2013/05/03 23:35:30.2   0.0                          T                 .8  .25 Ml 1.3         5284412
ORIF  001.13 287.8 m E Pg      2013/05/03 23:35:17.6  -0.4                          T                                        5284413
ORIF  001.13 287.8 m E Sg      2013/05/03 23:35:32.4  -0.2                          T                1.2  .30 Ml 1.5         5284414
FRF   001.15 207.9 m E Pg      2013/05/03 23:35:18.4   0.1                          T                                        5274154
FRF   001.15 207.9 m E Sg      2013/05/03 23:35:33.5   0.1                          T                2.2  .19 Ml 2.0         5274153
LMR   001.40 207.2 m E Pg      2013/05/03 23:35:22.8  -0.1                          T                                        5274151
LMR   001.40 207.2 m E Sg      2013/05/03 23:35:41.2   0.2                          T                1.9  .25 Ml 1.9         5274150
SMRF  001.44 245.6 m E Pg      2013/05/03 23:35:23.6   0.1                          T                                        5274172
SMRF  001.44 245.6 m E Sg      2013/05/03 23:35:42.2   0.0                          T                 .9  .26 Ml 1.6         5274171

.
EVENT     297462
    Date      Time       Latitude Longitude    Depth    Ndef Nsta Gap    Mag1  N    Mag2  N    Mag3  N   Author         ID
       rms   OT_Error      Smajor Sminor Az        Err   mdist  Mdist     Err        Err        Err      Quality

2013/05/04 01:17:31.6     45.6131    6.9517      2.0      16    4 094  Ml 1.3  3  Md 1.3  2              bulletin    297562
                                                                                                         _ldg
      0.18   +-  0.06       1.3     .9  159.99 +-  0.0    0.18   1.03   +-0.1      +-0.0                 m i ke

FRANCE
Sta     Dist  EvAz     Phase      Date       Time     TRes  Azim  AzRes  Slow  SRes Def   SNR       Amp   Per   Mag1   Mag2       ID
LPL   000.18 237.9 m E Pg      2013/05/04 01:17:35.5  -0.1                          T                                        5275293
LPL   000.18 237.9 m E Sg      2013/05/04 01:17:38.2   0.1                          T                3.2  .26        Md 1.3  5275292
LPG   000.18 230.7 m E Pg      2013/05/04 01:17:35.5  -0.1                          T                                        5275295
LPG   000.18 230.7 m E Sg      2013/05/04 01:17:37.9  -0.3                          T                7.7  .22        Md 1.3  5275294
MBDF  000.90 188.3 m E Pg      2013/05/04 01:17:48.6  -0.1                          T                                        5275290
MBDF  000.90 188.3 m E Sg      2013/05/04 01:18:00.3   0.1                          T                1.4  .26 Ml 1.5         5275288
ORIF  001.03 227.8 m E Pg      2013/05/04 01:17:50.9  -0.1                          T                                        5275291
ORIF  001.03 227.8 m E Sg      2013/05/04 01:18:04.3   0.0                          T                 .6  .23 Ml 1.2         5275289

.
