BEGIN GSE2.0
MSG_TYPE DATA
MSG_ID 21-DEC-1214:57:28  FRA_NDC
E-MAIL
DATA_TYPE BULLETIN
Reviewed Bulletin (REB) # P2012-048  from French NDC for regional phases     PERIOD 28 NOV 2012 TO 04 DEC 2012 Cenalt JP S
EVENT     287579
    Date      Time       Latitude Longitude    Depth    Ndef Nsta Gap    Mag1  N    Mag2  N    Mag3  N   Author         ID
       rms   OT_Error      Smajor Sminor Az        Err   mdist  Mdist     Err        Err        Err      Quality

2012/11/28 01:49:45.1     42.5346   20.1163     10.0 f    61   20 093  Ml 4.5 15                         bulletin    287679
                                                                                                         _ldg
      0.84   +-  0.18       5.2    3.3    3.41 +-  0.0    0.74  13.27   +-0.3                            m i ke

NORTHWESTERN BALKAN PEN.
Sta     Dist  EvAz     Phase      Date       Time     TRes  Azim  AzRes  Slow  SRes Def   SNR       Amp   Per   Mag1   Mag2       ID
PGF   008.21 273.8 m E P       2012/11/28 01:51:47.8   0.4                          T                                        5126746
SBF   009.36 282.5 m E P       2012/11/28 01:52:02.1  -1.2                          T                                        5126747
SBF   009.36 282.5 m E Sn      2012/11/28 01:53:37.5   0.8                          T              161.9 1.12 Ml 4.8         5126744
FRF   009.92 280.5 m E Pn      2012/11/28 01:52:06.4   1.4                          T                                        5126749
FRF   009.92 280.5 m E P       2012/11/28 01:52:11.0   0.1                          T                                        5126748
FRF   009.92 280.5 m E Sn      2012/11/28 01:53:50.9   0.9                          T               11.3  .60 Ml 4.0         5126742
MBDF  009.92 287.3 m E P       2012/11/28 01:52:10.3  -0.9                          T                                        5126753
MBDF  009.92 287.3 m E Sn      2012/11/28 01:53:51.2   0.9                          T               50.1  .74 Ml 4.5         5126738
LPG   010.07 291.6 m E P       2012/11/28 01:52:12.8  -0.6                          T                                        5126750
LPG   010.07 291.6 m E Sn      2012/11/28 01:53:55.1   1.0                          T               72.3  .79 Ml 4.7         5126741
LPL   010.09 291.7 m E P       2012/11/28 01:52:12.9  -0.7                          T                                        5126751
LPL   010.09 291.7 m E Sn      2012/11/28 01:53:55.5   1.1                          T               55.1  .72 Ml 4.6         5126740
ORIF  010.58 287.9 m E P       2012/11/28 01:52:19.2  -0.9                          T                                        5126752
ORIF  010.58 287.9 m E Sn      2012/11/28 01:54:07.2   1.3                          T               20.5  .50 Ml 4.4         5126739
CDF   010.76 307.5 m E P       2012/11/28 01:52:21.5  -1.0                          T                                        5126761
CABF  010.80 296.9 m E P       2012/11/28 01:52:22.1  -1.1                          T                                        5126760
CABF  010.80 296.9 m E Sn      2012/11/28 01:54:12.6   1.3                          T               23.6  .69 Ml 4.4         5126734
HAU   011.13 304.1 m E P       2012/11/28 01:52:26.8  -0.8                          T                                        5126764
HAU   011.13 304.1 m E Sn      2012/11/28 01:54:19.9   0.8                          T               33.1  .66 Ml 4.4         5126731
VIVF  011.42 287.0 m E P       2012/11/28 01:52:29.2  -2.3                          T                                        5126745
SFTF  012.02 303.3 m E P       2012/11/28 01:52:40.6   1.0                          T                                        5126759
LOR   012.46 297.9 m E P       2012/11/28 01:52:43.6  -1.9                          T                                        5126762
LOR   012.46 297.9 m E Sn      2012/11/28 01:54:52.1   1.4                          T               20.4  .44 Ml 4.7         5126733
SMF   012.31 295.1 m E P       2012/11/28 01:52:43.6   0.2                          T                                        5126757
SMF   012.31 295.1 m E Sn      2012/11/28 01:54:48.8   1.7                          T               32.8  .61 Ml 4.8         5126735
AVF   012.67 295.3 m E P       2012/11/28 01:52:46.7  -1.5                          T                                        5126758
SSF   012.63 296.7 m E P       2012/11/28 01:52:46.9  -0.8                          T                                        5126763
SSF   012.63 296.7 m E Sn      2012/11/28 01:54:55.4   0.6                          T               15.6  .81 Ml 4.4         5126732
BGF   012.96 294.0 m E P       2012/11/28 01:52:50.3  -1.8                          T                                        5126755
BGF   012.96 294.0 m E Sn      2012/11/28 01:55:03.8   1.2                          T               13.2  .46 Ml 4.5         5126737
HYF   013.26 296.9 m E P       2012/11/28 01:52:54.3  -1.8                          T                                        5126756
HYF   013.26 296.9 m E Sn      2012/11/28 01:55:11.0   1.2                          T                                        5126736
CAF   013.27 286.5 m E P       2012/11/28 01:52:56.6   0.2                          T                                        5126754
LMR   010.01 279.2 m E Sn      2012/11/28 01:53:53.1   0.8                          T                3.9  .34 Ml 3.8         5126743

.
EVENT     287580
    Date      Time       Latitude Longitude    Depth    Ndef Nsta Gap    Mag1  N    Mag2  N    Mag3  N   Author         ID
       rms   OT_Error      Smajor Sminor Az        Err   mdist  Mdist     Err        Err        Err      Quality

2012/11/28 06:29:25.3     42.7876   -1.3399      3.0 f    24    4 191  Ml 1.6  3  Md 1.8  2              bulletin    287680
                                                                                                         _ldg
      0.60   +-  0.17       3.6    2.0   15.42 +-  0.0    0.02   2.66   +-0.3      +-0.0                 m i ke

PYRENEES
Sta     Dist  EvAz     Phase      Date       Time     TRes  Azim  AzRes  Slow  SRes Def   SNR       Amp   Per   Mag1   Mag2       ID
SJPF  000.34 014.5 m E Pg      2012/11/28 06:29:32.1   0.3                          T                                        5126770
SJPF  000.34 014.5 m E Sg      2012/11/28 06:29:36.2  -0.1                          T               23.3  .21        Md 1.8  5126769
ETSF  000.58 078.8 m E Pg      2012/11/28 06:29:36.8   0.3                          T                                        5126768
ETSF  000.58 078.8 m E Sg      2012/11/28 06:29:44.0  -0.2                          T                3.2  .16        Md 1.8  5126767
EPF   001.26 078.3 m E Pg      2012/11/28 06:29:48.5  -0.4                          T                                        5126766
EPF   001.26 078.3 m E Sg      2012/11/28 06:30:05.3   0.2                          T                1.3  .20 Ml 1.7         5126765
MTLF  002.66 076.8 m E Pn      2012/11/28 06:30:07.1  -0.2                          T                                        5126776
MTLF  002.66 076.8 m E Pg      2012/11/28 06:30:14.4  -0.3                          T                                        5126775
MTLF  002.66 076.8 m E Sn      2012/11/28 06:30:38.1  -0.1                          T                 .2  .20 Ml 1.3         5126774

.
EVENT     287600
    Date      Time       Latitude Longitude    Depth    Ndef Nsta Gap    Mag1  N    Mag2  N    Mag3  N   Author         ID
       rms   OT_Error      Smajor Sminor Az        Err   mdist  Mdist     Err        Err        Err      Quality

2012/11/28 11:08:50.9     47.6366    6.2341       .0 f    16    8 119  Ml 2.1  6  Md 2.0  2              bulletin    287700
                                                                                                         _ldg
      0.56   +-  0.07       1.3    1.2  130.28 +-  0.0    0.38   1.65   +-0.4      +-0.1                 m i km

FRANCE
Sta     Dist  EvAz     Phase      Date       Time     TRes  Azim  AzRes  Slow  SRes Def   SNR       Amp   Per   Mag1   Mag2       ID
HAU   000.38 011.7 m E Pg      2012/11/28 11:08:58.1  -0.3                          T                                        5127043
HAU   000.38 011.7 m E Sg      2012/11/28 11:09:03.7   0.0                          T               71.9  .96        Md 2.0  5127042
HINF  000.46 066.4 m E Pg      2012/11/28 11:09:00.0   0.1                          T                                        5127039
HINF  000.46 066.4 m E Sg      2012/11/28 11:09:06.4   0.3                          T               26.1  .98        Md 2.0  5127034
PAGF  000.98 339.8 m E Pg      2012/11/28 11:09:09.7   0.2                          T                                        5127035
PAGF  000.98 339.8 m E Sn      2012/11/28 11:09:24.0  -0.3 158.5  -1.0              T                1.9  .21 Ml 1.7         5127036
SFTF  000.99 305.7 m E Pg      2012/11/28 11:09:09.9   0.3                          T                                        5127033
SFTF  000.99 305.7 m E Sg      2012/11/28 11:09:22.1  -0.5 125.2  0.3               T               21.8  .61 Ml 2.4         5127032
CABF  001.03 185.6 m E Pg      2012/11/28 11:09:10.5   0.0                          T                                        5127041
CABF  001.03 185.6 m E Sg      2012/11/28 11:09:24.0  -0.2                          T               84.2 1.22 Ml 2.7         5127040
CDF   001.04 041.6 m E Pg      2012/11/28 11:09:10.7  -0.2                          T                                        5127038
CDF   001.04 041.6 m E Sg      2012/11/28 11:09:24.5   0.0                          T                1.9  .30 Ml 1.7         5127037
MEZF  001.17 318.0 m E Pg      2012/11/28 11:09:13.2   0.1                          T                                        5127030
MEZF  001.17 318.0 m E Sg      2012/11/28 11:09:28.4  -0.1 145.2  8.1               T                8.8  .42 Ml 2.2         5127031
LOR   001.65 258.0 m E Pn      2012/11/28 11:09:19.6   0.0                          T                                        5127029
LOR   001.65 258.0 m E Sn      2012/11/28 11:09:40.5   0.0                          T                 .8  .18 Ml 1.8         5127028

.
