EVENT     260501
    Date      Time       Latitude Longitude    Depth    Ndef Nsta Gap    Mag1  N    Mag2  N    Mag3  N   Author         ID
       rms   OT_Error      Smajor Sminor Az        Err   mdist  Mdist     Err        Err        Err      Quality

2011/06/17 20:29:59.0     44.9700    5.6964      9.0 f    35   13 057  Ml 2.0 10  Md 2.3  2              js067245    260501

      0.99   +-  0.06       1.2    1.0   96.03 +-  0.0    0.14   2.45   +-0.3      +-0.0                 m i ke

FRANCE
Sta     Dist  EvAz     Phase      Date       Time     TRes  Azim  AzRes  Slow  SRes Def   SNR       Amp   Per   Mag1   Mag2       ID
ORIF  000.14 111.6 m E Pg      2011/06/17 20:30:02.1  -0.3                          T                                        4710113
ORIF  000.14 111.6 m E Sg      2011/06/17 20:30:04.1  -0.5                          T               88.2  .28        Md 2.3  4710114
VIVF  000.74 261.5 m E Pg      2011/06/17 20:30:13.0   0.1                          T                                        4710117
VIVF  000.74 261.5 m E Pn      2011/06/17 20:30:14.0   0.0                          T                                        4710118
VIVF  000.74 261.5 m E Sg      2011/06/17 20:30:22.8   0.2                          T                                        4710126
VIVF  000.74 261.5 m E Sn      2011/06/17 20:30:24.8   0.1                          T               18.2  .30        Md 2.3  4710119
MBDF  000.80 107.3 m E Pg      2011/06/17 20:30:14.6   0.3                          T                                        4710115
MBDF  000.80 107.3 m E Sg      2011/06/17 20:30:25.1   0.3                          T                3.1  .21                4710116
LPG   000.91 054.3 m E Pg      2011/06/17 20:30:16.0  -0.5                          T                                        4710111
LPG   000.91 054.3 m E Sg      2011/06/17 20:30:28.4  -0.1                          T                1.6  .23 Ml 1.6         4710124
LPL   000.91 052.9 m E Pg      2011/06/17 20:30:16.5   0.1                          T                                        4710112
LPL   000.91 052.9 m E Sg      2011/06/17 20:30:28.4   0.1                          T                1.4  .21 Ml 1.6         4710125
SMRF  001.00 185.0 m E Pg      2011/06/17 20:30:17.8   0.1                          T                                        4710142
SMRF  001.00 185.0 m E P       2011/06/17 20:30:19.2   0.0                          T                                        4710110
SMRF  001.00 185.0 m E Sg      2011/06/17 20:30:30.8   0.1                          T                2.2  .30 Ml 1.7         4710123
FRF   001.57 153.8 m E P       2011/06/17 20:30:27.3   0.0                          T                                        4710141
FRF   001.57 153.8 m E Pg      2011/06/17 20:30:28.2   0.1                          T                                        4710140
FRF   001.57 153.8 m E Sg      2011/06/17 20:30:48.5   0.1                          T                4.5  .33 Ml 2.2         4710122
LMR   001.74 160.0 m E Pn      2011/06/17 20:30:27.6   0.0                          T                                        4710139
LMR   001.74 160.0 m E P       2011/06/17 20:30:29.4  -0.3                          T                                        4710138
LMR   001.74 160.0 m E Pg      2011/06/17 20:30:31.3   0.0                          T                                        4710137
LMR   001.74 160.0 m E Sg      2011/06/17 20:30:53.9   0.2                          T                1.8  .22 Ml 2.1         4710121
LASF  001.59 236.5 m E Pg      2011/06/17 20:30:28.8   0.2                          T                                        4710135
LASF  001.59 236.5 m E Sg      2011/06/17 20:30:49.2   0.0                          T                1.5  .27 Ml 1.8         4710127
SBF   001.67 131.0 m E Pg      2011/06/17 20:30:30.0  -0.1                          T                                        4710136
SBF   001.67 131.0 m E Sg      2011/06/17 20:30:51.4  -0.2                          T               10.1  .39 Ml 2.5         4710120
CABF  001.66 009.3 m E Pg      2011/06/17 20:30:30.3   0.2                          T                                        4710132
CABF  001.66 009.3 m E Sg      2011/06/17 20:30:51.4  -0.2                          T                  1  .25 Ml 1.7         4710131
SMF   002.12 322.9 m E Pg      2011/06/17 20:30:38.4   0.1                          T                                        4710134
SMF   002.12 322.9 m E Sn      2011/06/17 20:30:57.7   0.0                          T                                        4710129
SMF   002.12 322.9 m E Sg      2011/06/17 20:31:05.8   0.1                          T                3.4  .31 Ml 2.3         4710128
AVF   002.45 318.9 m E P       2011/06/17 20:30:39.6  -0.2                          T                                        4710133
AVF   002.45 318.9 m E Sg      2011/06/17 20:31:15.7  -0.2                          T                1.5  .26 Ml 2.1         4710130

.
EVENT     260502
    Date      Time       Latitude Longitude    Depth    Ndef Nsta Gap    Mag1  N    Mag2  N    Mag3  N   Author         ID
       rms   OT_Error      Smajor Sminor Az        Err   mdist  Mdist     Err        Err        Err      Quality

2011/06/18 07:30:57.5     43.0853     .0679      2.0      16    5 117  Ml 1.8  3  Md 2.0  2              js067245    260502

      0.50   +-  0.13       3.3    1.6   10.99 +-  0.0    0.09   2.34   +-0.4      +-0.3                 m i ke

FRANCE
Sta     Dist  EvAz     Phase      Date       Time     TRes  Azim  AzRes  Slow  SRes Def   SNR       Amp   Per   Mag1   Mag2       ID
EPF   000.21 105.3 m E Pg      2011/06/18 07:31:01.1  -0.6                          T                                        4710145
EPF   000.21 105.3 m E Sg      2011/06/18 07:31:03.7  -0.9                          T               18.7  .20        Md 2.2  4710146
ETSF  000.50 248.1 m E Pg      2011/06/18 07:31:06.8  -0.3                          T                                        4710147
ETSF  000.50 248.1 m E Sg      2011/06/18 07:31:13.4  -0.2                          T               11.5  .31        Md 1.7  4710148
MTLF  001.59 080.0 m E Pg      2011/06/18 07:31:27.4   0.2                          T                                        4710143
MTLF  001.59 080.0 m E Sg      2011/06/18 07:31:47.5  -0.2                          T                1.7  .21 Ml 2.0         4710144
SJPF  000.95 272.1 m E Sg      2011/06/18 07:31:27.5  -0.1                          T                 .9  .24 Ml 1.4         4710150
CAF   002.34 037.4 m E Sg      2011/06/18 07:32:10.9  -0.1                          T                1.6  .23 Ml 2.1         4710149

.
EVENT     260503
    Date      Time       Latitude Longitude    Depth    Ndef Nsta Gap    Mag1  N    Mag2  N    Mag3  N   Author         ID
       rms   OT_Error      Smajor Sminor Az        Err   mdist  Mdist     Err        Err        Err      Quality

2011/06/18 13:13:45.3     46.3845    1.8274      9.0 f    25   10 137  Ml 2.0  9  Md 1.9  3              js067245    260503

      0.67   +-  0.07       1.8    1.2  161.73 +-  0.0    0.28   1.65   +-0.2      +-0.1                 m i ke

FRANCE
Sta     Dist  EvAz     Phase      Date       Time     TRes  Azim  AzRes  Slow  SRes Def   SNR       Amp   Per   Mag1   Mag2       ID
TCF   000.28 109.8 m E Pg      2011/06/18 13:13:51.3   0.2                          T                                        4710162
TCF   000.28 109.8 m E Sg      2011/06/18 13:13:54.8  -0.2                          T               20.5  .16        Md 1.9  4710163
BGF   000.73 075.8 m E Pg      2011/06/18 13:13:59.6   0.4                          T                                        4710156
BGF   000.73 075.8 m E Sg      2011/06/18 13:14:08.3  -0.3                          T               13.4  .20        Md 2.0  4710157
RJF   001.10 191.5 m E Pn      2011/06/18 13:14:05.1  -0.3                          T                                        4710268
RJF   001.10 191.5 m E Sg      2011/06/18 13:14:19.5  -0.8                          T                3.5  .22 Ml 1.7         4710275
AVF   001.13 068.3 m E Pg      2011/06/18 13:14:06.1  -0.4                          T                                        4710278
AVF   001.13 068.3 m E Sg      2011/06/18 13:14:20.5  -0.6                          T                1.9  .20 Ml 1.8         4710152
MFF   001.38 279.8 m E Pn      2011/06/18 13:14:09.2   0.1                          T                                        4710267
MFF   001.38 279.8 m E Pg      2011/06/18 13:14:11.4   0.3                          T                                        4710266
MFF   001.38 279.8 m E Sg      2011/06/18 13:14:28.1  -0.9                          T                3.3  .23 Ml 2.3         4710276
SSF   001.34 059.0 m E Pg      2011/06/18 13:14:10.4   0.0                          T                                        4710160
SSF   001.34 059.0 m E Sn      2011/06/18 13:14:25.3  -0.2                          T                1.6  .26 Ml 1.8         4710161
CAF   001.47 173.4 m E Pn      2011/06/18 13:14:10.6   0.2                          T                                        4710271
CAF   001.47 173.4 m E Pg      2011/06/18 13:14:13.0   0.3                          T                                        4710270
CAF   001.47 173.4 m E Sn      2011/06/18 13:14:27.9  -0.7                          T                                        4710274
CAF   001.47 173.4 m E Sg      2011/06/18 13:14:31.7  -0.1                          T                4.5  .28 Ml 2.2         4710273
SMF   001.41 078.6 m E Pg      2011/06/18 13:14:11.7  -0.1                          T                                        4710277
SMF   001.41 078.6 m E Sg      2011/06/18 13:14:30.0  -0.1                          T                2.6  .22 Ml 2.1         4710151
LFF   001.63 208.2 m E Pg      2011/06/18 13:14:15.9   0.1                          T                                        4710269
LFF   001.63 208.2 m E Sg      2011/06/18 13:14:36.7  -0.2                          T                1.7  .27 Ml 1.7         4710272
LOR   001.65 056.9 m E Pg      2011/06/18 13:14:16.1  -0.1 235.5  -2.8              T                                        4710158
LOR   001.65 056.9 m E Sg      2011/06/18 13:14:36.7  -0.8                          T                1.7  .19 Ml 2.1         4710159

.
EVENT     260562
    Date      Time       Latitude Longitude    Depth    Ndef Nsta Gap    Mag1  N    Mag2  N    Mag3  N   Author         ID
       rms   OT_Error      Smajor Sminor Az        Err   mdist  Mdist     Err        Err        Err      Quality

2011/06/18 19:27:01.6     46.3195    7.3211      3.0 f    17    8 093  Ml 1.8  8  Md 1.7  1              js067245    260562

      0.15   +-  0.05       1.0     .7  100.46 +-  0.0    0.05   2.56   +-0.2      +-                    m i ke

SWITZERLAND
Sta     Dist  EvAz     Phase      Date       Time     TRes  Azim  AzRes  Slow  SRes Def   SNR       Amp   Per   Mag1   Mag2       ID
LPG   000.91 206.0 m E Pg      2011/06/18 19:27:19.0  -0.2                          T                                        4710282
LPG   000.91 206.0 m E Sg      2011/06/18 19:27:31.0   0.0                          T                2.8  .28 Ml 1.8 Md 1.7  4710283
LPL   000.90 207.3 m E Pg      2011/06/18 19:27:19.0   0.1                          T                                        4710281
LPL   000.90 207.3 m E Sg      2011/06/18 19:27:30.6   0.0                          T                1.8  .29 Ml 1.6         4710284
CABF  000.90 289.3 m E Pn      2011/06/18 19:27:19.6  -0.1                          T                                        4710292
CABF  000.90 289.3 m E Sg      2011/06/18 19:27:30.9   0.5                          T                1.7  .20 Ml 1.7         4710293
HINF  001.53 348.1 m E Pg      2011/06/18 19:27:30.0  -0.2                          T                                        4710289
HINF  001.53 348.1 m E Sg      2011/06/18 19:27:50.0   0.0                          T                3.0  .27 Ml 2.1         4710291
MBDF  001.64 193.8 m E Pg      2011/06/18 19:27:32.5   0.1                          T                                        4710286
MBDF  001.64 193.8 m E Sg      2011/06/18 19:27:53.7   0.2                          T                1.3  .26 Ml 1.8         4710287
ORIF  001.73 216.3 m E Sg      2011/06/18 19:27:56.1  -0.1                          T                 .7  .22 Ml 1.6         4710285
VIVF  002.37 232.7 m E Sg      2011/06/18 19:28:16.1   0.0                          T                 .7  .23 Ml 1.8         4710288
LOR   002.56 293.0 m E Sg      2011/06/18 19:28:22.2   0.1                          T                1.1  .21 Ml 2.1         4710290

.
EVENT     260505
    Date      Time       Latitude Longitude    Depth    Ndef Nsta Gap    Mag1  N    Mag2  N    Mag3  N   Author         ID
       rms   OT_Error      Smajor Sminor Az        Err   mdist  Mdist     Err        Err        Err      Quality

2011/06/18 22:46:13.9     36.6432   -7.8131     70.2      93   11 191  Ml 3.4  3                         js067245    260505

      1.03   +-  0.30       6.6    3.3   35.25 +-  3.2    0.60  13.11   +-0.1                            m i ke

STRAIT OF GIBRALTAR
Sta     Dist  EvAz     Phase      Date       Time     TRes  Azim  AzRes  Slow  SRes Def   SNR       Amp   Per   Mag1   Mag2       ID
SJPF  008.21 036.1 m E P       2011/06/18 22:48:13.2   0.6                          T                                        4710332
SJPF  008.21 036.1 m E Sn      2011/06/18 22:49:35.7  -0.2                          T                2.0  .27 Ml 3.3         4710327
ETSF  008.38 039.6 m E P       2011/06/18 22:48:15.4   0.4                          T                                        4710331
ETSF  008.38 039.6 m E Sn      2011/06/18 22:49:39.7  -0.4                          T                2.0  .29 Ml 3.3         4710328
EPF   008.94 042.0 m E P       2011/06/18 22:48:23.3   0.6                          T                                        4710330
EPF   008.94 042.0 m E Sn      2011/06/18 22:49:53.2  -0.3                          T                2.5  .29 Ml 3.5         4710329
LFF   010.52 035.4 m E P       2011/06/18 22:48:43.4  -0.6                          T                                        4710334
RJF   011.15 036.3 m E P       2011/06/18 22:48:52.3  -0.4                          T                                        4710335
CAF   011.15 039.1 m E P       2011/06/18 22:48:52.5  -0.1                          T                                        4710333
MFF   011.48 027.5 m E P       2011/06/18 22:48:57.1   0.1                          T                                        4710336
QUIF  011.78 015.5 m E P       2011/06/18 22:49:00.0  -1.0                          T                                        4710337
TCF   012.21 034.8 m E P       2011/06/18 22:49:06.5  -0.3                          T                                        4710341
SGMF  012.23 016.8 m E P       2011/06/18 22:49:06.6  -0.4                          T                                        4710338
AVF   013.11 035.9 m E P       2011/06/18 22:49:18.5  -0.1                          T                                        4710339

.
EVENT     260504
    Date      Time       Latitude Longitude    Depth    Ndef Nsta Gap    Mag1  N    Mag2  N    Mag3  N   Author         ID
       rms   OT_Error      Smajor Sminor Az        Err   mdist  Mdist     Err        Err        Err      Quality

2011/06/18 22:46:35.8     50.1348    7.8890      7.0 f    31   11 059  Ml 2.3  9  Md 2.3  1              js067245    260504

      0.63   +-  0.05       1.1     .9   72.01 +-  0.0    0.23   3.92   +-0.3      +-                    m i ke

GERMANY
Sta     Dist  EvAz     Phase      Date       Time     TRes  Azim  AzRes  Slow  SRes Def   SNR       Amp   Per   Mag1   Mag2       ID
RUP   000.69 231.3 m E Pg      2011/06/18 22:46:48.4  -0.6                          T                                        4710324
RUP   000.69 231.3 m E Pn      2011/06/18 22:46:50.3  -0.2                          T                                        4710325
RUP   000.69 231.3 m E Sg      2011/06/18 22:46:58.2   0.1                          T                                Md 2.3  4710326
LANF  001.16 182.7 m E Pn      2011/06/18 22:46:56.9   0.1                          T                                        4710315
LANF  001.16 182.7 m E Pg      2011/06/18 22:46:57.6   0.0                          T                                        4710314
LANF  001.16 182.7 m E Sg      2011/06/18 22:47:12.5   0.0                          T               23.3  .24 Ml 2.9         4710316
CDF   001.77 193.3 m E Pn      2011/06/18 22:47:05.2  -0.1                          T                                        4710311
CDF   001.77 193.3 m E Pg      2011/06/18 22:47:08.8  -0.1                          T                                        4710310
CDF   001.77 193.3 m E Sn      2011/06/18 22:47:26.6  -0.1                          T                                        4710313
CDF   001.77 193.3 m E Sg      2011/06/18 22:47:31.5  -0.2                          T                3.4  .27 Ml 2.4         4710312
PAGF  002.12 222.7 m E Pn      2011/06/18 22:47:09.7  -0.3  33.2  -7.8              T                                        4710308
PAGF  002.12 222.7 m E Sg      2011/06/18 22:47:42.7   0.1  39.6  -1.4              T                 .6  .26 Ml 1.6         4710309
GIVF  001.97 270.2 m E P       2011/06/18 22:47:10.4   0.2                          T                                        4710320
GIVF  001.97 270.2 m E Sn      2011/06/18 22:47:31.4  -0.1                          T                                        4710322
GIVF  001.97 270.2 m E Sg      2011/06/18 22:47:37.6  -0.4                          T                6.8  .32 Ml 2.5         4710321
HAU   002.36 206.0 m E Pn      2011/06/18 22:47:12.8  -0.4                          T                                        4710302
HAU   002.36 206.0 m E Pg      2011/06/18 22:47:19.6  -0.1                          T                                        4710301
HAU   002.36 206.0 m E Sg      2011/06/18 22:47:50.8   0.8                          T                2.4  .20 Ml 2.1         4710305
BAIF  002.37 269.6 m E P       2011/06/18 22:47:15.7  -0.2                          T                                        4710318
BAIF  002.37 269.6 m E Pg      2011/06/18 22:47:19.7  -0.2                          T                                        4710317
BAIF  002.37 269.6 m E Sg      2011/06/18 22:47:50.5   0.1                          T                2.6  .23 Ml 2.3         4710319
HINF  002.42 196.8 m E Pg      2011/06/18 22:47:20.7  -0.1                          T                                        4710303
HINF  002.42 196.8 m E Sg      2011/06/18 22:47:51.4  -0.6                          T                2.2  .22 Ml 2.3         4710304
LOR   003.92 224.5 m E Pn      2011/06/18 22:47:33.5  -0.9  49.6  8.1               T                                        4710323
MEZF  002.47 229.7 m E Sg      2011/06/18 22:47:53.6   0.0  47.6  0.0               T                2.3  .28 Ml 2.2         4710307
SFTF  002.69 225.2 m E Sg      2011/06/18 22:48:00.6   0.3  48.7  5.7               T                1.6  .20 Ml 2.2         4710306

.
