EVENT     285849
    Date      Time       Latitude Longitude    Depth    Ndef Nsta Gap    Mag1  N    Mag2  N    Mag3  N   Author         ID
       rms   OT_Error      Smajor Sminor Az        Err   mdist  Mdist     Err        Err        Err      Quality

2012/10/25 23:05:24.5     39.9384   16.0307      5.0 f   325   31 021  Ml 4.7  5                         bulletin    285949
                                                                                                         _ldg
      1.64   +-  0.10       3.0    2.5   38.95 +-  0.0    0.17  57.85   +-0.3                            m i ke

SOUTHERN ITALY
Sta     Dist  EvAz     Phase      Date       Time     TRes  Azim  AzRes  Slow  SRes Def   SNR       Amp   Per   Mag1   Mag2       ID
PGF   005.91 298.5 m E P       2012/10/25 23:06:53.8  -1.3                          T                                        5104841
PGF   005.91 298.5 m E Sn      2012/10/25 23:07:54.3  -0.3                          T              206.0 1.10 Ml 4.6         5116547
SBF   007.51 304.2 m E Pn      2012/10/25 23:07:12.3  -0.1                          T                                        5116549
SBF   007.51 304.2 m E P       2012/10/25 23:07:17.7   0.1                          T                                        5116548
LMR   007.90 298.5 m E Pn      2012/10/25 23:07:18.0   0.5                          T                                        5116550
LMR   007.90 298.5 m E Sn      2012/10/25 23:08:41.9  -0.2                          T               64.3 1.06 Ml 4.2         5104838
FRF   007.89 300.3 m E P       2012/10/25 23:07:20.8  -2.0                          T                                        5116551
MBDF  008.36 307.9 m E P       2012/10/25 23:07:29.6   0.1                          T                                        5116556
SMRF  008.77 300.8 m E P       2012/10/25 23:07:35.1   0.0                          T                                        5116552
LPG   008.80 312.2 m E P       2012/10/25 23:07:37.8   1.9                          T                                        5116553
LPL   008.82 312.2 m E P       2012/10/25 23:07:38.4   2.4                          T                                        5116554
ORIF  009.00 306.9 m E P       2012/10/25 23:07:40.0   1.6                          T                                        5116555
LASF  009.96 298.5 m E Pn      2012/10/25 23:07:45.1  -0.5                          T   001.0                                5111113
LASF  009.96 298.5 m E P       2012/10/25 23:07:51.1  -0.4                          T                                        5104842
VIVF  009.73 304.0 m E P       2012/10/25 23:07:48.3  -0.1                          T                                        5116557
CABF  009.85 315.9 m E P       2012/10/25 23:07:51.0   0.9                          T                                        5116562
HINF  010.28 323.0 m E P       2012/10/25 23:07:55.3  -0.7                          T                                        5116563
HINF  010.28 323.0 m E Sn      2012/10/25 23:09:39.4   0.2                          T               98.8  .82 Ml 4.8         5104839
CDF   010.54 326.3 m E P       2012/10/25 23:07:57.7  -1.9                          T                                        5116564
CDF   010.54 326.3 m E Sn      2012/10/25 23:09:45.1  -0.3                          T               90.9  .79 Ml 5.0         5104840
MTLF  010.88 292.7 m E Pn      2012/10/25 23:07:57.8  -0.4                          T   001.0                                5111118
MTLF  010.88 292.7 m E P       2012/10/25 23:08:03.5  -0.6                          T                                        5104843
SMF   011.12 311.0 m E P       2012/10/25 23:08:07.2  -0.2                          T                                        5116561
PAGF  011.34 322.8 m E P       2012/10/25 23:08:10.3  -0.1 138.6  3.0               T                                        5104851
PAGF  011.34 322.8 m E Sn      2012/10/25 23:10:04.2  -0.2                          T               63.4  .76 Ml 4.8         5116546
SFTF  011.43 319.9 m E P       2012/10/25 23:08:10.7  -0.9 139.9  7.6               T                                        5104850
LOR   011.46 313.7 m E P       2012/10/25 23:08:11.8  -0.2 134.0  8.7               T                                        5116566
BGF   011.66 308.9 m E P       2012/10/25 23:08:15.1   0.3                          T                                        5104846
RJF   011.96 301.4 m E P       2012/10/25 23:08:17.9  -0.8                          T                                        5116559
TCF   011.92 306.7 m E P       2012/10/25 23:08:17.9  -0.4                          T                                        5116565
HYF   012.15 311.5 m E P       2012/10/25 23:08:21.6   0.2                          T                                        5104847
EPF   012.17 289.8 m E P       2012/10/25 23:08:26.2   4.6                          T                                        5104844
GIVF  012.87 325.8 m E P       2012/10/25 23:08:31.2   0.2                          T                                        5104852
BAIF  013.11 324.4 m E P       2012/10/25 23:08:34.7   0.5                          T                                        5104853
SJPF  013.31 289.4 m E P       2012/10/25 23:08:37.5   0.6                          T                                        5104845
MFF   013.53 304.8 m E P       2012/10/25 23:08:39.5  -0.2                          T                                        5116560
LDF   014.43 312.2 m E P       2012/10/25 23:08:51.8   0.2                          T                                        5104848
FLN   014.72 312.2 m E P       2012/10/25 23:08:55.5   0.1 133.5  12.8              T                                        5104849
SGMF  015.70 308.1 m E P       2012/10/25 23:09:07.8  -0.3                          T                                        5116558

.
EVENT     285856
    Date      Time       Latitude Longitude    Depth    Ndef Nsta Gap    Mag1  N    Mag2  N    Mag3  N   Author         ID
       rms   OT_Error      Smajor Sminor Az        Err   mdist  Mdist     Err        Err        Err      Quality

2012/10/25 23:37:24.2     43.1744    -.8701      2.0       5    3 201  Ml 1.0  1  Md 1.3  2              bulletin    285956
                                                                                                         _ldg
      0.08   +-  0.10       3.6     .9   12.06 +-  0.0    0.27   0.90   +-         +-0.1                 m i ke

PYRENEES
Sta     Dist  EvAz     Phase      Date       Time     TRes  Azim  AzRes  Slow  SRes Def   SNR       Amp   Per   Mag1   Mag2       ID
SJPF  000.27 256.9 m E Pg      2012/10/25 23:37:29.5   0.0                          T                                        5104890
SJPF  000.27 256.9 m E Sg      2012/10/25 23:37:32.9  -0.2                          T                5.0  .28        Md 1.3  5104889
ETSF  000.36 140.3 m E Pg      2012/10/25 23:37:31.2   0.0                          T                                        5104887
ETSF  000.36 140.3 m E Sg      2012/10/25 23:37:35.9  -0.1                          T                2.0  .18        Md 1.2  5104888
EPF   000.90 098.8 m E Sg      2012/10/25 23:37:52.7  -0.1                          T                 .5  .25 Ml 1.0         5104886

.
EVENT     285850
    Date      Time       Latitude Longitude    Depth    Ndef Nsta Gap    Mag1  N    Mag2  N    Mag3  N   Author         ID
       rms   OT_Error      Smajor Sminor Az        Err   mdist  Mdist     Err        Err        Err      Quality

2012/10/26 00:17:31.0     44.1171    6.7499      2.0      22    8 066  Ml 1.5  2  Md 1.5  2              bulletin    285950
                                                                                                         _ldg
      0.47   +-  0.10       2.4    1.9   92.02 +-  0.0    0.23   1.40   +-0.1      +-0.1                 m i ke

FRANCE
Sta     Dist  EvAz     Phase      Date       Time     TRes  Azim  AzRes  Slow  SRes Def   SNR       Amp   Per   Mag1   Mag2       ID
FRF   000.56 187.7 m E Pg      2012/10/26 00:17:41.3  -0.4                          T                                        5104885
FRF   000.56 187.7 m E Sg      2012/10/26 00:17:48.8  -0.3                          T                3.2  .26                5104880
SBF   000.56 116.9 m E Pg      2012/10/26 00:17:41.5  -0.2                          T                                        5104883
SBF   000.56 116.9 m E Sg      2012/10/26 00:17:49.7   0.7                          T                2.6  .26        Md 1.5  5104878
MBDF  000.61 001.4 m E Pg      2012/10/26 00:17:42.6  -0.2                          T                                        5104882
MBDF  000.61 001.4 m E Sg      2012/10/26 00:17:50.9   0.1                          T                 .8  .21        Md 1.4  5104876
LMR   000.80 192.7 m E Pg      2012/10/26 00:17:45.5  -0.6                          T                                        5104884
LMR   000.80 192.7 m E Sg      2012/10/26 00:17:56.8   0.3                          T                2.0  .18                5104879
SMRF  000.86 261.0 m E Pg      2012/10/26 00:17:48.0   0.7                          T                                        5104881
SMRF  000.86 261.0 m E Sg      2012/10/26 00:17:58.7   0.3                          T                1.3  .20 Ml 1.6         5104877
ORIF  001.01 322.5 m E Pg      2012/10/26 00:17:49.6  -0.6                          T                                        5104872
ORIF  001.01 322.5 m E Sg      2012/10/26 00:18:02.8  -0.6                          T                1.2  .34 Ml 1.4         5104873
LPG   001.38 000.0 m E Pn      2012/10/26 00:17:56.1   0.1                          T                                        5104874
LPL   001.40 359.5 m E Pn      2012/10/26 00:17:56.8   0.6                          T                                        5104875

.
EVENT     285902
    Date      Time       Latitude Longitude    Depth    Ndef Nsta Gap    Mag1  N    Mag2  N    Mag3  N   Author         ID
       rms   OT_Error      Smajor Sminor Az        Err   mdist  Mdist     Err        Err        Err      Quality

2012/10/26 11:54:04.1     42.3585    1.2591      2.0      44    8 031  Ml 2.4  8  Md 2.3  2              bulletin    286002
                                                                                                         _ldg
      0.45   +-  0.05       1.1     .9   23.73 +-  0.0    0.09   2.95   +-0.1      +-0.1                 m i ke

PYRENEES
Sta     Dist  EvAz     Phase      Date       Time     TRes  Azim  AzRes  Slow  SRes Def   SNR       Amp   Per   Mag1   Mag2       ID
EPF   000.95 315.0 m E Pg      2012/10/26 11:54:21.8  -0.2                          T                                        5105077
EPF   000.95 315.0 m E Sg      2012/10/26 11:54:34.4  -0.1                          T               11.9  .22 Ml 2.5 Md 2.4  5105076
MTLF  001.21 035.3 m E Pg      2012/10/26 11:54:27.3   0.6                          T                                        5105072
MTLF  001.21 035.3 m E Sg      2012/10/26 11:54:42.7   0.4                          T                5.2  .24 Ml 2.2 Md 2.3  5105075
ETSF  001.45 292.5 m E Pg      2012/10/26 11:54:30.7  -0.5                          T                                        5105071
ETSF  001.45 292.5 m E Sg      2012/10/26 11:54:50.6   0.7                          T                7.9  .26 Ml 2.5         5105074
SJPF  001.98 293.2 m E Sg      2012/10/26 11:55:07.2   0.8                          T                4.3  .27 Ml 2.4         5105073
RJF   002.95 003.5 m E Sn      2012/10/26 11:55:23.3  -0.7                          T                1.6  .13 Ml 2.2         5105126
LASF  002.56 047.0 m E Sg      2012/10/26 11:55:24.6   0.1                          T                2.6  .31 Ml 2.3         5116984
LFF   002.61 351.9 m E Sg      2012/10/26 11:55:26.4   0.4                          T                5.0  .32 Ml 2.4         5116982
CAF   002.63 012.6 m E Sg      2012/10/26 11:55:26.6  -0.2                          T                2.2  .22 Ml 2.3         5116983

.
EVENT     286206
    Date      Time       Latitude Longitude    Depth    Ndef Nsta Gap    Mag1  N    Mag2  N    Mag3  N   Author         ID
       rms   OT_Error      Smajor Sminor Az        Err   mdist  Mdist     Err        Err        Err      Quality

2012/10/26 14:15:43.9     47.6798    7.4770     10.0      23    6 054  Ml 2.1  3  Md 2.0  2              bulletin    286306
                                                                                                         _ldg
      0.52   +-  0.05       1.1     .9  166.86 +-  0.0    0.18   1.82   +-0.2      +-0.1                 m i ke

SWITZERLAND
Sta     Dist  EvAz     Phase      Date       Time     TRes  Azim  AzRes  Slow  SRes Def   SNR       Amp   Per   Mag1   Mag2       ID
HINF  000.44 288.2 m E Pg      2012/10/26 14:15:52.1  -0.5                          T                                        5108666
HINF  000.44 288.2 m E Sg      2012/10/26 14:15:57.9  -0.7                          T                4.4  .16        Md 2.1  5108665
CDF   000.75 349.7 m E Pg      2012/10/26 14:15:58.2   0.1                          T                                        5108677
CDF   000.75 349.7 m E Sg      2012/10/26 14:16:08.1   0.1                          T                1.8  .21                5108676
CDF   000.75 349.7 m E Sn      2012/10/26 14:16:09.9   0.1                          T                                Md 2.0  5108675
CABF  001.43 222.1 m E Pn      2012/10/26 14:16:08.5   0.1                          T                                        5108664
CABF  001.43 222.1 m E Pg      2012/10/26 14:16:10.9   0.2                          T                                        5108663
CABF  001.43 222.1 m E Sn      2012/10/26 14:16:26.1   0.0                          T                                        5108662
CABF  001.43 222.1 m E Sg      2012/10/26 14:16:29.2   0.0                          T                1.9  .21 Ml 2.0         5108661
PAGF  001.46 307.4 m E Pn      2012/10/26 14:16:08.8   0.0                          T                                        5108671
SFTF  001.72 288.7 m E Pn      2012/10/26 14:16:12.4   0.1 111.1  4.3               T                                        5108670
SFTF  001.72 288.7 m E Pg      2012/10/26 14:16:16.0   0.0 111.2  4.3               T                                        5108669
SFTF  001.72 288.7 m E Sn      2012/10/26 14:16:33.1   0.1                          T                                        5108668
SFTF  001.72 288.7 m E Sg      2012/10/26 14:16:38.4   0.2                          T                2.7  .18 Ml 2.3         5108667
MEZF  001.82 297.7 m E Pn      2012/10/26 14:16:13.6   0.0 118.4  2.5               T                                        5108674
MEZF  001.82 297.7 m E Sn      2012/10/26 14:16:35.5   0.1                          T                                        5108673
MEZF  001.82 297.7 m E Sg      2012/10/26 14:16:41.5   0.1 109.4  -6.5              T                2.4  .31 Ml 2.0         5108672

.
EVENT     285979
    Date      Time       Latitude Longitude    Depth    Ndef Nsta Gap    Mag1  N    Mag2  N    Mag3  N   Author         ID
       rms   OT_Error      Smajor Sminor Az        Err   mdist  Mdist     Err        Err        Err      Quality

2012/10/26 15:54:29.6     37.1805  -12.8603     20.0 f    46    3 291  Ml 3.5  3                         bulletin    286079
                                                                                                         _ldg
      0.77   +-  0.41       8.1    6.2   49.79 +-  0.0    3.22  12.67   +-0.2                            m i ke

NORTH ATLANTIC OCEAN
Sta     Dist  EvAz     Phase      Date       Time     TRes  Azim  AzRes  Slow  SRes Def   SNR       Amp   Per   Mag1   Mag2       ID
SJPF  010.69 052.8 m E Pn      2012/10/26 15:56:59.5   0.6                          T                                        5105924
SJPF  010.69 052.8 m E Sn      2012/10/26 15:58:51.6   0.5                          T                1.7  .40 Ml 3.5         5117118
ETSF  011.02 055.0 m E Pn      2012/10/26 15:57:04.6   1.1                          T                                        5105923
ETSF  011.02 055.0 m E Sn      2012/10/26 15:58:59.0  -0.1                          T                1.6  .43 Ml 3.4         5117119
EPF   011.67 055.9 m E Pn      2012/10/26 15:57:14.0   1.7                          T                                        5105922
EPF   011.67 055.9 m E Sn      2012/10/26 15:59:14.6   0.0                          T                2.0  .34 Ml 3.7         5117120

.
