EVENT     255845
    Date      Time       Latitude Longitude    Depth    Ndef Nsta Gap    Mag1  N    Mag2  N    Mag3  N   Author         ID
       rms   OT_Error      Smajor Sminor Az        Err   mdist  Mdist     Err        Err        Err      Quality

2011/02/09 17:06:55.9     44.4258   11.7276     20.0 f    24   10 241  Ml 2.5 10                         js067245    255865

      0.63   +-  0.26       5.8    2.7   52.74 +-  0.0    0.19   5.05   +-0.3                            m i ke

NORTHERN ITALY
Sta     Dist  EvAz     Phase      Date       Time     TRes  Azim  AzRes  Slow  SRes Def   SNR       Amp   Per   Mag1   Mag2       ID
PGF   002.73 227.6 m E Pn      2011/02/09 17:07:37.3   0.3                          T                                        4645413
PGF   002.73 227.6 m E Sn      2011/02/09 17:08:08.1   0.6                          T               12.8  .53 Ml 3.0         4645410
SBF   003.14 261.2 m E Pn      2011/02/09 17:07:42.4  -0.2                          T                                        4645411
SBF   003.14 261.2 m E Sn      2011/02/09 17:08:16.5  -0.6                          T                4.5  .38 Ml 2.5         4645398
MBDF  003.55 276.6 m E Pn      2011/02/09 17:07:48.5   0.3                          T                                        4645404
MBDF  003.55 276.6 m E Sn      2011/02/09 17:08:27.0  -0.2                          T                3.3  .73 Ml 2.2         4645396
LPG   003.69 288.6 m E Pn      2011/02/09 17:07:50.5   0.2                          T                                        4645406
LPG   003.69 288.6 m E Sn      2011/02/09 17:08:30.2  -0.4                          T                2.3  .54 Ml 2.2         4645399
LPL   003.71 288.8 m E Pn      2011/02/09 17:07:50.6   0.1                          T                                        4645405
LPL   003.71 288.8 m E Sn      2011/02/09 17:08:30.8  -0.1                          T                4.4  .48 Ml 2.5         4645400
FRF   003.77 258.5 m E Pn      2011/02/09 17:07:50.7  -0.3                          T                                        4645407
FRF   003.77 258.5 m E Sn      2011/02/09 17:08:31.6  -0.5                          T                4.8  .49 Ml 2.6         4645408
LMR   003.93 255.7 m E Pn      2011/02/09 17:07:52.9  -0.2                          T                                        4645412
LMR   003.93 255.7 m E Sn      2011/02/09 17:08:35.3  -0.5                          T                3.3  .41 Ml 2.6         4645409
ORIF  004.20 278.8 m E Pn      2011/02/09 17:07:57.0   0.0                          T                                        4645403
ORIF  004.20 278.8 m E Sn      2011/02/09 17:08:42.0  -0.5                          T                4.2  .64 Ml 2.5         4645397
SMRF  004.45 266.3 m E Pn      2011/02/09 17:08:00.5   0.2                          T                                        4645402
VIVF  005.05 277.3 m E Pn      2011/02/09 17:08:08.8   0.2                          T                                        4645401

.
EVENT     255850
    Date      Time       Latitude Longitude    Depth    Ndef Nsta Gap    Mag1  N    Mag2  N    Mag3  N   Author         ID
       rms   OT_Error      Smajor Sminor Az        Err   mdist  Mdist     Err        Err        Err      Quality

2011/02/09 19:12:49.4     42.4951     .9480     10.0 f    45    8 048  Ml 2.0  8  Md 2.1  3              js067245    255870

      0.61   +-  0.08       1.7    1.4   13.89 +-  0.0    0.18   2.84   +-0.2      +-0.0                 m i ke

PYRENEES
Sta     Dist  EvAz     Phase      Date       Time     TRes  Azim  AzRes  Slow  SRes Def   SNR       Amp   Per   Mag1   Mag2       ID
EPF   000.70 320.3 m E Pg      2011/02/09 19:13:01.9  -0.9                          T                                        4645463
EPF   000.70 320.3 m E Sg      2011/02/09 19:13:11.4  -0.5                          T                4.1  .20        Md 2.1  4645462
ETSF  001.18 290.5 m E Pg      2011/02/09 19:13:11.2  -0.5                          T                                        4645459
ETSF  001.18 290.5 m E Sg      2011/02/09 19:13:26.8  -0.3                          T                3.5  .18 Ml 2.2 Md 2.1  4645461
MTLF  001.26 047.4 m E Pg      2011/02/09 19:13:12.2  -0.9                          T                                        4645457
MTLF  001.26 047.4 m E Sg      2011/02/09 19:13:28.3  -1.0                          T                3.2  .40 Ml 1.8 Md 2.2  4645456
SJPF  001.71 291.9 m E Pg      2011/02/09 19:13:20.8  -0.6                          T                                        4645458
SJPF  001.71 291.9 m E Sg      2011/02/09 19:13:43.4  -0.1                          T                5.3  .28 Ml 2.4         4645460
LFF   002.45 356.5 m E Pn      2011/02/09 19:13:28.4   0.8                          T                                        4645451
LFF   002.45 356.5 m E Sg      2011/02/09 19:14:05.7  -0.7                          T                1.2  .25 Ml 1.8         4645453
CAF   002.56 018.0 m E Pn      2011/02/09 19:13:29.9   0.7                          T                                        4645450
CAF   002.56 018.0 m E Sg      2011/02/09 19:14:09.2  -0.8                          T                1.1  .22 Ml 2.0         4645455
LASF  002.65 052.4 m E Pn      2011/02/09 19:13:31.0   0.6                          T                                        4645449
LASF  002.65 052.4 m E Sg      2011/02/09 19:14:12.1  -0.6                          T                 .9  .27 Ml 1.9         4645448
RJF   002.84 008.1 m E Pn      2011/02/09 19:13:33.7   0.6                          T                                        4645452
RJF   002.84 008.1 m E Sg      2011/02/09 19:14:17.8  -0.8                          T                2.5  .40 Ml 1.9         4645454

.
EVENT     255851
    Date      Time       Latitude Longitude    Depth    Ndef Nsta Gap    Mag1  N    Mag2  N    Mag3  N   Author         ID
       rms   OT_Error      Smajor Sminor Az        Err   mdist  Mdist     Err        Err        Err      Quality

2011/02/09 23:01:01.8     44.3591    7.2277      2.0      14    6 179  Ml 1.4  5  Md 1.5  2              js067245    255871

      0.08   +-  0.03        .8     .3   73.64 +-  0.0    0.49   1.21   +-0.3      +-0.1                 m i ke

NORTHERN ITALY
Sta     Dist  EvAz     Phase      Date       Time     TRes  Azim  AzRes  Slow  SRes Def   SNR       Amp   Per   Mag1   Mag2       ID
MBDF  000.49 318.6 m E Pg      2011/02/09 23:01:11.3  -0.1                          T                                        4645470
MBDF  000.49 318.6 m E Sg      2011/02/09 23:01:17.8  -0.1                          T                2.2  .18        Md 1.6  4645465
SBF   000.52 163.2 m E Pg      2011/02/09 23:01:11.7   0.0                          T                                        4645469
SBF   000.52 163.2 m E Sg      2011/02/09 23:01:18.5  -0.1                          T                6.6  .34        Md 1.4  4645466
FRF   000.90 207.9 m E Pg      2011/02/09 23:01:18.6  -0.1                          T                                        4645468
FRF   000.90 207.9 m E Sg      2011/02/09 23:01:30.4   0.0                          T                1.4  .20 Ml 1.7         4645467
ORIF  001.11 300.6 m E Pg      2011/02/09 23:01:22.8   0.1                          T                                        4645476
ORIF  001.11 300.6 m E Sg      2011/02/09 23:01:37.0  -0.1                          T                 .2  .16 Ml 1.0         4645474
LMR   001.15 207.1 m E Pg      2011/02/09 23:01:23.3   0.0                          T                                        4645477
LMR   001.15 207.1 m E Sg      2011/02/09 23:01:38.0  -0.2                          T                1.1  .16 Ml 1.7         4645464
LPL   001.21 343.3 m E Pg      2011/02/09 23:01:24.7   0.0                          T                                        4645475
LPL   001.21 343.3 m E Sg      2011/02/09 23:01:40.3   0.0                          T                 .8  .33 Ml 1.3         4645473

.
EVENT     255856
    Date      Time       Latitude Longitude    Depth    Ndef Nsta Gap    Mag1  N    Mag2  N    Mag3  N   Author         ID
       rms   OT_Error      Smajor Sminor Az        Err   mdist  Mdist     Err        Err        Err      Quality

2011/02/10 00:23:52.3     44.3638    7.2489      2.0      18    8 182  Ml 1.6  7  Md 1.5  2              js067245    255876

      0.17   +-  0.07       1.5     .7   79.72 +-  0.0    0.50   1.27   +-0.3      +-0.1                 m i ke

NORTHERN ITALY
Sta     Dist  EvAz     Phase      Date       Time     TRes  Azim  AzRes  Slow  SRes Def   SNR       Amp   Per   Mag1   Mag2       ID
MBDF  000.50 316.9 m E Pg      2011/02/10 00:24:01.9  -0.1                          T                                        4645528
MBDF  000.50 316.9 m E Sg      2011/02/10 00:24:08.9   0.3                          T                2.7  .20        Md 1.6  4645524
SBF   000.52 164.9 m E Pg      2011/02/10 00:24:02.5   0.2                          T                                        4645527
SBF   000.52 164.9 m E Sg      2011/02/10 00:24:08.6  -0.5                          T                3.7  .25        Md 1.5  4645521
FRF   000.91 208.6 m E Pg      2011/02/10 00:24:09.6   0.1                          T                                        4645526
FRF   000.91 208.6 m E Sg      2011/02/10 00:24:21.6   0.3                          T                2.5  .20 Ml 1.9         4645523
ORIF  001.12 300.0 m E Pg      2011/02/10 00:24:13.6   0.1                          T                                        4645529
ORIF  001.12 300.0 m E Sg      2011/02/10 00:24:28.1   0.1                          T                 .7  .30 Ml 1.2         4645536
LMR   001.16 207.7 m E Pg      2011/02/10 00:24:13.8  -0.2                          T                                        4645525
LMR   001.16 207.7 m E Sg      2011/02/10 00:24:28.8  -0.2                          T                2.9  .27 Ml 1.9         4645522
LPG   001.19 342.9 m E Pg      2011/02/10 00:24:14.9   0.0                          T                                        4645531
LPG   001.19 342.9 m E Sg      2011/02/10 00:24:30.3   0.0                          T                  1  .28 Ml 1.4         4645534
LPL   001.21 342.5 m E Pg      2011/02/10 00:24:15.1  -0.1                          T                                        4645530
LPL   001.21 342.5 m E Sg      2011/02/10 00:24:30.9   0.0                          T                1.8  .37 Ml 1.6         4645535
SMRF  001.27 252.7 m E Pg      2011/02/10 00:24:16.0   0.0                          T                                        4645532
SMRF  001.27 252.7 m E Sg      2011/02/10 00:24:32.4   0.0                          T                2.4  .32 Ml 1.8         4645533

.
EVENT     255857
    Date      Time       Latitude Longitude    Depth    Ndef Nsta Gap    Mag1  N    Mag2  N    Mag3  N   Author         ID
       rms   OT_Error      Smajor Sminor Az        Err   mdist  Mdist     Err        Err        Err      Quality

2011/02/10 00:46:24.7     42.5495     .5702      4.0 f    24    4 075  Ml 1.4  4  Md 1.6  3              js067245    255877

      0.37   +-  0.07       1.4    1.1   30.03 +-  0.0    0.27   1.60   +-0.0      +-0.0                 m i ke

PYRENEES
Sta     Dist  EvAz     Phase      Date       Time     TRes  Azim  AzRes  Slow  SRes Def   SNR       Amp   Per   Mag1   Mag2       ID
EPF   000.51 340.7 m E Pg      2011/02/10 00:46:34.7   0.2                          T                                        4645548
EPF   000.51 340.7 m E Sg      2011/02/10 00:46:40.7  -0.5                          T                1.3  .21        Md 1.7  4645547
ETSF  000.90 293.1 m E Pg      2011/02/10 00:46:41.7   0.0                          T                                        4645544
ETSF  000.90 293.1 m E Sg      2011/02/10 00:46:53.3  -0.1                          T                1.0  .25 Ml 1.4 Md 1.6  4645546
SJPF  001.44 293.7 m E Pg      2011/02/10 00:46:51.1  -0.3                          T                                        4645543
SJPF  001.44 293.7 m E Sg      2011/02/10 00:47:10.2   0.1                          T                 .9  .37 Ml 1.4 Md 1.7  4645541
MTLF  001.45 056.3 m E Pg      2011/02/10 00:46:51.9   0.3                          T                                        4645542
MTLF  001.45 056.3 m E Sg      2011/02/10 00:47:10.5   0.2                          T                 .4  .19 Ml 1.4         4645545

.
EVENT     255859
    Date      Time       Latitude Longitude    Depth    Ndef Nsta Gap    Mag1  N    Mag2  N    Mag3  N   Author         ID
       rms   OT_Error      Smajor Sminor Az        Err   mdist  Mdist     Err        Err        Err      Quality

2011/02/10 05:31:41.7     44.9916    6.5521      2.0      20    9 108  Ml 1.8  5  Md 1.7  3              js067245    255879

      0.24   +-  0.06       1.2    1.0   88.98 +-  0.0    0.31   1.66   +-0.3      +-0.0                 m i ke

FRANCE
Sta     Dist  EvAz     Phase      Date       Time     TRes  Azim  AzRes  Slow  SRes Def   SNR       Amp   Per   Mag1   Mag2       ID
MBDF  000.31 149.4 m E Pg      2011/02/10 05:31:47.1  -0.8                          T                                        4645568
MBDF  000.31 149.4 m E Sg      2011/02/10 05:31:51.5  -0.6                          T                8.7  .20        Md 1.7  4645562
ORIF  000.48 261.5 m E Pg      2011/02/10 05:31:51.1   0.0                          T                                        4645567
ORIF  000.48 261.5 m E Sg      2011/02/10 05:31:56.9  -0.6                          T                7.1  .28        Md 1.7  4645561
LPG   000.53 015.5 m E Pg      2011/02/10 05:31:52.0   0.0                          T                                        4645565
LPG   000.53 015.5 m E Sg      2011/02/10 05:31:59.1   0.1                          T                5.4  .30        Md 1.7  4645559
LPL   000.54 013.6 m E Pg      2011/02/10 05:31:52.6   0.3                          T                                        4645566
LPL   000.54 013.6 m E Sg      2011/02/10 05:31:59.2  -0.2                          T                3.7  .28                4645560
SMRF  001.23 214.9 m E Pg      2011/02/10 05:32:04.7  -0.1                          T                                        4645564
SMRF  001.23 214.9 m E Sg      2011/02/10 05:32:20.9   0.1                          T                2.2  .42 Ml 1.6         4645558
SBF   001.29 150.4 m E Pg      2011/02/10 05:32:06.0   0.1                          T                                        4645553
SBF   001.29 150.4 m E Sg      2011/02/10 05:32:22.7   0.0                          T                 .7  .27 Ml 1.4         4645556
VIVF  001.34 264.9 m E Pg      2011/02/10 05:32:06.7  -0.1                          T                                        4645552
VIVF  001.34 264.9 m E Sg      2011/02/10 05:32:24.0  -0.2                          T                5.1  .64 Ml 1.9         4645551
FRF   001.43 177.2 m E Pg      2011/02/10 05:32:08.8   0.4                          T                                        4645563
FRF   001.43 177.2 m E Sg      2011/02/10 05:32:26.9  -0.1                          T                7.0  .70 Ml 2.0         4645557
LMR   001.66 181.1 m E Pg      2011/02/10 05:32:12.6   0.1                          T                                        4645554
LMR   001.66 181.1 m E Sg      2011/02/10 05:32:34.3   0.3                          T                1.9  .33 Ml 1.9         4645555

.
