EVENT     265189
    Date      Time       Latitude Longitude    Depth    Ndef Nsta Gap    Mag1  N    Mag2  N    Mag3  N   Author         ID
       rms   OT_Error      Smajor Sminor Az        Err   mdist  Mdist     Err        Err        Err      Quality

2011/10/17 21:40:54.6     46.0316    6.9011      2.0      87   25 042  Ml 2.4 23  Md 2.5  3              js067245    265209

      0.44   +-  0.04       1.1     .8  111.16 +-  0.0    0.03   4.29   +-0.2      +-0.0                 m i ke

SWITZERLAND
Sta     Dist  EvAz     Phase      Date       Time     TRes  Azim  AzRes  Slow  SRes Def   SNR       Amp   Per   Mag1   Mag2       ID
LPL   000.53 193.0 m E Pg      2011/10/17 21:41:04.6  -0.3                          T   001.0                                4771768
LPL   000.53 193.0 m E Sg      2011/10/17 21:41:11.7  -0.2                          T   001.0       19.0  .28        Md 2.5  4771769
LPG   000.54 191.2 m E Pg      2011/10/17 21:41:04.9  -0.4                          T   001.0                                4771766
LPG   000.54 191.2 m E P       2011/10/17 21:41:06.2  -0.4                          T                                        4772200
LPG   000.54 191.2 m E Sg      2011/10/17 21:41:11.9  -0.6                          T   001.0       24.7  .25        Md 2.5  4771767
CABF  000.81 316.1 m E Pg      2011/10/17 21:41:09.8  -0.2                          T                                        4774375
CABF  000.81 316.1 m E Pn      2011/10/17 21:41:12.1   0.6                          T   001.0                                4771777
CABF  000.81 316.1 m E Sg      2011/10/17 21:41:20.2  -0.2                          T   001.0       17.7  .26        Md 2.5  4771778
CABF  000.81 316.1 m E Sn      2011/10/17 21:41:23.7   0.3                          T                                        4774374
ORIF  001.33 213.2 m E Pn      2011/10/17 21:41:18.6   0.1                          T   001.0                                4771784
ORIF  001.33 213.2 m E Sn      2011/10/17 21:41:35.0  -0.8                          T   001.0       14.6  .34 Ml 2.6         4771785
ORIF  001.33 213.2 m E S       2011/10/17 21:41:39.0   0.1                          T                                        4772199
MBDF  001.31 184.1 m E Pn      2011/10/17 21:41:18.7   0.3                          T   001.0                                4771782
MBDF  001.31 184.1 m E Sn      2011/10/17 21:41:35.5   0.1                          T   001.0        6.0  .29 Ml 2.3         4771783
HINF  001.79 359.0 m E Pn      2011/10/17 21:41:25.9   1.1                          T   001.0                                4771779
HINF  001.79 359.0 m E Pg      2011/10/17 21:41:26.9  -1.0                          T   001.0                                4771780
HINF  001.79 359.0 m E Sn      2011/10/17 21:41:46.0  -0.7                          T   001.0        6.4  .24 Ml 2.6         4771781
HINF  001.79 359.0 m E Sg      2011/10/17 21:41:50.8  -0.1                          T                6.5  .24 Ml 2.6         4772205
VIVF  001.96 233.9 m E Pn      2011/10/17 21:41:27.9   0.8                          T   001.0                                4771786
VIVF  001.96 233.9 m E Pg      2011/10/17 21:41:31.1   0.1                          T   001.0                                4771787
VIVF  001.96 233.9 m E Sn      2011/10/17 21:41:51.4   0.6                          T   001.0                                4771788
VIVF  001.96 233.9 m E Sg      2011/10/17 21:41:55.7  -0.6                          T               15.5  .20 Ml 3.1         4772035
HAU   002.01 349.4 m E Pn      2011/10/17 21:41:28.0   0.2                          T   001.0                                4771757
HAU   002.01 349.4 m E Pg      2011/10/17 21:41:32.1   0.1                          T                                        4772206
HAU   002.01 349.4 m E Sg      2011/10/17 21:41:58.0   0.1                          T   001.0        8.9  .26 Ml 2.5         4771758
SMF   002.21 287.2 m E Pn      2011/10/17 21:41:31.5   1.0                          T   001.0                                4771772
SMF   002.21 287.2 m E Pg      2011/10/17 21:41:35.5  -0.2                          T                                        4772204
SMF   002.21 287.2 m E S       2011/10/17 21:42:01.0  -0.1                          T   001.0                                4771773
SMF   002.21 287.2 m E Sg      2011/10/17 21:42:02.9  -1.2                          T                4.6  .18 Ml 2.7         4772197
SMRF  002.26 205.1 m E Pn      2011/10/17 21:41:33.4   2.2                          T   001.0                                4771789
LOR   002.43 301.6 m E Pn      2011/10/17 21:41:33.4  -0.2                          T   001.0                                4771762
CDF   002.40 006.0 m E Pn      2011/10/17 21:41:33.4   0.3                          T   001.0                                4771751
SMRF  002.26 205.1 m E Pg      2011/10/17 21:41:37.5   0.9                          T   001.0                                4771790
CDF   002.40 006.0 m E Pg      2011/10/17 21:41:39.6   0.4                          T   001.0                                4771752
LOR   002.43 301.6 m E Pg      2011/10/17 21:41:39.6  -0.1                          T   001.0                                4771763
LOR   002.43 301.6 m E Sn      2011/10/17 21:42:01.0  -1.2                          T   001.0                                4771764
SMRF  002.26 205.1 m E Sg      2011/10/17 21:42:07.2   1.5                          T   001.0        2.2  .37 Ml 2.0         4771791
CDF   002.40 006.0 m E Sg      2011/10/17 21:42:10.1   0.1                          T   001.0        3.4  .33 Ml 2.4         4771753
LOR   002.43 301.6 m E Sg      2011/10/17 21:42:11.5   0.4                          T   001.0        3.4  .31 Ml 2.3         4771765
SSF   002.56 295.0 m E Pn      2011/10/17 21:41:35.5   0.2                          T   001.0                                4771774
SSF   002.56 295.0 m E Pg      2011/10/17 21:41:41.9  -0.1                          T                                        4772208
SSF   002.56 295.0 m E Sn      2011/10/17 21:42:06.6   1.5                          T   001.0                                4771775
SSF   002.56 295.0 m E Sg      2011/10/17 21:42:14.6  -0.4                          T   001.0        2.4  .26 Ml 2.4         4771776
SBF   002.20 169.9 m E Pg      2011/10/17 21:41:36.5   0.9                          T   001.0                                4771770
FRF   002.48 184.3 m E P       2011/10/17 21:41:36.5  -0.2                          T   001.0                                4771754
FRF   002.48 184.3 m E Pg      2011/10/17 21:41:41.1   0.5                          T                                        4772211
SBF   002.20 169.9 m E Sg      2011/10/17 21:42:01.0  -1.9                          T   001.0        3.2  .26 Ml 2.3         4771771
FRF   002.48 184.3 m E Sn      2011/10/17 21:42:04.6   1.4                          T   001.0                                4771755
FRF   002.48 184.3 m E Sg      2011/10/17 21:42:12.6   0.1                          T   001.0        2.5  .31 Ml 2.3         4771756
AVF   002.57 288.5 m E Pn      2011/10/17 21:41:37.0   1.6                          T   001.0                                4771746
AVF   002.57 288.5 m E Pg      2011/10/17 21:41:42.0  -0.3                          T   001.0                                4771747
AVF   002.57 288.5 m E Sg      2011/10/17 21:42:12.6  -2.7                          T   001.0        2.4  .30 Ml 2.2         4771748
BGF   002.86 282.1 m E Pn      2011/10/17 21:41:39.5   0.1                          T   001.0                                4771749
LASF  002.91 228.9 m E P       2011/10/17 21:41:43.0   0.1                          T   001.0                                4771759
LASF  002.91 228.9 m E Pg      2011/10/17 21:41:48.6   0.0                          T                                        4772209
LASF  002.91 228.9 m E Sg      2011/10/17 21:42:23.6  -2.4                          T   001.0        3.4  .30 Ml 2.5         4771760
LMR   002.71 186.1 m E Pg      2011/10/17 21:41:45.2   0.3                          T                                        4772210
LMR   002.71 186.1 m E Sg      2011/10/17 21:42:20.1   0.4                          T   001.0        1.2  .26 Ml 2.1         4771761
TCF   003.27 276.2 m E Pg      2011/10/17 21:41:55.3   0.1                          T                                        4772207
SFTF  002.52 330.3 m E Sg      2011/10/17 21:42:14.0   0.2                          T                3.7  .24 Ml 2.5         4772195
MEZF  002.77 333.7 m E Sg      2011/10/17 21:42:21.2  -0.5                          T                5.3  .32 Ml 2.6         4772196
CAF   003.58 253.7 m E Sg      2011/10/17 21:42:44.7  -2.1                          T   001.0        2.3  .27 Ml 2.5         4771750
RJF   003.84 261.0 m E Sg      2011/10/17 21:42:56.2   1.1                          T   001.0        2.9  .32 Ml 2.2         4771745
MTLF  004.29 232.8 m E Sg      2011/10/17 21:43:08.7  -0.2                          T                                        4772198

.
EVENT     265190
    Date      Time       Latitude Longitude    Depth    Ndef Nsta Gap    Mag1  N    Mag2  N    Mag3  N   Author         ID
       rms   OT_Error      Smajor Sminor Az        Err   mdist  Mdist     Err        Err        Err      Quality

2011/10/17 21:41:52.2     46.0319    6.8855      2.0      27   10 071  Ml 2.2  7  Md 2.0  2              js067245    265210

      0.30   +-  0.05       1.6     .9  107.83 +-  0.0    0.03   2.56   +-0.3      +-0.2                 m i ke

SWITZERLAND
Sta     Dist  EvAz     Phase      Date       Time     TRes  Azim  AzRes  Slow  SRes Def   SNR       Amp   Per   Mag1   Mag2       ID
LPL   000.53 191.8 m E Pg      2011/10/17 21:42:02.2  -0.2                          T                                        4772034
LPL   000.53 191.8 m E Sg      2011/10/17 21:42:09.4  -0.1                          T                8.1  .26        Md 2.1  4772033
LPG   000.54 190.0 m E Pg      2011/10/17 21:42:02.5  -0.3                          T                                        4772031
LPG   000.54 190.0 m E P       2011/10/17 21:42:03.8  -0.2                          T                                        4772225
LPG   000.54 190.0 m E Sg      2011/10/17 21:42:09.5  -0.5                          T               12.7  .28        Md 1.8  4772032
CABF  000.80 316.6 m E Pg      2011/10/17 21:42:07.3   0.0                          T                                        4774377
CABF  000.80 316.6 m E Pn      2011/10/17 21:42:09.8   0.8                          T                                        4772219
CABF  000.80 316.6 m E Sg      2011/10/17 21:42:17.8   0.0                          T                                        4774376
CABF  000.80 316.6 m E Sn      2011/10/17 21:42:21.2   0.4                          T                6.0  .35                4772220
ORIF  001.32 212.8 m E Pn      2011/10/17 21:42:16.3   0.2                          T                                        4772029
ORIF  001.32 212.8 m E Sn      2011/10/17 21:42:32.6  -0.6                          T                4.1  .34 Ml 2.0         4772030
ORIF  001.32 212.8 m E S       2011/10/17 21:42:36.6   0.4                          T                                        4772224
MBDF  001.31 183.6 m E Pn      2011/10/17 21:42:16.3   0.4                          T                                        4772028
MBDF  001.31 183.6 m E Sn      2011/10/17 21:42:33.1   0.2                          T                3.6  .43 Ml 1.9         4772027
VIVF  001.95 233.7 m E Pn      2011/10/17 21:42:25.5   0.9                          T                                        4772025
VIVF  001.95 233.7 m E Pg      2011/10/17 21:42:28.8   0.3                          T                                        4772024
VIVF  001.95 233.7 m E Sn      2011/10/17 21:42:49.1   0.9                          T                5.5  .22 Ml 2.6         4772026
VIVF  001.95 233.7 m E Sg      2011/10/17 21:42:53.3  -0.3                          T                                        4772023
HINF  001.79 359.3 m E Sg      2011/10/17 21:42:48.2  -0.2                          T                3.3  .28 Ml 2.2         4772221
HAU   002.01 349.6 m E Sg      2011/10/17 21:42:55.7   0.3                          T                5.8  .36 Ml 2.2         4772218
SMF   002.20 287.3 m E Sg      2011/10/17 21:43:00.4  -0.9                          T                2.8  .20 Ml 2.4         4772223
AVF   002.56 288.5 m E Sg      2011/10/17 21:43:10.6  -1.9                          T                1.1  .27 Ml 1.9         4772222

.
