EVENT     258547
    Date      Time       Latitude Longitude    Depth    Ndef Nsta Gap    Mag1  N    Mag2  N    Mag3  N   Author         ID
       rms   OT_Error      Smajor Sminor Az        Err   mdist  Mdist     Err        Err        Err      Quality

2011/04/24 06:32:34.2     47.7135    1.5531      3.0 f    45   18 121  Ml 2.2 20  Md 2.2  3              js067245    258547

      1.02   +-  0.08       1.7    1.3   16.24 +-  0.0    0.86   3.24   +-0.2      +-0.1                 m i ke

FRANCE
Sta     Dist  EvAz     Phase      Date       Time     TRes  Azim  AzRes  Slow  SRes Def   SNR       Amp   Per   Mag1   Mag2       ID
HYF   000.86 120.7 m E Pg      2011/04/24 06:32:50.5   0.1                          T                                        4679492
HYF   000.86 120.7 m E Sg      2011/04/24 06:33:01.8   0.2                          T                                Md 2.3  4679480
TCF   001.50 162.3 m E Pn      2011/04/24 06:33:00.6   0.3                          T                                        4679460
TCF   001.50 162.3 m E Pg      2011/04/24 06:33:02.8   0.6                          T                                        4680559
TCF   001.50 162.3 m E Sg      2011/04/24 06:33:21.5   0.1                          T                6.3  .32 Ml 2.4         4679485
LDF   001.43 308.8 m E Pg      2011/04/24 06:33:01.2   0.4                          T                                        4679465
LDF   001.43 308.8 m E Sg      2011/04/24 06:33:18.5  -0.7                          T                3.2  .24 Ml 2.1 Md 2.2  4679454
BGF   001.45 142.2 m E Pg      2011/04/24 06:33:01.5   0.2                          T                                        4679467
BGF   001.45 142.2 m E Sg      2011/04/24 06:33:20.4   0.2                          T               14.5  .36 Ml 2.6 Md 2.3  4679457
SSF   001.48 115.5 m E Pg      2011/04/24 06:33:02.1   0.3                          T                                        4679461
SSF   001.48 115.5 m E Sg      2011/04/24 06:33:21.0   0.1                          T                7.0  .24 Ml 2.6         4679486
LOR   001.63 105.1 m E Pn      2011/04/24 06:33:02.6   0.5                          T                                        4679490
LOR   001.63 105.1 m E Pg      2011/04/24 06:33:04.6   0.1 279.4  -7.4              T                                        4680560
LOR   001.63 105.1 m E Sg      2011/04/24 06:33:25.2  -0.3 284.7  -2.1              T                7.0  .30 Ml 2.5         4679487
AVF   001.53 126.3 m E Pg      2011/04/24 06:33:02.7  -0.1                          T                                        4679459
AVF   001.53 126.3 m E Sg      2011/04/24 06:33:20.5  -2.1                          T                2.7  .26 Ml 2.1         4679458
MFF   001.61 226.8 m E Pg      2011/04/24 06:33:03.6  -0.6                          T                                        4679462
MFF   001.61 226.8 m E Sg      2011/04/24 06:33:24.9   0.0                          T                2.8  .27 Ml 2.3         4679452
FLN   001.72 308.4 m E Pn      2011/04/24 06:33:03.9   0.6                          T                                        4679464
FLN   001.72 308.4 m E Pg      2011/04/24 06:33:06.1  -0.1 123.1  -3.7              T                                        4680558
FLN   001.72 308.4 m E Sg      2011/04/24 06:33:28.2  -0.1 115.8  -11.1             T                4.9  .24 Ml 2.3         4679455
GRR   001.75 293.5 m E Pg      2011/04/24 06:33:06.9   0.1                          T                                        4679463
GRR   001.75 293.5 m E Sg      2011/04/24 06:33:28.1  -1.4                          T                4.2  .18 Ml 2.4         4679453
SMF   001.89 123.6 m E Pg      2011/04/24 06:33:09.4   0.0                          T                                        4679491
SMF   001.89 123.6 m E Sg      2011/04/24 06:33:34.0   0.2                          T                2.2  .16 Ml 2.3         4679481
SFTF  002.39 076.9 m E Pn      2011/04/24 06:33:12.6   0.1                          T                                        4679475
SFTF  002.39 076.9 m E Pg      2011/04/24 06:33:18.3  -0.3                          T                                        4679488
SFTF  002.39 076.9 m E Sg      2011/04/24 06:33:49.4   0.0                          T                6.4  .50 Ml 2.4         4679483
MEZF  002.47 070.1 m E Pn      2011/04/24 06:33:13.5  -0.1                          T                                        4679474
MEZF  002.47 070.1 m E Pg      2011/04/24 06:33:19.8  -0.4 262.8  10.1              T                                        4679489
MEZF  002.47 070.1 m E Sg      2011/04/24 06:33:51.9  -0.1                          T                3.6  .45 Ml 2.2         4679484
RJF   002.41 180.6 m E Pg      2011/04/24 06:33:18.9  -0.1                          T                                        4679495
RJF   002.41 180.6 m E Sg      2011/04/24 06:33:50.0   0.0                          T                2.0  .34 Ml 1.7         4679479
PAGF  002.92 071.7 m E Pn      2011/04/24 06:33:19.4  -0.2                          T                                        4679473
PAGF  002.92 071.7 m E Sn      2011/04/24 06:33:53.1   0.0                          T                1.1  .41 Ml 1.8         4679472
HAU   003.24 083.1 m E Pn      2011/04/24 06:33:24.1   0.0                          T                                        4679476
HAU   003.24 083.1 m E Sg      2011/04/24 06:34:16.0   0.1                          T                2.9  .26 Ml 2.3         4679482
CAF   002.81 172.6 m E Pg      2011/04/24 06:33:26.4   0.0                          T                                        4679493
CAF   002.81 172.6 m E Sg      2011/04/24 06:34:02.7   0.1                          T                1.4  .35 Ml 2.0         4679477
LFF   002.83 191.8 m E Pg      2011/04/24 06:33:26.6  -0.1                          T                                        4679494
LFF   002.83 191.8 m E Sg      2011/04/24 06:34:03.1   0.0                          T                4.4  .39 Ml 2.3         4679478

.
EVENT     258568
    Date      Time       Latitude Longitude    Depth    Ndef Nsta Gap    Mag1  N    Mag2  N    Mag3  N   Author         ID
       rms   OT_Error      Smajor Sminor Az        Err   mdist  Mdist     Err        Err        Err      Quality

2011/04/24 06:47:47.4     46.7815    7.2054      7.0 f    10    6 256  Ml 1.6  5  Md 1.8  1              js067245    258568

      0.24   +-  0.22       3.7    1.5  119.50 +-  0.0    0.17   2.05   +-0.2      +-                    m i ke

SWITZERLAND
Sta     Dist  EvAz     Phase      Date       Time     TRes  Azim  AzRes  Slow  SRes Def   SNR       Amp   Per   Mag1   Mag2       ID
CABF  000.79 257.9 m E Pg      2011/04/24 06:48:02.5   0.1                          T                                        4680565
CABF  000.79 257.9 m E Sg      2011/04/24 06:48:12.9   0.2                          T                 .5  .20        Md 1.8  4680566
HINF  001.06 347.1 m E Pg      2011/04/24 06:48:07.4   0.0                          T                                        4680572
HINF  001.06 347.1 m E Sg      2011/04/24 06:48:21.6   0.4                          T                2.0  .20 Ml 1.8         4680564
HAU   001.36 334.9 m E Pg      2011/04/24 06:48:12.7  -0.1                          T                                        4680570
HAU   001.36 334.9 m E Sg      2011/04/24 06:48:30.1  -0.2                          T                2.7  .27 Ml 1.7         4680571
CDF   001.63 001.7 m E Sg      2011/04/24 06:48:38.9  -0.1                          T                 .2  .12 Ml 1.5         4680569
PAGF  002.04 331.1 m E Sg      2011/04/24 06:48:51.8   0.2                          T                 .5  .31 Ml 1.4         4680568
SFTF  002.05 314.9 m E Sg      2011/04/24 06:48:52.0   0.1                          T                 .6  .20 Ml 1.7         4680567

.
EVENT     258548
    Date      Time       Latitude Longitude    Depth    Ndef Nsta Gap    Mag1  N    Mag2  N    Mag3  N   Author         ID
       rms   OT_Error      Smajor Sminor Az        Err   mdist  Mdist     Err        Err        Err      Quality

2011/04/24 07:19:03.8     43.5954   12.2178      2.0     138   29 028  Ml 3.2 32                         js067245    258548

      1.39   +-  0.12       4.5    2.5   42.14 +-  0.0    0.06   8.68   +-0.3                            m i ke

CENTRAL ITALY
Sta     Dist  EvAz     Phase      Date       Time     TRes  Azim  AzRes  Slow  SRes Def   SNR       Amp   Per   Mag1   Mag2       ID
PGF   002.58 247.2 m E Pn      2011/04/24 07:19:44.9   0.0                          T                                        4679552
PGF   002.58 247.2 m E Sn      2011/04/24 07:20:14.7  -0.3                          T               37.4  .70 Ml 3.3         4679497
SBF   003.48 276.1 m E Pn      2011/04/24 07:19:58.1   1.0                          T                                        4679551
SBF   003.48 276.1 m E Sn      2011/04/24 07:20:36.5   0.1                          T               45.9  .40 Ml 3.6         4679498
FRF   004.05 271.4 m E Pn      2011/04/24 07:20:05.2   0.4                          T                                        4679549
FRF   004.05 271.4 m E Sn      2011/04/24 07:20:50.1   0.1                          T               37.6  .66 Ml 3.5         4679500
MBDF  004.08 288.0 m E Pn      2011/04/24 07:20:05.4   0.0                          T                                        4679550
MBDF  004.08 288.0 m E Sn      2011/04/24 07:20:51.0   0.1                          T               38.6  .56 Ml 3.5         4679504
LMR   004.16 268.4 m E Pn      2011/04/24 07:20:07.1   0.8                          T                                        4679561
LMR   004.16 268.4 m E Sn      2011/04/24 07:20:52.7   0.0                          T                6.3  .34 Ml 3.0         4679499
LPG   004.35 297.8 m E Pn      2011/04/24 07:20:10.2   1.0                          T                                        4679547
LPG   004.35 297.8 m E Sn      2011/04/24 07:20:57.9   0.4                          T               28.4  .88 Ml 3.2         4679501
LPL   004.37 298.0 m E Pn      2011/04/24 07:20:10.6   1.2                          T                                        4679546
LPL   004.37 298.0 m E Sn      2011/04/24 07:20:58.1   0.3                          T               13.5  .48 Ml 3.2         4679502
ORIF  004.74 288.4 m E Pn      2011/04/24 07:20:16.5   2.2                          T                                        4679545
ORIF  004.74 288.4 m E Sn      2011/04/24 07:21:06.8   0.2                          T               24.2  .54 Ml 3.5         4679503
SMRF  004.82 276.8 m E Pn      2011/04/24 07:20:16.8   1.4                          T                                        4679548
SMRF  004.82 276.8 m E Sn      2011/04/24 07:21:08.8   0.3                          T                4.1  .41 Ml 2.8         4679496
CABF  005.28 306.9 m E Pn      2011/04/24 07:20:23.0   1.3                          T                                        4679536
CABF  005.28 306.9 m E Sn      2011/04/24 07:21:20.1   0.5                          T                9.5  .60 Ml 3.1         4679515
VIVF  005.57 285.7 m E Pn      2011/04/24 07:20:25.7   0.2                          T                                        4679544
VIVF  005.57 285.7 m E Sn      2011/04/24 07:21:26.3   0.0                          T                2.1  .41 Ml 2.7         4679505
HINF  005.65 320.2 m E Pn      2011/04/24 07:20:28.6   2.0                          T                                        4679535
HINF  005.65 320.2 m E Sn      2011/04/24 07:21:29.0   0.7                          T               10.4  .32 Ml 3.5         4679516
LASF  006.07 277.4 m E Pn      2011/04/24 07:20:32.0  -0.3                          T                                        4679543
LASF  006.07 277.4 m E Sn      2011/04/24 07:21:38.4   0.2                          T                3.6  .60 Ml 2.9         4679506
CDF   005.92 326.2 m E Pn      2011/04/24 07:20:32.8   2.4                          T                                        4679533
CDF   005.92 326.2 m E Sn      2011/04/24 07:21:35.3   0.5                          T               26.4  .70 Ml 3.8         4679521
HAU   006.02 319.1 m E Pn      2011/04/24 07:20:34.2   2.5                          T                                        4679534
HAU   006.02 319.1 m E Sn      2011/04/24 07:21:37.8   0.6                          T               22.7  .48 Ml 3.6         4679517
SMF   006.66 300.1 m E Pn      2011/04/24 07:20:40.4   0.0                          T                                        4679538
SMF   006.66 300.1 m E Sn      2011/04/24 07:21:52.7   0.3                          T                7.5  .42 Ml 3.4         4679513
SFTF  006.81 315.1 m E Pn      2011/04/24 07:20:43.2   0.8                          T                                        4679530
SFTF  006.81 315.1 m E Sn      2011/04/24 07:21:56.4   0.6                          T                9.4  .64 Ml 3.4         4679518
PAGF  006.71 320.0 m E Pn      2011/04/24 07:20:43.3   2.4 131.0  -4.3              T                                        4679532
PAGF  006.71 320.0 m E Sn      2011/04/24 07:21:54.2   0.7                          T                5.2  .86 Ml 3.0         4679520
LOR   006.93 304.9 m E Pn      2011/04/24 07:20:43.4  -0.7 122.6  3.7               T                                        4679528
LOR   006.93 304.9 m E Sn      2011/04/24 07:21:59.3   0.4                          T                7.6  .42 Ml 3.5         4679523
AVF   007.03 300.1 m E Pn      2011/04/24 07:20:45.6   0.2                          T                                        4679537
AVF   007.03 300.1 m E Sn      2011/04/24 07:22:01.8   0.6                          T                4.4  .73 Ml 3.0         4679514
SSF   007.05 302.5 m E Pn      2011/04/24 07:20:45.6  -0.1                          T                                        4679529
SSF   007.05 302.5 m E Sn      2011/04/24 07:22:02.1   0.4                          T                4.5  .56 Ml 3.3         4679522
MEZF  006.99 317.0 m E Pn      2011/04/24 07:20:47.4   2.5 143.5  11.6              T                                        4679531
MEZF  006.99 317.0 m E Sn      2011/04/24 07:22:00.8   0.5                          T                4.8  .51 Ml 3.2         4679519
BGF   007.26 297.3 m E Pn      2011/04/24 07:20:48.7   0.1                          T                                        4679540
BGF   007.26 297.3 m E Sn      2011/04/24 07:22:07.2   0.4                          T                8.1  .43 Ml 3.6         4679512
MTLF  007.28 271.4 m E Pn      2011/04/24 07:20:48.9   0.1                          T                                        4679542
MTLF  007.28 271.4 m E Sn      2011/04/24 07:22:07.3   0.1                          T                3.1  .68 Ml 3.0         4679507
CAF   007.41 283.8 m E Pn      2011/04/24 07:20:51.7   1.1                          T                                        4679541
CAF   007.41 283.8 m E Sn      2011/04/24 07:22:10.7   0.4                          T                 .8  .22 Ml 2.9         4679508
TCF   007.59 294.2 m E Pn      2011/04/24 07:20:52.8  -0.3                          T                                        4679527
RJF   007.85 286.3 m E Pn      2011/04/24 07:20:56.5   0.0                          T                                        4679524
RJF   007.85 286.3 m E Sn      2011/04/24 07:22:20.9   0.1                          T                 .9  .36 Ml 2.5         4679510
LFF   008.35 283.2 m E Pn      2011/04/24 07:21:03.7   0.4                          T                                        4679525
LFF   008.35 283.2 m E Sn      2011/04/24 07:22:33.0   0.3                          T                2.6  .45 Ml 3.1         4679509
EPF   008.68 270.4 m E Pn      2011/04/24 07:21:07.9   0.0                          T                                        4679526

.
