EVENT     257915
    Date      Time       Latitude Longitude    Depth    Ndef Nsta Gap    Mag1  N    Mag2  N    Mag3  N   Author         ID
       rms   OT_Error      Smajor Sminor Az        Err   mdist  Mdist     Err        Err        Err      Quality

2011/04/03 05:35:49.5     43.1132    -.6233      3.0 f    80   16 067  Ml 2.4 12  Md 2.7  3              js067245    257915

      0.54   +-  0.05       1.2     .8  159.14 +-  0.0    0.06   5.65   +-0.2      +-0.0                 m i ke

PYRENEES
Sta     Dist  EvAz     Phase      Date       Time     TRes  Azim  AzRes  Slow  SRes Def   SNR       Amp   Per   Mag1   Mag2       ID
ETSF  000.22 167.6 m E Pg      2011/04/03 05:35:53.3  -0.8                          T   001.0                                4668092
ETSF  000.22 167.6 m E Sg      2011/04/03 05:35:56.1  -0.9                          T   001.0      249.2  .20        Md 2.7  4668093
SJPF  000.44 270.2 m E Pg      2011/04/03 05:35:57.8  -0.2                          T                                        4669553
SJPF  000.44 270.2 m E Sg      2011/04/03 05:36:04.1   0.3                          T   001.0       34.3  .20        Md 2.6  4668097
EPF   000.71 096.4 m E Pg      2011/04/03 05:36:02.9  -0.1                          T   001.0                                4668079
EPF   000.71 096.4 m E Sg      2011/04/03 05:36:12.8   0.6                          T   001.0       13.6  .16        Md 2.7  4668080
MTLF  002.09 082.8 m E Pn      2011/04/03 05:36:23.5  -0.2                          T   001.0                                4668094
MTLF  002.09 082.8 m E P       2011/04/03 05:36:25.7  -0.2                          T   001.0                                4668095
MTLF  002.09 082.8 m E Pg      2011/04/03 05:36:28.1  -0.2                          T                                        4669561
MTLF  002.09 082.8 m E Sn      2011/04/03 05:36:48.4  -0.2                          T                                        4669560
MTLF  002.09 082.8 m E Sg      2011/04/03 05:36:54.9  -0.3                          T   001.0        3.8  .28 Ml 2.4         4668096
LFF   002.07 027.8 m E Pn      2011/04/03 05:36:23.6   0.2                          T   001.0                                4668084
LFF   002.07 027.8 m E P       2011/04/03 05:36:25.9   0.2                          T   001.0                                4668085
LFF   002.07 027.8 m E Pg      2011/04/03 05:36:28.4   0.4                          T                                        4669573
LFF   002.07 027.8 m E Sn      2011/04/03 05:36:48.2   0.0                          T   001.0                                4668086
LFF   002.07 027.8 m E Sg      2011/04/03 05:36:55.6   0.9                          T   001.0        9.8  .36 Ml 2.5         4668087
CAF   002.65 046.0 m E Pn      2011/04/03 05:36:31.0  -0.3                          T                                        4669575
CAF   002.65 046.0 m E Pg      2011/04/03 05:36:38.5  -0.3                          T                                        4669574
CAF   002.65 046.0 m E Sn      2011/04/03 05:37:02.0  -0.2                          T   001.0          2  .20 Ml 2.4         4668078
RJF   002.68 034.3 m E Pn      2011/04/03 05:36:31.7   0.1                          T   001.0                                4668075
RJF   002.68 034.3 m E Pg      2011/04/03 05:36:39.5   0.4                          T                                        4669572
RJF   002.68 034.3 m E Sn      2011/04/03 05:37:02.8   0.1                          T                                        4669562
RJF   002.68 034.3 m E Sg      2011/04/03 05:37:14.0   0.4                          T   001.0        3.6  .32 Ml 2.1         4668076
MFF   003.51 005.4 m E Pn      2011/04/03 05:36:41.4  -1.5                          T   001.0                                4668089
MFF   003.51 005.4 m E Pg      2011/04/03 05:36:54.6   0.2                          T                                        4669571
MFF   003.51 005.4 m E Sn      2011/04/03 05:37:22.3  -0.2                          T                                        4669563
MFF   003.51 005.4 m E Sg      2011/04/03 05:37:39.9   0.5                          T   001.0          2  .32 Ml 2.5         4668090
LASF  003.39 072.0 m E Pn      2011/04/03 05:36:41.9   0.5                          T   001.0                                4668082
LASF  003.39 072.0 m E Sn      2011/04/03 05:37:19.9   0.1                          T                                        4669559
LASF  003.39 072.0 m E Sg      2011/04/03 05:37:36.1   0.2                          T   001.0        1.2  .30 Ml 2.1         4668083
TCF   003.76 031.5 m E Pn      2011/04/03 05:36:46.4  -0.1                          T                                        4669567
TCF   003.76 031.5 m E Sn      2011/04/03 05:37:28.8   0.2                          T                                        4669566
TCF   003.76 031.5 m E Sg      2011/04/03 05:37:47.5   0.0                          T   001.0        1.6  .28 Ml 2.4         4668091
VIVF  004.20 063.7 m E Pn      2011/04/03 05:36:52.2  -0.2                          T   001.0                                4668098
VIVF  004.20 063.7 m E Pg      2011/04/03 05:37:06.8  -0.5                          T                                        4669558
BGF   004.24 034.4 m E Pn      2011/04/03 05:36:53.7   0.8                          T   001.0                                4668077
BGF   004.24 034.4 m E Sg      2011/04/03 05:38:02.5   0.3                          T                5.8  .42 Ml 2.8         4669564
AVF   004.63 036.1 m E Pn      2011/04/03 05:36:58.5   0.2                          T                                        4669568
FLN   005.65 001.0 m E Pn      2011/04/03 05:37:12.7   0.6                          T                                        4669570
LMR   005.22 085.1 m E Sn      2011/04/03 05:38:02.6  -0.7                          T   001.0        1.9  .64 Ml 2.4         4668088
FRF   005.32 082.7 m E Sn      2011/04/03 05:38:04.9  -0.9                          T                 .8  .21 Ml 2.5         4669557

.
EVENT     257916
    Date      Time       Latitude Longitude    Depth    Ndef Nsta Gap    Mag1  N    Mag2  N    Mag3  N   Author         ID
       rms   OT_Error      Smajor Sminor Az        Err   mdist  Mdist     Err        Err        Err      Quality

2011/04/03 05:37:09.2     43.1100    -.6200 f    5.0 f    29    7 107  Ml 1.5  4  Md 1.6  3              js067245    257916

      0.34   +-  0.09    9999.9 9999.9   99.90 +-  0.0    0.06   2.68   +-0.2      +-0.2                 m i ke

PYRENEES
Sta     Dist  EvAz     Phase      Date       Time     TRes  Azim  AzRes  Slow  SRes Def   SNR       Amp   Per   Mag1   Mag2       ID
ETSF  000.22 168.1 m E Pg      2011/04/03 05:37:13.2  -0.5                          T                                        4669584
ETSF  000.22 168.1 m E Sg      2011/04/03 05:37:16.0  -0.7                          T               20.2  .22        Md 1.5  4669585
SJPF  000.44 270.6 m E Pg      2011/04/03 05:37:17.7   0.0                          T                                        4669582
SJPF  000.44 270.6 m E Sg      2011/04/03 05:37:24.0   0.4                          T                6.4  .26        Md 1.7  4669583
EPF   000.71 096.1 m E Pg      2011/04/03 05:37:22.8   0.2                          T                                        4669580
EPF   000.71 096.1 m E Sg      2011/04/03 05:37:32.8   0.9                          T                2.1  .21        Md 1.4  4669581
MTLF  002.09 082.7 m E Sg      2011/04/03 05:38:14.9   0.0                          T                 .5  .26 Ml 1.5         4669579
LFF   002.08 027.7 m E Sg      2011/04/03 05:38:15.4   0.9                          T                2.0  .37 Ml 1.8         4669577
CAF   002.65 045.9 m E Sn      2011/04/03 05:38:21.9   0.4                          T                 .3  .21 Ml 1.5         4669578
RJF   002.68 034.3 m E Sn      2011/04/03 05:38:22.1   0.1                          T                 .3  .23 Ml 1.2         4669576

.
EVENT     257917
    Date      Time       Latitude Longitude    Depth    Ndef Nsta Gap    Mag1  N    Mag2  N    Mag3  N   Author         ID
       rms   OT_Error      Smajor Sminor Az        Err   mdist  Mdist     Err        Err        Err      Quality

2011/04/03 08:00:39.3     42.8494    -.0220      2.0       6    3 221  Ml 1.1  1  Md 1.3  2              js067245    257917

      0.26   +-  0.44      18.3    2.4  169.28 +-  0.0    0.32   0.92   +-         +-0.1                 m i ke

PYRENEES
Sta     Dist  EvAz     Phase      Date       Time     TRes  Azim  AzRes  Slow  SRes Def   SNR       Amp   Per   Mag1   Mag2       ID
EPF   000.32 055.7 m E Pg      2011/04/03 08:00:45.4  -0.2                          T                                        4669590
EPF   000.32 055.7 m E Sg      2011/04/03 08:00:49.9   0.0                          T                7.4  .33        Md 1.3  4669591
ETSF  000.40 277.3 m E Pg      2011/04/03 08:00:47.0   0.0                          T                                        4669588
ETSF  000.40 277.3 m E Sg      2011/04/03 08:00:51.7  -0.7                          T                8.8  .29        Md 1.3  4669589
SJPF  000.92 287.0 m E Pg      2011/04/03 08:00:56.8   0.2                          T                                        4669586
SJPF  000.92 287.0 m E Sg      2011/04/03 08:01:08.6   0.0                          T                 .4  .19 Ml 1.1         4669587

.
EVENT     257924
    Date      Time       Latitude Longitude    Depth    Ndef Nsta Gap    Mag1  N    Mag2  N    Mag3  N   Author         ID
       rms   OT_Error      Smajor Sminor Az        Err   mdist  Mdist     Err        Err        Err      Quality

2011/04/03 08:00:51.1     42.8447    -.0222      2.0       6    3 222  Ml 1.3  1  Md 1.2  2              js067245    257924

      0.25   +-  0.44      17.9    2.3  169.21 +-  0.0    0.32   0.92   +-         +-0.0                 m i ke

PYRENEES
Sta     Dist  EvAz     Phase      Date       Time     TRes  Azim  AzRes  Slow  SRes Def   SNR       Amp   Per   Mag1   Mag2       ID
EPF   000.32 055.0 m E Pg      2011/04/03 08:00:57.3  -0.2                          T                                        4669592
EPF   000.32 055.0 m E Sg      2011/04/03 08:01:01.7  -0.2                          T                6.2  .23        Md 1.2  4669593
ETSF  000.40 278.0 m E Pg      2011/04/03 08:00:58.8  -0.1                          T                                        4669594
ETSF  000.40 278.0 m E Sg      2011/04/03 08:01:03.6  -0.6                          T               17.7  .30        Md 1.2  4669595
SJPF  000.92 287.3 m E Pg      2011/04/03 08:01:08.7   0.3                          T                                        4669596
SJPF  000.92 287.3 m E Sg      2011/04/03 08:01:20.4   0.0                          T                 .9  .23 Ml 1.3         4669597

.
EVENT     257910
    Date      Time       Latitude Longitude    Depth    Ndef Nsta Gap    Mag1  N    Mag2  N    Mag3  N   Author         ID
       rms   OT_Error      Smajor Sminor Az        Err   mdist  Mdist     Err        Err        Err      Quality

2011/04/03 08:38:08.3     47.4493    8.2364      7.0 f    14    8 212  Ml 1.8  7  Md 2.0  2              js067245    257910

      0.26   +-  0.14       2.3    1.5  134.03 +-  0.0    0.11   2.39   +-0.2      +-0.1                 m i ke

SWITZERLAND
Sta     Dist  EvAz     Phase      Date       Time     TRes  Azim  AzRes  Slow  SRes Def   SNR       Amp   Per   Mag1   Mag2       ID
HINF  001.01 292.0 m E Pg      2011/04/03 08:38:27.4   0.1                          T                                        4669602
HINF  001.01 292.0 m E Sg      2011/04/03 08:38:40.3  -0.1                          T                3.4  .40 Ml 1.7 Md 2.0  4669603
CDF   001.16 326.5 m E Pg      2011/04/03 08:38:30.2   0.0                          T                                        4669612
CDF   001.16 326.5 m E Sg      2011/04/03 08:38:45.3   0.1                          T                1.9  .29 Ml 1.8 Md 2.1  4669613
HAU   001.39 294.3 m E Pg      2011/04/03 08:38:34.5   0.2                          T                                        4669604
HAU   001.39 294.3 m E Sg      2011/04/03 08:38:52.3  -0.1                          T                3.1  .34 Ml 1.7         4669605
CABF  001.69 241.1 m E Pg      2011/04/03 08:38:39.9  -0.1                          T                                        4669600
CABF  001.69 241.1 m E Sg      2011/04/03 08:39:01.9   0.1                          T                 .8  .35 Ml 1.5         4669601
PAGF  002.02 304.2 m E Pn      2011/04/03 08:38:40.6  -0.4                          T                                        4669609
PAGF  002.02 304.2 m E Pg      2011/04/03 08:38:45.1  -0.7                          T                                        4669608
PAGF  002.02 304.2 m E Sn      2011/04/03 08:39:04.1  -0.9                          T                1.9  .40 Ml 1.9         4669610
THEF  001.70 298.1 m E Sg      2011/04/03 08:39:02.3   0.3                          T                1.5  .28 Ml 1.8         4669606
MEZF  002.38 297.4 m E Sg      2011/04/03 08:39:23.3   0.0                          T                1.9  .32 Ml 2.1         4669607
RUP   002.39 341.3 m E Sg      2011/04/03 08:39:23.4   0.0                          T                                        4669611

.
EVENT     257911
    Date      Time       Latitude Longitude    Depth    Ndef Nsta Gap    Mag1  N    Mag2  N    Mag3  N   Author         ID
       rms   OT_Error      Smajor Sminor Az        Err   mdist  Mdist     Err        Err        Err      Quality

2011/04/03 11:02:21.3     44.0154    8.7800      5.0 f    20    8 217  Ml 2.1  7                         js067245    257911

      0.25   +-  0.14       2.6    2.0   49.66 +-  0.0    0.98   2.31   +-0.3                            m i ke

NORTHERN ITALY
Sta     Dist  EvAz     Phase      Date       Time     TRes  Azim  AzRes  Slow  SRes Def   SNR       Amp   Per   Mag1   Mag2       ID
SBF   000.98 261.6 m E Pg      2011/04/03 11:02:40.1   0.3                          T                                        4669628
SBF   000.98 261.6 m E Sg      2011/04/03 11:02:52.3  -0.3                          T               20.2  .22 Ml 2.8         4669629
PGF   001.48 173.7 m E Pn      2011/04/03 11:02:46.9  -0.1                          T                                        4669626
PGF   001.48 173.7 m E Sn      2011/04/03 11:03:05.6   0.1                          T                1.2  .22 Ml 2.0         4669627
MBDF  001.61 297.0 m E Pn      2011/04/03 11:02:48.5  -0.3                          T                                        4669618
MBDF  001.61 297.0 m E Pg      2011/04/03 11:02:51.3  -0.1                          T                                        4669636
MBDF  001.61 297.0 m E Sn      2011/04/03 11:03:08.8   0.1                          T                                        4669624
MBDF  001.61 297.0 m E Sg      2011/04/03 11:03:12.4   0.3                          T                2.8  .29 Ml 2.1         4669637
FRF   001.61 254.3 m E Pg      2011/04/03 11:02:50.9  -0.4                          T                                        4669632
FRF   001.61 254.3 m E Sn      2011/04/03 11:03:08.8   0.3                          T                                        4669623
FRF   001.61 254.3 m E Sg      2011/04/03 11:03:11.8  -0.2                          T                1.4  .20 Ml 2.0         4669633
LMR   001.78 248.3 m E Pn      2011/04/03 11:02:51.3   0.3                          T                                        4669621
LMR   001.78 248.3 m E Pg      2011/04/03 11:02:54.4  -0.1                          T                                        4669630
LMR   001.78 248.3 m E Sn      2011/04/03 11:03:12.5  -0.2                          T                                        4669622
LMR   001.78 248.3 m E Sg      2011/04/03 11:03:17.2  -0.3                          T                1.2  .20 Ml 2.0         4669631
LPG   002.07 316.4 m E Pn      2011/04/03 11:02:55.2  -0.1                          T                                        4669620
ORIF  002.26 294.5 m E Pn      2011/04/03 11:02:57.9   0.3                          T                                        4669619
ORIF  002.26 294.5 m E Sg      2011/04/03 11:03:32.4  -0.2                          T                1.1  .36 Ml 1.7         4669625
SMRF  002.31 270.1 m E Pg      2011/04/03 11:03:04.7   0.4                          T                                        4669634
SMRF  002.31 270.1 m E Sg      2011/04/03 11:03:34.2   0.2                          T                3.3  .33 Ml 2.3         4669635

.
EVENT     257912
    Date      Time       Latitude Longitude    Depth    Ndef Nsta Gap    Mag1  N    Mag2  N    Mag3  N   Author         ID
       rms   OT_Error      Smajor Sminor Az        Err   mdist  Mdist     Err        Err        Err      Quality

2011/04/03 16:32:57.6     44.4561    7.0317      2.0      21    9 163  Ml 1.9  7  Md 2.0  1              js067245    257912

      0.37   +-  0.10       2.9    1.2   74.78 +-  0.0    0.33   1.73   +-0.5      +-                    m i ke

NORTHERN ITALY
Sta     Dist  EvAz     Phase      Date       Time     TRes  Azim  AzRes  Slow  SRes Def   SNR       Amp   Per   Mag1   Mag2       ID
MBDF  000.33 325.6 m E Pg      2011/04/03 16:33:03.9  -0.3                          T                                        4669650
MBDF  000.33 325.6 m E Sg      2011/04/03 16:33:09.1   0.5                          T                8.3  .17        Md 2.0  4669651
SBF   000.66 153.8 m E Pg      2011/04/03 16:33:10.1  -0.2                          T                                        4669642
SBF   000.66 153.8 m E Sg      2011/04/03 16:33:18.9   0.1                          T                4.9  .24                4669643
ORIF  000.94 299.8 m E Pg      2011/04/03 16:33:15.2  -0.3                          T                                        4669649
ORIF  000.94 299.8 m E Sg      2011/04/03 16:33:27.4  -0.3                          T                2.8  .28 Ml 1.8         4669641
FRF   000.94 197.4 m E Pg      2011/04/03 16:33:15.2   0.0                          T                                        4669645
FRF   000.94 197.4 m E Pn      2011/04/03 16:33:16.7   0.5                          T                                        4669646
FRF   000.94 197.4 m E Sg      2011/04/03 16:33:27.2  -0.2                          T                                        4669639
FRF   000.94 197.4 m E Sn      2011/04/03 16:33:29.6   0.2                          T                8.6  .20 Ml 2.5         4669640
LPL   001.08 348.8 m E Pg      2011/04/03 16:33:18.1  -0.1                          T                                        4669648
LPL   001.08 348.8 m E Sg      2011/04/03 16:33:32.2   0.1                          T                 .8  .20 Ml 1.4         4669654
LMR   001.18 198.8 m E Pg      2011/04/03 16:33:18.6  -1.1                          T                                        4669644
LMR   001.18 198.8 m E Sg      2011/04/03 16:33:35.4   0.3                          T               15.6  .24 Ml 2.7         4669638
SMRF  001.15 245.9 m E Pg      2011/04/03 16:33:20.3   1.1                          T                                        4669647
SMRF  001.15 245.9 m E Sg      2011/04/03 16:33:34.8   0.6                          T                3.6  .27 Ml 2.0         4669652
VIVF  001.73 284.2 m E Pn      2011/04/03 16:33:26.9  -0.2                          T                                        4669656
VIVF  001.73 284.2 m E Sg      2011/04/03 16:33:52.2   0.0                          T                 .5  .24 Ml 1.5         4669655
LPG   001.06 349.3 m E Sg      2011/04/03 16:33:31.6   0.0                          T                1.5  .33 Ml 1.5         4669653

.
