BEGIN GSE2.0
MSG_TYPE DATA
MSG_ID 15-AUG-1214:01:47  FRA_NDC
E-MAIL
DATA_TYPE BULLETIN
Reviewed Bulletin (REB) # P2012-031  from French NDC for regional phases     PERIOD 01 AUG 2012 TO 07 AUG 2012 Cenalt JP S
EVENT     280367
    Date      Time       Latitude Longitude    Depth    Ndef Nsta Gap    Mag1  N    Mag2  N    Mag3  N   Author         ID
       rms   OT_Error      Smajor Sminor Az        Err   mdist  Mdist     Err        Err        Err      Quality

2012/08/01 00:17:26.4     42.8720     .1371      2.0       5    3 201  Ml 1.2  1  Md 1.3  2              bulletin    280467
                                                                                                         _ldg
      0.12   +-  0.10       4.5     .8  162.20 +-  0.0    0.22   1.59   +-         +-0.0                 m i ke

PYRENEES
Sta     Dist  EvAz     Phase      Date       Time     TRes  Azim  AzRes  Slow  SRes Def   SNR       Amp   Per   Mag1   Mag2       ID
EPF   000.22 043.2 m E Pg      2012/08/01 00:17:30.8   0.0                          T                                        5036309
EPF   000.22 043.2 m E Sg      2012/08/01 00:17:33.6  -0.2                          T                2.4  .20        Md 1.3  5036308
ETSF  000.51 273.2 m E Pg      2012/08/01 00:17:36.2  -0.1                          T                                        5036306
ETSF  000.51 273.2 m E Sg      2012/08/01 00:17:42.8  -0.2                          T                3.6  .30        Md 1.3  5036307
MTLF  001.59 072.2 m E Sg      2012/08/01 00:18:16.5  -0.1                          T                 .3  .24 Ml 1.2         5045477

.
EVENT     280368
    Date      Time       Latitude Longitude    Depth    Ndef Nsta Gap    Mag1  N    Mag2  N    Mag3  N   Author         ID
       rms   OT_Error      Smajor Sminor Az        Err   mdist  Mdist     Err        Err        Err      Quality

2012/08/01 02:55:01.7     44.7236    6.6556      2.0      53   16 049  Ml 2.4  7  Md 2.4  4              bulletin    280468
                                                                                                         _ldg
      0.75   +-  0.08       2.0    1.3   54.23 +-  0.0    0.08   3.50   +-0.3      +-0.2                 m i ke

FRANCE
Sta     Dist  EvAz     Phase      Date       Time     TRes  Azim  AzRes  Slow  SRes Def   SNR       Amp   Per   Mag1   Mag2       ID
MBDF  000.08 087.7 m E Pg      2012/08/01 02:55:03.3  -0.5                          T                                        5036326
MBDF  000.08 087.7 m E Sg      2012/08/01 02:55:04.7  -0.4                          T              174.7  .24        Md 2.6  5036327
ORIF  000.59 289.7 m E Pg      2012/08/01 02:55:12.0  -0.9                          T                                        5036324
ORIF  000.59 289.7 m E Sg      2012/08/01 02:55:19.0  -1.6                          T               31.7  .22        Md 2.4  5036316
LPG   000.78 005.0 m E Pg      2012/08/01 02:55:16.5  -0.2                          T                                        5036322
LPG   000.78 005.0 m E Sg      2012/08/01 02:55:26.7  -0.2                          T               18.3  .42        Md 2.5  5036314
LPL   000.79 003.9 m E Pg      2012/08/01 02:55:16.6  -0.4                          T                                        5036323
LPL   000.79 003.9 m E Sg      2012/08/01 02:55:28.1   0.8                          T               39.8  .52        Md 2.2  5036315
SBF   001.03 146.7 m E Pg      2012/08/01 02:55:20.9  -0.1                          T                                        5036318
SBF   001.03 146.7 m E Sg      2012/08/01 02:55:34.2  -0.2                          T               22.7  .30 Ml 2.7         5036310
SMRF  001.08 226.4 m E Pg      2012/08/01 02:55:22.7   0.8                          T                                        5036321
SMRF  001.08 226.4 m E P       2012/08/01 02:55:23.8   0.0                          T                                        5037543
FRF   001.16 180.3 m E Pn      2012/08/01 02:55:23.3   0.0                          T                                        5037544
FRF   001.16 180.3 m E Pg      2012/08/01 02:55:24.4   1.0                          T                                        5036320
FRF   001.16 180.3 m E Sg      2012/08/01 02:55:38.4  -0.1                          T               10.8  .20 Ml 2.7         5036312
LMR   001.39 184.4 m E Pg      2012/08/01 02:55:27.7   0.0                          T                                        5036319
LMR   001.39 184.4 m E Sg      2012/08/01 02:55:46.0   0.3                          T                5.6  .22 Ml 2.4         5036311
VIVF  001.42 276.1 m E Pg      2012/08/01 02:55:28.5   0.3                          T                                        5036325
VIVF  001.42 276.1 m E Sn      2012/08/01 02:55:44.7  -0.2                          T                                        5036317
VIVF  001.42 276.1 m E Sg      2012/08/01 02:55:46.9   0.4                          T                6.0  .36 Ml 2.2         5037545
CABF  001.93 348.3 m E Pg      2012/08/01 02:55:38.2   0.5                          T                                        5037550
CABF  001.93 348.3 m E Sg      2012/08/01 02:56:02.7   0.2                          T                2.7  .40 Ml 2.0         5037555
AVF   003.10 313.0 m E P       2012/08/01 02:55:51.7  -0.9                          T                                        5037546
AVF   003.10 313.0 m E Pg      2012/08/01 02:55:59.6   0.4                          T                                        5037548
AVF   003.10 313.0 m E Sg      2012/08/01 02:56:38.7  -0.2                          T                1.4  .39 Ml 2.0         5037558
SMF   002.75 315.2 m E Pg      2012/08/01 02:55:52.9   0.1                          T                                        5037549
SMF   002.75 315.2 m E Sg      2012/08/01 02:56:27.7  -0.4                          T                                        5037557
BGF   003.24 305.8 m E P       2012/08/01 02:55:53.8  -0.9                          T                                        5037560
BGF   003.24 305.8 m E Pg      2012/08/01 02:56:01.8   0.1                          T                                        5037547
BGF   003.24 305.8 m E Sg      2012/08/01 02:56:44.7   1.3                          T                4.8  .44 Ml 2.5         5037556
TCF   003.50 298.2 m E P       2012/08/01 02:55:56.4  -1.9                          T                                        5037551
SSF   003.21 317.9 m E Pg      2012/08/01 02:56:01.4   0.3                          T                                        5037559
SSF   003.21 317.9 m E Sg      2012/08/01 02:56:41.7  -0.7                          T                                        5037554
LOR   003.21 323.5 m E Pg      2012/08/01 02:56:01.9   0.8 142.3  0.8               T                                        5037552
LOR   003.21 323.5 m E Sg      2012/08/01 02:56:41.3  -1.0 149.9  8.3               T                                        5037553

.
EVENT     280382
    Date      Time       Latitude Longitude    Depth    Ndef Nsta Gap    Mag1  N    Mag2  N    Mag3  N   Author         ID
       rms   OT_Error      Smajor Sminor Az        Err   mdist  Mdist     Err        Err        Err      Quality

2012/08/01 07:27:21.9     42.8672   -1.0618      2.0      28    7 057  Ml 2.2  5  Md 2.4  2              bulletin    280482
                                                                                                         _ldg
      0.36   +-  0.06       1.5    1.0   12.82 +-  0.0    0.18   3.06   +-0.2      +-0.0                 m i ke

PYRENEES
Sta     Dist  EvAz     Phase      Date       Time     TRes  Azim  AzRes  Slow  SRes Def   SNR       Amp   Per   Mag1   Mag2       ID
SJPF  000.27 334.1 m E Pg      2012/08/01 07:27:27.5   0.1                          T                                        5036425
SJPF  000.27 334.1 m E Sg      2012/08/01 07:27:31.3   0.3                          T              101.6  .22        Md 2.4  5036422
ETSF  000.37 085.0 m E Pg      2012/08/01 07:27:28.5  -0.6                          T                                        5036424
ETSF  000.37 085.0 m E Sg      2012/08/01 07:27:33.6  -0.5                          T               54.0  .38        Md 2.4  5036421
EPF   001.04 080.5 m E Pg      2012/08/01 07:27:40.8  -0.7                          T                                        5036423
EPF   001.04 080.5 m E Sg      2012/08/01 07:27:55.0   0.0                          T               16.3  .30 Ml 2.6         5036420
CAF   003.06 046.6 m E Pn      2012/08/01 07:28:09.3  -0.1                          T                                        5045479
CAF   003.06 046.6 m E Sn      2012/08/01 07:28:44.3   0.0                          T                2.1  .27 Ml 2.3         5045484
CAF   003.06 046.6 m E S       2012/08/01 07:28:49.9  -0.1                          T                                        5045485
RJF   003.06 036.4 m E Pg      2012/08/01 07:28:18.5  -0.2                          T                                        5045478
RJF   003.06 036.4 m E Sn      2012/08/01 07:28:44.3  -0.2                          T                2.2  .25 Ml 2.0         5045481
RJF   003.06 036.4 m E S       2012/08/01 07:28:50.0  -0.2                          T                                        5045482
LFF   002.45 031.5 m E Sg      2012/08/01 07:28:38.6  -0.2                          T                4.1  .36 Ml 2.2         5045483
MTLF  002.45 077.7 m E Sg      2012/08/01 07:28:39.1   0.3                          T                2.1  .34 Ml 2.1         5045480

.
EVENT     280389
    Date      Time       Latitude Longitude    Depth    Ndef Nsta Gap    Mag1  N    Mag2  N    Mag3  N   Author         ID
       rms   OT_Error      Smajor Sminor Az        Err   mdist  Mdist     Err        Err        Err      Quality

2012/08/01 08:53:18.8     44.4718    6.6898      2.0      37    9 052  Ml 2.1  4  Md 2.0  3              bulletin    280489
                                                                                                         _ldg
      0.48   +-  0.07       1.5    1.2   63.35 +-  0.0    0.26   1.49   +-0.2      +-0.0                 m i ke

FRANCE
Sta     Dist  EvAz     Phase      Date       Time     TRes  Azim  AzRes  Slow  SRes Def   SNR       Amp   Per   Mag1   Mag2       ID
MBDF  000.26 012.8 m E Pg      2012/08/01 08:53:24.1   0.0                          T                                        5036554
MBDF  000.26 012.8 m E Sg      2012/08/01 08:53:27.6  -0.1                          T               20.9  .34        Md 2.0  5036551
ORIF  000.73 308.0 m E Pg      2012/08/01 08:53:32.3  -0.4                          T                                        5036553
ORIF  000.73 308.0 m E Sg      2012/08/01 08:53:41.9  -0.4                          T                5.6  .30        Md 2.0  5036567
SBF   000.81 138.3 m E Pg      2012/08/01 08:53:34.0  -0.2                          T                                        5036558
SBF   000.81 138.3 m E Sg      2012/08/01 08:53:44.4  -0.3                          T                5.9  .35        Md 1.9  5036572
FRF   000.91 182.0 m E Pg      2012/08/01 08:53:36.0   0.1                          T                                        5036552
FRF   000.91 182.0 m E Pn      2012/08/01 08:53:37.2   0.2                          T                                        5037569
FRF   000.91 182.0 m E Sg      2012/08/01 08:53:47.5  -0.3                          T                6.0  .18 Ml 2.3         5036570
FRF   000.91 182.0 m E Sn      2012/08/01 08:53:50.0   0.0                          T                                        5037567
SMRF  000.94 238.6 m E Pg      2012/08/01 08:53:36.3  -0.2                          T                                        5036557
SMRF  000.94 238.6 m E Sg      2012/08/01 08:53:48.4  -0.4                          T                2.8  .27 Ml 1.8         5036569
SMRF  000.94 238.6 m E Sn      2012/08/01 08:53:51.1   0.3                          T                                        5037566
LPG   001.03 002.4 m E Pg      2012/08/01 08:53:37.9  -0.5                          T                                        5036556
LPG   001.03 002.4 m E Sg      2012/08/01 08:53:50.8  -0.9                          T                3.7  .20 Ml 2.1         5036568
LMR   001.15 186.6 m E Pg      2012/08/01 08:53:40.6   0.4                          T                                        5036559
LMR   001.15 186.6 m E P       2012/08/01 08:53:41.7  -0.1                          T                                        5037568
LMR   001.15 186.6 m E Sg      2012/08/01 08:53:55.1   0.0                          T                2.7  .20 Ml 2.0         5036571
LPL   001.05 001.6 m E P       2012/08/01 08:53:40.8   0.1                          T                                        5036555
VIVF  001.49 285.7 m E P       2012/08/01 08:53:47.0   0.2                          T                                        5037565
VIVF  001.49 285.7 m E Sg      2012/08/01 08:54:06.0   0.1                          T                                        5037564

.
EVENT     280451
    Date      Time       Latitude Longitude    Depth    Ndef Nsta Gap    Mag1  N    Mag2  N    Mag3  N   Author         ID
       rms   OT_Error      Smajor Sminor Az        Err   mdist  Mdist     Err        Err        Err      Quality

2012/08/01 11:21:41.3     43.6581    7.9685     25.0      14    3 244  Ml 2.1  2  Md 2.1  1              bulletin    280551
                                                                                                         _ldg
      0.13   +-  0.09       1.7     .9  131.69 +-  0.0    0.26   1.11   +-0.0      +-                    m i ke

NEAR SOUTH COAST OF FRANCE
Sta     Dist  EvAz     Phase      Date       Time     TRes  Azim  AzRes  Slow  SRes Def   SNR       Amp   Per   Mag1   Mag2       ID
SBF   000.44 298.1 m E Pg      2012/08/01 11:21:50.7  -0.1                          T                                        5037585
SBF   000.44 298.1 m E Sg      2012/08/01 11:21:57.2   0.0                          T                6.1  .24        Md 2.1  5037584
LMR   001.11 253.5 m E Pn      2012/08/01 11:21:59.7   0.0                          T                                        5037589
LMR   001.11 253.5 m E Sn      2012/08/01 11:22:12.9  -0.1                          T                2.9  .19 Ml 2.1         5037588
FRF   000.96 264.7 m E Sn      2012/08/01 11:22:09.7   0.1                          T                                        5037587
FRF   000.96 264.7 m E Sg      2012/08/01 11:22:12.6  -0.1                          T                6.5  .39 Ml 2.1         5037586

.
EVENT     280410
    Date      Time       Latitude Longitude    Depth    Ndef Nsta Gap    Mag1  N    Mag2  N    Mag3  N   Author         ID
       rms   OT_Error      Smajor Sminor Az        Err   mdist  Mdist     Err        Err        Err      Quality

2012/08/01 19:28:08.7     44.5048    6.6955      2.0      37    9 053  Ml 1.8  6  Md 2.0  3              bulletin    280510
                                                                                                         _ldg
      0.43   +-  0.07       1.5    1.2   56.91 +-  0.0    0.09   3.29   +-0.3      +-0.0                 m i ke

FRANCE
Sta     Dist  EvAz     Phase      Date       Time     TRes  Azim  AzRes  Slow  SRes Def   SNR       Amp   Per   Mag1   Mag2       ID
MBDF  000.23 013.7 m E Pg      2012/08/01 19:28:13.4   0.0                          T                                        5036943
MBDF  000.23 013.7 m E Sg      2012/08/01 19:28:16.0  -0.5                          T                5.5  .19        Md 2.0  5036942
ORIF  000.71 305.7 m E Pg      2012/08/01 19:28:22.0  -0.3                          T                                        5036941
ORIF  000.71 305.7 m E Sg      2012/08/01 19:28:31.3  -0.3                          T                3.6  .20                5036940
SBF   000.83 140.1 m E Pg      2012/08/01 19:28:24.2  -0.2                          T                                        5036927
SBF   000.83 140.1 m E Sg      2012/08/01 19:28:35.2  -0.1                          T                4.8  .26        Md 2.0  5036926
FRF   000.94 182.2 m E Pg      2012/08/01 19:28:26.4   0.0                          T                                        5036931
FRF   000.94 182.2 m E Sg      2012/08/01 19:28:38.2  -0.5                          T                6.1  .22 Ml 2.3 Md 1.9  5036930
SMRF  000.96 237.1 m E Pg      2012/08/01 19:28:26.7  -0.1                          T                                        5037583
SMRF  000.96 237.1 m E Pn      2012/08/01 19:28:27.7   0.0                          T                                        5036939
SMRF  000.96 237.1 m E Sn      2012/08/01 19:28:41.1  -0.1                          T                2.8  .35 Ml 1.7         5036938
LPG   000.99 002.3 m E Pg      2012/08/01 19:28:27.5  -0.2                          T                                        5036937
LPG   000.99 002.3 m E Sn      2012/08/01 19:28:41.0  -1.2                          T                1.6  .26 Ml 1.6         5036936
LPL   001.01 001.5 m E Pn      2012/08/01 19:28:28.5   0.0                          T                                        5036935
LPL   001.01 001.5 m E Sn      2012/08/01 19:28:42.4  -0.1                          T                1.9  .27 Ml 1.7         5036934
LMR   001.18 186.6 m E Pn      2012/08/01 19:28:31.0   0.5                          T                                        5036929
LMR   001.18 186.6 m E Sg      2012/08/01 19:28:45.5  -0.4                          T                2.9  .20 Ml 2.1         5036928
VIVF  001.49 284.4 m E P       2012/08/01 19:28:37.0   0.3                          T                                        5036933
VIVF  001.49 284.4 m E Sg      2012/08/01 19:28:55.6   0.0                          T                2.1  .44 Ml 1.7         5036932

.
