EVENT     264023
    Date      Time       Latitude Longitude    Depth    Ndef Nsta Gap    Mag1  N    Mag2  N    Mag3  N   Author         ID
       rms   OT_Error      Smajor Sminor Az        Err   mdist  Mdist     Err        Err        Err      Quality

2011/09/17 03:43:04.9     36.1056   -7.9493     20.0 f    96    5 230  Ml 3.3  5                         js067245    264043

      0.45   +-  0.13       2.6    1.4   30.41 +-  0.0    1.13  11.64   +-0.2                            m i ke

STRAIT OF GIBRALTAR
Sta     Dist  EvAz     Phase      Date       Time     TRes  Azim  AzRes  Slow  SRes Def   SNR       Amp   Per   Mag1   Mag2       ID
SJPF  008.71 034.5 m E Pn      2011/09/17 03:45:08.5   1.2                          T                                        4757820
SJPF  008.71 034.5 m E Sn      2011/09/17 03:46:38.8  -0.3                          T                2.2  .26 Ml 3.5         4757818
ETSF  008.86 037.8 m E Pn      2011/09/17 03:45:10.7   1.2                          T                                        4757819
ETSF  008.86 037.8 m E Sn      2011/09/17 03:46:43.1   0.2                          T                2.4  .41 Ml 3.3         4757817
EPF   009.42 040.2 m E Pn      2011/09/17 03:45:18.9   1.9                          T                                        4757814
EPF   009.42 040.2 m E Sn      2011/09/17 03:46:56.1   0.0                          T                1.0  .21 Ml 3.3         4757816
CAF   011.64 037.8 m E Pn      2011/09/17 03:45:47.1  -0.1                          T                                        4757812
CAF   011.64 037.8 m E Sn      2011/09/17 03:47:48.1  -1.1                          T                 .3  .22 Ml 3.1         4757813
MTLF  010.65 044.2 m E Sn      2011/09/17 03:47:25.5   0.1                          T                 .6  .33 Ml 3.1         4757815

.
EVENT     264024
    Date      Time       Latitude Longitude    Depth    Ndef Nsta Gap    Mag1  N    Mag2  N    Mag3  N   Author         ID
       rms   OT_Error      Smajor Sminor Az        Err   mdist  Mdist     Err        Err        Err      Quality

2011/09/17 05:34:57.7     42.9142     .1810      2.0       5    3 195  Ml 0.7  1  Md 1.1  2              js067245    264044

      0.08   +-  0.11       5.5     .9  160.83 +-  0.0    0.16   1.55   +-         +-0.3                 m i ke

PYRENEES
Sta     Dist  EvAz     Phase      Date       Time     TRes  Azim  AzRes  Slow  SRes Def   SNR       Amp   Per   Mag1   Mag2       ID
EPF   000.16 045.1 m E Pg      2011/09/17 05:35:01.1   0.0                          T                                        4757822
EPF   000.16 045.1 m E Sg      2011/09/17 05:35:03.5   0.0                          T                2.3  .16        Md 1.3  4757821
ETSF  000.54 268.6 m E Pg      2011/09/17 05:35:08.2   0.1                          T                                        4765928
ETSF  000.54 268.6 m E Sg      2011/09/17 05:35:15.1  -0.2                          T                 .1  .27        Md  .9  4765930
MTLF  001.55 073.3 m E Sg      2011/09/17 05:35:46.5  -0.1                          T                 .1  .22 Ml  .7         4765929

.
EVENT     264025
    Date      Time       Latitude Longitude    Depth    Ndef Nsta Gap    Mag1  N    Mag2  N    Mag3  N   Author         ID
       rms   OT_Error      Smajor Sminor Az        Err   mdist  Mdist     Err        Err        Err      Quality

2011/09/17 06:35:16.2     41.7730    2.9114      4.0 f    38    4 218  Ml 2.0  4                         js067245    264045

      0.38   +-  0.13       2.2    1.2  131.56 +-  0.0    0.11   3.26   +-0.1                            m i ke

SPAIN
Sta     Dist  EvAz     Phase      Date       Time     TRes  Azim  AzRes  Slow  SRes Def   SNR       Amp   Per   Mag1   Mag2       ID
MTLF  001.65 342.1 m E Pg      2011/09/17 06:35:46.2  -0.7                          T                                        4757825
MTLF  001.65 342.1 m E Sg      2011/09/17 06:36:07.8  -0.4                          T                1.7  .32 Ml 1.8         4757826
LASF  002.40 016.5 m E Pn      2011/09/17 06:35:54.6   0.1                          T                                        4765931
LASF  002.40 016.5 m E Sg      2011/09/17 06:36:31.6  -0.2                          T                1.2  .29 Ml 1.9         4765932
EPF   002.28 304.3 m E Pg      2011/09/17 06:35:58.3  -0.4                          T                                        4765933
EPF   002.28 304.3 m E Sg      2011/09/17 06:36:27.4  -0.6                          T                1.6  .23 Ml 2.1         4757823
ETSF  002.81 294.8 m E Pg      2011/09/17 06:36:07.4  -1.0                          T                                        4765934
ETSF  002.81 294.8 m E Sg      2011/09/17 06:36:43.4  -1.0                          T                  1  .25 Ml 2.0         4757824

.
EVENT     264029
    Date      Time       Latitude Longitude    Depth    Ndef Nsta Gap    Mag1  N    Mag2  N    Mag3  N   Author         ID
       rms   OT_Error      Smajor Sminor Az        Err   mdist  Mdist     Err        Err        Err      Quality

2011/09/17 06:52:26.6     43.6050   18.4429     10.0 f    82   11 080  Ml 3.4  5                         js067245    264049

      0.75   +-  0.07       2.5    1.6   35.18 +-  0.0    0.53  10.76   +-0.2                            m i ke

NORTHWESTERN BALKAN PEN.
Sta     Dist  EvAz     Phase      Date       Time     TRes  Azim  AzRes  Slow  SRes Def   SNR       Amp   Per   Mag1   Mag2       ID
PGF   007.00 264.6 m E Pn      2011/09/17 06:54:06.5  -0.4                          T                                        4765940
PGF   007.00 264.6 m E P       2011/09/17 06:54:11.6  -0.4                          T                                        4765941
SBF   007.98 275.6 m E Pn      2011/09/17 06:54:20.3   0.1                          T                                        4765942
SBF   007.98 275.6 m E P       2011/09/17 06:54:25.4  -0.2                          T                                        4757827
MBDF  008.47 281.6 m E Pn      2011/09/17 06:54:27.0   0.0                          T                                        4765943
MBDF  008.47 281.6 m E P       2011/09/17 06:54:31.8  -0.7                          T                                        4757831
MBDF  008.47 281.6 m E Sn      2011/09/17 06:55:57.5   0.4                          T                2.5  .35 Ml 3.4         4765936
FRF   008.57 273.8 m E P       2011/09/17 06:54:31.7  -2.0                          T                                        4757829
FRF   008.57 273.8 m E Sn      2011/09/17 06:55:59.0  -0.2                          T                1.3  .35 Ml 3.1         4765939
LPL   008.58 286.9 m E P       2011/09/17 06:54:33.9  -0.3                          T                                        4757830
LPL   008.58 286.9 m E Sn      2011/09/17 06:56:00.2   0.4                          T                5.1  .51 Ml 3.5         4765938
LPG   008.56 286.8 m E P       2011/09/17 06:54:33.9  -0.2                          T                                        4757828
HINF  009.14 301.5 m E Pn      2011/09/17 06:54:35.6  -0.3                          T                                        4765945
CDF   009.13 305.6 m E Pn      2011/09/17 06:54:35.9  -0.1                          T                                        4765947
CDF   009.13 305.6 m E Sn      2011/09/17 06:56:12.7  -0.2                          T                1.3  .36 Ml 3.2         4765935
CABF  009.24 293.3 m E Pn      2011/09/17 06:54:37.5   0.1                          T                                        4765946
ORIF  009.11 282.6 m E P       2011/09/17 06:54:40.3  -1.1                          T                                        4757832
ORIF  009.11 282.6 m E Sn      2011/09/17 06:56:12.5   0.1                          T                4.6  .48 Ml 3.6         4765937
SMF   010.76 291.5 m E Pn      2011/09/17 06:54:58.0   0.0                          T                                        4765944

.
EVENT     264030
    Date      Time       Latitude Longitude    Depth    Ndef Nsta Gap    Mag1  N    Mag2  N    Mag3  N   Author         ID
       rms   OT_Error      Smajor Sminor Az        Err   mdist  Mdist     Err        Err        Err      Quality

2011/09/17 08:19:55.3     44.6658    6.6222      2.0      10    6 083  Ml 1.1  3  Md 1.3  1              js067245    264050

      0.23   +-  0.09       1.9    1.7  153.14 +-  0.0    0.12   1.10   +-0.2      +-                    m i ke

FRANCE
Sta     Dist  EvAz     Phase      Date       Time     TRes  Azim  AzRes  Slow  SRes Def   SNR       Amp   Per   Mag1   Mag2       ID
MBDF  000.12 060.1 m E Pg      2011/09/17 08:19:58.1  -0.1                          T                                        4757836
MBDF  000.12 060.1 m E Sg      2011/09/17 08:19:59.5  -0.5                          T               21.0  .21        Md 1.3  4757835
ORIF  000.59 295.8 m E Pg      2011/09/17 08:20:06.8   0.2                          T                                        4757833
ORIF  000.59 295.8 m E Pn      2011/09/17 08:20:09.0  -0.2                          T                                        4757845
ORIF  000.59 295.8 m E Sg      2011/09/17 08:20:14.0  -0.2                          T                2.2  .23                4757834
LPL   000.85 005.2 m E Pg      2011/09/17 08:20:11.9   0.2                          T                                        4757846
LPL   000.85 005.2 m E Sg      2011/09/17 08:20:22.5  -0.3                          T                                        4757847
SBF   000.99 143.7 m E Sg      2011/09/17 08:20:27.0   0.1                          T                 .8  .21 Ml 1.4         4765950
SMRF  001.02 227.8 m E Sg      2011/09/17 08:20:27.5  -0.2                          T                 .4  .27 Ml 1           4765948
FRF   001.10 179.1 m E Sg      2011/09/17 08:20:30.4   0.1                          T                 .4  .30 Ml 1.0         4765949

.
EVENT     264031
    Date      Time       Latitude Longitude    Depth    Ndef Nsta Gap    Mag1  N    Mag2  N    Mag3  N   Author         ID
       rms   OT_Error      Smajor Sminor Az        Err   mdist  Mdist     Err        Err        Err      Quality

2011/09/17 09:41:36.4     44.5891    6.6408      2.0      12    7 107  Ml 1.3  5  Md 1.4  1              js067245    264051

      0.60   +-  0.15       2.8    2.2  114.50 +-  0.0    0.17   1.03   +-0.1      +-                    m i ke

FRANCE
Sta     Dist  EvAz     Phase      Date       Time     TRes  Azim  AzRes  Slow  SRes Def   SNR       Amp   Per   Mag1   Mag2       ID
MBDF  000.17 034.0 m E Pg      2011/09/17 09:41:40.0  -0.1                          T                                        4757844
MBDF  000.17 034.0 m E Sg      2011/09/17 09:41:41.3  -1.1                          T               32.2  .22        Md 1.4  4757843
ORIF  000.63 301.5 m E Pg      2011/09/17 09:41:48.7   0.2                          T                                        4765957
ORIF  000.63 301.5 m E Sg      2011/09/17 09:41:55.9  -0.9                          T                3.1  .22                4757841
LPG   000.91 004.9 m E Pg      2011/09/17 09:41:54.0   0.2                          T                                        4765955
LPG   000.91 004.9 m E Sg      2011/09/17 09:42:05.6  -0.2                          T                1.3  .29 Ml 1.4         4765951
LPL   000.93 004.0 m E Pg      2011/09/17 09:41:54.2   0.1                          T                                        4757840
LPL   000.93 004.0 m E Sg      2011/09/17 09:42:06.1  -0.2                          T                1.2  .32 Ml 1.4         4757839
SBF   000.92 141.5 m E Sg      2011/09/17 09:42:05.9   0.1                          T                 .8  .22 Ml 1.3         4765954
SMRF  000.98 231.7 m E Sg      2011/09/17 09:42:07.5  -0.1                          T                 .4  .23 Ml 1.1         4765952
FRF   001.03 179.8 m E Sg      2011/09/17 09:42:08.8  -0.2                          T                 .5  .19 Ml 1.3         4765953

.
EVENT     264026
    Date      Time       Latitude Longitude    Depth    Ndef Nsta Gap    Mag1  N    Mag2  N    Mag3  N   Author         ID
       rms   OT_Error      Smajor Sminor Az        Err   mdist  Mdist     Err        Err        Err      Quality

2011/09/17 10:37:59.8     42.7405    2.6214      8.0 f    32    5 075  Ml 1.7  5  Md 2.0  1              js067245    264046

      0.37   +-  0.06       1.1    1.0   95.50 +-  0.0    0.17   2.58   +-0.2      +-                    m i ke

PYRENEES
Sta     Dist  EvAz     Phase      Date       Time     TRes  Azim  AzRes  Slow  SRes Def   SNR       Amp   Per   Mag1   Mag2       ID
MTLF  000.67 333.9 m E Pg      2011/09/17 10:38:12.3  -0.2                          T                                        4757857
MTLF  000.67 333.9 m E Pn      2011/09/17 10:38:14.7   0.7                          T                                        4757859
MTLF  000.67 333.9 m E Sg      2011/09/17 10:38:21.2  -0.1                          T                1.9  .28                4757860
MTLF  000.67 333.9 m E Sn      2011/09/17 10:38:24.5   0.4                          T                6.1  .18        Md 2.0  4757858
LASF  001.61 033.6 m E Sn      2011/09/17 10:38:46.0  -0.6                          T                 .7  .20 Ml 1.6         4757854
LASF  001.61 033.6 m E Sg      2011/09/17 10:38:50.6   0.0                          T                                        4757853
EPF   001.70 280.6 m E Sn      2011/09/17 10:38:48.4  -0.4                          T                 .4  .19 Ml 1.5         4757848
EPF   001.70 280.6 m E Sg      2011/09/17 10:38:53.4  -0.1                          T                1.3  .22 Ml 1.9         4757852
CAF   002.22 349.7 m E Sn      2011/09/17 10:39:01.7   0.5                          T                                        4757849
CAF   002.22 349.7 m E S       2011/09/17 10:39:06.1   0.4                          T                                        4757850
CAF   002.22 349.7 m E Sg      2011/09/17 10:39:10.3   0.6                          T                                        4757851
VIVF  002.58 034.4 m E Sn      2011/09/17 10:39:09.8  -0.1                          T                 .3  .21 Ml 1.6         4757855
VIVF  002.58 034.4 m E Sg      2011/09/17 10:39:21.0   0.0                          T                1.1  .30 Ml 1.9         4757856

.
EVENT     264027
    Date      Time       Latitude Longitude    Depth    Ndef Nsta Gap    Mag1  N    Mag2  N    Mag3  N   Author         ID
       rms   OT_Error      Smajor Sminor Az        Err   mdist  Mdist     Err        Err        Err      Quality

2011/09/17 11:17:45.6     43.1237   -1.4524      2.0       6    3 344  Ml 1.2  1  Md 1.4  2              js067245    264047

      0.29   +-  0.63      19.7   10.4    8.00 +-  0.0    0.17   1.32   +-         +-0.1                 m i ke

PYRENEES
Sta     Dist  EvAz     Phase      Date       Time     TRes  Azim  AzRes  Slow  SRes Def   SNR       Amp   Per   Mag1   Mag2       ID
SJPF  000.17 093.5 m E Pg      2011/09/17 11:17:48.7  -0.3                          T                                        4765962
SJPF  000.17 093.5 m E Sg      2011/09/17 11:17:51.8   0.4                          T                4.0  .18        Md 1.5  4765963
ETSF  000.69 108.6 m E Pg      2011/09/17 11:17:59.0   0.2                          T                                        4765960
ETSF  000.69 108.6 m E Sg      2011/09/17 11:18:07.3  -0.5                          T                 .7  .25        Md 1.3  4765961
EPF   001.32 093.5 m E Pg      2011/09/17 11:18:10.1  -0.1                          T                                        4765958
EPF   001.32 093.5 m E Sg      2011/09/17 11:18:27.1  -0.2                          T                 .4  .24 Ml 1.2         4765959

.
