EVENT     296327
    Date      Time       Latitude Longitude    Depth    Ndef Nsta Gap    Mag1  N    Mag2  N    Mag3  N   Author         ID
       rms   OT_Error      Smajor Sminor Az        Err   mdist  Mdist     Err        Err        Err      Quality

2013/04/18 08:11:07.8     47.9248    6.4762     15.0      12    6 095  Ml 1.9  2  Md 1.9  2              bulletin    296427
                                                                                                         _ldg
      0.49   +-  0.05       1.4    1.0   25.43 +-  0.0    0.12   1.34   +-0.6      +-0.1                 m i ke

FRANCE
Sta     Dist  EvAz     Phase      Date       Time     TRes  Azim  AzRes  Slow  SRes Def   SNR       Amp   Per   Mag1   Mag2       ID
HAU   000.12 313.3 m E Pg      2013/04/18 08:11:11.5   0.1                          T                                        5261199
HAU   000.12 313.3 m E Sg      2013/04/18 08:11:13.8  -0.1                          T               21.1  .24        Md 2.0  5261197
HINF  000.28 112.9 m E Pg      2013/04/18 08:11:13.8   0.0                          T                                        5261198
HINF  000.28 112.9 m E Sg      2013/04/18 08:11:17.7  -0.2                          T                7.6  .20        Md 1.9  5261196
CDF   000.72 047.4 m E Pg      2013/04/18 08:11:21.7  -0.1                          T                                        5261205
CDF   000.72 047.4 m E Sg      2013/04/18 08:11:31.5   0.2                          T                2.0  .30                5261204
PAGF  000.81 321.8 m E Pg      2013/04/18 08:11:23.1  -0.1                          T                                        5262455
PAGF  000.81 321.8 m E Sg      2013/04/18 08:11:33.9   0.1 147.6  6.4               T                 .6  .15                5262454
SFTF  001.00 286.7 m E Pg      2013/04/18 08:11:26.8   0.1                          T                                        5261201
SFTF  001.00 286.7 m E Sg      2013/04/18 08:11:39.7  -0.2                          T                7.4  .25 Ml 2.3         5261200
CABF  001.34 191.5 m E Pn      2013/04/18 08:11:30.6   0.1                          T                                        5261203
CABF  001.34 191.5 m E Sn      2013/04/18 08:11:46.7  -0.3                          T                 .8  .25 Ml 1.5         5261202

.
EVENT     296346
    Date      Time       Latitude Longitude    Depth    Ndef Nsta Gap    Mag1  N    Mag2  N    Mag3  N   Author         ID
       rms   OT_Error      Smajor Sminor Az        Err   mdist  Mdist     Err        Err        Err      Quality

2013/04/18 09:21:54.5     45.9657    2.7941      3.0 f    79   27 053  Ml 2.4 27  Md 2.4  3              bulletin    296446
                                                                                                         _ldg
      0.31   +-  0.03        .6     .5  117.72 +-  0.0    0.15   4.36   +-0.4      +-0.1                 m i ke

FRANCE
Sta     Dist  EvAz     Phase      Date       Time     TRes  Azim  AzRes  Slow  SRes Def   SNR       Amp   Per   Mag1   Mag2       ID
TCF   000.52 308.7 m E Pg      2013/04/18 09:22:04.2  -0.3                          T   001.0                                5261238
TCF   000.52 308.7 m E Sg      2013/04/18 09:22:11.3   0.0                          T                5.7  .18        Md 2.5  5261250
BGF   000.59 003.5 m E Pg      2013/04/18 09:22:05.9   0.1                          T   001.0                                5261225
BGF   000.59 003.5 m E Pn      2013/04/18 09:22:08.1  -0.2                          T                                Md 2.3  5261989
BGF   000.59 003.5 m E Sg      2013/04/18 09:22:13.9   0.3                          T   001.0       28.5  .24                5261226
AVF   000.91 024.9 m E Pg      2013/04/18 09:22:11.8   0.1                          T   001.0                                5261221
AVF   000.91 024.9 m E Sg      2013/04/18 09:22:23.3  -0.2                          T   001.0        9.8  .20 Ml 2.5         5261224
SMF   000.99 046.5 m E Pg      2013/04/18 09:22:13.3   0.1                          T   001.0                                5261232
SMF   000.99 046.5 m E Sg      2013/04/18 09:22:26.3   0.1                          T   001.0        7.1  .19 Ml 2.4         5261233
RJF   001.11 234.0 m E Pg      2013/04/18 09:22:15.4   0.0                          T   001.0                                5261219
RJF   001.11 234.0 m E Sg      2013/04/18 09:22:29.5  -0.3                          T               15.3  .22 Ml 2.4         5261249
CAF   001.16 206.5 m E Pg      2013/04/18 09:22:16.2  -0.1                          T   001.0                                5261220
CAF   001.16 206.5 m E Sg      2013/04/18 09:22:31.1  -0.2                          T   001.0       30.1  .18 Ml 3.1         5261222
SSF   001.20 023.9 m E Pn      2013/04/18 09:22:16.5  -0.1                          T   001.0                                5261234
SSF   001.20 023.9 m E Pg      2013/04/18 09:22:17.1   0.0                          T   001.0                                5261235
SSF   001.20 023.9 m E Sg      2013/04/18 09:22:32.4  -0.2                          T   001.0       15.8  .32 Ml 2.7         5261236
LOR   001.50 029.0 m E Pg      2013/04/18 09:22:22.4  -0.1 209.1  -0.7              T   001.0                                5261230
LOR   001.50 029.0 m E Sn      2013/04/18 09:22:39.6   0.1 208.3  -1.5              T                                        5262006
LOR   001.50 029.0 m E Sg      2013/04/18 09:22:41.3  -0.5                          T   001.0       12.7  .24 Ml 2.8         5261231
VIVF  001.73 129.3 m E Pn      2013/04/18 09:22:24.0   0.2                          T                                        5261979
VIVF  001.73 129.3 m E Pg      2013/04/18 09:22:27.3   0.6                          T   001.0                                5261241
VIVF  001.73 129.3 m E Sg      2013/04/18 09:22:48.8  -0.2                          T   001.0        2.1  .22 Ml 2.1         5261242
LFF   001.77 235.4 m E Pn      2013/04/18 09:22:24.5   0.1                          T                                        5261248
LFF   001.77 235.4 m E Pg      2013/04/18 09:22:27.6   0.1                          T                                        5261988
LFF   001.77 235.4 m E Sg      2013/04/18 09:22:49.8  -0.6                          T   001.0        8.8  .21 Ml 2.6         5261229
LASF  002.03 157.9 m E Pn      2013/04/18 09:22:28.2   0.2                          T                                        5261980
LASF  002.03 157.9 m E Pg      2013/04/18 09:22:32.4   0.0                          T                                        5261247
LASF  002.03 157.9 m E Sn      2013/04/18 09:22:52.1  -0.3                          T   001.0        1.8  .17 Ml 2.2         5261228
MFF   002.14 288.4 m E Pn      2013/04/18 09:22:29.5   0.2                          T                                        5261251
MFF   002.14 288.4 m E Sn      2013/04/18 09:22:55.1   0.3                          T                7.1  .27 Ml 2.8         5261252
CABF  002.37 073.0 m E Pn      2013/04/18 09:22:32.7   0.0                          T   001.0                                5261239
CABF  002.37 073.0 m E Pg      2013/04/18 09:22:39.3   0.6                          T                                        5261999
CABF  002.37 073.0 m E Sn      2013/04/18 09:23:00.4  -0.2                          T                                        5261253
CABF  002.37 073.0 m E Sg      2013/04/18 09:23:09.0  -0.2                          T                1.9  .24 Ml 2.2         5261998
ORIF  002.41 114.6 m E Pn      2013/04/18 09:22:33.1  -0.1                          T                                        5261978
ORIF  002.41 114.6 m E Sg      2013/04/18 09:23:10.6   0.2                          T                 .7  .22 Ml 1.8         5261977
MTLF  002.66 189.1 m E Pn      2013/04/18 09:22:36.4   0.0                          T                                        5261981
MTLF  002.66 189.1 m E Pg      2013/04/18 09:22:43.9   0.1                          T                                        5261255
MTLF  002.66 189.1 m E Sg      2013/04/18 09:23:17.8  -0.1                          T                3.0  .20 Ml 2.5         5261254
SMRF  002.80 134.2 m E Pn      2013/04/18 09:22:38.2  -0.2                          T                                        5261971
SMRF  002.80 134.2 m E Sg      2013/04/18 09:23:21.6  -1.0                          T                 .9  .23 Ml 1.9         5261970
LPL   002.79 097.8 m E Pn      2013/04/18 09:22:38.6   0.0                          T                                        5261976
LPL   002.79 097.8 m E Pg      2013/04/18 09:22:46.4  -0.3                          T                                        5261975
LPL   002.79 097.8 m E Sg      2013/04/18 09:23:22.1  -0.5                          T                6.0  .19 Ml 2.9         5261974
LPG   002.81 098.2 m E Pn      2013/04/18 09:22:39.1   0.2                          T                                        5261973
LPG   002.81 098.2 m E Sg      2013/04/18 09:23:22.4  -0.8                          T                1.3  .24 Ml 2.1         5261972
HAU   003.18 048.7 m E Pn      2013/04/18 09:22:44.6   1.1                          T   001.0                                5261223
LDF   003.29 324.0 m E Pn      2013/04/18 09:22:45.0  -0.1                          T                                        5261994
LDF   003.29 324.0 m E Sn      2013/04/18 09:23:22.3  -0.1                          T                 .7  .23 Ml 2.0         5261993
HINF  003.34 054.9 m E Pn      2013/04/18 09:22:46.3   0.5                          T                                        5262000
HINF  003.34 054.9 m E Sg      2013/04/18 09:23:39.4   0.0                          T   001.0          2  .24 Ml 2.4         5261240
EPF   003.42 211.8 m E Pn      2013/04/18 09:22:46.8   0.0                          T                                        5261985
EPF   003.42 211.8 m E Pg      2013/04/18 09:22:57.8  -0.1                          T                                        5261984
EPF   003.42 211.8 m E Sn      2013/04/18 09:23:26.0   0.4                          T                                        5261982
EPF   003.42 211.8 m E Sg      2013/04/18 09:23:41.8  -0.1                          T                1.4  .18 Ml 2.4         5261983
GRR   003.48 315.5 m E Pn      2013/04/18 09:22:47.2  -0.3                          T                                        5261992
GRR   003.48 315.5 m E Sn      2013/04/18 09:23:26.7  -0.1                          T                                        5261991
GRR   003.48 315.5 m E Sg      2013/04/18 09:23:43.3  -0.2                          T                2.1  .29 Ml 2.3         5261990
FLN   003.58 322.7 m E Pn      2013/04/18 09:22:49.3   0.4                          T                                        5261997
FLN   003.58 322.7 m E Pg      2013/04/18 09:23:01.2   0.4                          T                                        5261996
FLN   003.58 322.7 m E Sg      2013/04/18 09:23:46.3  -0.3                          T                1.4  .26 Ml 2.1         5261995
CDF   003.92 049.7 m E Pn      2013/04/18 09:22:53.6  -0.1                          T                                        5262005
CDF   003.92 049.7 m E Sn      2013/04/18 09:23:37.6   0.2                          T                                        5262004
CDF   003.92 049.7 m E Sg      2013/04/18 09:23:56.7  -0.7                          T                1.7  .24 Ml 2.6         5262003
SJPF  004.05 226.6 m E Pn      2013/04/18 09:22:55.3   0.0                          T                                        5261987
SJPF  004.05 226.6 m E Sg      2013/04/18 09:24:01.3  -0.2                          T                 .6  .19 Ml 2.1         5261986
GIVF  004.36 017.5 m E Pn      2013/04/18 09:22:59.4  -0.2                          T                                        5262002
GIVF  004.36 017.5 m E Sg      2013/04/18 09:24:10.8  -0.3                          T                5.0  .21 Ml 3.1         5262001

.
EVENT     296368
    Date      Time       Latitude Longitude    Depth    Ndef Nsta Gap    Mag1  N    Mag2  N    Mag3  N   Author         ID
       rms   OT_Error      Smajor Sminor Az        Err   mdist  Mdist     Err        Err        Err      Quality

2013/04/18 10:17:17.9     44.7596    6.7323      2.0      38    9 067  Ml 1.6  6  Md 1.7  3              bulletin    296468
                                                                                                         _ldg
      0.32   +-  0.02        .6     .5   76.97 +-  0.0    0.04   2.76   +-0.3      +-0.2                 m i ke

FRANCE
Sta     Dist  EvAz     Phase      Date       Time     TRes  Azim  AzRes  Slow  SRes Def   SNR       Amp   Per   Mag1   Mag2       ID
MBDF  000.04 139.5 m E Pg      2013/04/18 10:17:19.3   0.0                          T                                        5261349
MBDF  000.04 139.5 m E Sg      2013/04/18 10:17:20.2   0.0                          T              120.8  .28        Md 2.0  5261442
ORIF  000.63 285.0 m E Pg      2013/04/18 10:17:29.8  -0.1                          T                                        5261348
ORIF  000.63 285.0 m E Sg      2013/04/18 10:17:38.2   0.1                          T                1.6  .20                5261347
LPL   000.76 000.0 m E Pg      2013/04/18 10:17:32.2  -0.2                          T                                        5262037
LPL   000.76 000.0 m E Sg      2013/04/18 10:17:42.2  -0.1                          T                 .9  .14        Md 1.6  5262036
LPG   000.74 001.0 m E Pg      2013/04/18 10:17:32.3   0.1                          T                                        5262035
LPG   000.74 001.0 m E Sg      2013/04/18 10:17:41.8  -0.1                          T                1.3  .22        Md 1.6  5262034
SBF   001.03 150.4 m E Pg      2013/04/18 10:17:37.2  -0.1                          T                                        5262027
SBF   001.03 150.4 m E Sg      2013/04/18 10:17:50.4  -0.2                          T                 .8  .18 Ml 1.5         5262026
SMRF  001.14 227.0 m E Pg      2013/04/18 10:17:39.3   0.1                          T                                        5261345
SMRF  001.14 227.0 m E Sg      2013/04/18 10:17:54.1   0.1                          T                1.0  .26 Ml 1.5         5261346
FRF   001.20 183.0 m E Pg      2013/04/18 10:17:40.3  -0.1                          T                                        5262033
FRF   001.20 183.0 m E Sg      2013/04/18 10:17:55.9   0.0                          T                1.8  .25 Ml 1.8         5262032
LMR   001.43 186.5 m E Pn      2013/04/18 10:17:43.3   0.1                          T                                        5262031
LMR   001.43 186.5 m E Pg      2013/04/18 10:17:44.7   0.1                          T                                        5262030
LMR   001.43 186.5 m E Sn      2013/04/18 10:18:01.3  -0.2                          T                                        5262029
LMR   001.43 186.5 m E Sg      2013/04/18 10:18:03.1   0.0                          T                2.5  .26 Ml 2.0         5262028
VIVF  001.47 274.5 m E Pn      2013/04/18 10:17:43.7   0.0                          T                                        5262025
VIVF  001.47 274.5 m E Sn      2013/04/18 10:18:02.5   0.1                          T                 .4  .21 Ml 1.4         5262024

.
EVENT     296415
    Date      Time       Latitude Longitude    Depth    Ndef Nsta Gap    Mag1  N    Mag2  N    Mag3  N   Author         ID
       rms   OT_Error      Smajor Sminor Az        Err   mdist  Mdist     Err        Err        Err      Quality

2013/04/18 14:25:32.3     43.0570    -.7577      2.0       8    4 162  Ml 1.3  1  Md 0.8  2              bulletin    296515
                                                                                                         _ldg
      0.15   +-  0.07       2.8    1.1   10.63 +-  0.0    0.22   2.19   +-         +-0.1                 m i ke

PYRENEES
Sta     Dist  EvAz     Phase      Date       Time     TRes  Azim  AzRes  Slow  SRes Def   SNR       Amp   Per   Mag1   Mag2       ID
ETSF  000.22 137.3 m E Pg      2013/04/18 14:25:36.7   0.0                          T                                        5261741
ETSF  000.22 137.3 m E Sg      2013/04/18 14:25:39.5  -0.2                          T                6.2  .21        Md  .8  5261740
SJPF  000.35 279.5 m E Pg      2013/04/18 14:25:38.9  -0.1                          T                                        5261739
SJPF  000.35 279.5 m E Sg      2013/04/18 14:25:43.6   0.0                          T                1.5  .19        Md  .9  5261738
EPF   000.81 091.5 m E Pg      2013/04/18 14:25:47.5   0.0                          T                                        5261743
EPF   000.81 091.5 m E Sg      2013/04/18 14:25:57.9  -0.1                          T                  1  .22                5261742
MTLF  002.19 081.6 m E Pn      2013/04/18 14:26:08.1   0.2                          T                                        5261747
MTLF  002.19 081.6 m E Sg      2013/04/18 14:26:40.9  -0.4                          T                 .2  .21 Ml 1.3         5261746

.
EVENT     296422
    Date      Time       Latitude Longitude    Depth    Ndef Nsta Gap    Mag1  N    Mag2  N    Mag3  N   Author         ID
       rms   OT_Error      Smajor Sminor Az        Err   mdist  Mdist     Err        Err        Err      Quality

2013/04/18 19:13:55.9     42.6768   -1.7088      2.0      20    4 218  Ml 1.6  4  Md 1.5  1              bulletin    296522
                                                                                                         _ldg
      0.54   +-  0.23       5.0    2.5    1.93 +-  0.0    0.14   2.96   +-0.1      +-                    m i ke

PYRENEES
Sta     Dist  EvAz     Phase      Date       Time     TRes  Azim  AzRes  Slow  SRes Def   SNR       Amp   Per   Mag1   Mag2       ID
SJPF  000.56 039.0 m E Pg      2013/04/18 19:14:06.4  -0.2                          T                                        5262055
SJPF  000.56 039.0 m E Sg      2013/04/18 19:14:13.6  -0.4                          T                2.5  .24        Md 1.5  5262054
ETSF  000.87 074.9 m E Pg      2013/04/18 19:14:12.6   0.1                          T                                        5262051
ETSF  000.87 074.9 m E Sg      2013/04/18 19:14:23.8   0.0                          T                1.3  .17 Ml 1.6         5262050
EPF   001.55 076.1 m E Pg      2013/04/18 19:14:24.8   0.0                          T                                        5262053
EPF   001.55 076.1 m E Sg      2013/04/18 19:14:44.3  -0.5                          T                 .9  .21 Ml 1.7         5262052
MTLF  002.96 075.7 m E Pn      2013/04/18 19:14:42.2   0.2                          T                                        5262057
MTLF  002.96 075.7 m E Sn      2013/04/18 19:15:16.0   0.1                          T                 .2  .23 Ml 1.4         5262056

.
