EVENT     300054
    Date      Time       Latitude Longitude    Depth    Ndef Nsta Gap    Mag1  N    Mag2  N    Mag3  N   Author         ID
       rms   OT_Error      Smajor Sminor Az        Err   mdist  Mdist     Err        Err        Err      Quality

2013/05/29 22:29:10.3     42.6093    2.3419      9.0 f    18    2 114  Ml 1.1  1  Md 1.4  2              bulletin    300154
                                                                                                         _ldg
      0.27   +-  0.05       1.1     .8   32.92 +-  0.0    0.07   1.53   +-         +-0.1                 m i ke

PYRENEES
Sta     Dist  EvAz     Phase      Date       Time     TRes  Azim  AzRes  Slow  SRes Def   SNR       Amp   Per   Mag1   Mag2       ID
MTLF  000.74 352.9 m E Pg      2013/05/29 22:29:24.1  -0.2                          T                                        5298689
MTLF  000.74 352.9 m E Sg      2013/05/29 22:29:33.9  -0.1                          T                 .6  .19        Md 1.4  5298688
EPF   001.53 286.6 m E Pg      2013/05/29 22:29:39.2   0.2                          T                                        5298687
EPF   001.53 286.6 m E Sg      2013/05/29 22:29:58.8   0.0                          T                 .2  .19 Ml 1.1 Md 1.3  5298686

.
EVENT     299998
    Date      Time       Latitude Longitude    Depth    Ndef Nsta Gap    Mag1  N    Mag2  N    Mag3  N   Author         ID
       rms   OT_Error      Smajor Sminor Az        Err   mdist  Mdist     Err        Err        Err      Quality

2013/05/29 22:39:05.1     43.1207    -.6807      2.0      18    3 176             Md 1.4  3              bulletin    300098
                                                                                                         _ldg
      0.65   +-  0.19       4.9    2.1   12.69 +-  0.0    0.24   2.29              +-0.1                 m i ke

PYRENEES
Sta     Dist  EvAz     Phase      Date       Time     TRes  Azim  AzRes  Slow  SRes Def   SNR       Amp   Per   Mag1   Mag2       ID
ETSF  000.24 158.1 m E Pg      2013/05/29 22:39:08.8  -1.1                          T                                        5297303
ETSF  000.24 158.1 m E Sg      2013/05/29 22:39:11.6  -1.6                          T               28.3  .22        Md 1.6  5297302
SJPF  000.40 269.1 m E Pg      2013/05/29 22:39:12.6  -0.2                          T                                        5297301
SJPF  000.40 269.1 m E Sg      2013/05/29 22:39:18.8   0.7                          T                8.9  .27        Md 1.3  5297300
EPF   000.75 096.5 m E Pg      2013/05/29 22:39:19.4   0.0                          T                                        5297299
EPF   000.75 096.5 m E Sg      2013/05/29 22:39:30.1   0.9                          T                1.0  .20        Md 1.4  5297298

.
EVENT     299999
    Date      Time       Latitude Longitude    Depth    Ndef Nsta Gap    Mag1  N    Mag2  N    Mag3  N   Author         ID
       rms   OT_Error      Smajor Sminor Az        Err   mdist  Mdist     Err        Err        Err      Quality

2013/05/29 23:01:37.8     43.8101    6.5015      2.0      32    9 067  Ml 1.9  4  Md 1.9  4              bulletin    300099
                                                                                                         _ldg
      0.31   +-  0.07       1.6    1.3   11.67 +-  0.0    0.27   1.71   +-0.2      +-0.1                 m i ke

NEAR SOUTH COAST OF FRANCE
Sta     Dist  EvAz     Phase      Date       Time     TRes  Azim  AzRes  Slow  SRes Def   SNR       Amp   Per   Mag1   Mag2       ID
FRF   000.27 157.0 m E Pg      2013/05/29 23:01:42.6  -0.5                          T                                        5297317
FRF   000.27 157.0 m E Sg      2013/05/29 23:01:46.8   0.0                          T               11.8  .15        Md 1.7  5297316
LMR   000.48 179.3 m E Pg      2013/05/29 23:01:45.8  -1.1                          T                                        5297315
LMR   000.48 179.3 m E Sg      2013/05/29 23:01:53.9   0.7                          T               19.1  .25        Md 1.8  5297314
SMRF  000.69 284.2 m E Pg      2013/05/29 23:01:51.0   0.1                          T                                        5297311
SMRF  000.69 284.2 m E Sg      2013/05/29 23:02:00.2   0.3                          T                9.0  .22        Md 1.9  5297310
SBF   000.68 085.2 m E Pg      2013/05/29 23:01:51.7   1.0                          T                                        5297313
SBF   000.68 085.2 m E Sg      2013/05/29 23:02:00.0   0.4                          T                                        5302434
SBF   000.68 085.2 m E Sn      2013/05/29 23:02:03.8   0.4                          T                8.9  .21        Md 2.0  5297312
MBDF  000.94 011.9 m E Pg      2013/05/29 23:01:55.8   0.2                          T                                        5302437
MBDF  000.94 011.9 m E P       2013/05/29 23:01:57.6  -0.1                          T                                        5297305
MBDF  000.94 011.9 m E Sg      2013/05/29 23:02:07.8   0.1                          T                1.3  .15 Ml 1.7         5297304
ORIF  001.19 338.3 m E Pg      2013/05/29 23:02:00.7   0.4                          T                                        5297309
ORIF  001.19 338.3 m E Sg      2013/05/29 23:02:15.2  -0.5                          T                5.8  .40 Ml 2.1         5297308
VIVF  001.68 309.2 m E Pn      2013/05/29 23:02:06.3  -0.1                          T                                        5297307
VIVF  001.68 309.2 m E Sn      2013/05/29 23:02:26.9  -0.5                          T                1.1  .21 Ml 1.9         5297306
VIVF  001.68 309.2 m E Sg      2013/05/29 23:02:30.4  -0.3                          T                1.9  .26 Ml 2.0         5302438
LPL   001.71 005.4 m E P       2013/05/29 23:02:09.0  -0.3                          T                                        5302436
LPG   001.70 005.9 m E P       2013/05/29 23:02:09.0  -0.1                          T                                        5302435

.
EVENT     300000
    Date      Time       Latitude Longitude    Depth    Ndef Nsta Gap    Mag1  N    Mag2  N    Mag3  N   Author         ID
       rms   OT_Error      Smajor Sminor Az        Err   mdist  Mdist     Err        Err        Err      Quality

2013/05/29 23:52:38.1     47.4383   10.9965     10.0 f    46    9 139  Ml 2.6  9  Md 2.7  2              bulletin    300100
                                                                                                         _ldg
      0.63   +-  0.10       2.3    1.1  156.86 +-  0.0    0.47   5.11   +-0.1      +-0.1                 m i ke

AUSTRIA
Sta     Dist  EvAz     Phase      Date       Time     TRes  Azim  AzRes  Slow  SRes Def   SNR       Amp   Per   Mag1   Mag2       ID
CDF   002.69 292.6 m E Pn      2013/05/29 23:53:19.7   0.0                          T                                        5297644
CDF   002.69 292.6 m E Pg      2013/05/29 23:53:27.7  -0.3                          T                                        5297336
CDF   002.69 292.6 m E Sn      2013/05/29 23:53:50.6   0.3                          T                                        5297645
CDF   002.69 292.6 m E Sg      2013/05/29 23:54:02.1  -0.5                          T                2.9  .22 Ml 2.6 Md 2.7  5297335
HINF  002.83 279.2 m E Pn      2013/05/29 23:53:21.6   0.1                          T                                        5297341
HINF  002.83 279.2 m E Pg      2013/05/29 23:53:30.3  -0.3                          T                                        5297640
HINF  002.83 279.2 m E Sn      2013/05/29 23:53:53.1  -0.6                          T                                        5297340
HINF  002.83 279.2 m E Sg      2013/05/29 23:54:06.8  -0.2                          T               10.6  .36 Ml 2.9 Md 2.6  5297639
HAU   003.19 282.0 m E Pn      2013/05/29 23:53:26.6   0.1                          T                                        5297339
HAU   003.19 282.0 m E Pg      2013/05/29 23:53:37.3   0.1                          T                                        5297641
HAU   003.19 282.0 m E Sn      2013/05/29 23:54:02.4   0.2                          T                                        5297338
HAU   003.19 282.0 m E Sg      2013/05/29 23:54:18.1  -0.1                          T                8.3  .28 Ml 2.7         5297642
CABF  003.46 258.0 m E Pn      2013/05/29 23:53:30.3   0.0                          T                                        5297635
CABF  003.46 258.0 m E Pg      2013/05/29 23:53:42.2   0.0                          T                                        5297636
CABF  003.46 258.0 m E Sn      2013/05/29 23:54:08.9   0.1                          T                                        5297637
CABF  003.46 258.0 m E Sg      2013/05/29 23:54:26.5  -0.2                          T                2.1  .29 Ml 2.4         5297638
PAGF  003.71 289.5 m E Pn      2013/05/29 23:53:33.7   0.1                          T                                        5297627
PAGF  003.71 289.5 m E Pg      2013/05/29 23:53:46.7  -0.2                          T                                        5297643
PAGF  003.71 289.5 m E Sn      2013/05/29 23:54:14.8   0.1                          T                                        5297628
PAGF  003.71 289.5 m E Sg      2013/05/29 23:54:34.4  -0.1 110.5  4.9               T                2.7  .24 Ml 2.6         5297629
LOR   004.85 270.6 m E Pn      2013/05/29 23:53:49.1   0.0  90.0  4.6               T                                        5297623
LOR   004.85 270.6 m E Pg      2013/05/29 23:54:08.0   0.1  89.1  3.7               T                                        5297624
LOR   004.85 270.6 m E Sn      2013/05/29 23:54:42.1   0.1                          T                                        5297625
LOR   004.85 270.6 m E Sg      2013/05/29 23:55:10.0  -0.2                          T                1.1  .20 Ml 2.6         5297626
SMF   004.96 263.4 m E Pn      2013/05/29 23:53:50.7   0.2                          T                                        5297634
SMF   004.96 263.4 m E Pg      2013/05/29 23:54:09.6  -0.1                          T                                        5297633
SMF   004.96 263.4 m E Sn      2013/05/29 23:54:44.3  -0.2                          T                                        5297632
SMF   004.96 263.4 m E Sg      2013/05/29 23:55:13.3   0.0                          T                1.7  .37 Ml 2.5         5297631
SSF   005.11 268.5 m E Pg      2013/05/29 23:54:12.7   0.0                          T                                        5297621
SSF   005.11 268.5 m E Sg      2013/05/29 23:55:18.0  -0.2                          T                1.8  .44 Ml 2.6         5297622
SFTF  004.09 283.0 m E Sg      2013/05/29 23:54:46.4   0.2                          T                2.0  .21 Ml 2.6         5297630

.
EVENT     300004
    Date      Time       Latitude Longitude    Depth    Ndef Nsta Gap    Mag1  N    Mag2  N    Mag3  N   Author         ID
       rms   OT_Error      Smajor Sminor Az        Err   mdist  Mdist     Err        Err        Err      Quality

2013/05/30 00:44:44.8     49.7831    7.4309     10.0 f    47   10 029  Ml 2.1  8  Md 2.1  2              bulletin    300104
                                                                                                         _ldg
      0.80   +-  0.07       1.4    1.3   85.14 +-  0.0    0.12   2.23   +-0.2      +-0.0                 m i ke

GERMANY
Sta     Dist  EvAz     Phase      Date       Time     TRes  Azim  AzRes  Slow  SRes Def   SNR       Amp   Per   Mag1   Mag2       ID
RUP   000.25 251.4 mCI Pn      2013/05/30 00:44:50.7   0.6                          T                                        5301590
RUP   000.25 251.4 m E Pg      2013/05/30 00:44:51.0   0.9                          T                                        5301589
RUP   000.25 251.4 m E Sg      2013/05/30 00:44:54.7   1.0                          T                                        5301591
LANF  000.84 162.9 m E Pg      2013/05/30 00:45:01.1   0.4                          T                                        5301615
LANF  000.84 162.9 m E Sg      2013/05/30 00:45:12.1   0.4                          T                                        5301616
CDF   001.38 184.3 m E Pg      2013/05/30 00:45:10.3  -0.3                          T                                        5297888
CDF   001.38 184.3 m E Sg      2013/05/30 00:45:28.2  -0.2                          T                3.9  .28 Ml 2.2 Md 2.1  5297887
PAGF  001.66 223.0 m E Pg      2013/05/30 00:45:14.2  -1.6  40.7  -1.0              T                                        5297882
PAGF  001.66 223.0 m E Sg      2013/05/30 00:45:35.8  -1.5  49.8  8.1               T                1.3  .20 Ml 1.9         5297881
HAU   001.92 202.3 m E Pn      2013/05/30 00:45:15.6  -0.3                          T                                        5297872
HAU   001.92 202.3 m E Pg      2013/05/30 00:45:19.7  -0.8                          T                                        5297873
HAU   001.92 202.3 m E Sn      2013/05/30 00:45:38.4  -0.2                          T                                        5297871
HAU   001.92 202.3 m E Sg      2013/05/30 00:45:44.8  -0.5                          T                1.6  .20 Ml 1.9         5297874
GIVF  001.71 281.7 m E Pg      2013/05/30 00:45:16.1  -0.7                          T                                        5297886
GIVF  001.71 281.7 m E Sg      2013/05/30 00:45:39.2   0.3                          T                6.3  .30 Ml 2.5 Md 2.2  5297885
BAIF  002.10 278.8 m E P       2013/05/30 00:45:20.0  -0.7                          T                                        5297884
BAIF  002.10 278.8 m E Pg      2013/05/30 00:45:23.9   0.0                          T                                        5302439
BAIF  002.10 278.8 m E Sg      2013/05/30 00:45:50.3  -0.7                          T                2.0  .33 Ml 2.0         5297883
MEZF  002.02 231.5 m E Pg      2013/05/30 00:45:20.4  -2.0  50.2  0.5               T                                        5297878
MEZF  002.02 231.5 m E Sg      2013/05/30 00:45:46.5  -2.0  56.6  6.9               T                1.1  .21 Ml 1.9         5297877
HINF  002.00 191.2 m E Pg      2013/05/30 00:45:21.4  -0.8                          T                                        5297879
HINF  002.00 191.2 m E Sg      2013/05/30 00:45:47.9  -0.1                          T                1.8  .18 Ml 2.2         5297880
SFTF  002.23 225.8 m E Pg      2013/05/30 00:45:25.6  -0.7                          T                                        5297876
SFTF  002.23 225.8 m E Sg      2013/05/30 00:45:54.6  -0.4  58.6  14.6              T                2.2  .29 Ml 2.1         5297875

.
EVENT     300005
    Date      Time       Latitude Longitude    Depth    Ndef Nsta Gap    Mag1  N    Mag2  N    Mag3  N   Author         ID
       rms   OT_Error      Smajor Sminor Az        Err   mdist  Mdist     Err        Err        Err      Quality

2013/05/30 00:58:08.8     42.9440    -.0368     15.0       6    3 190  Ml 1.0  1  Md 1.3  2              bulletin    300105
                                                                                                         _ldg
      0.08   +-  0.06       4.7     .7  173.05 +-  0.0    0.29   0.89   +-         +-0.1                 m i ke

PYRENEES
Sta     Dist  EvAz     Phase      Date       Time     TRes  Azim  AzRes  Slow  SRes Def   SNR       Amp   Per   Mag1   Mag2       ID
EPF   000.29 072.6 m E Pg      2013/05/30 00:58:15.0  -0.1                          T                                        5297894
EPF   000.29 072.6 m E Sg      2013/05/30 00:58:19.4   0.1                          T                4.0  .20        Md 1.4  5297893
ETSF  000.39 263.4 m E Pg      2013/05/30 00:58:16.8   0.1                          T                                        5297892
ETSF  000.39 263.4 m E Sg      2013/05/30 00:58:22.0  -0.2                          T                4.7  .20        Md 1.3  5297891
SJPF  000.89 281.4 m E Pg      2013/05/30 00:58:25.6   0.0                          T                                        5297889
SJPF  000.89 281.4 m E Sg      2013/05/30 00:58:37.3   0.0                          T                 .4  .21 Ml 1.0         5297890

.
EVENT     300001
    Date      Time       Latitude Longitude    Depth    Ndef Nsta Gap    Mag1  N    Mag2  N    Mag3  N   Author         ID
       rms   OT_Error      Smajor Sminor Az        Err   mdist  Mdist     Err        Err        Err      Quality

2013/05/30 01:49:24.4     44.8896   10.9259      5.0 f    43    9 056  Ml 2.7  5                         bulletin    300101
                                                                                                         _ldg
      1.79   +-  0.27       6.7    5.8   98.44 +-  0.0    0.16   4.44   +-0.3                            m i ke

NORTHERN ITALY
Sta     Dist  EvAz     Phase      Date       Time     TRes  Azim  AzRes  Slow  SRes Def   SNR       Amp   Per   Mag1   Mag2       ID
SBF   002.71 248.9 m E Pn      2013/05/30 01:50:08.7   2.0                          T                                        5297410
SBF   002.71 248.9 m E Sn      2013/05/30 01:50:41.1   3.2                          T               33.6  .75 Ml 3.0         5297408
FRF   003.35 248.1 m E Pn      2013/05/30 01:50:16.8   1.4                          T                                        5297412
FRF   003.35 248.1 m E Sn      2013/05/30 01:50:56.6   3.3                          T                6.0  .38 Ml 2.7         5297409
LMR   003.54 245.5 m E Pn      2013/05/30 01:50:18.9   0.9                          T                                        5297411
MBDF  002.96 268.3 m E Pg      2013/05/30 01:50:19.0  -0.5                          T                                        5297413
LPG   003.01 283.1 m E Pg      2013/05/30 01:50:20.3  -0.3                          T                                        5297415
LPL   003.03 283.4 m E Pg      2013/05/30 01:50:20.9   0.1                          T                                        5297414
HINF  004.06 317.5 m E Pn      2013/05/30 01:50:25.5   0.2                          T                                        5297361
HINF  004.06 317.5 m E Sn      2013/05/30 01:51:11.0   0.6                          T                2.4  .37 Ml 2.5         5297360
CDF   004.33 325.8 m E Pn      2013/05/30 01:50:28.8  -0.1                          T                                        5297363
CDF   004.33 325.8 m E Sn      2013/05/30 01:51:16.4  -0.4                          T                1.1  .32 Ml 2.4         5297362
HAU   004.44 316.2 m E Pn      2013/05/30 01:50:30.3  -0.1                          T                                        5297359
HAU   004.44 316.2 m E Sn      2013/05/30 01:51:19.3  -0.1                          T                4.9  .24 Ml 2.8         5297358

.
