EVENT     277615
    Date      Time       Latitude Longitude    Depth    Ndef Nsta Gap    Mag1  N    Mag2  N    Mag3  N   Author         ID
       rms   OT_Error      Smajor Sminor Az        Err   mdist  Mdist     Err        Err        Err      Quality

2012/06/06 02:34:17.6     44.8500   11.2347      2.0      54   18 188  Ml 2.6 14                         bulletin    277724
                                                                                                         _ldg
      1.28   +-  0.35       8.2    4.5  113.47 +-  0.0    1.08   6.50   +-0.2                            m i ke

NORTHERN ITALY
Sta     Dist  EvAz     Phase      Date       Time     TRes  Azim  AzRes  Slow  SRes Def   SNR       Amp   Per   Mag1   Mag2       ID
PGF   002.81 215.9 m E Pn      2012/06/06 02:35:01.6  -0.2                          T                                        4988339
PGF   002.81 215.9 m E Sn      2012/06/06 02:35:34.4   0.1                          T                1.6  .18 Ml 2.6         4988324
SBF   002.90 251.4 m E Pn      2012/06/06 02:35:04.5   1.6                          T                                        4988316
SBF   002.90 251.4 m E Sn      2012/06/06 02:35:37.8   1.5                          T                2.6  .22 Ml 2.5         4988325
LPL   003.25 283.4 m E Pn      2012/06/06 02:35:10.6   2.7                          T                                        4988338
FRF   003.54 250.3 m E Pn      2012/06/06 02:35:12.0   0.4                          T                                        4988314
FRF   003.54 250.3 m E Sn      2012/06/06 02:35:51.7   0.2                          T                1.2  .17 Ml 2.4         4988327
LMR   003.73 247.7 m E Pn      2012/06/06 02:35:15.4   1.3                          T                                        4988315
LMR   003.73 247.7 m E Sn      2012/06/06 02:35:56.3   0.4                          T                3.8  .28 Ml 2.7         4988326
ORIF  003.81 272.9 m E Pn      2012/06/06 02:35:17.1   1.8                          T                                        4988304
ORIF  003.81 272.9 m E Sn      2012/06/06 02:35:58.5   0.5                          T                2.2  .28 Ml 2.5         4988328
CABF  004.01 297.9 m E Pn      2012/06/06 02:35:17.7  -0.4                          T                                        4988308
CABF  004.01 297.9 m E Sn      2012/06/06 02:36:03.1   0.1                          T                 .9  .21 Ml 2.3         4988332
HINF  004.24 315.9 m E Pn      2012/06/06 02:35:20.7  -0.5                          T                                        4988309
HINF  004.24 315.9 m E Sn      2012/06/06 02:36:08.2  -0.2                          T                1.5  .19 Ml 2.6         4988333
SMRF  004.15 259.8 m E Pn      2012/06/06 02:35:22.0   2.1                          T                                        4988313
CDF   004.49 324.0 m E Pn      2012/06/06 02:35:24.0  -0.6                          T                                        4988311
CDF   004.49 324.0 m E Sn      2012/06/06 02:36:12.1  -2.1                          T                                        4988335
HAU   004.62 314.8 m E Pn      2012/06/06 02:35:24.9  -1.4                          T                                        4988310
HAU   004.62 314.8 m E Sn      2012/06/06 02:36:17.7   0.2                          T                2.8  .19 Ml 2.7         4988334
VIVF  004.67 272.4 m E Pn      2012/06/06 02:35:26.1  -0.9                          T                                        4988305
VIVF  004.67 272.4 m E Sn      2012/06/06 02:36:18.5   0.0                          T                 .4  .19 Ml 2.1         4988329
THEF  004.95 314.9 m E Pn      2012/06/06 02:35:31.7   1.0                          T                                        4988337
THEF  004.95 314.9 m E Sn      2012/06/06 02:36:25.0  -0.2                          T                1.7  .24 Ml 2.7         4988322
SMF   005.48 291.7 m E Pn      2012/06/06 02:35:37.3  -0.7                          T                                        4988306
SMF   005.48 291.7 m E Sn      2012/06/06 02:36:37.5  -0.3                          T                1.6  .22 Ml 2.8         4988330
LOR   005.67 297.8 m E Pn      2012/06/06 02:35:39.1  -1.5 115.1  2.6               T                                        4988312
LOR   005.67 297.8 m E Sn      2012/06/06 02:36:42.2  -0.4                          T                1.5  .23 Ml 2.8         4988336
AVF   005.84 292.2 m E Pn      2012/06/06 02:35:42.3  -0.5                          T                                        4988307
SSF   005.82 295.0 m E Sn      2012/06/06 02:36:46.4   0.2                          T                 .6  .19 Ml 2.6         4988323
TCF   006.50 286.0 m E Sn      2012/06/06 02:37:02.9   0.7                          T                 .4  .22 Ml 2.5         4988331

.
EVENT     277616
    Date      Time       Latitude Longitude    Depth    Ndef Nsta Gap    Mag1  N    Mag2  N    Mag3  N   Author         ID
       rms   OT_Error      Smajor Sminor Az        Err   mdist  Mdist     Err        Err        Err      Quality

2012/06/06 04:08:29.1     44.4649   12.3102      2.0     284   33 021  Ml 4.6 22                         bulletin    277725
                                                                                                         _ldg
      0.99   +-  0.06       1.9    1.5   56.38 +-  0.0    0.38  23.36   +-0.4                            m i ke

NORTHERN ITALY
Sta     Dist  EvAz     Phase      Date       Time     TRes  Azim  AzRes  Slow  SRes Def   SNR       Amp   Per   Mag1   Mag2       ID
PGF   003.08 232.6 m E Pn      2012/06/06 04:09:19.2   2.3                          T                                        4988364
PGF   003.08 232.6 m E Sn      2012/06/06 04:09:54.6   2.5                          T              617.6  .36 Ml 4.9         4988362
SBF   003.56 262.0 m E Pn      2012/06/06 04:09:25.6   2.2                          T                                        4988365
SBF   003.56 262.0 m E Sn      2012/06/06 04:10:06.0   2.4                          T              607.9  .52 Ml 4.6         4988359
MBDF  003.97 275.7 m E Pn      2012/06/06 04:09:30.2   1.1                          T                                        4988372
LPG   004.08 286.6 m E Pn      2012/06/06 04:09:31.5   0.8                          T                                        4988369
LPL   004.09 286.8 m E Pn      2012/06/06 04:09:31.9   1.0                          T                                        4988371
FRF   004.18 259.5 m E Pn      2012/06/06 04:09:33.9   2.1                          T                                        4988367
FRF   004.18 259.5 m E Sn      2012/06/06 04:10:17.7  -0.7                          T              177.9  .38 Ml 4.4         4988363
LMR   004.34 256.9 m E Pn      2012/06/06 04:09:35.7   1.8                          T                                        4988366
LMR   004.34 256.9 m E Sn      2012/06/06 04:10:22.2   0.1                          T              180.9  .40 Ml 4.4         4988360
ORIF  004.61 277.9 m E Pn      2012/06/06 04:09:40.5   2.8                          T                                        4988370
ORIF  004.61 277.9 m E Sn      2012/06/06 04:10:30.1   1.5                          T              302.9  .52 Ml 4.5         4988345
CABF  004.87 298.3 m E Pn      2012/06/06 04:09:43.5   2.2                          T                                        4988386
SMRF  004.87 266.6 m E Pn      2012/06/06 04:09:44.1   2.9                          T                                        4988368
HINF  005.06 313.4 m E Pn      2012/06/06 04:09:45.9   2.0                          T                                        4988387
HINF  005.06 313.4 m E Sn      2012/06/06 04:10:41.6   2.2                          T              677.5  .54 Ml 5.0         4988340
CDF   005.26 320.4 m E Pn      2012/06/06 04:09:49.1   2.4                          T                                        4988392
CDF   005.26 320.4 m E Sn      2012/06/06 04:10:47.1   2.8                          T              591.8  .72 Ml 5.0         4988348
HAU   005.44 312.7 m E Pn      2012/06/06 04:09:51.2   2.1                          T                                        4988388
HAU   005.44 312.7 m E Sn      2012/06/06 04:10:50.4   1.8                          T              959.5  .54 Ml 5.0         4988352
VIVF  005.46 276.8 m E Pn      2012/06/06 04:09:51.3   2.0                          T                                        4988373
VIVF  005.46 276.8 m E Sn      2012/06/06 04:10:50.9   1.8                          T               59.0  .40 Ml 4.1         4988361
LASF  006.08 269.3 m E Pn      2012/06/06 04:09:59.5   1.8                          T                                        4988374
LASF  006.08 269.3 m E Sn      2012/06/06 04:11:04.0   0.2                          T               34.8  .58 Ml 3.9         4988358
PAGF  006.11 314.3 m E Pn      2012/06/06 04:10:01.2   3.0                          T                                        4988391
SFTF  006.27 309.2 m E Pn      2012/06/06 04:10:02.5   2.3                          T                                        4988390
SFTF  006.27 309.2 m E Sn      2012/06/06 04:11:11.6   3.3                          T              145.7  .44 Ml 4.7         4988350
SMF   006.33 293.1 m E Pn      2012/06/06 04:10:02.9   1.8                          T                                        4988382
SMF   006.33 293.1 m E Sn      2012/06/06 04:11:11.8   2.0                          T              459.4  .64 Ml 5.0         4988356
MEZF  006.43 311.4 m E Pn      2012/06/06 04:10:05.5   3.0                          T                                        4988389
MEZF  006.43 311.4 m E Sn      2012/06/06 04:11:14.6   2.4                          T              176.3  .54 Ml 4.7         4988351
LOR   006.53 298.4 m E Pn      2012/06/06 04:10:05.9   2.0                          T                                        4988394
LOR   006.53 298.4 m E Sn      2012/06/06 04:11:16.6   2.0                          T              443.8  .36 Ml 5.3         4988349
AVF   006.70 293.5 m E Pn      2012/06/06 04:10:07.6   1.5                          T                                        4988383
AVF   006.70 293.5 m E Sn      2012/06/06 04:11:20.8   2.3                          T              110.5  .66 Ml 4.4         4988355
SSF   006.68 296.0 m E Pn      2012/06/06 04:10:08.0   2.2                          T                                        4988385
SSF   006.68 296.0 m E Sn      2012/06/06 04:11:20.0   1.9                          T              135.5  .50 Ml 4.7         4988346
BGF   006.97 290.8 m E Pn      2012/06/06 04:10:12.3   2.5                          T                                        4988380
BGF   006.97 290.8 m E Sn      2012/06/06 04:11:28.1   3.1                          T              134.3  .34 Ml 4.8         4988357
HYF   007.31 296.0 m E Pn      2012/06/06 04:10:17.1   2.6                          T                                        4988381
TCF   007.34 287.9 m E Pn      2012/06/06 04:10:17.1   2.2                          T                                        4988384
TCF   007.34 287.9 m E Sn      2012/06/06 04:11:36.0   2.1                          T               60.0  .42 Ml 4.5         4988353
CAF   007.32 277.2 m E Pn      2012/06/06 04:10:17.2   2.7                          T                                        4988378
MTLF  007.38 264.8 m E Pn      2012/06/06 04:10:18.2   2.9                          T                                        4988375
MTLF  007.38 264.8 m E Sn      2012/06/06 04:11:37.3   2.6                          T               20.8  .56 Ml 3.9         4988344
GIVF  007.59 320.6 m E Pn      2012/06/06 04:10:22.4   4.2                          T                                        4988393
RJF   007.71 280.0 m E Pn      2012/06/06 04:10:22.7   2.8                          T                                        4988379
RJF   007.71 280.0 m E Sn      2012/06/06 04:11:44.7   1.9                          T               26.8  .56 Ml 3.7         4988343
LFF   008.26 277.3 m E Pn      2012/06/06 04:10:32.1   4.8                          T                                        4988377
MFF   009.00 288.1 m E Pn      2012/06/06 04:10:41.4   3.9                          T                                        4988354
MFF   009.00 288.1 m E Sn      2012/06/06 04:12:14.7   1.2                          T               42.4  .76 Ml 4.5         4988342
LDF   009.51 300.1 m E Pn      2012/06/06 04:10:48.5   4.1                          T                                        4988347
LDF   009.51 300.1 m E Sn      2012/06/06 04:12:26.7   1.0                          T               44.9  .42 Ml 4.6         4988341
ETSF  009.46 265.0 m E Pn      2012/06/06 04:10:49.9   6.1                          T                                        4988376

.
EVENT     277617
    Date      Time       Latitude Longitude    Depth    Ndef Nsta Gap    Mag1  N    Mag2  N    Mag3  N   Author         ID
       rms   OT_Error      Smajor Sminor Az        Err   mdist  Mdist     Err        Err        Err      Quality

2012/06/06 04:39:05.2     45.9801    7.5000      2.0      29    5 083  Ml 1.8  3  Md 2.0  3              bulletin    277726
                                                                                                         _ldg
      0.23   +-  0.04       1.0     .6  131.67 +-  0.0    0.12   2.29   +-0.0      +-0.0                 m i ke

NORTHERN ITALY
Sta     Dist  EvAz     Phase      Date       Time     TRes  Azim  AzRes  Slow  SRes Def   SNR       Amp   Per   Mag1   Mag2       ID
LPL   000.71 229.5 m E Pg      2012/06/06 04:39:18.8  -0.1                          T                                        4988708
LPL   000.71 229.5 m E Sg      2012/06/06 04:39:28.4   0.2                          T                1.9  .29        Md 2.0  4988704
LPG   000.71 227.6 m E Pg      2012/06/06 04:39:18.9  -0.1                          T                                        4988707
LPG   000.71 227.6 m E Sg      2012/06/06 04:39:28.4   0.1                          T                2.7  .26        Md 2.0  4988705
MBDF  001.35 202.6 m E Pg      2012/06/06 04:39:31.4   0.7                          T                                        4988706
MBDF  001.35 202.6 m E Sg      2012/06/06 04:39:48.1   0.0                          T                2.8  .38 Ml 1.8 Md 2.0  4988703
ORIF  001.56 227.6 m E Pg      2012/06/06 04:39:34.5   0.1                          T                                        4988702
ORIF  001.56 227.6 m E Sg      2012/06/06 04:39:54.1  -0.4                          T                1.8  .32 Ml 1.8         4992817
VIVF  002.29 241.6 m E Pn      2012/06/06 04:39:42.0  -0.2                          T                                        4992815
VIVF  002.29 241.6 m E Sn      2012/06/06 04:40:08.9  -0.3                          T                  1  .24 Ml 1.9         4992816

.
