EVENT     255231
    Date      Time       Latitude Longitude    Depth    Ndef Nsta Gap    Mag1  N    Mag2  N    Mag3  N   Author         ID
       rms   OT_Error      Smajor Sminor Az        Err   mdist  Mdist     Err        Err        Err      Quality

2011/01/27 05:52:55.8     43.0798    -.2139      2.0      25    6 101  Ml 2.1  5  Md 2.3  3              js067245    255251

      0.33   +-  0.06       1.4     .9  172.12 +-  0.0    0.31   2.55   +-0.2      +-0.0                 m i ke

PYRENEES
Sta     Dist  EvAz     Phase      Date       Time     TRes  Azim  AzRes  Slow  SRes Def   SNR       Amp   Per   Mag1   Mag2       ID
ETSF  000.31 234.6 m E Pg      2011/01/27 05:53:01.7  -0.3                          T                                        4639044
ETSF  000.31 234.6 m E Sg      2011/01/27 05:53:05.9  -0.3                          T               18.7  .24        Md 2.3  4639042
EPF   000.41 096.8 m E Pg      2011/01/27 05:53:03.5  -0.2                          T                                        4639043
EPF   000.41 096.8 m E Sg      2011/01/27 05:53:08.8  -0.4                          T               11.4  .20        Md 2.2  4639041
MTLF  001.80 080.8 m E Pn      2011/01/27 05:53:26.0  -0.1                          T                                        4639033
MTLF  001.80 080.8 m E Pg      2011/01/27 05:53:29.4   0.1                          T                                        4639047
MTLF  001.80 080.8 m E Sg      2011/01/27 05:53:52.4   0.0                          T                3.5  .48 Ml 2.0 Md 2.3  4639040
LFF   001.98 020.0 m E Pn      2011/01/27 05:53:28.6   0.0                          T                                        4639035
LFF   001.98 020.0 m E Sg      2011/01/27 05:53:58.2   0.0                          T                7.1  .52 Ml 2.2         4639038
CAF   002.47 040.9 m E Pn      2011/01/27 05:53:35.3   0.0                          T                                        4639034
CAF   002.47 040.9 m E Sg      2011/01/27 05:54:13.5   0.0                          T                2.1  .31 Ml 2.1         4639037
RJF   002.55 028.6 m E Pn      2011/01/27 05:53:36.5   0.1                          T                                        4639036
RJF   002.55 028.6 m E Sg      2011/01/27 05:54:15.8  -0.1                          T                2.0  .29 Ml 1.8         4639039

.
EVENT     255229
    Date      Time       Latitude Longitude    Depth    Ndef Nsta Gap    Mag1  N    Mag2  N    Mag3  N   Author         ID
       rms   OT_Error      Smajor Sminor Az        Err   mdist  Mdist     Err        Err        Err      Quality

2011/01/27 06:04:14.2     49.9184   -1.9476     10.0     109   30 081  Ml 3.3 31  Md 3.2  3              js067245    255249

      0.98   +-  0.10       2.0    1.7  175.30 +-  0.0    0.75   8.29   +-0.2      +-0.1                 m i ke

FRANCE
Sta     Dist  EvAz     Phase      Date       Time     TRes  Azim  AzRes  Slow  SRes Def   SNR       Amp   Per   Mag1   Mag2       ID
FLN   001.50 139.8 m E Pn      2011/01/27 06:04:39.7   0.1 319.6  -1.3              T                                        4639136
FLN   001.50 139.8 m E Pg      2011/01/27 06:04:42.2  -0.1 319.6  -1.3              T                                        4639140
FLN   001.50 139.8 m E Sg      2011/01/27 06:05:02.0   0.3                          T               82.4  .22 Ml 3.5 Md 3.3  4639131
GRR   001.69 154.6 m E Pn      2011/01/27 06:04:43.0   0.9                          T                                        4639137
GRR   001.69 154.6 m E Pg      2011/01/27 06:04:45.4  -0.3                          T                                        4639138
GRR   001.69 154.6 m E Sg      2011/01/27 06:05:08.4   0.9                          T               68.4  .18 Ml 3.6 Md 3.1  4639129
SGMF  001.71 193.8 m E P       2011/01/27 06:04:44.0  -0.5                          T                                        4639124
SGMF  001.71 193.8 m E Pg      2011/01/27 06:04:46.6   0.5                          T                                        4639134
SGMF  001.71 193.8 m E Sg      2011/01/27 06:05:08.7   0.4                          T               75.3  .32 Ml 3.5 Md 3.2  4639132
LDF   001.79 137.3 m E Pn      2011/01/27 06:04:44.1   0.7                          T                                        4639122
LDF   001.79 137.3 m E Pg      2011/01/27 06:04:46.9  -0.6                          T                                        4639139
LDF   001.79 137.3 m E Sg      2011/01/27 06:05:11.0   0.5                          T               37.6  .24 Ml 3.3         4639130
ROSF  001.81 209.3 m E P       2011/01/27 06:04:45.1  -0.7                          T                                        4639123
ROSF  001.81 209.3 m E Pg      2011/01/27 06:04:47.9   0.1                          T                                        4639135
ROSF  001.81 209.3 m E Sg      2011/01/27 06:05:12.3   1.1                          T               52.8  .24 Ml 3.5         4639133
QUIF  002.16 202.3 m E P       2011/01/27 06:04:50.1  -0.8                          T                                        4639125
QUIF  002.16 202.3 m E Pg      2011/01/27 06:04:54.7   0.4                          T                                        4639128
QUIF  002.16 202.3 m E Sg      2011/01/27 06:05:22.5   0.4                          T              111.2  .56 Ml 3.5         4639062
MFF   003.53 159.4 m E Pn      2011/01/27 06:05:07.6   0.4                          T                                        4639107
MFF   003.53 159.4 m E Pg      2011/01/27 06:05:20.0   0.4                          T                                        4639121
MFF   003.53 159.4 m E Sn      2011/01/27 06:05:46.9   0.5                          T                                        4639275
MFF   003.53 159.4 m E Sg      2011/01/27 06:06:02.0  -3.0                          T               17.6  .45 Ml 3.3         4639061
BAIF  003.97 085.6 m E Pn      2011/01/27 06:05:12.3  -0.9                          T                                        4639111
BAIF  003.97 085.6 m E Sn      2011/01/27 06:05:55.3  -1.8                          T                                        4639093
BAIF  003.97 085.6 m E Sg      2011/01/27 06:06:20.3   1.5                          T               14.8  .56 Ml 3.1         4639084
HYF   004.04 129.3 m E Pn      2011/01/27 06:05:12.9  -1.2                          T                                        4639063
HYF   004.04 129.3 m E Sn      2011/01/27 06:05:59.0   0.4                          T                                        4639100
HYF   004.04 129.3 m E Sg      2011/01/27 06:06:20.1  -0.7                          T                                        4639066
GIVF  004.37 085.0 m E Pn      2011/01/27 06:05:19.0   0.4                          T                                        4639110
GIVF  004.37 085.0 m E Sn      2011/01/27 06:06:07.1   0.5                          T                                        4639092
GIVF  004.37 085.0 m E Sg      2011/01/27 06:06:32.7   1.5                          T                9.3  .32 Ml 3.2         4639085
TCF   004.58 140.9 m E Pn      2011/01/27 06:05:21.7   0.3                          T                                        4639109
TCF   004.58 140.9 m E Sn      2011/01/27 06:06:10.8  -0.8                          T                                        4639091
TCF   004.58 140.9 m E Sg      2011/01/27 06:06:35.9  -1.7                          T                2.7  .31 Ml 2.8         4639086
SSF   004.62 126.2 m E Pn      2011/01/27 06:05:22.2   0.2                          T                                        4639126
SSF   004.62 126.2 m E Sn      2011/01/27 06:06:10.7  -1.8                          T                                        4639090
SSF   004.62 126.2 m E Sg      2011/01/27 06:06:38.3  -0.5                          T               15.0  .48 Ml 3.4         4639087
LOR   004.68 122.3 m E Pn      2011/01/27 06:05:23.2   0.3 303.4  -3.3              T                                        4639127
LOR   004.68 122.3 m E Sn      2011/01/27 06:06:13.8  -0.1                          T                                        4639089
LOR   004.68 122.3 m E Sg      2011/01/27 06:06:41.2   0.5 314.9  8.2               T               10.0  .40 Ml 3.2         4639088
AVF   004.72 129.5 m E Pn      2011/01/27 06:05:23.2  -0.2                          T                                        4639117
AVF   004.72 129.5 m E Sn      2011/01/27 06:06:13.6  -1.3                          T                                        4639098
AVF   004.72 129.5 m E Sg      2011/01/27 06:06:41.2  -0.8                          T                3.0  .30 Ml 2.8         4639069
BGF   004.64 134.6 m E Pn      2011/01/27 06:05:23.3   0.9                          T                                        4639120
BGF   004.64 134.6 m E Sn      2011/01/27 06:06:12.9  -0.2                          T                                        4639101
BGF   004.64 134.6 m E Sg      2011/01/27 06:06:38.6  -1.1                          T               28.6  .38 Ml 3.7         4639065
MEZF  004.80 104.5 m E Pn      2011/01/27 06:05:24.4  -0.1                          T                                        4639078
MEZF  004.80 104.5 m E Sg      2011/01/27 06:06:45.2   0.6                          T               12.2  .30 Ml 3.4         4639079
SFTF  004.90 107.8 m E Pn      2011/01/27 06:05:26.6   0.7                          T                                        4639112
SFTF  004.90 107.8 m E Sn      2011/01/27 06:06:18.3  -0.9                          T                                        4639094
SFTF  004.90 107.8 m E Sg      2011/01/27 06:06:48.4   0.6 283.9  -9.2              T               10.8  .36 Ml 3.3         4639083
SMF   005.06 128.1 m E Pn      2011/01/27 06:05:27.8  -0.3                          T                                        4639118
SMF   005.06 128.1 m E Sn      2011/01/27 06:06:23.5   0.3                          T                                        4639099
SMF   005.06 128.1 m E Sg      2011/01/27 06:06:52.2  -0.6                          T                5.6  .24 Ml 3.3         4639067
PAGF  005.21 102.3 m E Pn      2011/01/27 06:05:29.9  -0.1 278.5  -9.6              T                                        4639077
PAGF  005.21 102.3 m E Sg      2011/01/27 06:06:58.1   0.8 294.3  6.2               T                3.4  .44 Ml 2.8         4639070
RJF   005.18 151.8 m E Pn      2011/01/27 06:05:29.9   0.3                          T                                        4639108
RJF   005.18 151.8 m E Sn      2011/01/27 06:06:24.9  -0.9                          T                                        4639103
RJF   005.18 151.8 m E Sg      2011/01/27 06:06:54.0  -2.3                          T                8.4  .34 Ml 3.0         4639060
LFF   005.30 158.9 m E Pn      2011/01/27 06:05:32.1   0.8                          T                                        4639106
LFF   005.30 158.9 m E Sn      2011/01/27 06:06:29.4   0.5                          T                                        4639276
LFF   005.30 158.9 m E Sg      2011/01/27 06:06:57.8  -2.5                          T               20.6  .60 Ml 3.3         4639059
THEF  005.49 104.9 m E Pn      2011/01/27 06:05:34.1   0.2                          T                                        4639116
THEF  005.49 104.9 m E Sn      2011/01/27 06:06:31.5  -1.8                          T                                        4639097
THEF  005.49 104.9 m E Sg      2011/01/27 06:07:06.4   0.4                          T               12.6  .49 Ml 3.4         4639082
CAF   005.69 149.9 m E Pn      2011/01/27 06:05:36.7   0.1                          T                                        4639105
CAF   005.69 149.9 m E Sn      2011/01/27 06:06:37.5  -0.6                          T                                        4639104
CAF   005.69 149.9 m E Sg      2011/01/27 06:07:10.2  -2.1                          T                9.0  .55 Ml 3.2         4639058
HAU   005.79 106.1 m E Pn      2011/01/27 06:05:38.2   0.2                          T                                        4639115
HAU   005.79 106.1 m E Sn      2011/01/27 06:06:38.5  -2.0                          T                                        4639096
HAU   005.79 106.1 m E Sg      2011/01/27 06:07:16.2   0.7                          T                6.2  .34 Ml 3.1         4639081
RUP   005.84 088.7 m E Pn      2011/01/27 06:05:38.9   0.2                          T                                        4639075
RUP   005.84 088.7 m E Sg      2011/01/27 06:07:18.2   1.2                          T                                        4639073
HINF  006.18 106.6 m E Pn      2011/01/27 06:05:43.2   0.0                          T                                        4639114
HINF  006.18 106.6 m E Sn      2011/01/27 06:06:47.2  -2.6                          T                                        4639095
HINF  006.18 106.6 m E Sg      2011/01/27 06:07:28.3   0.7                          T                8.4  .58 Ml 3.3         4639080
CDF   006.23 100.5 m E Pn      2011/01/27 06:05:44.1  -0.1                          T                                        4639076
CDF   006.23 100.5 m E Sn      2011/01/27 06:06:47.9  -3.4                          T                                        4639274
CDF   006.23 100.5 m E Sg      2011/01/27 06:07:30.4   1.0                          T                3.2  .49 Ml 3.1         4639072
CABF  006.30 118.6 m E Pn      2011/01/27 06:05:45.9   0.9                          T                                        4639113
CABF  006.30 118.6 m E Sg      2011/01/27 06:07:31.6   0.1                          T                6.4  .50 Ml 3.3         4639068
LANF  006.43 094.7 m E Pn      2011/01/27 06:05:46.7   0.0                          T                                        4639074
LANF  006.43 094.7 m E Sg      2011/01/27 06:07:36.4   1.0                          T               11.8  .65 Ml 3.4         4639071
EPF   007.07 166.2 m E Pn      2011/01/27 06:05:55.5   0.1                          T                                        4639277

.
EVENT     255270
    Date      Time       Latitude Longitude    Depth    Ndef Nsta Gap    Mag1  N    Mag2  N    Mag3  N   Author         ID
       rms   OT_Error      Smajor Sminor Az        Err   mdist  Mdist     Err        Err        Err      Quality

2011/01/27 08:36:27.6     47.6924    5.6400       .0 f    30   14 083  Ml 2.3 11  Md 2.1  3              js067245    255290

      0.45   +-  0.03        .8     .5  142.05 +-  0.0    0.57   2.51   +-0.2      +-0.1                 m i km

FRANCE
Sta     Dist  EvAz     Phase      Date       Time     TRes  Azim  AzRes  Slow  SRes Def   SNR       Amp   Per   Mag1   Mag2       ID
HAU   000.57 056.4 m E Pg      2011/01/27 08:36:38.5  -0.2                          T                                        4639457
HAU   000.57 056.4 m E Sg      2011/01/27 08:36:46.4   0.0                          T               41.5  .86        Md 2.2  4639454
THEF  000.59 023.8 m E Pg      2011/01/27 08:36:39.1   0.1                          T                                        4639488
THEF  000.59 023.8 m E Sg      2011/01/27 08:36:46.9   0.1                          T               20.0  .40        Md 2.2  4639456
SFTF  000.65 322.0 m E Pg      2011/01/27 08:36:40.0  -0.2 142.5  0.9               T                                        4639475
SFTF  000.65 322.0 m E Sg      2011/01/27 08:36:48.5  -0.4 134.1  -7.5              T               11.7  .33        Md 2.1  4639455
HINF  000.83 080.9 m E Pg      2011/01/27 08:36:43.6   0.1                          T                                        4639474
HINF  000.83 080.9 m E Sg      2011/01/27 08:36:54.5   0.0                          T               11.6  .38                4639453
PAGF  000.87 003.7 m E Pg      2011/01/27 08:36:44.2   0.2 182.2  -1.6              T                                        4639477
PAGF  000.87 003.7 m E Sg      2011/01/27 08:36:55.6   0.0                          T                4.8  .43 Ml 1.8         4639486
MEZF  000.90 334.3 m E Pg      2011/01/27 08:36:44.8   0.1                          T                                        4639476
MEZF  000.90 334.3 m E Sg      2011/01/27 08:36:56.9   0.2                          T               13.6  .30 Ml 2.4         4639485
CABF  001.12 164.1 m E Pg      2011/01/27 08:36:49.0   0.0                          T                                        4639473
CABF  001.12 164.1 m E Sg      2011/01/27 08:37:03.6  -0.1                          T               13.0  .42 Ml 2.4         4639452
LOR   001.28 251.3 m E Pg      2011/01/27 08:36:51.8   0.0  70.8  0.8               T                                        4639480
LOR   001.28 251.3 m E Sg      2011/01/27 08:37:08.3  -0.2  65.3  -4.7              T               10.6  .50 Ml 2.3         4639482
CDF   001.31 056.1 m E Pg      2011/01/27 08:36:52.4  -0.1                          T                                        4639478
CDF   001.31 056.1 m E Sg      2011/01/27 08:37:09.6   0.0                          T                7.1  .36 Ml 2.4         4639487
SSF   001.58 247.3 m E Pg      2011/01/27 08:36:57.3   0.0                          T                                        4639479
SSF   001.58 247.3 m E Sg      2011/01/27 08:37:17.8  -0.1                          T                4.9  .24 Ml 2.5         4639481
SMF   001.61 230.2 m E Pg      2011/01/27 08:36:57.9   0.0                          T                                        4639471
SMF   001.61 230.2 m E Sg      2011/01/27 08:37:19.2   0.3                          T                6.2  .29 Ml 2.4         4639484
AVF   001.80 240.8 m E Pg      2011/01/27 08:37:01.3   0.0                          T                                        4639472
AVF   001.80 240.8 m E Sg      2011/01/27 08:37:24.3  -0.4                          T                8.7  .79 Ml 2.2         4639483
HYF   002.08 259.3 m E Pg      2011/01/27 08:37:06.6   0.1                          T                                        4639468
HYF   002.08 259.3 m E Sg      2011/01/27 08:37:33.5   0.1                          T                                        4639467
BGF   002.22 240.3 m E Pg      2011/01/27 08:37:08.8  -0.2                          T                                        4639470
BGF   002.22 240.3 m E Sg      2011/01/27 08:37:37.6  -0.2                          T                6.6  .37 Ml 2.5         4639466

.
