EVENT     258294
    Date      Time       Latitude Longitude    Depth    Ndef Nsta Gap    Mag1  N    Mag2  N    Mag3  N   Author         ID
       rms   OT_Error      Smajor Sminor Az        Err   mdist  Mdist     Err        Err        Err      Quality

2011/04/14 13:45:50.1     47.5253    8.1973       .0 f    37   17 210  Ml 2.2 17  Md 2.3  3              js067245    258294

      0.22   +-  0.08       1.6     .8   80.07 +-  0.0    0.06   3.39   +-0.3      +-0.0                 m i km

SWITZERLAND
Sta     Dist  EvAz     Phase      Date       Time     TRes  Azim  AzRes  Slow  SRes Def   SNR       Amp   Per   Mag1   Mag2       ID
HINF  000.95 288.3 m E Pg      2011/04/14 13:46:08.3  -0.1                          T                                        4674037
HINF  000.95 288.3 m E Pn      2011/04/14 13:46:09.3  -0.1                          T                                        4673913
HINF  000.95 288.3 m E Sn      2011/04/14 13:46:22.9  -0.1                          T                9.1  .26 Ml 2.3 Md 2.3  4673910
CDF   001.08 325.4 m E Pg      2011/04/14 13:46:10.7  -0.1                          T                                        4673911
CDF   001.08 325.4 m E Sn      2011/04/14 13:46:25.9  -0.2                          T               10.5  .32 Ml 2.5 Md 2.3  4673908
HAU   001.34 291.7 m E Pg      2011/04/14 13:46:16.0   0.6                          T                                        4673912
HAU   001.34 291.7 m E Sg      2011/04/14 13:46:32.7  -0.2                          T                5.8  .26 Ml 2.1 Md 2.3  4673909
LANF  001.48 349.9 m E Pg      2011/04/14 13:46:18.0  -0.1                          T                                        4673881
LANF  001.48 349.9 m E Sg      2011/04/14 13:46:37.1  -0.2                          T                6.2  .26 Ml 2.4         4673880
THEF  001.64 296.2 m E Pg      2011/04/14 13:46:21.5   0.5                          T                                        4673890
THEF  001.64 296.2 m E Sg      2011/04/14 13:46:42.3   0.0                          T                8.9  .39 Ml 2.5         4673905
CABF  001.71 238.4 m E Pg      2011/04/14 13:46:22.1  -0.2                          T                                        4673900
CABF  001.71 238.4 m E Sg      2011/04/14 13:46:44.3  -0.2                          T               10.7  .62 Ml 2.4         4673907
PAGF  001.95 302.8 m E Pg      2011/04/14 13:46:26.8   0.1                          T                                        4673891
SFTF  002.23 288.9 m E Pg      2011/04/14 13:46:32.1   0.2 107.3  0.7               T                                        4673901
SFTF  002.23 288.9 m E Sg      2011/04/14 13:47:00.9   0.1                          T               13.4  .50 Ml 2.7         4673904
LPL   002.25 207.3 m E Pg      2011/04/14 13:46:32.4   0.0                          T                                        4674035
LPL   002.25 207.3 m E Sn      2011/04/14 13:46:54.3   0.1                          T                2.1  .30 Ml 2.1         4673897
LPG   002.26 206.7 m E Pg      2011/04/14 13:46:32.9   0.2                          T                                        4674036
LPG   002.26 206.7 m E Sn      2011/04/14 13:46:54.7   0.2                          T                 .5  .15 Ml 1.8         4673896
MEZF  002.33 296.0 m E Pg      2011/04/14 13:46:33.9   0.3                          T                                        4673902
MEZF  002.33 296.0 m E Sg      2011/04/14 13:47:03.5  -0.3                          T                9.3  .33 Ml 2.7         4673903
LOR   002.96 266.6 m E Pn      2011/04/14 13:46:36.6  -0.1  81.5  -2.0              T                                        4673895
LOR   002.96 266.6 m E Sn      2011/04/14 13:47:11.0   0.1                          T                2.0  .35 Ml 2.2         4673893
MBDF  002.97 200.0 m E Pn      2011/04/14 13:46:37.0   0.0                          T                                        4673885
MBDF  002.97 200.0 m E Sn      2011/04/14 13:47:11.3   0.0                          T                 .9  .31 Ml 1.9         4673883
SMF   003.10 255.1 m E Pn      2011/04/14 13:46:38.1  -0.6                          T                                        4673888
SMF   003.10 255.1 m E Sn      2011/04/14 13:47:14.2  -0.2                          T                1.2  .33 Ml 2.0         4673886
ORIF  003.06 212.5 m E Pn      2011/04/14 13:46:38.3   0.1                          T                                        4673884
ORIF  003.06 212.5 m E Sn      2011/04/14 13:47:13.6   0.1                          T                 .8  .24 Ml 2.0         4673882
SSF   003.23 263.5 m E Pn      2011/04/14 13:46:39.7  -0.6                          T                                        4673894
SSF   003.23 263.5 m E Sn      2011/04/14 13:47:17.3   0.0                          T                1.0  .30 Ml 2.1         4673892
AVF   003.39 259.2 m E Pn      2011/04/14 13:46:42.2  -0.2                          T                                        4673889
AVF   003.39 259.2 m E Sn      2011/04/14 13:47:21.0  -0.1                          T                 .5  .26 Ml 1.8         4673887

.
EVENT     258296
    Date      Time       Latitude Longitude    Depth    Ndef Nsta Gap    Mag1  N    Mag2  N    Mag3  N   Author         ID
       rms   OT_Error      Smajor Sminor Az        Err   mdist  Mdist     Err        Err        Err      Quality

2011/04/14 15:38:29.2     42.7170     .3730      2.0       6    3 220  Ml 1.3  1  Md 1.3  2              js067245    258296

      0.09   +-  0.08       2.1     .9  174.64 +-  0.0    0.31   1.49   +-         +-0.2                 m i ke

PYRENEES
Sta     Dist  EvAz     Phase      Date       Time     TRes  Azim  AzRes  Slow  SRes Def   SNR       Amp   Per   Mag1   Mag2       ID
EPF   000.31 355.6 m E Pg      2011/04/14 15:38:35.4   0.0                          T                                        4673916
EPF   000.31 355.6 m E Sg      2011/04/14 15:38:39.6   0.0                          T               12.7  .25        Md 1.5  4673915
ETSF  000.71 285.1 m E Pg      2011/04/14 15:38:42.8   0.1                          T                                        4674039
ETSF  000.71 285.1 m E Sg      2011/04/14 15:38:51.7  -0.2                          T                1.9  .50        Md 1.2  4674040
MTLF  001.49 064.6 m E Pg      2011/04/14 15:38:56.9  -0.1                          T                                        4674038
MTLF  001.49 064.6 m E Sg      2011/04/14 15:39:16.3   0.0                          T                 .4  .21 Ml 1.3         4673914

.
EVENT     258306
    Date      Time       Latitude Longitude    Depth    Ndef Nsta Gap    Mag1  N    Mag2  N    Mag3  N   Author         ID
       rms   OT_Error      Smajor Sminor Az        Err   mdist  Mdist     Err        Err        Err      Quality

2011/04/14 15:49:13.9     48.0740    8.0688     19.0 f     9    4 064  Ml 1.5  3  Md 1.4  2              js067245    258306

      0.21   +-  0.04        .8     .8  164.22 +-  0.0    0.16   1.64   +-0.1      +-0.1                 m i ke

GERMANY
Sta     Dist  EvAz     Phase      Date       Time     TRes  Azim  AzRes  Slow  SRes Def   SNR       Amp   Per   Mag1   Mag2       ID
CDF   000.63 302.9 m E Pg      2011/04/14 15:49:25.8  -0.5                          T                                        4674045
CDF   000.63 302.9 m E Sg      2011/04/14 15:49:34.6  -0.2                          T                3.6  .18        Md 1.5  4674046
HINF  000.86 253.0 m E Pg      2011/04/14 15:49:30.3  -0.1                          T                                        4674043
HINF  000.86 253.0 m E Sg      2011/04/14 15:49:41.7  -0.1                          T                1.0  .24 Ml 1.4 Md 1.3  4674044
HAU   001.16 267.2 m E Sg      2011/04/14 15:49:51.0   0.0                          T                1.5  .19 Ml 1.5         4674042
PAGF  001.64 288.0 m E Sg      2011/04/14 15:50:05.9   0.1                          T                 .9  .38 Ml 1.5         4674041

.
EVENT     258297
    Date      Time       Latitude Longitude    Depth    Ndef Nsta Gap    Mag1  N    Mag2  N    Mag3  N   Author         ID
       rms   OT_Error      Smajor Sminor Az        Err   mdist  Mdist     Err        Err        Err      Quality

2011/04/14 16:03:06.1     44.6108    1.4511       .0 f    36   11 095  Ml 2.1 11  Md 1.9  3              js067245    258297

      0.22   +-  0.04        .9     .6   97.84 +-  0.0    0.54   3.14   +-0.2      +-0.1                 m i km

FRANCE
Sta     Dist  EvAz     Phase      Date       Time     TRes  Azim  AzRes  Slow  SRes Def   SNR       Amp   Per   Mag1   Mag2       ID
CAF   000.54 054.0 m E Pg      2011/04/14 16:03:16.5  -0.1                          T                                        4673957
CAF   000.54 054.0 m E Sg      2011/04/14 16:03:24.0   0.0                          T                7.8  .25        Md 1.9  4673951
LFF   000.60 303.2 m E Pg      2011/04/14 16:03:17.9   0.1                          T                                        4673942
LFF   000.60 303.2 m E Sg      2011/04/14 16:03:25.9   0.0                          T                3.4  .19        Md 1.9  4673945
RJF   000.70 003.8 m E Pg      2011/04/14 16:03:19.8   0.3                          T                                        4673943
RJF   000.70 003.8 m E Sg      2011/04/14 16:03:28.8   0.0                          T                2.4  .19        Md 1.7  4673944
MTLF  001.38 156.2 m E Pn      2011/04/14 16:03:31.1  -0.1                          T                                        4673931
MTLF  001.38 156.2 m E Pg      2011/04/14 16:03:32.4   0.2                          T                                        4673956
MTLF  001.38 156.2 m E Sg      2011/04/14 16:03:50.4   0.1                          T                2.2  .25 Ml 1.9         4673950
TCF   001.76 017.4 m E Pn      2011/04/14 16:03:36.0  -0.3                          T                                        4673925
TCF   001.76 017.4 m E Pg      2011/04/14 16:03:39.4   0.3                          T                                        4673954
TCF   001.76 017.4 m E Sg      2011/04/14 16:04:02.1   0.0                          T                2.5  .29 Ml 2.1         4673953
EPF   001.77 207.4 m E Pn      2011/04/14 16:03:36.3  -0.2                          T                                        4673930
EPF   001.77 207.4 m E Pg      2011/04/14 16:03:39.3  -0.2                          T                                        4673947
EPF   001.77 207.4 m E Sg      2011/04/14 16:04:02.4  -0.1                          T                 .8  .25 Ml 1.7         4673946
LASF  001.81 106.4 m E Pn      2011/04/14 16:03:37.1   0.2                          T                                        4673932
LASF  001.81 106.4 m E Pg      2011/04/14 16:03:40.3   0.3                          T                                        4673948
LASF  001.81 106.4 m E Sg      2011/04/14 16:04:03.4  -0.2                          T                2.0  .29 Ml 2.0         4673949
BGF   002.18 026.2 m E Pn      2011/04/14 16:03:41.9  -0.2                          T                                        4673928
BGF   002.18 026.2 m E Pg      2011/04/14 16:03:47.1   0.2                          T                                        4673941
BGF   002.18 026.2 m E Sg      2011/04/14 16:04:15.0  -0.2                          T                7.3  .38 Ml 2.5         4673936
VIVF  002.31 082.8 m E Pn      2011/04/14 16:03:43.7  -0.2                          T                                        4673933
VIVF  002.31 082.8 m E Pg      2011/04/14 16:03:49.3   0.0                          T                                        4673934
VIVF  002.31 082.8 m E Sg      2011/04/14 16:04:19.1  -0.1                          T                2.7  .46 Ml 2.0         4673935
SSF   002.84 029.6 m E Pn      2011/04/14 16:03:51.1   0.0                          T                                        4673927
SSF   002.84 029.6 m E Pg      2011/04/14 16:03:59.2   0.2                          T                                        4673939
SSF   002.84 029.6 m E Sg      2011/04/14 16:04:35.8   0.0                          T                1.8  .39 Ml 2.2         4673937
LOR   003.14 031.4 m E Pn      2011/04/14 16:03:55.1  -0.1                          T                                        4673926
LOR   003.14 031.4 m E Pg      2011/04/14 16:04:04.7   0.0                          T                                        4673940
LOR   003.14 031.4 m E Sg      2011/04/14 16:04:45.2   0.0                          T                2.4  .43 Ml 2.2         4673938

.
EVENT     258298
    Date      Time       Latitude Longitude    Depth    Ndef Nsta Gap    Mag1  N    Mag2  N    Mag3  N   Author         ID
       rms   OT_Error      Smajor Sminor Az        Err   mdist  Mdist     Err        Err        Err      Quality

2011/04/14 17:00:10.3     46.5624    9.3466      7.0 f    23    7 095  Ml 1.9  7                         js067245    258298

      0.20   +-  0.04       1.0     .8   16.41 +-  0.0    0.09   2.58   +-0.1                            m i ke

SWITZERLAND
Sta     Dist  EvAz     Phase      Date       Time     TRes  Azim  AzRes  Slow  SRes Def   SNR       Amp   Per   Mag1   Mag2       ID
HINF  002.11 307.3 m E Pn      2011/04/14 17:00:44.4   0.0                          T                                        4674063
HINF  002.11 307.3 m E P       2011/04/14 17:00:46.7   0.0                          T                                        4674062
HINF  002.11 307.3 m E Pg      2011/04/14 17:00:49.9   0.3                          T                                        4674061
HINF  002.11 307.3 m E Sn      2011/04/14 17:01:09.7   0.4                          T                                        4674050
HINF  002.11 307.3 m E Sg      2011/04/14 17:01:16.9   0.1                          T                  1  .18 Ml 2.0         4674049
CABF  002.25 272.4 m E Pn      2011/04/14 17:00:46.2   0.0                          T                                        4674060
CABF  002.25 272.4 m E Pg      2011/04/14 17:00:52.2   0.1                          T                                        4674059
CABF  002.25 272.4 m E Sg      2011/04/14 17:01:21.4   0.3                          T                2.1  .30 Ml 2.1         4674048
LPG   002.10 240.4 m E Pg      2011/04/14 17:00:49.4  -0.3                          T                                        4674058
LPG   002.10 240.4 m E Sg      2011/04/14 17:01:16.9   0.2                          T                1.0  .30 Ml 1.8         4674053
CDF   002.32 323.6 m E P       2011/04/14 17:00:49.5  -0.3                          T                                        4674066
CDF   002.32 323.6 m E Sn      2011/04/14 17:01:14.6   0.2                          T                                        4674067
CDF   002.32 323.6 m E Sg      2011/04/14 17:01:23.5   0.0                          T                1.1  .27 Ml 2.0         4674047
HAU   002.50 306.4 m E Pn      2011/04/14 17:00:49.5  -0.1                          T                                        4674065
HAU   002.50 306.4 m E P       2011/04/14 17:00:52.2   0.0                          T                                        4674064
HAU   002.50 306.4 m E Sn      2011/04/14 17:01:18.7   0.2                          T                                        4674052
HAU   002.50 306.4 m E Sg      2011/04/14 17:01:28.9   0.0                          T                1.1  .19 Ml 1.9         4674051
LPL   002.10 241.1 m E Pg      2011/04/14 17:00:49.6   0.0                          T                                        4674057
LPL   002.10 241.1 m E Sg      2011/04/14 17:01:16.9   0.3                          T                1.6  .32 Ml 1.9         4674054
MBDF  002.58 225.5 m E Pg      2011/04/14 17:00:58.1  -0.1                          T                                        4674056
MBDF  002.58 225.5 m E Sg      2011/04/14 17:01:31.3  -0.1                          T                1.1  .30 Ml 1.9         4674055

.
EVENT     258300
    Date      Time       Latitude Longitude    Depth    Ndef Nsta Gap    Mag1  N    Mag2  N    Mag3  N   Author         ID
       rms   OT_Error      Smajor Sminor Az        Err   mdist  Mdist     Err        Err        Err      Quality

2011/04/14 18:46:45.3     44.8332    6.6875      2.0      21    8 091  Ml 2.3  5  Md 2.3  1              js067245    258300

      0.22   +-  0.05       1.3     .9   75.62 +-  0.0    0.12   1.50   +-0.3      +-                    m i ke

FRANCE
Sta     Dist  EvAz     Phase      Date       Time     TRes  Azim  AzRes  Slow  SRes Def   SNR       Amp   Per   Mag1   Mag2       ID
MBDF  000.12 150.6 m E Pg      2011/04/14 18:46:47.8  -0.3                          T                                        4674081
MBDF  000.12 150.6 m E Sg      2011/04/14 18:46:49.9   0.0                          T               37.7  .18        Md 2.3  4674082
LPG   000.67 003.9 m E Pg      2011/04/14 18:46:58.1  -0.2                          T                                        4673998
LPG   000.67 003.9 m E Sg      2011/04/14 18:47:07.1   0.1                          T                2.5  .14                4673989
LPL   000.68 002.6 m E Pg      2011/04/14 18:46:58.5   0.0                          T                                        4673997
LPL   000.68 002.6 m E Sg      2011/04/14 18:47:07.2  -0.2                          T                1.9  .18                4673981
SBF   001.11 150.8 m E Pg      2011/04/14 18:47:05.9  -0.2                          T                                        4674077
SBF   001.11 150.8 m E P       2011/04/14 18:47:07.8  -0.1                          T                                        4673993
SBF   001.11 150.8 m E Sg      2011/04/14 18:47:20.4  -0.1                          T                5.9  .20 Ml 2.3         4673983
SMRF  001.17 223.3 m E Pg      2011/04/14 18:47:07.4   0.1                          T                                        4673996
SMRF  001.17 223.3 m E Sg      2011/04/14 18:47:22.7   0.3                          T                1.8  .22 Ml 1.8         4673982
FRF   001.27 181.3 m E Pg      2011/04/14 18:47:09.1   0.1                          T                                        4673995
FRF   001.27 181.3 m E Sg      2011/04/14 18:47:25.6   0.0                          T                8.2  .20 Ml 2.6         4673988
VIVF  001.43 271.6 m E Pn      2011/04/14 18:47:11.1   0.4                          T                                        4674080
VIVF  001.43 271.6 m E Pg      2011/04/14 18:47:11.9  -0.2                          T                                        4674079
VIVF  001.43 271.6 m E Sg      2011/04/14 18:47:30.7   0.1                          T                9.2  .41 Ml 2.4         4674076
LMR   001.50 185.0 m E Pn      2011/04/14 18:47:11.3  -0.2                          T                                        4673994
LMR   001.50 185.0 m E Pg      2011/04/14 18:47:13.1  -0.2                          T                                        4674078
LMR   001.50 185.0 m E Sg      2011/04/14 18:47:32.7   0.0                          T                5.6  .22 Ml 2.5         4673987

.
