EVENT     300471
    Date      Time       Latitude Longitude    Depth    Ndef Nsta Gap    Mag1  N    Mag2  N    Mag3  N   Author         ID
       rms   OT_Error      Smajor Sminor Az        Err   mdist  Mdist     Err        Err        Err      Quality

2013/06/08 03:06:04.7     47.7788    7.8861     20.0 f   138   33 036  Ml 2.5 31  Md 2.9  3              bulletin    300571
                                                                                                         _ldg
      0.69   +-  0.05       1.3    1.0   16.36 +-  0.0    0.12   7.50   +-0.3      +-0.1                 m i ke

SWITZERLAND
Sta     Dist  EvAz     Phase      Date       Time     TRes  Azim  AzRes  Slow  SRes Def   SNR       Amp   Per   Mag1   Mag2       ID
HINF  000.70 273.5 m E Pn      2013/06/08 03:06:17.7  -0.3                          T                                        5306255
HINF  000.70 273.5 m E Pg      2013/06/08 03:06:18.2  -0.1                          T                                        5308802
HINF  000.70 273.5 m E Sg      2013/06/08 03:06:26.4  -1.3                          T               64.6  .18        Md 3.0  5306248
CDF   000.75 327.4 m E Pn      2013/06/08 03:06:18.9   0.1                          T                                        5306256
CDF   000.75 327.4 m E Sg      2013/06/08 03:06:29.0  -0.5                          T               39.3  .24        Md 2.9  5306252
HAU   001.06 282.9 m E Pn      2013/06/08 03:06:22.9   0.0                          T                                Md 2.8  5306337
HAU   001.06 282.9 m E Pg      2013/06/08 03:06:24.9   0.1                          T                                        5306254
HAU   001.06 282.9 m E Sn      2013/06/08 03:06:35.8  -0.3                          T                                        5306606
HAU   001.06 282.9 m E Sg      2013/06/08 03:06:38.7  -0.1                          T               48.8  .21 Ml 3.0         5306247
PAGF  001.64 299.0 m E Pn      2013/06/08 03:06:31.2   0.4                          T                                        5306609
PAGF  001.64 299.0 m E Pg      2013/06/08 03:06:35.6   0.2 121.7  4.3               T                                        5306281
PAGF  001.64 299.0 m E Sn      2013/06/08 03:06:49.5  -0.5 120.4  3.0               T                                        5306336
PAGF  001.64 299.0 m E Sg      2013/06/08 03:06:57.0   0.3 117.6  0.2               T               25.5  .20 Ml 3.2         5306251
CABF  001.69 227.1 m E Pn      2013/06/08 03:06:31.5  -0.1                          T                                        5306605
CABF  001.69 227.1 m E Pg      2013/06/08 03:06:36.4   0.0                          T                                        5306253
CABF  001.69 227.1 m E Sn      2013/06/08 03:06:51.2  -0.1                          T                                        5306604
CABF  001.69 227.1 m E Sg      2013/06/08 03:06:59.2   0.7                          T                9.4  .22 Ml 2.8         5306246
SFTF  001.96 283.6 m E Pn      2013/06/08 03:06:35.5   0.3 105.9  4.4               T                                        5306257
SFTF  001.96 283.6 m E Pg      2013/06/08 03:06:41.4   0.1 104.5  3.0               T                                        5306258
SFTF  001.96 283.6 m E Sn      2013/06/08 03:06:57.1  -0.5                          T                                        5306607
SFTF  001.96 283.6 m E Sg      2013/06/08 03:07:07.0   0.4                          T               17.4  .21 Ml 3.1         5306249
MEZF  002.03 291.9 m E Pn      2013/06/08 03:06:36.2   0.1                          T                                        5306260
MEZF  002.03 291.9 m E Pg      2013/06/08 03:06:42.9   0.4 112.9  3.1               T                                        5306259
MEZF  002.03 291.9 m E Sn      2013/06/08 03:06:58.4  -0.9                          T                                        5306608
MEZF  002.03 291.9 m E Sg      2013/06/08 03:07:09.3   0.5                          T                8.6  .28 Ml 2.7         5306250
LPL   002.40 199.8 m E Pn      2013/06/08 03:06:40.7  -0.7                          T                                        5306586
LPL   002.40 199.8 m E Pg      2013/06/08 03:06:50.0   0.5                          T                                        5306585
LPL   002.40 199.8 m E Sn      2013/06/08 03:07:07.6  -0.8                          T                                        5306584
LPL   002.40 199.8 m E Sg      2013/06/08 03:07:20.5   0.0                          T                3.8  .37 Ml 2.3         5306287
LPG   002.41 199.3 m E Pn      2013/06/08 03:06:41.5  -0.2                          T                                        5306288
LPG   002.41 199.3 m E Pg      2013/06/08 03:06:50.7   0.8                          T                                        5306289
LPG   002.41 199.3 m E Sg      2013/06/08 03:07:21.4   0.4                          T                2.7  .30 Ml 2.3         5306290
LOR   002.78 260.9 m E Pn      2013/06/08 03:06:46.7   0.5                          T                                        5306277
LOR   002.78 260.9 m E Pg      2013/06/08 03:06:56.6   0.4                          T                                        5306276
LOR   002.78 260.9 m E Sg      2013/06/08 03:07:31.6  -0.4                          T                5.9  .20 Ml 2.9         5306275
SMF   002.98 249.1 m E Pn      2013/06/08 03:06:49.6   0.5                          T                                        5306271
SMF   002.98 249.1 m E Pg      2013/06/08 03:07:00.7   0.6                          T                                        5306270
SMF   002.98 249.1 m E Sn      2013/06/08 03:07:21.3  -0.8                          T                                        5306592
SMF   002.98 249.1 m E Sg      2013/06/08 03:07:38.8   0.4                          T                5.7  .30 Ml 2.7         5306269
GIVF  003.08 320.2 m E Pn      2013/06/08 03:06:49.6  -0.7                          T                                        5306610
GIVF  003.08 320.2 m E Sn      2013/06/08 03:07:23.0  -1.4                          T                                        5306611
GIVF  003.08 320.2 m E Sg      2013/06/08 03:07:41.2  -0.2                          T                5.1  .31 Ml 2.7         5306335
SSF   003.06 258.0 m E Pn      2013/06/08 03:06:50.7   0.6                          T                                        5306278
SSF   003.06 258.0 m E Pg      2013/06/08 03:07:02.1   0.6                          T                                        5306279
SSF   003.06 258.0 m E Sg      2013/06/08 03:07:41.2   0.4                          T                2.3  .22 Ml 2.6         5306280
AVF   003.24 253.9 m E Pn      2013/06/08 03:06:52.8   0.3                          T                                        5306265
AVF   003.24 253.9 m E Pg      2013/06/08 03:07:05.6   0.9                          T                                        5306264
AVF   003.24 253.9 m E Sg      2013/06/08 03:07:46.6   0.2                          T                1.2  .26 Ml 2.1         5306263
BAIF  003.33 314.6 m E Pn      2013/06/08 03:06:53.2  -0.6                          T                                        5306272
BAIF  003.33 314.6 m E P       2013/06/08 03:06:56.2  -0.9                          T                                        5306612
BAIF  003.33 314.6 m E Sn      2013/06/08 03:07:29.6  -0.7                          T                                        5306273
BAIF  003.33 314.6 m E Sg      2013/06/08 03:07:49.6   0.4                          T                2.3  .33 Ml 2.3         5306274
HYF   003.59 263.8 m E Pn      2013/06/08 03:06:57.5   0.1                          T                                        5306591
HYF   003.59 263.8 m E Pg      2013/06/08 03:07:11.1  -0.2                          T                                        5308801
HYF   003.59 263.8 m E Sg      2013/06/08 03:07:57.6   0.2                          T                                        5306334
VIVF  003.67 218.5 m E Pn      2013/06/08 03:06:57.7  -0.8                          T                                        5306589
VIVF  003.67 218.5 m E Pg      2013/06/08 03:07:13.8   1.0                          T                                        5306294
VIVF  003.67 218.5 m E Sn      2013/06/08 03:07:38.7   0.1                          T                                        5306284
VIVF  003.67 218.5 m E Sg      2013/06/08 03:07:59.3  -0.7                          T                2.6  .24 Ml 2.6         5306285
BGF   003.65 252.3 m E Pn      2013/06/08 03:06:57.9  -0.2                          T                                        5306266
BGF   003.65 252.3 m E Pg      2013/06/08 03:07:12.3   0.1                          T                                        5306267
BGF   003.65 252.3 m E Sg      2013/06/08 03:07:59.8   0.6                          T                5.7  .37 Ml 2.8         5306268
SBF   003.93 184.8 m E Pn      2013/06/08 03:07:01.9  -0.2                          T                                        5306580
SBF   003.93 184.8 m E Sn      2013/06/08 03:07:44.5  -0.3                          T                1.8  .26 Ml 2.5         5306579
ORIF  003.18 206.6 m E Pg      2013/06/08 03:07:03.8   0.0                          T                                        5306344
ORIF  003.18 206.6 m E Sn      2013/06/08 03:07:26.0  -0.9                          T                                        5306587
ORIF  003.18 206.6 m E Sg      2013/06/08 03:07:45.3   0.6                          T                2.7  .24 Ml 2.5         5306286
SMRF  004.13 203.8 m E Pn      2013/06/08 03:07:04.7  -0.1                          T                                        5306583
SMRF  004.13 203.8 m E Sn      2013/06/08 03:07:49.6   0.1                          T                 .9  .26 Ml 2.2         5306293
TCF   004.16 251.1 m E Pn      2013/06/08 03:07:05.1   0.0                          T                                        5306261
TCF   004.16 251.1 m E Sn      2013/06/08 03:07:50.4   0.2                          T                 .8  .29 Ml 2.1         5306593
TCF   004.16 251.1 m E Sg      2013/06/08 03:08:14.5  -0.6                          T                 .9  .22 Ml 2.3         5306262
FRF   004.31 192.1 m E Pn      2013/06/08 03:07:06.9  -0.2                          T                                        5306582
FRF   004.31 192.1 m E Sn      2013/06/08 03:07:53.7   0.0                          T                 .4  .20 Ml 2.1         5306292
LMR   004.55 192.8 m E Pn      2013/06/08 03:07:09.6  -0.8                          T                                        5306581
LMR   004.55 192.8 m E Sn      2013/06/08 03:07:59.1  -0.4                          T                 .4  .24 Ml 2.0         5306291
LASF  004.65 218.7 m E Pn      2013/06/08 03:07:10.9  -0.9                          T                                        5306590
LASF  004.65 218.7 m E Sn      2013/06/08 03:08:02.2   0.3                          T                                        5306283
LASF  004.65 218.7 m E Sg      2013/06/08 03:08:31.6   1.2                          T                1.3  .36 Ml 2.4         5306282
LDF   005.42 281.6 m E Pn      2013/06/08 03:07:22.2   0.0                          T                                        5306602
LDF   005.42 281.6 m E Sg      2013/06/08 03:08:55.8   1.4                          T                 .8  .22 Ml 2.5         5306601
MFF   005.60 260.8 m E Pn      2013/06/08 03:07:24.9   0.2                          T                                        5306346
MFF   005.60 260.8 m E Sn      2013/06/08 03:08:23.8  -0.8                          T                 .3  .24 Ml 2.3         5306345
FLN   005.67 283.1 m E Pn      2013/06/08 03:07:25.4  -0.3 101.4  4.5               T                                        5306603
MBDF  003.15 194.6 m E Sn      2013/06/08 03:07:26.7   0.5                          T                 .8  .21 Ml 2.1         5306588
GRR   005.89 279.2 m E Pn      2013/06/08 03:07:28.2  -0.4                          T                                        5306600
GRR   005.89 279.2 m E Sn      2013/06/08 03:08:29.7  -1.8                          T                 .5  .20 Ml 2.3         5306599
SGMF  007.02 277.7 m E Pn      2013/06/08 03:07:44.6   0.6                          T                                        5306596
QUIF  007.44 275.1 m E Pn      2013/06/08 03:07:49.3  -0.4                          T                                        5306595
QUIF  007.44 275.1 m E Sn      2013/06/08 03:09:07.3  -1.2                          T                 .1  .15 Ml 2.1         5306594
ROSF  007.50 278.4 m E Pn      2013/06/08 03:07:49.8  -0.7                          T                                        5306598
ROSF  007.50 278.4 m E Sn      2013/06/08 03:09:08.5  -1.5                          T                 .9  .33 Ml 2.8         5306597

.
EVENT     300472
    Date      Time       Latitude Longitude    Depth    Ndef Nsta Gap    Mag1  N    Mag2  N    Mag3  N   Author         ID
       rms   OT_Error      Smajor Sminor Az        Err   mdist  Mdist     Err        Err        Err      Quality

2013/06/08 04:04:16.5     42.9500   -1.1009      2.0      16    5 077  Ml 1.8  3  Md 1.8  2              bulletin    300572
                                                                                                         _ldg
      0.39   +-  0.09       2.0    1.5     .33 +-  0.0    0.19   2.46   +-0.1      +-0.1                 m i ke

PYRENEES
Sta     Dist  EvAz     Phase      Date       Time     TRes  Azim  AzRes  Slow  SRes Def   SNR       Amp   Per   Mag1   Mag2       ID
SJPF  000.19 330.9 m E Pg      2013/06/08 04:04:20.3   0.0                          T                                        5306352
SJPF  000.19 330.9 m E Sg      2013/06/08 04:04:23.9   1.0                          T               16.3  .24        Md 1.9  5306351
ETSF  000.40 097.2 m E Pg      2013/06/08 04:04:23.9  -0.4                          T                                        5306350
ETSF  000.40 097.2 m E Sg      2013/06/08 04:04:29.8   0.1                          T                6.8  .26        Md 1.7  5306349
EPF   001.06 085.2 m E Pg      2013/06/08 04:04:35.9  -0.6                          T                                        5306348
EPF   001.06 085.2 m E Sg      2013/06/08 04:04:50.2   0.1                          T                1.6  .20 Ml 1.8         5306347
LFF   002.39 033.1 m E Sg      2013/06/08 04:05:31.5  -0.1                          T                2.3  .37 Ml 1.9         5308816
MTLF  002.46 079.7 m E Sg      2013/06/08 04:05:33.4  -0.4                          T                1.0  .31 Ml 1.8         5308815

.
EVENT     300513
    Date      Time       Latitude Longitude    Depth    Ndef Nsta Gap    Mag1  N    Mag2  N    Mag3  N   Author         ID
       rms   OT_Error      Smajor Sminor Az        Err   mdist  Mdist     Err        Err        Err      Quality

2013/06/08 05:14:16.8     40.1042    -.7421     10.0 f    25    3 135  Ml 2.2  3                         bulletin    300613
                                                                                                         _ldg
      0.72   +-  0.13       3.5    1.8  124.11 +-  0.0    0.33   3.92   +-0.2                            m i ke

SPAIN
Sta     Dist  EvAz     Phase      Date       Time     TRes  Azim  AzRes  Slow  SRes Def   SNR       Amp   Per   Mag1   Mag2       ID
ETSF  002.80 002.8 m E P       2013/06/08 05:15:02.5  -0.2                          T                                        5308821
ETSF  002.80 002.8 m E Sg      2013/06/08 05:15:44.8   0.0                          T                1.3  .23 Ml 2.1         5308818
EPF   003.03 015.2 m E Pg      2013/06/08 05:15:13.4   0.2                          T                                        5308820
EPF   003.03 015.2 m E Sg      2013/06/08 05:15:51.9  -0.3                          T                2.7  .26 Ml 2.4         5308819
MTLF  003.92 033.4 m E Sg      2013/06/08 05:16:19.8   0.1                          T                 .8  .28 Ml 2.1         5308817

.
EVENT     300473
    Date      Time       Latitude Longitude    Depth    Ndef Nsta Gap    Mag1  N    Mag2  N    Mag3  N   Author         ID
       rms   OT_Error      Smajor Sminor Az        Err   mdist  Mdist     Err        Err        Err      Quality

2013/06/08 05:23:48.6     40.0981    -.7312     10.0 f    35    3 068  Ml 2.5  3                         bulletin    300573
                                                                                                         _ldg
      0.83   +-  0.14       3.4    2.0  127.29 +-  0.0    0.33   4.91   +-0.2                            m i ke

SPAIN
Sta     Dist  EvAz     Phase      Date       Time     TRes  Azim  AzRes  Slow  SRes Def   SNR       Amp   Per   Mag1   Mag2       ID
ETSF  002.80 002.6 m E Pn      2013/06/08 05:24:32.4   0.7                          T                                        5306400
ETSF  002.80 002.6 m E Sn      2013/06/08 05:25:04.9   1.3                          T                2.5  .24 Ml 2.4         5306399
SJPF  003.04 353.2 m E Pn      2013/06/08 05:24:35.5   0.7                          T                                        5306398
SJPF  003.04 353.2 m E Sn      2013/06/08 05:25:11.1   2.1                          T                2.1  .28 Ml 2.3         5306397
EPF   003.04 015.0 m E Pg      2013/06/08 05:24:44.7  -0.3                          T                                        5306354
EPF   003.04 015.0 m E Sg      2013/06/08 05:25:23.0  -1.0                          T                4.0  .24 Ml 2.7         5306353

.
EVENT     300474
    Date      Time       Latitude Longitude    Depth    Ndef Nsta Gap    Mag1  N    Mag2  N    Mag3  N   Author         ID
       rms   OT_Error      Smajor Sminor Az        Err   mdist  Mdist     Err        Err        Err      Quality

2013/06/08 06:44:07.5     43.0668    -.6519      2.0       6    3 176             Md 1.2  2              bulletin    300574
                                                                                                         _ldg
      0.22   +-  0.12       4.2    2.1   14.41 +-  0.0    0.18   0.73              +-0.1                 m i ke

PYRENEES
Sta     Dist  EvAz     Phase      Date       Time     TRes  Azim  AzRes  Slow  SRes Def   SNR       Amp   Per   Mag1   Mag2       ID
ETSF  000.18 157.9 m E Pg      2013/06/08 06:44:11.3   0.0                          T                                        5306406
ETSF  000.18 157.9 m E Sg      2013/06/08 06:44:13.9   0.1                          T               16.4  .24        Md 1.3  5306405
SJPF  000.42 276.5 m E Pg      2013/06/08 06:44:15.6   0.0                          T                                        5306404
SJPF  000.42 276.5 m E Sg      2013/06/08 06:44:21.5   0.3                          T                7.9  .29        Md 1.2  5306403
EPF   000.73 092.5 m E Pg      2013/06/08 06:44:21.1  -0.2                          T                                        5306402
EPF   000.73 092.5 m E Sg      2013/06/08 06:44:31.4   0.6                          T                1.9  .27                5306401

.
