EVENT     266462
    Date      Time       Latitude Longitude    Depth    Ndef Nsta Gap    Mag1  N    Mag2  N    Mag3  N   Author         ID
       rms   OT_Error      Smajor Sminor Az        Err   mdist  Mdist     Err        Err        Err      Quality

2011/11/18 18:23:04.9     46.5258    8.2392     25.0      25   14 211  Ml 2.5 13  Md 3.0  2              js067245    266482

      1.62   +-  0.78      15.0    6.2   86.95 +-  0.0    1.46   3.30   +-0.2      +-0.0                 m i ke

SWITZERLAND
Sta     Dist  EvAz     Phase      Date       Time     TRes  Azim  AzRes  Slow  SRes Def   SNR       Amp   Per   Mag1   Mag2       ID
CABF  001.49 274.1 m E Pn      2011/11/18 18:23:26.4  -2.0                          T                                        4788836
CABF  001.49 274.1 m E Pg      2011/11/18 18:23:31.6  -1.4                          T                                        4788837
CABF  001.49 274.1 m E Sg      2011/11/18 18:23:54.7   2.3                          T               24.2  .50 Ml 2.7         4788834
LPL   001.46 226.7 m E Pn      2011/11/18 18:23:26.6  -1.6                          T                                        4788839
LPL   001.46 226.7 m E Pg      2011/11/18 18:23:32.8   0.2                          T                                        4788846
LPL   001.46 226.7 m E Sg      2011/11/18 18:23:52.1   0.5                          T               37.4  .64 Ml 2.8 Md 2.9  4788842
LPG   001.46 225.8 m E Pn      2011/11/18 18:23:27.4  -0.9                          T                                        4788838
LPG   001.46 225.8 m E Pg      2011/11/18 18:23:32.8   0.1                          T                                        4788835
LPG   001.46 225.8 m E Sg      2011/11/18 18:23:52.5   0.7                          T               11.8  .40 Ml 2.5 Md 3.0  4788845
MBDF  002.07 210.3 m E Pn      2011/11/18 18:23:37.3   0.8                          T                                        4788844
MBDF  002.07 210.3 m E Pg      2011/11/18 18:23:44.0   0.2                          T                                        4789096
MBDF  002.07 210.3 m E Sg      2011/11/18 18:24:13.6   3.0                          T               13.6  .62 Ml 2.6         4788843
CDF   002.00 341.3 m E Pg      2011/11/18 18:23:41.9  -0.4                          T                                        4789097
CDF   002.00 341.3 m E Sg      2011/11/18 18:24:10.3   2.1                          T                3.5  .37 Ml 2.3         4789098
ORIF  002.31 226.6 m E Pg      2011/11/18 18:23:48.3   0.3                          T                                        4788841
ORIF  002.31 226.6 m E Sg      2011/11/18 18:24:20.1   2.4                          T                6.4  .45 Ml 2.4         4788840
PAGF  002.65 320.9 m E Pg      2011/11/18 18:23:55.7   1.6                          T                                        4789091
PAGF  002.65 320.9 m E Sg      2011/11/18 18:24:31.7   3.3                          T                3.3  .52 Ml 2.1         4789092
HINF  001.60 324.3 m E Sg      2011/11/18 18:23:57.7   1.9                          T               15.0  .62 Ml 2.5         4788833
HAU   001.96 319.7 m E Sg      2011/11/18 18:24:07.0   0.0                          T               10.8  .51 Ml 2.3         4789094
THEF  002.29 319.0 m E Sg      2011/11/18 18:24:16.6  -0.5                          T               11.2  .51 Ml 2.6         4789093
SBF   002.72 192.3 m E Sg      2011/11/18 18:24:30.6  -0.1                          T               10.8  .52 Ml 2.7         4788830
VIVF  003.01 237.5 m E S       2011/11/18 18:24:30.9   3.0                          T                                        4789095
LOR   003.09 285.5 m E Sg      2011/11/18 18:24:38.9  -3.3                          T                8.3  .64 Ml 2.6         4788832
SSF   003.30 281.1 m E Sg      2011/11/18 18:24:45.5  -2.9                          T                3.4  .42 Ml 2.5         4788831

.
EVENT     266463
    Date      Time       Latitude Longitude    Depth    Ndef Nsta Gap    Mag1  N    Mag2  N    Mag3  N   Author         ID
       rms   OT_Error      Smajor Sminor Az        Err   mdist  Mdist     Err        Err        Err      Quality

2011/11/18 19:21:16.9     43.7989    8.4107      5.0 f    21    7 211  Ml 1.9  5  Md 2.1  3              js067245    266483

      0.50   +-  0.15       3.6    1.7   41.34 +-  0.0    0.71   2.13   +-0.2      +-0.1                 m i ke

CORSICA, FRANCE
Sta     Dist  EvAz     Phase      Date       Time     TRes  Azim  AzRes  Slow  SRes Def   SNR       Amp   Per   Mag1   Mag2       ID
SBF   000.71 275.5 m E Pg      2011/11/18 19:21:31.2   0.8                          T                                        4788856
SBF   000.71 275.5 m E Sg      2011/11/18 19:21:40.3   0.6                          T               10.9  .18        Md 2.1  4788855
FRF   001.30 260.1 m E Pn      2011/11/18 19:21:40.3   0.2                          T                                        4788868
FRF   001.30 260.1 m E Pg      2011/11/18 19:21:41.1  -0.1                          T                                        4788854
FRF   001.30 260.1 m E Sn      2011/11/18 19:21:57.1   0.2                          T                                        4788865
FRF   001.30 260.1 m E Sg      2011/11/18 19:21:58.1   0.0                          T                2.1  .19 Ml 2.0 Md 2.2  4788853
PGF   001.32 160.8 m E Pn      2011/11/18 19:21:40.7   0.2                          T                                        4788847
PGF   001.32 160.8 m E Sn      2011/11/18 19:21:57.0  -0.5                          T                1.1  .22 Ml 1.9 Md 2.1  4788867
LMR   001.46 252.1 m E Pn      2011/11/18 19:21:41.1  -1.1                          T                                        4788848
LMR   001.46 252.1 m E Sn      2011/11/18 19:22:00.0  -0.6                          T                                        4788864
LMR   001.46 252.1 m E Sg      2011/11/18 19:22:02.7  -0.2                          T                                        4788863
MBDF  001.50 308.8 m E Pg      2011/11/18 19:21:45.2   0.1                          T                                        4788858
MBDF  001.50 308.8 m E Sg      2011/11/18 19:22:05.0   0.6                          T                3.6  .41 Ml 2.0         4788857
SMRF  002.06 275.9 m E P       2011/11/18 19:21:52.7   0.0                          T                                        4788866
SMRF  002.06 275.9 m E Pg      2011/11/18 19:21:55.2   0.0                          T                                        4788850
SMRF  002.06 275.9 m E Sg      2011/11/18 19:22:22.4   0.7                          T                2.7  .36 Ml 2.1         4788849
ORIF  002.13 302.5 m E Pg      2011/11/18 19:21:56.6  -0.1                          T                                        4788852

.
EVENT     266464
    Date      Time       Latitude Longitude    Depth    Ndef Nsta Gap    Mag1  N    Mag2  N    Mag3  N   Author         ID
       rms   OT_Error      Smajor Sminor Az        Err   mdist  Mdist     Err        Err        Err      Quality

2011/11/18 19:42:42.4     43.8285    7.8062      5.0 f     9    5 282  Ml 1.6  4  Md 1.5  2              js067245    266484

      0.26   +-  0.38       6.5    3.3  105.65 +-  0.0    0.27   1.62   +-0.4      +-0.0                 m i ke

NEAR SOUTH COAST OF FRANCE
Sta     Dist  EvAz     Phase      Date       Time     TRes  Azim  AzRes  Slow  SRes Def   SNR       Amp   Per   Mag1   Mag2       ID
SBF   000.27 277.5 m E Pg      2011/11/18 19:42:47.8  -0.1                          T                                        4788875
SBF   000.27 277.5 m E Sg      2011/11/18 19:42:51.5  -0.1                          T               14.9  .20        Md 1.5  4788874
FRF   000.88 252.7 m E Pg      2011/11/18 19:42:59.3   0.3                          T                                        4788873
FRF   000.88 252.7 m E Sg      2011/11/18 19:43:11.0   0.5                          T                2.2  .22 Ml 1.8 Md 1.4  4788871
LMR   001.06 242.8 m E Pg      2011/11/18 19:43:01.9  -0.4                          T                                        4788872
LMR   001.06 242.8 m E Sg      2011/11/18 19:43:16.1   0.0                          T                 .8  .19 Ml 1.5         4788870
MBDF  001.17 320.8 m E Pg      2011/11/18 19:43:04.5   0.1                          T                                        4789121
MBDF  001.17 320.8 m E Sg      2011/11/18 19:43:19.3  -0.2                          T                 .3  .21 Ml 1.1         4789122
SMRF  001.62 276.0 m E Sg      2011/11/18 19:43:33.2  -0.3                          T                1.6  .25 Ml 1.9         4788869

.
EVENT     266465
    Date      Time       Latitude Longitude    Depth    Ndef Nsta Gap    Mag1  N    Mag2  N    Mag3  N   Author         ID
       rms   OT_Error      Smajor Sminor Az        Err   mdist  Mdist     Err        Err        Err      Quality

2011/11/18 20:04:14.8     42.8196    -.2754      2.0       6    3 225             Md 1.2  2              js067245    266485

      0.25   +-  0.52      21.6    2.4  178.89 +-  0.0    0.22   0.76              +-0.1                 m i ke

PYRENEES
Sta     Dist  EvAz     Phase      Date       Time     TRes  Azim  AzRes  Slow  SRes Def   SNR       Amp   Per   Mag1   Mag2       ID
ETSF  000.22 290.8 m E Pg      2011/11/18 20:04:19.0  -0.4                          T                                        4788886
ETSF  000.22 290.8 m E Sg      2011/11/18 20:04:22.4  -0.1                          T                4.3  .20        Md 1.2  4788885
EPF   000.50 064.8 m E Pg      2011/11/18 20:04:24.4   0.0                          T                                        4789184
EPF   000.50 064.8 m E Sg      2011/11/18 20:04:30.5  -0.5                          T                 .9  .27        Md 1.1  4788894
SJPF  000.76 293.2 m E Pg      2011/11/18 20:04:29.2   0.1                          T                                        4789182
SJPF  000.76 293.2 m E Sg      2011/11/18 20:04:39.0   0.1                          T                 .4  .23                4789183

.
EVENT     266466
    Date      Time       Latitude Longitude    Depth    Ndef Nsta Gap    Mag1  N    Mag2  N    Mag3  N   Author         ID
       rms   OT_Error      Smajor Sminor Az        Err   mdist  Mdist     Err        Err        Err      Quality

2011/11/18 22:19:28.4     43.0897    -.5790      2.0      57    7 105  Ml 1.9  3  Md 2.1  3              js067245    266486

      0.53   +-  0.07       1.6    1.0  164.07 +-  0.0    0.09   3.87   +-0.3      +-0.1                 m i ke

PYRENEES
Sta     Dist  EvAz     Phase      Date       Time     TRes  Azim  AzRes  Slow  SRes Def   SNR       Amp   Per   Mag1   Mag2       ID
ETSF  000.19 175.6 m E Pg      2011/11/18 22:19:31.7  -0.6                          T                                        4788900
ETSF  000.19 175.6 m E Sg      2011/11/18 22:19:33.9  -1.1                          T               93.5  .22        Md 2.2  4788899
SJPF  000.47 273.1 m E Pg      2011/11/18 22:19:37.6   0.2                          T                                        4788898
SJPF  000.47 273.1 m E Sg      2011/11/18 22:19:43.8   0.2                          T                7.4  .23        Md 2.0  4788897
EPF   000.68 094.7 m E Pg      2011/11/18 22:19:41.4   0.2                          T                                        4788895
EPF   000.68 094.7 m E Pn      2011/11/18 22:19:43.2  -0.2                          T                                        4788902
EPF   000.68 094.7 m E Sg      2011/11/18 22:19:50.3   0.2                          T                4.7  .22        Md 2.1  4788896
MTLF  002.06 082.0 m E Pn      2011/11/18 22:20:02.0  -0.2                          T                                        4788904
MTLF  002.06 082.0 m E Pg      2011/11/18 22:20:06.8   0.2                          T                                        4788910
MTLF  002.06 082.0 m E Sg      2011/11/18 22:20:33.5   0.3                          T                2.0  .25 Ml 2.1         4788911
LFF   002.08 026.8 m E Pg      2011/11/18 22:20:07.3   0.3                          T                                        4788901
LFF   002.08 026.8 m E Sg      2011/11/18 22:20:34.1   0.3                          T                3.0  .35 Ml 2.0         4788903
CAF   002.65 045.2 m E Pg      2011/11/18 22:20:17.8   0.3                          T                                        4788908
CAF   002.65 045.2 m E Sg      2011/11/18 22:20:51.9   0.4                          T                                        4788907
RJF   002.68 033.5 m E Pg      2011/11/18 22:20:18.3   0.3                          T                                        4788906
RJF   002.68 033.5 m E Sg      2011/11/18 22:20:53.2   0.8                          T                 .8  .19 Ml 1.6         4788909

.
EVENT     266467
    Date      Time       Latitude Longitude    Depth    Ndef Nsta Gap    Mag1  N    Mag2  N    Mag3  N   Author         ID
       rms   OT_Error      Smajor Sminor Az        Err   mdist  Mdist     Err        Err        Err      Quality

2011/11/19 03:12:54.6     43.1365    -.6658      5.0 f    32   10 074  Ml 2.0  7  Md 2.1  3              js067245    266487

      0.49   +-  0.08       1.6    1.3  140.06 +-  0.0    0.06   4.24   +-0.2      +-0.1                 m i ke

PYRENEES
Sta     Dist  EvAz     Phase      Date       Time     TRes  Azim  AzRes  Slow  SRes Def   SNR       Amp   Per   Mag1   Mag2       ID
ETSF  000.25 161.8 m E Pg      2011/11/19 03:12:59.1  -0.6                          T                                        4788924
ETSF  000.25 161.8 m E Sg      2011/11/19 03:13:02.7  -0.5                          T                7.7  .18        Md 2.1  4788915
SJPF  000.41 266.9 m E Pg      2011/11/19 03:13:01.9  -0.7                          T                                        4788923
SJPF  000.41 266.9 m E Sg      2011/11/19 03:13:07.3  -0.7                          T                7.9  .20        Md 2.0  4788922
EPF   000.74 097.9 m E Pg      2011/11/19 03:13:07.7  -1.0                          T                                        4788921
EPF   000.74 097.9 m E Sg      2011/11/19 03:13:18.5   0.0                          T                2.9  .22        Md 2.1  4789470
LFF   002.07 028.9 m E P       2011/11/19 03:13:30.6   0.1                          T                                        4789467
LFF   002.07 028.9 m E Pg      2011/11/19 03:13:33.2   0.1                          T                                        4789475
LFF   002.07 028.9 m E Sn      2011/11/19 03:13:52.9   0.1                          T                                        4789478
LFF   002.07 028.9 m E Sg      2011/11/19 03:14:00.3   0.7                          T                3.3  .30 Ml 2.1         4789468
MTLF  002.12 083.5 m E Pg      2011/11/19 03:13:34.0   0.1                          T                                        4789472
MTLF  002.12 083.5 m E Sg      2011/11/19 03:14:01.5   0.2                          T                 .6  .24 Ml 1.6         4789473
CAF   002.66 046.8 m E Pg      2011/11/19 03:13:44.2   0.2                          T                                        4789476
CAF   002.66 046.8 m E Sn      2011/11/19 03:14:07.0   0.0                          T                                        4789477
CAF   002.66 046.8 m E Sg      2011/11/19 03:14:17.7  -0.5                          T                1.3  .21 Ml 2.1         4789471
RJF   002.68 035.1 m E Pg      2011/11/19 03:13:44.5   0.2                          T                                        4789474
RJF   002.68 035.1 m E Sn      2011/11/19 03:14:07.2  -0.2                          T                                        4789479
RJF   002.68 035.1 m E Sg      2011/11/19 03:14:18.6  -0.1                          T                2.9  .29 Ml 2.0         4789469
BGF   004.24 034.9 m E Pn      2011/11/19 03:13:57.6  -0.1                          T                                        4789466
MFF   003.49 005.9 m E Sg      2011/11/19 03:14:43.9   0.0                          T                 .7  .28 Ml 2.1         4789463
TCF   003.76 032.1 m E Sg      2011/11/19 03:14:52.3  -0.2                          T                1.2  .26 Ml 2.3         4789465

.
EVENT     266468
    Date      Time       Latitude Longitude    Depth    Ndef Nsta Gap    Mag1  N    Mag2  N    Mag3  N   Author         ID
       rms   OT_Error      Smajor Sminor Az        Err   mdist  Mdist     Err        Err        Err      Quality

2011/11/19 06:09:24.5     43.2818   -1.2561     13.0 f    14    3 210  Ml 1.6  1  Md 1.9  2              js067245    266488

      0.25   +-  0.15       2.8    1.4  168.58 +-  0.0    0.17   1.98   +-         +-0.0                 m i ke

PYRENEES
Sta     Dist  EvAz     Phase      Date       Time     TRes  Azim  AzRes  Slow  SRes Def   SNR       Amp   Per   Mag1   Mag2       ID
SJPF  000.17 172.3 m E Pg      2011/11/19 06:09:29.1   0.5                          T                                        4788930
SJPF  000.17 172.3 m E Sg      2011/11/19 06:09:31.4   0.0                          T               12.4  .18        Md 1.9  4788927
ETSF  000.64 126.6 m E Pg      2011/11/19 06:09:37.0   0.2                          T                                        4788929
ETSF  000.64 126.6 m E Sg      2011/11/19 06:09:45.3  -0.1                          T                2.7  .20        Md 1.8  4788928
EPF   001.19 101.6 m E Pg      2011/11/19 06:09:46.9  -0.1                          T                                        4788926
EPF   001.19 101.6 m E Sg      2011/11/19 06:10:02.9   0.4                          T                1.1  .21 Ml 1.6         4788925

.
