EVENT     272369
    Date      Time       Latitude Longitude    Depth    Ndef Nsta Gap    Mag1  N    Mag2  N    Mag3  N   Author         ID
       rms   OT_Error      Smajor Sminor Az        Err   mdist  Mdist     Err        Err        Err      Quality

2012/03/23 17:38:59.5     44.1622    7.2338      2.0      28    7 054  Ml 1.6  4  Md 1.6  2              js067245    272389

      0.25   +-  0.04        .8     .8   40.62 +-  0.0    0.10   1.38   +-0.5      +-0.1                 m i ke

NORTHERN ITALY
Sta     Dist  EvAz     Phase      Date       Time     TRes  Azim  AzRes  Slow  SRes Def   SNR       Amp   Per   Mag1   Mag2       ID
SBF   000.33 154.0 m E Pg      2012/03/23 17:39:06.0   0.0                          T                                        4894797
SBF   000.33 154.0 m E Sg      2012/03/23 17:39:10.6   0.1                          T                7.9  .26        Md 1.5  4894796
MBDF  000.65 329.8 m E Pg      2012/03/23 17:39:11.6  -0.5                          T                                        4894800
MBDF  000.65 329.8 m E Sg      2012/03/23 17:39:20.8   0.2                          T                2.0  .23        Md 1.6  4894793
FRF   000.74 215.4 m E Pg      2012/03/23 17:39:13.2  -0.3                          T                                        4894799
FRF   000.74 215.4 m E Sg      2012/03/23 17:39:23.0   0.0                          T                4.4  .29                4894794
LMR   000.98 212.6 m E Pg      2012/03/23 17:39:17.7  -0.1                          T                                        4894798
LMR   000.98 212.6 m E Sg      2012/03/23 17:39:30.7   0.1                          T                7.1  .20 Ml 2.4         4894795
SMRF  001.21 261.7 m E Sg      2012/03/23 17:39:37.9   0.0                          T                1.1  .21 Ml 1.6         4894790
ORIF  001.23 308.5 m E Sg      2012/03/23 17:39:38.6   0.1                          T                 .7  .25 Ml 1.3         4894792
LPG   001.38 345.8 m E Sg      2012/03/23 17:39:43.5   0.0                          T                 .4  .22 Ml 1.2         4894791

.
EVENT     272370
    Date      Time       Latitude Longitude    Depth    Ndef Nsta Gap    Mag1  N    Mag2  N    Mag3  N   Author         ID
       rms   OT_Error      Smajor Sminor Az        Err   mdist  Mdist     Err        Err        Err      Quality

2012/03/23 20:38:44.2     44.4871    6.6731      2.0      28    9 048  Ml 1.4  6  Md 1.5  1              js067245    272390

      0.22   +-  0.04        .7     .6   60.53 +-  0.0    0.10   1.47   +-0.3      +-                    m i ke

FRANCE
Sta     Dist  EvAz     Phase      Date       Time     TRes  Azim  AzRes  Slow  SRes Def   SNR       Amp   Per   Mag1   Mag2       ID
MBDF  000.25 016.3 m E Pg      2012/03/23 20:38:49.2  -0.1                          T                                        4894802
MBDF  000.25 016.3 m E Sg      2012/03/23 20:38:52.6  -0.1                          T                5.4  .34        Md 1.5  4894803
ORIF  000.71 307.6 m E Pg      2012/03/23 20:38:57.7   0.0                          T                                        4894801
ORIF  000.71 307.6 m E Sg      2012/03/23 20:39:06.9  -0.1                          T                 .9  .20                4894807
SBF   000.83 138.4 m E Pg      2012/03/23 20:38:59.8   0.0                          T                                        4894814
SBF   000.83 138.4 m E Sg      2012/03/23 20:39:10.6  -0.1                          T                 .6  .17                4894813
FRF   000.93 181.2 m E Pn      2012/03/23 20:39:02.6   0.0                          T                                        4894816
FRF   000.93 181.2 m E Sg      2012/03/23 20:39:13.6   0.0                          T                3.8  .32 Ml 1.9         4894811
SMRF  000.94 237.5 m E Pn      2012/03/23 20:39:02.8   0.0                          T                                        4894817
SMRF  000.94 237.5 m E Sg      2012/03/23 20:39:14.0  -0.1                          T                1.1  .28 Ml 1.4         4894810
LPG   001.01 003.1 m E Pg      2012/03/23 20:39:03.4  -0.1                          T                                        4894818
LPG   001.01 003.1 m E Sg      2012/03/23 20:39:16.6   0.0                          T                 .3  .20 Ml 1.0         4894809
LPL   001.03 002.3 m E Pg      2012/03/23 20:39:03.8   0.0                          T                                        4894819
LPL   001.03 002.3 m E Sg      2012/03/23 20:39:17.2   0.0                          T                 .7  .28 Ml 1.3         4894808
LMR   001.16 185.9 m E Pg      2012/03/23 20:39:05.8   0.0                          T                                        4894815
LMR   001.16 185.9 m E Sg      2012/03/23 20:39:20.9   0.1                          T                1.6  .25 Ml 1.7         4894812
VIVF  001.47 285.2 m E Sg      2012/03/23 20:39:30.9   0.2                          T                 .5  .21 Ml 1.4         4894806

.
EVENT     272613
    Date      Time       Latitude Longitude    Depth    Ndef Nsta Gap    Mag1  N    Mag2  N    Mag3  N   Author         ID
       rms   OT_Error      Smajor Sminor Az        Err   mdist  Mdist     Err        Err        Err      Quality

2012/03/23 23:06:15.4     36.3485   -9.0288      2.0      73    5 270  Ml 3.1  3                         js067245    272633

      0.59   +-  0.20       3.5    3.0   41.21 +-  0.0    0.80  12.21   +-0.2                            m i ke

WEST OF GIBRALTAR
Sta     Dist  EvAz     Phase      Date       Time     TRes  Azim  AzRes  Slow  SRes Def   SNR       Amp   Per   Mag1   Mag2       ID
ALMR  001.00 180.0 m E Pn      2012/03/23 23:06:59.7 *****                          T                                        4894912
SJPF  009.04 039.3 m E Pn      2012/03/23 23:08:25.2   0.9                          T                                        4894924
SJPF  009.04 039.3 m E Sn      2012/03/23 23:10:00.4  -0.4                          T                1.2  .39 Ml 3.0         4894919
ETSF  009.24 042.4 m E Pn      2012/03/23 23:08:27.5   0.4                          T                                        4894923
ETSF  009.24 042.4 m E Sn      2012/03/23 23:10:05.4  -0.3                          T                 .6  .33 Ml 2.9         4894920
EPF   009.83 044.4 m E Pn      2012/03/23 23:08:35.9   0.9                          T                                        4894922
EPF   009.83 044.4 m E Sn      2012/03/23 23:10:19.5  -0.1                          T                1.3  .37 Ml 3.2         4894921
MFF   012.21 030.2 m E Pn      2012/03/23 23:09:07.0  -0.4                          T                                        4894925

.
EVENT     272422
    Date      Time       Latitude Longitude    Depth    Ndef Nsta Gap    Mag1  N    Mag2  N    Mag3  N   Author         ID
       rms   OT_Error      Smajor Sminor Az        Err   mdist  Mdist     Err        Err        Err      Quality

2012/03/23 23:07:39.0     47.3318   -4.4444     19.0 f    16    6 295  Ml 2.1  7  Md 2.3  2              js067245    272442

      1.28   +-  0.48       8.5    7.4  165.70 +-  0.0    1.04   3.17   +-0.2      +-0.0                 m i ke

FRANCE
Sta     Dist  EvAz     Phase      Date       Time     TRes  Azim  AzRes  Slow  SRes Def   SNR       Amp   Per   Mag1   Mag2       ID
QUIF  001.04 055.4 m E Pn      2012/03/23 23:07:57.5   0.4                          T                                        4894826
QUIF  001.04 055.4 m E Pg      2012/03/23 23:07:59.5   0.7                          T                                        4894825
QUIF  001.04 055.4 m E Sg      2012/03/23 23:08:13.6   1.1                          T                8.4  .20 Ml 2.5 Md 2.2  4894827
ROSF  001.28 037.7 m E Pn      2012/03/23 23:08:00.0  -0.3                          T                                        4894832
ROSF  001.28 037.7 m E Pg      2012/03/23 23:08:02.7  -0.4                          T                                        4894831
ROSF  001.28 037.7 m E Sg      2012/03/23 23:08:19.1  -0.6                          T                2.8  .18 Ml 2.1 Md 2.3  4894833
SGMF  001.57 053.4 m E Pn      2012/03/23 23:08:04.4   0.1                          T                                        4894829
SGMF  001.57 053.4 m E Pg      2012/03/23 23:08:08.5   0.0                          T                                        4894828
SGMF  001.57 053.4 m E Sg      2012/03/23 23:08:28.9   0.1                          T                1.3  .17 Ml 1.9         4894830
LDF   003.17 064.9 m E Pn      2012/03/23 23:08:26.3   0.3                          T                                        4894915
LDF   003.17 064.9 m E Sg      2012/03/23 23:09:18.9   0.4                          T                1.2  .28 Ml 2.1         4894917
MFF   003.03 102.4 m E Sg      2012/03/23 23:09:13.4  -0.9                          T                1.2  .28 Ml 2.2         4894916
FLN   003.02 060.2 m E Sg      2012/03/23 23:09:13.9   0.0                          T                  1  .24 Ml 1.9         4894918

.
EVENT     272373
    Date      Time       Latitude Longitude    Depth    Ndef Nsta Gap    Mag1  N    Mag2  N    Mag3  N   Author         ID
       rms   OT_Error      Smajor Sminor Az        Err   mdist  Mdist     Err        Err        Err      Quality

2012/03/24 02:31:23.6     44.8569    5.8305     15.0       4    1 360             Md 1.4  1              js067245    272393

      0.99   +-  0.16       6.1     .3   29.82 +-  0.0    0.07   0.07              +-                    m i ke

FRANCE
Sta     Dist  EvAz     Phase      Date       Time     TRes  Azim  AzRes  Slow  SRes Def   SNR       Amp   Per   Mag1   Mag2       ID
ORIF  000.07 029.8 m E Pg      2012/03/24 02:31:26.7  -0.2                          T                                        4895051
ORIF  000.07 029.8 m E Sg      2012/03/24 02:31:28.8  -0.2                          T               10.9  .24        Md 1.4  4895050

.
EVENT     272374
    Date      Time       Latitude Longitude    Depth    Ndef Nsta Gap    Mag1  N    Mag2  N    Mag3  N   Author         ID
       rms   OT_Error      Smajor Sminor Az        Err   mdist  Mdist     Err        Err        Err      Quality

2012/03/24 03:29:10.6     48.3517   -3.8996      5.0 f    14    7 307  Ml 2.0  5  Md 1.7  3              js067245    272394

      0.54   +-  0.46       6.5    4.2  102.12 +-  0.0    0.42   3.09   +-0.1      +-0.2                 m i ke

FRANCE
Sta     Dist  EvAz     Phase      Date       Time     TRes  Azim  AzRes  Slow  SRes Def   SNR       Amp   Per   Mag1   Mag2       ID
ROSF  000.42 091.9 m E Pg      2012/03/24 03:29:18.3  -0.4                          T                                        4895132
ROSF  000.42 091.9 m E Sg      2012/03/24 03:29:24.4   0.1                          T                5.2  .20        Md 2.0  4895127
QUIF  000.66 131.2 m E Pg      2012/03/24 03:29:23.0   0.0                          T                                        4895131
QUIF  000.66 131.2 m E Sg      2012/03/24 03:29:32.1   0.5                          T                7.7  .24        Md 1.6  4895128
SGMF  000.90 095.7 m E Pg      2012/03/24 03:29:28.0   0.5                          T                                        4895130
SGMF  000.90 095.7 m E Sg      2012/03/24 03:29:39.9   0.7                          T                3.0  .21 Ml 1.9 Md 1.5  4895129
GRR   002.03 087.8 m E Pg      2012/03/24 03:29:48.1  -0.2                          T                                        4895126
GRR   002.03 087.8 m E Sg      2012/03/24 03:30:13.4  -1.0                          T                1.8  .23 Ml 2.0         4895125
LDF   002.53 083.1 m E Pg      2012/03/24 03:29:57.8   0.4                          T                                        4895156
LDF   002.53 083.1 m E Sg      2012/03/24 03:30:29.8  -0.1                          T                1.7  .27 Ml 2.1         4895124
FLN   002.31 078.5 m E Sg      2012/03/24 03:30:22.5  -0.6                          T                1.4  .25 Ml 1.9         4895123
MFF   003.09 123.1 m E Sg      2012/03/24 03:30:47.3  -0.2                          T                 .6  .22 Ml 2.0         4895122

.
EVENT     272375
    Date      Time       Latitude Longitude    Depth    Ndef Nsta Gap    Mag1  N    Mag2  N    Mag3  N   Author         ID
       rms   OT_Error      Smajor Sminor Az        Err   mdist  Mdist     Err        Err        Err      Quality

2012/03/24 04:44:58.5     44.2888    7.3375     10.0      25    6 102  Ml 1.8  4  Md 1.8  2              js067245    272395

      0.19   +-  0.04        .9     .6   51.12 +-  0.0    0.05   1.31   +-0.5      +-0.1                 m i ke

NORTHERN ITALY
Sta     Dist  EvAz     Phase      Date       Time     TRes  Azim  AzRes  Slow  SRes Def   SNR       Amp   Per   Mag1   Mag2       ID
SBF   000.43 170.6 m E Pg      2012/03/24 04:45:07.3   0.3                          T                                        4895166
SBF   000.43 170.6 m E Sg      2012/03/24 04:45:12.8   0.0                          T                7.7  .22        Md 1.8  4895165
MBDF  000.60 317.4 m E Pg      2012/03/24 04:45:10.1  -0.1                          T                                        4895174
MBDF  000.60 317.4 m E Sg      2012/03/24 04:45:18.0   0.0                          T                1.9  .32        Md 1.9  4895175
FRF   000.88 214.7 m E Pg      2012/03/24 04:45:15.0  -0.2                          T                                        4895172
FRF   000.88 214.7 m E Sg      2012/03/24 04:45:26.4  -0.3                          T                2.4  .19 Ml 1.9         4895171
LMR   001.13 212.4 m E Pg      2012/03/24 04:45:19.6  -0.1                          T                                        4895169
LMR   001.13 212.4 m E Sg      2012/03/24 04:45:34.3   0.0                          T                6.8  .22 Ml 2.4         4895170
SMRF  001.31 256.8 m E Pg      2012/03/24 04:45:23.1   0.1                          T                                        4895168
SMRF  001.31 256.8 m E Sg      2012/03/24 04:45:39.8  -0.2                          T                  1  .29 Ml 1.5         4895167
LPL   001.30 340.9 m E Sg      2012/03/24 04:45:40.0   0.0                          T                 .9  .36 Ml 1.3         4896961

.
EVENT     272376
    Date      Time       Latitude Longitude    Depth    Ndef Nsta Gap    Mag1  N    Mag2  N    Mag3  N   Author         ID
       rms   OT_Error      Smajor Sminor Az        Err   mdist  Mdist     Err        Err        Err      Quality

2012/03/24 05:01:18.0     42.9483     .0699      2.0      10    4 188  Ml 1.8  2  Md 1.5  2              js067245    272396

      0.71   +-  0.21       8.1    2.3  172.63 +-  0.0    0.10   1.62   +-0.2      +-0.2                 m i ke

PYRENEES
Sta     Dist  EvAz     Phase      Date       Time     TRes  Azim  AzRes  Slow  SRes Def   SNR       Amp   Per   Mag1   Mag2       ID
EPF   000.21 067.4 m E Pg      2012/03/24 05:01:22.3   0.0                          T                                        4895206
EPF   000.21 067.4 m E Sg      2012/03/24 05:01:25.4   0.1                          T                5.4  .20        Md 1.6  4895201
ETSF  000.46 264.1 m E Pg      2012/03/24 05:01:27.4   0.4                          T                                        4895205
ETSF  000.46 264.1 m E Sg      2012/03/24 05:01:33.8   0.6                          T                4.3  .18        Md 1.3  4895202
SJPF  000.96 280.3 m E Pg      2012/03/24 05:01:35.2  -0.9                          T                                        4895199
SJPF  000.96 280.3 m E Sg      2012/03/24 05:01:49.0   0.4                          T                                        4895200
MTLF  001.62 075.2 m E Pg      2012/03/24 05:01:48.7   0.5                          T                                        4895204
MTLF  001.62 075.2 m E Sg      2012/03/24 05:02:08.6  -0.5                          T                 .7  .21 Ml 1.6         4895203

.
