EVENT     267236
    Date      Time       Latitude Longitude    Depth    Ndef Nsta Gap    Mag1  N    Mag2  N    Mag3  N   Author         ID
       rms   OT_Error      Smajor Sminor Az        Err   mdist  Mdist     Err        Err        Err      Quality

2011/12/09 06:23:23.0     42.8947     .2456      2.0       6    3 198  Ml 1.3  1  Md 1.2  2              js067245    267256

      0.10   +-  0.07       2.5     .9  163.75 +-  0.0    0.15   1.51   +-         +-0.1                 m i ke

PYRENEES
Sta     Dist  EvAz     Phase      Date       Time     TRes  Azim  AzRes  Slow  SRes Def   SNR       Amp   Per   Mag1   Mag2       ID
EPF   000.15 027.0 m E Pg      2011/12/09 06:23:26.3   0.1                          T                                        4798189
EPF   000.15 027.0 m E Sg      2011/12/09 06:23:28.2  -0.2                          T               30.7  .18        Md 1.2  4798188
ETSF  000.59 270.7 m E Pg      2011/12/09 06:23:34.4   0.0                          T                                        4798186
ETSF  000.59 270.7 m E Sg      2011/12/09 06:23:41.9  -0.2                          T                1.5  .19        Md 1.1  4798187
MTLF  001.51 072.2 m E Pg      2011/12/09 06:23:51.1  -0.1                          T                                        4798185
MTLF  001.51 072.2 m E Sg      2011/12/09 06:24:10.8   0.1                          T                 .4  .20 Ml 1.3         4798184

.
EVENT     267262
    Date      Time       Latitude Longitude    Depth    Ndef Nsta Gap    Mag1  N    Mag2  N    Mag3  N   Author         ID
       rms   OT_Error      Smajor Sminor Az        Err   mdist  Mdist     Err        Err        Err      Quality

2011/12/09 15:22:51.1     49.2124    6.0671       .0 f    28   11 094  Ml 2.1  4  Md 2.2  3              js067245    267282

      1.10   +-  0.12       2.5    2.0   79.63 +-  0.0    0.70   2.44   +-0.2      +-0.1                 m i km

GERMANY
Sta     Dist  EvAz     Phase      Date       Time     TRes  Azim  AzRes  Slow  SRes Def   SNR       Amp   Per   Mag1   Mag2       ID
PAGF  000.70 199.1 m E Pg      2011/12/09 15:23:04.7   0.2   7.7  -11.1             T                                        4798348
PAGF  000.70 199.1 m E Pn      2011/12/09 15:23:06.5  -0.3                          T                                        4798347
PAGF  000.70 199.1 m E Sn      2011/12/09 15:23:17.0  -0.8                          T                 .8  .20        Md 2.3  4798341
PAGF  000.70 199.1 m E S       2011/12/09 15:23:19.6   0.1                          T                                        4798344
RUP   000.81 052.5 m E Pg      2011/12/09 15:23:06.3  -0.4                          T                                        4798367
RUP   000.81 052.5 m E Sg      2011/12/09 15:23:18.0   0.5                          T                                Md 2.2  4798368
RUP   000.81 052.5 m E Sn      2011/12/09 15:23:20.6   0.0                          T                                        4798362
THEF  000.99 182.8 m E Pg      2011/12/09 15:23:10.0   0.1                          T                                        4798353
THEF  000.99 182.8 m E Pn      2011/12/09 15:23:10.8   0.1                          T                                        4798352
THEF  000.99 182.8 m E Sg      2011/12/09 15:23:22.0  -0.9                          T               60.1 1.61 Ml 2.4         4798354
THEF  000.99 182.8 m E Sn      2011/12/09 15:23:24.7   0.0                          T                5.3  .18 Ml 2.3         4798360
MEZF  000.98 223.7 m E Pg      2011/12/09 15:23:10.7   1.0  39.8  -3.1              T                                        4798359
MEZF  000.98 223.7 m E Sn      2011/12/09 15:23:24.1  -0.4                          T                                        4798361
CDF   001.13 134.6 m E Pg      2011/12/09 15:23:12.7   0.1                          T                                        4798365
CDF   001.13 134.6 m E Sg      2011/12/09 15:23:27.3  -0.2                          T                                Md 2.0  4798346
SFTF  001.22 214.4 m E Pg      2011/12/09 15:23:13.9  -0.2  24.2  -9.5              T                                        4798364
SFTF  001.22 214.4 m E S       2011/12/09 15:23:32.5  -0.3                          T                                        4798345
GIVF  001.20 318.3 m E Pg      2011/12/09 15:23:14.1   0.2                          T                                        4798358
GIVF  001.20 318.3 m E S       2011/12/09 15:23:32.0  -0.4                          T                                        4798343
HAU   001.22 171.1 m E Pn      2011/12/09 15:23:14.4   0.4                          T                                        4798363
HAU   001.22 171.1 m E Sg      2011/12/09 15:23:29.8  -0.4                          T                4.3  .30 Ml 1.9         4798357
HINF  001.49 159.2 m E Pn      2011/12/09 15:23:17.5  -0.2                          T                                        4798351
HINF  001.49 159.2 m E Pg      2011/12/09 15:23:19.1  -0.1                          T                                        4798350
HINF  001.49 159.2 m E Sn      2011/12/09 15:23:36.9   0.0                          T                                        4798349
HINF  001.49 159.2 m E Sg      2011/12/09 15:23:38.3  -0.4                          T                2.4  .22 Ml 2.1         4798356
BAIF  001.48 305.7 m E Pg      2011/12/09 15:23:18.8  -0.1                          T                                        4798366
BAIF  001.48 305.7 m E S       2011/12/09 15:23:39.7   0.3                          T                                        4798342
LOR   002.44 218.0 m E Sg      2011/12/09 15:24:08.4   0.1                          T                                        4798355

.
EVENT     267263
    Date      Time       Latitude Longitude    Depth    Ndef Nsta Gap    Mag1  N    Mag2  N    Mag3  N   Author         ID
       rms   OT_Error      Smajor Sminor Az        Err   mdist  Mdist     Err        Err        Err      Quality

2011/12/09 18:06:08.2     43.2191   -2.0043       .0 f     5    3 349  Ml 2.1  2  Md 2.2  2              js067245    267283

      0.19   +-  0.55      32.9    8.7    6.57 +-  0.0    0.58   1.73   +-0.2      +-0.1                 m i km

SPAIN
Sta     Dist  EvAz     Phase      Date       Time     TRes  Azim  AzRes  Slow  SRes Def   SNR       Amp   Per   Mag1   Mag2       ID
SJPF  000.58 100.2 m E Pg      2011/12/09 18:06:19.3  -0.2                          T                                        4798379
SJPF  000.58 100.2 m E Sg      2011/12/09 18:06:27.5   0.2                          T                8.3  .35        Md 2.2  4798378
ETSF  001.11 106.3 m E Pg      2011/12/09 18:06:29.5   0.2                          T                                        4798376
ETSF  001.11 106.3 m E Sg      2011/12/09 18:06:43.5  -0.3                          T                2.7  .24 Ml 1.9 Md 2.1  4798377
EPF   001.73 095.5 m E Sg      2011/12/09 18:07:03.2   0.1                          T                4.0  .32 Ml 2.2         4798375

.
EVENT     267264
    Date      Time       Latitude Longitude    Depth    Ndef Nsta Gap    Mag1  N    Mag2  N    Mag3  N   Author         ID
       rms   OT_Error      Smajor Sminor Az        Err   mdist  Mdist     Err        Err        Err      Quality

2011/12/09 22:20:51.8     46.0259    6.8790      2.0      46   14 041  Ml 2.0 12  Md 2.1  5              js067245    267284

      0.62   +-  0.04       1.0     .8  111.45 +-  0.0    0.04   2.90   +-0.2      +-0.2                 m i ke

SWITZERLAND
Sta     Dist  EvAz     Phase      Date       Time     TRes  Azim  AzRes  Slow  SRes Def   SNR       Amp   Per   Mag1   Mag2       ID
LPL   000.52 191.4 m E Pg      2011/12/09 22:21:01.8  -0.1                          T                                        4798407
LPL   000.52 191.4 m E Sg      2011/12/09 22:21:08.9   0.1                          T                4.3  .28        Md 2.0  4798406
LPG   000.54 189.6 m E Pg      2011/12/09 22:21:02.1  -0.2                          T                                        4798404
LPG   000.54 189.6 m E Sg      2011/12/09 22:21:09.5   0.1                          T                9.6  .22        Md 1.8  4798405
LPG   000.54 189.6 m E Sn      2011/12/09 22:21:13.7  -0.4                          T                                        4798417
CABF  000.80 317.1 m E Pg      2011/12/09 22:21:07.1   0.2                          T                                        4798399
CABF  000.80 317.1 m E Pn      2011/12/09 22:21:08.9   0.3                          T                                        4798416
CABF  000.80 317.1 m E Sg      2011/12/09 22:21:17.3  -0.1                          T                3.7  .24        Md 2.0  4798420
MBDF  001.30 183.4 m E Pn      2011/12/09 22:21:15.6   0.2                          T                                        4798400
MBDF  001.30 183.4 m E Sg      2011/12/09 22:21:32.9  -0.2                          T                2.2  .27 Ml 1.9         4798389
ORIF  001.31 212.8 m E Pn      2011/12/09 22:21:15.9   0.3                          T                                        4798401
ORIF  001.31 212.8 m E Sn      2011/12/09 22:21:31.4  -1.2                          T                                        4798388
ORIF  001.31 212.8 m E Sg      2011/12/09 22:21:33.6   0.3                          T                2.8  .26 Ml 2.0 Md 2.1  4798387
VIVF  001.94 233.8 m E Pg      2011/12/09 22:21:28.2   0.2                          T                                        4798403
VIVF  001.94 233.8 m E Sn      2011/12/09 22:21:48.8   1.1                          T                                        4798394
VIVF  001.94 233.8 m E Sg      2011/12/09 22:21:52.7  -0.3                          T                3.4  .20 Ml 2.4 Md 2.4  4798402
SMRF  002.25 204.7 m E Pg      2011/12/09 22:21:32.5  -1.1                          T                                        4798386
SMRF  002.25 204.7 m E Sg      2011/12/09 22:22:02.6   0.1                          T                                        4798385
SMF   002.19 287.5 m E Pg      2011/12/09 22:21:33.7   1.2                          T                                        4798419
SMF   002.19 287.5 m E Sg      2011/12/09 22:22:00.0  -0.8                          T                2.4  .20 Ml 2.3         4798396
LOR   002.42 301.9 m E Pg      2011/12/09 22:21:36.6  -0.2 118.7  -1.0              T                                        4798392
LOR   002.42 301.9 m E Sg      2011/12/09 22:22:07.3  -0.6                          T                1.2  .25 Ml 2.0         4798391
LASF  002.90 228.8 m E Pg      2011/12/09 22:21:45.5   0.0                          T                                        4798393
LASF  002.90 228.8 m E Sg      2011/12/09 22:22:22.1  -0.6                          T                 .8  .25 Ml 1.9         4798418
HINF  001.79 359.4 m E Sg      2011/12/09 22:21:47.9  -0.3                          T                1.6  .20 Ml 2.1         4798398
HAU   002.01 349.8 m E Sg      2011/12/09 22:21:55.2   0.1                          T                2.6  .29 Ml 1.9         4798397
CDF   002.40 006.3 m E Sg      2011/12/09 22:22:07.5   0.1                          T                1.1  .27 Ml 2.0         4798390
LMR   002.70 185.7 m E Sg      2011/12/09 22:22:16.6   0.0                          T                 .5  .30 Ml 1.6         4798395

.
EVENT     267266
    Date      Time       Latitude Longitude    Depth    Ndef Nsta Gap    Mag1  N    Mag2  N    Mag3  N   Author         ID
       rms   OT_Error      Smajor Sminor Az        Err   mdist  Mdist     Err        Err        Err      Quality

2011/12/10 00:47:16.7     42.5597     .9007      2.0      69   11 043  Ml 2.4 10  Md 2.4  4              js067245    267286

      0.62   +-  0.05       1.0     .8   18.09 +-  0.0    0.16   4.67   +-0.3      +-0.1                 m i ke

PYRENEES
Sta     Dist  EvAz     Phase      Date       Time     TRes  Azim  AzRes  Slow  SRes Def   SNR       Amp   Per   Mag1   Mag2       ID
EPF   000.63 318.9 m E Pg      2011/12/10 00:47:28.2  -0.3                          T                                        4798457
EPF   000.63 318.9 m E Sg      2011/12/10 00:47:36.7  -0.1                          T               33.0  .26        Md 2.4  4798450
ETSF  001.13 288.0 m E Pg      2011/12/10 00:47:37.3  -0.6                          T                                        4798456
ETSF  001.13 288.0 m E P       2011/12/10 00:47:40.3   0.7                          T                                        4798441
ETSF  001.13 288.0 m E Sg      2011/12/10 00:47:52.5   0.0                          T               14.3  .20 Ml 2.7 Md 2.3  4798451
MTLF  001.24 050.6 m E Pg      2011/12/10 00:47:39.8  -0.1                          T                                        4798455
MTLF  001.24 050.6 m E Sg      2011/12/10 00:47:56.1   0.2                          T                3.7  .20 Ml 2.2 Md 2.4  4798449
SJPF  001.66 290.2 m E Pg      2011/12/10 00:47:47.0  -0.5                          T                                        4798454
SJPF  001.66 290.2 m E Sg      2011/12/10 00:48:09.0   0.0                          T                7.2  .20 Ml 2.7 Md 2.5  4798453
CAF   002.51 019.2 m E Pn      2011/12/10 00:47:56.4  -0.3                          T                                        4798444
CAF   002.51 019.2 m E P       2011/12/10 00:47:59.3   0.1                          T                                        4798440
CAF   002.51 019.2 m E Pg      2011/12/10 00:48:03.6   0.3                          T                                        4798445
CAF   002.51 019.2 m E Sg      2011/12/10 00:48:35.4  -0.2                          T                3.2  .24 Ml 2.4         4798452
LASF  002.64 053.9 m E Pn      2011/12/10 00:47:58.4   0.0                          T                                        4798437
LASF  002.64 053.9 m E P       2011/12/10 00:48:00.9  -0.1                          T                                        4798436
LASF  002.64 053.9 m E Pg      2011/12/10 00:48:05.5  -0.1                          T                                        4798448
LASF  002.64 053.9 m E Sn      2011/12/10 00:48:28.9  -0.1                          T                                        4798433
LASF  002.64 053.9 m E Sg      2011/12/10 00:48:40.2   0.7                          T                1.7  .23 Ml 2.2         4798447
LFF   002.38 357.3 m E Sn      2011/12/10 00:48:22.9  -0.1                          T                                        4798435
LFF   002.38 357.3 m E Sg      2011/12/10 00:48:31.5   0.0                          T                                        4798443
RJF   002.78 009.0 m E Sg      2011/12/10 00:48:44.7   0.8                          T                2.3  .23 Ml 2.1         4798446
MFF   004.11 349.9 m E Sn      2011/12/10 00:49:04.1  -0.2                          T                                        4798434
VIVF  003.57 048.7 m E Sg      2011/12/10 00:49:09.5   0.8                          T                1.9  .30 Ml 2.4         4798442
BGF   004.23 018.5 m E Sg      2011/12/10 00:49:28.9  -0.3                          T                4.6  .34 Ml 2.8         4798438

.
EVENT     267265
    Date      Time       Latitude Longitude    Depth    Ndef Nsta Gap    Mag1  N    Mag2  N    Mag3  N   Author         ID
       rms   OT_Error      Smajor Sminor Az        Err   mdist  Mdist     Err        Err        Err      Quality

2011/12/10 00:56:41.9     42.9457    -.0099     15.0       6    3 191  Ml 1.2  1  Md 1.2  2              js067245    267285

      0.08   +-  0.07       5.1     .8  172.60 +-  0.0    0.27   0.91   +-         +-0.1                 m i ke

PYRENEES
Sta     Dist  EvAz     Phase      Date       Time     TRes  Azim  AzRes  Slow  SRes Def   SNR       Amp   Per   Mag1   Mag2       ID
EPF   000.27 071.6 m E Pg      2011/12/10 00:56:47.8   0.0                          T                                        4798469
EPF   000.27 071.6 m E Sg      2011/12/10 00:56:52.0   0.1                          T                2.2  .22        Md 1.3  4798468
ETSF  000.41 263.5 m E Pg      2011/12/10 00:56:50.3   0.1                          T                                        4798471
ETSF  000.41 263.5 m E Sg      2011/12/10 00:56:55.8  -0.1                          T                7.1  .26        Md 1.1  4798470
SJPF  000.91 281.1 m E Pg      2011/12/10 00:56:59.1  -0.1                          T                                        4800106
SJPF  000.91 281.1 m E Sg      2011/12/10 00:57:11.2   0.1                          T                 .9  .32 Ml 1.2         4800107

.
EVENT     267268
    Date      Time       Latitude Longitude    Depth    Ndef Nsta Gap    Mag1  N    Mag2  N    Mag3  N   Author         ID
       rms   OT_Error      Smajor Sminor Az        Err   mdist  Mdist     Err        Err        Err      Quality

2011/12/10 02:31:25.1     43.0362    -.1413      7.0 f    31    7 101  Ml 1.9  4  Md 1.9  2              js067245    267288

      0.40   +-  0.07       1.5    1.2    8.28 +-  0.0    0.09   2.56   +-0.1      +-0.1                 m i ke

PYRENEES
Sta     Dist  EvAz     Phase      Date       Time     TRes  Azim  AzRes  Slow  SRes Def   SNR       Amp   Per   Mag1   Mag2       ID
ETSF  000.34 246.0 m E Pg      2011/12/10 02:31:31.5  -0.2                          T                                        4798475
ETSF  000.34 246.0 m E Sg      2011/12/10 02:31:36.2  -0.1                          T               10.4  .24        Md 1.9  4798474
EPF   000.35 090.8 m E Pg      2011/12/10 02:31:31.9  -0.1                          T                                        4798472
EPF   000.35 090.8 m E Sg      2011/12/10 02:31:36.8   0.0                          T               10.8  .24        Md 2.0  4798473
SJPF  000.80 275.9 m E Sg      2011/12/10 02:31:50.9   0.3                          T                1.5  .24                4798500
MTLF  001.75 079.2 m E Pg      2011/12/10 02:31:56.8  -0.9                          T                                        4798496
MTLF  001.75 079.2 m E Sg      2011/12/10 02:32:20.8   0.5                          T                1.5  .22 Ml 2.0         4798499
RJF   002.56 027.2 m E Pn      2011/12/10 02:32:05.5   0.3                          T                                        4798494
RJF   002.56 027.2 m E Pg      2011/12/10 02:32:12.3  -0.3                          T                                        4798493
RJF   002.56 027.2 m E Sg      2011/12/10 02:32:45.4  -0.2                          T                2.5  .33 Ml 1.9         4798495
CAF   002.47 039.4 m E Pg      2011/12/10 02:32:11.1   0.1                          T                                        4798497
CAF   002.47 039.4 m E Sg      2011/12/10 02:32:42.4  -0.4                          T                 .9  .25 Ml 1.9         4798498
LFF   002.01 018.2 m E Sg      2011/12/10 02:32:28.3   0.1                          T                1.5  .23 Ml 1.9         4798492

.
