EVENT     263694
    Date      Time       Latitude Longitude    Depth    Ndef Nsta Gap    Mag1  N    Mag2  N    Mag3  N   Author         ID
       rms   OT_Error      Smajor Sminor Az        Err   mdist  Mdist     Err        Err        Err      Quality

2011/09/08 13:17:29.3     44.6854   10.4795     20.0 f   176   30 034  Ml 3.9 18  Md 3.3  4              js067245    263694

      1.06   +-  0.07       2.6    1.7   39.90 +-  0.0    0.14   8.65   +-0.3      +-0.1                 m i ke

NORTHERN ITALY
Sta     Dist  EvAz     Phase      Date       Time     TRes  Azim  AzRes  Slow  SRes Def   SNR       Amp   Per   Mag1   Mag2       ID
PTF   000.84 149.5 m E Pg      2011/09/08 13:17:44.4  -1.1                          T                                        4746389
SBF   002.34 250.5 m E Pn      2011/09/08 13:18:03.8  -1.2                          T   001.0                                4746551
SBF   002.34 250.5 m E Sn      2011/09/08 13:18:32.3   1.0                          T   001.0      595.3  .44 Ml 4.4 Md 3.4  4746552
PGF   002.39 207.2 m E Pn      2011/09/08 13:18:05.0  -0.8                          T                                        4752107
PGF   002.39 207.2 m E Sn      2011/09/08 13:18:34.0   1.3                          T               59.9  .30 Ml 3.8 Md 3.3  4752092
MBDF  002.64 272.2 m E Pn      2011/09/08 13:18:09.3   0.0                          T   001.0                                4746562
MBDF  002.64 272.2 m E P       2011/09/08 13:18:11.0  -1.1                          T                                        4752094
MBDF  002.64 272.2 m E Sn      2011/09/08 13:18:39.6   0.8                          T   001.0      253.2  .48 Ml 4.1         4746563
LPL   002.78 288.7 m E Pn      2011/09/08 13:18:10.8  -0.4                          T                                        4752108
LPL   002.78 288.7 m E Pg      2011/09/08 13:18:17.9  -3.3                          T                                        4752096
LPG   002.76 288.4 m E Pn      2011/09/08 13:18:10.8  -0.2                          T   001.0                                4746548
LPG   002.76 288.4 m E Sg      2011/09/08 13:18:53.0  -3.6                          T                                        4752093
FRF   002.98 249.2 m E Pn      2011/09/08 13:18:12.5  -1.1                          T   001.0                                4746538
FRF   002.98 249.2 m E Sn      2011/09/08 13:18:46.0  -0.6                          T   001.0      176.9  .44 Ml 4.1 Md 3.3  4746539
LMR   003.17 246.1 m E Pn      2011/09/08 13:18:14.4  -1.8                          T   001.0                                4746544
LMR   003.17 246.1 m E Sn      2011/09/08 13:18:49.6  -1.5                          T   001.0      206.3  .34 Ml 4.3 Md 3.3  4746545
ORIF  003.28 275.7 m E Pn      2011/09/08 13:18:18.0   0.2                          T   001.0                                4746568
ORIF  003.28 275.7 m E P       2011/09/08 13:18:20.5  -0.6                          T                                        4752095
SMRF  003.59 260.3 m E Pn      2011/09/08 13:18:22.5   0.5                          T   001.0                                4746571
SMRF  003.59 260.3 m E Sn      2011/09/08 13:19:03.1   1.9                          T   001.0                                4746572
SMRF  003.59 260.3 m E Sg      2011/09/08 13:19:15.1  -6.9                          T   001.0       74.2  .56 Ml 3.7         4746573
CABF  003.63 303.6 m E Pn      2011/09/08 13:18:23.0   0.3                          T                                        4752106
HINF  004.02 322.5 m E Pn      2011/09/08 13:18:27.8   0.0                          T   001.0                                4746560
HINF  004.02 322.5 m E Sn      2011/09/08 13:19:12.6   1.2                          T   001.0       65.8  .28 Ml 4.0         4746561
VIVF  004.14 274.4 m E Pn      2011/09/08 13:18:29.4  -0.1                          T   001.0                                4746569
VIVF  004.14 274.4 m E Sn      2011/09/08 13:19:14.6   0.3                          T   001.0       36.3  .52 Ml 3.5         4746570
CDF   004.33 330.5 m E Pn      2011/09/08 13:18:32.1  -0.1                          T   001.0                                4746536
CDF   004.33 330.5 m E Sn      2011/09/08 13:19:18.9  -0.2                          T   001.0       79.7  .26 Ml 4.3         4746537
HAU   004.38 320.7 m E Pn      2011/09/08 13:18:32.8   0.0                          T   001.0                                4746541
HAU   004.38 320.7 m E Sn      2011/09/08 13:19:21.4   1.2                          T               80.8  .22 Ml 4.1         4752098
LANF  004.67 337.8 m E Pn      2011/09/08 13:18:37.3   0.5                          T                                        4752104
LANF  004.67 337.8 m E Sn      2011/09/08 13:19:28.6   1.5                          T                                        4752103
THEF  004.71 320.4 m E Pn      2011/09/08 13:18:37.7   0.5                          T                                        4752099
LASF  004.79 265.0 m E Pn      2011/09/08 13:18:38.0  -0.2                          T   001.0                                4746542
LASF  004.79 265.0 m E Sn      2011/09/08 13:19:33.7   3.9                          T   001.0       15.6  .40 Ml 3.4         4746543
SMF   005.05 295.2 m E Pn      2011/09/08 13:18:41.8  -0.1                          T   001.0                                4746553
SMF   005.05 295.2 m E Sn      2011/09/08 13:19:36.2   0.1                          T   001.0       54.9  .40 Ml 4.0         4746554
PAGF  005.07 321.5 m E Pn      2011/09/08 13:18:42.9   0.8                          T                                        4752101
PAGF  005.07 321.5 m E Sn      2011/09/08 13:19:38.1   1.6                          T                                        4752102
SFTF  005.15 315.0 m E Pn      2011/09/08 13:18:43.7   0.5 135.0  3.9               T                                        4752100
LOR   005.29 301.6 m E Pn      2011/09/08 13:18:45.5   0.4 121.7  4.9               T   001.0                                4746546
LOR   005.29 301.6 m E Sn      2011/09/08 13:19:42.9   1.1                          T   001.0       35.5  .28 Ml 4.0         4746547
SSF   005.42 298.5 m E Pn      2011/09/08 13:18:46.8  -0.1                          T   001.0                                4746555
SSF   005.42 298.5 m E Sn      2011/09/08 13:19:44.9   0.0                          T   001.0       35.9  .41 Ml 4.0         4746556
AVF   005.41 295.4 m E Pn      2011/09/08 13:18:46.9   0.1                          T   001.0                                4746532
AVF   005.41 295.4 m E Sn      2011/09/08 13:19:45.7   0.9                          T   001.0       21.7  .44 Ml 3.7         4746533
MEZF  005.34 317.5 m E Pn      2011/09/08 13:18:46.9   1.1 127.6  -6.0              T   001.0                                4746564
MEZF  005.34 317.5 m E Sn      2011/09/08 13:19:44.7   1.6                          T   001.0       38.8  .40 Ml 3.9         4746565
RUP   005.53 336.3 m E Pn      2011/09/08 13:18:50.1   1.6                          T                                        4752105
BGF   005.67 292.0 m E Pn      2011/09/08 13:18:50.4   0.1                          T   001.0                                4746534
TCF   006.03 288.3 m E Pn      2011/09/08 13:18:54.9  -0.3                          T                                        4746574
TCF   006.03 288.3 m E Sn      2011/09/08 13:20:00.5   0.9                          T   001.0       15.2  .29 Ml 3.9         4746557
MTLF  006.11 260.2 m E Pn      2011/09/08 13:18:56.7   0.4                          T   001.0                                4746566
MTLF  006.11 260.2 m E Sn      2011/09/08 13:20:02.8   1.4                          T   001.0        7.2  .48 Ml 3.3         4746567
GRR   008.65 299.4 m E Pn      2011/09/08 13:19:30.9   0.1                          T   001.0                                4746540

.
EVENT     263700
    Date      Time       Latitude Longitude    Depth    Ndef Nsta Gap    Mag1  N    Mag2  N    Mag3  N   Author         ID
       rms   OT_Error      Smajor Sminor Az        Err   mdist  Mdist     Err        Err        Err      Quality

2011/09/08 14:04:40.7     48.0239    6.6498       .0 f    17    8 099  Ml 1.9  3  Md 2.0  2              js067245    263700

      0.22   +-  0.05       1.2     .9  179.65 +-  0.0    0.20   2.03   +-0.2      +-0.1                 m i km

FRANCE
Sta     Dist  EvAz     Phase      Date       Time     TRes  Azim  AzRes  Slow  SRes Def   SNR       Amp   Per   Mag1   Mag2       ID
HAU   000.20 265.0 m E Pg      2011/09/08 14:04:45.1   0.0                          T                                        4752118
HAU   000.20 265.0 m E Sg      2011/09/08 14:04:48.3   0.3                          T              335.9  .60        Md 2.0  4752117
HINF  000.25 146.5 m E Pg      2011/09/08 14:04:45.9   0.0                          T                                        4752116
HINF  000.25 146.5 m E Sg      2011/09/08 14:04:49.4  -0.1                          T               54.7  .78        Md 1.9  4752114
THEF  000.48 295.2 m E Pg      2011/09/08 14:04:50.1  -0.1                          T                                        4759992
THEF  000.48 295.2 m E Sg      2011/09/08 14:04:57.0   0.2                          T                6.2  .24                4759989
CDF   000.57 046.9 m E Pg      2011/09/08 14:04:52.0   0.1                          T                                        4759994
CDF   000.57 046.9 m E Pn      2011/09/08 14:04:54.5  -0.3                          T                                        4752115
CDF   000.57 046.9 m E Sg      2011/09/08 14:05:00.1   0.5                          T               59.5 1.12                4759986
SFTF  001.09 280.1 m E Pg      2011/09/08 14:05:01.5   0.0                          T                                        4759993
SFTF  001.09 280.1 m E Sg      2011/09/08 14:05:15.7  -0.1  97.3  -1.6              T                2.8  .17 Ml 2.1         4759988
CABF  001.46 195.4 m E Pn      2011/09/08 14:05:07.3   0.3                          T                                        4759991
CABF  001.46 195.4 m E Sg      2011/09/08 14:05:27.4   0.0                          T                 .7  .14 Ml 1.7         4759990
PAGF  000.81 311.1 m E Sg      2011/09/08 14:05:07.3   0.2                          T                 .6  .18                4759987
LOR   002.03 249.2 m E Pn      2011/09/08 14:05:14.4  -0.1                          T                                        4759996
LOR   002.03 249.2 m E Pg      2011/09/08 14:05:18.6  -0.1                          T                                        4759995
LOR   002.03 249.2 m E Sg      2011/09/08 14:05:45.1  -0.1                          T                1.2  .20 Ml 2.0         4759985

.
EVENT     263702
    Date      Time       Latitude Longitude    Depth    Ndef Nsta Gap    Mag1  N    Mag2  N    Mag3  N   Author         ID
       rms   OT_Error      Smajor Sminor Az        Err   mdist  Mdist     Err        Err        Err      Quality

2011/09/08 15:02:27.1     44.5932   10.3833     20.0 f    32   14 079  Ml 3.1  4  Md 2.9  2              js067245    263702

      0.96   +-  0.18       4.7    3.6   79.87 +-  0.0    0.18   9.66   +-0.2      +-0.0                 m i ke

NORTHERN ITALY
Sta     Dist  EvAz     Phase      Date       Time     TRes  Azim  AzRes  Slow  SRes Def   SNR       Amp   Per   Mag1   Mag2       ID
SBF   002.24 252.0 m E Pn      2011/09/08 15:03:01.6   0.1                          T                                        4752136
PGF   002.28 206.7 m E Pn      2011/09/08 15:03:02.8   0.8                          T                                        4752132
MBDF  002.58 274.2 m E P       2011/09/08 15:03:08.6  -0.4                          T                                        4752131
FRF   002.88 250.3 m E Pn      2011/09/08 15:03:10.2   0.1                          T                                        4752137
FRF   002.88 250.3 m E Sn      2011/09/08 15:03:43.6   1.6                          T               21.5  .31 Ml 3.3 Md 2.9  4752133
LPG   002.73 290.6 m E Pn      2011/09/08 15:03:11.0   2.6                          T                                        4752150
LPL   002.75 290.9 m E P       2011/09/08 15:03:12.0   0.6                          T                                        4752151
LMR   003.07 247.1 m E Pn      2011/09/08 15:03:12.5  -0.1                          T                                        4752139
LMR   003.07 247.1 m E Sn      2011/09/08 15:03:47.3   0.8                          T               23.4  .37 Ml 3.3 Md 2.8  4752138
ORIF  003.22 277.4 m E P       2011/09/08 15:03:18.1   0.0                          T                                        4752134
SMRF  003.51 261.5 m E Pn      2011/09/08 15:03:20.7   2.0                          T                                        4752135
HAU   004.41 322.1 m E Pn      2011/09/08 15:03:30.9   0.0                          T                                        4752129
HAU   004.41 322.1 m E Sn      2011/09/08 15:04:19.9   1.2                          T                8.3  .28 Ml 3.0         4752130
AVF   005.39 296.5 m E Pn      2011/09/08 15:03:44.7   0.4                          T                                        4752127
BGF   005.64 293.0 m E Pn      2011/09/08 15:03:47.9   0.2                          T                                        4752126
HINF  004.05 324.0 m E Sn      2011/09/08 15:04:11.4   1.4                          T                6.0  .29 Ml 3.0         4752128
SGMF  009.66 296.8 m E P       2011/09/08 15:04:48.2   0.1                          T                                        4752125

.
EVENT     263703
    Date      Time       Latitude Longitude    Depth    Ndef Nsta Gap    Mag1  N    Mag2  N    Mag3  N   Author         ID
       rms   OT_Error      Smajor Sminor Az        Err   mdist  Mdist     Err        Err        Err      Quality

2011/09/08 15:23:20.1     44.6816   10.2044     20.0 f    41   18 045  Ml 3.2 11                         js067245    263703

      2.95   +-  0.45      11.3    9.7   33.26 +-  0.0    0.11   5.25   +-0.2                            m i ke

NORTHERN ITALY
Sta     Dist  EvAz     Phase      Date       Time     TRes  Azim  AzRes  Slow  SRes Def   SNR       Amp   Per   Mag1   Mag2       ID
SBF   002.15 248.6 m E Pn      2011/09/08 15:23:56.3   3.0                          T   001.0                                4747567
SBF   002.15 248.6 m E Sn      2011/09/08 15:24:13.4  -4.3                          T   001.0       70.3  .40 Ml 3.5         4747568
PGF   002.31 202.7 m E Pn      2011/09/08 15:23:57.3   1.9                          T   001.0                                4747565
MBDF  002.45 272.3 m E Pn      2011/09/08 15:24:01.6   4.2                          T   001.0                                4747574
MBDF  002.45 272.3 m E Sn      2011/09/08 15:24:19.9  -5.0                          T   001.0                                4747575
FRF   002.80 247.6 m E Pn      2011/09/08 15:24:04.4   2.4                          T   001.0                                4747554
LMR   002.99 244.5 m E Pn      2011/09/08 15:24:06.9   2.4                          T   001.0                                4747558
ORIF  003.09 275.9 m E Pn      2011/09/08 15:24:12.4   6.3                          T   001.0                                4747578
ORIF  003.09 275.9 m E Sg      2011/09/08 15:24:49.0  -8.3                          T   001.0       48.3  .56 Ml 3.4         4747579
CABF  003.47 305.2 m E Pn      2011/09/08 15:24:15.4   4.1                          T   001.0                                4747570
HINF  003.90 324.6 m E Pn      2011/09/08 15:24:18.4   1.3                          T   001.0                                4747571
HINF  003.90 324.6 m E Sn      2011/09/08 15:24:55.0  -3.6                          T   001.0                                4747572
HINF  003.90 324.6 m E Sg      2011/09/08 15:25:20.1  -2.5                          T   001.0       12.1  .32 Ml 3.2         4747573
VIVF  003.94 274.5 m E Pn      2011/09/08 15:24:22.4   4.8                          T   001.0                                4747580
LPG   002.58 289.7 m E Sn      2011/09/08 15:24:23.4  -4.8                          T   001.0                                4747562
LPG   002.58 289.7 m E Sg      2011/09/08 15:24:35.5  -6.1                          T   001.0       32.6  .40 Ml 3.2         4747563
CDF   004.24 332.6 m E Pn      2011/09/08 15:24:23.9   2.1                          T   001.0                                4747552
HAU   004.26 322.6 m E Pn      2011/09/08 15:24:23.9   1.9                          T   001.0                                4747555
HAU   004.26 322.6 m E Sg      2011/09/08 15:25:29.6  -4.3                          T   001.0         27  .40 Ml 3.3         4747556
CDF   004.24 332.6 m E Sg      2011/09/08 15:25:33.1  -0.2                          T   001.0       13.7  .32 Ml 3.4         4747553
LOR   005.12 302.6 m E Pn      2011/09/08 15:24:34.5   0.8                          T   001.0                                4747559
LOR   005.12 302.6 m E Sg      2011/09/08 15:25:53.2  -7.5                          T   001.0       10.9  .36 Ml 3.4         4747560
MEZF  005.22 318.9 m E Pn      2011/09/08 15:24:36.0   1.1                          T   001.0                                4747577
SMRF  003.40 259.6 m E Sn      2011/09/08 15:24:45.0  -2.4                          T   001.0       15.8  .60 Ml 2.9         4747581
AVF   005.24 296.1 m E Sn      2011/09/08 15:25:23.1  -8.3                          T   001.0        2.6  .32 Ml 2.8         4747550
LASF  004.59 264.6 m E Sg      2011/09/08 15:25:31.1 -12.9                          T   001.0       10.1  .84 Ml 2.9         4747557
SSF   005.25 299.3 m E Sg      2011/09/08 15:25:55.2  -9.3                          T   001.0        5.7  .40 Ml 3.2         4747569

.
