EVENT     258969
    Date      Time       Latitude Longitude    Depth    Ndef Nsta Gap    Mag1  N    Mag2  N    Mag3  N   Author         ID
       rms   OT_Error      Smajor Sminor Az        Err   mdist  Mdist     Err        Err        Err      Quality

2011/05/05 18:44:55.9     47.9080    6.4950     15.0      75   31 037  Ml 2.9 26  Md 2.9  4              js067245    258969

      0.69   +-  0.04       1.0     .8  140.03 +-  0.0    0.14   5.46   +-0.4      +-0.1                 m i ke

FRANCE
Sta     Dist  EvAz     Phase      Date       Time     TRes  Azim  AzRes  Slow  SRes Def   SNR       Amp   Per   Mag1   Mag2       ID
HAU   000.14 314.7 m E Pg      2011/05/05 18:45:00.0   0.2                          T                                        4685011
HAU   000.14 314.7 m E Sg      2011/05/05 18:45:02.7   0.2                          T                                Md 2.9  4685012
HINF  000.26 110.6 m E Pg      2011/05/05 18:45:02.0   0.4                          T                                        4685057
HINF  000.26 110.6 m E Sg      2011/05/05 18:45:05.8   0.3                          T                                Md 2.8  4685004
CDF   000.73 045.7 m E Pg      2011/05/05 18:45:09.8  -0.1                          T                                        4685008
CDF   000.73 045.7 m E P       2011/05/05 18:45:10.7  -0.2                          T                                        4685010
CDF   000.73 045.7 m E Sg      2011/05/05 18:45:20.1   0.5                          T              123.2  .24        Md 2.9  4685009
PAGF  000.83 321.8 m E Pg      2011/05/05 18:45:12.1   0.4 140.0  -1.2              T                                        4685060
PAGF  000.83 321.8 m E Sg      2011/05/05 18:45:22.5   0.0 154.9  13.7              T               21.1  .24        Md 3.0  4685061
SFTF  001.02 287.5 m E Pn      2011/05/05 18:45:14.0  -0.1 109.8  3.5               T                                        4685058
SFTF  001.02 287.5 m E Pg      2011/05/05 18:45:15.1  -0.1                          T                                        4700485
SFTF  001.02 287.5 m E Sg      2011/05/05 18:45:28.7   0.1                          T              125.6  .19 Ml 3.6         4685005
MEZF  001.13 302.2 m E Pg      2011/05/05 18:45:17.4   0.2 118.6  -2.5              T                                        4685059
MEZF  001.13 302.2 m E Sg      2011/05/05 18:45:32.1   0.1 120.2  -0.9              T               83.3  .26 Ml 3.4         4685006
CABF  001.33 192.2 m E Pn      2011/05/05 18:45:18.5   0.1                          T                                        4685055
CABF  001.33 192.2 m E Pg      2011/05/05 18:45:21.0   0.1                          T                                        4685054
CABF  001.33 192.2 m E Sg      2011/05/05 18:45:38.2   0.0                          T               20.6  .25 Ml 2.9         4685056
LANF  001.38 038.6 m E Pg      2011/05/05 18:45:22.1   0.3                          T                                        4685062
LANF  001.38 038.6 m E Sg      2011/05/05 18:45:40.4   0.6                          T               83.2  .27 Ml 3.5         4685007
LOR   001.90 251.2 m E Pn      2011/05/05 18:45:26.0   0.0  74.7  5.4               T                                        4685014
LOR   001.90 251.2 m E Pg      2011/05/05 18:45:31.6   0.4  73.1  3.8               T                                        4685013
LOR   001.90 251.2 m E Sg      2011/05/05 18:45:55.4  -0.3  66.9  -2.4              T               25.5  .20 Ml 3.3         4685015
SSF   002.20 248.4 m E Pn      2011/05/05 18:45:30.0  -0.2                          T                                        4685075
SSF   002.20 248.4 m E Pg      2011/05/05 18:45:36.7  -0.1                          T                                        4685074
SSF   002.20 248.4 m E Sg      2011/05/05 18:46:04.6  -0.5                          T               11.4  .24 Ml 3.0         4685076
RUP   001.83 011.5 m E Pg      2011/05/05 18:45:30.0  -0.1                          T                                        4685063
RUP   001.83 011.5 m E Sg      2011/05/05 18:45:53.8   0.0                          T                                        4685064
SMF   002.20 236.0 m E Pn      2011/05/05 18:45:30.0  -0.2                          T                                        4700483
SMF   002.20 236.0 m E Pg      2011/05/05 18:45:37.1   0.2                          T                                        4685050
SMF   002.20 236.0 m E Sg      2011/05/05 18:46:05.4   0.1                          T               23.0  .20 Ml 3.3         4685051
AVF   002.41 243.5 m E Pn      2011/05/05 18:45:32.1  -0.9                          T                                        4700484
AVF   002.41 243.5 m E Pg      2011/05/05 18:45:41.1   0.4                          T                                        4685052
AVF   002.41 243.5 m E Sg      2011/05/05 18:46:11.8   0.1                          T                4.7  .18 Ml 2.7         4685053
GIVF  002.46 334.0 m E Pn      2011/05/05 18:45:33.8   0.1                          T                                        4685069
GIVF  002.46 334.0 m E Pg      2011/05/05 18:45:41.8   0.3                          T                                        4685068
GIVF  002.46 334.0 m E Sg      2011/05/05 18:46:13.5   0.3                          T                4.7  .19 Ml 2.7         4685070
LPL   002.40 176.0 m E Pn      2011/05/05 18:45:34.0   0.8                          T                                        4685044
LPL   002.40 176.0 m E Pg      2011/05/05 18:45:40.7   0.0                          T                                        4685041
LPL   002.40 176.0 m E Sg      2011/05/05 18:46:11.6  -0.1                          T                4.1  .27 Ml 2.5         4685032
LPG   002.42 175.7 m E Pn      2011/05/05 18:45:34.5   1.0                          T                                        4685043
LPG   002.42 175.7 m E Pg      2011/05/05 18:45:41.4   0.2                          T                                        4685042
LPG   002.42 175.7 m E Sg      2011/05/05 18:46:12.6   0.3                          T                8.6  .32 Ml 2.7         4685033
BAIF  002.63 325.9 m E Pn      2011/05/05 18:45:36.0   0.0                          T                                        4685066
BAIF  002.63 325.9 m E Pg      2011/05/05 18:45:44.8   0.1                          T                                        4685065
BAIF  002.63 325.9 m E Sg      2011/05/05 18:46:18.7   0.2                          T                4.5  .28 Ml 2.5         4685067
HYF   002.69 257.6 m E Pn      2011/05/05 18:45:36.7  -0.2                          T                                        4700481
HYF   002.69 257.6 m E Pg      2011/05/05 18:45:46.2   0.4                          T                                        4700482
HYF   002.69 257.6 m E Sg      2011/05/05 18:46:20.4   0.1                          T                                        4685049
BGF   002.83 242.8 m E Pn      2011/05/05 18:45:37.8  -1.0                          T                                        4700480
BGF   002.83 242.8 m E Pg      2011/05/05 18:45:48.5   0.1                          T                                        4685047
BGF   002.83 242.8 m E Sg      2011/05/05 18:46:24.8   0.0                          T               12.5  .31 Ml 3.0         4685048
ORIF  003.02 188.3 m E Pn      2011/05/05 18:45:41.6   0.1                          T                                        4685040
ORIF  003.02 188.3 m E Pg      2011/05/05 18:45:52.0  -0.1                          T                                        4685039
ORIF  003.02 188.3 m E Sg      2011/05/05 18:46:31.2   0.4                          T               11.6  .35 Ml 2.9         4685031
MBDF  003.19 176.5 m E Pn      2011/05/05 18:45:44.1   0.3                          T                                        4685038
MBDF  003.19 176.5 m E Pg      2011/05/05 18:45:55.3   0.1                          T                                        4685037
MBDF  003.19 176.5 m E Sg      2011/05/05 18:46:36.1  -0.1                          T                1.1  .24 Ml 2.2         4685030
VIVF  003.30 203.1 m E Pn      2011/05/05 18:45:45.0  -0.3                          T                                        4685036
VIVF  003.30 203.1 m E Pg      2011/05/05 18:45:57.2   0.1                          T                                        4685035
VIVF  003.30 203.1 m E Sn      2011/05/05 18:46:21.4  -0.4                          T                                        4700477
VIVF  003.30 203.1 m E Sg      2011/05/05 18:46:39.9   0.3                          T                8.1  .24 Ml 3.0         4685029
TCF   003.35 242.6 m E Pn      2011/05/05 18:45:45.9   0.1                          T                                        4685072
TCF   003.35 242.6 m E Pg      2011/05/05 18:45:57.9  -0.1                          T                                        4685071
TCF   003.35 242.6 m E Sg      2011/05/05 18:46:40.8  -0.1                          T                4.7  .28 Ml 2.8         4685073
MFF   004.71 256.3 m E Pn      2011/05/05 18:46:03.9  -0.4                          T                                        4700478
MFF   004.71 256.3 m E Sg      2011/05/05 18:47:23.1  -0.2                          T                1.3  .23 Ml 2.7         4685024
LASF  004.25 206.6 m E Pg      2011/05/05 18:46:14.5   0.0                          T                                        4685034
LASF  004.25 206.6 m E Sg      2011/05/05 18:47:09.0  -0.1                          T                5.1  .38 Ml 2.8         4685028
CAF   004.28 227.4 m E Sg      2011/05/05 18:47:10.1   0.1                          T                1.2  .18 Ml 2.5         4685026
RJF   004.31 234.6 m E Sg      2011/05/05 18:47:10.7  -0.2                          T                2.2  .23 Ml 2.4         4685025
LDF   004.47 281.3 m E Sg      2011/05/05 18:47:16.0  -0.1                          T                7.2  .35 Ml 3.0         4685022
FLN   004.73 283.0 m E Sg      2011/05/05 18:47:24.1   0.0                          T                5.7  .27 Ml 3.0         4685021
GRR   004.95 278.3 m E Sg      2011/05/05 18:47:30.1  -0.7                          T                4.9  .19 Ml 3.1         4685023
MTLF  005.46 214.9 m E Sg      2011/05/05 18:47:47.2   0.3                          T                 .9  .30 Ml 2.4         4685027

.
EVENT     258968
    Date      Time       Latitude Longitude    Depth    Ndef Nsta Gap    Mag1  N    Mag2  N    Mag3  N   Author         ID
       rms   OT_Error      Smajor Sminor Az        Err   mdist  Mdist     Err        Err        Err      Quality

2011/05/05 18:48:16.1     44.6095    7.2586      2.0      15    9 192  Ml 1.3  7  Md 1.4  1              js067245    258968

      0.29   +-  0.11       2.4    1.2   76.67 +-  0.0    0.37   1.86   +-0.2      +-                    m i ke

NORTHERN ITALY
Sta     Dist  EvAz     Phase      Date       Time     TRes  Azim  AzRes  Slow  SRes Def   SNR       Amp   Per   Mag1   Mag2       ID
MBDF  000.37 288.8 m E Pg      2011/05/05 18:48:23.5   0.2                          T                                        4685244
MBDF  000.37 288.8 m E Sg      2011/05/05 18:48:28.1  -0.1                          T                2.5  .17        Md 1.4  4685245
SBF   000.76 170.3 m E Pg      2011/05/05 18:48:30.4   0.0                          T                                        4685239
SBF   000.76 170.3 m E Sg      2011/05/05 18:48:40.0  -0.3                          T                 .9  .16                4685238
LPG   000.96 338.1 m E Pg      2011/05/05 18:48:34.4   0.0                          T                                        4685241
LPG   000.96 338.1 m E Sg      2011/05/05 18:48:46.7  -0.2                          T                 .6  .21 Ml 1.2         4685234
LPL   000.98 337.8 m E Pg      2011/05/05 18:48:34.8   0.1                          T                                        4685242
LPL   000.98 337.8 m E Sg      2011/05/05 18:48:47.3  -0.2                          T                 .7  .24 Ml 1.3         4685233
ORIF  001.03 287.9 m E Pg      2011/05/05 18:48:35.5   0.0                          T                                        4685243
ORIF  001.03 287.9 m E Sg      2011/05/05 18:48:47.9  -1.0                          T                 .4  .21 Ml 1.1         4685232
FRF   001.14 203.0 m E Pg      2011/05/05 18:48:37.5   0.2                          T                                        4685240
FRF   001.14 203.0 m E Sg      2011/05/05 18:48:52.0  -0.1                          T                1.0  .19 Ml 1.6         4685236
LMR   001.39 203.3 m E Sg      2011/05/05 18:48:59.3  -0.5                          T                 .6  .18 Ml 1.5         4685237
SMRF  001.36 242.9 m E Sg      2011/05/05 18:48:59.7   0.5                          T                 .3  .22 Ml 1.1         4685235
VIVF  001.86 278.5 m E Sg      2011/05/05 18:49:14.9   0.3                          T                 .2  .23 Ml 1.0         4685231

.
EVENT     258970
    Date      Time       Latitude Longitude    Depth    Ndef Nsta Gap    Mag1  N    Mag2  N    Mag3  N   Author         ID
       rms   OT_Error      Smajor Sminor Az        Err   mdist  Mdist     Err        Err        Err      Quality

2011/05/05 22:58:44.4     44.6057    7.2658      2.0      20    9 192  Ml 1.9  7  Md 1.8  1              js067245    258970

      0.29   +-  0.11       2.2    1.1   74.80 +-  0.0    0.35   1.87   +-0.3      +-                    m i ke

NORTHERN ITALY
Sta     Dist  EvAz     Phase      Date       Time     TRes  Azim  AzRes  Slow  SRes Def   SNR       Amp   Per   Mag1   Mag2       ID
MBDF  000.37 289.1 m E Pg      2011/05/05 22:58:52.0   0.2                          T                                        4685261
MBDF  000.37 289.1 m E Sg      2011/05/05 22:58:56.6  -0.2                          T               16.7  .18        Md 1.8  4685262
SBF   000.75 170.6 m E Pg      2011/05/05 22:58:58.8   0.2                          T                                        4685254
SBF   000.75 170.6 m E Sg      2011/05/05 22:59:08.4   0.0                          T                3.3  .19                4685253
LPG   000.96 337.9 m E Pg      2011/05/05 22:59:02.8   0.0                          T                                        4685258
LPG   000.96 337.9 m E Sg      2011/05/05 22:59:15.1  -0.2                          T                2.0  .21 Ml 1.8         4685249
LPL   000.99 337.6 m E Pg      2011/05/05 22:59:03.3   0.1                          T                                        4685259
LPL   000.99 337.6 m E Sg      2011/05/05 22:59:15.8  -0.2                          T                3.0  .25 Ml 1.9         4685248
ORIF  001.04 288.1 m E Pg      2011/05/05 22:59:03.9   0.0                          T                                        4685260
ORIF  001.04 288.1 m E Sg      2011/05/05 22:59:16.3  -1.0                          T                1.3  .21 Ml 1.6         4685247
FRF   001.14 203.3 m E Pg      2011/05/05 22:59:05.9   0.3                          T                                        4685256
FRF   001.14 203.3 m E Sg      2011/05/05 22:59:20.5   0.1                          T                4.7  .20 Ml 2.3         4685251
LMR   001.38 203.5 m E Pg      2011/05/05 22:59:09.8  -0.4                          T                                        4685255
LMR   001.38 203.5 m E Sg      2011/05/05 22:59:27.8  -0.3                          T                5.6  .24 Ml 2.4         4685252
SMRF  001.37 243.2 m E Pg      2011/05/05 22:59:10.1   0.1                          T                                        4685257
SMRF  001.37 243.2 m E Sg      2011/05/05 22:59:28.2   0.6                          T                1.3  .32 Ml 1.6         4685250
VIVF  001.87 278.6 m E Sg      2011/05/05 22:59:43.3   0.2                          T                1.0  .33 Ml 1.7         4685246

.
EVENT     258971
    Date      Time       Latitude Longitude    Depth    Ndef Nsta Gap    Mag1  N    Mag2  N    Mag3  N   Author         ID
       rms   OT_Error      Smajor Sminor Az        Err   mdist  Mdist     Err        Err        Err      Quality

2011/05/05 23:33:11.2     42.6061     .8988      4.0 f    21    5 063  Ml 1.6  4  Md 2.0  2              js067245    258971

      0.33   +-  0.06       1.0     .9   21.56 +-  0.0    0.26   2.47   +-0.2      +-0.2                 m i ke

PYRENEES
Sta     Dist  EvAz     Phase      Date       Time     TRes  Azim  AzRes  Slow  SRes Def   SNR       Amp   Per   Mag1   Mag2       ID
EPF   000.59 316.1 m E Pg      2011/05/05 23:33:22.3  -0.2                          T                                        4685309
EPF   000.59 316.1 m E Sg      2011/05/05 23:33:30.1  -0.2                          T                3.3  .24        Md 2.1  4685310
ETSF  001.11 285.7 m E Pg      2011/05/05 23:33:32.0  -0.2                          T                                        4685315
ETSF  001.11 285.7 m E Sg      2011/05/05 23:33:46.7   0.1                          T                2.6  .22 Ml 1.9 Md 1.8  4685316
MTLF  001.22 052.4 m E Pg      2011/05/05 23:33:34.0   0.0                          T                                        4685312
MTLF  001.22 052.4 m E Sg      2011/05/05 23:33:49.4  -0.3                          T                 .7  .25 Ml 1.4         4685313
SJPF  001.64 288.7 m E Sg      2011/05/05 23:34:03.1   0.1                          T                 .9  .30 Ml 1.6         4685311
CAF   002.47 019.6 m E Sg      2011/05/05 23:34:28.8   0.0                          T                 .3  .18 Ml 1.5         4685314

.
