EVENT     258522
    Date      Time       Latitude Longitude    Depth    Ndef Nsta Gap    Mag1  N    Mag2  N    Mag3  N   Author         ID
       rms   OT_Error      Smajor Sminor Az        Err   mdist  Mdist     Err        Err        Err      Quality

2011/04/21 14:21:19.3     44.1080    6.7150      2.0      30   12 111  Ml 2.4 10  Md 2.4  3              js067245    258522

      0.71   +-  0.04       1.0     .7   68.70 +-  0.0    0.55   3.35   +-0.2      +-0.1                 m i ke

FRANCE
Sta     Dist  EvAz     Phase      Date       Time     TRes  Azim  AzRes  Slow  SRes Def   SNR       Amp   Per   Mag1   Mag2       ID
FRF   000.55 185.2 m E Pg      2011/04/21 14:21:29.9   0.1                          T                                        4678367
FRF   000.55 185.2 m E Sg      2011/04/21 14:21:36.9  -0.1                          T               50.5  .26        Md 2.4  4678360
SBF   000.57 115.0 m E Pg      2011/04/21 14:21:30.4   0.0                          T                                        4678364
SBF   000.57 115.0 m E Sg      2011/04/21 14:21:37.9   0.1                          T               37.9  .24        Md 2.5  4678358
MBDF  000.62 003.7 m E Pg      2011/04/21 14:21:31.2  -0.1                          T                                        4678369
MBDF  000.62 003.7 m E Sg      2011/04/21 14:21:39.6   0.2                          T               21.3  .22        Md 2.3  4678363
LMR   000.79 191.0 m E Pg      2011/04/21 14:21:33.9  -0.3                          T                                        4678365
LMR   000.79 191.0 m E Sg      2011/04/21 14:21:44.8   0.4                          T               25.8  .18                4678359
SMRF  000.83 261.3 m E Pg      2011/04/21 14:21:35.1   0.0                          T                                        4678366
SMRF  000.83 261.3 m E Sg      2011/04/21 14:21:45.8  -0.1                          T               35.2  .20                4678361
ORIF  001.01 323.9 m E Pg      2011/04/21 14:21:38.2  -0.2                          T                                        4678368
ORIF  001.01 323.9 m E Sg      2011/04/21 14:21:51.7   0.3                          T               13.0  .22 Ml 2.6         4678362
LPG   001.39 001.1 m E Pg      2011/04/21 14:21:45.5  -0.1                          T                                        4678352
LPG   001.39 001.1 m E Sg      2011/04/21 14:22:03.7   0.1                          T                6.3  .30 Ml 2.3         4678350
LPL   001.41 000.5 m E Pg      2011/04/21 14:21:45.9   0.0                          T                                        4678353
LPL   001.41 000.5 m E Sg      2011/04/21 14:22:04.2   0.1                          T                5.2  .34 Ml 2.2         4678351
VIVF  001.64 297.8 m E Pn      2011/04/21 14:21:47.5   0.0                          T                                        4678356
VIVF  001.64 297.8 m E Sn      2011/04/21 14:22:08.1   0.1                          T                6.5  .32 Ml 2.4         4678357
LASF  002.06 270.1 m E Pn      2011/04/21 14:21:53.3   0.1                          T                                        4678348
LASF  002.06 270.1 m E Sn      2011/04/21 14:22:18.0   0.0                          T                1.9  .25 Ml 2.1         4678349
PGF   002.28 132.3 m E Pn      2011/04/21 14:21:56.4   0.0                          T                                        4678354
PGF   002.28 132.3 m E Sn      2011/04/21 14:22:23.4   0.0                          T                6.7  .27 Ml 2.9         4678355
MTLF  003.35 258.3 m E Pn      2011/04/21 14:22:10.8   0.1                          T                                        4678347
MTLF  003.35 258.3 m E Sn      2011/04/21 14:22:48.7   0.0                          T                2.0  .32 Ml 2.3         4678344

.
EVENT     258523
    Date      Time       Latitude Longitude    Depth    Ndef Nsta Gap    Mag1  N    Mag2  N    Mag3  N   Author         ID
       rms   OT_Error      Smajor Sminor Az        Err   mdist  Mdist     Err        Err        Err      Quality

2011/04/21 14:30:01.0     49.1952    6.0593       .0 f    17    9 174  Ml 2.1  8  Md 2.3  3              js067245    258523

      0.30   +-  0.06       1.3     .7   57.84 +-  0.0    0.68   2.43   +-0.2      +-0.1                 m i km

GERMANY
Sta     Dist  EvAz     Phase      Date       Time     TRes  Azim  AzRes  Slow  SRes Def   SNR       Amp   Per   Mag1   Mag2       ID
PAGF  000.68 199.1 m E Pg      2011/04/21 14:30:14.1   0.1                          T                                        4678391
PAGF  000.68 199.1 m E Sg      2011/04/21 14:30:23.2   0.1  17.4  -1.5              T                3.1  .69        Md 2.2  4678384
MEZF  000.96 224.2 m E Pg      2011/04/21 14:30:19.0  -0.2                          T                                        4678388
MEZF  000.96 224.2 m E Sg      2011/04/21 14:30:32.1   0.1                          T                8.3  .28 Ml 2.3 Md 2.4  4678383
CDF   001.12 133.8 m E Pg      2011/04/21 14:30:22.3  -0.2                          T                                        4678396
CDF   001.12 133.8 m E Sg      2011/04/21 14:30:36.9  -0.3                          T                3.1  .40 Ml 1.9         4678395
SFTF  001.20 214.7 m E Pg      2011/04/21 14:30:23.7   0.0                          T                                        4678387
SFTF  001.20 214.7 m E Sg      2011/04/21 14:30:39.1  -0.3                          T                2.3  .19 Ml 2.0 Md 2.4  4678382
GIVF  001.21 319.0 m E Pg      2011/04/21 14:30:23.9   0.0                          T                                        4678390
GIVF  001.21 319.0 m E Sg      2011/04/21 14:30:39.9   0.1                          T               11.6  .33 Ml 2.5         4678393
HAU   001.21 170.7 m E Pg      2011/04/21 14:30:24.0   0.1                          T                                        4678397
HAU   001.21 170.7 m E Sg      2011/04/21 14:30:40.0   0.3                          T                5.4  .28 Ml 2.0         4678394
BAIF  001.48 306.4 m E Pg      2011/04/21 14:30:29.0   0.1                          T                                        4678389
BAIF  001.48 306.4 m E Sg      2011/04/21 14:30:48.1  -0.1                          T                9.0  .46 Ml 2.3         4678385
HINF  001.48 158.8 m E Pg      2011/04/21 14:30:29.0   0.2                          T                                        4678386
HINF  001.48 158.8 m E Sg      2011/04/21 14:30:48.0  -0.1                          T                5.1  .36 Ml 2.2         4678392
LOR   002.43 218.2 m E Sg      2011/04/21 14:31:17.9   0.2  32.8  -3.8              T                1.5  .28 Ml 2.0         4681006

.
EVENT     258524
    Date      Time       Latitude Longitude    Depth    Ndef Nsta Gap    Mag1  N    Mag2  N    Mag3  N   Author         ID
       rms   OT_Error      Smajor Sminor Az        Err   mdist  Mdist     Err        Err        Err      Quality

2011/04/21 18:33:27.0     43.0643    -.2162      2.0       6    3 180             Md 1.5  3              js067245    258524

      0.30   +-  0.16       8.1    2.3  175.98 +-  0.0    0.30   0.74              +-0.0                 m i ke

PYRENEES
Sta     Dist  EvAz     Phase      Date       Time     TRes  Azim  AzRes  Slow  SRes Def   SNR       Amp   Per   Mag1   Mag2       ID
ETSF  000.30 236.8 m E Pg      2011/04/21 18:33:33.1   0.1                          T                                        4678724
ETSF  000.30 236.8 m E Sg      2011/04/21 18:33:36.2  -0.8                          T                4.3  .24        Md 1.5  4678722
EPF   000.41 094.6 m E Pg      2011/04/21 18:33:34.8  -0.1                          T                                        4678723
EPF   000.41 094.6 m E Sg      2011/04/21 18:33:40.2  -0.2                          T                2.9  .20        Md 1.5  4678721
SJPF  000.74 274.1 m E Pg      2011/04/21 18:33:40.8  -0.2                          T                                        4678719
SJPF  000.74 274.1 m E Sg      2011/04/21 18:33:50.6   0.0                          T                1.1  .36        Md 1.5  4678720

.
EVENT     258525
    Date      Time       Latitude Longitude    Depth    Ndef Nsta Gap    Mag1  N    Mag2  N    Mag3  N   Author         ID
       rms   OT_Error      Smajor Sminor Az        Err   mdist  Mdist     Err        Err        Err      Quality

2011/04/21 19:02:54.3     43.0828    -.2197      2.0       6    3 184             Md 1.5  3              js067245    258525

      0.36   +-  0.19       9.2    2.8  176.49 +-  0.0    0.31   0.74              +-0.0                 m i ke

PYRENEES
Sta     Dist  EvAz     Phase      Date       Time     TRes  Azim  AzRes  Slow  SRes Def   SNR       Amp   Per   Mag1   Mag2       ID
ETSF  000.31 233.6 m E Pg      2011/04/21 19:03:00.6   0.1                          T                                        4678783
ETSF  000.31 233.6 m E Sg      2011/04/21 19:03:03.9  -0.8                          T                6.1  .27        Md 1.6  4678779
EPF   000.41 097.1 m E Pg      2011/04/21 19:03:02.2  -0.2                          T                                        4678782
EPF   000.41 097.1 m E Sg      2011/04/21 19:03:07.8   0.0                          T                3.6  .22        Md 1.5  4678778
SJPF  000.74 272.7 m E Pg      2011/04/21 19:03:08.3   0.0                          T                                        4678781
SJPF  000.74 272.7 m E Sg      2011/04/21 19:03:17.2  -0.7                          T                1.5  .34        Md 1.6  4678780

.
EVENT     258526
    Date      Time       Latitude Longitude    Depth    Ndef Nsta Gap    Mag1  N    Mag2  N    Mag3  N   Author         ID
       rms   OT_Error      Smajor Sminor Az        Err   mdist  Mdist     Err        Err        Err      Quality

2011/04/22 00:10:16.3     37.3840   -2.2715      2.0     102    9 112  Ml 3.0  6                         js067245    258526

      0.90   +-  0.14       2.8    1.9  146.45 +-  0.0    0.41  10.97   +-0.2                            m i ke

SPAIN
Sta     Dist  EvAz     Phase      Date       Time     TRes  Azim  AzRes  Slow  SRes Def   SNR       Amp   Per   Mag1   Mag2       ID
ETSF  005.66 012.9 m E Pn      2011/04/22 00:11:40.4   1.1                          T                                        4678879
ETSF  005.66 012.9 m E Sg      2011/04/22 00:13:13.6   0.0                          T                5.1  .48 Ml 3.0         4678875
SJPF  005.78 007.6 m E Pn      2011/04/22 00:11:42.4   1.6                          T                                        4678880
SJPF  005.78 007.6 m E Sg      2011/04/22 00:13:17.1  -0.1                          T                4.1  .41 Ml 3.0         4678876
EPF   005.98 018.7 m E Pn      2011/04/22 00:11:44.7   1.1                          T                                        4678878
EPF   005.98 018.7 m E Sg      2011/04/22 00:13:23.7   0.1                          T                3.1  .33 Ml 3.1         4678874
MTLF  006.87 028.5 m E Pn      2011/04/22 00:11:55.5  -0.1                          T                                        4678867
MTLF  006.87 028.5 m E Sn      2011/04/22 00:13:09.8   0.1                          T                 .8  .28 Ml 2.7         4678866
AVF   010.28 022.2 m E Pn      2011/04/22 00:12:41.9  -0.2                          T                                        4678871
SMF   010.31 024.2 m E Pn      2011/04/22 00:12:42.5   0.0                          T                                        4678870
QUIF  010.55 356.7 m E Pn      2011/04/22 00:12:45.7   0.0                          T                                        4678877
QUIF  010.55 356.7 m E Sn      2011/04/22 00:14:37.6   0.0                          T                1.2  .28 Ml 3.4         4678873
SGMF  010.87 359.0 m E Pn      2011/04/22 00:12:49.9  -0.1                          T                                        4678868
ROSF  010.97 356.5 m E Pn      2011/04/22 00:12:51.4  -0.1                          T                                        4678869

.
EVENT     258701
    Date      Time       Latitude Longitude    Depth    Ndef Nsta Gap    Mag1  N    Mag2  N    Mag3  N   Author         ID
       rms   OT_Error      Smajor Sminor Az        Err   mdist  Mdist     Err        Err        Err      Quality

2011/04/22 10:17:02.5     43.7658    5.6968       .0 f    15    8 157  Ml 1.9  2  Md 2.0  2              js067245    258701

      0.75   +-  0.26       6.4    3.3   31.24 +-  0.0    0.23   1.37   +-0.1      +-0.1                 m i km

NEAR SOUTH COAST OF FRANCE
Sta     Dist  EvAz     Phase      Date       Time     TRes  Azim  AzRes  Slow  SRes Def   SNR       Amp   Per   Mag1   Mag2       ID
SMRF  000.23 337.4 m E Pg      2011/04/22 10:17:07.4   0.1                          T                                        4680978
SMRF  000.23 337.4 m E Sg      2011/04/22 10:17:12.4   1.8                          T               30.4  .32        Md 2.0  4680979
FRF   000.72 106.2 m E Pg      2011/04/22 10:17:15.8  -0.5                          T                                        4680976
FRF   000.72 106.2 m E Sg      2011/04/22 10:17:24.5  -1.5                          T                7.7  .27        Md 2.1  4680977
LMR   000.73 125.9 m E Pg      2011/04/22 10:17:17.4   0.8                          T                                        4680972
LMR   000.73 125.9 m E Sg      2011/04/22 10:17:27.8   1.5                          T                3.9  .34                4680973
ORIF  001.16 006.4 m E Pg      2011/04/22 10:17:24.9   0.3                          T                                        4680969
MBDF  001.23 038.4 m E Pg      2011/04/22 10:17:25.5  -0.5                          T                                        4680974
MBDF  001.23 038.4 m E Sg      2011/04/22 10:17:42.7   0.5                          T                2.0  .24 Ml 1.8         4680975
SBF   001.26 085.0 m E Pg      2011/04/22 10:17:25.9  -0.6                          T                                        4680970
SBF   001.26 085.0 m E Sg      2011/04/22 10:17:43.7   0.7                          T                1.9  .15 Ml 2.0         4680971
VIVF  001.31 326.4 m E Pg      2011/04/22 10:17:27.4   0.0                          T                                        4680967
VIVF  001.31 326.4 m E Sg      2011/04/22 10:17:44.0  -0.6                          T                                        4680968
LASF  001.37 283.8 m E Pg      2011/04/22 10:17:27.7  -0.6                          T                                        4680965
LASF  001.37 283.8 m E Sg      2011/04/22 10:17:46.7   0.5                          T                                        4680966

.
EVENT     258532
    Date      Time       Latitude Longitude    Depth    Ndef Nsta Gap    Mag1  N    Mag2  N    Mag3  N   Author         ID
       rms   OT_Error      Smajor Sminor Az        Err   mdist  Mdist     Err        Err        Err      Quality

2011/04/22 10:18:00.3     47.6319    6.2560       .0 f    16    8 121  Ml 2.0  6  Md 2.0  2              js067245    258532

      0.98   +-  0.16       3.0    2.5  142.50 +-  0.0    0.38   1.67   +-0.2      +-0.0                 m i km

FRANCE
Sta     Dist  EvAz     Phase      Date       Time     TRes  Azim  AzRes  Slow  SRes Def   SNR       Amp   Per   Mag1   Mag2       ID
HAU   000.38 009.4 m E Pg      2011/04/22 10:18:07.4  -0.5                          T                                        4678928
HAU   000.38 009.4 m E Sg      2011/04/22 10:18:12.9  -0.3                          T               72.9  .82        Md 1.9  4678926
HINF  000.44 065.1 m E Pg      2011/04/22 10:18:09.3   0.2                          T                                        4678927
HINF  000.44 065.1 m E Sg      2011/04/22 10:18:15.2   0.0                          T               43.4  .88        Md 2.0  4678925
SFTF  001.00 305.4 m E Pg      2011/04/22 10:18:19.1  -0.2 129.7  5.1               T                                        4678922
SFTF  001.00 305.4 m E Sg      2011/04/22 10:18:32.7   0.2                          T                3.9  .34 Ml 1.9         4678911
CDF   001.04 040.9 m E Pg      2011/04/22 10:18:19.8  -0.4                          T                                        4678919
CDF   001.04 040.9 m E Sg      2011/04/22 10:18:34.4   0.6                          T                8.8  .48 Ml 2.2         4678914
PAGF  000.99 339.1 m E Pg      2011/04/22 10:18:20.2   1.0 153.4  -5.3              T                                        4678920
PAGF  000.99 339.1 m E Sg      2011/04/22 10:18:32.1  -0.1 155.6  -3.1              T               11.4 1.12 Ml 1.8         4678913
CABF  001.03 186.5 m E Pg      2011/04/22 10:18:20.2   0.2                          T                                        4680474
CABF  001.03 186.5 m E Sn      2011/04/22 10:18:35.0   0.0                          T               10.3  .61 Ml 2.1         4678923
MEZF  001.19 317.6 m E Pg      2011/04/22 10:18:23.0   0.2 130.5  -6.2              T                                        4678921
MEZF  001.19 317.6 m E Sg      2011/04/22 10:18:38.0  -0.4                          T               13.0  .64 Ml 2.2         4678912
LOR   001.67 258.3 m E Pg      2011/04/22 10:18:31.3  -0.3                          T                                        4680473
LOR   001.67 258.3 m E Sg      2011/04/22 10:18:52.9  -0.5                          T                1.1  .24 Ml 1.8         4678918

.
EVENT     258527
    Date      Time       Latitude Longitude    Depth    Ndef Nsta Gap    Mag1  N    Mag2  N    Mag3  N   Author         ID
       rms   OT_Error      Smajor Sminor Az        Err   mdist  Mdist     Err        Err        Err      Quality

2011/04/22 14:51:09.4     42.8521   -1.3324      2.0      26    3 075  Ml 1.2  1  Md 1.2  2              js067245    258527

      0.22   +-  0.05       1.2     .8    9.76 +-  0.0    0.05   1.24   +-         +-0.1                 m i ke

PYRENEES
Sta     Dist  EvAz     Phase      Date       Time     TRes  Azim  AzRes  Slow  SRes Def   SNR       Amp   Per   Mag1   Mag2       ID
SJPF  000.27 016.8 m E Pg      2011/04/22 14:51:14.8   0.1                          T                                        4678930
SJPF  000.27 016.8 m E Sg      2011/04/22 14:51:18.4  -0.1                          T                6.2  .35        Md 1.3  4678929
ETSF  000.57 085.1 m E Pg      2011/04/22 14:51:20.4   0.1                          T                                        4678934
ETSF  000.57 085.1 m E Sg      2011/04/22 14:51:27.7  -0.1                          T                 .9  .22        Md 1.2  4678931
EPF   001.24 081.2 m E Pg      2011/04/22 14:51:32.7   0.0                          T                                        4678933
EPF   001.24 081.2 m E Sg      2011/04/22 14:51:48.8   0.1                          T                 .4  .25 Ml 1.2         4678932

.
