EVENT     278558
    Date      Time       Latitude Longitude    Depth    Ndef Nsta Gap    Mag1  N    Mag2  N    Mag3  N   Author         ID
       rms   OT_Error      Smajor Sminor Az        Err   mdist  Mdist     Err        Err        Err      Quality

2012/06/22 08:14:46.8     45.5679    3.1728       .0 f    67   23 037  Ml 2.8 24  Md 2.6  4              bulletin    278658
                                                                                                         _ldg
      0.72   +-  0.04        .9     .8   91.49 +-  0.0    0.62   3.29   +-0.2      +-0.1                 m i km

FRANCE
Sta     Dist  EvAz     Phase      Date       Time     TRes  Azim  AzRes  Slow  SRes Def   SNR       Amp   Per   Mag1   Mag2       ID
TCF   000.99 317.3 m E Pg      2012/06/22 08:15:05.8   0.2                          T                                        5009054
TCF   000.99 317.3 m E Pn      2012/06/22 08:15:06.6   0.2                          T                                        5009089
TCF   000.99 317.3 m E Sg      2012/06/22 08:15:18.7   0.1                          T               43.7  .42 Ml 2.9         5009077
BGF   001.02 347.2 m E Pg      2012/06/22 08:15:06.1   0.0                          T                                        5009061
BGF   001.02 347.2 m E Sg      2012/06/22 08:15:19.5   0.0                          T              244.5  .40 Ml 3.6         5009088
CAF   001.01 231.0 m E Pg      2012/06/22 08:15:06.2   0.1                          T                                        5009060
CAF   001.01 231.0 m E Sn      2012/06/22 08:15:21.3   0.2                          T               34.9  .42 Ml 2.7 Md 2.5  5009160
SMF   001.17 023.1 m E Pg      2012/06/22 08:15:08.9  -0.1                          T                                        5009056
SMF   001.17 023.1 m E Sg      2012/06/22 08:15:24.6   0.2                          T               10.6  .19 Ml 2.6         5009076
RJF   001.20 257.9 m E Pn      2012/06/22 08:15:09.2  -0.1                          T                                        5009059
RJF   001.20 257.9 m E Sg      2012/06/22 08:15:25.7   0.7                          T               38.0  .34 Ml 2.6 Md 2.5  5009164
AVF   001.23 005.8 m E Pg      2012/06/22 08:15:09.4  -0.6                          T                                        5009055
AVF   001.23 005.8 m E Sg      2012/06/22 08:15:26.2   0.1                          T               29.0  .42 Ml 2.8         5009074
AVF   001.23 005.8 m E Sn      2012/06/22 08:15:29.4   3.2                          T                                        5009073
VIVF  001.28 123.3 m E Pn      2012/06/22 08:15:10.5   0.1                          T                                        5009057
VIVF  001.28 123.3 m E Sn      2012/06/22 08:15:27.7   0.3                          T               37.6  .34 Ml 3.0 Md 2.6  5009147
SSF   001.51 008.7 m E Pn      2012/06/22 08:15:13.8   0.2                          T                                        5009083
SSF   001.51 008.7 m E Pg      2012/06/22 08:15:15.1  -0.1                          T                                        5009052
SSF   001.51 008.7 m E Sn      2012/06/22 08:15:33.1   0.1                          T                                        5009080
SSF   001.51 008.7 m E Sg      2012/06/22 08:15:35.2   0.2                          T               39.0  .56 Ml 3.0         5009079
LASF  001.57 161.7 m E Pg      2012/06/22 08:15:16.6   0.3                          T                                        5009058
LASF  001.57 161.7 m E Sg      2012/06/22 08:15:36.9   0.2                          T               27.7  .46 Ml 2.8         5009146
HYF   001.74 348.0 m E Pn      2012/06/22 08:15:16.6  -0.1                          T                                        5009075
HYF   001.74 348.0 m E Sg      2012/06/22 08:15:42.0  -0.1                          T                                        5023332
LOR   001.77 015.3 m E Pn      2012/06/22 08:15:17.3   0.2 191.2  -4.7              T                                        5009082
LOR   001.77 015.3 m E Pg      2012/06/22 08:15:19.7  -0.3 197.3  1.4               T                                        5009053
LOR   001.77 015.3 m E Sn      2012/06/22 08:15:39.3   0.2                          T                                        5009078
LOR   001.77 015.3 m E Sg      2012/06/22 08:15:43.0   0.1 198.7  2.9               T               23.6  .42 Ml 2.9         5009081
LFF   001.83 250.8 m E Pn      2012/06/22 08:15:17.8   0.0                          T                                        5009163
LFF   001.83 250.8 m E Sn      2012/06/22 08:15:40.3  -0.2                          T                                        5009162
LFF   001.83 250.8 m E Sg      2012/06/22 08:15:45.1   0.2                          T               30.7  .40 Ml 2.9         5009161
ORIF  002.02 107.8 m E Pn      2012/06/22 08:15:20.6   0.0                          T                                        5009159
ORIF  002.02 107.8 m E Sg      2012/06/22 08:15:50.9   0.0                          T               17.3  .50 Ml 2.7         5009142
CABF  002.28 061.7 m E Pn      2012/06/22 08:15:24.2   0.1                          T                                        5009086
CABF  002.28 061.7 m E Pg      2012/06/22 08:15:29.5   0.0                          T                                        5009087
CABF  002.28 061.7 m E Sg      2012/06/22 08:15:58.9  -0.2                          T               22.7  .50 Ml 2.9         5009072
LPL   002.50 089.9 m E Pn      2012/06/22 08:15:27.4   0.1                          T                                        5009158
LPL   002.50 089.9 m E Sn      2012/06/22 08:15:56.6  -0.3                          T                                        5009157
LPL   002.50 089.9 m E Sg      2012/06/22 08:16:06.0  -0.1                          T                8.8  .44 Ml 2.6         5023335
LPG   002.52 090.3 m E Pn      2012/06/22 08:15:27.8   0.2                          T                                        5009156
LPG   002.52 090.3 m E Sg      2012/06/22 08:16:06.3  -0.3                          T               11.8  .46 Ml 2.7         5009155
SFTF  002.93 025.2 m E Pn      2012/06/22 08:15:32.9   0.0                          T                                        5009165
SFTF  002.93 025.2 m E Sn      2012/06/22 08:16:06.7  -0.2 209.3  2.8               T                1.5  .19 Ml 2.3         5009070
SFTF  002.93 025.2 m E Sg      2012/06/22 08:16:20.5   1.2 209.7  3.1               T               19.9  .55 Ml 3.0         5023336
MEZF  003.20 023.0 m E Pn      2012/06/22 08:15:36.3  -0.3 208.7  4.4               T                                        5009084
MEZF  003.20 023.0 m E Sg      2012/06/22 08:16:28.0   0.3 198.8  -5.5              T               22.8  .52 Ml 3.1         5023337
HAU   003.27 040.7 m E Pn      2012/06/22 08:15:37.8   0.2                          T                                        5009085
MTLF  002.33 197.4 m E Sn      2012/06/22 08:15:52.5   0.1                          T                                        5009145
MTLF  002.33 197.4 m E Sg      2012/06/22 08:16:00.7   0.3                          T               10.9  .44 Ml 2.7         5023331
SMRF  002.34 132.1 m E Sg      2012/06/22 08:16:01.0   0.3                          T               14.8  .58 Ml 2.7         5023329
MBDF  002.68 107.0 m E Sg      2012/06/22 08:16:12.0   0.4                          T                8.1  .52 Ml 2.6         5023330
THEF  003.29 035.0 m E Sn      2012/06/22 08:16:15.2  -0.2                          T                2.4  .19 Ml 2.6         5009071

.
EVENT     278565
    Date      Time       Latitude Longitude    Depth    Ndef Nsta Gap    Mag1  N    Mag2  N    Mag3  N   Author         ID
       rms   OT_Error      Smajor Sminor Az        Err   mdist  Mdist     Err        Err        Err      Quality

2012/06/22 10:34:28.5     44.0630    6.1445      2.0      48   13 047  Ml 2.6 12  Md 2.4  2              bulletin    278665
                                                                                                         _ldg
      0.49   +-  0.08       1.8    1.6    8.78 +-  0.0    0.07   2.94   +-0.3      +-0.1                 m i ke

FRANCE
Sta     Dist  EvAz     Phase      Date       Time     TRes  Azim  AzRes  Slow  SRes Def   SNR       Amp   Per   Mag1   Mag2       ID
SMRF  000.42 258.2 m E Pg      2012/06/22 10:34:36.3  -0.4                          T                                        5009254
SMRF  000.42 258.2 m E Sg      2012/06/22 10:34:42.2   0.0                          T               56.9  .26        Md 2.4  5009248
FRF   000.62 143.9 m E Pg      2012/06/22 10:34:38.9  -1.4                          T                                        5009253
FRF   000.62 143.9 m E Sg      2012/06/22 10:34:47.2  -1.2                          T               32.0  .20        Md 2.3  5009246
LMR   000.78 159.9 m E Pg      2012/06/22 10:34:41.5  -1.6                          T                                        5009250
LMR   000.78 159.9 m E Sg      2012/06/22 10:34:52.9  -0.3                          T               32.4  .24                5009245
MBDF  000.80 033.9 m E Pg      2012/06/22 10:34:43.2  -0.7                          T                                        5009252
MBDF  000.80 033.9 m E Sg      2012/06/22 10:34:54.3   0.0                          T                7.0  .21                5009231
ORIF  000.88 347.6 m E Pg      2012/06/22 10:34:44.5  -0.6                          T                                        5009251
ORIF  000.88 347.6 m E Sg      2012/06/22 10:34:56.8   0.2                          T               28.8  .24 Ml 2.8         5009243
SBF   000.95 101.7 m E Pg      2012/06/22 10:34:46.3  -0.2                          T                                        5009249
SBF   000.95 101.7 m E Sg      2012/06/22 10:34:58.6  -0.3                          T               47.0  .18 Ml 3.2         5009236
VIVF  001.32 307.5 m E Pn      2012/06/22 10:34:52.2  -0.1                          T                                        5009242
VIVF  001.32 307.5 m E Sn      2012/06/22 10:35:09.5   0.0                          T               10.0  .18 Ml 2.7         5009241
LPL   001.51 015.9 m E Pn      2012/06/22 10:34:56.0   0.8                          T                                        5009235
LPL   001.51 015.9 m E Sn      2012/06/22 10:35:14.5   0.2                          T                9.5  .28 Ml 2.6         5009234
LPG   001.50 016.6 m E Pn      2012/06/22 10:34:56.2   1.0                          T                                        5009247
LPG   001.50 016.6 m E Sn      2012/06/22 10:35:12.7  -1.4                          T               20.5  .54 Ml 2.6         5009244
LASF  001.65 271.2 m E Pn      2012/06/22 10:34:56.4  -0.5                          T                                        5009240
LASF  001.65 271.2 m E Sn      2012/06/22 10:35:16.7  -0.7                          T                3.8  .26 Ml 2.3         5009239
CABF  002.55 359.1 m E Pn      2012/06/22 10:35:09.1   0.0                          T                                        5009230
CABF  002.55 359.1 m E Sn      2012/06/22 10:35:38.0  -1.0                          T                1.6  .27 Ml 2.1         5009229
PGF   002.58 125.0 m E Pn      2012/06/22 10:35:09.2  -0.3                          T                                        5009233
PGF   002.58 125.0 m E Sn      2012/06/22 10:35:39.1  -0.5                          T                3.2  .20 Ml 2.8         5009232
MTLF  002.94 257.1 m E Pn      2012/06/22 10:35:15.0   0.6                          T                                        5009238
MTLF  002.94 257.1 m E Sn      2012/06/22 10:35:48.4   0.3                          T                 .6  .16 Ml 2.0         5009237

.
EVENT     278649
    Date      Time       Latitude Longitude    Depth    Ndef Nsta Gap    Mag1  N    Mag2  N    Mag3  N   Author         ID
       rms   OT_Error      Smajor Sminor Az        Err   mdist  Mdist     Err        Err        Err      Quality

2012/06/22 14:42:36.2     43.7974    7.5861       .0 f    14    4 177  Ml 2.0  2  Md 1.8  2              bulletin    278749
                                                                                                         _ldg
      0.29   +-  0.10       3.0    1.2  156.69 +-  0.0    0.10   1.46   +-0.0      +-0.0                 m i km

NEAR SOUTH COAST OF FRANCE
Sta     Dist  EvAz     Phase      Date       Time     TRes  Azim  AzRes  Slow  SRes Def   SNR       Amp   Per   Mag1   Mag2       ID
SBF   000.13 301.1 m E Pg      2012/06/22 14:42:38.8  -0.4                          T                                        5023352
SBF   000.13 301.1 m E Sg      2012/06/22 14:42:41.4   0.2                          T               94.6  .30        Md 1.8  5023353
FRF   000.72 251.2 m E Pg      2012/06/22 14:42:50.0  -0.1                          T                                        5023354
FRF   000.72 251.2 m E P       2012/06/22 14:42:51.7   0.2                          T                                        5023348
FRF   000.72 251.2 m E Sg      2012/06/22 14:42:59.6  -0.1                          T                1.6  .22        Md 1.8  5023349
LMR   000.91 239.7 m E Pg      2012/06/22 14:42:53.7   0.2                          T                                        5023350
LMR   000.91 239.7 m E Sg      2012/06/22 14:43:05.8   0.3                          T                6.3  .38 Ml 2.0         5023351
SMRF  001.46 277.7 m E Sg      2012/06/22 14:43:22.7  -0.3                          T                4.3  .46 Ml 2.0         5023355

.
EVENT     278650
    Date      Time       Latitude Longitude    Depth    Ndef Nsta Gap    Mag1  N    Mag2  N    Mag3  N   Author         ID
       rms   OT_Error      Smajor Sminor Az        Err   mdist  Mdist     Err        Err        Err      Quality

2012/06/22 14:46:02.5     43.8349    7.5750       .0 f    12    4 155  Ml 1.6  2  Md 1.7  2              bulletin    278750
                                                                                                         _ldg
      0.17   +-  0.05       1.4     .7  163.85 +-  0.0    0.09   1.45   +-0.3      +-0.3                 m i km

NEAR SOUTH COAST OF FRANCE
Sta     Dist  EvAz     Phase      Date       Time     TRes  Azim  AzRes  Slow  SRes Def   SNR       Amp   Per   Mag1   Mag2       ID
SBF   000.11 285.6 m E Pg      2012/06/22 14:46:05.0  -0.1                          T                                        5023358
SBF   000.11 285.6 m E Sg      2012/06/22 14:46:07.2   0.4                          T               78.0  .38        Md 1.9  5023359
FRF   000.73 248.2 m E Pg      2012/06/22 14:46:16.4  -0.1                          T                                        5023361
FRF   000.73 248.2 m E Sg      2012/06/22 14:46:26.2   0.1                          T                                        5023363
FRF   000.73 248.2 m E Sn      2012/06/22 14:46:29.9   0.0                          T                 .5  .15        Md 1.4  5023362
LMR   000.92 237.5 m E Pg      2012/06/22 14:46:20.2   0.2                          T                                        5023356
LMR   000.92 237.5 m E Sg      2012/06/22 14:46:32.2   0.0                          T                1.5  .33 Ml 1.4         5023357
SMRF  001.45 276.3 m E Sg      2012/06/22 14:46:48.9   0.1                          T                1.9  .29 Ml 1.8         5023360

.
EVENT     278648
    Date      Time       Latitude Longitude    Depth    Ndef Nsta Gap    Mag1  N    Mag2  N    Mag3  N   Author         ID
       rms   OT_Error      Smajor Sminor Az        Err   mdist  Mdist     Err        Err        Err      Quality

2012/06/22 21:05:55.1     41.2528    1.1210      2.0      19    5 171  Ml 1.7  5                         bulletin    278748
                                                                                                         _ldg
      0.31   +-  0.12       2.2    1.5  144.72 +-  0.0    0.10   3.70   +-0.2                            m i ke

SPAIN
Sta     Dist  EvAz     Phase      Date       Time     TRes  Azim  AzRes  Slow  SRes Def   SNR       Amp   Per   Mag1   Mag2       ID
EPF   001.87 342.2 m E Pn      2012/06/22 21:06:26.5   0.0                          T                                        5012095
EPF   001.87 342.2 m E Sn      2012/06/22 21:06:49.4   0.2                          T                 .8  .18 Ml 1.8         5012094
ETSF  002.07 323.3 m E Pn      2012/06/22 21:06:29.1   0.0                          T                                        5012093
ETSF  002.07 323.3 m E Sn      2012/06/22 21:06:53.8  -0.1                          T                 .4  .27 Ml 1.4         5012092
MTLF  002.24 020.9 m E Pn      2012/06/22 21:06:31.6   0.2                          T                                        5012087
MTLF  002.24 020.9 m E Sn      2012/06/22 21:06:58.1   0.1                          T                 .5  .31 Ml 1.5         5012086
SJPF  002.55 317.6 m E Pn      2012/06/22 21:06:35.7   0.0                          T                                        5012091
SJPF  002.55 317.6 m E Sn      2012/06/22 21:07:05.5   0.0                          T                 .4  .19 Ml 1.7         5012090
LFF   003.70 355.8 m E Pn      2012/06/22 21:06:51.1  -0.1                          T                                        5012089
LFF   003.70 355.8 m E Sn      2012/06/22 21:07:33.2   0.4                          T                  1  .27 Ml 2.0         5012088

.
