EVENT     263704
    Date      Time       Latitude Longitude    Depth    Ndef Nsta Gap    Mag1  N    Mag2  N    Mag3  N   Author         ID
       rms   OT_Error      Smajor Sminor Az        Err   mdist  Mdist     Err        Err        Err      Quality

2011/09/08 15:43:53.2     44.6345   10.4709     20.0 f    51   20 053  Ml 3.5 14                         js067245    263704

      1.22   +-  0.18       4.4    4.0   25.13 +-  0.0    0.17   8.17   +-0.3                            m i ke

NORTHERN ITALY
Sta     Dist  EvAz     Phase      Date       Time     TRes  Azim  AzRes  Slow  SRes Def   SNR       Amp   Per   Mag1   Mag2       ID
SBF   002.31 251.6 m E Pn      2011/09/08 15:44:28.3  -0.2                          T   001.0                                4747534
SBF   002.31 251.6 m E Sn      2011/09/08 15:44:56.3   1.6                          T   001.0      175.6  .40 Ml 3.9         4747535
PGF   002.34 207.7 m E Pn      2011/09/08 15:44:29.4   0.4                          T   001.0                                4747532
PGF   002.34 207.7 m E Sn      2011/09/08 15:44:55.6   0.2                          T   001.0       20.1  .23 Ml 3.5         4747533
MBDF  002.64 273.3 m E Pn      2011/09/08 15:44:33.4   0.3                          T   001.0                                4747543
MBDF  002.64 273.3 m E Sn      2011/09/08 15:45:04.0   1.4                          T   001.0       59.6  .44 Ml 3.5         4747544
LPL   002.79 289.7 m E Pn      2011/09/08 15:44:35.4   0.1                          T   001.0                                4747531
LPG   002.77 289.4 m E Pn      2011/09/08 15:44:35.4   0.3                          T   001.0                                4747530
FRF   002.96 250.0 m E Pn      2011/09/08 15:44:36.8  -0.4                          T   001.0                                4747521
FRF   002.96 250.0 m E Sn      2011/09/08 15:45:10.4   0.5                          T   001.0       45.5  .34 Ml 3.6         4747522
LMR   003.14 246.9 m E Pn      2011/09/08 15:44:39.1  -0.6                          T   001.0                                4747526
LMR   003.14 246.9 m E Sn      2011/09/08 15:45:13.7  -0.6                          T   001.0       79.2  .35 Ml 3.8         4747527
ORIF  003.28 276.6 m E Pn      2011/09/08 15:44:41.9   0.1                          T   001.0                                4747545
ORIF  003.28 276.6 m E Sn      2011/09/08 15:45:18.6   0.8                          T   001.0       44.9  .44 Ml 3.5         4747546
SMRF  003.58 261.1 m E Pn      2011/09/08 15:44:47.3   1.6                          T   001.0                                4747549
CABF  003.66 304.3 m E Pn      2011/09/08 15:44:48.0   1.1                          T   001.0                                4747539
CABF  003.66 304.3 m E Sn      2011/09/08 15:45:28.6   1.8                          T   001.0       20.8  .48 Ml 3.2         4747540
HINF  004.05 323.0 m E Pn      2011/09/08 15:44:52.7   0.5                          T   001.0                                4747542
HINF  004.05 323.0 m E Sn      2011/09/08 15:45:37.7   1.5                          T                                        4752155
VIVF  004.14 275.1 m E Pn      2011/09/08 15:44:53.4   0.1                          T   001.0                                4747547
VIVF  004.14 275.1 m E Sn      2011/09/08 15:45:39.6   1.4                          T   001.0        8.1  .32 Ml 3.1         4747548
CDF   004.37 330.9 m E Pn      2011/09/08 15:44:56.8   0.2                          T                                        4752153
CDF   004.37 330.9 m E Sn      2011/09/08 15:45:44.9   0.9                          T   001.0       18.5  .33 Ml 3.6         4747520
HAU   004.42 321.2 m E Pn      2011/09/08 15:44:57.7   0.5                          T   001.0                                4747523
HAU   004.42 321.2 m E Sn      2011/09/08 15:45:45.2   0.3                          T                                        4752154
LASF  004.78 265.6 m E Pn      2011/09/08 15:45:02.5   0.4                          T   001.0                                4747524
LASF  004.78 265.6 m E Sn      2011/09/08 15:45:55.1   1.7                          T   001.0        7.1  .48 Ml 3.0         4747525
SMF   005.07 295.7 m E Pn      2011/09/08 15:45:06.4   0.4                          T   001.0                                4747536
SMF   005.07 295.7 m E Sn      2011/09/08 15:46:02.2   1.8                          T   001.0       16.8  .48 Ml 3.4         4747537
LOR   005.31 302.1 m E Pn      2011/09/08 15:45:09.0  -0.3                          T   001.0                                4747528
LOR   005.31 302.1 m E Sn      2011/09/08 15:46:05.7  -0.5                          T   001.0       24.5  .44 Ml 3.7         4747529
MTLF  006.09 260.6 m E Pn      2011/09/08 15:45:19.9  -0.1                          T                                        4752152
SSF   005.44 299.0 m E Sn      2011/09/08 15:46:09.7   0.5                          T   001.0        8.8  .40 Ml 3.4         4747538
ETSF  008.17 261.6 m E Sn      2011/09/08 15:47:14.9   0.3                          T   001.0         .8  .16 Ml 3.1         4747541

.
EVENT     263705
    Date      Time       Latitude Longitude    Depth    Ndef Nsta Gap    Mag1  N    Mag2  N    Mag3  N   Author         ID
       rms   OT_Error      Smajor Sminor Az        Err   mdist  Mdist     Err        Err        Err      Quality

2011/09/08 16:06:45.9     44.6073   10.5450     20.0 f    28   12 173  Ml 2.9  5                         js067245    263705

      1.71   +-  0.50      11.8    7.0   79.96 +-  0.0    0.23   4.47   +-0.2                            m i ke

NORTHERN ITALY
Sta     Dist  EvAz     Phase      Date       Time     TRes  Azim  AzRes  Slow  SRes Def   SNR       Amp   Per   Mag1   Mag2       ID
SBF   002.36 252.7 m E Pn      2011/09/08 16:07:21.5  -0.3                          T                                        4752403
SBF   002.36 252.7 m E Sn      2011/09/08 16:07:49.8   1.5                          T               25.2  .28 Ml 3.2         4752463
PGF   002.34 209.2 m E Pn      2011/09/08 16:07:22.2   0.5                          T                                        4752395
MBDF  002.70 273.9 m E Pn      2011/09/08 16:07:27.7   1.2                          T                                        4752399
MBDF  002.70 273.9 m E Sg      2011/09/08 16:08:08.1  -2.7                          T                5.2  .23 Ml 2.7         4752393
LPG   002.83 289.7 m E Pn      2011/09/08 16:07:29.6   1.0                          T                                        4752396
FRF   003.00 250.9 m E Pn      2011/09/08 16:07:29.6  -0.8                          T                                        4752400
LMR   003.18 247.8 m E Pn      2011/09/08 16:07:31.6  -1.3                          T                                        4752402
LPL   002.85 289.9 m E Pn      2011/09/08 16:07:31.9   3.1                          T                                        4752397
LPL   002.85 289.9 m E Sn      2011/09/08 16:08:04.1   3.7                          T                9.0  .30 Ml 2.9         4752394
ORIF  003.34 277.0 m E Pn      2011/09/08 16:07:36.8   1.6                          T                                        4752398
ORIF  003.34 277.0 m E Sn      2011/09/08 16:08:14.6   2.8                          T                                        4752468
SMRF  003.62 261.7 m E Pn      2011/09/08 16:07:39.4   0.4                          T                                        4752465
HINF  004.11 322.7 m E Pn      2011/09/08 16:07:44.4  -1.3                          T                                        4752392
VIVF  004.19 275.5 m E Pn      2011/09/08 16:07:47.9   1.2                          T                                        4752467
VIVF  004.19 275.5 m E Sn      2011/09/08 16:08:34.1   1.9                          T                2.0  .23 Ml 2.6         4752466
HAU   004.47 320.9 m E Sn      2011/09/08 16:08:40.4   1.5                          T                4.5  .23 Ml 2.8         4752464

.
EVENT     263706
    Date      Time       Latitude Longitude    Depth    Ndef Nsta Gap    Mag1  N    Mag2  N    Mag3  N   Author         ID
       rms   OT_Error      Smajor Sminor Az        Err   mdist  Mdist     Err        Err        Err      Quality

2011/09/08 16:24:06.4     44.6190   10.4641     20.0 f    45   18 073  Ml 3.2  8  Md 2.9  3              js067245    263706

      1.04   +-  0.19       4.6    4.2   73.77 +-  0.0    0.18   5.44   +-0.2      +-0.0                 m i ke

NORTHERN ITALY
Sta     Dist  EvAz     Phase      Date       Time     TRes  Azim  AzRes  Slow  SRes Def   SNR       Amp   Per   Mag1   Mag2       ID
SBF   002.30 251.9 m E Pn      2011/09/08 16:24:41.6  -0.1                          T   001.0                                4747506
SBF   002.30 251.9 m E Sn      2011/09/08 16:25:08.8   1.1                          T                                Md 2.8  4752475
PGF   002.33 207.7 m E Pn      2011/09/08 16:24:42.7   0.7                          T   001.0                                4747504
PGF   002.33 207.7 m E Sn      2011/09/08 16:25:10.5   2.2                          T   001.0       15.4  .39 Ml 3.1         4747505
MBDF  002.64 273.6 m E Pn      2011/09/08 16:24:45.9  -0.4                          T   001.0                                4747513
MBDF  002.64 273.6 m E P       2011/09/08 16:24:48.2  -0.9                          T                                        4752470
LPG   002.77 289.8 m E Pn      2011/09/08 16:24:47.9  -0.4                          T   001.0                                4747500
LPG   002.77 289.8 m E P       2011/09/08 16:24:50.9  -0.3                          T                                        4752473
LPL   002.79 290.1 m E Pn      2011/09/08 16:24:49.4   0.9                          T   001.0                                4747503
LPL   002.79 290.1 m E P       2011/09/08 16:24:52.5   1.1                          T                                        4752472
LPL   002.79 290.1 m E Pg      2011/09/08 16:24:55.3  -3.2                          T                                        4752469
FRF   002.95 250.3 m E Pn      2011/09/08 16:24:50.2  -0.1                          T   001.0                                4747490
FRF   002.95 250.3 m E Pg      2011/09/08 16:24:58.0  -3.1                          T   001.0                                4747491
FRF   002.95 250.3 m E Sn      2011/09/08 16:25:23.6   0.7                          T   001.0       44.8  .40 Ml 3.5 Md 2.9  4747492
LMR   003.13 247.2 m E Pn      2011/09/08 16:24:52.3  -0.5                          T   001.0                                4747496
LMR   003.13 247.2 m E Sn      2011/09/08 16:25:27.1  -0.2                          T   001.0       38.3  .44 Ml 3.4 Md 2.9  4747497
ORIF  003.28 276.8 m E Pn      2011/09/08 16:24:56.4   1.4                          T   001.0                                4747516
ORIF  003.28 276.8 m E P       2011/09/08 16:24:58.1  -0.1                          T                                        4752471
CABF  003.66 304.5 m E Pn      2011/09/08 16:25:00.4   0.2                          T   001.0                                4747510
SMRF  003.57 261.3 m E Pn      2011/09/08 16:25:00.5   1.7                          T   001.0                                4747518
HINF  004.06 323.2 m E Pn      2011/09/08 16:25:05.6   0.0                          T   001.0                                4747511
HINF  004.06 323.2 m E Sn      2011/09/08 16:25:50.1   0.4                          T                5.8  .32 Ml 2.9         4752474
HINF  004.06 323.2 m E Sg      2011/09/08 16:26:11.7  -2.2                          T   001.0       11.1  .60 Ml 2.9         4747512
VIVF  004.13 275.3 m E Pn      2011/09/08 16:25:06.9   0.4                          T   001.0                                4747517
CDF   004.39 331.0 m E Pn      2011/09/08 16:25:10.1   0.0                          T   001.0                                4747488
CDF   004.39 331.0 m E Sn      2011/09/08 16:25:58.4   1.0                          T   001.0        3.3  .25 Ml 3.0         4747489
HAU   004.43 321.4 m E Pn      2011/09/08 16:25:10.9   0.4                          T   001.0                                4747493
HAU   004.43 321.4 m E Sn      2011/09/08 16:25:57.6  -0.8                          T   001.0       14.4  .32 Ml 3.2         4747494
LASF  004.77 265.8 m E Pn      2011/09/08 16:25:15.0  -0.2                          T   001.0                                4747495
SMF   005.07 295.9 m E Pn      2011/09/08 16:25:19.9   0.7                          T   001.0                                4747507
LOR   005.31 302.2 m E Pn      2011/09/08 16:25:22.0   0.4                          T   001.0                                4747498
LOR   005.31 302.2 m E Sn      2011/09/08 16:26:15.7  -3.8                          T   001.0       10.8  .32 Ml 3.5         4747499
SSF   005.44 299.1 m E Pn      2011/09/08 16:25:25.5   1.2                          T   001.0                                4747509

.
EVENT     263707
    Date      Time       Latitude Longitude    Depth    Ndef Nsta Gap    Mag1  N    Mag2  N    Mag3  N   Author         ID
       rms   OT_Error      Smajor Sminor Az        Err   mdist  Mdist     Err        Err        Err      Quality

2011/09/08 17:17:51.0     44.6220   10.3633     20.0 f    22    5 097  Ml 2.8  2  Md 2.8  1              js067245    263707

      1.02   +-  0.22       6.2    4.5   91.24 +-  0.0    0.15   3.07   +-0.0      +-                    m i ke

NORTHERN ITALY
Sta     Dist  EvAz     Phase      Date       Time     TRes  Azim  AzRes  Slow  SRes Def   SNR       Amp   Per   Mag1   Mag2       ID
SBF   002.24 251.2 m E Pn      2011/09/08 17:18:26.0   0.7                          T                                        4752479
SBF   002.24 251.2 m E Sn      2011/09/08 17:18:54.0   3.3                          T                                        4752478
MBDF  002.56 273.6 m E P       2011/09/08 17:18:32.9   0.3                          T                                        4752476
FRF   002.88 249.7 m E Pn      2011/09/08 17:18:34.9   0.8                          T                                        4752480
FRF   002.88 249.7 m E Sn      2011/09/08 17:19:08.0   2.0                          T                8.9  .36 Ml 2.8         4752481
LMR   003.07 246.5 m E Pn      2011/09/08 17:18:36.9   0.3                          T                                        4752483
LMR   003.07 246.5 m E Sn      2011/09/08 17:19:11.7   1.4                          T                9.0  .38 Ml 2.8 Md 2.8  4752482
LPL   002.72 290.4 m E Pg      2011/09/08 17:18:40.0  -2.0                          T                                        4752477

.
EVENT     263708
    Date      Time       Latitude Longitude    Depth    Ndef Nsta Gap    Mag1  N    Mag2  N    Mag3  N   Author         ID
       rms   OT_Error      Smajor Sminor Az        Err   mdist  Mdist     Err        Err        Err      Quality

2011/09/08 17:59:05.1     44.6301   10.4304     20.0 f    54   19 081  Ml 3.1 14                         js067245    263708

      1.27   +-  0.18       4.4    4.3   98.71 +-  0.0    0.16   8.56   +-0.2                            m i ke

NORTHERN ITALY
Sta     Dist  EvAz     Phase      Date       Time     TRes  Azim  AzRes  Slow  SRes Def   SNR       Amp   Per   Mag1   Mag2       ID
SBF   002.28 251.4 m E Pn      2011/09/08 17:59:39.3  -0.8                          T   001.0                                4747132
PGF   002.33 207.0 m E Pn      2011/09/08 17:59:40.3  -0.4                          T   001.0                                4747130
PGF   002.33 207.0 m E Sg      2011/09/08 18:00:07.9 -10.6                          T   001.0        6.4  .24 Ml 2.9         4747131
MBDF  002.61 273.4 m E Pn      2011/09/08 17:59:45.4   0.8                          T   001.0                                4747140
MBDF  002.61 273.4 m E Sn      2011/09/08 18:00:11.1  -2.7                          T   001.0                                4747142
MBDF  002.61 273.4 m E Sg      2011/09/08 18:00:23.9  -3.6                          T   001.0       22.2  .48 Ml 3.0         4747143
LPG   002.75 289.7 m E Pn      2011/09/08 17:59:46.4  -0.3                          T   001.0                                4747122
LPG   002.75 289.7 m E Sn      2011/09/08 18:00:14.4  -2.8                          T   001.0       31.2  .54 Ml 3.1         4747124
LPL   002.77 290.0 m E Pn      2011/09/08 17:59:47.4   0.6                          T   001.0                                4747126
LPL   002.77 290.0 m E Sn      2011/09/08 18:00:15.0  -2.5                          T   001.0       28.4  .56 Ml 3.1         4747128
FRF   002.93 249.9 m E Pn      2011/09/08 17:59:49.5   0.8                          T   001.0                                4747114
FRF   002.93 249.9 m E Sn      2011/09/08 18:00:18.4  -2.7                          T   001.0       21.0  .41 Ml 3.2         4747115
LMR   003.11 246.8 m E Pn      2011/09/08 17:59:51.5   0.3                          T   001.0                                4747118
LMR   003.11 246.8 m E Sn      2011/09/08 18:00:26.0   0.5                          T               23.0  .34 Ml 3.3         4752500
ORIF  003.25 276.7 m E Pn      2011/09/08 17:59:55.4   2.1                          T   001.0                                4747144
ORIF  003.25 276.7 m E Sn      2011/09/08 18:00:26.4  -2.7                          T   001.0       21.6  .48 Ml 3.1         4747145
CABF  003.63 304.6 m E Pn      2011/09/08 17:59:58.4  -0.1                          T   001.0                                4747136
CABF  003.63 304.6 m E Sn      2011/09/08 18:00:41.0   2.8                          T   001.0        7.6  .48 Ml 2.8         4747137
SMRF  003.55 261.1 m E Pn      2011/09/08 17:59:59.3   2.1                          T   001.0                                4747147
HINF  004.04 323.3 m E Pn      2011/09/08 18:00:05.4   1.4                          T   001.0                                4747138
HINF  004.04 323.3 m E Sn      2011/09/08 18:00:47.6  -0.2                          T   001.0        9.5  .34 Ml 3.1         4747139
VIVF  004.11 275.2 m E Pn      2011/09/08 18:00:05.9   1.0                          T   001.0                                4747146
HAU   004.40 321.5 m E Pn      2011/09/08 18:00:08.9   0.0                          T   001.0                                4747116
CDF   004.36 331.2 m E Pn      2011/09/08 18:00:08.9   0.5                          T   001.0                                4747111
CDF   004.36 331.2 m E Sn      2011/09/08 18:00:55.1  -0.5                          T   001.0        6.6  .22 Ml 3.3         4747112
HAU   004.40 321.5 m E Sn      2011/09/08 18:00:56.6   0.1                          T   001.0       11.2  .25 Ml 3.2         4747117
LOR   005.29 302.2 m E Pn      2011/09/08 18:00:21.5   0.6                          T   001.0                                4747120
LOR   005.29 302.2 m E Sn      2011/09/08 18:01:18.7   1.1                          T   001.0       10.5  .44 Ml 3.3         4747121
AVF   005.41 296.0 m E Pn      2011/09/08 18:00:25.0   2.5                          T   001.0                                4747109
SSF   005.41 299.1 m E Pn      2011/09/08 18:00:25.5   2.9                          T   001.0                                4747134
BGF   005.66 292.6 m E Pn      2011/09/08 18:00:25.5  -0.5                          T   001.0                                4747110
SSF   005.41 299.1 m E Sn      2011/09/08 18:01:24.2   3.6                          T   001.0        2.7  .32 Ml 3.0         4747135
FLN   008.56 302.7 m E Sn      2011/09/08 18:02:26.9  -8.9                          T   001.0        5.2  .64 Ml 3.3         4747113

.
