EVENT     280411
    Date      Time       Latitude Longitude    Depth    Ndef Nsta Gap    Mag1  N    Mag2  N    Mag3  N   Author         ID
       rms   OT_Error      Smajor Sminor Az        Err   mdist  Mdist     Err        Err        Err      Quality

2012/08/01 21:32:05.5     43.0354    -.1835      2.0      20    7 097  Ml 1.6  5  Md 1.8  2              bulletin    280511
                                                                                                         _ldg
      0.60   +-  0.09       2.3    1.4  174.58 +-  0.0    0.31   2.58   +-0.3      +-0.1                 m i ke

PYRENEES
Sta     Dist  EvAz     Phase      Date       Time     TRes  Azim  AzRes  Slow  SRes Def   SNR       Amp   Per   Mag1   Mag2       ID
ETSF  000.31 243.7 m E Pg      2012/08/01 21:32:11.5  -0.1                          T                                        5036947
ETSF  000.31 243.7 m E Sg      2012/08/01 21:32:15.6  -0.1                          T                2.9  .22        Md 1.8  5036946
EPF   000.38 090.6 m E Pg      2012/08/01 21:32:12.8  -0.1                          T                                        5036944
EPF   000.38 090.6 m E Sg      2012/08/01 21:32:18.2   0.1                          T                3.2  .20        Md 1.8  5036945
SJPF  000.77 276.2 m E Sg      2012/08/01 21:32:30.2   0.2                          T                1.3  .26                5037597
MTLF  001.78 079.3 m E P       2012/08/01 21:32:37.7   0.1                          T                                        5037592
MTLF  001.78 079.3 m E Sg      2012/08/01 21:33:01.1  -0.6                          T                 .4  .25 Ml 1.4         5037593
CAF   002.49 039.9 m E Pg      2012/08/01 21:32:51.7   0.0                          T                                        5037595
CAF   002.49 039.9 m E Sg      2012/08/01 21:33:24.6   0.8                          T                 .7  .20 Ml 1.9         5037596
LFF   002.02 019.0 m E Sg      2012/08/01 21:33:09.4   0.5                          T                2.7  .34 Ml 1.9         5037598
RJF   002.58 027.7 m E Sg      2012/08/01 21:33:26.3  -0.1                          T                 .8  .25 Ml 1.5         5037594

.
EVENT     280445
    Date      Time       Latitude Longitude    Depth    Ndef Nsta Gap    Mag1  N    Mag2  N    Mag3  N   Author         ID
       rms   OT_Error      Smajor Sminor Az        Err   mdist  Mdist     Err        Err        Err      Quality

2012/08/01 22:10:19.9     46.5252    7.9195      2.0      34    9 078  Ml 1.9  9  Md 2.1  4              bulletin    280545
                                                                                                         _ldg
      0.64   +-  0.06       1.3     .9  103.57 +-  0.0    0.15   2.88   +-0.1      +-0.0                 m i ke

SWITZERLAND
Sta     Dist  EvAz     Phase      Date       Time     TRes  Azim  AzRes  Slow  SRes Def   SNR       Amp   Per   Mag1   Mag2       ID
LPL   001.30 219.8 m E Pg      2012/08/01 22:10:44.7   0.1                          T                                        5037602
LPL   001.30 219.8 m E Sg      2012/08/01 22:11:01.3  -0.2                          T                1.4  .24 Ml 1.7 Md 2.1  5037609
LPG   001.31 218.8 m E Pg      2012/08/01 22:10:44.9   0.1                          T                                        5037601
LPG   001.31 218.8 m E Sg      2012/08/01 22:11:02.0   0.3                          T                1.2  .21 Ml 1.7 Md 2.1  5037608
CABF  001.27 274.6 m E P       2012/08/01 22:10:45.2   0.4                          T                                        5037607
CABF  001.27 274.6 m E Sn      2012/08/01 22:10:59.5  -0.2                          T                3.0  .22 Ml 2.1 Md 2.0  5037606
HINF  001.48 331.0 m E Pn      2012/08/01 22:10:46.1   0.1                          T                                        5037619
HINF  001.48 331.0 m E Pg      2012/08/01 22:10:47.8   0.1                          T                                        5037613
HINF  001.48 331.0 m E Sn      2012/08/01 22:11:04.8   0.0                          T                                        5037620
HINF  001.48 331.0 m E Sg      2012/08/01 22:11:06.5  -0.3                          T                1.7  .22 Ml 1.9 Md 2.0  5037605
CDF   001.94 347.2 m E Pn      2012/08/01 22:10:52.4   0.1                          T                                        5037622
CDF   001.94 347.2 m E Sg      2012/08/01 22:11:20.8  -0.3                          T                1.0  .31 Ml 1.8         5037610
HAU   001.83 324.7 m E Pg      2012/08/01 22:10:54.0   0.0                          T                                        5037614
HAU   001.83 324.7 m E Sn      2012/08/01 22:11:13.2   0.2                          T                                        5037621
HAU   001.83 324.7 m E Sg      2012/08/01 22:11:16.5  -1.0                          T                7.9  .56 Ml 2.1         5037604
MBDF  001.97 204.5 m E Pg      2012/08/01 22:10:56.8   0.1                          T                                        5037600
MBDF  001.97 204.5 m E Sg      2012/08/01 22:11:22.0  -0.2                          T                3.0  .58 Ml 1.9         5037612
ORIF  002.15 222.4 m E Pg      2012/08/01 22:10:59.9  -0.1                          T                                        5037599
ORIF  002.15 222.4 m E Sg      2012/08/01 22:11:28.1   0.4                          T                                        5037611
LOR   002.88 286.4 m E Sg      2012/08/01 22:11:49.8  -0.6 117.6  14.2              T                 .9  .21 Ml 2.0         5037603

.
EVENT     280444
    Date      Time       Latitude Longitude    Depth    Ndef Nsta Gap    Mag1  N    Mag2  N    Mag3  N   Author         ID
       rms   OT_Error      Smajor Sminor Az        Err   mdist  Mdist     Err        Err        Err      Quality

2012/08/01 22:59:06.4     45.4753    6.6599      2.0      10    4 186             Md 0.7  2              bulletin    280544
                                                                                                         _ldg
      0.75   +-  0.10       3.3    1.4  136.33 +-  0.0    0.07   0.78              +-0.0                 m i ke

FRANCE
Sta     Dist  EvAz     Phase      Date       Time     TRes  Azim  AzRes  Slow  SRes Def   SNR       Amp   Per   Mag1   Mag2       ID
LPL   000.07 051.1 m E Pg      2012/08/01 22:59:08.3   0.0                          T                                        5037626
LPL   000.07 051.1 m E Sg      2012/08/01 22:59:09.2  -0.2                          T                4.4  .20        Md  .7  5037623
LPG   000.07 070.8 m E Pg      2012/08/01 22:59:08.5   0.0                          T                                        5037625
LPG   000.07 070.8 m E Sg      2012/08/01 22:59:09.6   0.0                          T                8.5  .18        Md  .7  5037624
MBDF  000.75 173.9 m E Pg      2012/08/01 22:59:21.0   0.2                          T                                        5045501
MBDF  000.75 173.9 m E Sg      2012/08/01 22:59:30.7   0.1                          T                 .3  .29                5045502
ORIF  000.78 225.0 m E Pg      2012/08/01 22:59:21.4   0.1                          T                                        5045499
ORIF  000.78 225.0 m E Sg      2012/08/01 22:59:31.2  -0.4                          T                 .4  .33                5045500

.
EVENT     280413
    Date      Time       Latitude Longitude    Depth    Ndef Nsta Gap    Mag1  N    Mag2  N    Mag3  N   Author         ID
       rms   OT_Error      Smajor Sminor Az        Err   mdist  Mdist     Err        Err        Err      Quality

2012/08/01 23:56:57.6     47.1774     .7926      3.0 f    67   22 060  Ml 2.2 22  Md 2.4  4              bulletin    280513
                                                                                                         _ldg
      0.76   +-  0.06       1.3    1.0   31.32 +-  0.0    0.86   4.31   +-0.3      +-0.2                 m i ke

FRANCE
Sta     Dist  EvAz     Phase      Date       Time     TRes  Azim  AzRes  Slow  SRes Def   SNR       Amp   Per   Mag1   Mag2       ID
MFF   000.86 228.5 m E Pg      2012/08/01 23:57:14.4   0.6                          T                                        5045511
MFF   000.86 228.5 m E Sg      2012/08/01 23:57:25.2   0.1                          T                                        5036967
MFF   000.86 228.5 m E Sn      2012/08/01 23:57:28.0   0.5                          T               18.4  .22 Ml 2.8 Md 2.5  5036960
HYF   001.26 085.2 m E Pg      2012/08/01 23:57:20.9  -0.3                          T                                        5036965
HYF   001.26 085.2 m E Sg      2012/08/01 23:57:37.5   0.0                          T                                        5036953
TCF   001.32 131.9 m E P       2012/08/01 23:57:23.2   0.1                          T                                        5038299
TCF   001.32 131.9 m E Sn      2012/08/01 23:57:38.4   0.0                          T                2.6  .20 Ml 2.1 Md 2.2  5036958
BGF   001.54 113.0 m E Pn      2012/08/01 23:57:24.3   0.0                          T                                        5037817
BGF   001.54 113.0 m E Pg      2012/08/01 23:57:26.3   0.0                          T   001.0                                5037781
BGF   001.54 113.0 m E Sn      2012/08/01 23:57:43.5  -0.1                          T   001.0                        Md 2.5  5037782
BGF   001.54 113.0 m E Sg      2012/08/01 23:57:46.1  -0.1                          T                9.6  .30 Ml 2.6         5036952
LDF   001.55 336.9 m E Pg      2012/08/01 23:57:27.0   0.6                          T                                        5036964
LDF   001.55 336.9 m E Sg      2012/08/01 23:57:47.0   0.6                          T                1.6  .23 Ml 1.9         5036961
SSF   001.86 092.6 m E Pn      2012/08/01 23:57:27.9  -0.7                          T   001.0                                5037794
SSF   001.86 092.6 m E Pg      2012/08/01 23:57:32.3   0.1                          T                                        5038298
SSF   001.86 092.6 m E Sn      2012/08/01 23:57:50.5  -0.7                          T   001.0                                5037795
SSF   001.86 092.6 m E Sg      2012/08/01 23:57:55.9  -0.2                          T                6.6  .24 Ml 2.7         5036959
GRR   001.65 318.0 m E Pg      2012/08/01 23:57:27.9  -0.3                          T                                        5036963
GRR   001.65 318.0 m E Sg      2012/08/01 23:57:50.2   0.7                          T                5.8  .20 Ml 2.4         5036962
FLN   001.80 332.1 m E Pn      2012/08/01 23:57:28.0   0.1 153.1  1.9               T                                        5037816
FLN   001.80 332.1 m E Pg      2012/08/01 23:57:31.2   0.0 150.1  -1.0              T   001.0                                5037785
FLN   001.80 332.1 m E Sn      2012/08/01 23:57:49.8  -0.1                          T                                        5037815
FLN   001.80 332.1 m E Sg      2012/08/01 23:57:54.4   0.0                          T   001.0        2.6  .25 Ml 2.0         5037786
AVF   001.79 101.5 m E Pn      2012/08/01 23:57:28.4   0.7                          T   001.0                                5037779
AVF   001.79 101.5 m E Pg      2012/08/01 23:57:31.4   0.4                          T                                        5036956
AVF   001.79 101.5 m E Sn      2012/08/01 23:57:49.9   0.2                          T   001.0                                5037780
AVF   001.79 101.5 m E Sg      2012/08/01 23:57:53.5  -0.6                          T                1.6  .21 Ml 2.0         5036957
RJF   001.94 164.7 m E Pn      2012/08/01 23:57:29.6  -0.1                          T                                        5037828
RJF   001.94 164.7 m E Pg      2012/08/01 23:57:34.4   0.7                          T                                        5038300
RJF   001.94 164.7 m E Sn      2012/08/01 23:57:53.4   0.3                          T                                        5037827
RJF   001.94 164.7 m E Sg      2012/08/01 23:57:58.8   0.1                          T                5.2  .26 Ml 2.2         5036951
LOR   002.09 086.4 m E Pn      2012/08/01 23:57:30.6  -1.2 266.2  -2.4              T   001.0                                5037790
LOR   002.09 086.4 m E Pg      2012/08/01 23:57:36.4  -0.1 266.4  -2.3              T                                        5037809
LOR   002.09 086.4 m E Sg      2012/08/01 23:58:03.0  -0.5 251.8  -16.8             T   001.0        3.0  .29 Ml 2.2         5037792
LFF   002.24 181.0 m E Pn      2012/08/01 23:57:33.6  -0.2                          T                                        5037826
LFF   002.24 181.0 m E Sn      2012/08/01 23:58:00.1  -0.2                          T   001.0                                5037789
LFF   002.24 181.0 m E Sg      2012/08/01 23:58:07.5  -0.5                          T                1.8  .20 Ml 2.1         5036950
CAF   002.42 158.1 m E Pn      2012/08/01 23:57:36.8   0.5                          T                                        5037825
CAF   002.42 158.1 m E Pg      2012/08/01 23:57:42.9   0.3                          T                                        5036948
CAF   002.42 158.1 m E Sn      2012/08/01 23:58:04.4  -0.3                          T   001.0                                5037783
CAF   002.42 158.1 m E Sg      2012/08/01 23:58:13.4  -0.3                          T                4.3  .44 Ml 2.3         5036949
SMF   002.16 103.2 m E Pg      2012/08/01 23:57:37.5  -0.2                          T                                        5036955
SMF   002.16 103.2 m E Sn      2012/08/01 23:57:58.4   0.0                          T                                        5037829
SMF   002.16 103.2 m E Sg      2012/08/01 23:58:04.5  -1.0                          T                2.3  .18 Ml 2.3         5036954
SGMF  002.51 296.7 m E Pg      2012/08/01 23:57:43.5  -0.6                          T   001.0                                5037801
SGMF  002.51 296.7 m E Sn      2012/08/01 23:58:05.6  -1.1                          T   001.0                                5037802
SGMF  002.51 296.7 m E Sg      2012/08/01 23:58:15.7  -0.6                          T   001.0         .9  .24 Ml 1.9         5037803
BAIF  003.67 036.9 m E Pn      2012/08/01 23:57:53.5   0.3                          T                                        5037811
MTLF  003.97 164.8 m E Pn      2012/08/01 23:57:57.2  -0.1                          T                                        5037823
MTLF  003.97 164.8 m E Sg      2012/08/01 23:59:02.0   0.1                          T   001.0         .5  .30 Ml 1.9         5037797
GIVF  003.96 040.9 m E Pn      2012/08/01 23:57:57.5   0.2                          T                                        5037813
GIVF  003.96 040.9 m E Sn      2012/08/01 23:58:41.4  -0.1                          T                1.5  .22 Ml 2.5         5037812
QUIF  002.78 286.9 m E Sn      2012/08/01 23:58:13.1  -0.1                          T   001.0                                5037798
QUIF  002.78 286.9 m E Sg      2012/08/01 23:58:24.7  -0.2                          T   001.0        1.4  .23 Ml 2.2         5037799
ROSF  002.98 294.4 m E Sn      2012/08/01 23:58:18.1   0.1                          T                                        5037814
ROSF  002.98 294.4 m E Sg      2012/08/01 23:58:30.9  -0.2                          T   001.0        1.1  .26 Ml 2.1         5037800
EPF   004.16 184.6 m E Sn      2012/08/01 23:58:44.3  -2.0                          T   001.0                                5037784
EPF   004.16 184.6 m E Sg      2012/08/01 23:59:07.4  -0.6                          T                1.5  .51 Ml 2.2         5037824
SJPF  004.31 200.1 m E Sn      2012/08/01 23:58:46.3  -3.5                          T   001.0                                5037804

.
EVENT     280497
    Date      Time       Latitude Longitude    Depth    Ndef Nsta Gap    Mag1  N    Mag2  N    Mag3  N   Author         ID
       rms   OT_Error      Smajor Sminor Az        Err   mdist  Mdist     Err        Err        Err      Quality

2012/08/02 01:47:51.8     44.0078   16.8017      2.0      27      158                                    bulletin    280597
                                                                                                         _ldg
      1.01   +-  0.20       8.4    3.5   44.05 +-  0.0    0.79   4.67                                    m i ke

NORTHWESTERN BALKAN PEN.
Sta     Dist  EvAz     Phase      Date       Time     TRes  Azim  AzRes  Slow  SRes Def   SNR       Amp   Per   Mag1   Mag2       ID
.
EVENT     280414
    Date      Time       Latitude Longitude    Depth    Ndef Nsta Gap    Mag1  N    Mag2  N    Mag3  N   Author         ID
       rms   OT_Error      Smajor Sminor Az        Err   mdist  Mdist     Err        Err        Err      Quality

2012/08/02 02:56:36.1     48.9512    7.6576     10.0      23    8 066  Ml 2.0  6  Md 2.1  2              bulletin    280514
                                                                                                         _ldg
      0.50   +-  0.05       1.1     .9  113.90 +-  0.0    0.10   1.89   +-0.2      +-0.2                 m i ke

FRANCE
Sta     Dist  EvAz     Phase      Date       Time     TRes  Azim  AzRes  Slow  SRes Def   SNR       Amp   Per   Mag1   Mag2       ID
LANF  000.10 073.1 m E Pg      2012/08/02 02:56:38.7  -0.2                          T                                        5045519
LANF  000.10 073.1 m E Sg      2012/08/02 02:56:40.4  -0.4                          T               38.4  .20        Md 2.0  5045520
CDF   000.60 205.3 m E Pg      2012/08/02 02:56:47.5  -0.1                          T                                        5045515
CDF   000.60 205.3 m E Pn      2012/08/02 02:56:48.8  -0.4                          T                                        5045516
CDF   000.60 205.3 m E Sg      2012/08/02 02:56:55.4  -0.1                          T                                        5036968
CDF   000.60 205.3 m E Sn      2012/08/02 02:56:57.7  -0.7                          T               17.7  .32        Md 2.2  5036972
HINF  001.26 205.6 m E Pg      2012/08/02 02:56:59.7   0.1                          T                                        5045638
HINF  001.26 205.6 m E Sn      2012/08/02 02:57:13.8  -0.3                          T                                        5045514
HINF  001.26 205.6 m E Sg      2012/08/02 02:57:15.9   0.0                          T                5.1  .30 Ml 2.2         5036970
HAU   001.29 223.1 m E Pg      2012/08/02 02:57:00.2   0.0                          T                                        5036971
HAU   001.29 223.1 m E Sg      2012/08/02 02:57:16.8  -0.1                          T                5.5  .28 Ml 2.0         5036969
THEF  001.32 237.4 m E Pg      2012/08/02 02:57:00.7  -0.1                          T                                        5045517
THEF  001.32 237.4 m E Sg      2012/08/02 02:57:18.1   0.1                          T                4.3  .22 Ml 2.3         5045518
PAGF  001.34 253.5 m E Pg      2012/08/02 02:57:01.2   0.1  69.2  -2.8              T                                        5036973
PAGF  001.34 253.5 m E Sg      2012/08/02 02:57:18.3  -0.2  80.4  8.4               T                1.2  .18 Ml 1.8         5036974
MEZF  001.78 256.4 m E Sg      2012/08/02 02:57:32.6   0.3                          T                  1  .22 Ml 1.8         5045512
SFTF  001.89 247.7 m E Sg      2012/08/02 02:57:35.5  -0.2  61.9  -3.9              T                 .9  .19 Ml 1.9         5045513

.
