EVENT     287281
    Date      Time       Latitude Longitude    Depth    Ndef Nsta Gap    Mag1  N    Mag2  N    Mag3  N   Author         ID
       rms   OT_Error      Smajor Sminor Az        Err   mdist  Mdist     Err        Err        Err      Quality

2012/11/21 11:12:31.9     43.4841    6.6050       .0 f    20    7 139  Ml 2.1  3  Md 2.2  2              bulletin    287381
                                                                                                         _ldg
      0.30   +-  0.11       2.6    2.0  136.85 +-  0.0    0.08   2.03   +-0.1      +-0.0                 m i km

NEAR SOUTH COAST OF FRANCE
Sta     Dist  EvAz     Phase      Date       Time     TRes  Azim  AzRes  Slow  SRes Def   SNR       Amp   Per   Mag1   Mag2       ID
FRF   000.08 021.6 m E Pg      2012/11/21 11:12:33.1  -0.8                          T                                        5122246
FRF   000.08 021.6 m E Sg      2012/11/21 11:12:35.4   0.1                          T                                Md 2.2  5122233
LMR   000.17 205.0 m E Pg      2012/11/21 11:12:35.5   0.0                          T                                        5122245
LMR   000.17 205.0 m E Sg      2012/11/21 11:12:38.0   0.0                          T                                Md 2.2  5122242
SBF   000.71 057.5 m E Pg      2012/11/21 11:12:46.0   0.4                          T                                        5122243
SBF   000.71 057.5 m E Sg      2012/11/21 11:12:54.8  -0.3                          T               15.9  .22                5122240
SMRF  000.89 303.7 m E Pg      2012/11/21 11:12:48.9  -0.1                          T                                        5122244
SMRF  000.89 303.7 m E Sg      2012/11/21 11:13:00.7  -0.1                          T                5.2  .30 Ml 2.0         5122241
MBDF  001.25 005.5 m E Pn      2012/11/21 11:12:55.5   0.2                          T                                        5122239
MBDF  001.25 005.5 m E Sn      2012/11/21 11:13:12.1   0.2                          T               16.0  .76 Ml 2.2         5122236
ORIF  001.53 340.3 m E Pn      2012/11/21 11:12:59.2   0.3                          T                                        5122238
ORIF  001.53 340.3 m E Sn      2012/11/21 11:13:18.7   0.2                          T                7.4  .54 Ml 2.2         5122235
LPL   002.03 002.5 m E Pn      2012/11/21 11:13:05.7  -0.3                          T                                        5122237
LPL   002.03 002.5 m E Sn      2012/11/21 11:13:30.6  -0.2                          T                                        5122234

.
EVENT     287354
    Date      Time       Latitude Longitude    Depth    Ndef Nsta Gap    Mag1  N    Mag2  N    Mag3  N   Author         ID
       rms   OT_Error      Smajor Sminor Az        Err   mdist  Mdist     Err        Err        Err      Quality

2012/11/22 02:13:29.1     44.9093    6.6936      2.0      15    8 150  Ml 1.2  4  Md 1.8  1              bulletin    287454
                                                                                                         _ldg
      0.29   +-  0.10       2.4    1.5   68.15 +-  0.0    0.19   1.58   +-0.2      +-                    m i ke

FRANCE
Sta     Dist  EvAz     Phase      Date       Time     TRes  Azim  AzRes  Slow  SRes Def   SNR       Amp   Per   Mag1   Mag2       ID
MBDF  000.19 163.1 m E Pg      2012/11/22 02:13:33.6   0.4                          T                                        5123235
MBDF  000.19 163.1 m E Sg      2012/11/22 02:13:34.9  -1.0                          T               99.2  .54        Md 1.8  5123234
ORIF  000.58 271.2 m E Pg      2012/11/22 02:13:40.4   0.2                          T                                        5123232
ORIF  000.58 271.2 m E Sg      2012/11/22 02:13:47.5  -0.3                          T                1.3  .31                5123231
LPL   000.61 002.6 m E Pg      2012/11/22 02:13:40.8  -0.1                          T                                        5123230
LPL   000.61 002.6 m E Sg      2012/11/22 02:13:48.5  -0.4                          T                1.5  .23                5123233
SBF   001.17 152.8 m E Pg      2012/11/22 02:13:51.0  -0.2                          T                                        5123242
SBF   001.17 152.8 m E Sg      2012/11/22 02:14:06.4   0.0                          T                 .4  .19 Ml 1.3         5123238
SMRF  001.23 221.0 m E Pg      2012/11/22 02:13:51.8  -0.3                          T                                        5123241
FRF   001.35 181.4 m E Pg      2012/11/22 02:13:54.2   0.0                          T                                        5123240
FRF   001.35 181.4 m E Sg      2012/11/22 02:14:11.6  -0.1                          T                 .1  .17 Ml  .9         5123244
VIVF  001.44 268.6 m E Pn      2012/11/22 02:13:54.7   0.2                          T                                        5123237
VIVF  001.44 268.6 m E Sn      2012/11/22 02:14:12.9   0.0                          T                 .7  .35 Ml 1.3         5123236
LMR   001.58 184.9 m E Pg      2012/11/22 02:13:58.6   0.0                          T                                        5123243
LMR   001.58 184.9 m E Sg      2012/11/22 02:14:18.9  -0.1                          T                 .3  .23 Ml 1.2         5123239

.
EVENT     287290
    Date      Time       Latitude Longitude    Depth    Ndef Nsta Gap    Mag1  N    Mag2  N    Mag3  N   Author         ID
       rms   OT_Error      Smajor Sminor Az        Err   mdist  Mdist     Err        Err        Err      Quality

2012/11/22 03:58:36.1     44.7624    8.0239     10.0 f    29   10 174  Ml 2.4  4  Md 2.2  2              bulletin    287390
                                                                                                         _ldg
      0.63   +-  0.26       5.5    3.0   76.70 +-  0.0    0.55   3.06   +-0.3      +-0.1                 m i ke

NORTHERN ITALY
Sta     Dist  EvAz     Phase      Date       Time     TRes  Azim  AzRes  Slow  SRes Def   SNR       Amp   Per   Mag1   Mag2       ID
MBDF  000.89 268.2 m E Pg      2012/11/22 03:58:52.3  -0.9                          T                                        5122434
MBDF  000.89 268.2 m E Sg      2012/11/22 03:59:04.3  -0.5                          T                                Md 2.2  5122433
SBF   000.99 205.4 m E Pg      2012/11/22 03:58:54.4  -0.5                          T                                        5122429
SBF   000.99 205.4 m E Sg      2012/11/22 03:59:08.6   0.7                          T               23.1  .34 Ml 2.6 Md 2.3  5122428
LPL   001.18 310.0 m E Pn      2012/11/22 03:58:56.5  -1.0                          T                                        5122431
LPG   001.16 309.7 m E Pn      2012/11/22 03:58:57.7   0.5                          T                                        5122456
LPG   001.16 309.7 m E Sg      2012/11/22 03:59:12.9  -0.5                          T                5.5  .40 Ml 2.0         5122455
FRF   001.56 220.0 m E Pn      2012/11/22 03:59:01.9  -0.4                          T                                        5122430
FRF   001.56 220.0 m E Sn      2012/11/22 03:59:21.8   0.5                          T               10.7  .40 Ml 2.5         5122459
ORIF  001.53 276.6 m E Pn      2012/11/22 03:59:02.5   0.5                          T                                        5122432
ORIF  001.53 276.6 m E Sn      2012/11/22 03:59:22.0   1.2                          T                                        5122454
LMR   001.80 217.9 m E Pn      2012/11/22 03:59:05.9   0.4                          T                                        5122460
LMR   001.80 217.9 m E Sn      2012/11/22 03:59:26.9  -0.1                          T                2.5  .20 Ml 2.3         5122461
SMRF  001.92 246.7 m E Pn      2012/11/22 03:59:08.0   0.7                          T                                        5122457
SMRF  001.92 246.7 m E Sn      2012/11/22 03:59:29.9  -0.2                          T                                        5122458
VIVF  002.39 273.4 m E Pn      2012/11/22 03:59:12.8  -0.8                          T                                        5122453
LASF  003.06 258.5 m E Pn      2012/11/22 03:59:22.5  -0.3                          T                                        5122452

.
EVENT     287342
    Date      Time       Latitude Longitude    Depth    Ndef Nsta Gap    Mag1  N    Mag2  N    Mag3  N   Author         ID
       rms   OT_Error      Smajor Sminor Az        Err   mdist  Mdist     Err        Err        Err      Quality

2012/11/22 08:25:13.1     51.4920    6.5373      1.0 f    48   10 202  Ml 2.9  6  Md 2.9  2              bulletin    287442
                                                                                                         _ldg
      0.55   +-  0.18       3.5    1.8  176.43 +-  0.0    0.32   6.59   +-0.3      +-0.2                 m i sr

GERMANY
Sta     Dist  EvAz     Phase      Date       Time     TRes  Azim  AzRes  Slow  SRes Def   SNR       Amp   Per   Mag1   Mag2       ID
GIVF  001.77 218.7 m E Pn      2012/11/22 08:25:42.9  -0.2                          T                                        5122951
GIVF  001.77 218.7 m E Sn      2012/11/22 08:26:04.9   0.1                          T               29.4  .24 Ml 3.2 Md 3.0  5122950
BAIF  002.06 226.8 m E Pn      2012/11/22 08:25:46.7  -0.3                          T                                        5122947
BAIF  002.06 226.8 m E Sn      2012/11/22 08:26:11.5  -0.4                          T                                Md 2.7  5122946
CDF   003.12 170.9 m E Pn      2012/11/22 08:26:01.5  -0.1                          T                                        5122945
CDF   003.12 170.9 m E Sn      2012/11/22 08:26:37.2  -0.2                          T                                        5122937
CDF   003.12 170.9 m E Sg      2012/11/22 08:26:51.0  -0.1                          T                4.9  .47 Ml 2.6         5122938
HAU   003.49 182.1 m E Pn      2012/11/22 08:26:06.7   0.1                          T                                        5122944
HAU   003.49 182.1 m E Pg      2012/11/22 08:26:17.7  -0.1                          T                                        5122943
HAU   003.49 182.1 m E Sn      2012/11/22 08:26:46.1   0.0                          T                                        5122942
HAU   003.49 182.1 m E Sg      2012/11/22 08:27:02.4  -0.2                          T                8.0  .42 Ml 2.6         5122939
LOR   004.58 203.5 m E Pn      2012/11/22 08:26:21.1  -0.3                          T                                        5122949
LOR   004.58 203.5 m E Sn      2012/11/22 08:27:11.7  -0.3                          T                                        5122941
LOR   004.58 203.5 m E Sg      2012/11/22 08:27:35.9  -0.5                          T                5.7  .38 Ml 3.0         5122940
SSF   004.86 205.3 m E Pn      2012/11/22 08:26:24.7  -0.5                          T                                        5122948
CABF  004.89 183.6 m E Pn      2012/11/22 08:26:25.6  -0.2                          T                                        5122935
AVF   005.15 205.2 m E Pn      2012/11/22 08:26:28.5  -0.5                          T                                        5122936
BGF   005.50 207.6 m E Pn      2012/11/22 08:26:33.0  -0.9                          T                                        5122934
GRR   005.70 239.8 m E Pn      2012/11/22 08:26:36.2  -0.3                          T                                        5122933
GRR   005.70 239.8 m E Sn      2012/11/22 08:27:37.8  -0.9                          T                7.1  .27 Ml 3.3         5122932

.
EVENT     287304
    Date      Time       Latitude Longitude    Depth    Ndef Nsta Gap    Mag1  N    Mag2  N    Mag3  N   Author         ID
       rms   OT_Error      Smajor Sminor Az        Err   mdist  Mdist     Err        Err        Err      Quality

2012/11/22 09:17:30.1     43.7781    7.4612       .0 f    14    6 219  Ml 1.9  3  Md 1.9  1              bulletin    287404
                                                                                                         _ldg
      0.48   +-  0.39       7.3    2.6  113.33 +-  0.0    0.09   1.81   +-0.3      +-                    m i km

NEAR SOUTH COAST OF FRANCE
Sta     Dist  EvAz     Phase      Date       Time     TRes  Azim  AzRes  Slow  SRes Def   SNR       Amp   Per   Mag1   Mag2       ID
SBF   000.09 347.5 m E Pg      2012/11/22 09:17:31.7  -0.7                          T                                        5122539
SBF   000.09 347.5 m E Sg      2012/11/22 09:17:33.1  -0.7                          T              285.6  .22        Md 1.9  5122537
FRF   000.63 250.1 m E Pg      2012/11/22 09:17:42.3   0.1                          T                                        5136626
FRF   000.63 250.1 m E Sg      2012/11/22 09:17:51.0   0.3                          T                4.7  .28                5136627
LMR   000.82 237.6 m E Pg      2012/11/22 09:17:45.6  -0.2                          T                                        5122538
LMR   000.82 237.6 m E Sg      2012/11/22 09:17:56.2  -0.5                          T                2.8  .28                5122536
MBDF  001.07 332.6 m E Pg      2012/11/22 09:17:50.7   0.1                          T                                        5136637
MBDF  001.07 332.6 m E Sn      2012/11/22 09:18:05.9  -0.1                          T                1.2  .21 Ml 1.6         5136625
SMRF  001.38 278.9 m E Pn      2012/11/22 09:17:55.7   0.6                          T                                        5136629
SMRF  001.38 278.9 m E Sg      2012/11/22 09:18:13.8  -0.3                          T                1.7  .21 Ml 1.9         5122534
LPL   001.81 343.6 m E Sg      2012/11/22 09:18:27.3  -0.7                          T                2.6  .24 Ml 2.2         5136638

.
EVENT     287305
    Date      Time       Latitude Longitude    Depth    Ndef Nsta Gap    Mag1  N    Mag2  N    Mag3  N   Author         ID
       rms   OT_Error      Smajor Sminor Az        Err   mdist  Mdist     Err        Err        Err      Quality

2012/11/22 09:24:39.2     43.8030    7.3980       .0 f    15    5 132  Ml 2.0  2  Md 1.9  1              bulletin    287405
                                                                                                         _ldg
      0.76   +-  0.31       6.9    3.9  109.29 +-  0.0    0.07   1.66   +-0.3      +-                    m i km

NEAR SOUTH COAST OF FRANCE
Sta     Dist  EvAz     Phase      Date       Time     TRes  Azim  AzRes  Slow  SRes Def   SNR       Amp   Per   Mag1   Mag2       ID
SBF   000.07 024.1 m E Pg      2012/11/22 09:24:39.6  -1.4                          T                                        5122546
SBF   000.07 024.1 m E Sg      2012/11/22 09:24:41.1  -1.0                          T              522.8  .32        Md 1.9  5122540
FRF   000.60 246.3 m E Pg      2012/11/22 09:24:50.0  -0.8                          T                                        5122543
LMR   000.80 234.3 m E Pg      2012/11/22 09:24:53.7  -0.8                          T                                        5122545
LMR   000.80 234.3 m E Sg      2012/11/22 09:25:04.2  -0.9                          T                8.7  .28                5122541
MBDF  001.03 334.2 m E Pg      2012/11/22 09:24:58.7  -0.3                          T                                        5136635
MBDF  001.03 334.2 m E Sg      2012/11/22 09:25:12.2  -0.3                          T                1.7  .22 Ml 1.7         5136636
SMRF  001.33 278.1 m E Pn      2012/11/22 09:25:03.7   0.1                          T                                        5122544
SMRF  001.33 278.1 m E Sn      2012/11/22 09:25:22.6   1.5                          T                7.7  .44 Ml 2.2         5122542

.
