EVENT     277230
    Date      Time       Latitude Longitude    Depth    Ndef Nsta Gap    Mag1  N    Mag2  N    Mag3  N   Author         ID
       rms   OT_Error      Smajor Sminor Az        Err   mdist  Mdist     Err        Err        Err      Quality

2012/05/30 14:15:56.1     44.8578   11.1602      2.0     104   20 076  Ml 3.2 19                         bulletin    277330
                                                                                                         _ldg
      1.18   +-  0.13       3.9    2.8   64.07 +-  0.0    0.26  10.52   +-0.2                            m i ke

NORTHERN ITALY
Sta     Dist  EvAz     Phase      Date       Time     TRes  Azim  AzRes  Slow  SRes Def   SNR       Amp   Per   Mag1   Mag2       ID
PGF   002.79 214.9 m E Pn      2012/05/30 14:16:40.2   0.2                          T                                        4978114
PGF   002.79 214.9 m E Sn      2012/05/30 14:17:11.0  -1.2                          T               26.3  .32 Ml 3.5         4978110
SBF   002.85 250.9 m E Pn      2012/05/30 14:16:41.3   0.5                          T                                        4978113
SBF   002.85 250.9 m E Sn      2012/05/30 14:17:17.5   3.8                          T   001.0       62.8  .28 Ml 3.7         4978074
MBDF  003.13 269.1 m E Pn      2012/05/30 14:16:45.2   0.5                          T                                        4978107
MBDF  003.13 269.1 m E Sn      2012/05/30 14:17:19.4  -1.0                          T               22.2  .48 Ml 3.1         4978127
LPL   003.20 283.4 m E Pn      2012/05/30 14:16:46.3   0.6                          T                                        4978117
LPL   003.20 283.4 m E Sn      2012/05/30 14:17:21.6  -0.6                          T               17.4  .38 Ml 3.1         4978116
LPG   003.18 283.1 m E Pn      2012/05/30 14:16:46.4   0.8                          T   001.0                                4978072
LPG   003.18 283.1 m E Sn      2012/05/30 14:17:21.3  -0.6                          T               20.6  .60 Ml 3.0         4978115
FRF   003.49 249.8 m E Pn      2012/05/30 14:16:50.5   1.1                          T                                        4978111
FRF   003.49 249.8 m E Sn      2012/05/30 14:17:28.1  -0.9                          T               30.0  .32 Ml 3.5         4978109
LMR   003.68 247.2 m E Pn      2012/05/30 14:16:52.0   0.0                          T                                        4978112
LMR   003.68 247.2 m E Sn      2012/05/30 14:17:32.6  -0.8                          T   001.0       31.6  .30 Ml 3.6         4978070
ORIF  003.75 272.8 m E Pn      2012/05/30 14:16:54.9   1.8                          T   001.0                                4978081
ORIF  003.75 272.8 m E Sn      2012/05/30 14:17:34.8  -0.5                          T               13.9  .42 Ml 3.1         4978108
CABF  003.96 298.1 m E Pn      2012/05/30 14:16:56.2   0.3                          T   001.0                                4978079
CABF  003.96 298.1 m E Sn      2012/05/30 14:17:38.1  -2.2                          T               15.5  .74 Ml 3.0         4978120
HINF  004.20 316.3 m E Pn      2012/05/30 14:16:59.2   0.0                          T                                        4978106
HINF  004.20 316.3 m E Sn      2012/05/30 14:17:45.6  -0.3                          T   001.0       10.6  .32 Ml 3.2         4978080
CDF   004.45 324.4 m E Pn      2012/05/30 14:17:02.2  -0.4                          T                                        4978104
CDF   004.45 324.4 m E Sn      2012/05/30 14:17:49.7  -2.2                          T                5.4  .28 Ml 3.1         4978119
HAU   004.58 315.1 m E Pn      2012/05/30 14:17:04.0  -0.3                          T   001.0                                4978068
HAU   004.58 315.1 m E Sn      2012/05/30 14:17:54.2  -0.8                          T   001.0         18  .28 Ml 3.4         4978069
VIVF  004.61 272.3 m E Pn      2012/05/30 14:17:05.3   0.5                          T   001.0                                4978083
VIVF  004.61 272.3 m E Sn      2012/05/30 14:17:55.0  -0.7                          T   001.0        4.3  .28 Ml 3.0         4978084
THEF  004.91 315.2 m E Pn      2012/05/30 14:17:09.3   0.6                          T                                        4978105
SMF   005.43 291.8 m E Pn      2012/05/30 14:17:16.0   0.2                          T   001.0                                4978075
SMF   005.43 291.8 m E Sn      2012/05/30 14:18:15.7   0.6                          T   001.0        4.2  .28 Ml 3.1         4978076
LOR   005.62 298.0 m E Pn      2012/05/30 14:17:18.4  -0.1 118.3  5.6               T   001.0                                4978071
LOR   005.62 298.0 m E Sn      2012/05/30 14:18:19.8  -0.1                          T                5.2  .36 Ml 3.2         4978118
SSF   005.77 295.1 m E Pn      2012/05/30 14:17:20.4  -0.1                          T   001.0                                4978077
SSF   005.77 295.1 m E Sn      2012/05/30 14:18:05.7 -17.7                          T   001.0        4.4  .44 Ml 3.1         4978078
AVF   005.79 292.3 m E Pn      2012/05/30 14:17:21.0   0.3                          T   001.0                                4978066
AVF   005.79 292.3 m E Sn      2012/05/30 14:18:26.3   2.5                          T   001.0        2.6  .40 Ml 2.9         4978067
MFF   008.10 286.4 m E Pn      2012/05/30 14:17:53.1   0.9                          T   001.0                                4978073
ROSF  010.52 294.4 m E Pn      2012/05/30 14:18:24.2  -1.0                          T   001.0                                4978082

.
EVENT     277232
    Date      Time       Latitude Longitude    Depth    Ndef Nsta Gap    Mag1  N    Mag2  N    Mag3  N   Author         ID
       rms   OT_Error      Smajor Sminor Az        Err   mdist  Mdist     Err        Err        Err      Quality

2012/05/30 16:49:10.5     44.7439    6.7335      2.0      86   21 045  Ml 2.9 17  Md 2.6  1              bulletin    277332
                                                                                                         _ldg
      0.98   +-  0.06       1.6    1.1   65.45 +-  0.0    0.03   3.74   +-0.3      +-                    m i ke

FRANCE
Sta     Dist  EvAz     Phase      Date       Time     TRes  Azim  AzRes  Slow  SRes Def   SNR       Amp   Per   Mag1   Mag2       ID
MBDF  000.03 122.2 m E Pg      2012/05/30 16:49:11.1  -0.7                          T                                        4978171
MBDF  000.03 122.2 m E Sg      2012/05/30 16:49:12.1  -0.5                          T             5725.7  .46        Md 2.6  4978192
ORIF  000.63 286.3 m E Pg      2012/05/30 16:49:21.6  -1.0                          T                                        4978197
ORIF  000.63 286.3 m E Sg      2012/05/30 16:49:30.6  -0.4                          T              140.3  .36                4978191
LPL   000.77 359.9 m E Pg      2012/05/30 16:49:24.7  -0.7                          T                                        4978196
LPL   000.77 359.9 m E Sg      2012/05/30 16:49:35.7   0.2                          T               55.6  .36                4978190
LPG   000.75 001.0 m E Pg      2012/05/30 16:49:24.8  -0.3                          T                                        4978195
LPG   000.75 001.0 m E Sg      2012/05/30 16:49:35.4   0.5                          T               15.6  .17                4978189
SBF   001.01 150.0 m E Pg      2012/05/30 16:49:29.5  -0.1                          T                                        5011922
SBF   001.01 150.0 m E Sn      2012/05/30 16:49:44.3   0.1                          T              110.2  .42 Ml 3.2         5011919
SMRF  001.13 227.7 m E Pn      2012/05/30 16:49:32.0   0.2                          T                                        4978194
SMRF  001.13 227.7 m E Sg      2012/05/30 16:49:46.7   0.2                          T               49.0  .46 Ml 2.9         4978188
FRF   001.18 183.0 m E Pn      2012/05/30 16:49:32.6   0.1                          T                                        4978170
FRF   001.18 183.0 m E Sg      2012/05/30 16:49:48.3   0.3                          T               50.9  .44 Ml 3.0         5011917
LMR   001.42 186.6 m E Pn      2012/05/30 16:49:35.9   0.3                          T                                        4978169
LMR   001.42 186.6 m E Pg      2012/05/30 16:49:37.2   0.2                          T                                        5011923
LMR   001.42 186.6 m E Sg      2012/05/30 16:49:55.5   0.2                          T               20.8  .20 Ml 3.0         5011918
VIVF  001.47 275.1 m E Pn      2012/05/30 16:49:36.8   0.4                          T                                        4978193
VIVF  001.47 275.1 m E Pg      2012/05/30 16:49:38.2   0.2                          T                                        5011925
VIVF  001.47 275.1 m E Sn      2012/05/30 16:49:55.5   0.4                          T               22.9  .28 Ml 2.9         4978187
CABF  001.92 346.6 m E Pn      2012/05/30 16:49:42.8   0.2                          T                                        4978177
CABF  001.92 346.6 m E P       2012/05/30 16:49:44.8   0.0                          T                                        5011910
CABF  001.92 346.6 m E Pg      2012/05/30 16:49:46.7   0.4                          T                                        5011909
CABF  001.92 346.6 m E Sn      2012/05/30 16:50:05.6  -0.4                          T                                        4978178
CABF  001.92 346.6 m E Sg      2012/05/30 16:50:11.5   0.3                          T               26.0  .51 Ml 2.9         5011911
LASF  002.17 253.1 m E Pn      2012/05/30 16:49:45.8  -0.1                          T                                        4978186
LASF  002.17 253.1 m E Pg      2012/05/30 16:49:50.9   0.1                          T                                        5011924
LASF  002.17 253.1 m E Sn      2012/05/30 16:50:11.8   0.1                          T                6.8  .46 Ml 2.4         4978185
SMF   002.78 314.2 m E Pn      2012/05/30 16:49:54.2   0.0                          T                                        4978184
SMF   002.78 314.2 m E Pg      2012/05/30 16:50:02.1   0.0                          T                                        5011913
SMF   002.78 314.2 m E Sn      2012/05/30 16:50:26.2  -0.1                          T                                        4978183
SMF   002.78 314.2 m E Sg      2012/05/30 16:50:38.3   0.5                          T               28.4  .64 Ml 3.0         5011912
PGF   002.74 142.4 m E P       2012/05/30 16:49:56.4  -0.2                          T                                        5011921
PGF   002.74 142.4 m E Sn      2012/05/30 16:50:25.8   0.3                          T                2.4  .20 Ml 2.7         5011920
AVF   003.13 312.1 m E Pn      2012/05/30 16:49:59.1   0.2                          T                                        4978181
AVF   003.13 312.1 m E Sn      2012/05/30 16:50:34.6   0.0                          T               32.9  .90 Ml 3.0         4978182
LOR   003.22 322.6 m E Pn      2012/05/30 16:50:00.3   0.1 142.2  1.6               T                                        4978176
LOR   003.22 322.6 m E Sn      2012/05/30 16:50:36.8  -0.2 146.5  5.9               T                                        5011904
LOR   003.22 322.6 m E Sg      2012/05/30 16:50:51.7   0.0 151.1  10.6              T               34.6 1.06 Ml 3.0         5011903
HAU   003.27 355.5 m E Pn      2012/05/30 16:50:01.0   0.0                          T                                        5011908
HAU   003.27 355.5 m E Pg      2012/05/30 16:50:11.5   0.3                          T                                        5011907
HAU   003.27 355.5 m E Sg      2012/05/30 16:50:53.8   0.5                          T               18.7  .84 Ml 2.6         5011900
BGF   003.27 305.0 m E P       2012/05/30 16:50:02.7  -1.3                          T                                        5011915
BGF   003.27 305.0 m E Sg      2012/05/30 16:50:52.5  -0.7                          T               41.2  .68 Ml 3.3         5011914
TCF   003.53 297.5 m E Pn      2012/05/30 16:50:04.5   0.0                          T                                        4978180
TCF   003.53 297.5 m E Sn      2012/05/30 16:50:44.4   0.0                          T                                        4978179
TCF   003.53 297.5 m E Sg      2012/05/30 16:51:01.7   0.2                          T                6.9  .47 Ml 2.8         5011901
HINF  003.07 001.5 m E Pg      2012/05/30 16:50:07.9   0.4                          T                                        5011906
HINF  003.07 001.5 m E Sg      2012/05/30 16:50:47.1   0.1                          T                4.4  .44 Ml 2.4         5011899
SSF   003.23 317.0 m E Pg      2012/05/30 16:50:10.5   0.1                          T                                        5011905
SSF   003.23 317.0 m E Sg      2012/05/30 16:50:51.8  -0.1                          T                6.1  .32 Ml 2.9         5011902
RJF   003.74 280.4 m E Sg      2012/05/30 16:51:08.1   0.3                          T               12.8  .64 Ml 2.6         5011916

.
