EVENT     282760
    Date      Time       Latitude Longitude    Depth    Ndef Nsta Gap    Mag1  N    Mag2  N    Mag3  N   Author         ID
       rms   OT_Error      Smajor Sminor Az        Err   mdist  Mdist     Err        Err        Err      Quality

2012/09/06 17:53:02.4     43.3501    2.3854      2.0      27    8 102  Ml 2.3  7  Md 2.2  1              bulletin    282860
                                                                                                         _ldg
      0.66   +-  0.11       2.2    1.5  103.17 +-  0.0    0.12   2.27   +-0.2      +-                    m i ke

FRANCE
Sta     Dist  EvAz     Phase      Date       Time     TRes  Azim  AzRes  Slow  SRes Def   SNR       Amp   Per   Mag1   Mag2       ID
MTLF  000.12 265.9 m E Pg      2012/09/06 17:53:04.4  -0.7                          T                                        5064218
MTLF  000.12 265.9 m E Sg      2012/09/06 17:53:06.7  -0.2                          T               16.4  .16        Md 2.2  5064217
LASF  001.29 055.3 m E Pn      2012/09/06 17:53:25.2  -0.6                          T                                        5064216
LASF  001.29 055.3 m E Pg      2012/09/06 17:53:26.5   0.0                          T                                        5067846
LASF  001.29 055.3 m E Sn      2012/09/06 17:53:41.0  -1.6                          T                9.5  .40 Ml 2.3         5064215
CAF   001.59 351.8 m E Pn      2012/09/06 17:53:29.9   0.0                          T                                        5064210
CAF   001.59 351.8 m E Pg      2012/09/06 17:53:32.3   0.2                          T                                        5067851
CAF   001.59 351.8 m E Sn      2012/09/06 17:53:49.8  -0.1                          T                6.5  .30 Ml 2.4         5064211
EPF   001.53 258.6 m E Pg      2012/09/06 17:53:30.9  -0.1                          T                                        5064214
EPF   001.53 258.6 m E Sg      2012/09/06 17:53:51.1   0.3                          T                6.8  .20 Ml 2.6         5064213
LFF   001.98 323.9 m E P       2012/09/06 17:53:37.8   0.4                          T                                        5067844
LFF   001.98 323.9 m E Sn      2012/09/06 17:53:59.8   0.7                          T                5.0  .24 Ml 2.3         5067845
ETSF  002.20 259.2 m E Pn      2012/09/06 17:53:38.0  -0.3                          T                                        5064209
ETSF  002.20 259.2 m E Pg      2012/09/06 17:53:42.9  -0.5                          T                                        5067848
ETSF  002.20 259.2 m E Sg      2012/09/06 17:54:11.3  -0.5                          T                2.8  .38 Ml 2.1         5064212
RJF   002.05 342.6 m E Pg      2012/09/06 17:53:40.7   0.2                          T                                        5067849
RJF   002.05 342.6 m E Sn      2012/09/06 17:54:00.8   0.0                          T                3.3  .22 Ml 2.1         5067850
VIVF  002.23 046.8 m E Pg      2012/09/06 17:53:44.5   0.6                          T                                        5067841
VIVF  002.23 046.8 m E Sn      2012/09/06 17:54:06.1   1.0                          T                1.7  .30 Ml 2.0         5067847

.
EVENT     282773
    Date      Time       Latitude Longitude    Depth    Ndef Nsta Gap    Mag1  N    Mag2  N    Mag3  N   Author         ID
       rms   OT_Error      Smajor Sminor Az        Err   mdist  Mdist     Err        Err        Err      Quality

2012/09/06 22:12:30.2     44.4894    6.6746      2.0      18    7 070  Ml 1.6  4  Md 1.5  1              bulletin    282873
                                                                                                         _ldg
      0.17   +-  0.04       1.1     .7   76.94 +-  0.0    0.10   1.16   +-0.2      +-                    m i ke

FRANCE
Sta     Dist  EvAz     Phase      Date       Time     TRes  Azim  AzRes  Slow  SRes Def   SNR       Amp   Per   Mag1   Mag2       ID
MBDF  000.25 016.2 m E Pg      2012/09/06 22:12:35.4   0.1                          T                                        5067864
MBDF  000.25 016.2 m E Sg      2012/09/06 22:12:38.7   0.0                          T                9.6  .42        Md 1.5  5067865
ORIF  000.71 307.4 m E Pg      2012/09/06 22:12:43.6  -0.1                          T                                        5067862
ORIF  000.71 307.4 m E Sg      2012/09/06 22:12:52.6  -0.5                          T                2.6  .31                5067863
SBF   000.83 138.6 m E Pg      2012/09/06 22:12:45.8  -0.2                          T                                        5067857
SBF   000.83 138.6 m E Sg      2012/09/06 22:12:56.7  -0.1                          T                1.4  .29                5067858
FRF   000.93 181.2 m E Pg      2012/09/06 22:12:47.7   0.0                          T                                        5067855
FRF   000.93 181.2 m E Sg      2012/09/06 22:12:59.7  -0.1                          T                2.2  .22 Ml 1.8         5067860
SMRF  000.94 237.4 m E Pn      2012/09/06 22:12:49.0   0.1                          T                                        5067854
SMRF  000.94 237.4 m E Sn      2012/09/06 22:13:02.6   0.4                          T                1.7  .33 Ml 1.5         5067861
LPL   001.03 002.3 m E Pg      2012/09/06 22:12:49.8   0.0                          T                                        5067852
LPL   001.03 002.3 m E Sg      2012/09/06 22:13:03.4   0.3                          T                 .9  .34 Ml 1.3         5067853
LMR   001.16 186.0 m E Pg      2012/09/06 22:12:51.8  -0.1                          T                                        5067856
LMR   001.16 186.0 m E Sg      2012/09/06 22:13:07.1   0.1                          T                1.1  .20 Ml 1.6         5067859

.
EVENT     282761
    Date      Time       Latitude Longitude    Depth    Ndef Nsta Gap    Mag1  N    Mag2  N    Mag3  N   Author         ID
       rms   OT_Error      Smajor Sminor Az        Err   mdist  Mdist     Err        Err        Err      Quality

2012/09/06 23:47:09.9     43.0526   -2.0321     11.0 f    32    5 127  Ml 2.0  3  Md 2.1  2              bulletin    282861
                                                                                                         _ldg
      0.45   +-  0.13       2.4    1.8  175.95 +-  0.0    0.42   3.55   +-0.5      +-0.1                 m i ke

SPAIN
Sta     Dist  EvAz     Phase      Date       Time     TRes  Azim  AzRes  Slow  SRes Def   SNR       Amp   Per   Mag1   Mag2       ID
SJPF  000.59 083.9 m E Pg      2012/09/06 23:47:21.3  -0.1                          T                                        5064226
SJPF  000.59 083.9 m E Sg      2012/09/06 23:47:29.0  -0.2                          T               15.0  .18        Md 2.1  5064225
ETSF  001.09 097.6 m E Pg      2012/09/06 23:47:30.5   0.0                          T                                        5064224
ETSF  001.09 097.6 m E Sg      2012/09/06 23:47:44.7   0.0                          T                6.3  .28 Ml 2.2 Md 2.2  5064222
EPF   001.74 089.9 m E P       2012/09/06 23:47:40.4  -0.1                          T                                        5064223
EPF   001.74 089.9 m E Pg      2012/09/06 23:47:42.5   0.1                          T                                        5067868
EPF   001.74 089.9 m E Sg      2012/09/06 23:48:05.0   0.2                          T                8.7  .54 Ml 2.3         5064221
MTLF  003.12 083.3 m E P       2012/09/06 23:48:00.0  -0.3                          T                                        5064220
MTLF  003.12 083.3 m E Pg      2012/09/06 23:48:07.7   0.0                          T                                        5067866
MTLF  003.12 083.3 m E Sg      2012/09/06 23:48:47.8  -0.1                          T                 .3  .34 Ml 1.4         5067867
RJF   003.40 047.4 m E Pn      2012/09/06 23:48:02.2   1.1                          T                                        5064219

.
EVENT     282775
    Date      Time       Latitude Longitude    Depth    Ndef Nsta Gap    Mag1  N    Mag2  N    Mag3  N   Author         ID
       rms   OT_Error      Smajor Sminor Az        Err   mdist  Mdist     Err        Err        Err      Quality

2012/09/07 00:36:23.8     47.8351    7.0187      8.4      12    6 244  Ml 1.7  3  Md 1.7  3              bulletin    282875
                                                                                                         _ldg
      1.11   +-  0.32       5.9    3.1  146.49 +-  2.1    0.11   1.48   +-0.1      +-0.1                 m i ke

SWITZERLAND
Sta     Dist  EvAz     Phase      Date       Time     TRes  Azim  AzRes  Slow  SRes Def   SNR       Amp   Per   Mag1   Mag2       ID
HINF  000.11 260.7 m E Pg      2012/09/07 00:36:26.8   0.1                          T                                        5064885
HINF  000.11 260.7 m E Sg      2012/09/07 00:36:28.3  -0.2                          T                9.0  .18        Md 1.7  5064882
HAU   000.48 291.0 m E Pg      2012/09/07 00:36:33.1   0.0                          T                                        5064884
HAU   000.48 291.0 m E Sg      2012/09/07 00:36:39.6   0.1                          T                  1  .16        Md 1.8  5064883
CDF   000.60 016.5 m E Pg      2012/09/07 00:36:35.5   0.1                          T                                        5064889
CDF   000.60 016.5 m E Sg      2012/09/07 00:36:42.8  -0.5                          T                                        5064888
CDF   000.60 016.5 m E Sn      2012/09/07 00:36:46.0  -0.5                          T                 .9  .26        Md 1.6  5068640
PAGF  001.13 310.3 m E Pg      2012/09/07 00:36:44.7  -0.2 133.5  4.2               T                                        5064887
PAGF  001.13 310.3 m E Sg      2012/09/07 00:36:59.5   0.0 128.9  -0.4              T                1.4  .31 Ml 1.5         5064886
SFTF  001.38 286.3 m E Pn      2012/09/07 00:36:47.9   0.2 114.1  9.2               T                                        5064891
SFTF  001.38 286.3 m E Sg      2012/09/07 00:37:07.3  -0.1                          T                2.3  .38 Ml 1.8         5064890
MEZF  001.48 297.6 m E Sg      2012/09/07 00:37:10.4   0.0 117.7  1.6               T                2.0  .34 Ml 1.8         5068641

.
EVENT     282774
    Date      Time       Latitude Longitude    Depth    Ndef Nsta Gap    Mag1  N    Mag2  N    Mag3  N   Author         ID
       rms   OT_Error      Smajor Sminor Az        Err   mdist  Mdist     Err        Err        Err      Quality

2012/09/07 01:29:33.0     47.9865    6.3997      5.0 f    43   15 087  Ml 2.2 10  Md 2.3  2              bulletin    282874
                                                                                                         _ldg
      0.43   +-  0.06       1.1    1.0  140.80 +-  0.0    0.04   2.81   +-0.3      +-0.1                 m i ke

FRANCE
Sta     Dist  EvAz     Phase      Date       Time     TRes  Azim  AzRes  Slow  SRes Def   SNR       Amp   Per   Mag1   Mag2       ID
HAU   000.04 298.9 m E Pg      2012/09/07 01:29:34.4  -0.2                          T                                        5064241
HAU   000.04 298.9 m E Sg      2012/09/07 01:29:35.5  -0.1                          T              130.9  .20        Md 2.4  5064229
HINF  000.35 118.9 m E Pg      2012/09/07 01:29:39.8   0.0                          T                                        5064240
HINF  000.35 118.9 m E Sg      2012/09/07 01:29:44.6   0.0                          T               13.9  .20        Md 2.2  5064228
CDF   000.72 053.7 m E Pg      2012/09/07 01:29:46.8   0.0                          T                                        5068642
CDF   000.72 053.7 m E P       2012/09/07 01:29:48.0  -0.3                          T                                        5064236
CDF   000.72 053.7 m E Sg      2012/09/07 01:29:56.1  -0.2                          T               11.8  .27                5064233
PAGF  000.73 321.9 m E Pg      2012/09/07 01:29:46.8   0.1                          T                                        5068643
PAGF  000.73 321.9 m E P       2012/09/07 01:29:47.8  -0.3 139.3  -2.0              T                                        5064237
PAGF  000.73 321.9 m E Sg      2012/09/07 01:29:56.5   0.3                          T                7.2  .18                5064232
SFTF  000.94 284.0 m E Pg      2012/09/07 01:29:50.8   0.2                          T                                        5068645
SFTF  000.94 284.0 m E Pn      2012/09/07 01:29:51.1  -0.1 104.9  2.0               T                                        5064239
SFTF  000.94 284.0 m E Sg      2012/09/07 01:30:03.1   0.3                          T                7.0  .22 Ml 2.3         5064230
MEZF  001.04 300.3 m E Pg      2012/09/07 01:29:52.4   0.0                          T                                        5068644
MEZF  001.04 300.3 m E P       2012/09/07 01:29:54.1   0.0 114.8  -4.5              T                                        5064238
MEZF  001.04 300.3 m E Sg      2012/09/07 01:30:06.0   0.0                          T                3.8  .20 Ml 2.1         5064231
CABF  001.39 188.9 m E Pn      2012/09/07 01:29:57.9   0.4                          T                                        5064235
CABF  001.39 188.9 m E Pg      2012/09/07 01:29:59.1   0.0                          T                                        5068646
CABF  001.39 188.9 m E Sg      2012/09/07 01:30:16.5  -0.6                          T                1.8  .26 Ml 1.8         5068654
LOR   001.86 248.2 m E Pn      2012/09/07 01:30:04.1   0.2                          T                                        5064245
LOR   001.86 248.2 m E Pg      2012/09/07 01:30:07.8   0.1                          T                                        5068667
LOR   001.86 248.2 m E Sn      2012/09/07 01:30:26.8   0.4                          T                                        5064244
LOR   001.86 248.2 m E Sg      2012/09/07 01:30:31.0  -0.7                          T                5.0  .22 Ml 2.5         5068656
SMF   002.20 233.3 m E Pn      2012/09/07 01:30:08.4   0.0                          T                                        5064234
SMF   002.20 233.3 m E P       2012/09/07 01:30:10.9   0.1                          T                                        5068661
SMF   002.20 233.3 m E Pg      2012/09/07 01:30:14.1   0.3                          T                                        5068649
SMF   002.20 233.3 m E Sn      2012/09/07 01:30:34.1  -0.2                          T                                        5064243
SMF   002.20 233.3 m E Sg      2012/09/07 01:30:41.3  -0.8                          T                3.1  .20 Ml 2.4         5068652
AVF   002.39 241.1 m E Pn      2012/09/07 01:30:11.1   0.2                          T                                        5068648
AVF   002.39 241.1 m E Pg      2012/09/07 01:30:17.2  -0.1                          T                                        5068647
AVF   002.39 241.1 m E Sg      2012/09/07 01:30:47.0  -1.1                          T                1.1  .22 Ml 2.0         5068653
SSF   002.17 245.8 m E Pg      2012/09/07 01:30:13.3   0.0                          T                                        5068665
SSF   002.17 245.8 m E Sn      2012/09/07 01:30:33.3  -0.3                          T                                        5068666
SSF   002.17 245.8 m E Sg      2012/09/07 01:30:40.6  -0.6                          T                2.2  .26 Ml 2.3         5068655
BAIF  002.53 326.0 m E Pg      2012/09/07 01:30:19.7  -0.1                          T                                        5068662
BAIF  002.53 326.0 m E Sn      2012/09/07 01:30:41.5  -0.7                          T                                        5068663
BAIF  002.53 326.0 m E Sg      2012/09/07 01:30:52.2  -0.1                          T                2.2  .37 Ml 2.1         5068664
LPG   002.50 174.3 m E Pg      2012/09/07 01:30:19.8   0.0                          T                                        5068658
LPG   002.50 174.3 m E Sn      2012/09/07 01:30:41.2  -0.7                          T                 .6  .32 Ml 1.6         5068659
BGF   002.81 240.7 m E Pg      2012/09/07 01:30:25.1   0.0                          T                                        5068660
BGF   002.81 240.7 m E Sg      2012/09/07 01:31:00.4  -0.8                          T                3.5  .28 Ml 2.5         5068650
HYF   002.64 255.6 m E Sg      2012/09/07 01:30:56.1   0.1                          T                                        5068651

.
EVENT     283178
    Date      Time       Latitude Longitude    Depth    Ndef Nsta Gap    Mag1  N    Mag2  N    Mag3  N   Author         ID
       rms   OT_Error      Smajor Sminor Az        Err   mdist  Mdist     Err        Err        Err      Quality

2012/09/07 01:30:19.6     47.9779    6.3976      4.0 f     7    5 121  Ml 1.5  1  Md 1.3  2              bulletin    283278
                                                                                                         _ldg
      0.18   +-  0.08       2.3    1.5   41.58 +-  0.0    0.04   1.38   +-         +-0.3                 m i ke

FRANCE
Sta     Dist  EvAz     Phase      Date       Time     TRes  Azim  AzRes  Slow  SRes Def   SNR       Amp   Per   Mag1   Mag2       ID
HAU   000.04 309.9 m E Pg      2012/09/07 01:30:21.1   0.0                          T                                        5068674
HAU   000.04 309.9 m E Sg      2012/09/07 01:30:22.2   0.0                          T                5.5  .20        Md 1.5  5068673
HINF  000.35 117.6 m E Pg      2012/09/07 01:30:26.5   0.1                          T                                        5068672
HINF  000.35 117.6 m E Sg      2012/09/07 01:30:31.2   0.1                          T                1.3  .19        Md 1.0  5068671
CDF   000.73 053.2 m E Sg      2012/09/07 01:30:42.7  -0.4                          T                 .7  .24                5068670
PAGF  000.73 322.4 m E Sg      2012/09/07 01:30:43.1   0.1                          T                 .5  .19                5068669
CABF  001.38 188.9 m E Sg      2012/09/07 01:31:03.1  -0.3                          T                 .9  .27 Ml 1.5         5068668

.
