EVENT     261737
    Date      Time       Latitude Longitude    Depth    Ndef Nsta Gap    Mag1  N    Mag2  N    Mag3  N   Author         ID
       rms   OT_Error      Smajor Sminor Az        Err   mdist  Mdist     Err        Err        Err      Quality

2011/07/23 01:14:45.9     42.0112     .7252      3.0 f    12    4 136  Ml 1.3  4  Md 1.7  1              js067245    261737

      0.32   +-  0.07       1.5    1.1   47.79 +-  0.0    0.13   1.81   +-0.2      +-                    m i ke

PYRENEES
Sta     Dist  EvAz     Phase      Date       Time     TRes  Azim  AzRes  Slow  SRes Def   SNR       Amp   Per   Mag1   Mag2       ID
EPF   001.06 344.5 m E Pg      2011/07/23 01:15:05.6  -0.1                          T                                        4726401
EPF   001.06 344.5 m E Sg      2011/07/23 01:15:19.5   0.0                          T                 .6  .22 Ml 1.3 Md 1.7  4726407
ETSF  001.30 313.4 m E Pg      2011/07/23 01:15:10.4   0.2                          T                                        4726402
ETSF  001.30 313.4 m E Sg      2011/07/23 01:15:27.1   0.1                          T                 .6  .20 Ml 1.4         4726406
SJPF  001.81 308.0 m E Pn      2011/07/23 01:15:16.2  -0.1                          T                                        4726404
SJPF  001.81 308.0 m E Pg      2011/07/23 01:15:19.9   0.2                          T                                        4726403
SJPF  001.81 308.0 m E Sg      2011/07/23 01:15:42.6  -0.4                          T                 .3  .24 Ml 1.3         4726405
MTLF  001.73 039.1 m E Sg      2011/07/23 01:15:40.1  -0.1                          T                 .2  .24 Ml 1.0         4728168

.
EVENT     261712
    Date      Time       Latitude Longitude    Depth    Ndef Nsta Gap    Mag1  N    Mag2  N    Mag3  N   Author         ID
       rms   OT_Error      Smajor Sminor Az        Err   mdist  Mdist     Err        Err        Err      Quality

2011/07/23 04:44:05.6     42.8375   -1.1058      2.0      12    3 192  Ml 1.2  1  Md 1.2  2              js067245    261712

      0.27   +-  0.12       3.2    1.3    4.07 +-  0.0    0.10   1.08   +-         +-0.1                 m i ke

PYRENEES
Sta     Dist  EvAz     Phase      Date       Time     TRes  Azim  AzRes  Slow  SRes Def   SNR       Amp   Per   Mag1   Mag2       ID
SJPF  000.29 342.4 m E Pg      2011/07/23 04:44:10.9  -0.4                          T                                        4726413
SJPF  000.29 342.4 m E Sg      2011/07/23 04:44:15.3   0.0                          T                5.3  .22        Md 1.3  4726411
ETSF  000.41 081.2 m E Pg      2011/07/23 04:44:13.8   0.3                          T                                        4726412
ETSF  000.41 081.2 m E Sg      2011/07/23 04:44:18.9  -0.1                          T                1.3  .23        Md 1.1  4726409
EPF   001.08 079.2 m E Pg      2011/07/23 04:44:25.8  -0.1                          T                                        4726410
EPF   001.08 079.2 m E Sg      2011/07/23 04:44:40.0   0.2                          T                 .4  .17 Ml 1.2         4726408

.
EVENT     261713
    Date      Time       Latitude Longitude    Depth    Ndef Nsta Gap    Mag1  N    Mag2  N    Mag3  N   Author         ID
       rms   OT_Error      Smajor Sminor Az        Err   mdist  Mdist     Err        Err        Err      Quality

2011/07/23 07:30:42.8     42.8303   -1.0875      2.0      12    3 196  Ml 1.1  1  Md 1.2  2              js067245    261713

      0.23   +-  0.11       2.9    1.1    6.00 +-  0.0    0.11   1.07   +-         +-0.0                 m i ke

PYRENEES
Sta     Dist  EvAz     Phase      Date       Time     TRes  Azim  AzRes  Slow  SRes Def   SNR       Amp   Per   Mag1   Mag2       ID
SJPF  000.30 340.4 m E Pg      2011/07/23 07:30:48.7   0.0                          T                                        4726419
SJPF  000.30 340.4 m E Sg      2011/07/23 07:30:52.3  -0.4                          T                2.3  .21        Md 1.3  4726421
ETSF  000.39 079.9 m E Pg      2011/07/23 07:30:50.7   0.2                          T                                        4726418
ETSF  000.39 079.9 m E Sg      2011/07/23 07:30:55.5  -0.2                          T                 .9  .24        Md 1.2  4726420
EPF   001.07 078.7 m E Pg      2011/07/23 07:31:02.7  -0.1                          T                                        4726417
EPF   001.07 078.7 m E Sg      2011/07/23 07:31:16.4  -0.3                          T                 .5  .26 Ml 1.1         4726416

.
EVENT     261705
    Date      Time       Latitude Longitude    Depth    Ndef Nsta Gap    Mag1  N    Mag2  N    Mag3  N   Author         ID
       rms   OT_Error      Smajor Sminor Az        Err   mdist  Mdist     Err        Err        Err      Quality

2011/07/23 07:51:35.3     45.6775    6.9729      2.0      19    6 112  Ml 1.8  4  Md 1.7  2              js067245    261705

      0.13   +-  0.03        .8     .5  104.87 +-  0.0    0.12   1.82   +-0.0      +-0.0                 m i ke

FRANCE
Sta     Dist  EvAz     Phase      Date       Time     TRes  Azim  AzRes  Slow  SRes Def   SNR       Amp   Per   Mag1   Mag2       ID
LPL   000.23 226.4 m E Pg      2011/07/23 07:51:40.3   0.1                          T                                        4726429
LPL   000.23 226.4 m E Sg      2011/07/23 07:51:43.3  -0.1                          T               15.3  .25        Md 1.7  4726426
LPG   000.24 220.9 m E Pg      2011/07/23 07:51:40.5   0.1                          T                                        4726428
LPG   000.24 220.9 m E Sg      2011/07/23 07:51:43.6  -0.1                          T               21.5  .25        Md 1.7  4726427
MBDF  000.96 188.6 m E Pg      2011/07/23 07:51:53.6   0.1                          T                                        4726424
MBDF  000.96 188.6 m E Sg      2011/07/23 07:52:05.6  -0.4                          T                2.5  .29 Ml 1.7         4726422
ORIF  001.08 225.8 m E Pg      2011/07/23 07:51:55.0  -0.7                          T                                        4726425
ORIF  001.08 225.8 m E Sg      2011/07/23 07:52:09.6  -0.2                          T                2.6  .29 Ml 1.8         4726423
CABF  001.12 326.9 m E Pg      2011/07/23 07:51:56.4   0.0                          T                                        4728187
CABF  001.12 326.9 m E P       2011/07/23 07:51:58.0  -0.1                          T                                        4728188
CABF  001.12 326.9 m E Sg      2011/07/23 07:52:10.8  -0.1                          T                2.0  .24 Ml 1.8         4728189
CABF  001.12 326.9 m E S       2011/07/23 07:52:14.2  -0.1                          T                                        4728190
VIVF  001.82 244.0 m E Pg      2011/07/23 07:52:09.1  -0.1                          T                                        4728191
VIVF  001.82 244.0 m E Sg      2011/07/23 07:52:32.5  -0.2                          T                1.0  .26 Ml 1.8         4728192

.
EVENT     261714
    Date      Time       Latitude Longitude    Depth    Ndef Nsta Gap    Mag1  N    Mag2  N    Mag3  N   Author         ID
       rms   OT_Error      Smajor Sminor Az        Err   mdist  Mdist     Err        Err        Err      Quality

2011/07/23 11:42:03.1     47.5301   -3.7120      2.0      11    6 315  Ml 1.9  6  Md 1.8  2              js067245    261714

      1.27   +-  0.69      10.3    6.1   11.73 +-  0.0    0.53   2.63   +-0.3      +-0.2                 m i ke

FRANCE
Sta     Dist  EvAz     Phase      Date       Time     TRes  Azim  AzRes  Slow  SRes Def   SNR       Amp   Per   Mag1   Mag2       ID
QUIF  000.53 043.4 m E Pg      2011/07/23 11:42:13.3   0.1                          T                                        4726435
QUIF  000.53 043.4 m E Sg      2011/07/23 11:42:20.4   0.2                          T                6.9  .21        Md 1.7  4726430
ROSF  000.86 019.9 m E Pg      2011/07/23 11:42:19.1  -0.1                          T                                        4726434
ROSF  000.86 019.9 m E Sg      2011/07/23 11:42:30.2  -0.2                          T                4.3  .19 Ml 2.1 Md 2.0  4726432
SGMF  001.06 046.6 m E Pg      2011/07/23 11:42:23.1   0.1                          T                                        4726433
SGMF  001.06 046.6 m E Sg      2011/07/23 11:42:37.0   0.3                          T                1.4  .21 Ml 1.7         4726431
GRR   002.10 064.8 m E Sg      2011/07/23 11:43:09.6   0.4                          T                 .9  .22 Ml 1.7         4728193
FLN   002.49 059.1 m E Sg      2011/07/23 11:43:21.5   0.2                          T                1.3  .24 Ml 1.9         4728195
LDF   002.63 064.8 m E Sg      2011/07/23 11:43:26.0   0.2                          T                 .3  .20 Ml 1.5         4728194

.
EVENT     261715
    Date      Time       Latitude Longitude    Depth    Ndef Nsta Gap    Mag1  N    Mag2  N    Mag3  N   Author         ID
       rms   OT_Error      Smajor Sminor Az        Err   mdist  Mdist     Err        Err        Err      Quality

2011/07/23 15:01:18.7     42.3814    1.0361      3.0 f    43    9 046  Ml 2.4  9  Md 2.6  3              js067245    261715

      0.54   +-  0.06       1.2    1.0  169.21 +-  0.0    0.07   3.62   +-0.2      +-0.0                 m i ke

PYRENEES
Sta     Dist  EvAz     Phase      Date       Time     TRes  Azim  AzRes  Slow  SRes Def   SNR       Amp   Per   Mag1   Mag2       ID
EPF   000.83 321.9 m E Pg      2011/07/23 15:01:33.6  -0.7                          T                                        4726453
EPF   000.83 321.9 m E Sg      2011/07/23 15:01:44.5  -0.6                          T               16.0  .21        Md 2.6  4726444
MTLF  001.29 041.8 m E Pn      2011/07/23 15:01:41.9  -0.1                          T                                        4726452
MTLF  001.29 041.8 m E Pg      2011/07/23 15:01:42.9   0.1                          T                                        4728196
MTLF  001.29 041.8 m E Sn      2011/07/23 15:01:58.5  -0.3                          T                9.9  .25 Ml 2.5 Md 2.6  4726447
ETSF  001.29 294.2 m E Pg      2011/07/23 15:01:43.0   0.2                          T                                        4726451
ETSF  001.29 294.2 m E Sg      2011/07/23 15:01:59.9   0.5                          T                9.4  .28 Ml 2.5 Md 2.6  4726445
SJPF  001.82 294.5 m E Pg      2011/07/23 15:01:52.8   0.3                          T                                        4726450
SJPF  001.82 294.5 m E Sg      2011/07/23 15:02:16.1   0.2                          T                4.1  .25 Ml 2.4         4726446
CAF   002.65 016.0 m E Pn      2011/07/23 15:02:00.5   0.0                          T                                        4726449
CAF   002.65 016.0 m E Sn      2011/07/23 15:02:31.9   0.7                          T                                        4726442
CAF   002.65 016.0 m E Sg      2011/07/23 15:02:42.5   0.5                          T                2.4  .17 Ml 2.5         4726441
LASF  002.67 049.6 m E Pn      2011/07/23 15:02:00.9   0.1                          T                                        4726448
LASF  002.67 049.6 m E Pg      2011/07/23 15:02:08.1   0.0                          T                                        4728197
LASF  002.67 049.6 m E Sg      2011/07/23 15:02:42.8   0.4                          T                2.8  .26 Ml 2.4         4726443
LFF   002.57 355.3 m E Pg      2011/07/23 15:02:06.1  -0.1                          T                                        4728198
LFF   002.57 355.3 m E Sn      2011/07/23 15:02:29.1   0.0                          T                                        4728199
LFF   002.57 355.3 m E Sg      2011/07/23 15:02:39.2   0.0                          T                5.5  .27 Ml 2.5         4726439
RJF   002.94 006.6 m E Pg      2011/07/23 15:02:12.1  -1.1                          T                                        4726436
RJF   002.94 006.6 m E Sg      2011/07/23 15:02:51.2   0.2                          T                2.7  .21 Ml 2.2         4726440
VIVF  003.62 045.6 m E Pg      2011/07/23 15:02:26.3   0.6                          T                                        4726437
VIVF  003.62 045.6 m E Sg      2011/07/23 15:03:11.3  -0.9                          T                 .9  .20 Ml 2.2         4726438

.
EVENT     261704
    Date      Time       Latitude Longitude    Depth    Ndef Nsta Gap    Mag1  N    Mag2  N    Mag3  N   Author         ID
       rms   OT_Error      Smajor Sminor Az        Err   mdist  Mdist     Err        Err        Err      Quality

2011/07/23 16:10:13.0     48.3046    7.4333      3.0 f    15    9 198  Ml 1.8  4  Md 1.7  3              js067245    261704

      0.85   +-  0.25       4.2    2.3  108.75 +-  0.0    0.15   2.62   +-0.3      +-0.0                 m i ke

FRANCE
Sta     Dist  EvAz     Phase      Date       Time     TRes  Azim  AzRes  Slow  SRes Def   SNR       Amp   Per   Mag1   Mag2       ID
CDF   000.15 315.8 m E Pg      2011/07/23 16:10:16.3   0.1                          T                                        4726461
CDF   000.15 315.8 m E Sg      2011/07/23 16:10:17.9  -0.5                          T               19.8  .28        Md 1.8  4726462
HINF  000.62 218.8 m E Pg      2011/07/23 16:10:25.0   0.1                          T                                        4726460
HINF  000.62 218.8 m E Sg      2011/07/23 16:10:33.1   0.0                          T                5.0  .24        Md 1.7  4726459
HAU   000.79 248.0 m E Pg      2011/07/23 16:10:27.8  -0.1                          T                                        4726465
HAU   000.79 248.0 m E Sg      2011/07/23 16:10:37.8  -0.3                          T                5.7  .22        Md 1.7  4726455
THEF  000.96 266.0 m E Pg      2011/07/23 16:10:31.1   0.0                          T                                        4728204
THEF  000.96 266.0 m E Sg      2011/07/23 16:10:43.8   0.1                          T                4.5  .20 Ml 2.2         4726456
PAGF  001.16 283.1 m E Pg      2011/07/23 16:10:34.9   0.2 110.3  8.5               T                                        4728206
PAGF  001.16 283.1 m E Sg      2011/07/23 16:10:50.2   0.3                          T                 .9  .25 Ml 1.5         4726458
LANF  000.72 019.9 m E Sn      2011/07/23 16:10:39.3  -0.2                          T                4.2  .18                4728203
SFTF  001.60 267.3 m E Pg      2011/07/23 16:10:42.8  -0.1                          T                                        4728205
SFTF  001.60 267.3 m E Sg      2011/07/23 16:11:03.8   0.3                          T                2.1  .26 Ml 2.0         4726457
RUP   001.42 350.2 m E Sg      2011/07/23 16:10:57.6  -0.3                          T                                        4726454
LOR   002.62 248.1 m E Sg      2011/07/23 16:11:35.2  -0.2                          T                 .5  .20 Ml 1.7         4728202

.
EVENT     261703
    Date      Time       Latitude Longitude    Depth    Ndef Nsta Gap    Mag1  N    Mag2  N    Mag3  N   Author         ID
       rms   OT_Error      Smajor Sminor Az        Err   mdist  Mdist     Err        Err        Err      Quality

2011/07/23 16:48:31.8     45.0012    7.1429      2.0      14    7 223  Ml 1.9  4  Md 2.0  3              js067245    261703

      0.36   +-  0.19       4.1    1.8   84.42 +-  0.0    0.38   1.76   +-0.2      +-0.1                 m i ke

NORTHERN ITALY
Sta     Dist  EvAz     Phase      Date       Time     TRes  Azim  AzRes  Slow  SRes Def   SNR       Amp   Per   Mag1   Mag2       ID
MBDF  000.38 224.1 m E Pg      2011/07/23 16:48:39.0  -0.4                          T                                        4726479
MBDF  000.38 224.1 m E Sg      2011/07/23 16:48:43.7  -0.7                          T                6.6  .24        Md 1.9  4726474
LPG   000.57 331.0 m E Pg      2011/07/23 16:48:42.8  -0.2                          T                                        4726476
LPG   000.57 331.0 m E Sg      2011/07/23 16:48:50.3  -0.1                          T                7.5  .21        Md 2.0  4726471
LPL   000.59 330.8 m E Pg      2011/07/23 16:48:43.3   0.0                          T                                        4726477
LPL   000.59 330.8 m E Sg      2011/07/23 16:48:50.7  -0.3                          T                2.8  .18        Md 2.0  4726472
ORIF  000.90 265.2 m E Pg      2011/07/23 16:48:48.5  -0.3                          T                                        4726478
ORIF  000.90 265.2 m E Sg      2011/07/23 16:49:00.1  -0.4                          T                4.6  .23 Ml 2.1         4726473
FRF   001.48 194.1 m E Pg      2011/07/23 16:48:59.4   0.0                          T                                        4726475
FRF   001.48 194.1 m E Sg      2011/07/23 16:49:18.8   0.2                          T                1.8  .26 Ml 1.9         4726470
LMR   001.73 195.5 m E Pg      2011/07/23 16:49:04.0   0.1                          T                                        4726468
LMR   001.73 195.5 m E Sg      2011/07/23 16:49:26.8   0.6                          T                2.2  .26 Ml 2.1         4726467
VIVF  001.76 266.1 m E Pg      2011/07/23 16:49:04.9   0.3                          T                                        4726466
VIVF  001.76 266.1 m E Sg      2011/07/23 16:49:28.2   0.9                          T                 .9  .26 Ml 1.7         4726469

.
