BEGIN GSE2.0
MSG_TYPE DATA
MSG_ID 29-JAN-1315:00:37  FRA_NDC
E-MAIL
DATA_TYPE BULLETIN
Reviewed Bulletin (REB) # P2013-001  from French NDC for regional phases     PERIOD 02 JAN 2013 TO 08 JAN 2013 Cenalt JP S
EVENT     289350
    Date      Time       Latitude Longitude    Depth    Ndef Nsta Gap    Mag1  N    Mag2  N    Mag3  N   Author         ID
       rms   OT_Error      Smajor Sminor Az        Err   mdist  Mdist     Err        Err        Err      Quality

2013/01/02 01:59:17.9     43.0584    -.2098      2.0      18    7 104  Ml 1.3  5  Md 1.5  3              bulletin    289450
                                                                                                         _ldg
      0.66   +-  0.08       1.9    1.2  169.37 +-  0.0    0.13   2.57   +-0.1      +-0.0                 m i ke

PYRENEES
Sta     Dist  EvAz     Phase      Date       Time     TRes  Azim  AzRes  Slow  SRes Def   SNR       Amp   Per   Mag1   Mag2       ID
ETSF  000.30 238.2 m E Pg      2013/01/02 01:59:23.7  -0.2                          T                                        5152925
ETSF  000.30 238.2 m E Sg      2013/01/02 01:59:27.8  -0.2                          T               11.5  .22        Md 1.4  5152924
EPF   000.40 093.8 m E Pg      2013/01/02 01:59:25.8   0.0                          T                                        5152923
EPF   000.40 093.8 m E Sg      2013/01/02 01:59:31.9   0.8                          T                3.6  .23        Md 1.5  5152922
SJPF  000.75 274.6 m E Pg      2013/01/02 01:59:32.5   0.5                          T                                        5169849
SJPF  000.75 274.6 m E Sg      2013/01/02 01:59:42.1   0.4                          T                1.8  .25        Md 1.4  5152921
MTLF  001.80 080.1 m E Pg      2013/01/02 01:59:52.0   0.7                          T                                        5172273
MTLF  001.80 080.1 m E Sn      2013/01/02 02:00:10.2  -0.1                          T                                        5170428
MTLF  001.80 080.1 m E Sg      2013/01/02 02:00:14.6   0.1                          T                 .2  .19 Ml 1.2         5170427
LFF   002.00 019.7 m E Pg      2013/01/02 01:59:54.7  -0.4                          T                                        5170426
LFF   002.00 019.7 m E Sg      2013/01/02 02:00:21.1   0.2                          T                 .6  .25 Ml 1.4         5172276
CAF   002.49 040.5 m E Pg      2013/01/02 02:00:03.8  -0.3                          T                                        5169848
CAF   002.49 040.5 m E Sg      2013/01/02 02:00:36.1   0.0                          T                 .2  .18 Ml 1.4         5169847
RJF   002.57 028.4 m E Pg      2013/01/02 02:00:05.5   0.0                          T                                        5170423
RJF   002.57 028.4 m E Sn      2013/01/02 02:00:28.3  -0.3                          T                                        5170424
RJF   002.57 028.4 m E Sg      2013/01/02 02:00:38.7   0.2                          T                 .5  .24 Ml 1.3         5172274

.
EVENT     289351
    Date      Time       Latitude Longitude    Depth    Ndef Nsta Gap    Mag1  N    Mag2  N    Mag3  N   Author         ID
       rms   OT_Error      Smajor Sminor Az        Err   mdist  Mdist     Err        Err        Err      Quality

2013/01/02 02:00:31.2     46.7482    7.0628      8.0 f   111   26 022  Ml 2.6 27  Md 2.7  2              bulletin    289451
                                                                                                         _ldg
      0.60   +-  0.03        .7     .7   67.52 +-  0.0    0.33   4.12   +-0.3      +-0.0                 m i ke

SWITZERLAND
Sta     Dist  EvAz     Phase      Date       Time     TRes  Azim  AzRes  Slow  SRes Def   SNR       Amp   Per   Mag1   Mag2       ID
CABF  000.69 258.8 m E Pg      2013/01/02 02:00:44.3   0.0                          T                                        5175615
CABF  000.69 258.8 m E Pn      2013/01/02 02:00:45.7   0.0                          T                                        5152945
CABF  000.69 258.8 m E Sg      2013/01/02 02:00:53.8   0.5                          T               25.7  .22                5175616
CABF  000.69 258.8 m E Sn      2013/01/02 02:00:56.8   0.8                          T               25.5  .20        Md 2.7  5152942
HINF  001.08 352.5 m E Pg      2013/01/02 02:00:51.3  -0.1                          T                                        5175617
HINF  001.08 352.5 m E P       2013/01/02 02:00:52.2  -0.5                          T                                        5175713
HINF  001.08 352.5 m E Sg      2013/01/02 02:01:05.5   0.0                          T               53.3  .18 Ml 3.3 Md 2.7  5152941
HAU   001.35 339.2 m E Pn      2013/01/02 02:00:54.6   0.0                          T                                        5152949
HAU   001.35 339.2 m E Pg      2013/01/02 02:00:56.5   0.1                          T                                        5175618
HAU   001.35 339.2 m E Sg      2013/01/02 02:01:13.9   0.1                          T               27.3  .23 Ml 2.8         5152940
LPL   001.25 190.7 m E Pg      2013/01/02 02:00:54.8  -0.1                          T                                        5154168
LPL   001.25 190.7 m E P       2013/01/02 02:00:55.6   0.2                          T                                        5175606
LPL   001.25 190.7 m E Sg      2013/01/02 02:01:11.4   0.3                          T               10.2  .28 Ml 2.5         5154167
LPG   001.27 189.9 m E Pg      2013/01/02 02:00:55.2  -0.1                          T                                        5154165
LPG   001.27 189.9 m E P       2013/01/02 02:00:55.8   0.1                          T                                        5175607
LPG   001.27 189.9 m E Sg      2013/01/02 02:01:12.0   0.3                          T               17.6  .32 Ml 2.7         5154164
CDF   001.67 004.9 m E Pn      2013/01/02 02:00:58.8  -0.3                          T                                        5175622
CDF   001.67 004.9 m E Pg      2013/01/02 02:01:02.5   0.0                          T                                        5152948
CDF   001.67 004.9 m E Sg      2013/01/02 02:01:23.7  -0.3                          T                9.5  .18 Ml 2.9         5152937
SFTF  002.00 317.4 m E Pn      2013/01/02 02:01:03.3  -0.3 136.8  0.9               T                                        5152939
SFTF  002.00 317.4 m E P       2013/01/02 02:01:05.4  -0.4 137.5  1.5               T                                        5175620
SFTF  002.00 317.4 m E Pg      2013/01/02 02:01:08.8   0.4 141.9  5.9               T                                        5175619
SFTF  002.00 317.4 m E Sn      2013/01/02 02:01:27.3   0.0                          T                                        5154195
SFTF  002.00 317.4 m E Sg      2013/01/02 02:01:34.5   0.3 140.8  4.8               T                7.0  .22 Ml 2.7         5152933
PAGF  002.02 333.9 m E Pn      2013/01/02 02:01:04.0   0.2                          T                                        5154198
PAGF  002.02 333.9 m E Pg      2013/01/02 02:01:08.5  -0.3 153.5  0.6               T                                        5154197
PAGF  002.02 333.9 m E Sg      2013/01/02 02:01:34.8   0.0 151.7  -1.2              T                6.1  .18 Ml 2.7         5154196
ORIF  002.01 204.7 m E P       2013/01/02 02:01:05.8  -0.3                          T                                        5175608
ORIF  002.01 204.7 m E Pg      2013/01/02 02:01:08.6  -0.1                          T                                        5154170
ORIF  002.01 204.7 m E Sg      2013/01/02 02:01:34.8   0.3                          T                6.1  .25 Ml 2.6         5154171
SMF   002.22 268.5 m E Pn      2013/01/02 02:01:06.2  -0.4                          T                                        5154188
SMF   002.22 268.5 m E P       2013/01/02 02:01:08.7  -0.2                          T                                        5175613
SMF   002.22 268.5 m E Pg      2013/01/02 02:01:12.1  -0.3                          T                                        5152944
SMF   002.22 268.5 m E Sn      2013/01/02 02:01:32.6   0.1                          T                                        5154189
SMF   002.22 268.5 m E Sg      2013/01/02 02:01:41.1   0.1                          T                7.0  .19 Ml 2.8         5152932
MBDF  002.03 185.9 m E P       2013/01/02 02:01:06.4  -0.1                          T                                        5175609
MBDF  002.03 185.9 m E Pg      2013/01/02 02:01:09.0  -0.1                          T                                        5154175
MBDF  002.03 185.9 m E Sn      2013/01/02 02:01:27.6  -0.6                          T                                        5154173
MBDF  002.03 185.9 m E Sg      2013/01/02 02:01:35.3   0.0                          T                7.4  .42 Ml 2.5         5154174
MEZF  002.22 323.0 m E P       2013/01/02 02:01:09.1   0.2                          T                                        5175621
MEZF  002.22 323.0 m E Pg      2013/01/02 02:01:12.0  -0.3 142.2  0.7               T                                        5152938
MEZF  002.22 323.0 m E Sg      2013/01/02 02:01:41.0   0.0 138.1  -3.4              T                5.5  .24 Ml 2.6         5152934
LOR   002.25 284.5 m E P       2013/01/02 02:01:09.2  -0.2                          T                                        5175623
LOR   002.25 284.5 m E Pg      2013/01/02 02:01:13.1   0.1 109.4  7.2               T                                        5152947
LOR   002.25 284.5 m E Sg      2013/01/02 02:01:42.0   0.0 109.4  7.2               T                8.5  .19 Ml 2.9         5152936
VIVF  002.52 222.3 m E Pn      2013/01/02 02:01:10.8   0.1                          T                                        5154177
VIVF  002.52 222.3 m E Pg      2013/01/02 02:01:18.1   0.0                          T                                        5154179
VIVF  002.52 222.3 m E Sn      2013/01/02 02:01:40.0   0.2                          T                                        5154178
VIVF  002.52 222.3 m E Sg      2013/01/02 02:01:50.6   0.1                          T                4.7  .24 Ml 2.6         5154176
SSF   002.46 278.6 m E P       2013/01/02 02:01:12.6   0.2                          T                                        5175714
SSF   002.46 278.6 m E Pg      2013/01/02 02:01:16.9   0.1                          T                                        5152946
SSF   002.46 278.6 m E Sg      2013/01/02 02:01:48.3  -0.2                          T                6.9  .30 Ml 2.8         5152935
AVF   002.55 272.3 m E P       2013/01/02 02:01:13.9   0.3                          T                                        5175614
AVF   002.55 272.3 m E Pg      2013/01/02 02:01:18.2  -0.3                          T                                        5152943
AVF   002.55 272.3 m E Sn      2013/01/02 02:01:40.2  -0.1                          T                                        5154190
AVF   002.55 272.3 m E Sg      2013/01/02 02:01:51.2  -0.1                          T                2.5  .21 Ml 2.4         5152931
BGF   002.91 267.8 m E Pn      2013/01/02 02:01:16.1   0.2                          T                                        5154183
BGF   002.91 267.8 m E P       2013/01/02 02:01:19.0   0.2                          T                                        5175711
BGF   002.91 267.8 m E Pg      2013/01/02 02:01:25.2   0.1                          T                                        5154182
BGF   002.91 267.8 m E Sn      2013/01/02 02:01:48.3  -0.7                          T                                        5154181
BGF   002.91 267.8 m E Sg      2013/01/02 02:02:02.1  -0.4                          T                5.7  .32 Ml 2.7         5154180
SBF   002.90 174.7 m E P       2013/01/02 02:01:19.0   0.3                          T                                        5175605
SBF   002.90 174.7 m E Pg      2013/01/02 02:01:24.6  -0.3                          T                                        5154162
SBF   002.90 174.7 m E Sn      2013/01/02 02:01:49.7   0.9                          T                1.1  .20 Ml 2.2         5154161
HYF   003.07 281.4 m E P       2013/01/02 02:01:21.3   0.2                          T                                        5175712
HYF   003.07 281.4 m E Pg      2013/01/02 02:01:28.3   0.2                          T                                        5154185
HYF   003.07 281.4 m E Sn      2013/01/02 02:01:53.1   0.2                          T                                        5154186
HYF   003.07 281.4 m E Sg      2013/01/02 02:02:08.0   0.4                          T                                        5154187
TCF   003.38 263.9 m E Pn      2013/01/02 02:01:22.7   0.3                          T                                        5154191
TCF   003.38 263.9 m E Pg      2013/01/02 02:01:33.6  -0.2                          T                                        5154192
TCF   003.38 263.9 m E Sn      2013/01/02 02:02:00.4   0.1                          T                                        5154193
TCF   003.38 263.9 m E Sg      2013/01/02 02:02:17.3   0.0                          T                1.6  .20 Ml 2.5         5154194
LASF  003.50 221.3 m E Pn      2013/01/02 02:01:24.1   0.1                          T                                        5154160
LASF  003.50 221.3 m E Pg      2013/01/02 02:01:36.0   0.0                          T                                        5154159
LASF  003.50 221.3 m E Sg      2013/01/02 02:02:21.4   0.5                          T                1.8  .24 Ml 2.4         5154157
GIVF  003.67 336.9 m E Pn      2013/01/02 02:01:25.4  -0.9                          T                                        5154199
GIVF  003.67 336.9 m E Sg      2013/01/02 02:02:25.9  -0.5                          T                3.3  .28 Ml 2.7         5154147
CAF   003.94 244.3 m E Pn      2013/01/02 02:01:29.6  -0.4                          T                                        5154156
CAF   003.94 244.3 m E Sg      2013/01/02 02:02:35.2   0.5                          T                 .5  .17 Ml 2.1         5154154
BAIF  003.82 331.2 m E Pg      2013/01/02 02:01:41.2  -0.7                          T                                        5154148
BAIF  003.82 331.2 m E Sn      2013/01/02 02:02:10.5  -0.2                          T                                        5154149
BAIF  003.82 331.2 m E Sg      2013/01/02 02:02:30.1  -0.8                          T                 .4  .18 Ml 2.0         5154150
RJF   004.12 251.5 m E Pg      2013/01/02 02:01:46.6  -0.8                          T                                        5154151
RJF   004.12 251.5 m E Sn      2013/01/02 02:02:18.1   0.1                          T                                        5154153
RJF   004.12 251.5 m E Sg      2013/01/02 02:02:41.3   0.9                          T                1.0  .23 Ml 2.0         5154152
SMRF  002.96 201.2 m E Sg      2013/01/02 02:02:04.6   0.4                          T                 .9  .35 Ml 1.8         5175709

.
