EVENT     284328
    Date      Time       Latitude Longitude    Depth    Ndef Nsta Gap    Mag1  N    Mag2  N    Mag3  N   Author         ID
       rms   OT_Error      Smajor Sminor Az        Err   mdist  Mdist     Err        Err        Err      Quality

2012/10/04 06:45:44.1     44.6132    7.2309     13.0 f    25    8 124  Ml 2.1  6  Md 1.4  1              bulletin    284429
                                                                                                         _ldg
      0.27   +-  0.06       1.5     .8   68.47 +-  0.0    0.11   1.38   +-0.2      +-                    m i ke

NORTHERN ITALY
Sta     Dist  EvAz     Phase      Date       Time     TRes  Azim  AzRes  Slow  SRes Def   SNR       Amp   Per   Mag1   Mag2       ID
MBDF  000.35 289.3 m E Pg      2012/10/04 06:45:51.5   0.1                          T                                        5083750
MBDF  000.35 289.3 m E Sg      2012/10/04 06:45:55.8  -0.4                          T               23.5  .20        Md 1.4  5083748
SBF   000.76 168.9 m E Pg      2012/10/04 06:45:58.9   0.1                          T                                        5083751
SBF   000.76 168.9 m E Sg      2012/10/04 06:46:08.6  -0.3                          T                6.8  .25                5083752
LPL   000.97 338.8 m E Pg      2012/10/04 06:46:02.6  -0.1                          T                                        5083749
LPL   000.97 338.8 m E Sg      2012/10/04 06:46:15.0  -0.4                          T                5.4  .40 Ml 1.9         5083747
FRF   001.13 202.0 m E Pg      2012/10/04 06:46:05.8   0.4                          T                                        5083756
FRF   001.13 202.0 m E Sg      2012/10/04 06:46:20.0  -0.3                          T                5.4  .20 Ml 2.3         5083758
LMR   001.38 202.4 m E Pg      2012/10/04 06:46:09.7  -0.3                          T                                        5083755
LMR   001.38 202.4 m E Sg      2012/10/04 06:46:27.7  -0.2                          T                6.2  .36 Ml 2.2         5083757
LPG   000.95 339.1 m E Sg      2012/10/04 06:46:15.0   0.2                          T                5.1  .20 Ml 2.2         5083759
ORIF  001.01 288.1 m E Sg      2012/10/04 06:46:15.9  -0.6                          T                3.3  .24 Ml 2.0         5083754
SMRF  001.35 242.4 m E Sg      2012/10/04 06:46:26.8  -0.1                          T                2.1  .28 Ml 1.9         5083753

.
EVENT     284518
    Date      Time       Latitude Longitude    Depth    Ndef Nsta Gap    Mag1  N    Mag2  N    Mag3  N   Author         ID
       rms   OT_Error      Smajor Sminor Az        Err   mdist  Mdist     Err        Err        Err      Quality

2012/10/04 06:48:45.2     47.8123    5.8732       .0 f    15    8 083  Ml 2.6  5  Md 2.4  2              bulletin    284619
                                                                                                         _ldg
      1.06   +-  0.10       2.1    1.7  149.98 +-  0.0    0.66   1.81   +-0.1      +-0.2                 m i km

FRANCE
Sta     Dist  EvAz     Phase      Date       Time     TRes  Azim  AzRes  Slow  SRes Def   SNR       Amp   Per   Mag1   Mag2       ID
HINF  000.66 089.3 m E Pg      2012/10/04 06:48:57.9   0.0                          T                                        5092726
HINF  000.66 089.3 m E Sg      2012/10/04 06:49:06.8   0.0                          T               51.4  .84        Md 2.2  5092727
SFTF  000.68 305.3 m E Pg      2012/10/04 06:48:58.2  -0.1 123.1  -1.7              T                                        5092719
SFTF  000.68 305.3 m E Sg      2012/10/04 06:49:07.4  -0.1 134.2  9.5               T               22.4  .42        Md 2.5  5092720
PAGF  000.75 352.5 m E Pg      2012/10/04 06:48:59.6   0.0 180.7  8.4               T                                        5092729
PAGF  000.75 352.5 m E Sg      2012/10/04 06:49:09.4  -0.2                          T               29.2  .52                5092730
CDF   001.12 056.9 m E Pg      2012/10/04 06:49:06.4   0.0                          T                                        5092731
CDF   001.12 056.9 m E Sn      2012/10/04 06:49:22.2   0.2                          T               12.5  .46 Ml 2.4         5092722
CABF  001.21 173.0 m E Pg      2012/10/04 06:49:07.7  -0.5                          T                                        5092724
CABF  001.21 173.0 m E Sg      2012/10/04 06:49:24.7   0.6                          T               40.9  .74 Ml 2.7         5092725
LOR   001.47 249.0 m E Pg      2012/10/04 06:49:13.1   0.3  69.3  1.8               T                                        5092732
LOR   001.47 249.0 m E Sg      2012/10/04 06:49:32.3   0.3  68.7  1.2               T               13.8  .46 Ml 2.5         5092734
SMF   001.81 230.6 m E Pg      2012/10/04 06:49:19.3   0.1                          T                                        5092728
SMF   001.81 230.6 m E Sg      2012/10/04 06:49:42.5  -0.1                          T               21.1  .54 Ml 2.8         5092723
SSF   001.77 245.8 m E Sg      2012/10/04 06:49:41.7   0.2                          T                8.9  .39 Ml 2.6         5092733

.
EVENT     284330
    Date      Time       Latitude Longitude    Depth    Ndef Nsta Gap    Mag1  N    Mag2  N    Mag3  N   Author         ID
       rms   OT_Error      Smajor Sminor Az        Err   mdist  Mdist     Err        Err        Err      Quality

2012/10/04 07:10:54.6     44.6363    7.2076     10.0 f    16    7 188  Ml 1.9  6  Md 1.9  1              bulletin    284431
                                                                                                         _ldg
      0.59   +-  0.28       6.2    2.8   65.62 +-  0.0    0.32   1.40   +-0.1      +-                    m i ke

NORTHERN ITALY
Sta     Dist  EvAz     Phase      Date       Time     TRes  Azim  AzRes  Slow  SRes Def   SNR       Amp   Per   Mag1   Mag2       ID
MBDF  000.32 286.4 m E Pg      2012/10/04 07:11:01.1  -0.2                          T                                        5083784
MBDF  000.32 286.4 m E Sg      2012/10/04 07:11:05.6  -0.2                          T               18.2  .20        Md 1.9  5083780
SBF   000.79 168.0 m E Pg      2012/10/04 07:11:09.2  -0.5                          T                                        5083774
SBF   000.79 168.0 m E Sg      2012/10/04 07:11:18.7  -1.3                          T                3.6  .19                5083775
LPL   000.94 339.2 m E Pg      2012/10/04 07:11:12.8   0.1                          T                                        5083782
LPL   000.94 339.2 m E Sg      2012/10/04 07:11:25.0   0.1                          T                4.9  .38 Ml 1.9         5083778
ORIF  000.99 287.1 m E Pg      2012/10/04 07:11:13.2  -0.1                          T                                        5083783
ORIF  000.99 287.1 m E Sg      2012/10/04 07:11:25.2  -1.0                          T                2.5  .20 Ml 1.9         5083779
FRF   001.15 200.8 m E Pg      2012/10/04 07:11:15.8  -0.4                          T                                        5083781
FRF   001.15 200.8 m E Sg      2012/10/04 07:11:30.4  -0.7                          T                3.5  .26 Ml 2.1         5083777
SMRF  001.34 241.2 m E Pn      2012/10/04 07:11:18.4   0.5                          T                                        5083773
SMRF  001.34 241.2 m E Sn      2012/10/04 07:11:36.0   1.2                          T                2.2  .38 Ml 1.7         5083771
LMR   001.40 201.4 m E Pn      2012/10/04 07:11:19.1   0.5                          T                                        5083772
LMR   001.40 201.4 m E Sn      2012/10/04 07:11:37.1   1.2                          T                4.1  .34 Ml 2.1         5083776

.
EVENT     284332
    Date      Time       Latitude Longitude    Depth    Ndef Nsta Gap    Mag1  N    Mag2  N    Mag3  N   Author         ID
       rms   OT_Error      Smajor Sminor Az        Err   mdist  Mdist     Err        Err        Err      Quality

2012/10/04 07:39:04.4     44.6317    7.2541     12.0 f    39    9 131  Ml 2.0  8  Md 1.9  1              bulletin    284433
                                                                                                         _ldg
      0.38   +-  0.07       1.6     .9   63.94 +-  0.0    0.13   1.85   +-0.2      +-                    m i ke

NORTHERN ITALY
Sta     Dist  EvAz     Phase      Date       Time     TRes  Azim  AzRes  Slow  SRes Def   SNR       Amp   Per   Mag1   Mag2       ID
MBDF  000.36 285.6 m E Pg      2012/10/04 07:39:11.7  -0.1                          T                                        5083805
MBDF  000.36 285.6 m E Sg      2012/10/04 07:39:15.7  -1.1                          T               32.3  .22        Md 1.9  5083803
SBF   000.78 170.3 m E Pg      2012/10/04 07:39:19.6   0.2                          T                                        5083804
SBF   000.78 170.3 m E Sg      2012/10/04 07:39:29.8   0.2                          T                6.6  .23                5092738
LPG   000.94 337.8 m E Pg      2012/10/04 07:39:22.8   0.3                          T                                        5083801
LPG   000.94 337.8 m E Sg      2012/10/04 07:39:34.8   0.1                          T                3.3  .23 Ml 1.9         5083800
LPL   000.96 337.5 m E Pg      2012/10/04 07:39:22.9   0.1                          T                                        5092741
LPL   000.96 337.5 m E Sg      2012/10/04 07:39:35.3   0.0                          T                2.5  .24 Ml 1.8         5092735
ORIF  001.02 286.8 m E Pg      2012/10/04 07:39:23.8   0.0                          T                                        5083802
ORIF  001.02 286.8 m E Sg      2012/10/04 07:39:36.6  -0.5                          T                2.9  .20 Ml 2.0         5083793
FRF   001.16 202.4 m E Pg      2012/10/04 07:39:26.6   0.5                          T                                        5083797
FRF   001.16 202.4 m E Sg      2012/10/04 07:39:41.2   0.0                          T                4.4  .22 Ml 2.2         5083796
SMRF  001.37 242.0 m E Pg      2012/10/04 07:39:30.2   0.0                          T                                        5092740
SMRF  001.37 242.0 m E Sg      2012/10/04 07:39:48.2   0.2                          T                2.7  .29 Ml 2.0         5092736
LMR   001.40 202.8 m E Pg      2012/10/04 07:39:30.7   0.0                          T                                        5092739
LMR   001.40 202.8 m E Sg      2012/10/04 07:39:48.8  -0.1                          T                5.0  .34 Ml 2.2         5092737
VIVF  001.85 277.9 m E Pn      2012/10/04 07:39:34.6   0.2                          T                                        5083806
VIVF  001.85 277.9 m E Sn      2012/10/04 07:39:56.6   0.3                          T                2.0  .41 Ml 1.9         5083807

.
EVENT     284822
    Date      Time       Latitude Longitude    Depth    Ndef Nsta Gap    Mag1  N    Mag2  N    Mag3  N   Author         ID
       rms   OT_Error      Smajor Sminor Az        Err   mdist  Mdist     Err        Err        Err      Quality

2012/10/04 09:33:17.0     44.7322    9.7649     25.0 f    36   11 109  Ml 2.7 11                         bulletin    284922
                                                                                                         _ldg
      0.58   +-  0.14       3.7    2.0   24.57 +-  0.0    0.23   4.06   +-0.2                            m i ke

NORTHERN ITALY
Sta     Dist  EvAz     Phase      Date       Time     TRes  Azim  AzRes  Slow  SRes Def   SNR       Amp   Per   Mag1   Mag2       ID
SBF   001.89 243.4 m E P       2012/10/04 09:33:48.3   0.0                          T                                        5092770
SBF   001.89 243.4 m E Sn      2012/10/04 09:34:07.7   0.4                          T               25.0  .29 Ml 3.1         5092767
MBDF  002.13 270.9 m E Pn      2012/10/04 09:33:49.6   0.1                          T                                        5092779
MBDF  002.13 270.9 m E Sn      2012/10/04 09:34:13.8   0.3                          T                                        5092760
MBDF  002.13 270.9 m E Sg      2012/10/04 09:34:24.7   0.0                          T               18.1  .54 Ml 2.8         5092761
PGF   002.25 194.5 m E Pn      2012/10/04 09:33:51.4   0.4                          T                                        5092769
PGF   002.25 194.5 m E Sn      2012/10/04 09:34:16.6   0.3                          T                2.7  .27 Ml 2.5         5092768
LPL   002.29 291.1 m E Pn      2012/10/04 09:33:51.9   0.3                          T                                        5092775
LPL   002.29 291.1 m E Sn      2012/10/04 09:34:17.7   0.5                          T                9.4  .37 Ml 2.7         5092763
FRF   002.53 243.5 m E Pn      2012/10/04 09:33:54.8   0.1                          T                                        5092773
FRF   002.53 243.5 m E Sn      2012/10/04 09:34:23.0   0.2                          T                7.7  .31 Ml 2.8         5092765
LMR   002.73 240.4 m E Pn      2012/10/04 09:33:57.7   0.3                          T                                        5092772
LMR   002.73 240.4 m E P       2012/10/04 09:34:00.5   0.1                          T                                        5092771
LMR   002.73 240.4 m E Sn      2012/10/04 09:34:27.8   0.3                          T                8.5  .35 Ml 2.8         5092766
ORIF  002.77 275.2 m E P       2012/10/04 09:34:01.1   0.1                          T                                        5092776
ORIF  002.77 275.2 m E Sn      2012/10/04 09:34:29.0   0.4                          T                4.9  .30 Ml 2.6         5092762
CABF  003.19 307.4 m E Pn      2012/10/04 09:34:04.3   0.5                          T                                        5092758
CABF  003.19 307.4 m E Sn      2012/10/04 09:34:39.0   0.4                          T                4.9  .33 Ml 2.6         5092757
SMRF  003.10 257.3 m E P       2012/10/04 09:34:05.6   0.0                          T                                        5092774
SMRF  003.10 257.3 m E Sn      2012/10/04 09:34:36.5   0.2                          T                3.2  .31 Ml 2.5         5092764
VIVF  003.63 273.7 m E Pn      2012/10/04 09:34:09.8   0.1                          T                                        5092777
VIVF  003.63 273.7 m E P       2012/10/04 09:34:12.2  -0.9                          T                                        5092778
VIVF  003.63 273.7 m E Sn      2012/10/04 09:34:49.2   0.3                          T                2.6  .29 Ml 2.5         5092759
CDF   004.06 335.9 m E Sn      2012/10/04 09:34:59.6   0.2                          T                7.1  .30 Ml 3.1         5092756

.
EVENT     284389
    Date      Time       Latitude Longitude    Depth    Ndef Nsta Gap    Mag1  N    Mag2  N    Mag3  N   Author         ID
       rms   OT_Error      Smajor Sminor Az        Err   mdist  Mdist     Err        Err        Err      Quality

2012/10/04 10:07:05.8     42.8833     .5104      2.0       6    3 202  Ml 2.2  1  Md 2.0  2              bulletin    284490
                                                                                                         _ldg
      0.09   +-  0.07       2.2     .9  178.28 +-  0.0    0.19   1.33   +-         +-0.1                 m i ke

PYRENEES
Sta     Dist  EvAz     Phase      Date       Time     TRes  Azim  AzRes  Slow  SRes Def   SNR       Amp   Per   Mag1   Mag2       ID
EPF   000.19 319.6 m E Pg      2012/10/04 10:07:09.7  -0.1                          T                                        5084050
EPF   000.19 319.6 m E Sg      2012/10/04 10:07:12.6   0.1                          T               42.4  .18        Md 2.0  5084049
ETSF  000.79 271.5 m E Pg      2012/10/04 10:07:20.7   0.0                          T                                        5084047
ETSF  000.79 271.5 m E Sn      2012/10/04 10:07:34.2   0.1                          T                8.0  .40        Md 2.0  5084048
MTLF  001.33 069.3 m E Pg      2012/10/04 10:07:30.7   0.0                          T                                        5084046
MTLF  001.33 069.3 m E Sg      2012/10/04 10:07:48.0   0.1                          T                6.1  .32 Ml 2.2         5084045

.
EVENT     284383
    Date      Time       Latitude Longitude    Depth    Ndef Nsta Gap    Mag1  N    Mag2  N    Mag3  N   Author         ID
       rms   OT_Error      Smajor Sminor Az        Err   mdist  Mdist     Err        Err        Err      Quality

2012/10/04 10:08:33.6     43.4869    6.5887       .0 f    20    8 142  Ml 2.1  5  Md 2.1  2              bulletin    284484
                                                                                                         _ldg
      0.65   +-  0.21       4.4    3.0  153.45 +-  0.0    0.09   2.06   +-0.2      +-0.1                 m i km

NEAR SOUTH COAST OF FRANCE
Sta     Dist  EvAz     Phase      Date       Time     TRes  Azim  AzRes  Slow  SRes Def   SNR       Amp   Per   Mag1   Mag2       ID
FRF   000.09 029.8 m E Pg      2012/10/04 10:08:34.3  -1.4                          T                                        5084042
FRF   000.09 029.8 m E Sg      2012/10/04 10:08:35.4  -1.7                          T              737.5  .40        Md 2.2  5092780
LMR   000.16 200.8 m E Pg      2012/10/04 10:08:37.0  -0.1                          T                                        5084041
LMR   000.16 200.8 m E Sg      2012/10/04 10:08:40.3   0.7                          T               75.9  .76        Md 2.0  5084040
SBF   000.72 058.2 m E Pg      2012/10/04 10:08:47.5   0.0                          T                                        5084038
SBF   000.72 058.2 m E Sg      2012/10/04 10:08:58.2   1.1                          T               13.2  .22                5084039
SMRF  000.88 304.0 m E Pg      2012/10/04 10:08:51.1   0.6                          T                                        5084037
SMRF  000.88 304.0 m E Sg      2012/10/04 10:09:02.9   0.7                          T                3.5  .28 Ml 1.9         5084036
MBDF  001.25 006.0 m E Pg      2012/10/04 10:08:57.1  -0.2                          T                                        5084032
MBDF  001.25 006.0 m E Sg      2012/10/04 10:09:14.7   1.0                          T                1.7  .26 Ml 1.7         5084031
ORIF  001.52 340.6 m E Pg      2012/10/04 10:09:02.1  -0.1                          T                                        5084033
ORIF  001.52 340.6 m E Sg      2012/10/04 10:09:22.4   0.3                          T                5.2  .40 Ml 2.2         5084034
LPL   002.03 002.9 m E Pg      2012/10/04 10:09:10.6  -1.3                          T                2.8  .26 Ml 2.2         5084035
LASF  002.06 287.5 m E Pg      2012/10/04 10:09:11.6  -0.6                          T                                        5084043
LASF  002.06 287.5 m E Sn      2012/10/04 10:09:35.5   2.5                          T                2.4  .20 Ml 2.3         5084044

.
