EVENT     287974
    Date      Time       Latitude Longitude    Depth    Ndef Nsta Gap    Mag1  N    Mag2  N    Mag3  N   Author         ID
       rms   OT_Error      Smajor Sminor Az        Err   mdist  Mdist     Err        Err        Err      Quality

2012/12/05 21:34:10.8     45.1535    6.6021      2.0      74   17 033  Ml 2.3 14  Md 2.2  3              bulletin    288074
                                                                                                         _ldg
      0.61   +-  0.06       1.7    1.2   77.14 +-  0.0    0.11   2.98   +-0.3      +-0.0                 m i ke

FRANCE
Sta     Dist  EvAz     Phase      Date       Time     TRes  Azim  AzRes  Slow  SRes Def   SNR       Amp   Per   Mag1   Mag2       ID
LPG   000.36 017.0 m E Pg      2012/12/05 21:34:17.6  -0.5                          T                                        5131805
LPG   000.36 017.0 m E Sg      2012/12/05 21:34:23.1   0.1                          T               29.1  .23        Md 2.3  5131799
LPL   000.37 014.2 m E Pg      2012/12/05 21:34:17.7  -0.6                          T                                        5131807
LPL   000.37 014.2 m E Sg      2012/12/05 21:34:23.8   0.5                          T               40.9  .22        Md 2.2  5131798
MBDF  000.44 164.2 m E Pg      2012/12/05 21:34:18.5  -1.0                          T                                        5131806
MBDF  000.44 164.2 m E Sg      2012/12/05 21:34:25.6   0.2                          T               22.0  .24        Md 2.2  5131797
SMRF  001.39 212.3 m E Pn      2012/12/05 21:34:35.9   0.3                          T                                        5131803
SMRF  001.39 212.3 m E Pg      2012/12/05 21:34:37.0   0.3                          T                                        5137718
SMRF  001.39 212.3 m E Sn      2012/12/05 21:34:53.6   0.3                          T                3.2  .28 Ml 2.0         5131795
VIVF  001.40 258.4 m E Pn      2012/12/05 21:34:35.9   0.2                          T                                        5131804
VIVF  001.40 258.4 m E Sn      2012/12/05 21:34:53.4  -0.2                          T                                        5131796
VIVF  001.40 258.4 m E Sg      2012/12/05 21:34:55.3   0.2                          T                7.1  .31 Ml 2.4         5137719
SBF   001.42 154.9 m E Pn      2012/12/05 21:34:36.5   0.4                          T                                        5131800
SBF   001.42 154.9 m E Pg      2012/12/05 21:34:37.7   0.3                          T                                        5137713
SBF   001.42 154.9 m E Sn      2012/12/05 21:34:54.8   0.6                          T                7.1  .24 Ml 2.5         5131793
FRF   001.59 178.8 m E Pn      2012/12/05 21:34:38.7   0.4                          T                                        5131802
FRF   001.59 178.8 m E Pg      2012/12/05 21:34:40.6   0.2                          T                                        5137717
FRF   001.59 178.8 m E Sn      2012/12/05 21:34:58.5   0.2                          T                                        5131794
FRF   001.59 178.8 m E Sg      2012/12/05 21:35:01.8   0.8                          T                4.2  .24 Ml 2.4         5137716
CABF  001.50 346.3 m E Pg      2012/12/05 21:34:38.7  -0.2                          T                                        5131782
CABF  001.50 346.3 m E Sn      2012/12/05 21:34:56.5   0.3                          T                                        5131783
CABF  001.50 346.3 m E Sg      2012/12/05 21:34:59.5   1.2                          T                4.8  .19 Ml 2.4         5137729
LMR   001.82 182.1 m E Pn      2012/12/05 21:34:41.9   0.5                          T                                        5131801
LMR   001.82 182.1 m E Pg      2012/12/05 21:34:44.1  -0.5                          T                                        5137715
LMR   001.82 182.1 m E Sn      2012/12/05 21:35:03.9   0.2                          T               60.7 1.28 Ml 2.9         5131792
LMR   001.82 182.1 m E Sg      2012/12/05 21:35:08.4   0.3                          T                3.2  .22 Ml 2.3         5137714
LASF  002.24 242.2 m E Pn      2012/12/05 21:34:47.9   0.8                          T                                        5131791
LASF  002.24 242.2 m E Pg      2012/12/05 21:34:52.2  -0.2                          T                                        5137712
LASF  002.24 242.2 m E Sn      2012/12/05 21:35:14.0   0.4                          T                 .4  .16 Ml 1.7         5131790
SMF   002.44 308.7 m E Pn      2012/12/05 21:34:49.7  -0.1                          T                                        5131787
SMF   002.44 308.7 m E Pg      2012/12/05 21:34:55.5  -0.6                          T                                        5131788
SMF   002.44 308.7 m E Sn      2012/12/05 21:35:18.7   0.3                          T                                        5131789
SMF   002.44 308.7 m E Sg      2012/12/05 21:35:26.4  -1.0                          T                2.4  .20 Ml 2.4         5137730
HINF  002.67 003.6 m E Pn      2012/12/05 21:34:53.4   0.4                          T                                        5137726
HINF  002.67 003.6 m E Sn      2012/12/05 21:35:23.4  -0.6                          T                                        5137727
HINF  002.67 003.6 m E Sg      2012/12/05 21:35:35.1   0.4                          T                2.4  .32 Ml 2.2         5137728
AVF   002.80 307.0 m E Pn      2012/12/05 21:34:54.5  -0.1                          T                                        5131786
AVF   002.80 307.0 m E Pg      2012/12/05 21:35:02.6   0.0                          T                                        5131785
AVF   002.80 307.0 m E Sn      2012/12/05 21:35:26.7  -0.2                          T                                        5131784
HAU   002.86 356.6 m E Pn      2012/12/05 21:34:55.5  -0.1                          T                                        5137723
HAU   002.86 356.6 m E Pg      2012/12/05 21:35:03.9   0.1                          T                                        5131844
HAU   002.86 356.6 m E Sn      2012/12/05 21:35:28.9   0.4                          T                                        5137724
HAU   002.86 356.6 m E Sg      2012/12/05 21:35:41.0   0.4                          T                2.3  .27 Ml 2.1         5137725
LOR   002.85 319.0 m E Pn      2012/12/05 21:34:55.6   0.2                          T                                        5137722
LOR   002.85 319.0 m E Pg      2012/12/05 21:35:03.5  -0.1 131.3  -5.7              T                                        5131778
LOR   002.85 319.0 m E Sg      2012/12/05 21:35:38.5  -1.7 139.1  2.1               T                1.1  .22 Ml 2.1         5131781
BGF   002.98 299.5 m E Pn      2012/12/05 21:34:57.8   0.7                          T                                        5137721
BGF   002.98 299.5 m E Sn      2012/12/05 21:35:31.5   0.2                          T                3.9  .33 Ml 2.5         5137720
SSF   002.88 312.6 m E Pg      2012/12/05 21:35:04.2   0.1                          T                                        5131779
SSF   002.88 312.6 m E Sg      2012/12/05 21:35:39.9  -1.2                          T                1.9  .27 Ml 2.3         5131780

.
EVENT     287975
    Date      Time       Latitude Longitude    Depth    Ndef Nsta Gap    Mag1  N    Mag2  N    Mag3  N   Author         ID
       rms   OT_Error      Smajor Sminor Az        Err   mdist  Mdist     Err        Err        Err      Quality

2012/12/06 00:49:52.7     44.3386    7.3234     13.0 f    37    7 109  Ml 1.8  5  Md 1.7  2              bulletin    288075
                                                                                                         _ldg
      0.29   +-  0.04       1.1     .7   55.93 +-  0.0    0.09   1.38   +-0.5      +-0.1                 m i ke

NORTHERN ITALY
Sta     Dist  EvAz     Phase      Date       Time     TRes  Azim  AzRes  Slow  SRes Def   SNR       Amp   Per   Mag1   Mag2       ID
SBF   000.48 170.3 m E Pg      2012/12/06 00:50:02.4   0.2                          T                                        5131865
SBF   000.48 170.3 m E Sg      2012/12/06 00:50:08.9   0.1                          T                5.9  .20        Md 1.8  5131871
MBDF  000.55 314.7 m E Pg      2012/12/06 00:50:03.6   0.0                          T                                        5131862
MBDF  000.55 314.7 m E Sg      2012/12/06 00:50:11.0  -0.1                          T                3.9  .30        Md 1.7  5131867
FRF   000.92 212.4 m E Pn      2012/12/06 00:50:09.8   0.0                          T                                        5131863
FRF   000.92 212.4 m E Sg      2012/12/06 00:50:21.5  -0.6                          T                3.5  .23 Ml 2.0         5131869
LMR   001.16 210.7 m E Pg      2012/12/06 00:50:14.4  -0.1                          T                                        5131864
LMR   001.16 210.7 m E Sn      2012/12/06 00:50:28.3   0.4                          T                                        5131870
LMR   001.16 210.7 m E Sg      2012/12/06 00:50:30.0   0.3                          T                6.7  .24 Ml 2.4         5134349
LPG   001.23 340.9 m E Pn      2012/12/06 00:50:14.5   0.1                          T                                        5134350
LPG   001.23 340.9 m E Sn      2012/12/06 00:50:29.7  -0.1                          T                 .2  .16 Ml 1.0         5134347
LPL   001.25 340.6 m E Pn      2012/12/06 00:50:14.5  -0.1                          T                                        5134352
LPL   001.25 340.6 m E Sn      2012/12/06 00:50:30.1  -0.1                          T                 .6  .19 Ml 1.4         5134351
SMRF  001.31 254.5 m E Pn      2012/12/06 00:50:15.4   0.3                          T                                        5131866
SMRF  001.31 254.5 m E Pg      2012/12/06 00:50:17.6   0.3                          T                                        5134348
SMRF  001.31 254.5 m E Sg      2012/12/06 00:50:34.6   0.4                          T                2.6  .25 Ml 2.0         5131868

.
EVENT     287976
    Date      Time       Latitude Longitude    Depth    Ndef Nsta Gap    Mag1  N    Mag2  N    Mag3  N   Author         ID
       rms   OT_Error      Smajor Sminor Az        Err   mdist  Mdist     Err        Err        Err      Quality

2012/12/06 01:45:20.2     43.3426    -.6337      2.0       6    3 231             Md 1.7  2              bulletin    288076
                                                                                                         _ldg
      0.04   +-  0.04       1.0     .4  179.27 +-  0.0    0.45   0.78              +-0.1                 m i ke

PYRENEES
Sta     Dist  EvAz     Phase      Date       Time     TRes  Azim  AzRes  Slow  SRes Def   SNR       Amp   Per   Mag1   Mag2       ID
ETSF  000.45 173.0 m E Pg      2012/12/06 01:45:28.9   0.0                          T                                        5131877
ETSF  000.45 173.0 m E Sg      2012/12/06 01:45:34.9   0.1                          T                2.3  .19        Md 1.6  5131874
SJPF  000.49 242.3 m E Pg      2012/12/06 01:45:29.6   0.0                          T                                        5131875
SJPF  000.49 242.3 m E Sg      2012/12/06 01:45:36.0  -0.1                          T                3.6  .27        Md 1.7  5131872
EPF   000.78 113.3 m E Pg      2012/12/06 01:45:34.9   0.0                          T                                        5131876
EPF   000.78 113.3 m E Sg      2012/12/06 01:45:45.1   0.0                          T                2.9  .23                5131873

.
EVENT     288037
    Date      Time       Latitude Longitude    Depth    Ndef Nsta Gap    Mag1  N    Mag2  N    Mag3  N   Author         ID
       rms   OT_Error      Smajor Sminor Az        Err   mdist  Mdist     Err        Err        Err      Quality

2012/12/06 05:57:00.2     43.2035    -.9888      2.0       6    3 217  Ml 1.4  1  Md 1.2  2              bulletin    288137
                                                                                                         _ldg
      0.20   +-  0.16       5.4    1.8  178.42 +-  0.0    0.19   0.99   +-         +-0.1                 m i ke

PYRENEES
Sta     Dist  EvAz     Phase      Date       Time     TRes  Azim  AzRes  Slow  SRes Def   SNR       Amp   Per   Mag1   Mag2       ID
SJPF  000.19 242.5 m E Pg      2012/12/06 05:57:04.0  -0.1                          T                                        5134358
SJPF  000.19 242.5 m E Sg      2012/12/06 05:57:06.5  -0.4                          T               23.6  .42        Md 1.3  5134357
ETSF  000.44 133.9 m E Pg      2012/12/06 05:57:08.6   0.0                          T                                        5134356
ETSF  000.44 133.9 m E Sg      2012/12/06 05:57:14.5   0.0                          T                3.0  .23        Md 1.1  5134355
EPF   000.99 099.6 m E Pn      2012/12/06 05:57:19.6   0.1                          T                                        5134354
EPF   000.99 099.6 m E Sn      2012/12/06 05:57:32.8  -0.5                          T                 .6  .16 Ml 1.4         5134353

.
EVENT     287977
    Date      Time       Latitude Longitude    Depth    Ndef Nsta Gap    Mag1  N    Mag2  N    Mag3  N   Author         ID
       rms   OT_Error      Smajor Sminor Az        Err   mdist  Mdist     Err        Err        Err      Quality

2012/12/06 06:16:59.9     43.0343    -.1946      4.0 f    55    9 072  Ml 2.3  5  Md 2.4  3              bulletin    288077
                                                                                                         _ldg
      0.56   +-  0.06       1.4    1.0    7.14 +-  0.0    0.12   4.13   +-0.2      +-0.1                 m i ke

PYRENEES
Sta     Dist  EvAz     Phase      Date       Time     TRes  Azim  AzRes  Slow  SRes Def   SNR       Amp   Per   Mag1   Mag2       ID
ETSF  000.30 243.3 m E Pg      2012/12/06 06:17:05.3  -0.6                          T                                        5131883
ETSF  000.30 243.3 m E Sg      2012/12/06 06:17:09.8  -0.2                          T               45.2  .22        Md 2.3  5131881
EPF   000.39 090.4 m E Pg      2012/12/06 06:17:07.3  -0.3                          T                                        5131882
EPF   000.39 090.4 m E Sg      2012/12/06 06:17:12.8   0.0                          T               42.0  .22        Md 2.4  5131880
SJPF  000.76 276.3 m E Pg      2012/12/06 06:17:14.4   0.1                          T                                        5131878
SJPF  000.76 276.3 m E Sg      2012/12/06 06:17:24.0  -0.2                          T                4.0  .18        Md 2.4  5131886
MTLF  001.79 079.3 m E Pn      2012/12/06 06:17:30.4   0.5                          T                                        5137866
MTLF  001.79 079.3 m E Pg      2012/12/06 06:17:33.4   0.1                          T                                        5131879
MTLF  001.79 079.3 m E Sn      2012/12/06 06:17:51.5  -0.2                          T                                        5137867
MTLF  001.79 079.3 m E Sg      2012/12/06 06:17:56.5   0.1                          T                5.0  .23 Ml 2.5         5131887
LFF   002.02 019.2 m E Pn      2012/12/06 06:17:33.0   0.0                          T                                        5137865
LFF   002.02 019.2 m E Pg      2012/12/06 06:17:37.8   0.3                          T                                        5131891
LFF   002.02 019.2 m E Sn      2012/12/06 06:17:57.3   0.1                          T                                        5137864
LFF   002.02 019.2 m E Sg      2012/12/06 06:18:03.6   0.0                          T                2.8  .20 Ml 2.2         5131890
RJF   002.58 027.9 m E Pn      2012/12/06 06:17:41.0   0.3                          T                                        5137863
RJF   002.58 027.9 m E Pg      2012/12/06 06:17:48.0   0.2                          T                                        5131889
RJF   002.58 027.9 m E Sg      2012/12/06 06:18:20.8  -0.3                          T                1.9  .15 Ml 2.1         5131888
CAF   002.50 040.0 m E Pg      2012/12/06 06:17:46.2  -0.1                          T                                        5131885
CAF   002.50 040.0 m E Sg      2012/12/06 06:18:18.1  -0.3                          T                                        5131884
MFF   003.57 000.5 m E Pn      2012/12/06 06:17:54.3   0.2                          T                                        5137862
MFF   003.57 000.5 m E Sg      2012/12/06 06:18:51.9   0.1                          T                 .7  .19 Ml 2.3         5131923
BGF   004.13 030.5 m E Sg      2012/12/06 06:19:09.7   0.2                          T                1.9  .26 Ml 2.5         5131922

.
EVENT     287995
    Date      Time       Latitude Longitude    Depth    Ndef Nsta Gap    Mag1  N    Mag2  N    Mag3  N   Author         ID
       rms   OT_Error      Smajor Sminor Az        Err   mdist  Mdist     Err        Err        Err      Quality

2012/12/06 10:44:28.3     49.0830    5.3662       .0 f    14    7 154  Ml 2.1  4  Md 2.2  1              bulletin    288095
                                                                                                         _ldg
      1.06   +-  0.18       3.8    2.9   60.77 +-  0.0    0.58   2.08   +-0.1      +-                    m i km

FRANCE
Sta     Dist  EvAz     Phase      Date       Time     TRes  Azim  AzRes  Slow  SRes Def   SNR       Amp   Per   Mag1   Mag2       ID
PAGF  000.58 155.7 m E Pg      2012/12/06 10:44:39.0  -0.5                          T                                        5132472
PAGF  000.58 155.7 m E Sg      2012/12/06 10:44:46.6  -0.7 340.1  4.1               T               60.9  .82        Md 2.2  5132479
MEZF  000.62 199.8 m E Pg      2012/12/06 10:44:39.8  -0.4  20.6  1.1               T                                        5132482
MEZF  000.62 199.8 m E Sg      2012/12/06 10:44:48.9   0.4   9.9  -9.6              T               13.2  .25                5132483
SFTF  000.91 194.0 m E Pg      2012/12/06 10:44:46.4   0.8  13.6  -0.2              T                                        5132474
SFTF  000.91 194.0 m E Sg      2012/12/06 10:44:58.2   0.7  10.7  -3.1              T                3.7  .16 Ml 2.1         5132473
BAIF  001.23 322.8 m E Pn      2012/12/06 10:44:51.4   0.1                          T                                        5132480
BAIF  001.23 322.8 m E Sg      2012/12/06 10:45:07.2  -0.5                          T                                        5132481
HAU   001.26 148.5 m E Pn      2012/12/06 10:44:51.5  -0.2                          T                                        5132478
HAU   001.26 148.5 m E Sg      2012/12/06 10:45:08.0  -0.6                          T                4.1  .19 Ml 2.1         5132477
CDF   001.43 117.3 m E Pn      2012/12/06 10:44:54.2   0.1                          T                                        5132476
CDF   001.43 117.3 m E Sn      2012/12/06 10:45:13.7   1.1                          T                2.9  .20 Ml 2.3         5132475
LOR   002.08 209.6 m E Pn      2012/12/06 10:45:02.8   0.0                          T                                        5132484
LOR   002.08 209.6 m E Sg      2012/12/06 10:45:33.3  -0.8  20.5  -8.0              T                3.6  .45 Ml 2.1         5132485

.
