EVENT     292106
    Date      Time       Latitude Longitude    Depth    Ndef Nsta Gap    Mag1  N    Mag2  N    Mag3  N   Author         ID
       rms   OT_Error      Smajor Sminor Az        Err   mdist  Mdist     Err        Err        Err      Quality

2013/02/14 13:31:08.5     44.1704   10.5101     14.0 f    49   15 077  Ml 2.5 13  Md 2.5  2              bulletin    292206
                                                                                                         _ldg
      0.37   +-  0.08       1.7    1.6   52.07 +-  0.0    0.09   7.02   +-0.3      +-0.0                 m i ke

NORTHERN ITALY
Sta     Dist  EvAz     Phase      Date       Time     TRes  Azim  AzRes  Slow  SRes Def   SNR       Amp   Per   Mag1   Mag2       ID
PGF   001.96 214.7 m E Pn      2013/02/14 13:31:39.8   0.0                          T                                        5197305
PGF   001.96 214.7 m E Sn      2013/02/14 13:32:02.6  -0.1                          T               13.9  .45 Ml 2.9 Md 2.5  5197304
SBF   002.24 263.2 m E Pn      2013/02/14 13:31:43.7   0.2                          T                                        5197312
SBF   002.24 263.2 m E Sn      2013/02/14 13:32:09.8   0.5                          T               12.7  .40 Ml 2.8 Md 2.4  5197303
MBDF  002.73 283.0 m E Pn      2013/02/14 13:31:50.7   0.3                          T                                        5197307
MBDF  002.73 283.0 m E Sn      2013/02/14 13:32:21.5   0.3                          T                1.5  .26 Ml 2.1         5197294
FRF   002.86 259.0 m E Pn      2013/02/14 13:31:51.9   0.0                          T                                        5197310
FRF   002.86 259.0 m E Sn      2013/02/14 13:32:24.7   0.6                          T                                        5197301
FRF   002.86 259.0 m E Sg      2013/02/14 13:32:38.1  -0.3                          T                4.6  .32 Ml 2.6         5197300
LPG   002.99 297.7 m E Pn      2013/02/14 13:31:53.9   0.0                          T                                        5197298
LPG   002.99 297.7 m E Sn      2013/02/14 13:32:27.3  -0.1                          T                1.8  .21 Ml 2.3         5197297
LMR   003.02 255.3 m E Pn      2013/02/14 13:31:54.1   0.1                          T                                        5197311
LMR   003.02 255.3 m E Sn      2013/02/14 13:32:28.1   0.4                          T                2.9  .30 Ml 2.4         5197302
LPL   003.01 297.9 m E Pn      2013/02/14 13:31:54.5   0.3                          T                                        5197308
LPL   003.01 297.9 m E Sn      2013/02/14 13:32:27.5  -0.3                          T                2.5  .25 Ml 2.4         5197296
ORIF  003.39 284.3 m E Pn      2013/02/14 13:31:59.6   0.3                          T                                        5197306
ORIF  003.39 284.3 m E Sn      2013/02/14 13:32:37.3   0.4                          T                1.0  .21 Ml 2.2         5197295
SMRF  003.56 268.6 m E Pn      2013/02/14 13:32:01.2  -0.3                          T                                        5197309
SMRF  003.56 268.6 m E Sn      2013/02/14 13:32:41.2   0.3                          T                1.3  .28 Ml 2.2         5197299
HINF  004.45 326.3 m E Pn      2013/02/14 13:32:13.9   0.3                          T                                        5197293
HINF  004.45 326.3 m E Sn      2013/02/14 13:33:01.8  -0.3                          T                4.8  .34 Ml 2.9         5197292
HAU   004.81 324.4 m E Pn      2013/02/14 13:32:18.1  -0.3                          T                                        5197291
HAU   004.81 324.4 m E Sn      2013/02/14 13:33:10.3  -0.3                          T               19.8  .46 Ml 3.2         5197290
CDF   004.80 333.3 m E Pn      2013/02/14 13:32:18.3  -0.1                          T                                        5197288
SFTF  005.54 318.7 m E Pn      2013/02/14 13:32:28.4   0.0                          T                                        5197289
RJF   006.51 283.2 m E Pn      2013/02/14 13:32:42.1   0.5                          T                                        5197287
LFF   007.02 279.7 m E Pn      2013/02/14 13:32:48.6   0.0                          T                                        5197286

.
EVENT     292340
    Date      Time       Latitude Longitude    Depth    Ndef Nsta Gap    Mag1  N    Mag2  N    Mag3  N   Author         ID
       rms   OT_Error      Smajor Sminor Az        Err   mdist  Mdist     Err        Err        Err      Quality

2013/02/14 13:48:23.4     42.8889    1.7739     18.0 f    27    6 077  Ml 1.9  5  Md 1.5  1              bulletin    292440
                                                                                                         _ldg
      0.38   +-  0.05       1.0     .8  150.16 +-  0.0    0.25   2.42   +-0.3      +-                    m i ke

PYRENEES
Sta     Dist  EvAz     Phase      Date       Time     TRes  Azim  AzRes  Slow  SRes Def   SNR       Amp   Per   Mag1   Mag2       ID
MTLF  000.56 035.6 m E Pg      2013/02/14 13:48:34.4   0.0                          T                                        5201541
MTLF  000.56 035.6 m E Pn      2013/02/14 13:48:34.9  -0.1                          T                                        5201542
MTLF  000.56 035.6 m E Sg      2013/02/14 13:48:41.7  -0.3                          T                2.3  .22        Md 1.5  5201543
EPF   001.06 278.1 m E Pg      2013/02/14 13:48:43.7   0.1                          T                                        5201552
EPF   001.06 278.1 m E Sg      2013/02/14 13:48:58.3   0.8                          T                4.2  .20 Ml 2.2         5201540
ETSF  001.71 271.1 m E Pg      2013/02/14 13:48:55.7   0.1                          T                                        5201550
ETSF  001.71 271.1 m E Sg      2013/02/14 13:49:17.7  -0.1                          T                  1  .28 Ml 1.7         5201551
LASF  001.93 051.2 m E Pg      2013/02/14 13:48:59.5   0.2                          T                                        5201546
LASF  001.93 051.2 m E Sg      2013/02/14 13:49:24.1  -0.1                          T                 .7  .21 Ml 1.7         5201547
CAF   002.05 005.8 m E Sg      2013/02/14 13:49:28.0   0.0                          T                2.0  .21 Ml 2.2         5201549
RJF   002.42 355.7 m E Sg      2013/02/14 13:49:39.4  -0.3                          T                1.5  .22 Ml 1.8         5201548

.
EVENT     292272
    Date      Time       Latitude Longitude    Depth    Ndef Nsta Gap    Mag1  N    Mag2  N    Mag3  N   Author         ID
       rms   OT_Error      Smajor Sminor Az        Err   mdist  Mdist     Err        Err        Err      Quality

2013/02/14 16:56:21.3     22.4238    6.1268      2.0      74   22 087  Ml 5.4  3             ms 3.5 1    bulletin    292372
                                                                                                         _ldg
      2.00   +-  0.28      10.4    7.8   80.27 +-  0.0    0.67  70.79   +-0.4                 +-         m i ke

SOUTHERN ALGERIA
Sta     Dist  EvAz     Phase      Date       Time     TRes  Azim  AzRes  Slow  SRes Def   SNR       Amp   Per   Mag1   Mag2       ID
LIC   000.00 000.0 m E R                                                                           454.525.25                5202266
LIC   019.37 215.4 m E P       2013/02/14 17:00:49.1  -1.6  24.6  -8.1              T               44.0  .78                5202260
LIC   019.37 215.4 m E Sn      2013/02/14 17:04:23.7  -0.4                          T              720.2 1.14 Ml 5.9         5202370
FRF   021.08 001.1 m E P       2013/02/14 17:01:07.4  -1.9                          T   008.5       73.5 1.08                5201412
SBF   021.41 002.6 m E P       2013/02/14 17:01:09.7  -3.0                          T   004.1       42.9  .76                5201418
ETSF  021.16 346.3 m E P       2013/02/14 17:01:10.2  -0.1                          T   003.6       34.1 1.32                5201420
MTLF  021.11 352.1 m E P       2013/02/14 17:01:10.8   1.1                          T   010.6       69.9 1.32                5201424
SMRF  021.50 358.9 m E P       2013/02/14 17:01:12.4  -1.2                          T   002.9      102.2 1.40                5201427
LASF  021.68 355.6 m E P       2013/02/14 17:01:18.1   2.7                          T   003.9       58.7 1.36                5201414
MBDF  022.25 001.2 m E P       2013/02/14 17:01:21.0  -0.3                          T   003.2       73.4 1.36                5201422
ORIF  022.44 359.5 m E P       2013/02/14 17:01:22.8  -0.2                          T   003.2       50.7 1.08                5201425
CAF   022.69 352.5 m E P       2013/02/14 17:01:24.0  -1.4                          T                                        5201431
LFF   022.89 350.1 m E P       2013/02/14 17:01:26.5  -0.8                          T                                        5201428
VIVF  022.41 357.3 m E P       2013/02/14 17:01:26.9   4.2                          T   002.8       38.7 1.32                5201426
LPL   023.04 001.1 m E P       2013/02/14 17:01:29.7   0.6                          T   001.9       69.2 1.20                5201417
LPG   023.02 001.1 m E P       2013/02/14 17:01:30.7   1.7                          T   001.9       79.8 1.16                5201416
TCF   024.02 353.3 m E P       2013/02/14 17:01:39.3   0.9                          T                                        5201429
SSF   024.67 355.7 m E P       2013/02/14 17:01:43.7  -1.0                          T                                        5201430
SMF   024.24 356.2 m E P       2013/02/14 17:01:43.9   3.4                          T   001.8       22.2 1.04                5201419
AVF   024.41 355.4 m E P       2013/02/14 17:01:44.8   2.7                          T   003.5       17.3  .92                5201411
LOR   024.86 356.3 m E P       2013/02/14 17:01:45.4  -1.1 175.9  0.9               T   001.0       11.1  .88                5201415
HINF  025.34 001.1 m E P       2013/02/14 17:01:49.2  -1.9                          T   001.1         19 1.12                5201421
MEZF  026.04 358.4 m E P       2013/02/14 17:01:55.2  -2.3                          T   001.6       38.2 1.20                5201423
HAU   025.53 000.3 m E P       2013/02/14 17:01:56.5   3.7                          T   002.6       18.7  .96                5201413

.
EVENT     292107
    Date      Time       Latitude Longitude    Depth    Ndef Nsta Gap    Mag1  N    Mag2  N    Mag3  N   Author         ID
       rms   OT_Error      Smajor Sminor Az        Err   mdist  Mdist     Err        Err        Err      Quality

2013/02/14 18:01:10.9     44.5015    6.6686      2.0      33    8 050  Ml 1.6  5  Md 1.6  2              bulletin    292207
                                                                                                         _ldg
      0.32   +-  0.05       1.1     .8   52.26 +-  0.0    0.11   1.47   +-0.2      +-0.1                 m i ke

FRANCE
Sta     Dist  EvAz     Phase      Date       Time     TRes  Azim  AzRes  Slow  SRes Def   SNR       Amp   Per   Mag1   Mag2       ID
MBDF  000.24 018.0 m E Pg      2013/02/14 18:01:15.6  -0.2                          T                                        5197349
MBDF  000.24 018.0 m E Sg      2013/02/14 18:01:19.0  -0.1                          T                4.1  .27        Md 1.7  5197348
ORIF  000.70 306.8 m E Pg      2013/02/14 18:01:24.0  -0.2                          T                                        5197347
ORIF  000.70 306.8 m E Sg      2013/02/14 18:01:33.5   0.1                          T                1.9  .26                5197346
SBF   000.84 138.9 m E Pg      2013/02/14 18:01:26.5  -0.4                          T                                        5197339
SBF   000.84 138.9 m E Sg      2013/02/14 18:01:37.2  -0.6                          T                3.3  .25        Md 1.5  5197340
FRF   000.94 181.0 m E Pg      2013/02/14 18:01:28.5  -0.1                          T                                        5197344
FRF   000.94 181.0 m E Sg      2013/02/14 18:01:41.2   0.4                          T                1.8  .28 Ml 1.6         5197345
LPL   001.02 002.5 m E Pg      2013/02/14 18:01:29.6  -0.7                          T                                        5197337
LPL   001.02 002.5 m E Sg      2013/02/14 18:01:42.5  -0.9                          T                1.4  .30 Ml 1.5         5197335
LMR   001.17 185.7 m E Pg      2013/02/14 18:01:33.0   0.2                          T                                        5197338
LMR   001.17 185.7 m E Sg      2013/02/14 18:01:48.2   0.1                          T                2.4  .27 Ml 1.9         5197341
VIVF  001.47 284.7 m E Pn      2013/02/14 18:01:36.9   0.1                          T                                        5197334
VIVF  001.47 284.7 m E Sn      2013/02/14 18:01:55.7   0.3                          T                 .9  .28 Ml 1.5         5197333
SMRF  000.95 236.6 m E Sg      2013/02/14 18:01:41.9   0.9                          T                 .8  .26 Ml 1.3         5197336

.
EVENT     292108
    Date      Time       Latitude Longitude    Depth    Ndef Nsta Gap    Mag1  N    Mag2  N    Mag3  N   Author         ID
       rms   OT_Error      Smajor Sminor Az        Err   mdist  Mdist     Err        Err        Err      Quality

2013/02/14 18:11:10.2     44.5091    6.6798      2.0      38    9 047  Ml 1.8  6  Md 1.8  2              bulletin    292208
                                                                                                         _ldg
      0.30   +-  0.05       1.0     .8   73.91 +-  0.0    0.10   1.47   +-0.2      +-0.1                 m i ke

FRANCE
Sta     Dist  EvAz     Phase      Date       Time     TRes  Azim  AzRes  Slow  SRes Def   SNR       Amp   Per   Mag1   Mag2       ID
MBDF  000.23 016.7 m E Pg      2013/02/14 18:11:14.9   0.0                          T                                        5197368
MBDF  000.23 016.7 m E Sg      2013/02/14 18:11:18.1   0.0                          T                6.8  .20        Md 1.9  5197367
ORIF  000.70 305.9 m E Pg      2013/02/14 18:11:22.8  -0.8                          T                                        5197366
ORIF  000.70 305.9 m E Sg      2013/02/14 18:11:32.7   0.0                          T                2.9  .21                5197365
SBF   000.84 139.7 m E Pg      2013/02/14 18:11:26.2   0.1                          T                                        5197361
SBF   000.84 139.7 m E Sg      2013/02/14 18:11:37.4   0.3                          T                3.0  .18        Md 1.8  5197360
FRF   000.95 181.5 m E Pg      2013/02/14 18:11:28.1   0.2                          T                                        5197364
FRF   000.95 181.5 m E Sg      2013/02/14 18:11:40.4   0.1                          T                5.7  .28 Ml 2.1         5197353
SMRF  000.96 236.5 m E Pg      2013/02/14 18:11:28.2   0.0                          T                                        5197355
SMRF  000.96 236.5 m E Sg      2013/02/14 18:11:40.5  -0.1                          T                3.7  .44 Ml 1.7         5197354
LPG   000.99 002.9 m E Pg      2013/02/14 18:11:29.3   0.2                          T                                        5197356
LPG   000.99 002.9 m E Sg      2013/02/14 18:11:42.1   0.2                          T                1.7  .26 Ml 1.6         5197357
LPL   001.01 002.1 m E Pg      2013/02/14 18:11:29.3   0.0                          T                                        5197359
LPL   001.01 002.1 m E Sg      2013/02/14 18:11:42.7   0.3                          T                4.2  .48 Ml 1.8         5197358
LMR   001.18 186.1 m E Pg      2013/02/14 18:11:32.5   0.3                          T                                        5197363
LMR   001.18 186.1 m E Sg      2013/02/14 18:11:47.5   0.0                          T                2.3  .19 Ml 2.0         5197362
VIVF  001.47 284.3 m E Pn      2013/02/14 18:11:36.0  -0.1                          T                                        5197352
VIVF  001.47 284.3 m E Sn      2013/02/14 18:11:54.6  -0.2                          T                1.2  .26 Ml 1.7         5197351

.
EVENT     292110
    Date      Time       Latitude Longitude    Depth    Ndef Nsta Gap    Mag1  N    Mag2  N    Mag3  N   Author         ID
       rms   OT_Error      Smajor Sminor Az        Err   mdist  Mdist     Err        Err        Err      Quality

2013/02/14 18:39:15.5     44.4469    6.6415      2.0      20    9 117  Ml 1.2  6  Md 1.2  3              bulletin    292210
                                                                                                         _ldg
      0.42   +-  0.05       1.2     .8   84.06 +-  0.0    0.29   1.46   +-0.1      +-0.1                 m i ke

FRANCE
Sta     Dist  EvAz     Phase      Date       Time     TRes  Azim  AzRes  Slow  SRes Def   SNR       Amp   Per   Mag1   Mag2       ID
MBDF  000.29 018.3 m E Pg      2013/02/14 18:39:21.4   0.0                          T                                        5197400
MBDF  000.29 018.3 m E Sg      2013/02/14 18:39:24.9  -0.5                          T                1.9  .22        Md 1.3  5197399
ORIF  000.72 311.2 m E Pg      2013/02/14 18:39:29.2   0.1                          T                                        5197398
ORIF  000.72 311.2 m E Sg      2013/02/14 18:39:38.6   0.0                          T                  1  .22        Md 1.4  5197397
SBF   000.82 135.3 m E Pg      2013/02/14 18:39:31.0   0.0                          T                                        5197383
SBF   000.82 135.3 m E Sg      2013/02/14 18:39:41.5  -0.1                          T                2.3  .26        Md 1.1  5197384
FRF   000.89 179.8 m E Pg      2013/02/14 18:39:32.2   0.1                          T                                        5197392
FRF   000.89 179.8 m E Sg      2013/02/14 18:39:43.1  -0.5                          T                 .3  .18 Ml 1.1         5197391
SMRF  000.90 238.8 m E Pg      2013/02/14 18:39:32.4   0.0                          T                                        5197388
SMRF  000.90 238.8 m E Sg      2013/02/14 18:39:44.1   0.0                          T                 .4  .23 Ml 1.1         5197387
LPG   001.05 004.2 m E Pg      2013/02/14 18:39:35.5   0.0                          T                                        5197393
LPG   001.05 004.2 m E Sg      2013/02/14 18:39:49.3   0.0                          T                 .5  .21 Ml 1.2         5197394
LPL   001.07 003.4 m E Pg      2013/02/14 18:39:35.9   0.1                          T                                        5197385
LPL   001.07 003.4 m E Sg      2013/02/14 18:39:49.5  -0.2                          T                 .7  .22 Ml 1.4         5197386
LMR   001.12 185.0 m E Pg      2013/02/14 18:39:36.5   0.1                          T                                        5197390
LMR   001.12 185.0 m E Sg      2013/02/14 18:39:50.6  -0.2                          T                 .5  .17 Ml 1.4         5197389
VIVF  001.46 286.9 m E Pn      2013/02/14 18:39:41.1  -0.2                          T                                        5197382
VIVF  001.46 286.9 m E Sn      2013/02/14 18:39:59.8   0.0                          T                 .4  .24 Ml 1.3         5197381

.
