BEGIN GSE2.0
MSG_TYPE DATA
MSG_ID 21-DEC-1215:10:58  FRA_NDC
E-MAIL
DATA_TYPE BULLETIN
Reviewed Bulletin (REB) # P2012-049  from French NDC for regional phases     PERIOD 05 DEC 2012 TO 11 DEC 2012 Cenalt JP S
EVENT     287920
    Date      Time       Latitude Longitude    Depth    Ndef Nsta Gap    Mag1  N    Mag2  N    Mag3  N   Author         ID
       rms   OT_Error      Smajor Sminor Az        Err   mdist  Mdist     Err        Err        Err      Quality

2012/12/05 01:18:21.7     42.8804   13.6422     10.0 f    99   29 079  Ml 3.6 24                         bulletin    288020
                                                                                                         _ldg
      1.25   +-  0.22       6.3    4.3   52.34 +-  0.0    0.06  11.18   +-0.3                            m i ke

CENTRAL ITALY
Sta     Dist  EvAz     Phase      Date       Time     TRes  Azim  AzRes  Slow  SRes Def   SNR       Amp   Per   Mag1   Mag2       ID
PGF   003.44 266.0 m E Pn      2012/12/05 01:19:15.0   1.5                          T   001.0                                5130772
PGF   003.44 266.0 m E Sn      2012/12/05 01:19:52.2   0.3                          T               28.2  .50 Ml 3.5         5130822
SBF   004.63 284.4 m E Pn      2012/12/05 01:19:31.4   1.7                          T   001.0                                5130773
SBF   004.63 284.4 m E Sn      2012/12/05 01:20:20.0  -0.4                          T   001.0      112.9  .82 Ml 3.9         5130774
FRF   005.16 280.0 m E Pn      2012/12/05 01:19:37.0   1.2                          T   001.0                                5130765
FRF   005.16 280.0 m E Sn      2012/12/05 01:20:32.6  -0.2                          T                9.8  .55 Ml 3.2         5130820
LMR   005.24 277.4 m E Pn      2012/12/05 01:19:39.1   1.2                          T   001.0                                5130767
LMR   005.24 277.4 m E Sn      2012/12/05 01:20:31.9  -2.9                          T                2.5  .25 Ml 2.9         5130821
MBDF  005.30 292.7 m E Pn      2012/12/05 01:19:39.2   0.2                          T   001.0                                5130783
MBDF  005.30 292.7 m E Sn      2012/12/05 01:20:35.9  -0.6                          T   001.0       55.9  .90 Ml 3.7         5130784
LPG   005.60 300.2 m E Pn      2012/12/05 01:19:42.2  -1.0                          T   001.0                                5130770
LPG   005.60 300.2 m E Sn      2012/12/05 01:20:43.3  -0.5                          T               19.3  .47 Ml 3.6         5130818
LPL   005.62 300.3 m E Pn      2012/12/05 01:19:42.3  -1.1                          T   001.0                                5130771
LPL   005.62 300.3 m E Sn      2012/12/05 01:20:43.5  -0.7                          T               15.5  .36 Ml 3.6         5130817
ORIF  005.97 292.6 m E Pn      2012/12/05 01:19:47.1  -0.8                          T   001.0                                5130787
ORIF  005.97 292.6 m E Sn      2012/12/05 01:20:53.0   0.7                          T               13.7  .50 Ml 3.5         5137704
SMRF  005.98 283.3 m E Pn      2012/12/05 01:19:50.8   2.8                          T   001.0                                5130789
SMRF  005.98 283.3 m E Sn      2012/12/05 01:20:51.8  -0.6                          T                3.4  .36 Ml 3.1         5130819
CABF  006.55 307.3 m E Pn      2012/12/05 01:19:55.5  -0.3                          T   001.0                                5130779
CABF  006.55 307.3 m E Sn      2012/12/05 01:21:05.4  -0.7                          T   001.0        6.2  .28 Ml 3.5         5130780
HINF  006.87 318.2 m E Pn      2012/12/05 01:19:58.0  -1.2                          T   001.0                                5130781
HINF  006.87 318.2 m E Sn      2012/12/05 01:21:12.4  -1.4                          T   001.0        6.8  .18 Ml 3.8         5130782
VIVF  006.78 290.0 m E Pn      2012/12/05 01:19:59.6   0.7                          T   001.0                                5130788
VIVF  006.78 290.0 m E Sn      2012/12/05 01:21:12.0   0.4                          T                1.1  .20 Ml 2.9         5137711
CDF   007.10 323.3 m E Pn      2012/12/05 01:20:02.4  -1.0                          T   001.0                                5130764
CDF   007.10 323.3 m E Sn      2012/12/05 01:21:18.8  -0.7                          T                6.2  .32 Ml 3.7         5137707
HAU   007.25 317.5 m E Pn      2012/12/05 01:20:04.4  -0.9                          T   001.0                                5130766
HAU   007.25 317.5 m E Sn      2012/12/05 01:21:21.2  -1.6                          T               15.4  .33 Ml 3.7         5130816
LASF  007.22 282.9 m E Pn      2012/12/05 01:20:05.5   0.6                          T                                        5130823
SMF   007.92 301.7 m E Pn      2012/12/05 01:20:13.2  -1.3                          T   001.0                                5130775
SMF   007.92 301.7 m E Sn      2012/12/05 01:21:36.8  -2.2                          T   001.0        2.9  .23 Ml 3.5         5130776
PAGF  007.93 318.4 m E Pn      2012/12/05 01:20:14.6   0.1 137.1  4.4               T                                        5137702
PAGF  007.93 318.4 m E Sn      2012/12/05 01:21:38.9  -0.1                          T               20.0  .60 Ml 3.9         5137701
SFTF  008.05 314.4 m E Pn      2012/12/05 01:20:15.4  -0.7 133.9  5.7               T                                        5130826
SFTF  008.05 314.4 m E Sn      2012/12/05 01:21:41.8  -0.1                          T                2.1  .17 Ml 3.5         5137708
LOR   008.19 305.7 m E Pn      2012/12/05 01:20:17.5  -0.7 123.5  4.7               T   001.0                                5130768
LOR   008.19 305.7 m E Sn      2012/12/05 01:21:44.0  -1.5                          T   001.0        9.2  .30 Ml 4.0         5130769
MEZF  008.23 316.0 m E Pn      2012/12/05 01:20:17.9  -0.7 135.1  5.2               T   001.0                                5130785
MEZF  008.23 316.0 m E Sn      2012/12/05 01:21:45.4  -0.8                          T   001.0        5.5  .35 Ml 3.7         5130786
AVF   008.29 301.7 m E Pn      2012/12/05 01:20:18.5  -0.9                          T   001.0                                5130790
AVF   008.29 301.7 m E Sn      2012/12/05 01:21:46.9  -0.7                          T   001.0        1.6  .28 Ml 3.2         5130791
SSF   008.31 303.7 m E Pn      2012/12/05 01:20:19.0  -0.8                          T   001.0                                5130777
SSF   008.31 303.7 m E Sn      2012/12/05 01:21:45.8  -2.4                          T   001.0        5.3  .39 Ml 3.7         5130778
MTLF  008.37 277.0 m E Pn      2012/12/05 01:20:21.5   0.9                          T                                        5137710
BGF   008.52 299.3 m E Pn      2012/12/05 01:20:21.6  -1.0                          T   001.0                                5130792
BGF   008.52 299.3 m E Sn      2012/12/05 01:21:53.3   0.1                          T   001.0       11.1  .45 Ml 3.9         5130763
CAF   008.61 287.7 m E Pn      2012/12/05 01:20:22.9  -0.9                          T                                        5130824
HYF   008.93 303.2 m E Pn      2012/12/05 01:20:28.3   0.0                          T                                        5137709
GIVF  009.44 323.0 m E Pn      2012/12/05 01:20:35.3   0.3                          T                                        5137705
BAIF  009.68 321.1 m E Pn      2012/12/05 01:20:39.0   0.6                          T                                        5137706
LDF   011.18 305.5 m E Pn      2012/12/05 01:20:58.0  -0.9                          T                                        5130825

.
EVENT     287922
    Date      Time       Latitude Longitude    Depth    Ndef Nsta Gap    Mag1  N    Mag2  N    Mag3  N   Author         ID
       rms   OT_Error      Smajor Sminor Az        Err   mdist  Mdist     Err        Err        Err      Quality

2012/12/05 02:26:00.4     44.1153    7.9035      9.0 f    43    8 091  Ml 2.3  4  Md 2.5  2              bulletin    288022
                                                                                                         _ldg
      0.41   +-  0.07       1.5    1.1  144.00 +-  0.0    0.12   1.68   +-0.4      +-0.0                 m i ke

NORTHERN ITALY
Sta     Dist  EvAz     Phase      Date       Time     TRes  Azim  AzRes  Slow  SRes Def   SNR       Amp   Per   Mag1   Mag2       ID
SBF   000.42 233.4 m E Pg      2012/12/05 02:26:08.8   0.1                          T                                        5130898
SBF   000.42 233.4 m E Sg      2012/12/05 02:26:14.5   0.2                          T               18.6  .22        Md 2.4  5130895
MBDF  001.02 307.4 m E Pn      2012/12/05 02:26:19.4   0.0                          T                                        5130891
MBDF  001.02 307.4 m E Sn      2012/12/05 02:26:33.0   0.0                          T                3.2  .29 Ml 1.9         5130892
FRF   001.07 239.1 m E Pg      2012/12/05 02:26:20.4   0.1                          T                                        5130897
FRF   001.07 239.1 m E Sn      2012/12/05 02:26:34.1   0.2                          T               16.1  .24 Ml 2.7 Md 2.5  5130894
LMR   001.28 232.8 m E Pn      2012/12/05 02:26:23.0   0.2                          T                                        5130896
LMR   001.28 232.8 m E Sn      2012/12/05 02:26:39.2   0.2                          T                                        5130893
LMR   001.28 232.8 m E Sg      2012/12/05 02:26:41.0   0.2                          T                7.0  .24 Ml 2.4         5134346
ORIF  001.66 299.7 m E Pn      2012/12/05 02:26:28.3   0.2                          T                                        5130890
SMRF  001.68 266.1 m E Pn      2012/12/05 02:26:28.6   0.2                          T                                        5130889
SMRF  001.68 266.1 m E Sn      2012/12/05 02:26:49.0   0.2                          T                1.5  .20 Ml 2.0         5130888
LPG   001.61 329.7 m E Pg      2012/12/05 02:26:30.8   0.0                          T                                        5134081
LPL   001.63 329.7 m E Pg      2012/12/05 02:26:31.1   0.0                          T                                        5134082

.
EVENT     287943
    Date      Time       Latitude Longitude    Depth    Ndef Nsta Gap    Mag1  N    Mag2  N    Mag3  N   Author         ID
       rms   OT_Error      Smajor Sminor Az        Err   mdist  Mdist     Err        Err        Err      Quality

2012/12/05 09:36:53.5     44.0663   15.7195     10.0 f    50   11 139  Ml 3.5 10                         bulletin    288043
                                                                                                         _ldg
      0.95   +-  0.13       6.0    2.4   25.79 +-  0.0    0.57   9.11   +-0.3                            m i ke

NORTHWESTERN BALKAN PEN.
Sta     Dist  EvAz     Phase      Date       Time     TRes  Azim  AzRes  Slow  SRes Def   SNR       Amp   Per   Mag1   Mag2       ID
SBF   005.98 270.9 m E Pn      2012/12/05 09:38:20.4   0.5                          T                                        5131366
SBF   005.98 270.9 m E Sn      2012/12/05 09:39:25.1   0.6                          T               13.3  .26 Ml 3.8         5131365
MBDF  006.45 279.0 m E Pn      2012/12/05 09:38:25.7  -0.7                          T                                        5131290
MBDF  006.45 279.0 m E Sn      2012/12/05 09:39:35.8   0.1                          T                6.4  .28 Ml 3.5         5131316
FRF   006.58 268.7 m E Pn      2012/12/05 09:38:27.5  -0.6                          T                                        5131291
FRF   006.58 268.7 m E Sn      2012/12/05 09:39:38.7  -0.1                          T                7.2  .43 Ml 3.4         5131368
LPG   006.54 285.8 m E Pn      2012/12/05 09:38:28.6   0.7                          T                                        5131293
LPG   006.54 285.8 m E Sn      2012/12/05 09:39:37.0  -1.1                          T                8.9  .38 Ml 3.6         5131292
ORIF  007.09 280.3 m E Pn      2012/12/05 09:38:35.2   0.2                          T                                        5131289
ORIF  007.09 280.3 m E Sn      2012/12/05 09:39:51.9   1.0                          T                5.6  .29 Ml 3.6         5131315
HINF  007.23 304.4 m E Pn      2012/12/05 09:38:37.6   0.6                          T                                        5131312
HINF  007.23 304.4 m E Sn      2012/12/05 09:39:55.0   0.8                          T                4.9  .28 Ml 3.5         5131310
CABF  007.25 293.9 m E Pn      2012/12/05 09:38:37.9   0.6                          T                                        5131311
CABF  007.25 293.9 m E Sn      2012/12/05 09:39:54.5  -0.3                          T                                        5131309
HAU   007.62 304.4 m E Pn      2012/12/05 09:38:42.7   0.5                          T                                        5131313
HAU   007.62 304.4 m E Sn      2012/12/05 09:40:03.5   0.0                          T                1.9  .25 Ml 3.0         5131314
AVF   009.11 291.7 m E Pn      2012/12/05 09:39:03.0   0.5                          T                                        5131318
AVF   009.11 291.7 m E Sn      2012/12/05 09:40:39.3   0.1                          T                 .8  .24 Ml 3.1         5131317
LPL   006.56 285.9 m E Sn      2012/12/05 09:39:39.7   1.3                          T               12.6  .34 Ml 3.8         5131288
LMR   006.72 266.9 m E Sn      2012/12/05 09:39:42.6   0.6                          T                2.9  .23 Ml 3.3         5131367

.
