EVENT     287680
    Date      Time       Latitude Longitude    Depth    Ndef Nsta Gap    Mag1  N    Mag2  N    Mag3  N   Author         ID
       rms   OT_Error      Smajor Sminor Az        Err   mdist  Mdist     Err        Err        Err      Quality

2012/11/29 09:58:59.4     45.9355    7.7454      4.0 f    21    6 072  Ml 1.5  5                         bulletin    287780
                                                                                                         _ldg
      0.25   +-  0.06       1.3    1.0  120.08 +-  0.0    0.10   2.75   +-0.4                            m i ke

NORTHERN ITALY
Sta     Dist  EvAz     Phase      Date       Time     TRes  Azim  AzRes  Slow  SRes Def   SNR       Amp   Per   Mag1   Mag2       ID
LPL   000.82 239.8 m E Pg      2012/11/29 09:59:14.9  -0.3                          T                                        5128099
LPL   000.82 239.8 m E Sg      2012/11/29 09:59:25.7  -0.3                          T                                        5128098
LPG   000.82 238.2 m E Pg      2012/11/29 09:59:15.5   0.2                          T                                        5128097
LPG   000.82 238.2 m E Sg      2012/11/29 09:59:25.6  -0.4                          T                                        5128096
MBDF  001.39 210.0 m E Pn      2012/11/29 09:59:24.2   0.1                          T                                        5128090
MBDF  001.39 210.0 m E Sn      2012/11/29 09:59:41.9   0.0                          T                 .2  .17 Ml 1.1         5128089
SBF   002.08 186.2 m E Pn      2012/11/29 09:59:33.4   0.0                          T                                        5128092
SBF   002.08 186.2 m E Sn      2012/11/29 09:59:58.1  -0.2                          T                1.4  .27 Ml 1.9         5128091
FRF   002.50 198.6 m E Pn      2012/11/29 09:59:39.0   0.0                          T                                        5128095
FRF   002.50 198.6 m E Sn      2012/11/29 10:00:09.1   0.9                          T                 .5  .18 Ml 1.8         5128094
LMR   002.75 199.2 m E Sn      2012/11/29 10:00:13.9  -0.1                          T                 .1  .14 Ml 1.3         5128093

.
EVENT     287630
    Date      Time       Latitude Longitude    Depth    Ndef Nsta Gap    Mag1  N    Mag2  N    Mag3  N   Author         ID
       rms   OT_Error      Smajor Sminor Az        Err   mdist  Mdist     Err        Err        Err      Quality

2012/11/29 09:59:35.1     47.9897    6.6330       .0 f    15    8 094  Ml 1.5  4  Md 1.5  2              bulletin    287730
                                                                                                         _ldg
      0.13   +-  0.04        .9     .6   24.96 +-  0.0    0.19   2.01   +-0.2      +-0.0                 m i km

FRANCE
Sta     Dist  EvAz     Phase      Date       Time     TRes  Azim  AzRes  Slow  SRes Def   SNR       Amp   Per   Mag1   Mag2       ID
HAU   000.19 274.9 m E Pg      2012/11/29 09:59:39.1  -0.1                          T                                        5127741
HAU   000.19 274.9 m E Sg      2012/11/29 09:59:42.0  -0.2                          T              178.3  .53        Md 1.5  5127740
HINF  000.23 139.4 m E Pg      2012/11/29 09:59:40.0   0.0                          T                                        5127737
HINF  000.23 139.4 m E Sg      2012/11/29 09:59:43.6   0.3                          T                9.0  .26        Md 1.5  5127736
CDF   000.60 045.3 m E Pg      2012/11/29 09:59:46.9   0.0                          T                                        5127754
CDF   000.60 045.3 m E Sg      2012/11/29 09:59:54.7  -0.3                          T                1.5  .18                5127753
PAGF  000.83 313.3 m E Pg      2012/11/29 09:59:51.0   0.0                          T                                        5138857
PAGF  000.83 313.3 m E Sg      2012/11/29 10:00:02.0   0.0                          T                2.4  .22                5138858
SFTF  001.09 282.0 m E Pg      2012/11/29 09:59:55.9   0.1                          T                                        5127752
SFTF  001.09 282.0 m E Sg      2012/11/29 10:00:10.1   0.0                          T                1.3  .19 Ml 1.7         5127751
MEZF  001.17 296.5 m E Pg      2012/11/29 09:59:57.5   0.1                          T                                        5127750
MEZF  001.17 296.5 m E Sg      2012/11/29 10:00:12.8   0.0                          T                1.1  .19 Ml 1.7         5127749
CABF  001.43 195.3 m E Pn      2012/11/29 10:00:00.8  -0.1                          T                                        5127748
CABF  001.43 195.3 m E Sg      2012/11/29 10:00:20.8   0.0                          T                 .4  .21 Ml 1.2         5127747
LOR   002.01 250.0 m E Sg      2012/11/29 10:00:38.8  -0.1                          T                 .5  .21 Ml 1.6         5138859

.
EVENT     287633
    Date      Time       Latitude Longitude    Depth    Ndef Nsta Gap    Mag1  N    Mag2  N    Mag3  N   Author         ID
       rms   OT_Error      Smajor Sminor Az        Err   mdist  Mdist     Err        Err        Err      Quality

2012/11/29 10:01:48.4     48.7378    5.8987       .0 f    11    6 148  Ml 2.0  1  Md 1.9  2              bulletin    287733
                                                                                                         _ldg
      1.80   +-  0.54      11.0    6.7   23.40 +-  0.0    0.22   1.72   +-         +-0.1                 m i km

FRANCE
Sta     Dist  EvAz     Phase      Date       Time     TRes  Azim  AzRes  Slow  SRes Def   SNR       Amp   Per   Mag1   Mag2       ID
PAGF  000.22 212.3 m E Pg      2012/11/29 10:01:52.8  -0.1  41.0  8.8               T                                        5127765
PAGF  000.22 212.3 m E Sg      2012/11/29 10:01:58.2   2.0  43.2  11.1              T               58.1  .35        Md 2.0  5127764
SFTF  000.78 227.4 m E Pg      2012/11/29 10:02:02.2  -1.2                          T                                        5127772
SFTF  000.78 227.4 m E Sg      2012/11/29 10:02:11.3  -2.5                          T                6.9  .30                5127771
HAU   000.79 157.6 m E Pg      2012/11/29 10:02:03.2  -0.4                          T                                        5127763
HAU   000.79 157.6 m E Sg      2012/11/29 10:02:16.1   2.0                          T                                        5127762
CDF   000.97 109.1 m E Pg      2012/11/29 10:02:06.0  -1.0                          T                                        5127768
CDF   000.97 109.1 m E Sg      2012/11/29 10:02:18.7  -1.1                          T                                Md 1.8  5127767
HINF  001.12 145.0 m E Pg      2012/11/29 10:02:11.1   1.4                          T                                        5127770
HINF  001.12 145.0 m E Sg      2012/11/29 10:02:26.2   1.8                          T                4.0  .31 Ml 2.0         5127769
BAIF  001.72 320.8 m E Pn      2012/11/29 10:02:18.5   0.5                          T                                        5127778

.
EVENT     287664
    Date      Time       Latitude Longitude    Depth    Ndef Nsta Gap    Mag1  N    Mag2  N    Mag3  N   Author         ID
       rms   OT_Error      Smajor Sminor Az        Err   mdist  Mdist     Err        Err        Err      Quality

2012/11/29 13:16:54.5     38.6552   11.7966      2.0      15    8 333  Ml 3.2  3                         bulletin    287764
                                                                                                         _ldg
      1.11   +-  1.02      29.1   17.9   80.54 +-  0.0    4.43   8.62   +-0.2                            m i ke

SICILY, ITALY
Sta     Dist  EvAz     Phase      Date       Time     TRes  Azim  AzRes  Slow  SRes Def   SNR       Amp   Per   Mag1   Mag2       ID
PGF   004.43 332.2 m E Pn      2012/11/29 13:18:01.3   0.5                          T                                        5127841
PGF   004.43 332.2 m E Sn      2012/11/29 13:18:50.3   0.4                          T                3.8  .19 Ml 3.3         5127842
LMR   006.15 321.1 m E Pn      2012/11/29 13:18:23.3  -0.8                          T                                        5127839
SBF   006.15 329.1 m E Pn      2012/11/29 13:18:23.6  -0.6                          T                                        5127840
SBF   006.15 329.1 m E Sn      2012/11/29 13:19:29.0  -1.9                          T                1.9  .26 Ml 3.0         5127863
FRF   006.26 323.2 m E Pn      2012/11/29 13:18:24.7  -0.8                          T                                        5127838
FRF   006.26 323.2 m E Sn      2012/11/29 13:19:33.3  -0.1                          T                3.4  .26 Ml 3.3         5127862
SMRF  007.08 320.6 m E Pn      2012/11/29 13:18:36.7  -0.1                          T                                        5138875
MBDF  007.14 329.8 m E Pn      2012/11/29 13:18:39.7   2.0                          T                                        5127837
ORIF  007.66 326.7 m E Pn      2012/11/29 13:18:45.2   0.4                          T                                        5127836
MTLF  008.62 305.9 m E Pn      2012/11/29 13:18:58.3   0.6                          T                                        5138874

.
EVENT     287694
    Date      Time       Latitude Longitude    Depth    Ndef Nsta Gap    Mag1  N    Mag2  N    Mag3  N   Author         ID
       rms   OT_Error      Smajor Sminor Az        Err   mdist  Mdist     Err        Err        Err      Quality

2012/11/29 19:47:17.6     49.9844    8.3865     10.0      10    4 118  Ml 1.8  4                         bulletin    287794
                                                                                                         _ldg
      1.57   +-  0.23       4.6    4.0   55.42 +-  0.0    0.23   2.64   +-0.2                            m i ke

GERMANY
Sta     Dist  EvAz     Phase      Date       Time     TRes  Azim  AzRes  Slow  SRes Def   SNR       Amp   Per   Mag1   Mag2       ID
CDF   001.73 205.3 m E Pn      2012/11/29 19:47:45.9  -0.3                          T                                        5128148
CDF   001.73 205.3 m E Sn      2012/11/29 19:48:07.0  -0.1                          T                 .3  .17 Ml 1.5         5128147
PAGF  002.25 231.6 m E Pn      2012/11/29 19:47:53.5   0.3  68.8  19.2              T                                        5128144
PAGF  002.25 231.6 m E Sn      2012/11/29 19:48:19.0  -0.4                          T                 .7  .24 Ml 1.7         5128143
HAU   002.39 214.9 m E Pn      2012/11/29 19:47:55.5   0.4                          T                                        5128146
HAU   002.39 214.9 m E Sn      2012/11/29 19:48:22.2  -0.5                          T                1.3  .17 Ml 2.0         5128145
MEZF  002.64 237.1 m E Pn      2012/11/29 19:47:58.0  -0.5                          T                                        5128142
MEZF  002.64 237.1 m E Sn      2012/11/29 19:48:28.2  -0.5                          T                 .8  .23 Ml 1.9         5128141

.
EVENT     287671
    Date      Time       Latitude Longitude    Depth    Ndef Nsta Gap    Mag1  N    Mag2  N    Mag3  N   Author         ID
       rms   OT_Error      Smajor Sminor Az        Err   mdist  Mdist     Err        Err        Err      Quality

2012/11/29 20:23:14.6     40.7586   -2.7977      4.0 f    46    3 058  Ml 2.1  3                         bulletin    287771
                                                                                                         _ldg
      0.80   +-  0.09       2.5    1.7  141.81 +-  0.0    1.04   4.45   +-0.1                            m i ke

SPAIN
Sta     Dist  EvAz     Phase      Date       Time     TRes  Azim  AzRes  Slow  SRes Def   SNR       Amp   Per   Mag1   Mag2       ID
SJPF  002.63 026.0 m E Pn      2012/11/29 20:23:55.7  -0.3                          T                                        5127890
SJPF  002.63 026.0 m E Sn      2012/11/29 20:24:25.7  -0.8                          T                 .6  .13 Ml 2.0         5127889
ETSF  002.71 037.3 m E Pn      2012/11/29 20:23:57.0  -0.3                          T                                        5127888
ETSF  002.71 037.3 m E Sn      2012/11/29 20:24:28.1  -0.5                          T                 .8  .16 Ml 2.0         5127887
EPF   003.26 044.9 m E Pn      2012/11/29 20:24:04.7   0.0                          T                                        5127886
EPF   003.26 044.9 m E Sn      2012/11/29 20:24:41.9   0.2                          T                 .6  .14 Ml 2.1         5127885

.
EVENT     287695
    Date      Time       Latitude Longitude    Depth    Ndef Nsta Gap    Mag1  N    Mag2  N    Mag3  N   Author         ID
       rms   OT_Error      Smajor Sminor Az        Err   mdist  Mdist     Err        Err        Err      Quality

2012/11/29 20:31:33.6     48.8267    9.7666      5.0 f    34    8 140  Ml 1.7  8                         bulletin    287795
                                                                                                         _ldg
      0.42   +-  0.09       1.5    1.3   95.87 +-  0.0    0.38   4.26   +-0.3                            m i ke

GERMANY
Sta     Dist  EvAz     Phase      Date       Time     TRes  Azim  AzRes  Slow  SRes Def   SNR       Amp   Per   Mag1   Mag2       ID
CDF   001.70 256.8 m E Pn      2012/11/29 20:32:02.7   0.3                          T                                        5128192
CDF   001.70 256.8 m E Sn      2012/11/29 20:32:23.1  -0.1                          T                                        5128191
CDF   001.70 256.8 m E Sg      2012/11/29 20:32:27.4   0.0                          T                1.2  .20 Ml 2.0         5128190
HINF  002.19 243.6 m E Pn      2012/11/29 20:32:08.5  -0.5                          T                                        5128189
HINF  002.19 243.6 m E Sn      2012/11/29 20:32:34.5  -0.4                          T                                        5128188
HINF  002.19 243.6 m E Sg      2012/11/29 20:32:42.4  -0.2                          T                 .7  .18 Ml 1.9         5128187
HAU   002.42 251.4 m E Pn      2012/11/29 20:32:12.5   0.4                          T                                        5128186
HAU   002.42 251.4 m E Pg      2012/11/29 20:32:18.5  -0.1                          T                                        5128185
HAU   002.42 251.4 m E Sg      2012/11/29 20:32:50.1   0.3                          T                1.5  .28 Ml 1.8         5128184
PAGF  002.69 265.7 m E Pn      2012/11/29 20:32:15.6  -0.1  77.9  -4.8              T                                        5128202
PAGF  002.69 265.7 m E Pg      2012/11/29 20:32:23.7   0.1                          T                                        5128201
PAGF  002.69 265.7 m E Sn      2012/11/29 20:32:46.4  -0.3                          T                 .1  .14 Ml 1.1         5128200
MEZF  003.14 265.8 m E Pn      2012/11/29 20:32:22.1   0.3                          T                                        5128199
MEZF  003.14 265.8 m E Pg      2012/11/29 20:32:31.5  -0.3                          T                                        5128198
MEZF  003.14 265.8 m E Sn      2012/11/29 20:32:57.1  -0.4                          T                 .5  .17 Ml 1.9         5128197
SFTF  003.20 260.6 m E Pn      2012/11/29 20:32:22.8   0.1                          T                                        5128196
SFTF  003.20 260.6 m E Pg      2012/11/29 20:32:32.6  -0.3                          T                                        5128195
SFTF  003.20 260.6 m E Sn      2012/11/29 20:32:59.2   0.2                          T                                        5128194
SFTF  003.20 260.6 m E Sg      2012/11/29 20:33:14.1   0.0                          T                 .6  .20 Ml 1.9         5128193
CABF  003.33 229.6 m E Pn      2012/11/29 20:32:24.7   0.2                          T                                        5128206
CABF  003.33 229.6 m E Pg      2012/11/29 20:32:35.9   0.5                          T                                        5128205
CABF  003.33 229.6 m E Sn      2012/11/29 20:33:02.4   0.4                          T                                        5128204
CABF  003.33 229.6 m E Sg      2012/11/29 20:33:17.7  -0.5                          T                 .2  .20 Ml 1.5         5128203
LOR   004.26 250.7 m E Pn      2012/11/29 20:32:36.5  -0.6                          T                                        5128208
LOR   004.26 250.7 m E Sn      2012/11/29 20:33:24.5   0.3                          T                 .1  .15 Ml 1.7         5128207

.
EVENT     287672
    Date      Time       Latitude Longitude    Depth    Ndef Nsta Gap    Mag1  N    Mag2  N    Mag3  N   Author         ID
       rms   OT_Error      Smajor Sminor Az        Err   mdist  Mdist     Err        Err        Err      Quality

2012/11/29 21:29:05.0     48.3411    6.3133      3.0 f    13    7 144  Ml 1.6  3  Md 1.5  2              bulletin    287772
                                                                                                         _ldg
      0.22   +-  0.08       2.0    1.2   21.38 +-  0.0    0.34   1.97   +-0.2      +-0.5                 m i ke

FRANCE
Sta     Dist  EvAz     Phase      Date       Time     TRes  Azim  AzRes  Slow  SRes Def   SNR       Amp   Per   Mag1   Mag2       ID
HAU   000.34 176.0 m E Pg      2012/11/29 21:29:11.5  -0.1                          T                                        5138903
HAU   000.34 176.0 m E Sg      2012/11/29 21:29:16.2   0.1                          T                1.1  .20        Md 1.9  5138902
PAGF  000.45 298.9 m E Pg      2012/11/29 21:29:13.7   0.1                          T                                        5127897
PAGF  000.45 298.9 m E Sg      2012/11/29 21:29:19.9   0.4                          T                1.5  .20        Md 1.2  5127894
CDF   000.65 083.3 m E Pg      2012/11/29 21:29:17.1  -0.3                          T                                        5127896
CDF   000.65 083.3 m E Sg      2012/11/29 21:29:26.4   0.5                          T                 .8  .23                5127895
HINF  000.64 145.2 m E Pg      2012/11/29 21:29:17.5   0.3                          T                                        5138900
HINF  000.64 145.2 m E Sg      2012/11/29 21:29:25.4  -0.2                          T                2.4  .28                5138901
MEZF  000.86 281.3 m E Pg      2012/11/29 21:29:21.0  -0.1                          T                                        5138898
MEZF  000.86 281.3 m E Sn      2012/11/29 21:29:34.6  -0.1                          T                3.8  .32 Ml 1.8         5138899
SFTF  000.86 261.4 m E Pg      2012/11/29 21:29:21.1  -0.2                          T                                        5127898
SFTF  000.86 261.4 m E Sg      2012/11/29 21:29:32.7   0.2                          T                 .9  .20 Ml 1.4         5127899
LOR   001.97 237.9 m E Sg      2012/11/29 21:30:07.2   0.1                          T                 .3  .21 Ml 1.4         5138897

.
