EVENT     291238
    Date      Time       Latitude Longitude    Depth    Ndef Nsta Gap    Mag1  N    Mag2  N    Mag3  N   Author         ID
       rms   OT_Error      Smajor Sminor Az        Err   mdist  Mdist     Err        Err        Err      Quality

2013/01/31 00:40:33.3     44.3545    7.2935     15.0 f    41    8 108  Ml 1.5  7  Md 1.5  2              bulletin    291338
                                                                                                         _ldg
      0.19   +-  0.03        .7     .4   50.12 +-  0.0    0.11   1.29   +-0.3      +-0.1                 m i ke

NORTHERN ITALY
Sta     Dist  EvAz     Phase      Date       Time     TRes  Azim  AzRes  Slow  SRes Def   SNR       Amp   Per   Mag1   Mag2       ID
SBF   000.50 168.2 m E Pg      2013/01/31 00:40:43.3   0.0                          T                                        5183833
SBF   000.50 168.2 m E Sg      2013/01/31 00:40:50.1   0.0                          T                2.6  .13        Md 1.6  5183832
MBDF  000.53 315.1 m E Pg      2013/01/31 00:40:43.7  -0.1                          T                                        5183835
MBDF  000.53 315.1 m E Sg      2013/01/31 00:40:51.0   0.0                          T                1.6  .15        Md 1.5  5183834
FRF   000.92 210.7 m E Pg      2013/01/31 00:40:50.8   0.0                          T                                        5183837
FRF   000.92 210.7 m E Sg      2013/01/31 00:41:02.5  -0.4                          T                1.3  .19 Ml 1.6         5183836
LMR   001.17 209.4 m E Pn      2013/01/31 00:40:53.6   0.0                          T                                        5193743
LMR   001.17 209.4 m E Pg      2013/01/31 00:40:55.3   0.0                          T                                        5193744
LMR   001.17 209.4 m E Sg      2013/01/31 00:41:10.5   0.0                          T                2.9  .21 Ml 2.0         5193745
LPG   001.21 341.6 m E Pn      2013/01/31 00:40:54.5   0.0                          T                                        5183839
LPG   001.21 341.6 m E Sn      2013/01/31 00:41:09.7   0.1                          T                 .2  .16 Ml 1.0         5183838
ORIF  001.16 299.7 m E Pg      2013/01/31 00:40:55.1  -0.1                          T                                        5183843
ORIF  001.16 299.7 m E Sg      2013/01/31 00:41:09.9  -0.4                          T                 .8  .25 Ml 1.4         5183842
SMRF  001.29 253.6 m E Pn      2013/01/31 00:40:55.4   0.1                          T                                        5183845
SMRF  001.29 253.6 m E Pg      2013/01/31 00:40:57.6   0.0                          T                                        5193746
SMRF  001.29 253.6 m E Sn      2013/01/31 00:41:11.3   0.0                          T                 .7  .21 Ml 1.4         5183844
SMRF  001.29 253.6 m E Sg      2013/01/31 00:41:14.4   0.0                          T                                        5193747
LPL   001.23 341.3 m E Pg      2013/01/31 00:40:56.5  -0.2                          T                                        5183841
LPL   001.23 341.3 m E Sg      2013/01/31 00:41:12.7   0.1                          T                 .5  .25 Ml 1.2         5183840

.
EVENT     291239
    Date      Time       Latitude Longitude    Depth    Ndef Nsta Gap    Mag1  N    Mag2  N    Mag3  N   Author         ID
       rms   OT_Error      Smajor Sminor Az        Err   mdist  Mdist     Err        Err        Err      Quality

2013/01/31 00:42:09.8     42.1279     .2114     11.0 f    34    4 107  Ml 1.8  5  Md 1.8  2              bulletin    291339
                                                                                                         _ldg
      0.48   +-  0.08       1.5    1.2   33.35 +-  0.0    0.46   1.91   +-0.1      +-0.0                 m i ke

PYRENEES
Sta     Dist  EvAz     Phase      Date       Time     TRes  Azim  AzRes  Slow  SRes Def   SNR       Amp   Per   Mag1   Mag2       ID
EPF   000.91 006.0 m E Pg      2013/01/31 00:42:27.1   0.1                          T                                        5183847
EPF   000.91 006.0 m E Sg      2013/01/31 00:42:38.9   0.0                          T                1.4  .18 Ml 1.7 Md 1.8  5183846
ETSF  000.96 323.8 m E Pg      2013/01/31 00:42:28.1   0.1                          T                                        5183849
ETSF  000.96 323.8 m E Sg      2013/01/31 00:42:40.6   0.1                          T                2.9  .32 Ml 1.8 Md 1.8  5183848
SJPF  001.45 313.4 m E Pg      2013/01/31 00:42:37.0   0.1                          T                                        5183852
SJPF  001.45 313.4 m E Sg      2013/01/31 00:42:55.7   0.0                          T                1.4  .22 Ml 1.8         5183850
MTLF  001.91 050.0 m E Pn      2013/01/31 00:42:40.9   0.3                          T                                        5183887
MTLF  001.91 050.0 m E Pg      2013/01/31 00:42:45.4   0.0                          T                                        5183859
MTLF  001.91 050.0 m E Sn      2013/01/31 00:43:03.3   0.0                          T                                        5193748
MTLF  001.91 050.0 m E Sg      2013/01/31 00:43:10.1   0.0                          T                 .6  .20 Ml 1.6         5183886

.
EVENT     291240
    Date      Time       Latitude Longitude    Depth    Ndef Nsta Gap    Mag1  N    Mag2  N    Mag3  N   Author         ID
       rms   OT_Error      Smajor Sminor Az        Err   mdist  Mdist     Err        Err        Err      Quality

2013/01/31 01:54:05.3     44.1873   10.5150     14.0 f    67   23 090  Ml 2.2 22  Md 2.2  2              bulletin    291340
                                                                                                         _ldg
      0.56   +-  0.06       1.6    1.1   36.70 +-  0.0    0.08   6.31   +-0.5      +-0.0                 m i ke

NORTHERN ITALY
Sta     Dist  EvAz     Phase      Date       Time     TRes  Azim  AzRes  Slow  SRes Def   SNR       Amp   Per   Mag1   Mag2       ID
PGF   001.98 214.5 m E Pn      2013/01/31 01:54:36.9   0.1                          T                                        5183918
PGF   001.98 214.5 m E Sn      2013/01/31 01:54:59.6  -0.3                          T                4.6  .26 Ml 2.7 Md 2.2  5183917
SBF   002.25 262.8 m E Pn      2013/01/31 01:54:40.8   0.3                          T                                        5183922
SBF   002.25 262.8 m E Sn      2013/01/31 01:55:05.8  -0.5                          T                4.7  .22 Ml 2.6 Md 2.2  5183919
MBDF  002.73 282.7 m E P       2013/01/31 01:54:49.7  -0.4                          T                                        5183936
MBDF  002.73 282.7 m E Sn      2013/01/31 01:55:18.4   0.3                          T                1.6  .28 Ml 2.1         5183935
FRF   002.87 258.7 m E Pn      2013/01/31 01:54:49.7   0.9                          T                                        5183921
LMR   003.02 255.0 m E Pn      2013/01/31 01:54:51.3   0.3                          T                                        5183920
LMR   003.02 255.0 m E Sn      2013/01/31 01:55:25.3   0.5                          T                1.1  .19 Ml 2.2         5183916
LPG   002.98 297.4 m E P       2013/01/31 01:54:54.0   0.3                          T                                        5183913
LPG   002.98 297.4 m E Sn      2013/01/31 01:55:24.9   0.8                          T                 .6  .27 Ml 1.8         5183911
LPL   003.00 297.6 m E P       2013/01/31 01:54:54.3   0.4                          T                                        5183910
LPL   003.00 297.6 m E Sn      2013/01/31 01:55:25.0   0.5                          T                1.0  .27 Ml 2.0         5183938
SMRF  003.57 268.3 m E Pn      2013/01/31 01:54:58.5   0.1                          T                                        5183915
SMRF  003.57 268.3 m E Sn      2013/01/31 01:55:38.1   0.3                          T                 .9  .27 Ml 2.1         5183914
ORIF  003.39 284.1 m E P       2013/01/31 01:54:59.5   0.2                          T                                        5183908
ORIF  003.39 284.1 m E Sn      2013/01/31 01:55:34.0   0.3                          T                1.0  .31 Ml 2.0         5183937
CABF  003.95 309.4 m E P       2013/01/31 01:55:07.5   0.2                          T                                        5183929
HINF  004.44 326.2 m E P       2013/01/31 01:55:13.5  -0.6                          T                                        5183928
HINF  004.44 326.2 m E Sn      2013/01/31 01:55:58.7   0.1                          T                3.9  .36 Ml 2.8         5183927
LASF  004.79 271.0 m E P       2013/01/31 01:55:17.8  -1.4                          T                                        5183934
LASF  004.79 271.0 m E Sn      2013/01/31 01:56:07.3   0.2                          T                 .1  .18 Ml 1.4         5183933
CDF   004.78 333.2 m E P       2013/01/31 01:55:17.9  -1.2                          T                                        5183955
CDF   004.78 333.2 m E Sn      2013/01/31 01:56:07.1   0.1                          T                1.1  .27 Ml 2.6         5183954
HAU   004.79 324.3 m E P       2013/01/31 01:55:18.4  -0.7                          T                                        5183926
HAU   004.79 324.3 m E Sn      2013/01/31 01:56:06.9  -0.2                          T                4.4  .27 Ml 2.8         5183925
SMF   005.30 299.9 m E P       2013/01/31 01:55:26.0  -0.4                          T                                        5183948
SMF   005.30 299.9 m E Sn      2013/01/31 01:56:19.6   0.4                          T                 .6  .22 Ml 2.4         5183947
MEZF  005.74 320.7 m E Pn      2013/01/31 01:55:28.1   0.2 141.5  4.7               T                                        5183949
PAGF  005.48 324.5 m E P       2013/01/31 01:55:28.6  -0.3                          T                                        5183957
PAGF  005.48 324.5 m E Sn      2013/01/31 01:56:23.6   0.1                          T                  1  .24 Ml 2.6         5183956
SFTF  005.53 318.5 m E P       2013/01/31 01:55:29.2  -0.4 136.6  2.1               T                                        5183924
SFTF  005.53 318.5 m E Sn      2013/01/31 01:56:24.7   0.0                          T                1.2  .21 Ml 2.7         5183923
LOR   005.59 305.8 m E P       2013/01/31 01:55:29.9  -0.4 126.2  5.2               T                                        5183953
LOR   005.59 305.8 m E Sn      2013/01/31 01:56:26.4   0.4                          T                 .7  .23 Ml 2.5         5183952
BGF   005.90 296.4 m E Pn      2013/01/31 01:55:30.3   0.2                          T                                        5183932
BGF   005.90 296.4 m E Pg      2013/01/31 01:55:55.4   1.0                          T                                        5183946
BGF   005.90 296.4 m E Sn      2013/01/31 01:56:33.7   0.2                          T                 .5  .23 Ml 2.4         5183945
SSF   005.69 302.8 m E P       2013/01/31 01:55:30.9  -0.9                          T                                        5183951
SSF   005.69 302.8 m E Sn      2013/01/31 01:56:29.0   0.4                          T                 .2  .17 Ml 2.1         5183950
AVF   005.67 299.8 m E P       2013/01/31 01:55:31.3  -0.1                          T                                        5183931
AVF   005.67 299.8 m E Sn      2013/01/31 01:56:28.2   0.3                          T                 .2  .21 Ml 1.9         5183930
HYF   006.31 302.0 m E P       2013/01/31 01:55:40.6   0.1                          T                                        5183959
HYF   006.31 302.0 m E Sn      2013/01/31 01:56:43.6   0.1                          T                                        5183958

.
EVENT     291242
    Date      Time       Latitude Longitude    Depth    Ndef Nsta Gap    Mag1  N    Mag2  N    Mag3  N   Author         ID
       rms   OT_Error      Smajor Sminor Az        Err   mdist  Mdist     Err        Err        Err      Quality

2013/01/31 03:47:17.3     44.1789   10.5198     14.0 f    45   13 095  Ml 1.9 14  Md 2.2  2              bulletin    291342
                                                                                                         _ldg
      0.30   +-  0.07       1.6    1.2   26.36 +-  0.0    0.09   4.80   +-0.3      +-0.0                 m i ke

NORTHERN ITALY
Sta     Dist  EvAz     Phase      Date       Time     TRes  Azim  AzRes  Slow  SRes Def   SNR       Amp   Per   Mag1   Mag2       ID
PGF   001.97 214.8 m E Pn      2013/01/31 03:47:48.9   0.2                          T                                        5183985
PGF   001.97 214.8 m E Sn      2013/01/31 03:48:11.8   0.1                          T                2.4  .26 Ml 2.4 Md 2.2  5183984
SBF   002.25 263.0 m E Pn      2013/01/31 03:47:52.7   0.3                          T                                        5183986
SBF   002.25 263.0 m E Sn      2013/01/31 03:48:18.3   0.1                          T                  1  .16 Ml 2.1 Md 2.2  5184021
MBDF  002.74 282.8 m E Pn      2013/01/31 03:47:59.2   0.0                          T                                        5184029
MBDF  002.74 282.8 m E Sn      2013/01/31 03:48:30.4   0.3                          T                 .4  .23 Ml 1.7         5184028
FRF   002.87 258.9 m E Pn      2013/01/31 03:48:01.0   0.2                          T                                        5183990
FRF   002.87 258.9 m E Sn      2013/01/31 03:48:33.2   0.2                          T                 .5  .16 Ml 1.9         5183989
LMR   003.03 255.2 m E Pn      2013/01/31 03:48:03.6   0.7                          T                                        5183988
LMR   003.03 255.2 m E Sn      2013/01/31 03:48:37.0   0.3                          T                 .5  .19 Ml 1.9         5183987
LPL   003.01 297.7 m E P       2013/01/31 03:48:05.5  -0.5                          T                                        5184033
LPL   003.01 297.7 m E Sn      2013/01/31 03:48:36.7   0.0                          T                 .8  .30 Ml 1.8         5184032
LPG   002.99 297.5 m E P       2013/01/31 03:48:06.0   0.2                          T                                        5184018
LPG   002.99 297.5 m E Sn      2013/01/31 03:48:36.2  -0.1                          T                 .4  .26 Ml 1.6         5184017
SMRF  003.57 268.5 m E Pn      2013/01/31 03:48:10.6   0.2                          T                                        5184020
SMRF  003.57 268.5 m E Sn      2013/01/31 03:48:49.8   0.0                          T                 .5  .26 Ml 1.8         5184019
ORIF  003.40 284.2 m E P       2013/01/31 03:48:11.7   0.4                          T                                        5184031
ORIF  003.40 284.2 m E Sn      2013/01/31 03:48:47.6   1.8                          T                 .3  .22 Ml 1.6         5184030
VIVF  004.24 281.2 m E Pn      2013/01/31 03:48:19.4   0.0                          T                                        5184027
VIVF  004.24 281.2 m E Sn      2013/01/31 03:49:05.9   0.1                          T                 .5  .26 Ml 2.0         5184026
HINF  004.45 326.2 m E P       2013/01/31 03:48:25.1  -1.1                          T                                        5184025
HINF  004.45 326.2 m E Sn      2013/01/31 03:49:11.0   0.2                          T                1.7  .28 Ml 2.5         5184024
LASF  004.80 271.1 m E P       2013/01/31 03:48:29.3  -1.9                          T                                        5184035
HAU   004.80 324.3 m E P       2013/01/31 03:48:30.3  -0.9                          T                                        5184023
HAU   004.80 324.3 m E Sn      2013/01/31 03:49:19.1  -0.1                          T                2.7  .28 Ml 2.6         5184022

.
