EVENT     273942
    Date      Time       Latitude Longitude    Depth    Ndef Nsta Gap    Mag1  N    Mag2  N    Mag3  N   Author         ID
       rms   OT_Error      Smajor Sminor Az        Err   mdist  Mdist     Err        Err        Err      Quality

2012/04/19 08:12:06.7     45.5837    3.1960       .0 f    12    6 106  Ml 2.1  6  Md 2.0  2              bulletin    273962
                                                                                                         _ldg
      0.27   +-  0.09       2.0    1.6   84.62 +-  0.0    0.98   1.27   +-0.2      +-0.0                 m i km

FRANCE
Sta     Dist  EvAz     Phase      Date       Time     TRes  Azim  AzRes  Slow  SRes Def   SNR       Amp   Per   Mag1   Mag2       ID
TCF   000.98 316.0 m E Pg      2012/04/19 08:12:25.1  -0.4                          T                                        4916382
TCF   000.98 316.0 m E Sg      2012/04/19 08:12:38.8   0.3                          T                3.8  .20 Ml 2.1         4916381
BGF   001.00 346.1 m E Pg      2012/04/19 08:12:25.9   0.0                          T                                        4916380
BGF   001.00 346.1 m E Sg      2012/04/19 08:12:38.9  -0.1                          T               27.9  .50 Ml 2.6 Md 2.0  4916379
CAF   001.04 230.9 m E Pg      2012/04/19 08:12:26.6   0.2                          T                                        4919634
CAF   001.04 230.9 m E Sg      2012/04/19 08:12:40.1   0.1                          T                3.3  .27 Ml 1.9 Md 2.0  4919633
SMF   001.15 022.7 m E Pg      2012/04/19 08:12:28.6   0.0                          T                                        4916378
SMF   001.15 022.7 m E Sg      2012/04/19 08:12:44.5   0.8                          T                3.8  .28 Ml 2.0         4916377
AVF   001.21 005.1 m E Pg      2012/04/19 08:12:29.5  -0.1                          T                                        4916376
AVF   001.21 005.1 m E Sg      2012/04/19 08:12:45.5   0.0                          T                3.2  .30 Ml 1.9         4916375
VIVF  001.27 124.4 m E Pg      2012/04/19 08:12:30.8   0.0                          T                                        4919643
VIVF  001.27 124.4 m E Sg      2012/04/19 08:12:47.1  -0.4                          T                3.0  .30 Ml 1.9         4919644

.
EVENT     273943
    Date      Time       Latitude Longitude    Depth    Ndef Nsta Gap    Mag1  N    Mag2  N    Mag3  N   Author         ID
       rms   OT_Error      Smajor Sminor Az        Err   mdist  Mdist     Err        Err        Err      Quality

2012/04/19 08:15:46.4     44.4439    2.3985       .0 f    14    7 106  Ml 1.9  7  Md 2.0  1              bulletin    273963
                                                                                                         _ldg
      0.36   +-  0.07       1.7    1.0   65.75 +-  0.0    0.54   2.14   +-0.3      +-                    m i km

FRANCE
Sta     Dist  EvAz     Phase      Date       Time     TRes  Azim  AzRes  Slow  SRes Def   SNR       Amp   Per   Mag1   Mag2       ID
CAF   000.54 333.8 m E Pg      2012/04/19 08:15:56.1  -0.9                          T                                        4922292
CAF   000.54 333.8 m E Sg      2012/04/19 08:16:03.5  -0.7                          T                3.9  .23        Md 2.0  4922293
RJF   001.06 324.2 m E Pg      2012/04/19 08:16:07.0   0.3                          T                                        4922281
RJF   001.06 324.2 m E Sg      2012/04/19 08:16:20.7   0.0                          T                6.0  .23 Ml 1.9         4922282
MTLF  001.11 186.8 m E Pg      2012/04/19 08:16:07.4  -0.1                          T                                        4922278
MTLF  001.11 186.8 m E Sg      2012/04/19 08:16:22.0  -0.1                          T                2.0  .27 Ml 1.7         4922279
LASF  001.11 108.8 m E Pg      2012/04/19 08:16:07.5  -0.1                          T                                        4922276
LASF  001.11 108.8 m E Sg      2012/04/19 08:16:22.2   0.1                          T                1.0  .18 Ml 1.6         4922277
LFF   001.28 293.3 m E Pg      2012/04/19 08:16:10.6   0.0                          T                                        4922294
LFF   001.28 293.3 m E Sg      2012/04/19 08:16:27.2  -0.3                          T                4.6  .31 Ml 1.9         4922280
TCF   001.85 355.9 m E Sg      2012/04/19 08:16:45.0  -0.1                          T                1.7  .32 Ml 1.9         4922296
BGF   002.14 008.3 m E Sg      2012/04/19 08:16:54.2   0.1                          T                5.7  .34 Ml 2.5         4922295

.
EVENT     273953
    Date      Time       Latitude Longitude    Depth    Ndef Nsta Gap    Mag1  N    Mag2  N    Mag3  N   Author         ID
       rms   OT_Error      Smajor Sminor Az        Err   mdist  Mdist     Err        Err        Err      Quality

2012/04/19 09:03:41.1     47.1586    3.7588       .0 f     5    3 199  Ml 1.7  1  Md 1.3  2              bulletin    273973
                                                                                                         _ldg
      0.12   +-  0.06       1.1     .8   13.38 +-  0.0    0.13   1.38   +-         +-0.0                 m i km

FRANCE
Sta     Dist  EvAz     Phase      Date       Time     TRes  Azim  AzRes  Slow  SRes Def   SNR       Amp   Per   Mag1   Mag2       ID
LOR   000.13 031.8 m E Pg      2012/04/19 09:03:44.0  -0.1 212.0  0.1               T                                        4916479
LOR   000.13 031.8 m E Sg      2012/04/19 09:03:46.2   0.1                          T              146.1  .84        Md 1.3  4916476
SSF   000.20 240.7 m E Pg      2012/04/19 09:03:45.4   0.1                          T                                        4916478
SSF   000.20 240.7 m E Sg      2012/04/19 09:03:48.3   0.1                          T               59.0  .90        Md 1.3  4916477
TCF   001.38 231.3 m E Sg      2012/04/19 09:04:24.8  -0.3                          T                1.2  .27 Ml 1.7         4922305

.
EVENT     273954
    Date      Time       Latitude Longitude    Depth    Ndef Nsta Gap    Mag1  N    Mag2  N    Mag3  N   Author         ID
       rms   OT_Error      Smajor Sminor Az        Err   mdist  Mdist     Err        Err        Err      Quality

2012/04/19 09:08:46.1     47.0933    5.4726       .0 f    12    5 141  Ml 2.0  4  Md 1.8  1              bulletin    273974
                                                                                                         _ldg
      0.36   +-  0.12       2.5    2.2   81.54 +-  0.0    0.64   1.19   +-0.1      +-                    m i km

FRANCE
Sta     Dist  EvAz     Phase      Date       Time     TRes  Azim  AzRes  Slow  SRes Def   SNR       Amp   Per   Mag1   Mag2       ID
CABF  000.64 138.6 m E Pg      2012/04/19 09:08:58.8   0.2                          T                                        4916549
CABF  000.64 138.6 m E Pn      2012/04/19 09:09:00.8  -0.3                          T                                        4919659
CABF  000.64 138.6 m E Sg      2012/04/19 09:09:08.1   0.9                          T                2.2  .23        Md 1.8  4916548
CABF  000.64 138.6 m E Sn      2012/04/19 09:09:11.0  -0.6                          T                                        4919660
HAU   001.09 032.7 m E Pg      2012/04/19 09:09:06.4  -0.3                          T                                        4916514
HAU   001.09 032.7 m E Sg      2012/04/19 09:09:21.6   0.5                          T                5.4  .23 Ml 2.0         4916513
LOR   001.11 279.6 m E Pg      2012/04/19 09:09:07.2   0.0                          T                                        4916547
LOR   001.11 279.6 m E Sg      2012/04/19 09:09:22.2   0.4                          T                2.0  .20 Ml 1.9         4916546
HINF  001.18 051.8 m E Pg      2012/04/19 09:09:08.6   0.0                          T                                        4916516
HINF  001.18 051.8 m E Sg      2012/04/19 09:09:24.1   0.0                          T                2.9  .18 Ml 2.1         4916515
THEF  001.19 017.0 m E Pg      2012/04/19 09:09:08.6   0.0                          T                                        4916512
THEF  001.19 017.0 m E Sg      2012/04/19 09:09:24.5   0.4                          T                3.6  .24 Ml 2.1         4916511

.
EVENT     273956
    Date      Time       Latitude Longitude    Depth    Ndef Nsta Gap    Mag1  N    Mag2  N    Mag3  N   Author         ID
       rms   OT_Error      Smajor Sminor Az        Err   mdist  Mdist     Err        Err        Err      Quality

2012/04/19 09:17:01.9     48.0104    6.6583       .0 f    13    6 103  Ml 2.1  2  Md 2.1  2              bulletin    273976
                                                                                                         _ldg
      2.06   +-  0.20       4.6    3.3  175.56 +-  0.0    0.21   2.03   +-0.2      +-0.3                 m i km

FRANCE
Sta     Dist  EvAz     Phase      Date       Time     TRes  Azim  AzRes  Slow  SRes Def   SNR       Amp   Per   Mag1   Mag2       ID
HAU   000.21 268.8 m E Pg      2012/04/19 09:17:06.4   0.1                          T                                        4922317
HAU   000.21 268.8 m E Sg      2012/04/19 09:17:09.3  -0.1                          T              359.1  .58        Md 2.3  4922318
HINF  000.23 145.9 m E Pg      2012/04/19 09:17:07.2   0.4                          T                                        4922315
HINF  000.23 145.9 m E Sg      2012/04/19 09:17:09.7  -0.5                          T               37.9  .50        Md 1.9  4922316
CDF   000.58 045.6 m E Pg      2012/04/19 09:17:13.3   0.1                          T                                        4922312
CDF   000.58 045.6 m E Pn      2012/04/19 09:17:15.6  -0.5                          T                                        4922313
CDF   000.58 045.6 m E Sg      2012/04/19 09:17:21.8   0.8                          T               42.0  .92                4922314
PAGF  000.83 311.5 m E Pg      2012/04/19 09:17:17.5  -0.2 118.1  -12.7             T                                        4922356
PAGF  000.83 311.5 m E Sg      2012/04/19 09:17:29.4   0.7 149.8  18.9              T                4.4  .63                4922357
SFTF  001.10 280.8 m E Pg      2012/04/19 09:17:22.7  -0.1 108.8  9.2               T                                        4922353
SFTF  001.10 280.8 m E Sn      2012/04/19 09:17:38.2  -0.2                          T                7.0  .29 Ml 2.2         4922358
LOR   002.03 249.6 m E Pg      2012/04/19 09:17:40.0   0.0  68.4  0.8               T                                        4922354
LOR   002.03 249.6 m E Sg      2012/04/19 09:18:06.4   0.0  64.3  -3.3              T                1.6  .27 Ml 2.0         4922355

.
EVENT     273959
    Date      Time       Latitude Longitude    Depth    Ndef Nsta Gap    Mag1  N    Mag2  N    Mag3  N   Author         ID
       rms   OT_Error      Smajor Sminor Az        Err   mdist  Mdist     Err        Err        Err      Quality

2012/04/19 09:43:00.4     45.5402    6.6255       .0 f    12    7 126  Ml 2.1  3  Md 1.7  2              bulletin    273979
                                                                                                         _ldg
      0.14   +-  0.05       1.1     .8    7.20 +-  0.0    0.08   2.58   +-0.1      +-0.1                 m i km

FRANCE
Sta     Dist  EvAz     Phase      Date       Time     TRes  Azim  AzRes  Slow  SRes Def   SNR       Amp   Per   Mag1   Mag2       ID
LPL   000.08 107.5 m E Pg      2012/04/19 09:43:02.6  -0.1                          T                                        4922372
LPL   000.08 107.5 m E Sg      2012/04/19 09:43:04.1   0.0                          T               97.8  .22        Md 1.6  4922373
LPG   000.10 115.6 m E Pg      2012/04/19 09:43:03.1  -0.1                          T                                        4922370
LPG   000.10 115.6 m E Sg      2012/04/19 09:43:04.9   0.1                          T               29.7  .24        Md 1.8  4922371
ORIF  000.82 220.5 m E Pg      2012/04/19 09:43:16.2   0.1                          T                                        4922364
ORIF  000.82 220.5 m E Sg      2012/04/19 09:43:26.7  -0.3                          T                3.1  .27                4922368
MBDF  000.82 172.7 m E Pg      2012/04/19 09:43:16.4   0.1                          T                                        4922363
MBDF  000.82 172.7 m E Sg      2012/04/19 09:43:27.3   0.1                          T                1.5  .24                4922367
VIVF  001.54 244.3 m E Pg      2012/04/19 09:43:29.5   0.1                          T                                        4922362
VIVF  001.54 244.3 m E Sg      2012/04/19 09:43:49.2  -0.3                          T                3.4  .26 Ml 2.2         4922369
CABF  001.13 340.9 m E Sg      2012/04/19 09:43:37.1   0.2                          T                3.3  .21 Ml 2.1         4922366
LOR   002.58 313.1 m E Sg      2012/04/19 09:44:21.8  -0.1                          T                1.4  .26 Ml 2.1         4922365

.
EVENT     273961
    Date      Time       Latitude Longitude    Depth    Ndef Nsta Gap    Mag1  N    Mag2  N    Mag3  N   Author         ID
       rms   OT_Error      Smajor Sminor Az        Err   mdist  Mdist     Err        Err        Err      Quality

2012/04/19 09:44:59.6     47.4576    8.3310       .0 f     9    5 326  Ml 2.3  5  Md 2.1  1              bulletin    273981
                                                                                                         _ldg
      0.15   +-  0.22       3.8    3.2    8.04 +-  0.0    1.06   2.07   +-0.5      +-                    m i km

SWITZERLAND
Sta     Dist  EvAz     Phase      Date       Time     TRes  Azim  AzRes  Slow  SRes Def   SNR       Amp   Per   Mag1   Mag2       ID
HINF  001.06 290.3 m E Pg      2012/04/19 09:45:19.8   0.0                          T                                        4922384
HINF  001.06 290.3 m E Sg      2012/04/19 09:45:33.9   0.1                          T               10.6  .33 Ml 2.3 Md 2.1  4922385
CDF   001.19 323.8 m E Pg      2012/04/19 09:45:22.4   0.2                          T                                        4922387
CDF   001.19 323.8 m E Sg      2012/04/19 09:45:37.5  -0.4                          T               14.8  .34 Ml 2.6         4922388
HAU   001.45 293.0 m E Pg      2012/04/19 09:45:26.8  -0.1                          T                                        4922380
HAU   001.45 293.0 m E Sg      2012/04/19 09:45:45.8   0.0                          T               10.1  .32 Ml 2.3         4922386
PAGF  002.07 303.1 m E Pg      2012/04/19 09:45:38.2  -0.1                          T                                        4922381
PAGF  002.07 303.1 m E Sg      2012/04/19 09:46:05.2   0.2                          T                 .6  .31 Ml 1.5         4922382
THEF  001.75 297.0 m E Sg      2012/04/19 09:45:55.4   0.1                          T               10.1  .28 Ml 2.7         4922383

.
EVENT     273962
    Date      Time       Latitude Longitude    Depth    Ndef Nsta Gap    Mag1  N    Mag2  N    Mag3  N   Author         ID
       rms   OT_Error      Smajor Sminor Az        Err   mdist  Mdist     Err        Err        Err      Quality

2012/04/19 09:51:08.2     43.1636    5.5617       .0 f     7    4 284  Ml 2.2  2  Md 1.9  2              bulletin    273982
                                                                                                         _ldg
      0.08   +-  0.13       2.4    1.0   30.95 +-  0.0    0.71   1.53   +-0.2      +-0.1                 m i km

NEAR SOUTH COAST OF FRANCE
Sta     Dist  EvAz     Phase      Date       Time     TRes  Azim  AzRes  Slow  SRes Def   SNR       Amp   Per   Mag1   Mag2       ID
LMR   000.71 075.9 m E Pg      2012/04/19 09:51:21.9   0.1                          T                                        4916608
LMR   000.71 075.9 m E Sg      2012/04/19 09:51:31.5   0.1                          T                4.1  .28        Md 1.9  4916607
SMRF  000.81 000.7 m E Pg      2012/04/19 09:51:23.8   0.0                          T                                        4916604
SMRF  000.81 000.7 m E Sg      2012/04/19 09:51:34.7   0.1                          T                4.5  .31        Md 1.8  4916603
FRF   000.89 063.0 m E Pg      2012/04/19 09:51:25.0   0.0                          T                                        4916606
FRF   000.89 063.0 m E Sg      2012/04/19 09:51:36.6  -0.1                          T                5.2  .30 Ml 2.0         4916605
SBF   001.53 062.2 m E Sg      2012/04/19 09:51:57.1   0.0                          T                4.0  .24 Ml 2.3         4919716

.
EVENT     273963
    Date      Time       Latitude Longitude    Depth    Ndef Nsta Gap    Mag1  N    Mag2  N    Mag3  N   Author         ID
       rms   OT_Error      Smajor Sminor Az        Err   mdist  Mdist     Err        Err        Err      Quality

2012/04/19 09:56:47.4     43.1342    5.9586       .0 f    13    5 238  Ml 2.9  3  Md 2.2  1              bulletin    273983
                                                                                                         _ldg
      1.28   +-  0.43       8.1    4.8   42.17 +-  0.0    0.45   2.31   +-0.2      +-                    m i km

NEAR SOUTH COAST OF FRANCE
Sta     Dist  EvAz     Phase      Date       Time     TRes  Azim  AzRes  Slow  SRes Def   SNR       Amp   Per   Mag1   Mag2       ID
LMR   000.45 063.4 m E Pg      2012/04/19 09:56:56.0  -0.2                          T                                        4916616
LMR   000.45 063.4 m E Sg      2012/04/19 09:57:02.5   0.1                          T               22.6  .20        Md 2.2  4916615
FRF   000.66 049.4 m E Pg      2012/04/19 09:56:59.4  -0.7                          T                                        4916610
FRF   000.66 049.4 m E Sg      2012/04/19 09:57:09.3   0.4                          T               11.1  .24                4916609
SMRF  000.89 341.8 m E Pg      2012/04/19 09:57:04.9   0.5                          T                                        4916612
SMRF  000.89 341.8 m E Sg      2012/04/19 09:57:15.7  -0.5                          T               16.1  .23 Ml 2.6         4916611
SMRF  000.89 341.8 m E Sn      2012/04/19 09:57:18.0  -0.7                          T                                        4919728
SBF   001.30 055.4 m E Pg      2012/04/19 09:57:11.9  -0.1                          T                                        4916614
SBF   001.30 055.4 m E Sg      2012/04/19 09:57:30.1   1.1                          T               35.9  .26 Ml 3.1         4916613
PGF   002.31 103.6 m E Pn      2012/04/19 09:57:25.6   0.4                          T                                        4919726
PGF   002.31 103.6 m E Sn      2012/04/19 09:57:53.2   0.4                          T                7.4  .27 Ml 2.9         4919727

.
