EVENT     277661
    Date      Time       Latitude Longitude    Depth    Ndef Nsta Gap    Mag1  N    Mag2  N    Mag3  N   Author         ID
       rms   OT_Error      Smajor Sminor Az        Err   mdist  Mdist     Err        Err        Err      Quality

2012/05/23 19:42:09.5     40.1914    3.4150     20.0 f    33   10 168  Ml 2.7  8                         bulletin    277770
                                                                                                         _ldg
      1.12   +-  0.17       4.3    2.7  142.43 +-  0.0    0.63   5.85   +-0.3                            m i ke

BALEARIC ISLANDS, SPAIN
Sta     Dist  EvAz     Phase      Date       Time     TRes  Azim  AzRes  Slow  SRes Def   SNR       Amp   Per   Mag1   Mag2       ID
MTLF  003.27 344.5 m E P       2012/05/23 19:43:01.3   0.2                          T                                        4989818
MTLF  003.27 344.5 m E Sn      2012/05/23 19:43:34.3   0.4                          T                1.8  .26 Ml 2.3         4989817
LMR   003.90 035.4 m E Pn      2012/05/23 19:43:06.3  -0.1                          T                                        4989815
LMR   003.90 035.4 m E Sn      2012/05/23 19:43:48.0  -0.8                          T                4.1  .27 Ml 2.8         4989824
LASF  003.90 004.7 m E Pn      2012/05/23 19:43:06.6   0.2                          T                                        4989809
LASF  003.90 004.7 m E P       2012/05/23 19:43:09.4  -0.5                          T                                        4989820
LASF  003.90 004.7 m E Sn      2012/05/23 19:43:49.1   0.3                          T                1.2  .20 Ml 2.4         4989819
FRF   004.14 034.6 m E Pn      2012/05/23 19:43:10.8   1.1                          T                                        4989814
FRF   004.14 034.6 m E Sn      2012/05/23 19:43:55.4   0.8                          T                6.1  .39 Ml 2.9         4989808
SMRF  004.11 022.3 m E Pn      2012/05/23 19:43:11.6   2.3                          T                                        4989813
SMRF  004.11 022.3 m E Sn      2012/05/23 19:43:54.0   0.2                          T                1.7  .32 Ml 2.4         4989821
PGF   004.82 058.9 m E Pn      2012/05/23 19:43:19.1   0.1                          T                                        4989816
PGF   004.82 058.9 m E Sn      2012/05/23 19:44:11.0   0.2                          T                4.3  .31 Ml 3.2         4989823
VIVF  004.75 010.9 m E P       2012/05/23 19:43:20.3  -1.8                          T                                        4989810
LPL   005.85 023.5 m E Pn      2012/05/23 19:43:34.0   0.7                          T                                        4989811
LPG   005.84 023.7 m E P       2012/05/23 19:43:37.1  -0.7                          T                                        4989812
SBF   004.74 037.9 m E Sn      2012/05/23 19:44:08.2  -0.6                          T                3.9  .40 Ml 2.8         4989822

.
EVENT     276804
    Date      Time       Latitude Longitude    Depth    Ndef Nsta Gap    Mag1  N    Mag2  N    Mag3  N   Author         ID
       rms   OT_Error      Smajor Sminor Az        Err   mdist  Mdist     Err        Err        Err      Quality

2012/05/23 19:42:45.9     43.0576    -.5423      2.0      16    4 101  Ml 1.9  1  Md 1.7  2              bulletin    276904
                                                                                                         _ldg
      0.38   +-  0.11       2.7    1.4   14.75 +-  0.0    0.12   2.10   +-         +-0.2                 m i ke

PYRENEES
Sta     Dist  EvAz     Phase      Date       Time     TRes  Azim  AzRes  Slow  SRes Def   SNR       Amp   Per   Mag1   Mag2       ID
ETSF  000.16 184.5 m E Pg      2012/05/23 19:42:49.9   0.6                          T                                        4989776
ETSF  000.16 184.5 m E Sg      2012/05/23 19:42:52.0   0.5                          T               17.0  .22        Md 1.5  4989777
SJPF  000.50 276.6 m E Pg      2012/05/23 19:42:55.7   0.1                          T                                        4989774
SJPF  000.50 276.6 m E Sg      2012/05/23 19:43:02.1  -0.1                          T                4.7  .25        Md 1.8  4989775
EPF   000.65 092.1 m E Pg      2012/05/23 19:42:58.0  -0.3                          T                                        4989772
EPF   000.65 092.1 m E Sg      2012/05/23 19:43:07.4   0.7                          T                4.6  .26                4989773
LFF   002.10 025.8 m E Sg      2012/05/23 19:43:52.0   0.1                          T                1.9  .28 Ml 1.9         4989778

.
EVENT     276730
    Date      Time       Latitude Longitude    Depth    Ndef Nsta Gap    Mag1  N    Mag2  N    Mag3  N   Author         ID
       rms   OT_Error      Smajor Sminor Az        Err   mdist  Mdist     Err        Err        Err      Quality

2012/05/23 21:41:17.2     44.8738   11.3317      2.0     278   38 010  Ml 4.2 26                         bulletin    276830
                                                                                                         _ldg
      0.98   +-  0.06       1.8    1.4   37.03 +-  0.0    0.19  21.40   +-0.2                            m i ke

NORTHERN ITALY
Sta     Dist  EvAz     Phase      Date       Time     TRes  Azim  AzRes  Slow  SRes Def   SNR       Amp   Per   Mag1   Mag2       ID
PGF   002.87 216.8 m E Pn      2012/05/23 21:42:03.4   1.1                          T                                        4961680
PGF   002.87 216.8 m E Sn      2012/05/23 21:42:35.5   0.2                          T                                        4961709
SBF   002.97 251.5 m E Pn      2012/05/23 21:42:04.7   1.2                          T                                        4961679
SBF   002.97 251.5 m E Sn      2012/05/23 21:42:37.8   0.1                          T                                        4961708
MBDF  003.25 269.0 m E Pn      2012/05/23 21:42:08.1   0.6                          T                                        4961672
MBDF  003.25 269.0 m E Sn      2012/05/23 21:42:44.6   0.3                          T              488.8  .70 Ml 4.3         4961701
LPL   003.31 282.8 m E Pn      2012/05/23 21:42:10.6   2.2                          T                                        4961674
LPL   003.31 282.8 m E Sn      2012/05/23 21:42:46.3   0.3                          T              237.2  .56 Ml 4.1         4961703
LPG   003.30 282.5 m E Pn      2012/05/23 21:42:10.7   2.5                          T                                        4961675
LPG   003.30 282.5 m E Sn      2012/05/23 21:42:46.9   1.2                          T              353.2  .70 Ml 4.2         4961704
FRF   003.61 250.3 m E Pn      2012/05/23 21:42:13.3   1.1                          T                                        4961677
FRF   003.61 250.3 m E Sn      2012/05/23 21:42:53.9   1.0                          T                                        4961706
LMR   003.80 247.8 m E Pn      2012/05/23 21:42:15.1   0.4                          T                                        4961678
LMR   003.80 247.8 m E Sn      2012/05/23 21:42:58.2   0.9                          T                                        4961707
ORIF  003.87 272.6 m E Pn      2012/05/23 21:42:17.7   1.9                          T                                        4961673
ORIF  003.87 272.6 m E Sn      2012/05/23 21:43:00.0   0.8                          T              180.5  .46 Ml 4.2         4961702
CABF  004.06 297.2 m E Pn      2012/05/23 21:42:20.5   2.1                          T                                        4961653
CABF  004.06 297.2 m E Sn      2012/05/23 21:43:04.6   0.9                          T              554.9  .96 Ml 4.4         4961685
SMRF  004.22 259.7 m E Pn      2012/05/23 21:42:22.6   2.1                          T                                        4961676
SMRF  004.22 259.7 m E Sn      2012/05/23 21:43:08.4   0.9                          T              119.5  .78 Ml 3.9         4961705
HINF  004.28 315.1 m E Pn      2012/05/23 21:42:23.0   1.7                          T                                        4961652
HINF  004.28 315.1 m E Sn      2012/05/23 21:43:08.9   0.1                          T              287.3  .74 Ml 4.3         4961686
CDF   004.51 323.2 m E Pn      2012/05/23 21:42:26.6   2.1                          T                                        4961646
CDF   004.51 323.2 m E Sn      2012/05/23 21:43:14.8   0.4                          T              228.5  .66 Ml 4.4         4961682
HAU   004.66 314.1 m E Pn      2012/05/23 21:42:28.4   2.0                          T                                        4961651
HAU   004.66 314.1 m E Sn      2012/05/23 21:43:18.3   0.4                          T              168.0  .42 Ml 4.2         4961687
VIVF  004.73 272.1 m E Pn      2012/05/23 21:42:28.5   1.0                          T                                        4961671
VIVF  004.73 272.1 m E Sn      2012/05/23 21:43:20.0   0.3                          T               62.6  .50 Ml 3.9         4961700
THEF  004.98 314.2 m E Pn      2012/05/23 21:42:33.3   2.5                          T                                        4961650
THEF  004.98 314.2 m E Sn      2012/05/23 21:43:27.1   1.5                          T              447.9 1.13 Ml 4.5         4961688
LASF  005.41 264.1 m E Pn      2012/05/23 21:42:37.3   0.7                          T                                        4961670
LASF  005.41 264.1 m E Sn      2012/05/23 21:43:36.3   0.5                          T               36.7  .56 Ml 3.8         4961699
PAGF  005.33 315.7 m E Pn      2012/05/23 21:42:38.2   2.7 135.2  3.6               T                                        4961647
PAGF  005.33 315.7 m E Sn      2012/05/23 21:43:34.2   0.3                          T               45.0  .65 Ml 3.8         4961683
SMF   005.53 291.3 m E Pn      2012/05/23 21:42:39.8   1.5                          T                                        4961663
SMF   005.53 291.3 m E Sn      2012/05/23 21:43:39.4   0.6                          T              129.0  .58 Ml 4.3         4961693
SFTF  005.47 309.7 m E Pn      2012/05/23 21:42:39.8   2.3 129.5  4.4               T                                        4961648
SFTF  005.47 309.7 m E Sn      2012/05/23 21:43:38.0   0.7                          T              106.4  .62 Ml 4.2         4961684
LOR   005.72 297.4 m E Pn      2012/05/23 21:42:42.6   1.6 117.1  5.1               T                                        4961643
LOR   005.72 297.4 m E Sn      2012/05/23 21:43:43.4   0.1                          T               94.4  .56 Ml 4.3         4961681
MEZF  005.64 312.3 m E Pn      2012/05/23 21:42:42.6   2.8 131.6  3.9               T                                        4961649
MEZF  005.64 312.3 m E Sn      2012/05/23 21:43:43.7   2.4                          T              104.2  .66 Ml 4.2         4961689
SSF   005.88 294.6 m E Pn      2012/05/23 21:42:44.4   1.4                          T                                        4961660
SSF   005.88 294.6 m E Sn      2012/05/23 21:43:47.4   0.4                          T               65.6  .68 Ml 4.1         4961690
AVF   005.90 291.8 m E Pn      2012/05/23 21:42:44.8   1.5                          T                                        4961662
AVF   005.90 291.8 m E Sn      2012/05/23 21:43:47.4   0.0                          T               63.0  .78 Ml 4.0         4961692
BGF   006.18 288.8 m E Pn      2012/05/23 21:42:48.5   1.5                          T                                        4961665
BGF   006.18 288.8 m E Sn      2012/05/23 21:43:53.9  -0.2                          T              142.9  .68 Ml 4.5         4961695
CAF   006.58 273.7 m E Pn      2012/05/23 21:42:52.2  -0.5                          T                                        4961667
CAF   006.58 273.7 m E Sn      2012/05/23 21:44:03.8  -0.1                          T                                        4961696
TCF   006.56 285.7 m E Pn      2012/05/23 21:42:54.1   1.8                          T                                        4961661
TCF   006.56 285.7 m E Sn      2012/05/23 21:44:04.4   1.1                          T               51.1  .58 Ml 4.2         4961691
HYF   006.50 294.7 m E Pn      2012/05/23 21:42:54.4   2.9                          T                                        4961664
HYF   006.50 294.7 m E Sn      2012/05/23 21:44:01.2  -0.8                          T                                        4961694
MTLF  006.74 260.1 m E Pn      2012/05/23 21:42:58.9   4.2                          T                                        4961669
MTLF  006.74 260.1 m E Sn      2012/05/23 21:44:08.6   1.0                          T               18.6  .64 Ml 3.7         4961698
RJF   006.96 277.0 m E Pn      2012/05/23 21:42:59.8   2.0                          T                                        4961666
GIVF  006.84 322.2 m E Pn      2012/05/23 21:42:59.8   3.7                          T                                        4961645
BAIF  007.08 319.6 m E Pn      2012/05/23 21:43:04.2   4.8                          T                                        4961644
MFF   008.21 286.2 m E Pn      2012/05/23 21:43:16.2   1.4                          T                                        4961659
EPF   008.14 260.8 m E Pn      2012/05/23 21:43:16.5   2.5                          T                                        4961668
EPF   008.14 260.8 m E Sn      2012/05/23 21:44:39.9  -1.3                          T               18.8  .96 Ml 3.7         4961697
LDF   008.70 299.4 m E Pn      2012/05/23 21:43:26.4   4.9                          T                                        4961654
FLN   008.98 299.8 m E Pn      2012/05/23 21:43:27.2   1.9 120.3  9.1               T                                        4961655
GRR   009.09 297.1 m E Pn      2012/05/23 21:43:28.0   1.3                          T                                        4961656
SGMF  010.14 294.4 m E Pn      2012/05/23 21:43:40.8  -0.3                          T                                        4961658
ROSF  010.63 294.2 m E Pn      2012/05/23 21:43:46.9  -0.8                          T                                        4961657

.
EVENT     276835
    Date      Time       Latitude Longitude    Depth    Ndef Nsta Gap    Mag1  N    Mag2  N    Mag3  N   Author         ID
       rms   OT_Error      Smajor Sminor Az        Err   mdist  Mdist     Err        Err        Err      Quality

2012/05/23 21:59:13.8     42.5971   23.0466     10.0 f    42    8 054  Ml 3.8  2                         bulletin    276935
                                                                                                         _ldg
      0.53   +-  0.13       3.6    3.1   10.56 +-  0.0    0.12  14.26   +-0.2                            m i ke

BULGARIA
Sta     Dist  EvAz     Phase      Date       Time     TRes  Azim  AzRes  Slow  SRes Def   SNR       Amp   Per   Mag1   Mag2       ID
PGF   010.36 274.5 m E P       2012/05/23 22:01:45.2  -0.7                          T                                        4989871
FRF   012.04 280.2 m E Pn      2012/05/23 22:02:02.9   0.4                          T                                        4989870
LPL   012.10 289.5 m E Pn      2012/05/23 22:02:04.0   0.3                          T                                        4989868
LPL   012.10 289.5 m E P       2012/05/23 22:02:09.6   0.1                          T                                        4989867
LPL   012.10 289.5 m E Sn      2012/05/23 22:04:11.9   0.9                          T                1.6  .35 Ml 3.7         4989861
MBDF  011.98 285.8 m E P       2012/05/23 22:02:07.8  -0.1                          T                                        4989866
LPG   012.08 289.4 m E P       2012/05/23 22:02:08.7  -0.7                          T                                        4989869
HINF  012.55 300.1 m E P       2012/05/23 22:02:15.5   0.1                          T                                        4989864
HINF  012.55 300.1 m E Sn      2012/05/23 22:04:22.1   0.4                          T                3.1  .46 Ml 3.9         4989862
HAU   012.93 300.4 m E P       2012/05/23 22:02:20.6   0.1                          T                                        4989863
SMF   014.26 293.1 m E Pn      2012/05/23 22:02:33.0   0.1                          T                                        4989865

.
