BEGIN GSE2.0
MSG_TYPE DATA
MSG_ID 10-NOV-1116:21:19  FRA_NDC
E-MAIL
DATA_TYPE BULLETIN
Reviewed Bulletin (REB) # P2011-044  from French NDC for regional phases     PERIOD 02 NOV 2011 TO 08 NOV 2011 S M., J-P S.
EVENT     265865
    Date      Time       Latitude Longitude    Depth    Ndef Nsta Gap    Mag1  N    Mag2  N    Mag3  N   Author         ID
       rms   OT_Error      Smajor Sminor Az        Err   mdist  Mdist     Err        Err        Err      Quality

2011/11/02 03:57:03.4     43.1444    -.4851      2.0      17    4 176  Ml 1.6  1  Md 1.7  3              js067245    265885

      0.40   +-  0.13       3.0    1.3  175.78 +-  0.0    0.17   2.56   +-         +-0.1                 m i ke

PYRENEES
Sta     Dist  EvAz     Phase      Date       Time     TRes  Azim  AzRes  Slow  SRes Def   SNR       Amp   Per   Mag1   Mag2       ID
ETSF  000.25 192.5 m E Pg      2011/11/02 03:57:08.0  -0.4                          T                                        4780544
ETSF  000.25 192.5 m E Sg      2011/11/02 03:57:11.7  -0.2                          T               10.8  .16        Md 1.6  4780549
SJPF  000.54 267.0 m E Pg      2011/11/02 03:57:12.9  -0.8                          T                                        4780551
SJPF  000.54 267.0 m E Sg      2011/11/02 03:57:19.9  -1.0                          T                4.1  .32        Md 1.8  4780550
EPF   000.62 100.4 m E Pg      2011/11/02 03:57:14.9  -0.3                          T                                        4780552
EPF   000.62 100.4 m E Sg      2011/11/02 03:57:22.0  -1.2                          T                2.5  .30        Md 1.6  4780548
MTLF  001.98 083.4 m E Pn      2011/11/02 03:57:36.0  -0.2                          T                                        4780547
MTLF  001.98 083.4 m E S       2011/11/02 03:58:04.3   0.1                          T                                        4780545
MTLF  001.98 083.4 m E Sg      2011/11/02 03:58:06.0   0.2                          T                 .8  .28 Ml 1.6         4780546

.
EVENT     265866
    Date      Time       Latitude Longitude    Depth    Ndef Nsta Gap    Mag1  N    Mag2  N    Mag3  N   Author         ID
       rms   OT_Error      Smajor Sminor Az        Err   mdist  Mdist     Err        Err        Err      Quality

2011/11/02 05:00:40.5     43.0932    -.5496      2.0       6    3 182             Md 1.4  2              js067245    265886

      0.31   +-  0.16       4.5    2.6    4.76 +-  0.0    0.19   0.66              +-0.1                 m i ke

PYRENEES
Sta     Dist  EvAz     Phase      Date       Time     TRes  Azim  AzRes  Slow  SRes Def   SNR       Amp   Per   Mag1   Mag2       ID
ETSF  000.19 182.1 m E Pg      2011/11/02 05:00:44.4  -0.2                          T                                        4780567
ETSF  000.19 182.1 m E Sg      2011/11/02 05:00:47.0  -0.2                          T                8.5  .26        Md 1.4  4780566
SJPF  000.50 272.6 m E Pg      2011/11/02 05:00:50.1   0.1                          T                                        4780564
SJPF  000.50 272.6 m E Sg      2011/11/02 05:00:55.7  -0.8                          T                1.7  .24        Md 1.5  4780565
EPF   000.66 095.2 m E Pg      2011/11/02 05:00:52.9  -0.1                          T                                        4780562
EPF   000.66 095.2 m E Sg      2011/11/02 05:01:01.3  -0.3                          T                 .7  .24                4780563

.
EVENT     265867
    Date      Time       Latitude Longitude    Depth    Ndef Nsta Gap    Mag1  N    Mag2  N    Mag3  N   Author         ID
       rms   OT_Error      Smajor Sminor Az        Err   mdist  Mdist     Err        Err        Err      Quality

2011/11/02 10:15:29.6     44.3944    3.1260       .0 f    15    7 093  Ml 2.0  6  Md 2.0  3              js067245    265887

      0.61   +-  0.10       2.3    1.9   13.43 +-  0.0    0.61   2.03   +-0.2      +-0.1                 m i km

FRANCE
Sta     Dist  EvAz     Phase      Date       Time     TRes  Azim  AzRes  Slow  SRes Def   SNR       Amp   Per   Mag1   Mag2       ID
LASF  000.61 121.0 m E Pg      2011/11/02 10:15:41.5  -0.1                          T                                        4780575
LASF  000.61 121.0 m E P       2011/11/02 10:15:42.9   0.2                          T                                        4780570
LASF  000.61 121.0 m E Sg      2011/11/02 10:15:50.2   0.5                          T                3.3  .20        Md 2.1  4780578
CAF   000.93 305.4 m E Pg      2011/11/02 10:15:47.6   0.3                          T                                        4780581
CAF   000.93 305.4 m E Sg      2011/11/02 10:15:59.6   0.1                          T                5.6  .18 Ml 2.3 Md 1.9  4780582
VIVF  001.20 066.8 m E Pg      2011/11/02 10:15:52.1  -0.2                          T                                        4780576
VIVF  001.20 066.8 m E Sg      2011/11/02 10:16:07.7  -0.3                          T                3.5  .25 Ml 2.1         4780579
MTLF  001.24 212.3 m E Pg      2011/11/02 10:15:53.3   0.2                          T                                        4780577
MTLF  001.24 212.3 m E Sg      2011/11/02 10:16:08.6  -0.7                          T                1.7  .23 Ml 1.8 Md 2.0  4780580
RJF   001.46 309.0 m E Pn      2011/11/02 10:15:55.9   0.1                          T                                        4780573
RJF   001.46 309.0 m E Sn      2011/11/02 10:16:13.6  -1.0                          T                3.4  .24 Ml 1.8         4780574
TCF   002.00 341.5 m E Sg      2011/11/02 10:16:32.7  -0.4                          T                                        4780572
ORIF  002.03 074.1 m E Sg      2011/11/02 10:16:34.4   0.2                          T                4.4  .45 Ml 2.2         4780571

.
EVENT     265868
    Date      Time       Latitude Longitude    Depth    Ndef Nsta Gap    Mag1  N    Mag2  N    Mag3  N   Author         ID
       rms   OT_Error      Smajor Sminor Az        Err   mdist  Mdist     Err        Err        Err      Quality

2011/11/02 10:24:14.7     45.1937    5.6323      3.0 f    63   23 047  Ml 2.4 22  Md 2.4  4              js067245    265888

      0.63   +-  0.04        .9     .7   33.95 +-  0.0    0.09   3.59   +-0.2      +-0.1                 m i ke

FRANCE
Sta     Dist  EvAz     Phase      Date       Time     TRes  Azim  AzRes  Slow  SRes Def   SNR       Amp   Per   Mag1   Mag2       ID
ORIF  000.33 147.4 m E Pg      2011/11/02 10:24:21.0  -0.2                          T                                        4780598
ORIF  000.33 147.4 m E Sg      2011/11/02 10:24:24.9  -0.6                          T               53.7  .18        Md 2.5  4780597
VIVF  000.76 243.9 m E Pg      2011/11/02 10:24:29.3   0.2                          T                                        4780596
VIVF  000.76 243.9 m E Pn      2011/11/02 10:24:30.4  -0.3                          T                                        4780607
VIVF  000.76 243.9 m E Sg      2011/11/02 10:24:39.0   0.1                          T               20.1  .22        Md 2.5  4780589
LPG   000.85 068.5 m E Pg      2011/11/02 10:24:30.8  -0.2                          T                                        4780592
LPG   000.85 068.5 m E Pn      2011/11/02 10:24:32.3   0.1                          T                                        4780606
LPG   000.85 068.5 m E Sg      2011/11/02 10:24:41.6  -0.4                          T                                Md 2.3  4780618
LPL   000.84 067.0 m E Pg      2011/11/02 10:24:30.9   0.1                          T                                        4780593
LPL   000.84 067.0 m E Sg      2011/11/02 10:24:41.1  -0.6                          T                                        4780619
LPL   000.84 067.0 m E S       2011/11/02 10:24:46.6   0.0                          T                                        4781251
MBDF  000.93 119.6 m E Pg      2011/11/02 10:24:32.3  -0.1                          T                                        4780594
MBDF  000.93 119.6 m E Sg      2011/11/02 10:24:43.9  -0.7                          T                7.1  .41 Ml 2.0         4780584
SMRF  001.22 181.9 m E Pg      2011/11/02 10:24:37.5   0.0                          T                                        4780591
SMRF  001.22 181.9 m E Sg      2011/11/02 10:24:53.1  -0.2                          T                6.5  .37 Ml 2.2         4780590
CABF  001.45 012.5 m E Pg      2011/11/02 10:24:41.8  -0.1                          T                                        4780586
CABF  001.45 012.5 m E Sg      2011/11/02 10:25:01.0   0.3                          T               10.2  .18 Ml 2.8         4780587
LASF  001.69 229.2 m E Pn      2011/11/02 10:24:43.3  -0.1                          T                                        4780608
LASF  001.69 229.2 m E Pg      2011/11/02 10:24:46.3   0.1                          T                                        4780595
LASF  001.69 229.2 m E Sg      2011/11/02 10:25:07.4  -0.6                          T                6.0  .28 Ml 2.5 Md 2.4  4780588
SMF   001.92 319.9 m E Pn      2011/11/02 10:24:46.7   0.2                          T                                        4780615
SMF   001.92 319.9 m E P       2011/11/02 10:24:48.2  -0.5                          T                                        4780609
SMF   001.92 319.9 m E Pg      2011/11/02 10:24:50.5   0.1                          T                                        4780585
SMF   001.92 319.9 m E Sg      2011/11/02 10:25:15.1   0.1                          T                5.7  .20 Ml 2.6         4780616
FRF   001.79 155.6 m E Pg      2011/11/02 10:24:48.3   0.4                          T                                        4782866
FRF   001.79 155.6 m E Sg      2011/11/02 10:25:10.9  -0.1                          T                4.4  .22 Ml 2.5         4782897
SBF   001.85 135.3 m E Pg      2011/11/02 10:24:49.5   0.3                          T                                        4781252
SBF   001.85 135.3 m E Sg      2011/11/02 10:25:12.7  -0.5                          T                3.9  .25 Ml 2.4         4782896
AVF   002.25 316.0 m E Pn      2011/11/02 10:24:51.3   0.3                          T                                        4780610
AVF   002.25 316.0 m E Pg      2011/11/02 10:24:56.7   0.2                          T                                        4780613
AVF   002.25 316.0 m E Sg      2011/11/02 10:25:25.3  -0.2                          T                6.5  .52 Ml 2.4         4780614
BGF   002.38 306.0 m E Pn      2011/11/02 10:24:52.9   0.2                          T                                        4781253
BGF   002.38 306.0 m E Pg      2011/11/02 10:24:59.2   0.4                          T                                        4782867
BGF   002.38 306.0 m E Sg      2011/11/02 10:25:28.7  -0.6                          T               10.7  .34 Ml 2.8         4782889
LOR   002.41 330.0 m E Pn      2011/11/02 10:24:53.5   0.3                          T                                        4781249
LOR   002.41 330.0 m E Pg      2011/11/02 10:24:59.6   0.1                          T                                        4781259
LOR   002.41 330.0 m E Sg      2011/11/02 10:25:30.2  -0.4                          T                4.4  .28 Ml 2.5         4781257
HINF  002.76 017.4 m E Pn      2011/11/02 10:24:58.0   0.0                          T                                        4782886
HINF  002.76 017.4 m E Pg      2011/11/02 10:25:05.6  -0.3                          T                                        4782887
HINF  002.76 017.4 m E Sg      2011/11/02 10:25:39.9  -1.3                          T                5.1  .27 Ml 2.7         4780583
SSF   002.38 322.4 m E Pg      2011/11/02 10:24:58.7  -0.2                          T                                        4781258
SSF   002.38 322.4 m E Sg      2011/11/02 10:25:29.6   0.0                          T                2.3  .20 Ml 2.4         4781256
MTLF  003.07 234.1 m E Pn      2011/11/02 10:25:02.2   0.0                          T                                        4782894
MTLF  003.07 234.1 m E Pg      2011/11/02 10:25:11.2  -0.4                          T                                        4782893
MTLF  003.07 234.1 m E Sg      2011/11/02 10:25:50.5  -0.6                          T                1.8  .28 Ml 2.2         4782892
PAGF  003.36 001.1 m E Pn      2011/11/02 10:25:05.9  -0.3                          T                                        4781255
PAGF  003.36 001.1 m E Sn      2011/11/02 10:25:43.8  -0.5                          T                4.7  .46 Ml 2.5         4781254
PAGF  003.36 001.1 m E Sg      2011/11/02 10:26:00.3   0.1                          T                1.9  .38 Ml 2.2         4782888
HAU   002.86 009.7 m E Pg      2011/11/02 10:25:07.9   0.2                          T                                        4780611
HAU   002.86 009.7 m E Sg      2011/11/02 10:25:44.0  -0.3                          T                6.8  .24 Ml 2.6         4780612
LMR   001.96 161.0 m E Sg      2011/11/02 10:25:16.5   0.0                          T                1.9  .24 Ml 2.1         4782895
CAF   002.54 265.2 m E Sg      2011/11/02 10:25:34.3  -0.3                          T                3.0  .23 Ml 2.4         4782891
TCF   002.63 295.8 m E Sg      2011/11/02 10:25:37.6   0.1                          T                2.4  .26 Ml 2.3         4781248
RJF   002.91 273.6 m E Sg      2011/11/02 10:25:45.6  -0.4                          T                5.6  .38 Ml 2.2         4782890

.
EVENT     265875
    Date      Time       Latitude Longitude    Depth    Ndef Nsta Gap    Mag1  N    Mag2  N    Mag3  N   Author         ID
       rms   OT_Error      Smajor Sminor Az        Err   mdist  Mdist     Err        Err        Err      Quality

2011/11/02 19:08:58.5     48.5567    8.6991     10.0      10    3 128  Ml 1.6  3  Md 1.7  1              js067245    265895

      0.22   +-  0.06       1.2     .8  168.76 +-  0.0    0.13   1.66   +-0.3      +-                    m i ke

GERMANY
Sta     Dist  EvAz     Phase      Date       Time     TRes  Azim  AzRes  Slow  SRes Def   SNR       Amp   Per   Mag1   Mag2       ID
CDF   000.96 261.8 m E Pn      2011/11/02 19:09:16.5  -0.1                          T                                        4780627
CDF   000.96 261.8 m E Sg      2011/11/02 19:09:29.2   0.1                          T                                Md 1.7  4780629
CDF   000.96 261.8 m E Sn      2011/11/02 19:09:29.5   0.1                          T                2.2  .21 Ml 1.9         4780628
HINF  001.44 239.7 m E Sg      2011/11/02 19:09:44.2   0.1                          T                 .4  .19 Ml 1.4         4780626
HAU   001.66 251.5 m E Sg      2011/11/02 19:09:50.7  -0.3                          T                  1  .25 Ml 1.5         4782900

.
