EVENT     296301
    Date      Time       Latitude Longitude    Depth    Ndef Nsta Gap    Mag1  N    Mag2  N    Mag3  N   Author         ID
       rms   OT_Error      Smajor Sminor Az        Err   mdist  Mdist     Err        Err        Err      Quality

2013/04/18 03:02:17.4     45.9689    2.7990      3.0 f   107   33 052  Ml 2.5 37  Md 2.3  3              bulletin    296401
                                                                                                         _ldg
      0.89   +-  0.04        .8     .7  103.51 +-  0.0    0.15   4.77   +-0.4      +-0.1                 m i ke

FRANCE
Sta     Dist  EvAz     Phase      Date       Time     TRes  Azim  AzRes  Slow  SRes Def   SNR       Amp   Per   Mag1   Mag2       ID
TCF   000.52 308.1 m E Pg      2013/04/18 03:02:27.1  -0.3                          T                                        5260644
TCF   000.52 308.1 m E Pn      2013/04/18 03:02:30.1   0.4                          T                                        5260691
TCF   000.52 308.1 m E Sg      2013/04/18 03:02:34.3   0.0                          T                7.5  .18        Md 2.3  5260637
BGF   000.59 003.2 m E Pg      2013/04/18 03:02:28.6  -0.1                          T                                        5260641
BGF   000.59 003.2 m E Pn      2013/04/18 03:02:30.8  -0.3                          T                                        5260686
BGF   000.59 003.2 m E Sg      2013/04/18 03:02:36.8   0.4                          T               44.4  .22        Md 2.4  5260685
AVF   000.91 024.8 m E Pg      2013/04/18 03:02:34.2  -0.3                          T                                        5260643
AVF   000.91 024.8 m E Pn      2013/04/18 03:02:35.0  -0.5                          T   001.0                                5260646
AVF   000.91 024.8 m E Sg      2013/04/18 03:02:46.2  -0.1                          T               16.8  .22 Ml 2.7         5260638
SMF   000.99 046.5 m E Pg      2013/04/18 03:02:35.8  -0.2                          T                                        5260642
SMF   000.99 046.5 m E Sg      2013/04/18 03:02:48.6  -0.3                          T   001.0         22  .24 Ml 2.8         5260667
SMF   000.99 046.5 m E Sn      2013/04/18 03:02:50.1  -0.3                          T               33.4  .36 Ml 2.8         5260690
RJF   001.12 234.0 m E Pg      2013/04/18 03:02:38.3  -0.1                          T   001.0                                5260645
RJF   001.12 234.0 m E Sg      2013/04/18 03:02:52.3  -0.6                          T               23.5  .20 Ml 2.6         5260684
CAF   001.16 206.6 m E Pg      2013/04/18 03:02:39.3   0.0                          T   001.0                                5260648
CAF   001.16 206.6 m E Sg      2013/04/18 03:02:53.8  -0.5                          T   001.0       54.2  .20 Ml 3.3         5260649
SSF   001.20 023.8 m E Pn      2013/04/18 03:02:39.3  -0.2                          T   001.0                                5260668
SSF   001.20 023.8 m E Pg      2013/04/18 03:02:39.8   0.0                          T                                        5260640
SSF   001.20 023.8 m E Sg      2013/04/18 03:02:55.3  -0.1                          T               16.7  .21 Ml 2.9         5260639
HYF   001.30 355.2 m E Pg      2013/04/18 03:02:41.9   0.1                          T                                        5260689
HYF   001.30 355.2 m E Sg      2013/04/18 03:02:58.8   0.1                          T                                        5260687
LOR   001.49 029.0 m E Pn      2013/04/18 03:02:43.7   0.2 218.8  9.1               T   001.0                                5260660
LOR   001.49 029.0 m E Pg      2013/04/18 03:02:45.2  -0.1 211.4  1.7               T   001.0                                5260661
LOR   001.49 029.0 m E Sn      2013/04/18 03:03:02.2  -0.1 204.8  -4.9              T   001.0       27.2  .24 Ml 3.1         5260662
LOR   001.49 029.0 m E Sg      2013/04/18 03:03:04.3  -0.2 209.7  0.0               T               19.9  .21 Ml 3.0         5260693
VIVF  001.73 129.5 m E Pn      2013/04/18 03:02:46.5  -0.1                          T                                        5261912
VIVF  001.73 129.5 m E Pg      2013/04/18 03:02:50.2   0.6                          T   001.0                                5260681
VIVF  001.73 129.5 m E Sg      2013/04/18 03:03:11.5  -0.4                          T   001.0        3.5  .20 Ml 2.4         5260682
LFF   001.78 235.3 m E Pn      2013/04/18 03:02:47.6   0.3                          T   001.0                                5260657
LFF   001.78 235.3 m E Pg      2013/04/18 03:02:50.5   0.0                          T   001.0                                5260658
LFF   001.78 235.3 m E Sg      2013/04/18 03:03:13.8   0.4                          T   001.0       20.4  .24 Ml 2.9         5260659
LASF  002.04 158.0 m E Pn      2013/04/18 03:02:51.0   0.1                          T   001.0                                5260654
LASF  002.04 158.0 m E Pg      2013/04/18 03:02:55.2  -0.2                          T                                        5261913
LASF  002.04 158.0 m E Sg      2013/04/18 03:03:21.3  -0.2                          T   001.0        6.4  .32 Ml 2.5         5260655
MFF   002.14 288.3 m E Pn      2013/04/18 03:02:52.3   0.1                          T   001.0                                5260665
MFF   002.14 288.3 m E Sn      2013/04/18 03:03:18.1   0.4                          T   001.0        9.5  .20 Ml 3.1         5260666
ORIF  002.41 114.7 m E Pn      2013/04/18 03:02:55.5  -0.5                          T                                        5261911
ORIF  002.41 114.7 m E Pg      2013/04/18 03:03:01.8  -0.5                          T                                        5261910
ORIF  002.41 114.7 m E Sg      2013/04/18 03:03:33.3   0.0                          T                  1  .25 Ml 1.9         5261909
CABF  002.37 073.1 m E Pn      2013/04/18 03:02:55.5   0.0                          T   001.0                                5260670
CABF  002.37 073.1 m E Pg      2013/04/18 03:03:01.0   0.5                          T   001.0                                5260671
CABF  002.37 073.1 m E Sn      2013/04/18 03:03:23.1  -0.3                          T   001.0                                5260672
CABF  002.37 073.1 m E Sg      2013/04/18 03:03:31.1  -0.9                          T   001.0        3.4  .28 Ml 2.4         5260673
MTLF  002.66 189.2 m E Pn      2013/04/18 03:02:59.7   0.3                          T                                        5261914
MTLF  002.66 189.2 m E Pg      2013/04/18 03:03:06.5  -0.3                          T   001.0                                5260676
MTLF  002.66 189.2 m E Sg      2013/04/18 03:03:40.2  -0.8                          T   001.0        6.6  .24 Ml 2.8         5260677
SMRF  002.80 134.3 m E Pn      2013/04/18 03:03:01.1  -0.3                          T                                        5261903
SMRF  002.80 134.3 m E Sg      2013/04/18 03:03:44.8  -0.7                          T                2.8  .51 Ml 2.1         5261902
LPL   002.79 097.9 m E Pn      2013/04/18 03:03:01.2  -0.2                          T                                        5261908
LPL   002.79 097.9 m E Pg      2013/04/18 03:03:09.4   0.0                          T                                        5261907
LPL   002.79 097.9 m E Sg      2013/04/18 03:03:45.1  -0.3                          T   001.0         .5  .21 Ml 1.7         5260664
LPG   002.81 098.2 m E Pn      2013/04/18 03:03:01.5  -0.2                          T                                        5261906
LPG   002.81 098.2 m E Pg      2013/04/18 03:03:09.9   0.1                          T                                        5261905
LPG   002.81 098.2 m E Sn      2013/04/18 03:03:34.6   0.5                          T                                        5261904
LPG   002.81 098.2 m E Sg      2013/04/18 03:03:45.4  -0.6                          T   001.0         .8  .24 Ml 1.9         5260663
MEZF  002.96 030.4 m E Pn      2013/04/18 03:03:03.2  -0.2                          T                                        5261928
MEZF  002.96 030.4 m E Pg      2013/04/18 03:03:12.9   0.6 212.8  0.8               T                                        5260694
MEZF  002.96 030.4 m E Sg      2013/04/18 03:03:50.7   0.3 217.0  5.0               T   001.0        8.3  .31 Ml 2.8         5260675
HAU   003.17 048.7 m E Pn      2013/04/18 03:03:06.2  -0.1                          T   001.0        4.3  .23 Ml 2.5         5260652
HAU   003.17 048.7 m E Pg      2013/04/18 03:03:16.3   0.1                          T                                        5261900
HAU   003.17 048.7 m E Sg      2013/04/18 03:03:56.6  -0.3                          T   001.0        4.3  .24 Ml 2.5         5260653
PAGF  003.27 036.5 m E Pn      2013/04/18 03:03:07.6   0.0                          T                                        5261931
PAGF  003.27 036.5 m E Pg      2013/04/18 03:03:18.3   0.3                          T                                        5261930
PAGF  003.27 036.5 m E Sg      2013/04/18 03:03:59.2  -0.7                          T                2.7  .24 Ml 2.5         5261929
LDF   003.29 323.9 m E Pn      2013/04/18 03:03:08.2   0.3                          T                                        5261925
LDF   003.29 323.9 m E Sn      2013/04/18 03:03:45.2  -0.1                          T   001.0       13.3  .88 Ml 2.6         5260656
LDF   003.29 323.9 m E Sg      2013/04/18 03:03:59.9  -0.9                          T                 .8  .19 Ml 2.1         5261924
EPF   003.42 211.8 m E Pn      2013/04/18 03:03:09.8   0.0                          T                                        5260698
EPF   003.42 211.8 m E Sn      2013/04/18 03:03:48.2  -0.3                          T                                        5260697
EPF   003.42 211.8 m E Sg      2013/04/18 03:04:04.7  -0.2                          T   001.0        2.9  .24 Ml 2.6         5260650
GRR   003.48 315.5 m E Pn      2013/04/18 03:03:10.8   0.4                          T                                        5261922
GRR   003.48 315.5 m E Sn      2013/04/18 03:03:49.4  -0.2                          T   001.0          3  .28 Ml 2.4         5260651
GRR   003.48 315.5 m E Sg      2013/04/18 03:04:06.9   0.5                          T                2.7  .24 Ml 2.4         5261923
FLN   003.58 322.6 m E Pn      2013/04/18 03:03:11.7   0.0                          T                                        5261927
FLN   003.58 322.6 m E Sg      2013/04/18 03:04:09.6   0.1 146.6  6.4               T                2.9  .28 Ml 2.4         5261926
CDF   003.91 049.7 m E Pn      2013/04/18 03:03:17.0   0.5                          T                                        5261933
CDF   003.91 049.7 m E Sg      2013/04/18 03:04:19.9  -0.2                          T                1.9  .30 Ml 2.6         5261932
SJPF  004.05 226.6 m E Pn      2013/04/18 03:03:18.9   0.5                          T                                        5261915
SJPF  004.05 226.6 m E Sn      2013/04/18 03:04:03.6   0.1                          T                                        5261901
SJPF  004.05 226.6 m E Sg      2013/04/18 03:04:24.2  -0.2                          T   001.0        8.2 1.00 Ml 2.6         5260680
BAIF  004.20 012.5 m E Pn      2013/04/18 03:03:20.3   0.0                          T                                        5260692
SGMF  004.31 303.9 m E Pn      2013/04/18 03:03:21.7  -0.1                          T   001.0                                5260679
SGMF  004.31 303.9 m E Pg      2013/04/18 03:03:37.7   0.5                          T                                        5261920
SGMF  004.31 303.9 m E Sg      2013/04/18 03:04:31.8  -0.7                          T                1.1  .27 Ml 2.3         5261919
QUIF  004.53 297.6 m E Pn      2013/04/18 03:03:25.2   0.5                          T                                        5261918
QUIF  004.53 297.6 m E Sn      2013/04/18 03:04:14.2  -0.5                          T                                        5261916
QUIF  004.53 297.6 m E Sg      2013/04/18 03:04:39.5   0.3                          T                1.7  .25 Ml 2.6         5261917
ROSF  004.77 301.9 m E Pn      2013/04/18 03:03:27.5  -0.5                          T   001.0                                5260678
ROSF  004.77 301.9 m E Sg      2013/04/18 03:04:46.2  -0.7                          T                 .6  .24 Ml 2.2         5261921
HINF  003.34 054.9 m E Sg      2013/04/18 03:04:01.7  -0.5                          T   001.0        3.4  .24 Ml 2.7         5260674

.
EVENT     296303
    Date      Time       Latitude Longitude    Depth    Ndef Nsta Gap    Mag1  N    Mag2  N    Mag3  N   Author         ID
       rms   OT_Error      Smajor Sminor Az        Err   mdist  Mdist     Err        Err        Err      Quality

2013/04/18 03:26:14.6     44.5573    8.5376     10.0      35    8 185  Ml 2.0  5  Md 2.3  1              bulletin    296403
                                                                                                         _ldg
      0.22   +-  0.09       1.6    1.0   88.76 +-  0.0    0.02   2.21   +-0.4      +-                    m i ke

NORTHERN ITALY
Sta     Dist  EvAz     Phase      Date       Time     TRes  Azim  AzRes  Slow  SRes Def   SNR       Amp   Per   Mag1   Mag2       ID
SBF   001.05 229.2 m E Pg      2013/04/18 03:26:34.5   0.0                          T                                        5260829
SBF   001.05 229.2 m E Sg      2013/04/18 03:26:48.6   0.3                          T                7.9  .28 Ml 2.3 Md 2.3  5260826
MBDF  001.27 278.3 m E Pg      2013/04/18 03:26:38.6   0.0                          T                                        5262581
MBDF  001.27 278.3 m E Sg      2013/04/18 03:26:55.3   0.2                          T                1.2  .31 Ml 1.5         5262582
LPG   001.58 307.2 m E Pg      2013/04/18 03:26:44.2  -0.2                          T                                        5260821
LPL   001.60 307.5 m E Pg      2013/04/18 03:26:44.4  -0.4                          T                                        5260820
LPL   001.60 307.5 m E Sg      2013/04/18 03:27:05.4   0.0                          T                1.4  .39 Ml 1.6         5260819
FRF   001.69 234.5 m E Pg      2013/04/18 03:26:46.2   0.0                          T                                        5260828
FRF   001.69 234.5 m E Sg      2013/04/18 03:27:08.3   0.4                          T                5.7  .32 Ml 2.4         5260825
LMR   001.91 230.9 m E P       2013/04/18 03:26:47.5  -0.2                          T                                        5260827
LMR   001.91 230.9 m E Pg      2013/04/18 03:26:50.2   0.1                          T                                        5262578
LMR   001.91 230.9 m E Sg      2013/04/18 03:27:15.2   0.4                          T                2.9  .24 Ml 2.3         5260824
ORIF  001.93 281.7 m E Pg      2013/04/18 03:26:50.6   0.0                          T                                        5262580
SMRF  002.21 255.8 m E Pg      2013/04/18 03:26:55.9   0.2                          T                                        5262579
SMRF  002.21 255.8 m E Sg      2013/04/18 03:27:24.4   0.3                          T                                        5260822

.
