EVENT     298755
    Date      Time       Latitude Longitude    Depth    Ndef Nsta Gap    Mag1  N    Mag2  N    Mag3  N   Author         ID
       rms   OT_Error      Smajor Sminor Az        Err   mdist  Mdist     Err        Err        Err      Quality

2013/05/18 15:30:43.2     46.4838    2.1593     15.0      30   11 107  Ml 1.8  9  Md 1.8  3              bulletin    298855
                                                                                                         _ldg
      0.46   +-  0.06       1.4     .9  139.49 +-  0.0    0.20   1.84   +-0.3      +-0.0                 m i ke

FRANCE
Sta     Dist  EvAz     Phase      Date       Time     TRes  Azim  AzRes  Slow  SRes Def   SNR       Amp   Per   Mag1   Mag2       ID
TCF   000.20 169.8 m E Pg      2013/05/18 15:30:47.9   0.0                          T                                        5285174
TCF   000.20 169.8 m E Sg      2013/05/18 15:30:50.9  -0.3                          T               26.3  .20        Md 1.8  5285173
BGF   000.48 080.9 m E Pg      2013/05/18 15:30:52.8   0.1                          T                                        5285171
BGF   000.48 080.9 m E Sg      2013/05/18 15:30:59.3   0.1                          T                6.8  .26        Md 1.8  5285170
HYF   000.85 022.6 m E Pg      2013/05/18 15:30:58.8  -0.6                          T                                        5285180
HYF   000.85 022.6 m E Sg      2013/05/18 15:31:11.0   0.4                          T               26.1  .28                5285181
AVF   000.88 069.1 m E Pn      2013/05/18 15:30:59.9   0.5                          T                                        5285172
AVF   000.88 069.1 m E Sg      2013/05/18 15:31:11.4   0.0                          T                1.6  .25 Ml 1.6         5285183
SSF   001.09 057.5 m E Pg      2013/05/18 15:31:03.7   0.0                          T                                        5285821
SSF   001.09 057.5 m E Sn      2013/05/18 15:31:16.4   0.1                          T                 .9  .19 Ml 1.6         5285818
SMF   001.17 081.5 m E Pg      2013/05/18 15:31:05.3   0.1                          T                                        5285184
SMF   001.17 081.5 m E Sg      2013/05/18 15:31:20.6   0.1                          T                 .9  .18 Ml 1.6         5285182
RJF   001.26 201.1 m E Pg      2013/05/18 15:31:06.9   0.0                          T                                        5285822
RJF   001.26 201.1 m E Sn      2013/05/18 15:31:20.0  -0.4                          T                                        5285827
RJF   001.26 201.1 m E Sg      2013/05/18 15:31:22.9  -0.4                          T                3.7  .30 Ml 1.7         5285179
CAF   001.56 182.5 m E Pn      2013/05/18 15:31:09.2   0.4                          T                                        5285177
CAF   001.56 182.5 m E Sg      2013/05/18 15:31:32.0  -0.6                          T                                        5285178
LOR   001.41 055.4 m E Pg      2013/05/18 15:31:09.4  -0.2 240.7  4.0               T                                        5285819
LOR   001.41 055.4 m E Sn      2013/05/18 15:31:23.8   0.0                          T                                        5285817
LOR   001.41 055.4 m E Sg      2013/05/18 15:31:27.6  -0.1                          T                1.5  .33 Ml 1.7         5285820
MFF   001.60 275.1 m E Pn      2013/05/18 15:31:09.5   0.3                          T                                        5285825
MFF   001.60 275.1 m E Sn      2013/05/18 15:31:28.4   0.1                          T                                        5285826
MFF   001.60 275.1 m E Sg      2013/05/18 15:31:32.1  -1.5                          T                2.7  .25 Ml 2.3         5285175
LFF   001.84 213.3 m E Pg      2013/05/18 15:31:17.3  -0.1                          T                                        5285823
LFF   001.84 213.3 m E Sg      2013/05/18 15:31:40.8  -0.3                          T                1.2  .26 Ml 1.7         5285824

.
EVENT     298768
    Date      Time       Latitude Longitude    Depth    Ndef Nsta Gap    Mag1  N    Mag2  N    Mag3  N   Author         ID
       rms   OT_Error      Smajor Sminor Az        Err   mdist  Mdist     Err        Err        Err      Quality

2013/05/18 15:40:26.9     51.4687   16.1393      1.0 f    54   10 144  Ml 3.4  9                         bulletin    298868
                                                                                                         _ldg
      0.78   +-  0.22       5.7    2.6   12.53 +-  0.0    1.37  12.14   +-0.3                            m i sr

POLAND
Sta     Dist  EvAz     Phase      Date       Time     TRes  Azim  AzRes  Slow  SRes Def   SNR       Amp   Per   Mag1   Mag2       ID
CDF   006.49 245.3 m E Pn      2013/05/18 15:42:02.0   0.7                          T                                        5285891
CDF   006.49 245.3 m E Pg      2013/05/18 15:42:27.4   0.5                          T                                        5285890
CDF   006.49 245.3 m E Sg      2013/05/18 15:43:50.1   0.1                          T               33.3  .92 Ml 3.8         5285874
HINF  007.05 242.4 m E Pn      2013/05/18 15:42:09.4   0.5                          T                                        5285885
HINF  007.05 242.4 m E Pg      2013/05/18 15:42:36.9  -0.3                          T                                        5285884
HINF  007.05 242.4 m E Sn      2013/05/18 15:43:24.4  -0.5                          T                                        5285883
HINF  007.05 242.4 m E Sg      2013/05/18 15:44:08.4   0.9                          T                6.4  .48 Ml 3.4         5285882
HAU   007.23 245.2 m E Pn      2013/05/18 15:42:11.6   0.4                          T                                        5285879
HAU   007.23 245.2 m E Pg      2013/05/18 15:42:40.7   0.2                          T                                        5285880
HAU   007.23 245.2 m E Sg      2013/05/18 15:44:12.8  -0.3                          T                8.8  .48 Ml 3.3         5285881
PAGF  007.32 250.6 m E Pn      2013/05/18 15:42:12.7   0.3  68.2  5.6               T                                        5285887
PAGF  007.32 250.6 m E Pg      2013/05/18 15:42:43.9   1.9                          T                                        5285873
PAGF  007.32 250.6 m E Sg      2013/05/18 15:44:15.5  -0.3                          T                3.7  .35 Ml 3.3         5285872
MEZF  007.74 251.8 m E Pn      2013/05/18 15:42:18.2   0.0                          T                                        5285866
MEZF  007.74 251.8 m E Pg      2013/05/18 15:42:50.7   0.9                          T                                        5285868
MEZF  007.74 251.8 m E Sn      2013/05/18 15:43:41.8   0.4                          T                                        5285867
MEZF  007.74 251.8 m E Sg      2013/05/18 15:44:29.8   0.8                          T                3.7  .35 Ml 3.4         5285875
SFTF  007.89 249.9 m E Pn      2013/05/18 15:42:20.7   0.5                          T                                        5285878
SFTF  007.89 249.9 m E Pg      2013/05/18 15:42:53.0   0.4                          T                                        5285886
SFTF  007.89 249.9 m E Sn      2013/05/18 15:43:44.5  -0.4  69.9  8.5               T                                        5285877
SFTF  007.89 249.9 m E Sg      2013/05/18 15:44:32.6  -0.9                          T                5.2  .47 Ml 3.5         5285876
LOR   009.05 247.1 m E Pn      2013/05/18 15:42:36.3   0.3  66.8  9.0               T                                        5285888
SSF   009.36 246.8 m E Pn      2013/05/18 15:42:40.4   0.1                          T                                        5285889
BAIF  007.70 264.1 m E Pg      2013/05/18 15:42:49.3   0.3                          T                                        5285869
BAIF  007.70 264.1 m E Sg      2013/05/18 15:44:27.7   0.0                          T               70.9 1.62 Ml 4.0         5285870
GIVF  007.30 263.6 m E Sg      2013/05/18 15:44:15.3  -0.1                          T                4.0  .38 Ml 3.3         5285871

.
EVENT     298757
    Date      Time       Latitude Longitude    Depth    Ndef Nsta Gap    Mag1  N    Mag2  N    Mag3  N   Author         ID
       rms   OT_Error      Smajor Sminor Az        Err   mdist  Mdist     Err        Err        Err      Quality

2013/05/18 18:11:25.7     44.8743    6.6490      2.0      37   11 066  Ml 1.6  7  Md 1.8  4              bulletin    298857
                                                                                                         _ldg
      0.31   +-  0.04       1.0     .7   83.83 +-  0.0    0.11   3.08   +-0.3      +-0.1                 m i ke

FRANCE
Sta     Dist  EvAz     Phase      Date       Time     TRes  Azim  AzRes  Slow  SRes Def   SNR       Amp   Per   Mag1   Mag2       ID
MBDF  000.17 149.4 m E Pg      2013/05/18 18:11:29.2  -0.2                          T                                        5285244
MBDF  000.17 149.4 m E Sg      2013/05/18 18:11:31.8   0.0                          T               18.2  .18        Md 1.9  5285243
ORIF  000.55 274.9 m E Pg      2013/05/18 18:11:36.3   0.1                          T                                        5285242
ORIF  000.55 274.9 m E Sg      2013/05/18 18:11:43.4   0.0                          T                7.4  .30        Md 1.8  5285241
LPG   000.63 006.6 m E Pg      2013/05/18 18:11:37.7  -0.2                          T                                        5285238
LPG   000.63 006.6 m E Sg      2013/05/18 18:11:46.4   0.3                          T                2.2  .26        Md 1.7  5285237
LPL   000.64 005.2 m E Pg      2013/05/18 18:11:38.5   0.4                          T                                        5285239
LPL   000.64 005.2 m E Sg      2013/05/18 18:11:46.7   0.1                          T                3.3  .34        Md 1.8  5285240
SBF   001.16 150.6 m E Pg      2013/05/18 18:11:47.0  -0.4                          T                                        5285893
SBF   001.16 150.6 m E Sg      2013/05/18 18:12:02.2  -0.2                          T                2.1  .25 Ml 1.8         5285892
SMRF  001.18 221.0 m E Pg      2013/05/18 18:11:47.2  -0.6                          T                                        5289946
SMRF  001.18 221.0 m E Sg      2013/05/18 18:12:03.3   0.2                          T                 .8  .25 Ml 1.4         5289945
FRF   001.31 180.1 m E Pg      2013/05/18 18:11:49.7  -0.5                          T                                        5289944
FRF   001.31 180.1 m E Sg      2013/05/18 18:12:07.0  -0.1                          T                 .7  .14 Ml 1.7         5289943
LMR   001.54 183.8 m E Pn      2013/05/18 18:11:52.4   0.0                          T                                        5289942
LMR   001.54 183.8 m E Pg      2013/05/18 18:11:54.6   0.2                          T                                        5289941
LMR   001.54 183.8 m E Sg      2013/05/18 18:12:14.3  -0.1                          T                  1  .24 Ml 1.7         5289940
CABF  001.78 347.4 m E Pn      2013/05/18 18:11:55.8   0.0                          T                                        5289971
CABF  001.78 347.4 m E Sn      2013/05/18 18:12:17.9   0.2                          T                 .2  .25 Ml 1.0         5289970
PGF   002.88 142.9 m E Pn      2013/05/18 18:12:11.3   0.4                          T                                        5289939
PGF   002.88 142.9 m E Sn      2013/05/18 18:12:44.1   0.0                          T                 .4  .25 Ml 1.9         5289938
LOR   003.08 321.9 m E Pn      2013/05/18 18:12:13.1  -0.3                          T                                        5289969
LOR   003.08 321.9 m E Sg      2013/05/18 18:13:02.5   0.1                          T                 .4  .21 Ml 1.7         5289968

.
EVENT     298758
    Date      Time       Latitude Longitude    Depth    Ndef Nsta Gap    Mag1  N    Mag2  N    Mag3  N   Author         ID
       rms   OT_Error      Smajor Sminor Az        Err   mdist  Mdist     Err        Err        Err      Quality

2013/05/18 18:14:53.6     42.7379   -1.7012      2.0      37    7 103  Ml 2.0  7  Md 2.0  2              bulletin    298858
                                                                                                         _ldg
      1.06   +-  0.17       2.8    2.4   72.77 +-  0.0    0.10   3.49   +-0.3      +-0.0                 m i ke

PYRENEES
Sta     Dist  EvAz     Phase      Date       Time     TRes  Azim  AzRes  Slow  SRes Def   SNR       Amp   Per   Mag1   Mag2       ID
SJPF  000.51 042.8 m E Pg      2013/05/18 18:15:03.3  -0.1                          T                                        5285271
SJPF  000.51 042.8 m E Sg      2013/05/18 18:15:10.3   0.2                          T               30.2  .26        Md 2.1  5285277
ETSF  000.86 078.8 m E Pg      2013/05/18 18:15:09.4  -0.3                          T                                        5285270
ETSF  000.86 078.8 m E Sg      2013/05/18 18:15:20.8   0.0                          T               10.1  .40 Ml 2.2 Md 2.0  5285276
EPF   001.53 078.3 m E Pg      2013/05/18 18:15:21.9  -0.2                          T                                        5285274
EPF   001.53 078.3 m E Sg      2013/05/18 18:15:41.9   0.1                          T                9.0  .38 Ml 2.4         5285275
LFF   002.82 037.9 m E Pn      2013/05/18 18:15:37.9   0.1                          T                                        5285895
LFF   002.82 037.9 m E Pg      2013/05/18 18:15:45.8  -0.1                          T                                        5285896
LFF   002.82 037.9 m E Sn      2013/05/18 18:16:10.4   0.1                          T                                        5285897
LFF   002.82 037.9 m E Sg      2013/05/18 18:16:22.3   0.2                          T                1.5  .30 Ml 1.9         5285898
MTLF  002.94 076.8 m E Pn      2013/05/18 18:15:39.8   0.5                          T                                        5290056
MTLF  002.94 076.8 m E Sn      2013/05/18 18:16:13.7   0.6                          T                 .8  .33 Ml 1.8         5290055
RJF   003.46 041.0 m E Pn      2013/05/18 18:15:46.5   0.1                          T                                        5285279
RJF   003.46 041.0 m E Sn      2013/05/18 18:16:25.9   0.3                          T                                        5285278
RJF   003.46 041.0 m E Sg      2013/05/18 18:16:42.4   0.3                          T                 .6  .21 Ml 1.7         5285894
CAF   003.49 050.0 m E Pn      2013/05/18 18:15:47.3   0.3                          T                                        5290054
CAF   003.49 050.0 m E Sn      2013/05/18 18:16:25.6  -0.9                          T                 .8  .24 Ml 2.1         5290053

.
EVENT     298760
    Date      Time       Latitude Longitude    Depth    Ndef Nsta Gap    Mag1  N    Mag2  N    Mag3  N   Author         ID
       rms   OT_Error      Smajor Sminor Az        Err   mdist  Mdist     Err        Err        Err      Quality

2013/05/18 21:15:19.1     43.1603    -.0961      2.0      16    6 120  Ml 1.3  4  Md 1.4  2              bulletin    298860
                                                                                                         _ldg
      0.54   +-  0.07       2.2    1.2  166.70 +-  0.0    0.34   2.44   +-0.1      +-0.1                 m i ke

PYRENEES
Sta     Dist  EvAz     Phase      Date       Time     TRes  Azim  AzRes  Slow  SRes Def   SNR       Amp   Per   Mag1   Mag2       ID
EPF   000.34 112.0 m E Pg      2013/05/18 21:15:25.7  -0.2                          T                                        5285316
EPF   000.34 112.0 m E Sg      2013/05/18 21:15:30.2  -0.4                          T                2.9  .16        Md 1.4  5285315
ETSF  000.43 232.6 m E Pg      2013/05/18 21:15:27.3  -0.1                          T                                        5285314
ETSF  000.43 232.6 m E Sg      2013/05/18 21:15:32.7  -0.5                          T                2.0  .22        Md 1.3  5285313
SJPF  000.83 267.1 m E Pg      2013/05/18 21:15:34.7  -0.1                          T                                        5285311
SJPF  000.83 267.1 m E Sg      2013/05/18 21:15:45.3  -0.2                          T                 .3  .12                5285312
MTLF  001.70 083.1 m E Pn      2013/05/18 21:15:48.4   0.3                          T                                        5290063
MTLF  001.70 083.1 m E Sn      2013/05/18 21:16:08.8  -0.4                          T                                        5290062
MTLF  001.70 083.1 m E Sg      2013/05/18 21:16:12.5  -0.3                          T                 .2  .22 Ml 1.2         5290061
LFF   001.88 018.4 m E Pn      2013/05/18 21:15:50.5   0.0                          T                                        5290060
LFF   001.88 018.4 m E Sn      2013/05/18 21:16:13.3  -0.1                          T                 .6  .24 Ml 1.4         5290059
RJF   002.44 027.8 m E Pn      2013/05/18 21:15:57.8  -0.3                          T                                        5290058
RJF   002.44 027.8 m E Sn      2013/05/18 21:16:27.1   0.4                          T                 .3  .24 Ml 1.1         5290057

.
