BEGIN GSE2.0
MSG_TYPE DATA
MSG_ID 09-JAN-1312:40:44  FRA_NDC
E-MAIL
DATA_TYPE BULLETIN
Reviewed Bulletin (REB) # P2012-050  from French NDC for regional phases     PERIOD 12 DEC 2012 TO 18 DEC 2012 Cenalt JP S
EVENT     288344
    Date      Time       Latitude Longitude    Depth    Ndef Nsta Gap    Mag1  N    Mag2  N    Mag3  N   Author         ID
       rms   OT_Error      Smajor Sminor Az        Err   mdist  Mdist     Err        Err        Err      Quality

2012/12/12 01:21:51.0     42.9596     .1093     10.0 f    69   13 043  Ml 2.2 11  Md 2.3  2              bulletin    288444
                                                                                                         _ldg
      0.64   +-  0.07       1.5    1.3   34.95 +-  0.0    0.09   4.67   +-0.3      +-0.0                 m i ke

PYRENEES
Sta     Dist  EvAz     Phase      Date       Time     TRes  Azim  AzRes  Slow  SRes Def   SNR       Amp   Per   Mag1   Mag2       ID
EPF   000.18 067.3 m E Pg      2012/12/12 01:21:54.9  -0.2                          T                                        5136805
EPF   000.18 067.3 m E Sg      2012/12/12 01:21:57.9   0.0                          T              111.1  .19        Md 2.3  5136804
ETSF  000.49 263.1 m E Pg      2012/12/12 01:22:00.4  -0.2                          T                                        5136803
ETSF  000.49 263.1 m E Sg      2012/12/12 01:22:07.1  -0.2                          T               14.7  .18        Md 2.3  5136802
SJPF  000.99 279.4 m E Pg      2012/12/12 01:22:09.4  -0.2                          T                                        5136801
SJPF  000.99 279.4 m E Sg      2012/12/12 01:22:22.4  -0.1                          T                3.8  .23 Ml 2.0         5136800
MTLF  001.59 075.4 m E Pn      2012/12/12 01:22:18.2   0.6                          T                                        5136835
MTLF  001.59 075.4 m E Pg      2012/12/12 01:22:20.1  -0.5                          T                                        5136837
MTLF  001.59 075.4 m E Sg      2012/12/12 01:22:40.8  -0.3                          T                3.4  .26 Ml 2.2         5136836
LFF   002.03 012.7 m E Pg      2012/12/12 01:22:28.4  -0.4                          T                                        5136827
LFF   002.03 012.7 m E Sn      2012/12/12 01:22:50.0   2.5                          T                                        5136826
LFF   002.03 012.7 m E Sg      2012/12/12 01:22:54.8  -0.2                          T                6.9  .30 Ml 2.4         5136825
CAF   002.42 035.0 m E Pn      2012/12/12 01:22:29.6   0.7                          T                                        5136831
CAF   002.42 035.0 m E Pg      2012/12/12 01:22:35.2  -0.8                          T                                        5136830
CAF   002.42 035.0 m E Sn      2012/12/12 01:22:57.9   1.1                          T                                        5136828
CAF   002.42 035.0 m E Sg      2012/12/12 01:23:06.8  -0.4                          T                1.1  .21 Ml 2.0         5136829
RJF   002.55 022.9 m E Pn      2012/12/12 01:22:31.8   1.1                          T                                        5136823
RJF   002.55 022.9 m E Pg      2012/12/12 01:22:38.0  -0.4                          T                                        5136824
RJF   002.55 022.9 m E Sn      2012/12/12 01:23:01.2   1.2                          T                                        5137430
RJF   002.55 022.9 m E Sg      2012/12/12 01:23:10.8  -0.5                          T                1.2  .15 Ml 1.9         5136822
LASF  002.95 066.5 m E Pn      2012/12/12 01:22:36.6   0.5                          T                                        5136833
LASF  002.95 066.5 m E Pg      2012/12/12 01:22:44.9  -0.8                          T                                        5136834
LASF  002.95 066.5 m E Sg      2012/12/12 01:23:23.4  -0.1                          T                 .9  .29 Ml 1.9         5136832
MFF   003.65 357.2 m E Pn      2012/12/12 01:22:45.7   0.2                          T                                        5136810
MFF   003.65 357.2 m E Pg      2012/12/12 01:22:57.9  -0.6                          T                                        5136809
MFF   003.65 357.2 m E Sg      2012/12/12 01:23:44.4  -0.9                          T                 .3  .22 Ml 1.9         5136808
TCF   003.65 023.5 m E Pn      2012/12/12 01:22:46.7   1.0                          T                                        5136813
TCF   003.65 023.5 m E Pg      2012/12/12 01:22:58.2  -0.5                          T                                        5136812
TCF   003.65 023.5 m E Sg      2012/12/12 01:23:45.7   0.2                          T                 .4  .18 Ml 1.9         5136811
BGF   004.09 027.5 m E Pn      2012/12/12 01:22:52.7   1.1                          T                                        5136819
BGF   004.09 027.5 m E Pg      2012/12/12 01:23:07.5   0.8                          T                                        5136821
BGF   004.09 027.5 m E Sg      2012/12/12 01:23:58.7  -0.5                          T                1.4  .30 Ml 2.3         5136820
AVF   004.47 029.9 m E Pn      2012/12/12 01:22:57.6   0.8                          T                                        5136815
AVF   004.47 029.9 m E Sn      2012/12/12 01:23:46.8   1.1                          T                7.5  .43 Ml 3.0         5136814
HYF   004.67 021.7 m E Pn      2012/12/12 01:23:00.4   0.9                          T                                        5136818
HYF   004.67 021.7 m E Pg      2012/12/12 01:23:16.8  -0.5                          T                                        5136817
HYF   004.67 021.7 m E Sn      2012/12/12 01:23:51.9   1.5                          T                                        5136816

.
EVENT     288345
    Date      Time       Latitude Longitude    Depth    Ndef Nsta Gap    Mag1  N    Mag2  N    Mag3  N   Author         ID
       rms   OT_Error      Smajor Sminor Az        Err   mdist  Mdist     Err        Err        Err      Quality

2012/12/12 04:09:21.8     43.3991    8.5840     15.0      21    9 191  Ml 1.6 10  Md 1.8  1              bulletin    288445
                                                                                                         _ldg
      0.88   +-  0.34       9.2    5.5   55.54 +-  0.0    0.90   2.50   +-0.4      +-                    m i ke

CORSICA, FRANCE
Sta     Dist  EvAz     Phase      Date       Time     TRes  Azim  AzRes  Slow  SRes Def   SNR       Amp   Per   Mag1   Mag2       ID
SBF   000.95 299.5 m E Pn      2012/12/12 04:09:37.7  -1.5                          T                                        5136863
SBF   000.95 299.5 m E Sn      2012/12/12 04:09:49.8  -2.0                          T               19.4  .23 Ml 2.7 Md 1.8  5136862
PGF   000.90 160.1 m E Pn      2012/12/12 04:09:38.2  -0.4                          T                                        5136865
PGF   000.90 160.1 m E Sn      2012/12/12 04:09:50.7   0.1                          T                 .6  .23 Ml 1.5         5136864
FRF   001.42 277.2 m E Pn      2012/12/12 04:09:46.2   0.7                          T                                        5136867
FRF   001.42 277.2 m E Sn      2012/12/12 04:10:03.2   0.4                          T                1.2  .32 Ml 1.6         5136868
LMR   001.51 268.2 m E Pn      2012/12/12 04:09:47.4   0.7                          T                                        5136859
LMR   001.51 268.2 m E Pg      2012/12/12 04:09:49.0  -1.1                          T                                        5136869
LMR   001.51 268.2 m E Sn      2012/12/12 04:10:06.6   1.6                          T                 .7  .19 Ml 1.7         5136860
MBDF  001.86 316.1 m E Pn      2012/12/12 04:09:50.7  -1.1                          T                                        5136877
MBDF  001.86 316.1 m E Sn      2012/12/12 04:10:11.3  -2.2                          T                2.1  .54 Ml 1.8         5136876
SMRF  002.26 285.8 m E Pn      2012/12/12 04:09:57.3   0.3                          T                                        5136878
SMRF  002.26 285.8 m E Sg      2012/12/12 04:10:32.1  -0.8                          T                 .7  .21 Ml 1.7         5136858
LPG   002.47 328.6 m E Pn      2012/12/12 04:10:00.1  -0.2                          T                                        5136871
LPG   002.47 328.6 m E Sn      2012/12/12 04:10:29.3   1.0                          T                 .2  .17 Ml 1.3         5136870
ORIF  002.47 308.9 m E Pn      2012/12/12 04:10:00.3   0.4                          T                                        5136875
ORIF  002.47 308.9 m E Sn      2012/12/12 04:10:28.6   0.6                          T                 .3  .26 Ml 1.3         5136874
LPL   002.50 328.6 m E Pn      2012/12/12 04:10:00.5   0.1                          T                                        5136873
LPL   002.50 328.6 m E Sn      2012/12/12 04:10:29.2   0.4                          T                 .2  .20 Ml 1.3         5136872

.
EVENT     288349
    Date      Time       Latitude Longitude    Depth    Ndef Nsta Gap    Mag1  N    Mag2  N    Mag3  N   Author         ID
       rms   OT_Error      Smajor Sminor Az        Err   mdist  Mdist     Err        Err        Err      Quality

2012/12/12 07:12:23.5     43.8223    8.5779     14.7      39    9 149  Ml 2.0 10  Md 2.0  1              bulletin    288449
                                                                                                         _ldg
      0.38   +-  0.10       1.6    1.4   65.18 +-  0.6    0.47   3.10   +-0.2      +-                    m i ke

CORSICA, FRANCE
Sta     Dist  EvAz     Phase      Date       Time     TRes  Azim  AzRes  Slow  SRes Def   SNR       Amp   Per   Mag1   Mag2       ID
SBF   000.83 273.2 m E Pg      2012/12/12 07:12:39.5   0.2                          T                                        5137092
SBF   000.83 273.2 m E Sg      2012/12/12 07:12:50.6   0.3                          T                8.1  .23        Md 2.0  5137093
PGF   001.31 166.2 m E Pn      2012/12/12 07:12:45.9   0.0                          T                                        5137096
PGF   001.31 166.2 m E Sn      2012/12/12 07:13:02.1   0.1                          T                1.9  .20 Ml 2.2         5137095
FRF   001.42 260.1 m E Pn      2012/12/12 07:12:47.3   0.0                          T                                        5145135
FRF   001.42 260.1 m E Sn      2012/12/12 07:13:04.9   0.3                          T                                        5145134
FRF   001.42 260.1 m E Sg      2012/12/12 07:13:09.0   0.3                          T                4.3  .30 Ml 2.2         5145133
LMR   001.58 252.7 m E Pn      2012/12/12 07:12:49.1  -0.3                          T                                        5137161
LMR   001.58 252.7 m E Sn      2012/12/12 07:13:09.0   0.7                          T                                        5137099
LMR   001.58 252.7 m E Sg      2012/12/12 07:13:14.0   0.5                          T                1.7  .21 Ml 2.0         5145136
MBDF  001.58 305.5 m E Pn      2012/12/12 07:12:49.6  -0.1                          T                                        5145129
MBDF  001.58 305.5 m E Pg      2012/12/12 07:12:53.1  -0.2                          T                                        5137091
MBDF  001.58 305.5 m E Sn      2012/12/12 07:13:08.6   0.0                          T                                        5145128
MBDF  001.58 305.5 m E Sg      2012/12/12 07:13:13.7   0.0                          T                3.2  .32 Ml 2.1         5137094
LPG   002.12 322.7 m E Pn      2012/12/12 07:12:57.0  -0.2                          T                                        5145119
LPG   002.12 322.7 m E Pg      2012/12/12 07:13:03.2  -0.2                          T                                        5145120
LPG   002.12 322.7 m E Sn      2012/12/12 07:13:21.5  -0.2                          T                1.1  .36 Ml 1.7         5145121
LPL   002.15 322.8 m E Pn      2012/12/12 07:12:57.3  -0.1                          T                                        5145124
LPL   002.15 322.8 m E Pg      2012/12/12 07:13:03.6  -0.1                          T                                        5145123
LPL   002.15 322.8 m E Sn      2012/12/12 07:13:22.1   0.0                          T                  1  .30 Ml 1.7         5145122
SMRF  002.18 275.1 m E Pn      2012/12/12 07:12:57.6   0.1                          T                                        5145132
SMRF  002.18 275.1 m E Sn      2012/12/12 07:13:22.7   0.1                          T                                        5145131
SMRF  002.18 275.1 m E Sg      2012/12/12 07:13:32.4   0.3                          T                5.0  .34 Ml 2.4         5145130
ORIF  002.22 300.5 m E Pn      2012/12/12 07:12:58.2  -0.1                          T                                        5145127
ORIF  002.22 300.5 m E Pg      2012/12/12 07:13:05.0   0.0                          T                                        5145126
ORIF  002.22 300.5 m E Sn      2012/12/12 07:13:23.6  -0.2                          T                2.6  .35 Ml 2.1         5145125

.
