EVENT     269192
    Date      Time       Latitude Longitude    Depth    Ndef Nsta Gap    Mag1  N    Mag2  N    Mag3  N   Author         ID
       rms   OT_Error      Smajor Sminor Az        Err   mdist  Mdist     Err        Err        Err      Quality

2012/01/26 22:11:44.3     44.8692    6.0099      2.0      10    4 193             Md 1.2  2              js067245    269212

      0.20   +-  0.07       1.4    1.0  171.10 +-  0.0    0.10   0.82              +-0.4                 m i ke

FRANCE
Sta     Dist  EvAz     Phase      Date       Time     TRes  Azim  AzRes  Slow  SRes Def   SNR       Amp   Per   Mag1   Mag2       ID
ORIF  000.10 298.1 m E Pg      2012/01/26 22:11:46.7   0.0                          T                                        4827203
ORIF  000.10 298.1 m E Sg      2012/01/26 22:11:48.9   0.5                          T                9.5  .26        Md 1.5  4827204
MBDF  000.56 104.4 m E Pg      2012/01/26 22:11:55.2   0.0                          T                                        4827209
MBDF  000.56 104.4 m E Sg      2012/01/26 22:12:02.9   0.3                          T                 .6  .34        Md  .9  4827210
LPG   000.82 039.6 m E Pg      2012/01/26 22:11:59.9  -0.2                          T                                        4827205
LPG   000.82 039.6 m E Sg      2012/01/26 22:12:11.1   0.3                          T                 .2  .16                4827206
LPL   000.82 038.0 m E Pg      2012/01/26 22:12:00.1  -0.1                          T                                        4827207
LPL   000.82 038.0 m E Sg      2012/01/26 22:12:11.0   0.1                          T                 .3  .18                4827208

.
EVENT     269193
    Date      Time       Latitude Longitude    Depth    Ndef Nsta Gap    Mag1  N    Mag2  N    Mag3  N   Author         ID
       rms   OT_Error      Smajor Sminor Az        Err   mdist  Mdist     Err        Err        Err      Quality

2012/01/27 00:16:50.9     44.7206    6.7147      2.0      19    7 082  Ml 1.5  3  Md 1.5  2              js067245    269213

      0.91   +-  0.14       3.3    2.2   87.90 +-  0.0    0.04   1.39   +-0.2      +-0.0                 m i ke

FRANCE
Sta     Dist  EvAz     Phase      Date       Time     TRes  Azim  AzRes  Slow  SRes Def   SNR       Amp   Per   Mag1   Mag2       ID
MBDF  000.04 081.2 m E Pg      2012/01/27 00:16:51.8  -0.6                          T                                        4826176
MBDF  000.04 081.2 m E Sg      2012/01/27 00:16:53.1  -0.1                          T               34.2  .18        Md 1.5  4826175
ORIF  000.63 288.7 m E Pg      2012/01/27 00:17:02.5  -0.5                          T                                        4826173
ORIF  000.63 288.7 m E Sg      2012/01/27 00:17:10.2  -0.9                          T                2.6  .20        Md 1.4  4826174
LPL   000.80 000.9 m E Pg      2012/01/27 00:17:06.5   0.2                          T                                        4826170
LPL   000.80 000.9 m E Sg      2012/01/27 00:17:17.4   0.8                          T                 .7  .31                4826165
LPG   000.78 001.9 m E Pg      2012/01/27 00:17:06.5   0.5                          T                                        4826168
LPG   000.78 001.9 m E Sg      2012/01/27 00:17:16.6   0.5                          T                 .5  .23                4826177
SMRF  001.11 228.1 m E Pg      2012/01/27 00:17:11.9   0.2                          T                                        4826167
SMRF  001.11 228.1 m E Sg      2012/01/27 00:17:27.1   1.1                          T                 .9  .35 Ml 1.3         4826166
FRF   001.16 182.4 m E Pg      2012/01/27 00:17:12.5  -0.2                          T                                        4826178
FRF   001.16 182.4 m E Sg      2012/01/27 00:17:28.5   0.8                          T                1.1  .23 Ml 1.6         4826171
LMR   001.39 186.2 m E Pg      2012/01/27 00:17:17.4   0.5                          T                                        4826169
LMR   001.39 186.2 m E Sg      2012/01/27 00:17:35.4   0.5                          T                 .7  .21 Ml 1.6         4826172

.
EVENT     269194
    Date      Time       Latitude Longitude    Depth    Ndef Nsta Gap    Mag1  N    Mag2  N    Mag3  N   Author         ID
       rms   OT_Error      Smajor Sminor Az        Err   mdist  Mdist     Err        Err        Err      Quality

2012/01/27 05:15:15.6     44.8619    5.0055      2.0      28   13 085  Ml 1.5 12  Md 1.7  2              js067245    269214

      0.54   +-  0.06       1.4    1.0    5.65 +-  0.0    0.24   2.52   +-0.3      +-0.0                 m i ke

FRANCE
Sta     Dist  EvAz     Phase      Date       Time     TRes  Azim  AzRes  Slow  SRes Def   SNR       Amp   Per   Mag1   Mag2       ID
VIVF  000.24 268.7 m E Pg      2012/01/27 05:15:20.3   0.0                          T                                        4826183
VIVF  000.24 268.7 m E Sg      2012/01/27 05:15:23.5  -0.1                          T               11.7  .30        Md 1.7  4826179
ORIF  000.62 084.5 m E Pg      2012/01/27 05:15:27.6   0.1                          T                                        4826185
ORIF  000.62 084.5 m E Sg      2012/01/27 05:15:36.0   0.3                          T                1.6  .26        Md 1.7  4826186
SMRF  000.98 155.0 m E Pg      2012/01/27 05:15:34.1   0.2                          T                                        4826180
SMRF  000.98 155.0 m E Sg      2012/01/27 05:15:45.7  -0.8                          T                                        4827213
SMRF  000.98 155.0 m E Sn      2012/01/27 05:15:48.8   0.5                          T                2.1  .38 Ml 1.5         4826202
LASF  001.14 226.7 m E Pn      2012/01/27 05:15:36.9   0.1                          T                                        4826181
LASF  001.14 226.7 m E Sg      2012/01/27 05:15:52.1   0.5                          T                5.2  .34 Ml 2.1         4826182
MBDF  001.26 095.5 m E Pg      2012/01/27 05:15:39.4   0.0                          T                                        4827222
MBDF  001.26 095.5 m E Sg      2012/01/27 05:15:55.5  -0.3                          T                 .4  .24 Ml 1.2         4826200
LPL   001.39 061.2 m E Pg      2012/01/27 05:15:41.6  -0.1                          T                                        4826203
LPL   001.39 061.2 m E Sg      2012/01/27 05:15:59.8   0.2                          T                1.0  .27 Ml 1.6         4826204
LPG   001.39 062.1 m E Pg      2012/01/27 05:15:41.8  -0.1                          T                                        4826184
LPG   001.39 062.1 m E Sg      2012/01/27 05:16:00.0   0.2                          T                 .8  .33 Ml 1.4         4826187
CAF   002.09 272.8 m E Pn      2012/01/27 05:15:50.3   0.4                          T                                        4827221
CAF   002.09 272.8 m E Pg      2012/01/27 05:15:54.1  -0.3                          T                                        4827220
CAF   002.09 272.8 m E Sg      2012/01/27 05:16:21.7   0.3                          T                 .5  .24 Ml 1.6         4826198
SMF   001.96 335.9 m E Pg      2012/01/27 05:15:51.8  -0.3                          T                                        4827217
SMF   001.96 335.9 m E Sg      2012/01/27 05:16:17.6   0.3                          T                  1  .25 Ml 1.8         4827216
BGF   002.27 319.0 m E Pg      2012/01/27 05:15:58.8   1.1                          T                                        4827218
BGF   002.27 319.0 m E Sg      2012/01/27 05:16:27.4   0.3                          T                1.7  .32 Ml 2.0         4827215
MTLF  002.52 233.8 m E Pg      2012/01/27 05:16:01.5  -0.8                          T                                        4827223
MTLF  002.52 233.8 m E Sg      2012/01/27 05:16:35.0   0.3                          T                 .2  .25 Ml 1.1         4826199
LMR   001.87 144.1 m E Sn      2012/01/27 05:16:08.8  -0.8                          T                 .5  .23 Ml 1.5         4827212
AVF   002.25 329.7 m E Sg      2012/01/27 05:16:26.2   0.0                          T                 .1  .20 Ml 1.1         4826197

.
EVENT     269196
    Date      Time       Latitude Longitude    Depth    Ndef Nsta Gap    Mag1  N    Mag2  N    Mag3  N   Author         ID
       rms   OT_Error      Smajor Sminor Az        Err   mdist  Mdist     Err        Err        Err      Quality

2012/01/27 05:16:54.9     44.8790    5.0024      2.0       9    3 181  Ml 1.0  1  Md 1.1  2              js067245    269216

      0.16   +-  0.07       4.3    1.0  168.30 +-  0.0    0.24   1.15   +-         +-0.3                 m i ke

FRANCE
Sta     Dist  EvAz     Phase      Date       Time     TRes  Azim  AzRes  Slow  SRes Def   SNR       Amp   Per   Mag1   Mag2       ID
VIVF  000.24 264.5 m E Pg      2012/01/27 05:16:59.6   0.0                          T                                        4826353
VIVF  000.24 264.5 m E Sg      2012/01/27 05:17:02.8  -0.1                          T                3.4  .30        Md 1.3  4826352
ORIF  000.62 086.1 m E Pg      2012/01/27 05:17:06.9   0.0                          T                                        4827226
ORIF  000.62 086.1 m E Sg      2012/01/27 05:17:15.2   0.1                          T                  1  .39        Md  .9  4827227
LASF  001.15 226.0 m E Pg      2012/01/27 05:17:15.3  -1.1                          T                                        4827228
LASF  001.15 226.0 m E Pn      2012/01/27 05:17:16.3  -0.1                          T                                        4827229
LASF  001.15 226.0 m E Sg      2012/01/27 05:17:31.4   0.1                          T                 .3  .21 Ml 1.0         4827230

.
EVENT     269195
    Date      Time       Latitude Longitude    Depth    Ndef Nsta Gap    Mag1  N    Mag2  N    Mag3  N   Author         ID
       rms   OT_Error      Smajor Sminor Az        Err   mdist  Mdist     Err        Err        Err      Quality

2012/01/27 05:21:38.3     44.8479    5.0046      2.0      55   21 072  Ml 2.1 19  Md 2.2  5              js067245    269215

      0.56   +-  0.05       1.1    1.0    7.07 +-  0.0    0.24   3.29   +-0.2      +-0.1                 m i ke

FRANCE
Sta     Dist  EvAz     Phase      Date       Time     TRes  Azim  AzRes  Slow  SRes Def   SNR       Amp   Per   Mag1   Mag2       ID
VIVF  000.24 272.1 m E Pg      2012/01/27 05:21:43.1   0.1                          T   001.0                                4823312
VIVF  000.24 272.1 m E Sg      2012/01/27 05:21:46.3   0.1                          T               45.8  .26        Md 2.3  4826333
ORIF  000.63 083.2 m E Pg      2012/01/27 05:21:50.4   0.2                          T   001.0                                4823311
ORIF  000.63 083.2 m E Sg      2012/01/27 05:21:58.7   0.3                          T                7.1  .28        Md 2.2  4826335
SMRF  000.96 154.7 m E Pg      2012/01/27 05:21:57.0   0.6                          T   001.0                                4823313
SMRF  000.96 154.7 m E Sg      2012/01/27 05:22:08.6  -0.3                          T                7.1  .35 Ml 2.1 Md 2.3  4826334
SMRF  000.96 154.7 m E Sn      2012/01/27 05:22:11.7   1.0                          T                                        4826347
LASF  001.13 227.2 m E Pg      2012/01/27 05:21:58.8  -0.6                          T                                        4827211
LASF  001.13 227.2 m E Pn      2012/01/27 05:21:59.8   0.3                          T                                        4826336
LASF  001.13 227.2 m E Sg      2012/01/27 05:22:14.9   0.9                          T   001.0       20.5  .36 Ml 2.6 Md 2.2  4823291
MBDF  001.26 094.9 m E Pg      2012/01/27 05:22:02.3   0.2                          T   001.0                                4823305
MBDF  001.26 094.9 m E Sg      2012/01/27 05:22:18.2  -0.2                          T   001.0        3.0  .37 Ml 1.8         4823306
LPL   001.39 060.7 m E Pg      2012/01/27 05:22:04.4  -0.1                          T   001.0                                4823295
LPL   001.39 060.7 m E Sg      2012/01/27 05:22:22.6   0.1                          T   001.0        2.2  .22 Ml 2.0 Md 2.2  4823297
LPG   001.40 061.6 m E Pg      2012/01/27 05:22:04.5  -0.1                          T   001.0                                4823293
LPG   001.40 061.6 m E Sg      2012/01/27 05:22:22.8   0.1                          T   001.0        4.3  .37 Ml 2.1         4823294
LMR   001.86 143.9 m E Pn      2012/01/27 05:22:09.2  -0.2                          T                                        4826330
LMR   001.86 143.9 m E Pg      2012/01/27 05:22:12.6  -0.3                          T                                        4826346
LMR   001.86 143.9 m E Sn      2012/01/27 05:22:31.7  -0.4                          T                1.2  .22 Ml 1.9         4826331
CABF  001.92 022.9 m E Pn      2012/01/27 05:22:10.0  -0.3                          T   001.0                                4823302
CABF  001.92 022.9 m E Sn      2012/01/27 05:22:34.3   0.7                          T   001.0                                4823303
CABF  001.92 022.9 m E Sg      2012/01/27 05:22:38.9   0.1                          T   001.0         .8  .18 Ml 1.8         4823304
SMF   001.97 336.0 m E Pn      2012/01/27 05:22:11.2   0.2                          T   001.0                                4823298
SMF   001.97 336.0 m E Pg      2012/01/27 05:22:14.6  -0.4                          T                                        4826341
SMF   001.97 336.0 m E Sn      2012/01/27 05:22:34.8   0.0                          T   001.0                                4823299
SMF   001.97 336.0 m E Sg      2012/01/27 05:22:40.4   0.0                          T   001.0        4.7  .32 Ml 2.4         4823300
CAF   002.09 273.2 m E Pn      2012/01/27 05:22:13.1   0.5                          T   001.0                                4823285
CAF   002.09 273.2 m E Pg      2012/01/27 05:22:17.0  -0.2                          T   001.0                                4823286
CAF   002.09 273.2 m E Sg      2012/01/27 05:22:44.5   0.4                          T   001.0        1.6  .19 Ml 2.1         4823287
SBF   002.00 118.6 m E Pg      2012/01/27 05:22:15.5  -0.1                          T                                        4826349
AVF   002.26 329.9 m E Pn      2012/01/27 05:22:16.3   1.5                          T                                        4826342
AVF   002.26 329.9 m E Pg      2012/01/27 05:22:20.4   0.2                          T   001.0                                4823281
AVF   002.26 329.9 m E Sg      2012/01/27 05:22:49.1  -0.2                          T   001.0        3.9  .36 Ml 2.3         4823282
BGF   002.28 319.3 m E Pn      2012/01/27 05:22:16.4   1.2                          T                                        4826340
BGF   002.28 319.3 m E Pg      2012/01/27 05:22:21.7   1.0                          T   001.0                                4823283
BGF   002.28 319.3 m E Sg      2012/01/27 05:22:50.2   0.2                          T   001.0       12.2  .43 Ml 2.7         4823284
SSF   002.45 335.3 m E Pn      2012/01/27 05:22:17.6   0.2                          T                                        4826343
SSF   002.45 335.3 m E Pg      2012/01/27 05:22:23.8   0.1                          T   001.0                                4823301
SSF   002.45 335.3 m E Sg      2012/01/27 05:22:55.0  -0.2                          T                 .9  .21 Ml 2.0         4826344
MTLF  002.51 234.1 m E Pn      2012/01/27 05:22:18.1  -0.1                          T   001.0                                4823307
MTLF  002.51 234.1 m E Pg      2012/01/27 05:22:24.4  -0.5                          T   001.0                                4823308
MTLF  002.51 234.1 m E Sg      2012/01/27 05:22:57.8   0.7                          T   001.0        1.8  .30 Ml 2.1         4823310
RJF   002.51 281.7 m E Pg      2012/01/27 05:22:24.8  -0.1                          T   001.0                                4823279
RJF   002.51 281.7 m E Sg      2012/01/27 05:22:58.4   1.2                          T   001.0        1.4  .23 Ml 1.8         4823280
HAU   003.29 015.9 m E Pn      2012/01/27 05:22:28.8  -0.1                          T   001.0                                4823289
HAU   003.29 015.9 m E Sg      2012/01/27 05:23:22.2   0.6                          T                2.3  .36 Ml 2.1         4826345
FRF   001.75 136.9 m E Sg      2012/01/27 05:22:32.8  -0.5                          T   001.0        4.4  .38 Ml 2.2         4823288
LOR   002.55 342.2 m E Sg      2012/01/27 05:22:57.4  -1.0                          T   001.0        1.2  .20 Ml 2.1         4823292
HINF  003.23 022.7 m E Sg      2012/01/27 05:23:18.8  -1.0                          T                                        4826332

.
EVENT     269205
    Date      Time       Latitude Longitude    Depth    Ndef Nsta Gap    Mag1  N    Mag2  N    Mag3  N   Author         ID
       rms   OT_Error      Smajor Sminor Az        Err   mdist  Mdist     Err        Err        Err      Quality

2012/01/27 05:54:19.5     47.9759    7.2192     10.0      21    8 049  Ml 1.6  5  Md 1.8  2              js067245    269225

      0.68   +-  0.07       1.7    1.3  175.99 +-  0.0    0.14   2.38   +-0.5      +-0.0                 m i ke

SWITZERLAND
Sta     Dist  EvAz     Phase      Date       Time     TRes  Azim  AzRes  Slow  SRes Def   SNR       Amp   Per   Mag1   Mag2       ID
HINF  000.29 237.2 m E Pg      2012/01/27 05:54:25.5   0.0                          T                                        4826355
HINF  000.29 237.2 m E Sg      2012/01/27 05:54:29.7   0.0                          T                3.9  .20        Md 1.8  4826354
CDF   000.44 005.0 m E Pg      2012/01/27 05:54:28.0  -0.2                          T                                        4826363
CDF   000.44 005.0 m E Sg      2012/01/27 05:54:33.6  -0.4                          T                3.8  .26        Md 1.8  4826362
HAU   000.59 273.2 m E Pg      2012/01/27 05:54:31.2   0.4                          T                                        4827231
HAU   000.59 273.2 m E Sg      2012/01/27 05:54:38.4  -0.1                          T                2.2  .22                4826357
THEF  000.86 287.5 m E Pn      2012/01/27 05:54:36.2   0.1                          T                                        4826379
THEF  000.86 287.5 m E Sn      2012/01/27 05:54:48.1   0.1                          T                2.3  .19 Ml 1.8         4826356
PAGF  001.15 300.7 m E Pg      2012/01/27 05:54:40.5  -0.6                          T                                        4826360
PAGF  001.15 300.7 m E Sg      2012/01/27 05:54:56.4   0.2 131.7  12.1              T                 .3  .28 Ml  .9         4826361
SFTF  001.48 279.7 m E Pg      2012/01/27 05:54:47.4   0.3                          T                                        4827232
SFTF  001.48 279.7 m E Sg      2012/01/27 05:55:06.5   0.2                          T                2.6  .21 Ml 2.1         4827233
CABF  001.57 209.8 m E Pg      2012/01/27 05:54:48.7  -0.2                          T                                        4826358
CABF  001.57 209.8 m E Sg      2012/01/27 05:55:09.2   0.0                          T                1.3  .26 Ml 1.8         4826359
LOR   002.38 253.9 m E Sg      2012/01/27 05:55:34.5   0.1                          T                 .2  .18 Ml 1.3         4827234

.
