EVENT     275292
    Date      Time       Latitude Longitude    Depth    Ndef Nsta Gap    Mag1  N    Mag2  N    Mag3  N   Author         ID
       rms   OT_Error      Smajor Sminor Az        Err   mdist  Mdist     Err        Err        Err      Quality

2012/05/02 09:53:35.6     44.3176    7.7618       .0 f    12    6 267  Ml 2.3  3  Md 2.1  1              bulletin    275392
                                                                                                         _ldg
      0.23   +-  0.31       5.5    2.2   82.87 +-  0.0    0.51   1.61   +-0.1      +-                    m i km

NORTHERN ITALY
Sta     Dist  EvAz     Phase      Date       Time     TRes  Azim  AzRes  Slow  SRes Def   SNR       Amp   Per   Mag1   Mag2       ID
SBF   000.51 207.5 m E Pg      2012/05/02 09:53:46.6   0.9                          T                                        4934978
SBF   000.51 207.5 m E Sg      2012/05/02 09:53:52.3  -0.3                          T               71.6  .62        Md 2.1  4934977
MBDF  000.82 300.4 m E Pg      2012/05/02 09:53:51.7   0.2                          T                                        4934970
MBDF  000.82 300.4 m E Sg      2012/05/02 09:54:01.9  -0.4                          T                9.1  .37                4934969
FRF   001.11 227.2 m E Pg      2012/05/02 09:53:56.8   0.2                          T                                        4937852
FRF   001.11 227.2 m E P       2012/05/02 09:53:58.1  -0.1                          T                                        4934974
FRF   001.11 227.2 m E Sg      2012/05/02 09:54:11.0  -0.1                          T               13.4  .52 Ml 2.3         4934973
LMR   001.34 223.1 m E Pg      2012/05/02 09:54:00.6  -0.2                          T                                        4934975
LMR   001.34 223.1 m E Sg      2012/05/02 09:54:18.5   0.2                          T               11.9  .48 Ml 2.4         4934976
ORIF  001.47 294.7 m E Pg      2012/05/02 09:54:03.2  -0.2                          T                                        4937851
SMRF  001.61 258.5 m E Pg      2012/05/02 09:54:06.2   0.3                          T                                        4934971
SMRF  001.61 258.5 m E Sg      2012/05/02 09:54:26.8  -0.1                          T                8.3  .56 Ml 2.3         4934972

.
EVENT     275293
    Date      Time       Latitude Longitude    Depth    Ndef Nsta Gap    Mag1  N    Mag2  N    Mag3  N   Author         ID
       rms   OT_Error      Smajor Sminor Az        Err   mdist  Mdist     Err        Err        Err      Quality

2012/05/02 10:03:38.2     43.8330    3.7525       .0 f    10    4 214  Ml 2.0  4  Md 1.8  1              bulletin    275393
                                                                                                         _ldg
      1.24   +-  0.28       7.0    2.6  136.38 +-  0.0    0.25   1.63   +-0.1      +-                    m i km

NEAR SOUTH COAST OF FRANCE
Sta     Dist  EvAz     Phase      Date       Time     TRes  Azim  AzRes  Slow  SRes Def   SNR       Amp   Per   Mag1   Mag2       ID
LASF  000.25 017.2 m E Pg      2012/05/02 10:03:42.9  -0.6                          T                                        4935030
LASF  000.25 017.2 m E Sg      2012/05/02 10:03:47.0  -0.1                          T                                Md 1.8  4935031
MTLF  001.22 246.7 m E Pg      2012/05/02 10:04:01.0  -0.3                          T                                        4935033
MTLF  001.22 246.7 m E Sg      2012/05/02 10:04:17.4   0.2                          T                1.7  .18 Ml 1.9         4935032
VIVF  001.22 032.5 m E Pg      2012/05/02 10:04:01.4   0.1                          T                                        4935029
VIVF  001.22 032.5 m E Sg      2012/05/02 10:04:18.1   0.9                          T                2.5  .18 Ml 2.1         4935028
CAF   001.63 312.7 m E Pg      2012/05/02 10:04:08.9   0.1                          T                                        4935026
CAF   001.63 312.7 m E Sg      2012/05/02 10:04:30.2   0.1                          T                2.2  .20 Ml 2.1         4935027

.
EVENT     275294
    Date      Time       Latitude Longitude    Depth    Ndef Nsta Gap    Mag1  N    Mag2  N    Mag3  N   Author         ID
       rms   OT_Error      Smajor Sminor Az        Err   mdist  Mdist     Err        Err        Err      Quality

2012/05/02 10:18:18.9     43.5278    6.6073       .0 f    24    7 115  Ml 2.1  3  Md 2.0  2              bulletin    275394
                                                                                                         _ldg
      0.62   +-  0.18       4.0    3.2  127.05 +-  0.0    0.04   1.99   +-0.1      +-0.0                 m i km

NEAR SOUTH COAST OF FRANCE
Sta     Dist  EvAz     Phase      Date       Time     TRes  Azim  AzRes  Slow  SRes Def   SNR       Amp   Per   Mag1   Mag2       ID
FRF   000.04 041.1 m E Pg      2012/05/02 10:18:19.5  -0.5                          T                                        4940193
FRF   000.04 041.1 m E Sg      2012/05/02 10:18:20.5  -0.2                          T              908.8  .42        Md 2.0  4935094
LMR   000.21 200.3 m E Pg      2012/05/02 10:18:22.3  -0.9                          T                                        4935093
LMR   000.21 200.3 m E Sg      2012/05/02 10:18:25.2  -1.1                          T              174.9  .52        Md 2.0  4937874
SBF   000.69 060.5 m E Pg      2012/05/02 10:18:32.0  -0.2                          T                                        4935092
SBF   000.69 060.5 m E Sg      2012/05/02 10:18:42.0   0.6                          T               13.3  .20                4935085
SMRF  000.87 301.3 m E Pg      2012/05/02 10:18:36.2   0.6                          T                                        4935091
SMRF  000.87 301.3 m E Sg      2012/05/02 10:18:47.2   0.1                          T                5.3  .22 Ml 2.1         4935086
MBDF  001.20 005.6 m E Pg      2012/05/02 10:18:42.2   0.3                          T                                        4935087
MBDF  001.20 005.6 m E Sg      2012/05/02 10:18:57.6   0.0                          T                1.9  .20 Ml 1.9         4935088
ORIF  001.49 339.6 m E Pg      2012/05/02 10:18:46.0  -1.0                          T                                        4935090
ORIF  001.49 339.6 m E Sg      2012/05/02 10:19:05.3  -1.0                          T                4.1  .33 Ml 2.1         4935089
LPL   001.99 002.5 m E Pg      2012/05/02 10:18:55.8  -0.6                          T                                        4935126

.
EVENT     275295
    Date      Time       Latitude Longitude    Depth    Ndef Nsta Gap    Mag1  N    Mag2  N    Mag3  N   Author         ID
       rms   OT_Error      Smajor Sminor Az        Err   mdist  Mdist     Err        Err        Err      Quality

2012/05/02 10:33:35.7     41.4601    1.4635       .0 f     6    4 294  Ml 2.4  4                         bulletin    275395
                                                                                                         _ldg
      0.28   +-  0.61      10.8    4.4     .81 +-  0.0    1.78   2.59   +-0.2                            m i km

SPAIN
Sta     Dist  EvAz     Phase      Date       Time     TRes  Azim  AzRes  Slow  SRes Def   SNR       Amp   Per   Mag1   Mag2       ID
EPF   001.78 332.4 m E Pg      2012/05/02 10:34:09.1   0.1                          T                                        4935216
EPF   001.78 332.4 m E Sg      2012/05/02 10:34:31.9  -0.2                          T                8.0  .30 Ml 2.6         4935215
MTLF  001.96 016.3 m E Pg      2012/05/02 10:34:12.3  -0.1                          T                                        4937882
MTLF  001.96 016.3 m E Sg      2012/05/02 10:34:38.1   0.3                          T                5.3  .42 Ml 2.3         4935212
ETSF  002.08 314.4 m E Sg      2012/05/02 10:34:41.2  -0.5                          T                7.1  .50 Ml 2.4         4935214
SJPF  002.59 310.5 m E Sg      2012/05/02 10:34:58.0   0.5                          T                3.0  .42 Ml 2.2         4935213

.
EVENT     275296
    Date      Time       Latitude Longitude    Depth    Ndef Nsta Gap    Mag1  N    Mag2  N    Mag3  N   Author         ID
       rms   OT_Error      Smajor Sminor Az        Err   mdist  Mdist     Err        Err        Err      Quality

2012/05/02 10:52:34.7     44.5031    6.7220      4.0 f    41    9 055  Ml 2.1  5  Md 2.2  2              bulletin    275396
                                                                                                         _ldg
      0.35   +-  0.06       1.3    1.0   86.35 +-  0.0    0.07   1.73   +-0.3      +-0.2                 m i ke

FRANCE
Sta     Dist  EvAz     Phase      Date       Time     TRes  Azim  AzRes  Slow  SRes Def   SNR       Amp   Per   Mag1   Mag2       ID
MBDF  000.23 009.0 m E Pg      2012/05/02 10:52:39.2  -0.3                          T                                        4935256
MBDF  000.23 009.0 m E Sg      2012/05/02 10:52:42.9   0.2                          T               16.2  .20        Md 2.0  4935255
ORIF  000.73 305.0 m E Pg      2012/05/02 10:52:47.7  -1.0                          T                                        4935252
ORIF  000.73 305.0 m E Sg      2012/05/02 10:52:57.5  -0.7                          T               10.8  .26                4935254
SBF   000.82 141.0 m E Pg      2012/05/02 10:52:50.2  -0.1                          T                                        4935248
SBF   000.82 141.0 m E Pn      2012/05/02 10:52:51.8   0.2                          T                                        4937884
SBF   000.82 141.0 m E Sg      2012/05/02 10:53:01.7   0.8                          T                6.8  .23        Md 2.3  4935247
FRF   000.94 183.3 m E Pg      2012/05/02 10:52:52.4  -0.1                          T                                        4935250
FRF   000.94 183.3 m E Sg      2012/05/02 10:53:05.3   0.6                          T                9.7  .24 Ml 2.4         4935245
SMRF  000.98 237.8 m E Pg      2012/05/02 10:52:53.5   0.3                          T                                        4935251
SMRF  000.98 237.8 m E Sg      2012/05/02 10:53:06.4   0.6                          T                4.9  .24 Ml 2.1         4935244
LPL   001.01 000.4 m E Pg      2012/05/02 10:52:53.8  -0.2                          T                                        4935253
LPL   001.01 000.4 m E Sg      2012/05/02 10:53:06.6  -0.6                          T                2.7  .28 Ml 1.8         4935279
LPG   000.99 001.2 m E Pg      2012/05/02 10:52:54.0   0.3                          T                                        4937886
LPG   000.99 001.2 m E Sg      2012/05/02 10:53:07.0   0.3                          T                                        4937885
LMR   001.18 187.6 m E Pg      2012/05/02 10:52:57.0   0.2                          T                                        4935249
LMR   001.18 187.6 m E Sg      2012/05/02 10:53:12.2   0.1                          T                5.8  .22 Ml 2.3         4935246
VIVF  001.50 284.3 m E Pn      2012/05/02 10:53:01.3   0.5                          T                                        4935242
VIVF  001.50 284.3 m E Sn      2012/05/02 10:53:20.3   0.6                          T                2.1  .26 Ml 1.9         4935243

.
EVENT     275317
    Date      Time       Latitude Longitude    Depth    Ndef Nsta Gap    Mag1  N    Mag2  N    Mag3  N   Author         ID
       rms   OT_Error      Smajor Sminor Az        Err   mdist  Mdist     Err        Err        Err      Quality

2012/05/02 10:57:51.3     50.5997    3.4420       .0 f     8    6 322  Ml 2.6  5  Md 2.3  1              bulletin    275417
                                                                                                         _ldg
      0.15   +-  0.27       4.6    3.0   83.05 +-  0.0    0.73   3.32   +-0.3      +-                    m i km

BELGIUM
Sta     Dist  EvAz     Phase      Date       Time     TRes  Azim  AzRes  Slow  SRes Def   SNR       Amp   Per   Mag1   Mag2       ID
BAIF  000.73 137.5 m E Pg      2012/05/02 10:58:05.4   0.1                          T                                        4937887
BAIF  000.73 137.5 m E Sg      2012/05/02 10:58:14.8  -0.3                          T               11.9  .34        Md 2.3  4937888
GIVF  001.02 118.8 m E Pg      2012/05/02 10:58:10.5  -0.1                          T                                        4937890
GIVF  001.02 118.8 m E Sg      2012/05/02 10:58:24.2   0.3                          T               90.4  .58 Ml 3.0         4937889
MEZF  002.35 152.9 m E Sg      2012/05/02 10:59:05.6   0.1                          T               10.6  .47 Ml 2.6         4941363
PAGF  002.53 143.1 m E Sg      2012/05/02 10:59:11.2   0.0                          T                2.6  .47 Ml 2.1         4941364
SFTF  002.61 155.9 m E Sg      2012/05/02 10:59:13.8   0.0                          T                6.1  .34 Ml 2.6         4941362
CDF   003.32 129.8 m E Sg      2012/05/02 10:59:36.1   0.0                          T                8.1  .66 Ml 2.7         4941365

.
EVENT     275312
    Date      Time       Latitude Longitude    Depth    Ndef Nsta Gap    Mag1  N    Mag2  N    Mag3  N   Author         ID
       rms   OT_Error      Smajor Sminor Az        Err   mdist  Mdist     Err        Err        Err      Quality

2012/05/02 10:59:23.5     44.4883    6.6826      2.0      30    7 069  Ml 1.5  4  Md 1.7  2              bulletin    275412
                                                                                                         _ldg
      0.43   +-  0.05       1.0     .8   55.18 +-  0.0    0.09   1.16   +-0.1      +-0.1                 m i ke

FRANCE
Sta     Dist  EvAz     Phase      Date       Time     TRes  Azim  AzRes  Slow  SRes Def   SNR       Amp   Per   Mag1   Mag2       ID
MBDF  000.25 014.9 m E Pg      2012/05/02 10:59:28.6   0.0                          T                                        4935597
MBDF  000.25 014.9 m E Sg      2012/05/02 10:59:31.7  -0.2                          T               16.7  .52        Md 1.7  4935596
ORIF  000.72 307.2 m E Pg      2012/05/02 10:59:36.9  -0.1                          T                                        4935595
ORIF  000.72 307.2 m E Sg      2012/05/02 10:59:46.5   0.0                          T                3.1  .30        Md 1.8  4935594
SBF   000.83 138.8 m E Pg      2012/05/02 10:59:39.0  -0.1                          T                                        4935591
SBF   000.83 138.8 m E Sg      2012/05/02 10:59:50.1   0.2                          T                 .9  .17                4935588
FRF   000.93 181.6 m E Pg      2012/05/02 10:59:41.3   0.4                          T                                        4935593
FRF   000.93 181.6 m E Sg      2012/05/02 10:59:53.0   0.1                          T                1.2  .20 Ml 1.6         4935589
SMRF  000.95 237.6 m E Pg      2012/05/02 10:59:41.4   0.1                          T                                        4935590
SMRF  000.95 237.6 m E Sg      2012/05/02 10:59:53.7   0.1                          T                 .9  .23 Ml 1.4         4935586
LPL   001.03 002.0 m E Pg      2012/05/02 10:59:42.9  -0.1                          T                                        4935585
LPL   001.03 002.0 m E Sg      2012/05/02 10:59:56.7   0.4                          T                1.4  .34 Ml 1.4         4935584
LMR   001.16 186.3 m E P       2012/05/02 10:59:46.7   0.0                          T                                        4935592
LMR   001.16 186.3 m E Sg      2012/05/02 11:00:00.2   0.0                          T                1.3  .28 Ml 1.6         4935587

.
EVENT     275297
    Date      Time       Latitude Longitude    Depth    Ndef Nsta Gap    Mag1  N    Mag2  N    Mag3  N   Author         ID
       rms   OT_Error      Smajor Sminor Az        Err   mdist  Mdist     Err        Err        Err      Quality

2012/05/02 11:12:01.2     47.5047    6.6582       .0 f     8    4 179  Ml 1.9  2  Md 2.0  1              bulletin    275397
                                                                                                         _ldg
      0.36   +-  0.18       7.6    2.8  108.71 +-  0.0    0.34   1.00   +-0.1      +-                    m i km

FRANCE
Sta     Dist  EvAz     Phase      Date       Time     TRes  Azim  AzRes  Slow  SRes Def   SNR       Amp   Per   Mag1   Mag2       ID
HINF  000.34 022.8 m E Pg      2012/05/02 11:12:07.6  -0.5                          T                                        4935324
HINF  000.34 022.8 m E Sg      2012/05/02 11:12:12.9   0.1                          T               12.8  .39        Md 2.0  4935323
HAU   000.54 337.5 m E Pg      2012/05/02 11:12:11.7  -0.2                          T                                        4935320
HAU   000.54 337.5 m E Sg      2012/05/02 11:12:19.5   0.4                          T                2.7  .23                4935319
CABF  000.98 203.8 m E Pg      2012/05/02 11:12:19.7  -0.1                          T                                        4935321
CABF  000.98 203.8 m E Sg      2012/05/02 11:12:33.3   0.6                          T                3.0  .26 Ml 1.9         4935322
CDF   001.00 024.3 m E Pg      2012/05/02 11:12:20.6   0.3                          T                                        4935326
CDF   001.00 024.3 m E Sg      2012/05/02 11:12:34.0   0.5                          T                3.3  .32 Ml 1.9         4935325

.
