BEGIN GSE2.0
MSG_TYPE DATA
MSG_ID 18-AVR-1312:38:55  FRA_NDC
E-MAIL
DATA_TYPE BULLETIN
Reviewed Bulletin (REB) # P2013-015  from French NDC for regional phases     PERIOD 10 AVR 2013 TO 16 AVR 2013 Cenalt JP S
EVENT     295639
    Date      Time       Latitude Longitude    Depth    Ndef Nsta Gap    Mag1  N    Mag2  N    Mag3  N   Author         ID
       rms   OT_Error      Smajor Sminor Az        Err   mdist  Mdist     Err        Err        Err      Quality

2013/04/10 01:16:49.2     42.7305   -1.6803      2.0      52    8 082  Ml 2.7  6  Md 2.7  2              bulletin    295739
                                                                                                         _ldg
      0.90   +-  0.11       2.5    1.9  154.36 +-  0.0    0.09   5.01   +-0.3      +-0.0                 m i ke

PYRENEES
Sta     Dist  EvAz     Phase      Date       Time     TRes  Azim  AzRes  Slow  SRes Def   SNR       Amp   Per   Mag1   Mag2       ID
SJPF  000.51 041.0 m E Pg      2013/04/10 01:16:58.0  -0.9                          T                                        5250852
SJPF  000.51 041.0 m E Sg      2013/04/10 01:17:04.2  -1.5                          T              104.4  .29        Md 2.6  5250851
ETSF  000.84 078.1 m E Pg      2013/04/10 01:17:05.2   0.0                          T                                        5250850
ETSF  000.84 078.1 m E Sg      2013/04/10 01:17:15.6  -0.6                          T               33.7  .38        Md 2.7  5250849
EPF   001.51 077.9 m E Pg      2013/04/10 01:17:17.5   0.0                          T                                        5250848
EPF   001.51 077.9 m E Sg      2013/04/10 01:17:36.3  -0.8                          T               27.0  .36 Ml 2.9         5250847
LFF   002.82 037.6 m E Pn      2013/04/10 01:17:33.0  -0.4                          T                                        5250856
LFF   002.82 037.6 m E Sn      2013/04/10 01:18:04.6  -1.3                          T                5.8  .30 Ml 2.5         5250855
CAF   003.49 049.7 m E Pn      2013/04/10 01:17:41.6  -0.9                          T                                        5250846
CAF   003.49 049.7 m E Sn      2013/04/10 01:18:21.0  -1.0                          T                3.1  .22 Ml 2.7         5250845
RJF   003.45 040.8 m E Pn      2013/04/10 01:17:41.9  -0.2                          T                                        5250858
RJF   003.45 040.8 m E Sn      2013/04/10 01:18:19.9  -1.2                          T                4.5  .29 Ml 2.4         5250857
MTLF  002.92 076.6 m E Pg      2013/04/10 01:17:42.8  -0.7                          T                                        5250854
MTLF  002.92 076.6 m E Sg      2013/04/10 01:18:19.9  -1.1                          T                2.4  .31 Ml 2.3         5250853
BGF   005.01 038.6 m E Pn      2013/04/10 01:18:03.3   0.0                          T                                        5250905
BGF   005.01 038.6 m E Sn      2013/04/10 01:18:57.4  -0.9                          T                8.3  .42 Ml 3.2         5250904

.
EVENT     295678
    Date      Time       Latitude Longitude    Depth    Ndef Nsta Gap    Mag1  N    Mag2  N    Mag3  N   Author         ID
       rms   OT_Error      Smajor Sminor Az        Err   mdist  Mdist     Err        Err        Err      Quality

2013/04/10 07:48:00.0     47.7585    4.4618       .0 f     8    6 300  Ml 2.2  4  Md 2.3  1              bulletin    295778
                                                                                                         _ldg
      1.39   +-  0.62       8.9    4.9   55.23 +-  0.0    0.59   2.00   +-0.2      +-                    m i km

FRANCE
Sta     Dist  EvAz     Phase      Date       Time     TRes  Azim  AzRes  Slow  SRes Def   SNR       Amp   Per   Mag1   Mag2       ID
SFTF  000.59 040.7 m E Pg      2013/04/10 07:48:11.4  -0.1                          T                                        5255410
SFTF  000.59 040.7 m E Sg      2013/04/10 07:48:19.1  -0.3 221.5  0.3               T               66.3  .68        Md 2.3  5255413
HAU   001.29 078.3 m E Pg      2013/04/10 07:48:24.5   0.1                          T                                        5255411
HAU   001.29 078.3 m E Sg      2013/04/10 07:48:41.3   0.0                          T                9.0  .34 Ml 2.1         5255412
MEZF  000.84 027.8 m E Sg      2013/04/10 07:48:27.5   0.3 212.8  4.6               T               16.1  .22                5255409
PAGF  001.16 046.2 m E Sn      2013/04/10 07:48:37.9   0.1 213.9  -13.2             T               27.1  .62 Ml 2.5         5255420
HINF  001.61 087.1 m E Sg      2013/04/10 07:48:51.5   0.2                          T                3.4  .36 Ml 2.1         5255408
CDF   002.00 069.8 m E Sn      2013/04/10 07:48:57.7  -0.2                          T                2.7  .37 Ml 2.2         5255419

.
EVENT     295680
    Date      Time       Latitude Longitude    Depth    Ndef Nsta Gap    Mag1  N    Mag2  N    Mag3  N   Author         ID
       rms   OT_Error      Smajor Sminor Az        Err   mdist  Mdist     Err        Err        Err      Quality

2013/04/10 09:59:38.7     45.0421    6.6030      7.0 f    28    7 107  Ml 1.8  3  Md 1.9  2              bulletin    295780
                                                                                                         _ldg
      0.26   +-  0.03        .7     .6  119.99 +-  0.0    0.05   1.38   +-0.1      +-0.1                 m i ke

FRANCE
Sta     Dist  EvAz     Phase      Date       Time     TRes  Azim  AzRes  Slow  SRes Def   SNR       Amp   Per   Mag1   Mag2       ID
MBDF  000.34 159.1 m E Pg      2013/04/10 09:59:45.4  -0.2                          T                                        5251251
MBDF  000.34 159.1 m E Sg      2013/04/10 09:59:50.0  -0.2                          T                9.3  .22        Md 1.9  5251250
LPG   000.47 012.9 m E Pg      2013/04/10 09:59:48.0  -0.1                          T                                        5251244
LPG   000.47 012.9 m E Sg      2013/04/10 09:59:54.6   0.3                          T                                        5251245
LPL   000.48 010.9 m E Pg      2013/04/10 09:59:48.3   0.0                          T                                        5251247
LPL   000.48 010.9 m E Sg      2013/04/10 09:59:55.1   0.4                          T               17.8  .30                5251246
ORIF  000.53 256.7 m E Pg      2013/04/10 09:59:49.1   0.1                          T                                        5251249
ORIF  000.53 256.7 m E Sg      2013/04/10 09:59:55.7  -0.3                          T                5.7  .22        Md 1.8  5251248
SMRF  001.29 215.0 m E Pg      2013/04/10 10:00:02.9  -0.1                          T                                        5251241
SMRF  001.29 215.0 m E Sg      2013/04/10 10:00:19.8   0.0                          T                1.8  .28 Ml 1.7         5251240
SBF   001.32 152.9 m E Pg      2013/04/10 10:00:03.5   0.0                          T                                        5251239
SBF   001.32 152.9 m E Sg      2013/04/10 10:00:20.6   0.0                          T                2.1  .21 Ml 2.0         5251238
VIVF  001.38 263.0 m E Pg      2013/04/10 10:00:04.8   0.2                          T                                        5251243
VIVF  001.38 263.0 m E Sg      2013/04/10 10:00:22.6   0.1                          T                2.2  .41 Ml 1.7         5251242

.
EVENT     295682
    Date      Time       Latitude Longitude    Depth    Ndef Nsta Gap    Mag1  N    Mag2  N    Mag3  N   Author         ID
       rms   OT_Error      Smajor Sminor Az        Err   mdist  Mdist     Err        Err        Err      Quality

2013/04/10 10:20:28.3     43.7003    6.9643       .0 f    35    8 149  Ml 2.1  6  Md 2.0  2              bulletin    295782
                                                                                                         _ldg
      0.52   +-  0.09       1.9    1.2  158.47 +-  0.0    0.06   2.28   +-0.3      +-0.1                 m i km

NEAR SOUTH COAST OF FRANCE
Sta     Dist  EvAz     Phase      Date       Time     TRes  Azim  AzRes  Slow  SRes Def   SNR       Amp   Per   Mag1   Mag2       ID
FRF   000.27 238.9 m E Pg      2013/04/10 10:20:33.3  -0.5                          T                                        5251665
FRF   000.27 238.9 m E Sg      2013/04/10 10:20:37.5  -0.1                          T               50.5  .48        Md 2.1  5251652
SBF   000.38 064.3 m E Pg      2013/04/10 10:20:36.0   0.2                          T                                        5251663
SBF   000.38 064.3 m E Sg      2013/04/10 10:20:41.2   0.1                          T               66.4  .72        Md 2.0  5251654
LMR   000.49 222.3 m E Pg      2013/04/10 10:20:37.6  -0.3                          T                                        5251664
LMR   000.49 222.3 m E Sg      2013/04/10 10:20:44.3  -0.3                          T                7.8  .22                5251653
MBDF  001.04 352.4 m E Pg      2013/04/10 10:20:48.1   0.0                          T                                        5251660
MBDF  001.04 352.4 m E Sg      2013/04/10 10:21:01.8   0.1                          T               16.0  .70 Ml 2.2         5251659
SMRF  001.04 285.8 m E Pg      2013/04/10 10:20:48.8   0.7                          T                                        5251662
SMRF  001.04 285.8 m E Sg      2013/04/10 10:21:01.8   0.0                          T               22.7  .62 Ml 2.4         5251661
ORIF  001.45 327.8 m E Pg      2013/04/10 10:20:55.6   0.0                          T                                        5251651
ORIF  001.45 327.8 m E Sg      2013/04/10 10:21:14.2  -0.2                          T                6.1  .36 Ml 2.2         5251650
VIVF  002.01 305.9 m E Pn      2013/04/10 10:21:01.8  -0.1                          T                                        5251658
VIVF  002.01 305.9 m E Sn      2013/04/10 10:21:26.4   0.0                          T                 .5  .16 Ml 1.7         5251657
LASF  002.28 280.6 m E Pn      2013/04/10 10:21:05.5   0.0                          T                                        5251656
LASF  002.28 280.6 m E Sn      2013/04/10 10:21:33.0   0.2                          T                1.2  .34 Ml 1.8         5251655

.
EVENT     295683
    Date      Time       Latitude Longitude    Depth    Ndef Nsta Gap    Mag1  N    Mag2  N    Mag3  N   Author         ID
       rms   OT_Error      Smajor Sminor Az        Err   mdist  Mdist     Err        Err        Err      Quality

2013/04/10 11:36:48.9     42.7397   -1.7283      2.0      34    4 217  Ml 1.9  2  Md 2.0  2              bulletin    295783
                                                                                                         _ldg
      0.59   +-  0.29       4.8    2.8  121.93 +-  0.0    0.11   2.95   +-0.1      +-0.1                 m i ke

PYRENEES
Sta     Dist  EvAz     Phase      Date       Time     TRes  Azim  AzRes  Slow  SRes Def   SNR       Amp   Per   Mag1   Mag2       ID
SJPF  000.53 044.5 m E Pg      2013/04/10 11:36:59.6   0.7                          T                                        5251940
SJPF  000.53 044.5 m E Sg      2013/04/10 11:37:05.6  -0.2                          T                                Md 1.9  5251954
ETSF  000.87 079.1 m E Pg      2013/04/10 11:37:05.2  -0.2                          T                                        5251939
ETSF  000.87 079.1 m E Sg      2013/04/10 11:37:17.4   0.6                          T                                Md 2.1  5251956
EPF   001.55 078.5 m E Pg      2013/04/10 11:37:17.8   0.1                          T                                        5251938
EPF   001.55 078.5 m E Sg      2013/04/10 11:37:37.7   0.0                          T                2.3  .27 Ml 2.0         5251955
MTLF  002.95 076.9 m E Pn      2013/04/10 11:37:35.1   0.2                          T                                        5252125
MTLF  002.95 076.9 m E Sn      2013/04/10 11:38:08.5  -0.4                          T                 .6  .24 Ml 1.8         5252124

.
EVENT     295690
    Date      Time       Latitude Longitude    Depth    Ndef Nsta Gap    Mag1  N    Mag2  N    Mag3  N   Author         ID
       rms   OT_Error      Smajor Sminor Az        Err   mdist  Mdist     Err        Err        Err      Quality

2013/04/10 12:24:43.3     42.7392     .3910      7.0 f    74    8 032  Ml 2.3  7  Md 2.4  2              bulletin    295790
                                                                                                         _ldg
      0.36   +-  0.03        .8     .6   12.03 +-  0.0    0.08   2.86   +-0.1      +-0.1                 m i ke

PYRENEES
Sta     Dist  EvAz     Phase      Date       Time     TRes  Azim  AzRes  Slow  SRes Def   SNR       Amp   Per   Mag1   Mag2       ID
EPF   000.29 352.7 m E Pg      2013/04/10 12:24:49.2   0.0                          T                                        5251777
EPF   000.29 352.7 m E Sg      2013/04/10 12:24:53.3   0.1                          T               93.5  .22        Md 2.5  5251774
ETSF  000.72 283.2 m E Pg      2013/04/10 12:24:56.5  -0.4                          T                                        5251776
ETSF  000.72 283.2 m E Sg      2013/04/10 12:25:05.9  -0.4                          T               35.8  .32        Md 2.3  5251775
SJPF  001.24 288.0 m E Pg      2013/04/10 12:25:06.6   0.0                          T                                        5251771
SJPF  001.24 288.0 m E Sg      2013/04/10 12:25:22.7   0.0                          T                8.2  .28 Ml 2.4         5251772
MTLF  001.47 065.2 m E Pn      2013/04/10 12:25:08.8   0.3                          T                                        5251788
MTLF  001.47 065.2 m E Pg      2013/04/10 12:25:10.7   0.0                          T                                        5255393
MTLF  001.47 065.2 m E Sg      2013/04/10 12:25:29.9   0.2                          T                4.5  .25 Ml 2.3         5251773
CAF   002.50 028.4 m E Pn      2013/04/10 12:25:22.5   0.0                          T                                        5251784
CAF   002.50 028.4 m E P       2013/04/10 12:25:25.3   0.1                          T                                        5255392
CAF   002.50 028.4 m E Pg      2013/04/10 12:25:29.5  -0.1                          T                                        5251785
CAF   002.50 028.4 m E Sn      2013/04/10 12:25:51.8   0.3                          T                                        5251783
CAF   002.50 028.4 m E Sg      2013/04/10 12:26:02.0   0.2                          T                2.5  .20 Ml 2.4         5251782
LFF   002.21 006.4 m E Pg      2013/04/10 12:25:24.4   0.0                          T                                        5251780
LFF   002.21 006.4 m E Sg      2013/04/10 12:25:53.4   0.5                          T                7.6  .31 Ml 2.5         5251781
LASF  002.86 060.9 m E P       2013/04/10 12:25:30.6   0.3                          T                                        5255391
LASF  002.86 060.9 m E Pg      2013/04/10 12:25:36.5   0.2                          T                                        5251787
LASF  002.86 060.9 m E Sg      2013/04/10 12:26:13.1   0.1                          T                1.5  .28 Ml 2.1         5251786
RJF   002.69 017.2 m E Pg      2013/04/10 12:25:33.3   0.2                          T                                        5251779
RJF   002.69 017.2 m E Sg      2013/04/10 12:26:08.1   0.3                          T                4.2  .22 Ml 2.3         5251778

.
EVENT     295713
    Date      Time       Latitude Longitude    Depth    Ndef Nsta Gap    Mag1  N    Mag2  N    Mag3  N   Author         ID
       rms   OT_Error      Smajor Sminor Az        Err   mdist  Mdist     Err        Err        Err      Quality

2013/04/10 13:38:46.5     42.7362   -1.8115      2.0      31    3 199  Ml 2.4  2  Md 2.2  1              bulletin    295813
                                                                                                         _ldg
      0.66   +-  0.28       4.3    2.8  108.27 +-  0.0    0.17   2.57   +-0.2      +-                    m i ke

PYRENEES
Sta     Dist  EvAz     Phase      Date       Time     TRes  Azim  AzRes  Slow  SRes Def   SNR       Amp   Per   Mag1   Mag2       ID
SJPF  000.57 048.6 m E Pg      2013/04/10 13:38:57.8   0.5                          T                                        5252322
SJPF  000.57 048.6 m E Sg      2013/04/10 13:39:06.5   1.7                          T               18.3  .24        Md 2.2  5252317
ETSF  000.94 079.6 m E Pg      2013/04/10 13:39:04.1   0.0                          T                                        5252321
ETSF  000.94 079.6 m E Sg      2013/04/10 13:39:16.4   0.1                          T                8.5  .29 Ml 2.3         5252318
EPF   001.61 078.7 m E Pg      2013/04/10 13:39:16.5   0.0                          T                                        5252320
EPF   001.61 078.7 m E Sg      2013/04/10 13:39:37.3   0.0                          T                8.0  .32 Ml 2.5         5252319

.
