EVENT     263711
    Date      Time       Latitude Longitude    Depth    Ndef Nsta Gap    Mag1  N    Mag2  N    Mag3  N   Author         ID
       rms   OT_Error      Smajor Sminor Az        Err   mdist  Mdist     Err        Err        Err      Quality

2011/09/08 20:36:43.4     44.6404   10.4192     20.0 f    79   34 072  Ml 3.6 24                         js067245    263711

      1.13   +-  0.14       3.3    2.8   73.49 +-  0.0    0.14   8.63   +-0.3                            m i ke

NORTHERN ITALY
Sta     Dist  EvAz     Phase      Date       Time     TRes  Azim  AzRes  Slow  SRes Def   SNR       Amp   Per   Mag1   Mag2       ID
SBF   002.28 251.1 m E Pn      2011/09/08 20:37:18.1  -0.3                          T                                        4760123
SBF   002.28 251.1 m E Sn      2011/09/08 20:37:43.0  -0.1                          T   001.0      290.3  .40 Ml 4.1         4747045
PGF   002.33 206.7 m E Pn      2011/09/08 20:37:18.7  -0.4                          T   001.0                                4747043
PGF   002.33 206.7 m E Sn      2011/09/08 20:37:45.2  -0.1                          T   001.0       37.9  .32 Ml 3.6         4747044
MBDF  002.60 273.2 m E Pn      2011/09/08 20:37:22.9   0.1                          T   001.0                                4747054
MBDF  002.60 273.2 m E Sn      2011/09/08 20:37:52.5   0.5                          T              144.9  .56 Ml 3.8         4760119
LPG   002.74 289.5 m E Pn      2011/09/08 20:37:24.9   0.0                          T   001.0                                4747040
LPG   002.74 289.5 m E Sn      2011/09/08 20:37:56.4   1.2                          T              136.5  .66 Ml 3.7         4760121
LPL   002.75 289.8 m E Pn      2011/09/08 20:37:25.0   0.0                          T                                        4760124
LPL   002.75 289.8 m E P       2011/09/08 20:37:28.5   0.6                          T   001.0                                4747041
LPL   002.75 289.8 m E Sn      2011/09/08 20:37:56.0   0.4                          T   001.0      106.4  .56 Ml 3.7         4747042
FRF   002.92 249.7 m E Pn      2011/09/08 20:37:26.4  -0.6                          T   001.0                                4747029
FRF   002.92 249.7 m E Sn      2011/09/08 20:37:59.2  -0.2                          T   001.0      114.2  .40 Ml 3.9         4747030
LMR   003.11 246.5 m E Pn      2011/09/08 20:37:28.8  -0.7                          T   001.0                                4747036
LMR   003.11 246.5 m E Sn      2011/09/08 20:38:02.5  -1.3                          T   001.0       73.7  .32 Ml 3.8         4747037
ORIF  003.24 276.5 m E Pn      2011/09/08 20:37:32.1   0.6                          T                                        4760125
ORIF  003.24 276.5 m E P       2011/09/08 20:37:34.6  -0.1                          T   001.0                                4747056
ORIF  003.24 276.5 m E Sn      2011/09/08 20:38:07.7   0.5                          T              122.5  .60 Ml 3.8         4760120
SMRF  003.54 260.9 m E Pn      2011/09/08 20:37:36.4   0.9                          T   001.0                                4747059
SMRF  003.54 260.9 m E Sn      2011/09/08 20:38:14.0  -0.1                          T               49.1  .61 Ml 3.5         4760122
CABF  003.62 304.5 m E Pn      2011/09/08 20:37:36.7   0.1                          T   001.0                                4747052
CABF  003.62 304.5 m E Sn      2011/09/08 20:38:14.8  -1.4                          T               22.5  .40 Ml 3.3         4760115
HINF  004.03 323.3 m E Pn      2011/09/08 20:37:41.8  -0.3                          T   001.0                                4747053
HINF  004.03 323.3 m E Sn      2011/09/08 20:38:25.7  -0.1                          T               24.0  .47 Ml 3.4         4760114
VIVF  004.10 275.0 m E Pn      2011/09/08 20:37:43.5   0.4                          T   001.0                                4747057
VIVF  004.10 275.0 m E Sn      2011/09/08 20:38:27.6   0.1                          T   001.0       17.6  .44 Ml 3.3         4747058
CDF   004.35 331.2 m E Pn      2011/09/08 20:37:45.5  -1.1                          T   001.0                                4747027
CDF   004.35 331.2 m E Sn      2011/09/08 20:38:33.5  -0.1                          T               25.0  .42 Ml 3.6         4760113
HAU   004.39 321.5 m E Pn      2011/09/08 20:37:47.0   0.0                          T   001.0                                4747032
HAU   004.39 321.5 m E Sn      2011/09/08 20:38:33.6  -0.9                          T   001.0       32.4  .36 Ml 3.5         4747033
LANF  004.70 338.5 m E Pn      2011/09/08 20:37:51.4   0.2                          T                                        4760134
THEF  004.72 321.1 m E Pn      2011/09/08 20:37:51.4   0.0                          T                                        4760130
LASF  004.74 265.5 m E Pn      2011/09/08 20:37:51.7   0.0                          T   001.0                                4747034
LASF  004.74 265.5 m E Sn      2011/09/08 20:38:43.4   0.6                          T   001.0        9.8  .44 Ml 3.2         4747035
SMF   005.03 295.8 m E Pn      2011/09/08 20:37:55.0  -0.7                          T   001.0                                4747046
SMF   005.03 295.8 m E Sn      2011/09/08 20:38:50.7   1.0                          T   001.0       27.3  .52 Ml 3.6         4747047
PAGF  005.08 322.1 m E Pn      2011/09/08 20:37:56.4   0.1                          T                                        4760133
SFTF  005.15 315.7 m E Pn      2011/09/08 20:37:57.4   0.0                          T                                        4760131
LOR   005.28 302.2 m E Pn      2011/09/08 20:37:58.5  -0.6                          T   001.0                                4747038
LOR   005.28 302.2 m E Sn      2011/09/08 20:38:56.7   1.1                          T   001.0       29.3  .36 Ml 3.9         4747039
SSF   005.40 299.1 m E Pn      2011/09/08 20:38:00.0  -0.8                          T   001.0                                4747048
SSF   005.40 299.1 m E Sn      2011/09/08 20:38:59.7   1.1                          T   001.0        9.7  .40 Ml 3.4         4747049
MEZF  005.35 318.1 m E Pn      2011/09/08 20:38:00.0   0.0                          T                                        4760132
AVF   005.40 296.0 m E Pn      2011/09/08 20:38:00.3  -0.4                          T   001.0                                4747023
AVF   005.40 296.0 m E Sn      2011/09/08 20:38:58.7   0.3                          T   001.0          8  .60 Ml 3.1         4747024
RUP   005.56 336.9 m E Pn      2011/09/08 20:38:02.8  -0.1                          T                                        4760135
RUP   005.56 336.9 m E Pg      2011/09/08 20:38:25.5  -0.8                          T                                        4760136
BGF   005.65 292.5 m E Pn      2011/09/08 20:38:04.0  -0.1                          T   001.0                                4747025
BGF   005.65 292.5 m E Sn      2011/09/08 20:39:04.8   0.2                          T               37.8  .40 Ml 4.0         4760116
CAF   005.95 275.7 m E Pn      2011/09/08 20:38:08.6   0.3                          T   001.0                                4747026
HYF   006.03 298.6 m E Pn      2011/09/08 20:38:09.2   0.0                          T                                        4760129
TCF   006.00 288.8 m E Pn      2011/09/08 20:38:09.6   0.6                          T   001.0                                4747050
TCF   006.00 288.8 m E Sn      2011/09/08 20:39:13.8   0.7                          T   001.0        8.8  .44 Ml 3.4         4747051
MTLF  006.06 260.5 m E Pn      2011/09/08 20:38:10.5   0.8                          T   001.0                                4747055
MTLF  006.06 260.5 m E Sn      2011/09/08 20:39:14.2  -0.1                          T                7.2  .45 Ml 3.3         4760118
EPF   007.46 261.1 m E Pn      2011/09/08 20:38:30.1   1.2                          T   001.0                                4747028
MFF   007.66 288.5 m E Pn      2011/09/08 20:38:32.5   1.0                          T                                        4760127
ETSF  008.13 261.5 m E P       2011/09/08 20:38:42.3  -1.3                          T                                        4760126
GRR   008.63 299.7 m E Pn      2011/09/08 20:38:44.7   0.0                          T   001.0                                4747031

.
EVENT     263713
    Date      Time       Latitude Longitude    Depth    Ndef Nsta Gap    Mag1  N    Mag2  N    Mag3  N   Author         ID
       rms   OT_Error      Smajor Sminor Az        Err   mdist  Mdist     Err        Err        Err      Quality

2011/09/08 22:15:12.6     44.5897   10.3203     20.0 f    17    4 071  Ml 2.5  1  Md 2.8  2              js067245    263713

      1.13   +-  0.35       7.5    6.4  170.92 +-  0.0    0.17   3.02   +-         +-0.0                 m i ke

NORTHERN ITALY
Sta     Dist  EvAz     Phase      Date       Time     TRes  Azim  AzRes  Slow  SRes Def   SNR       Amp   Per   Mag1   Mag2       ID
SBF   002.20 251.7 m E Pn      2011/09/08 22:15:46.9   0.6                          T                                        4752566
FRF   002.84 250.0 m E Pn      2011/09/08 22:15:55.9   0.9                          T                                        4752565
FRF   002.84 250.0 m E Sn      2011/09/08 22:16:29.3   2.8                          T                4.0  .38 Ml 2.5 Md 2.8  4752564
LMR   003.02 246.8 m E Pn      2011/09/08 22:15:58.0   0.5                          T                                        4752567
LMR   003.02 246.8 m E Sn      2011/09/08 22:16:32.7   1.8                          T                                Md 2.7  4752563
LPL   002.71 291.3 m E P       2011/09/08 22:15:58.9   2.6                          T                                        4752562

.
EVENT     263714
    Date      Time       Latitude Longitude    Depth    Ndef Nsta Gap    Mag1  N    Mag2  N    Mag3  N   Author         ID
       rms   OT_Error      Smajor Sminor Az        Err   mdist  Mdist     Err        Err        Err      Quality

2011/09/08 22:27:07.3     44.6230   10.4843     20.0 f    29    9 101  Ml 2.7  9                         js067245    263714

      0.62   +-  0.14       3.9    3.3  147.10 +-  0.0    0.19   4.43   +-0.2                            m i ke

NORTHERN ITALY
Sta     Dist  EvAz     Phase      Date       Time     TRes  Azim  AzRes  Slow  SRes Def   SNR       Amp   Per   Mag1   Mag2       ID
SBF   002.32 251.9 m E Pn      2011/09/08 22:27:42.9   0.1                          T                                        4760152
SBF   002.32 251.9 m E Sn      2011/09/08 22:28:08.8  -0.2                          T               16.0  .35 Ml 2.9         4760138
PGF   002.34 208.0 m E Pn      2011/09/08 22:27:43.5   0.5                          T                                        4760153
PGF   002.34 208.0 m E Sn      2011/09/08 22:28:10.0   0.6                          T                3.7  .30 Ml 2.6         4760137
LPG   002.79 289.6 m E Pn      2011/09/08 22:27:49.9   0.5                          T                                        4760149
LPG   002.79 289.6 m E Sn      2011/09/08 22:28:21.1   0.7                          T               16.1  .70 Ml 2.7         4760141
FRF   002.96 250.3 m E Pn      2011/09/08 22:27:51.4  -0.1                          T                                        4760150
FRF   002.96 250.3 m E Sn      2011/09/08 22:28:24.4   0.2                          T                3.6  .23 Ml 2.7         4760140
LPL   002.80 289.9 m E P       2011/09/08 22:27:53.5   1.0                          T                                        4760148
LPL   002.80 289.9 m E Sn      2011/09/08 22:28:20.4  -0.3                          T                5.0  .34 Ml 2.6         4760142
LMR   003.15 247.2 m E Pn      2011/09/08 22:27:53.7  -0.2                          T                                        4760151
LMR   003.15 247.2 m E Sn      2011/09/08 22:28:27.6  -1.0                          T                5.9  .30 Ml 2.8         4760139
HINF  004.07 323.0 m E Pn      2011/09/08 22:28:06.7   0.2                          T                                        4760147
HINF  004.07 323.0 m E Sn      2011/09/08 22:28:50.3  -0.5                          T                1.0  .16 Ml 2.5         4760143
CDF   004.39 330.8 m E Pn      2011/09/08 22:28:11.2   0.1                          T                                        4760154
CDF   004.39 330.8 m E Sn      2011/09/08 22:28:58.0  -0.5                          T                3.5  .36 Ml 2.8         4760145
HAU   004.43 321.2 m E Pn      2011/09/08 22:28:11.5   0.0                          T                                        4760146
HAU   004.43 321.2 m E Sn      2011/09/08 22:28:58.4  -1.1                          T                4.7  .22 Ml 2.9         4760144

.
EVENT     263712
    Date      Time       Latitude Longitude    Depth    Ndef Nsta Gap    Mag1  N    Mag2  N    Mag3  N   Author         ID
       rms   OT_Error      Smajor Sminor Az        Err   mdist  Mdist     Err        Err        Err      Quality

2011/09/08 22:55:07.5     44.6261   10.3879     20.0 f   121   25 037  Ml 3.4 15  Md 3.0  3              js067245    263712

      0.84   +-  0.07       2.7    1.6   41.47 +-  0.0    0.15   8.62   +-0.3      +-0.0                 m i ke

NORTHERN ITALY
Sta     Dist  EvAz     Phase      Date       Time     TRes  Azim  AzRes  Slow  SRes Def   SNR       Amp   Per   Mag1   Mag2       ID
SBF   002.25 251.3 m E Pn      2011/09/08 22:55:41.4  -0.7                          T   001.0                                4747005
SBF   002.25 251.3 m E Sn      2011/09/08 22:56:08.5   0.9                          T   001.0      275.3  .56 Ml 4.0 Md 3.0  4747006
PGF   002.31 206.4 m E Pn      2011/09/08 22:55:42.5  -0.4                          T   001.0                                4747003
PGF   002.31 206.4 m E Sn      2011/09/08 22:56:10.0   1.0                          T   001.0       13.7  .24 Ml 3.3         4747004
MBDF  002.58 273.5 m E Pn      2011/09/08 22:55:47.1   0.4                          T   001.0                                4747014
MBDF  002.58 273.5 m E P       2011/09/08 22:55:48.6  -0.8                          T                                        4752575
MBDF  002.58 273.5 m E Sn      2011/09/08 22:56:18.5   2.9                          T   001.0       58.4  .44 Ml 3.5         4747015
LPL   002.74 290.3 m E Pn      2011/09/08 22:55:48.5  -0.5                          T   001.0                                4747001
LPL   002.74 290.3 m E P       2011/09/08 22:55:52.8   1.0                          T                                        4752568
LPL   002.74 290.3 m E Pg      2011/09/08 22:55:55.5  -3.3                          T                                        4752571
LPG   002.72 290.0 m E Pn      2011/09/08 22:55:49.3   0.6                          T   001.0                                4747000
FRF   002.90 249.7 m E Pn      2011/09/08 22:55:49.9  -0.9                          T   001.0                                4746993
FRF   002.90 249.7 m E Sn      2011/09/08 22:56:23.8   0.9                          T               65.4  .42 Ml 3.6 Md 3.0  4752576
LMR   003.08 246.6 m E Pn      2011/09/08 22:55:51.9  -1.4                          T                                        4752578
LMR   003.08 246.6 m E Sn      2011/09/08 22:56:27.8   0.5                          T               65.5  .43 Ml 3.7 Md 2.9  4752577
ORIF  003.22 276.8 m E Pn      2011/09/08 22:55:55.0  -0.4                          T   001.0                                4747018
ORIF  003.22 276.8 m E P       2011/09/08 22:55:57.9  -0.6                          T                                        4752574
SMRF  003.52 261.0 m E Pn      2011/09/08 22:56:00.1   0.9                          T   001.0                                4747020
SMRF  003.52 261.0 m E Sn      2011/09/08 22:56:42.1   4.4                          T   001.0                                4747021
SMRF  003.52 261.0 m E Sg      2011/09/08 22:56:59.7   1.7                          T   001.0       26.1  .48 Ml 3.3         4747022
CABF  003.61 304.9 m E Pn      2011/09/08 22:56:00.6   0.0                          T   001.0                                4747011
HINF  004.03 323.7 m E Pn      2011/09/08 22:56:05.2  -1.0                          T   001.0                                4747012
HINF  004.03 323.7 m E Sn      2011/09/08 22:56:50.6   0.7                          T                                        4752573
HINF  004.03 323.7 m E Sg      2011/09/08 22:57:11.7  -2.2                          T   001.0       20.4  .52 Ml 3.2         4747013
VIVF  004.08 275.2 m E Pn      2011/09/08 22:56:06.8  -0.1                          T   001.0                                4747019
CDF   004.35 331.5 m E Pn      2011/09/08 22:56:09.6  -1.1                          T   001.0                                4746992
CDF   004.35 331.5 m E Sn      2011/09/08 22:56:58.5   0.7                          T               23.3  .35 Ml 3.7         4752569
HAU   004.39 321.8 m E Pn      2011/09/08 22:56:10.2  -0.9                          T   001.0                                4746995
HAU   004.39 321.8 m E Sn      2011/09/08 22:56:59.0   0.5                          T   001.0       26.1  .26 Ml 3.5         4746996
LASF  004.72 265.6 m E Pn      2011/09/08 22:56:15.8   0.2                          T   001.0                                4746997
SMF   005.02 296.0 m E Pn      2011/09/08 22:56:19.8   0.2                          T   001.0                                4747007
SMF   005.02 296.0 m E Sn      2011/09/08 22:57:14.7   1.2                          T   001.0       11.3  .32 Ml 3.4         4747008
LOR   005.26 302.4 m E Pn      2011/09/08 22:56:22.9  -0.1 115.6  -2.1              T   001.0                                4746998
LOR   005.26 302.4 m E Sn      2011/09/08 22:57:20.3   0.8 124.0  6.3               T   001.0       14.1  .36 Ml 3.5         4746999
SSF   005.39 299.3 m E Pn      2011/09/08 22:56:24.2  -0.6                          T   001.0                                4747009
AVF   005.38 296.2 m E Pn      2011/09/08 22:56:24.5  -0.1                          T   001.0                                4746986
AVF   005.38 296.2 m E Sn      2011/09/08 22:57:26.3   4.1                          T   001.0        6.9  .60 Ml 3.0         4746987
BGF   005.63 292.7 m E Pn      2011/09/08 22:56:27.7  -0.3                          T   001.0                                4746988
BGF   005.63 292.7 m E Sn      2011/09/08 22:57:28.8   0.5                          T   001.0                                4746989
BGF   005.63 292.7 m E Sg      2011/09/08 22:58:04.9   0.9                          T   001.0       12.5  .68 Ml 3.3         4746990
CAF   005.93 275.8 m E Pn      2011/09/08 22:56:32.4   0.2                          T   001.0                                4746991
TCF   005.99 289.0 m E Pn      2011/09/08 22:56:33.0   0.0                          T                                        4752570
TCF   005.99 289.0 m E Sn      2011/09/08 22:57:38.3   1.5                          T   001.0        9.3  .48 Ml 3.4         4747010
MTLF  006.03 260.6 m E Pn      2011/09/08 22:56:34.3   0.8                          T   001.0                                4747016
MTLF  006.03 260.6 m E Sn      2011/09/08 22:57:42.3   4.5                          T   001.0        3.3  .40 Ml 3.0         4747017
MFF   007.65 288.7 m E Pn      2011/09/08 22:56:57.1   1.6                          T   001.0                                4747002
GRR   008.62 299.8 m E Pn      2011/09/08 22:57:09.2   0.5                          T   001.0                                4746994

.
