EVENT     256318
    Date      Time       Latitude Longitude    Depth    Ndef Nsta Gap    Mag1  N    Mag2  N    Mag3  N   Author         ID
       rms   OT_Error      Smajor Sminor Az        Err   mdist  Mdist     Err        Err        Err      Quality

2011/02/23 11:12:25.8     44.6153    7.2395      2.0      16    6 190  Ml 1.6  5  Md 1.7  3              js067245    256338

      0.23   +-  0.10       2.5     .9   66.52 +-  0.0    0.29   1.39   +-0.2      +-0.0                 m i ke

NORTHERN ITALY
Sta     Dist  EvAz     Phase      Date       Time     TRes  Azim  AzRes  Slow  SRes Def   SNR       Amp   Per   Mag1   Mag2       ID
MBDF  000.35 288.6 m E Pg      2011/02/23 11:12:33.1   0.3                          T                                        4653508
MBDF  000.35 288.6 m E Sg      2011/02/23 11:12:37.1  -0.4                          T               18.3  .25        Md 1.7  4653497
SBF   000.77 169.3 m E Pg      2011/02/23 11:12:40.2  -0.1                          T                                        4653503
SBF   000.77 169.3 m E Sg      2011/02/23 11:12:50.0  -0.3                          T                2.5  .25        Md 1.7  4653502
LPG   000.95 338.8 m E Pg      2011/02/23 11:12:43.9   0.0                          T                                        4653506
LPG   000.95 338.8 m E Sg      2011/02/23 11:12:56.2   0.0                          T                 .8  .20 Ml 1.4 Md 1.6  4653499
ORIF  001.01 287.8 m E Pg      2011/02/23 11:12:44.8  -0.1                          T                                        4653507
ORIF  001.01 287.8 m E Sg      2011/02/23 11:12:56.7  -1.4                          T                1.4  .26 Ml 1.5         4653498
FRF   001.14 202.3 m E Pg      2011/02/23 11:12:47.1   0.1                          T                                        4653505
FRF   001.14 202.3 m E Sg      2011/02/23 11:13:01.9   0.1                          T                1.6  .19 Ml 1.9         4653500
LMR   001.39 202.6 m E Pg      2011/02/23 11:12:51.6   0.0                          T                                        4653504
LMR   001.39 202.6 m E Sg      2011/02/23 11:13:09.3  -0.2                          T                 .5  .16 Ml 1.5         4653501

.
EVENT     256319
    Date      Time       Latitude Longitude    Depth    Ndef Nsta Gap    Mag1  N    Mag2  N    Mag3  N   Author         ID
       rms   OT_Error      Smajor Sminor Az        Err   mdist  Mdist     Err        Err        Err      Quality

2011/02/23 11:12:53.3     44.6153    7.2442      2.0      20    8 191  Ml 1.9  7  Md 1.6  3              js067245    256339

      0.27   +-  0.09       2.2     .9   71.96 +-  0.0    0.30   1.39   +-0.2      +-0.2                 m i ke

NORTHERN ITALY
Sta     Dist  EvAz     Phase      Date       Time     TRes  Azim  AzRes  Slow  SRes Def   SNR       Amp   Per   Mag1   Mag2       ID
MBDF  000.36 288.5 m E Pg      2011/02/23 11:13:00.6   0.3                          T                                        4653493
MBDF  000.36 288.5 m E Sg      2011/02/23 11:13:04.6  -0.5                          T               54.7  .26        Md 1.8  4653489
SBF   000.76 169.6 m E Pg      2011/02/23 11:13:07.7  -0.1                          T                                        4653482
SBF   000.76 169.6 m E Sg      2011/02/23 11:13:17.5  -0.3                          T                5.1  .24        Md 1.5  4653483
LPG   000.95 338.6 m E Pg      2011/02/23 11:13:11.4   0.0                          T                                        4653494
LPG   000.95 338.6 m E Sg      2011/02/23 11:13:23.7  -0.1                          T                1.8  .20 Ml 1.7 Md 1.6  4653484
LPL   000.97 338.3 m E Pg      2011/02/23 11:13:11.6  -0.2                          T                                        4653491
LPL   000.97 338.3 m E Sg      2011/02/23 11:13:24.5   0.1                          T                5.9  .35 Ml 2.0         4653487
ORIF  001.02 287.8 m E Pg      2011/02/23 11:13:12.3  -0.1                          T                                        4653492
ORIF  001.02 287.8 m E Sg      2011/02/23 11:13:24.2  -1.4                          T                1.5  .16 Ml 1.8         4653488
FRF   001.14 202.4 m E Pg      2011/02/23 11:13:14.7   0.2                          T                                        4653490
FRF   001.14 202.4 m E Sg      2011/02/23 11:13:29.3   0.0                          T                1.7  .17 Ml 1.9         4653486
SMRF  001.36 242.5 m E Pg      2011/02/23 11:13:18.7   0.0                          T                                        4653480
SMRF  001.36 242.5 m E Sg      2011/02/23 11:13:36.3   0.1                          T                1.1  .29 Ml 1.6         4653479
LMR   001.39 202.8 m E Pg      2011/02/23 11:13:19.1   0.0                          T                                        4653481
LMR   001.39 202.8 m E Sg      2011/02/23 11:13:36.9  -0.1                          T                2.3  .19 Ml 2.1         4653485

.
EVENT     256358
    Date      Time       Latitude Longitude    Depth    Ndef Nsta Gap    Mag1  N    Mag2  N    Mag3  N   Author         ID
       rms   OT_Error      Smajor Sminor Az        Err   mdist  Mdist     Err        Err        Err      Quality

2011/02/23 16:08:58.5     43.5761    3.0999       .0 f    15    6 173  Ml 2.0  4  Md 1.9  2              js067245    256378

      0.23   +-  0.04       1.2     .5  153.78 +-  0.0    0.68   2.09   +-0.1      +-0.1                 m i km

NEAR SOUTH COAST OF FRANCE
Sta     Dist  EvAz     Phase      Date       Time     TRes  Azim  AzRes  Slow  SRes Def   SNR       Amp   Per   Mag1   Mag2       ID
MTLF  000.68 250.2 m E Pg      2011/02/23 16:09:11.6   0.0                          T                                        4653729
MTLF  000.68 250.2 m E Sg      2011/02/23 16:09:20.9   0.1                          T                4.2  .28        Md 1.9  4653726
LASF  000.74 047.4 m E Pg      2011/02/23 16:09:12.7   0.0                          T                                        4653728
LASF  000.74 047.4 m E Sg      2011/02/23 16:09:22.6   0.0                          T               10.4  .39        Md 1.9  4653727
CAF   001.54 331.5 m E Pn      2011/02/23 16:09:25.7   0.0                          T                                        4653724
CAF   001.54 331.5 m E Pg      2011/02/23 16:09:27.3  -0.1                          T                                        4655574
CAF   001.54 331.5 m E Sg      2011/02/23 16:09:47.5   0.0                          T                2.5  .26 Ml 2.0         4653725
VIVF  001.71 040.9 m E Pg      2011/02/23 16:09:30.7   0.1                          T                                        4653723
VIVF  001.71 040.9 m E Sg      2011/02/23 16:09:52.7  -0.1                          T                3.8  .39 Ml 2.1         4653722
SMRF  001.84 076.6 m E Pg      2011/02/23 16:09:32.9   0.0                          T                                        4653720
SMRF  001.84 076.6 m E Sg      2011/02/23 16:09:56.7  -0.1                          T                1.7  .38 Ml 1.8         4653721
EPF   002.09 255.8 m E Pg      2011/02/23 16:09:37.8   0.2                          T                                        4653719
EPF   002.09 255.8 m E Sg      2011/02/23 16:10:04.7   0.1                          T                2.0  .27 Ml 2.1         4653718

.
EVENT     256356
    Date      Time       Latitude Longitude    Depth    Ndef Nsta Gap    Mag1  N    Mag2  N    Mag3  N   Author         ID
       rms   OT_Error      Smajor Sminor Az        Err   mdist  Mdist     Err        Err        Err      Quality

2011/02/23 16:27:55.4     47.8605    6.5640       .0 f    31   13 092  Ml 1.9 10  Md 2.0  3              js067245    256376

      0.53   +-  0.04        .9     .7  150.41 +-  0.0    0.20   2.43   +-0.3      +-0.1                 m i km

FRANCE
Sta     Dist  EvAz     Phase      Date       Time     TRes  Azim  AzRes  Slow  SRes Def   SNR       Amp   Per   Mag1   Mag2       ID
HINF  000.20 102.6 m E Pg      2011/02/23 16:27:59.9   0.1                          T                                        4653738
HINF  000.20 102.6 m E Sg      2011/02/23 16:28:02.6  -0.1                          T                8.0  .24        Md 2.0  4653734
HAU   000.21 315.1 m E Pg      2011/02/23 16:28:00.0   0.2                          T                                        4653739
HAU   000.21 315.1 m E Sg      2011/02/23 16:28:02.7  -0.2                          T               52.4  .42        Md 2.0  4653735
THEF  000.53 314.1 m E Pg      2011/02/23 16:28:05.9   0.1                          T                                        4653737
THEF  000.53 314.1 m E Pn      2011/02/23 16:28:09.3   0.0                          T                                        4655575
THEF  000.53 314.1 m E Sg      2011/02/23 16:28:13.0   0.0                          T               12.7  .50        Md 1.9  4653732
CDF   000.73 040.6 m E Pg      2011/02/23 16:28:09.5  -0.1                          T                                        4653757
CDF   000.73 040.6 m E Pn      2011/02/23 16:28:11.7   0.0                          T                                        4655576
CDF   000.73 040.6 m E Sg      2011/02/23 16:28:19.5   0.2                          T               18.8  .28                4653743
CDF   000.73 040.6 m E Sn      2011/02/23 16:28:22.8  -0.3                          T                                        4655577
PAGF  000.89 321.4 m E Pg      2011/02/23 16:28:12.6   0.2                          T                                        4653756
PAGF  000.89 321.4 m E Sg      2011/02/23 16:28:24.3   0.0 138.2  -2.5              T                 .6  .19 Ml 1.2         4653742
SFTF  001.08 289.2 m E Pg      2011/02/23 16:28:16.1   0.2 111.4  3.4               T                                        4653736
SFTF  001.08 289.2 m E Sg      2011/02/23 16:28:30.1   0.0 115.6  7.6               T                4.7  .21 Ml 2.2         4653733
MEZF  001.20 302.9 m E Pg      2011/02/23 16:28:17.9  -0.2 123.2  1.4               T                                        4653758
MEZF  001.20 302.9 m E Sg      2011/02/23 16:28:33.6  -0.2 127.4  5.6               T                4.0  .37 Ml 1.9         4653759
CABF  001.29 194.7 m E Pg      2011/02/23 16:28:20.2   0.3                          T                                        4653754
CABF  001.29 194.7 m E Sg      2011/02/23 16:28:36.5  -0.3                          T                2.0  .24 Ml 1.9         4653748
LANF  001.39 036.0 m E Pg      2011/02/23 16:28:21.5  -0.2                          T                                        4653755
LANF  001.39 036.0 m E Sg      2011/02/23 16:28:39.9   0.0                          T                2.2  .24 Ml 2.0         4653744
LOR   001.93 253.1 m E Pg      2011/02/23 16:28:31.4  -0.1  71.5  0.4               T                                        4653752
LOR   001.93 253.1 m E Sg      2011/02/23 16:28:56.6   0.1                          T                2.1  .33 Ml 2.0         4653746
SSF   002.22 250.1 m E Pg      2011/02/23 16:28:36.8  -0.2                          T                                        4653751
SSF   002.22 250.1 m E Sg      2011/02/23 16:29:05.8   0.0                          T                 .9  .25 Ml 1.9         4653745
SMF   002.22 237.8 m E Pg      2011/02/23 16:28:36.9   0.0                          T                                        4653753
SMF   002.22 237.8 m E Sg      2011/02/23 16:29:05.5  -0.2                          T                 .8  .19 Ml 1.8         4653750
AVF   002.43 245.1 m E Pg      2011/02/23 16:28:41.0   0.2                          T                                        4653747
AVF   002.43 245.1 m E Sg      2011/02/23 16:29:12.1  -0.2                          T                 .9  .35 Ml 1.7         4653749

.
EVENT     256357
    Date      Time       Latitude Longitude    Depth    Ndef Nsta Gap    Mag1  N    Mag2  N    Mag3  N   Author         ID
       rms   OT_Error      Smajor Sminor Az        Err   mdist  Mdist     Err        Err        Err      Quality

2011/02/23 16:31:25.4     44.6117    7.2195      2.0      20    8 188  Ml 2.0  7  Md 2.1  3              js067245    256377

      0.23   +-  0.09       2.0     .8   73.48 +-  0.0    0.29   1.38   +-0.2      +-0.0                 m i ke

NORTHERN ITALY
Sta     Dist  EvAz     Phase      Date       Time     TRes  Azim  AzRes  Slow  SRes Def   SNR       Amp   Per   Mag1   Mag2       ID
MBDF  000.34 290.0 m E Pg      2011/02/23 16:31:32.5   0.3                          T                                        4653775
MBDF  000.34 290.0 m E Sg      2011/02/23 16:31:36.9   0.2                          T               23.8  .26        Md 2.0  4653769
SBF   000.76 168.2 m E Pg      2011/02/23 16:31:40.2   0.3                          T                                        4653770
SBF   000.76 168.2 m E Sg      2011/02/23 16:31:49.8  -0.1                          T                3.7  .21        Md 2.1  4653761
LPG   000.95 339.6 m E Pg      2011/02/23 16:31:43.3  -0.2                          T                                        4653773
LPG   000.95 339.6 m E Sg      2011/02/23 16:31:55.4  -0.4                          T                4.1  .32 Ml 1.9 Md 2.0  4653766
LPL   000.97 339.3 m E Pg      2011/02/23 16:31:43.8   0.0                          T                                        4653772
LPL   000.97 339.3 m E Sg      2011/02/23 16:31:56.2  -0.2                          T                4.6  .28 Ml 2.0         4653767
ORIF  001.00 288.3 m E Pg      2011/02/23 16:31:44.2  -0.1                          T                                        4653774
ORIF  001.00 288.3 m E Sg      2011/02/23 16:31:57.5   0.2                          T                1.9  .23 Ml 1.7         4653768
FRF   001.13 201.6 m E Pg      2011/02/23 16:31:46.5   0.0                          T                                        4653771
FRF   001.13 201.6 m E Sg      2011/02/23 16:32:01.1   0.0                          T                4.4  .21 Ml 2.2         4653765
SMRF  001.34 242.3 m E Pg      2011/02/23 16:31:50.3  -0.1                          T                                        4653763
SMRF  001.34 242.3 m E Sg      2011/02/23 16:32:07.7  -0.1                          T                4.1  .38 Ml 2.0         4653764
LMR   001.38 202.1 m E Pg      2011/02/23 16:31:50.9  -0.1                          T                                        4653760
LMR   001.38 202.1 m E Sg      2011/02/23 16:32:08.9   0.0                          T                6.3  .26 Ml 2.4         4653762

.
EVENT     256384
    Date      Time       Latitude Longitude    Depth    Ndef Nsta Gap    Mag1  N    Mag2  N    Mag3  N   Author         ID
       rms   OT_Error      Smajor Sminor Az        Err   mdist  Mdist     Err        Err        Err      Quality

2011/02/23 22:31:04.3     47.5836    7.7296     10.0      11    5 083  Ml 1.4  4  Md 1.5  1              js067245    256404

      0.37   +-  0.08       1.5    1.2  149.79 +-  0.0    0.19   1.66   +-0.3      +-                    m i ke

SWITZERLAND
Sta     Dist  EvAz     Phase      Date       Time     TRes  Azim  AzRes  Slow  SRes Def   SNR       Amp   Per   Mag1   Mag2       ID
HINF  000.64 291.8 m E Pg      2011/02/23 22:31:16.1  -0.5                          T                                        4655583
HINF  000.64 291.8 m E Sg      2011/02/23 22:31:24.4  -0.5                          T                 .8  .19        Md 1.5  4655584
CDF   000.88 340.0 m E Pg      2011/02/23 22:31:21.1   0.0                          T                                        4655581
CDF   000.88 340.0 m E Sg      2011/02/23 22:31:31.8  -0.8                          T                 .7  .23 Ml 1.4         4655582
HAU   001.02 294.9 m E Sg      2011/02/23 22:31:36.5  -0.4                          T                1.2  .27 Ml 1.3         4655579
THEF  001.33 299.6 m E Sg      2011/02/23 22:31:46.6   0.0                          T                1.7  .22 Ml 1.9         4655580
PAGF  001.66 306.6 m E Sg      2011/02/23 22:31:56.5  -0.2                          T                 .2  .18 Ml 1.2         4655578

.
EVENT     256360
    Date      Time       Latitude Longitude    Depth    Ndef Nsta Gap    Mag1  N    Mag2  N    Mag3  N   Author         ID
       rms   OT_Error      Smajor Sminor Az        Err   mdist  Mdist     Err        Err        Err      Quality

2011/02/23 22:48:23.3     43.1081   -1.6639      2.0      25    3 129  Ml 2.1  1  Md 1.8  2              js067245    256380

      0.31   +-  0.09       1.5    1.4  123.06 +-  0.0    0.11   2.31   +-         +-0.1                 m i ke

PYRENEES
Sta     Dist  EvAz     Phase      Date       Time     TRes  Azim  AzRes  Slow  SRes Def   SNR       Amp   Per   Mag1   Mag2       ID
SJPF  000.32 088.9 m E Pg      2011/02/23 22:48:29.2  -0.3                          T                                        4653783
SJPF  000.32 088.9 m E Sg      2011/02/23 22:48:33.3  -0.6                          T               11.8  .20        Md 1.8  4653782
ETSF  000.84 104.1 m E Pg      2011/02/23 22:48:38.9  -0.2                          T                                        4653779
ETSF  000.84 104.1 m E Sg      2011/02/23 22:48:49.9  -0.1                          T                4.5  .22        Md 1.7  4653781
EPF   001.47 092.3 m E Pg      2011/02/23 22:48:50.7   0.0                          T                                        4653778
EPF   001.47 092.3 m E Sg      2011/02/23 22:49:09.9   0.2                          T                2.5  .21 Ml 2.1         4653780

.
