EVENT     253981
    Date      Time       Latitude Longitude    Depth    Ndef Nsta Gap    Mag1  N    Mag2  N    Mag3  N   Author         ID
       rms   OT_Error      Smajor Sminor Az        Err   mdist  Mdist     Err        Err        Err      Quality

2011/01/19 14:29:00.8     45.5197    6.6755      2.0      87   27 031  Ml 2.5 24  Md 2.6  3              js067245    254001

      0.56   +-  0.03        .8     .6   87.96 +-  0.0    0.04   5.19   +-0.3      +-0.0                 m i ke

FRANCE
Sta     Dist  EvAz     Phase      Date       Time     TRes  Azim  AzRes  Slow  SRes Def   SNR       Amp   Per   Mag1   Mag2       ID
LPL   000.04 094.7 m E Pg      2011/01/19 14:29:02.5   0.2                          T                                        4584688
LPL   000.04 094.7 m E Sg      2011/01/19 14:29:03.3   0.2                          T             1324.1  .10        Md 2.6  4584679
LPG   000.06 112.4 m E Pg      2011/01/19 14:29:02.7   0.1                          T                                        4584687
LPG   000.06 112.4 m E Sg      2011/01/19 14:29:03.8   0.2                          T             2034.1  .18        Md 2.6  4584678
MBDF  000.80 175.1 m E Pg      2011/01/19 14:29:15.4  -0.5                          T                                        4584685
MBDF  000.80 175.1 m E Sg      2011/01/19 14:29:26.3   0.0                          T               56.6  .49                4584682
ORIF  000.82 223.4 m E Pg      2011/01/19 14:29:16.1  -0.3                          T                                        4584686
ORIF  000.82 223.4 m E Sg      2011/01/19 14:29:26.3  -0.8                          T               22.7  .22                4584680
CABF  001.17 339.7 m E Pg      2011/01/19 14:29:22.4  -0.2                          T                                        4584683
CABF  001.17 339.7 m E Sg      2011/01/19 14:29:37.5  -0.2                          T               13.9  .46 Ml 2.4 Md 2.5  4584621
VIVF  001.56 245.6 m E Pn      2011/01/19 14:29:28.0   0.1                          T                                        4584631
VIVF  001.56 245.6 m E Pg      2011/01/19 14:29:30.0   0.0                          T                                        4584684
VIVF  001.56 245.6 m E Sg      2011/01/19 14:29:50.2   0.0                          T               33.7  .40 Ml 3.0         4584681
SMRF  001.73 207.3 m E Pn      2011/01/19 14:29:30.1  -0.1                          T                                        4584632
SMRF  001.73 207.3 m E Pg      2011/01/19 14:29:33.3   0.2                          T                                        4584676
SMRF  001.73 207.3 m E Sg      2011/01/19 14:29:55.7   0.3                          T                5.6  .44 Ml 2.2         4584639
SBF   001.74 161.6 m E Pn      2011/01/19 14:29:30.5   0.1                          T                                        4584635
SBF   001.74 161.6 m E Pg      2011/01/19 14:29:33.3   0.0                          T                                        4584674
SBF   001.74 161.6 m E Sg      2011/01/19 14:29:56.0   0.3                          T               13.3  .34 Ml 2.7         4584636
FRF   001.96 180.6 m E Pn      2011/01/19 14:29:33.2   0.0                          T                                        4584633
FRF   001.96 180.6 m E Pg      2011/01/19 14:29:37.1  -0.1                          T                                        4584677
FRF   001.96 180.6 m E Sg      2011/01/19 14:30:02.6   0.2                          T               17.5  .58 Ml 2.7         4584638
LMR   002.19 183.2 m E Pn      2011/01/19 14:29:36.6   0.2                          T                                        4584634
LMR   002.19 183.2 m E Pg      2011/01/19 14:29:41.6   0.3                          T                                        4584675
LMR   002.19 183.2 m E Sg      2011/01/19 14:30:09.8   0.2                          T                9.7  .55 Ml 2.5         4584637
SMF   002.27 300.7 m E Pn      2011/01/19 14:29:37.5   0.0                          T                                        4584648
SMF   002.27 300.7 m E Pg      2011/01/19 14:29:43.3   0.4                          T                                        4584670
SMF   002.27 300.7 m E Sg      2011/01/19 14:30:12.2   0.0                          T                8.9  .20 Ml 2.9         4584623
HINF  002.30 003.0 m E Pn      2011/01/19 14:29:37.8  -0.1                          T                                        4584650
HINF  002.30 003.0 m E Pg      2011/01/19 14:29:43.5   0.0                          T                                        4584667
HINF  002.30 003.0 m E Sg      2011/01/19 14:30:12.9  -0.3                          T                3.2  .26 Ml 2.4         4584620
HAU   002.50 354.9 m E Pn      2011/01/19 14:29:40.3  -0.3                          T                                        4584651
HAU   002.50 354.9 m E Pg      2011/01/19 14:29:46.9  -0.2                          T                                        4584668
HAU   002.50 354.9 m E Sg      2011/01/19 14:30:18.9  -0.4                          T                5.9  .36 Ml 2.3         4584619
LASF  002.47 235.3 m E Pn      2011/01/19 14:29:40.4   0.1                          T                                        4584645
LASF  002.47 235.3 m E Pg      2011/01/19 14:29:46.9   0.2                          T                                        4584673
LOR   002.62 312.9 m E Pn      2011/01/19 14:29:42.2  -0.1                          T                                        4584658
LOR   002.62 312.9 m E Pg      2011/01/19 14:29:49.4   0.1 132.4  1.6               T                                        4584664
LOR   002.62 312.9 m E Sg      2011/01/19 14:30:23.1   0.1 144.3  13.5              T                4.7  .34 Ml 2.5         4584662
AVF   002.64 300.0 m E Pn      2011/01/19 14:29:42.3  -0.1                          T                                        4584649
AVF   002.64 300.0 m E Pg      2011/01/19 14:29:49.8   0.2                          T                                        4584669
AVF   002.64 300.0 m E Sg      2011/01/19 14:30:23.4  -0.1                          T                6.2  .50 Ml 2.4         4584622
SSF   002.68 306.2 m E Pn      2011/01/19 14:29:43.0  -0.1                          T                                        4584657
SSF   002.68 306.2 m E Pg      2011/01/19 14:29:50.6   0.1                          T                                        4584663
SSF   002.68 306.2 m E Sg      2011/01/19 14:30:24.8  -0.3                          T                2.6  .26 Ml 2.4         4584661
THEF  002.75 350.5 m E Pn      2011/01/19 14:29:44.1   0.0                          T                                        4584652
THEF  002.75 350.5 m E Pg      2011/01/19 14:29:51.6  -0.1                          T                                        4584666
THEF  002.75 350.5 m E Sg      2011/01/19 14:30:26.7  -0.4                          T                5.6  .29 Ml 2.6         4584618
BGF   002.86 292.6 m E Pn      2011/01/19 14:29:45.6   0.0                          T                                        4584647
BGF   002.86 292.6 m E Pg      2011/01/19 14:29:55.0   1.2                          T                                        4584671
BGF   002.86 292.6 m E Sg      2011/01/19 14:30:30.4  -0.2                          T                9.9  .32 Ml 2.9         4584624
SFTF  002.91 337.9 m E Pn      2011/01/19 14:29:46.1  -0.1 153.4  -3.3              T                                        4584653
SFTF  002.91 337.9 m E Pg      2011/01/19 14:29:54.4  -0.3 151.3  -5.4              T                                        4584665
SFTF  002.91 337.9 m E Sg      2011/01/19 14:30:31.9  -0.3                          T               10.3  .42 Ml 2.8         4584617
CDF   002.92 007.9 m E Pn      2011/01/19 14:29:46.2  -0.2                          T                                        4584655
CDF   002.92 007.9 m E Sg      2011/01/19 14:30:32.3  -0.3                          T                2.1  .36 Ml 2.3         4584615
PAGF  003.11 348.3 m E Pn      2011/01/19 14:29:48.8   0.0                          T                                        4584654
PAGF  003.11 348.3 m E Sg      2011/01/19 14:30:37.9  -0.3 171.2  3.6               T                2.0  .48 Ml 2.1         4584616
TCF   003.21 285.4 m E Pn      2011/01/19 14:29:50.3   0.0                          T                                        4584656
TCF   003.21 285.4 m E Pg      2011/01/19 14:30:00.3   0.0                          T                                        4584659
TCF   003.21 285.4 m E Sg      2011/01/19 14:30:41.5  -0.1                          T                2.6  .26 Ml 2.5         4584660
CAF   003.31 261.3 m E Pn      2011/01/19 14:29:51.6  -0.1                          T                                        4584630
CAF   003.31 261.3 m E Sn      2011/01/19 14:30:29.5   0.2                          T                                        4584629
CAF   003.31 261.3 m E Sg      2011/01/19 14:30:44.8   0.1                          T                2.0  .29 Ml 2.3         4584628
RJF   003.64 268.4 m E Pn      2011/01/19 14:29:56.1  -0.1                          T                                        4584626
RJF   003.64 268.4 m E Sg      2011/01/19 14:30:55.0   0.1                          T                2.0  .19 Ml 2.3         4584627
MTLF  003.87 237.3 m E Pn      2011/01/19 14:29:59.3   0.1                          T                                        4584644
MTLF  003.87 237.3 m E Pg      2011/01/19 14:30:12.2  -0.1                          T                                        4584643
MTLF  003.87 237.3 m E Sg      2011/01/19 14:31:02.3   0.4                          T                1.2  .42 Ml 2.1         4584642
EPF   005.19 243.6 m E Pn      2011/01/19 14:30:17.3   0.1                          T                                        4584641
EPF   005.19 243.6 m E Sn      2011/01/19 14:31:14.4   0.3                          T                1.9  .32 Ml 2.7         4584640

.
EVENT     254001
    Date      Time       Latitude Longitude    Depth    Ndef Nsta Gap    Mag1  N    Mag2  N    Mag3  N   Author         ID
       rms   OT_Error      Smajor Sminor Az        Err   mdist  Mdist     Err        Err        Err      Quality

2011/01/19 19:17:10.6     45.1016    7.1655      2.0      20    9 207  Ml 2.0  7  Md 2.0  3              js067245    254021

      0.16   +-  0.08       1.5     .7   74.04 +-  0.0    0.47   1.83   +-0.4      +-0.0                 m i ke

NORTHERN ITALY
Sta     Dist  EvAz     Phase      Date       Time     TRes  Azim  AzRes  Slow  SRes Def   SNR       Amp   Per   Mag1   Mag2       ID
MBDF  000.47 216.9 m E Pg      2011/01/19 19:17:19.1  -0.6                          T                                        4584714
MBDF  000.47 216.9 m E Sg      2011/01/19 19:17:25.5  -0.4                          T               26.0  .28        Md 2.0  4584711
LPL   000.52 323.8 m E Pg      2011/01/19 19:17:20.4  -0.3                          T                                        4584713
LPL   000.52 323.8 m E Sg      2011/01/19 19:17:27.7   0.2                          T                7.6  .27        Md 1.9  4584710
LPG   000.49 323.7 m E Pg      2011/01/19 19:17:20.5   0.2                          T                                        4584712
LPG   000.49 323.7 m E Sg      2011/01/19 19:17:27.0   0.1                          T                5.4  .20        Md 2.0  4584709
ORIF  000.93 259.1 m E Pg      2011/01/19 19:17:28.3   0.1                          T                                        4584703
ORIF  000.93 259.1 m E Sg      2011/01/19 19:17:40.5   0.2                          T                6.6  .30 Ml 2.1         4584704
SBF   001.25 171.0 m E Pg      2011/01/19 19:17:34.2   0.1                          T                                        4584699
SBF   001.25 171.0 m E Sg      2011/01/19 19:17:50.4   0.1                          T                8.6  .47 Ml 2.2         4584707
FRF   001.58 193.8 m E Pg      2011/01/19 19:17:40.0  -0.1                          T                                        4584701
FRF   001.58 193.8 m E Sg      2011/01/19 19:18:00.7   0.2                          T               10.8  .62 Ml 2.4         4584708
SMRF  001.60 225.9 m E Pg      2011/01/19 19:17:40.4   0.0                          T                                        4584702
SMRF  001.60 225.9 m E Sg      2011/01/19 19:18:01.2   0.1                          T                 .8  .47 Ml 1.3         4584705
VIVF  001.79 263.0 m E Pn      2011/01/19 19:17:40.7  -0.1                          T                                        4584698
VIVF  001.79 263.0 m E Sn      2011/01/19 19:18:02.6  -0.1                          T                1.1  .34 Ml 1.7         4584697
LMR   001.83 195.2 m E Pg      2011/01/19 19:17:44.6   0.0                          T                                        4584700
LMR   001.83 195.2 m E Sg      2011/01/19 19:18:08.4   0.2                          T                1.8  .29 Ml 2.0         4584706

.
EVENT     254002
    Date      Time       Latitude Longitude    Depth    Ndef Nsta Gap    Mag1  N    Mag2  N    Mag3  N   Author         ID
       rms   OT_Error      Smajor Sminor Az        Err   mdist  Mdist     Err        Err        Err      Quality

2011/01/19 19:36:55.5     43.4246   10.5900      5.0 f    59   22 099  Ml 2.8 25                         js067245    254022

      0.38   +-  0.06       1.3     .9  166.66 +-  0.0    0.30   7.24   +-0.3                            m i ke

CENTRAL ITALY
Sta     Dist  EvAz     Phase      Date       Time     TRes  Azim  AzRes  Slow  SRes Def   SNR       Amp   Per   Mag1   Mag2       ID
PGF   001.46 233.7 m E Pn      2011/01/19 19:37:20.8  -0.2                          T                                        4584762
PGF   001.46 233.7 m E Sn      2011/01/19 19:37:39.3   0.0                          T               52.4  .72 Ml 3.1         4584726
SBF   002.33 281.9 m E Pn      2011/01/19 19:37:32.8   0.0                          T                                        4584755
SBF   002.33 281.9 m E Sn      2011/01/19 19:38:00.4   0.2                          T               20.4  .58 Ml 2.8         4584727
FRF   002.87 274.1 m E Pn      2011/01/19 19:37:41.1   1.0                          T                                        4584757
FRF   002.87 274.1 m E Sn      2011/01/19 19:38:13.3   0.3                          T               13.4  .62 Ml 2.8         4584729
LMR   002.98 269.7 m E Pn      2011/01/19 19:37:42.4   0.9                          T                                        4584756
LMR   002.98 269.7 m E Sn      2011/01/19 19:38:15.7   0.2                          T                7.5  .64 Ml 2.5         4584728
MBDF  003.04 296.6 m E Pn      2011/01/19 19:37:42.6   0.0                          T                                        4584765
MBDF  003.04 296.6 m E Sn      2011/01/19 19:38:17.3   0.1                          T               21.3  .74 Ml 2.9         4584764
LPG   003.44 308.3 m E P       2011/01/19 19:37:51.4   0.0                          T                                        4584759
LPG   003.44 308.3 m E Sn      2011/01/19 19:38:27.2   0.2                          T               11.2  .77 Ml 2.7         4584731
LPL   003.46 308.5 m E P       2011/01/19 19:37:51.6  -0.1                          T                                        4584760
LPL   003.46 308.5 m E Sn      2011/01/19 19:38:27.5   0.1                          T                7.4  .64 Ml 2.6         4584732
SMRF  003.68 280.3 m E P       2011/01/19 19:37:54.0  -0.5                          T                                        4584758
SMRF  003.68 280.3 m E Sn      2011/01/19 19:38:32.3   0.0                          T                1.6  .38 Ml 2.2         4584730
ORIF  003.70 295.4 m E P       2011/01/19 19:37:55.1   0.2                          T                                        4584761
ORIF  003.70 295.4 m E Sn      2011/01/19 19:38:33.2   0.2                          T               29.1 1.00 Ml 3.0         4584763
VIVF  004.49 290.6 m E Pn      2011/01/19 19:38:02.3   0.1                          T                                        4584754
VIVF  004.49 290.6 m E Sn      2011/01/19 19:38:51.7  -0.1                          T                1.0  .31 Ml 2.3         4584725
CABF  004.51 316.5 m E Pn      2011/01/19 19:38:02.6   0.0                          T                                        4584749
CABF  004.51 316.5 m E Sn      2011/01/19 19:38:52.4   0.2                          T               13.5  .95 Ml 2.9         4584737
LASF  004.92 279.9 m E Pn      2011/01/19 19:38:08.0  -0.1                          T                                        4584753
LASF  004.92 279.9 m E Sn      2011/01/19 19:39:01.7  -0.3                          T                8.6  .87 Ml 2.9         4584733
HINF  005.11 330.5 m E Pn      2011/01/19 19:38:10.5  -0.1                          T                                        4584748
HINF  005.11 330.5 m E Sn      2011/01/19 19:39:06.4  -0.2                          T                7.8  .60 Ml 3.0         4584738
HAU   005.46 328.5 m E Pn      2011/01/19 19:38:15.4   0.1                          T                                        4584747
HAU   005.46 328.5 m E Sn      2011/01/19 19:39:14.9   0.0                          T                7.0  .42 Ml 3.0         4584739
CDF   005.50 336.3 m E Pn      2011/01/19 19:38:16.0   0.0                          T                                        4584746
CDF   005.50 336.3 m E Sn      2011/01/19 19:39:15.9   0.1                          T                6.7  .50 Ml 3.2         4584740
THEF  005.78 327.8 m E Pn      2011/01/19 19:38:19.7   0.0                          T                                        4584745
LOR   006.10 311.4 m E Pn      2011/01/19 19:38:24.3   0.2 134.6  8.0               T                                        4584744
LOR   006.10 311.4 m E Sn      2011/01/19 19:39:30.3   0.1                          T                7.3  .85 Ml 3.1         4584742
SSF   006.18 308.5 m E Pn      2011/01/19 19:38:25.3   0.2                          T                                        4584743
SSF   006.18 308.5 m E Sn      2011/01/19 19:39:32.0  -0.1                          T                 .6  .24 Ml 2.6         4584741
CAF   006.31 286.7 m E Pn      2011/01/19 19:38:27.1   0.2                          T                                        4584752
CAF   006.31 286.7 m E Sn      2011/01/19 19:39:35.0  -0.2                          T                 .8  .27 Ml 2.6         4584734
BGF   006.32 302.4 m E Pn      2011/01/19 19:38:27.4   0.3                          T                                        4584751
BGF   006.32 302.4 m E Sn      2011/01/19 19:39:35.3  -0.1                          T                5.2  .69 Ml 3.0         4584736
RJF   006.77 289.2 m E Pn      2011/01/19 19:38:33.3   0.1                          T                                        4584724
RJF   006.77 289.2 m E Sn      2011/01/19 19:39:46.2   0.0                          T                1.4  .26 Ml 2.6         4584722
LFF   007.24 285.5 m E Pn      2011/01/19 19:38:39.6   0.0                          T                                        4584723
LFF   007.24 285.5 m E Sn      2011/01/19 19:39:57.3   0.0                          T                 .8  .26 Ml 2.6         4584721

.
