EVENT     264393
    Date      Time       Latitude Longitude    Depth    Ndef Nsta Gap    Mag1  N    Mag2  N    Mag3  N   Author         ID
       rms   OT_Error      Smajor Sminor Az        Err   mdist  Mdist     Err        Err        Err      Quality

2011/09/25 08:11:54.9     48.3236    6.6767     10.0 f    22   11 146  Ml 1.7  6  Md 1.8  5              js067245    264413

      0.19   +-  0.05       1.2     .7    7.27 +-  0.0    0.34   2.72   +-0.3      +-0.1                 m i ke

FRANCE
Sta     Dist  EvAz     Phase      Date       Time     TRes  Azim  AzRes  Slow  SRes Def   SNR       Amp   Per   Mag1   Mag2       ID
HAU   000.39 214.8 m E Pg      2011/09/25 08:12:02.4  -0.1                          T                                        4761896
HAU   000.39 214.8 m E Sg      2011/09/25 08:12:07.7  -0.1                          T                3.0  .18        Md 1.7  4761895
CDF   000.41 077.3 m E Pg      2011/09/25 08:12:02.9  -0.1                          T                                        4761901
CDF   000.41 077.3 m E Sg      2011/09/25 08:12:08.6   0.0                          T                1.9  .23        Md 2.0  4761899
THEF  000.47 258.4 m E Pg      2011/09/25 08:12:03.5  -0.4                          T                                        4761904
THEF  000.47 258.4 m E Sg      2011/09/25 08:12:09.8  -0.4                          T                5.0  .21        Md 1.9  4761891
HINF  000.52 166.8 m E Pg      2011/09/25 08:12:05.0   0.0                          T                                        4761906
HINF  000.52 166.8 m E Sg      2011/09/25 08:12:11.8  -0.1                          T                3.1  .18        Md 1.8  4761905
HINF  000.52 166.8 m E Sn      2011/09/25 08:12:14.9  -0.4                          T                1.8  .18        Md 1.8  4768566
PAGF  000.67 290.4 m E Pg      2011/09/25 08:12:07.9   0.2                          T                                        4761902
PAGF  000.67 290.4 m E Sg      2011/09/25 08:12:16.7   0.1                          T                 .5  .22                4761903
SFTF  001.10 264.4 m E Pn      2011/09/25 08:12:14.9   0.1                          T                                        4768564
SFTF  001.10 264.4 m E Pg      2011/09/25 08:12:15.6   0.0                          T                                        4761900
SFTF  001.10 264.4 m E Sg      2011/09/25 08:12:30.0   0.2                          T                3.0  .25 Ml 1.9         4761890
MEZF  001.10 280.0 m E Pg      2011/09/25 08:12:15.2  -0.2                          T                                        4761889
MEZF  001.10 280.0 m E Sg      2011/09/25 08:12:30.0   0.3                          T                2.2  .28 Ml 1.8         4761888
CABF  001.76 193.3 m E Pg      2011/09/25 08:12:27.9   0.2                          T                                        4761893
CABF  001.76 193.3 m E Sg      2011/09/25 08:12:50.3  -0.1                          T                 .1  .18 Ml 1.1         4761892
LOR   002.17 242.0 m E Pg      2011/09/25 08:12:35.5   0.2                          T                                        4761897
LOR   002.17 242.0 m E Sg      2011/09/25 08:13:03.4   0.1                          T                 .8  .21 Ml 1.8         4761898
SSF   002.49 240.7 m E Sg      2011/09/25 08:13:14.1   1.1                          T                 .6  .20 Ml 1.9         4768565
AVF   002.72 237.0 m E Sg      2011/09/25 08:13:20.6   0.2                          T                 .6  .32 Ml 1.6         4768563

.
EVENT     264390
    Date      Time       Latitude Longitude    Depth    Ndef Nsta Gap    Mag1  N    Mag2  N    Mag3  N   Author         ID
       rms   OT_Error      Smajor Sminor Az        Err   mdist  Mdist     Err        Err        Err      Quality

2011/09/25 10:19:09.2     43.2296    -.5400      2.0      41    4 176  Ml 1.8  1  Md 1.9  2              js067245    264410

      0.55   +-  0.18       3.5    1.8  170.49 +-  0.0    0.19   2.02   +-         +-0.2                 m i ke

PYRENEES
Sta     Dist  EvAz     Phase      Date       Time     TRes  Azim  AzRes  Slow  SRes Def   SNR       Amp   Per   Mag1   Mag2       ID
ETSF  000.33 182.4 m E Pg      2011/09/25 10:19:14.5  -1.3                          T                                        4761957
ETSF  000.33 182.4 m E Sg      2011/09/25 10:19:18.0  -2.2                          T               10.2  .24        Md 2.1  4761955
SJPF  000.51 257.2 m E Pg      2011/09/25 10:19:19.3   0.3                          T                                        4761956
SJPF  000.51 257.2 m E Sg      2011/09/25 10:19:24.9  -1.0                          T                5.0  .31        Md 1.8  4761954
EPF   000.67 106.9 m E Pg      2011/09/25 10:19:22.3   0.2                          T                                        4761952
EPF   000.67 106.9 m E Sg      2011/09/25 10:19:31.8   0.9                          T                3.2  .34                4761953
MTLF  002.02 085.9 m E Pg      2011/09/25 10:19:46.2  -0.5                          T                                        4768567
MTLF  002.02 085.9 m E Sg      2011/09/25 10:20:13.0   0.3                          T                1.1  .26 Ml 1.8         4768568

.
EVENT     264394
    Date      Time       Latitude Longitude    Depth    Ndef Nsta Gap    Mag1  N    Mag2  N    Mag3  N   Author         ID
       rms   OT_Error      Smajor Sminor Az        Err   mdist  Mdist     Err        Err        Err      Quality

2011/09/25 10:37:14.2     46.4418    2.6600     19.2      10    6 158  Ml 1.1  2  Md 1.6  3              js067245    264414

      0.31   +-  0.18       3.7    1.6  130.30 +-  1.7    0.17   1.39   +-0.2      +-0.2                 m i ke

FRANCE
Sta     Dist  EvAz     Phase      Date       Time     TRes  Azim  AzRes  Slow  SRes Def   SNR       Amp   Per   Mag1   Mag2       ID
BGF   000.17 047.9 m E Pg      2011/09/25 10:37:18.7  -0.3                          T                                        4768577
BGF   000.17 047.9 m E Sg      2011/09/25 10:37:22.7   0.4                          T                1.7  .29        Md 1.7  4761959
BGF   000.17 047.9 m E S       2011/09/25 10:37:28.6   0.4                          T                                        4768571
TCF   000.35 243.9 m E Pg      2011/09/25 10:37:21.6  -0.1                          T                                        4761961
TCF   000.35 243.9 m E Sg      2011/09/25 10:37:27.5   0.7                          T                2.0  .16        Md 1.5  4761960
AVF   000.59 053.6 m E Pg      2011/09/25 10:37:26.1   0.2                          T                                        4761963
AVF   000.59 053.6 m E Sg      2011/09/25 10:37:34.0   0.1                          T                 .3  .20                4768572
SSF   000.85 042.9 m E Sg      2011/09/25 10:37:41.7  -0.1                          T                 .8  .25                4768573
LOR   001.17 044.4 m E Sg      2011/09/25 10:37:51.4  -0.2                          T                 .4  .21 Ml 1.2         4768574
RJF   001.39 215.5 m E Sg      2011/09/25 10:37:58.4  -0.1                          T                 .2  .11 Ml  .9         4768569

.
EVENT     264395
    Date      Time       Latitude Longitude    Depth    Ndef Nsta Gap    Mag1  N    Mag2  N    Mag3  N   Author         ID
       rms   OT_Error      Smajor Sminor Az        Err   mdist  Mdist     Err        Err        Err      Quality

2011/09/25 11:05:43.7     48.3249    6.6782     10.0 f    21   11 147  Ml 1.7  6  Md 2.0  4              js067245    264415

      0.22   +-  0.07       1.4    1.0   11.17 +-  0.0    0.39   2.73   +-0.3      +-0.1                 m i ke

FRANCE
Sta     Dist  EvAz     Phase      Date       Time     TRes  Azim  AzRes  Slow  SRes Def   SNR       Amp   Per   Mag1   Mag2       ID
HAU   000.39 214.8 m E Pg      2011/09/25 11:05:51.3  -0.1                          T                                        4768590
HAU   000.39 214.8 m E Sg      2011/09/25 11:05:56.4  -0.3                          T                3.6  .18        Md 2.0  4768591
CDF   000.41 077.4 m E Pg      2011/09/25 11:05:51.8   0.0                          T                                        4768602
CDF   000.41 077.4 m E Sg      2011/09/25 11:05:57.4   0.0                          T                2.2  .22        Md 2.0  4768603
THEF  000.47 258.3 m E Pg      2011/09/25 11:05:52.4  -0.4                          T                                        4768592
THEF  000.47 258.3 m E Sg      2011/09/25 11:05:58.6  -0.4                          T                5.8  .21        Md 2.1  4768593
HINF  000.52 166.9 m E Pg      2011/09/25 11:05:53.8   0.0                          T                                        4768587
HINF  000.52 166.9 m E Sg      2011/09/25 11:06:00.8   0.0                          T                3.1  .18                4768588
HINF  000.52 166.9 m E Sn      2011/09/25 11:06:03.7  -0.5                          T                4.2  .26        Md 1.9  4768589
PAGF  000.68 290.3 m E Pg      2011/09/25 11:05:56.8   0.2                          T                                        4768598
PAGF  000.68 290.3 m E Sg      2011/09/25 11:06:05.7   0.3                          T                 .5  .18                4768599
MEZF  001.10 279.9 m E Pg      2011/09/25 11:06:04.1  -0.2                          T                                        4768596
MEZF  001.10 279.9 m E Sg      2011/09/25 11:06:18.7   0.2                          T                1.4  .24 Ml 1.6         4768597
SFTF  001.10 264.4 m E Pg      2011/09/25 11:06:04.3  -0.1                          T                                        4768594
SFTF  001.10 264.4 m E Sg      2011/09/25 11:06:18.8   0.1                          T                2.4  .21 Ml 1.9         4768595
CABF  001.76 193.4 m E Pg      2011/09/25 11:06:16.9   0.3                          T                                        4768585
CABF  001.76 193.4 m E Sg      2011/09/25 11:06:39.4   0.0                          T                 .2  .18 Ml 1.2         4768586
LOR   002.17 242.0 m E Pg      2011/09/25 11:06:24.4   0.3                          T                                        4768600
LOR   002.17 242.0 m E Sg      2011/09/25 11:06:52.3   0.2                          T                1.1  .21 Ml 2.0         4768601
SMF   002.55 229.9 m E Sg      2011/09/25 11:07:04.1   0.1                          T                  1  .22 Ml 2.0         4768583
AVF   002.73 237.0 m E Sg      2011/09/25 11:07:09.4   0.1                          T                 .5  .24 Ml 1.6         4768584

.
EVENT     264396
    Date      Time       Latitude Longitude    Depth    Ndef Nsta Gap    Mag1  N    Mag2  N    Mag3  N   Author         ID
       rms   OT_Error      Smajor Sminor Az        Err   mdist  Mdist     Err        Err        Err      Quality

2011/09/25 13:17:09.7     42.5535   18.6393      2.0     259   24 042  Ml 4.3  9                         js067245    264416

      1.55   +-  0.11       3.3    2.4   17.81 +-  0.0    0.15  70.72   +-0.3                            m i ke

NORTHWESTERN BALKAN PEN.
Sta     Dist  EvAz     Phase      Date       Time     TRes  Azim  AzRes  Slow  SRes Def   SNR       Amp   Per   Mag1   Mag2       ID
PGF   007.12 273.2 m E Pn      2011/09/25 13:18:54.8   2.3                          T   001.0                                4759053
SBF   008.29 282.9 m E Pn      2011/09/25 13:19:10.0   1.6                          T   001.0                                4759054
SBF   008.29 282.9 m E Sn      2011/09/25 13:20:38.2   1.0                          T               17.0  .35 Ml 4.2         4761995
FRF   008.84 280.6 m E Pn      2011/09/25 13:19:17.8   2.0                          T   001.0                                4759043
MBDF  008.88 288.2 m E Pn      2011/09/25 13:19:18.2   1.6                          T   001.0                                4759061
LMR   008.93 279.1 m E Pn      2011/09/25 13:19:19.3   2.2                          T   001.0                                4759047
LMR   008.93 279.1 m E Sn      2011/09/25 13:20:52.7   0.2                          T                                        4761996
LPL   009.07 293.1 m E Pn      2011/09/25 13:19:20.4   1.1                          T   001.0                                4759052
LPL   009.07 293.1 m E Sn      2011/09/25 13:20:55.9  -0.3                          T               30.5  .42 Ml 4.4         4761993
LPG   009.06 293.0 m E Pn      2011/09/25 13:19:20.9   1.7                          T   001.0                                4759050
LPG   009.06 293.0 m E Sn      2011/09/25 13:20:56.8   1.0                          T   001.0       40.2  .62 Ml 4.4         4759051
ORIF  009.53 288.7 m E Pn      2011/09/25 13:19:28.9   3.5                          T   001.0                                4759063
SMRF  009.64 282.9 m E Pn      2011/09/25 13:19:29.4   2.7                          T   001.0                                4759066
HINF  009.84 306.3 m E Pn      2011/09/25 13:19:30.1   0.6                          T   001.0                                4759059
HINF  009.84 306.3 m E Sn      2011/09/25 13:21:14.8   0.5                          T   001.0       21.4  .51 Ml 4.3         4759060
CABF  009.83 298.6 m E Pn      2011/09/25 13:19:30.8   1.4                          T   001.0                                4759058
CDF   009.89 310.2 m E Pn      2011/09/25 13:19:31.7   1.4                          T   001.0                                4759041
CDF   009.89 310.2 m E Sn      2011/09/25 13:21:17.3   1.7                          T   001.0       15.3  .76 Ml 4.1         4759042
HAU   010.23 306.4 m E Pn      2011/09/25 13:19:34.8   0.0                          T   001.0                                4759045
VIVF  010.37 287.6 m E Pn      2011/09/25 13:19:37.9   1.2                          T   001.0                                4759064
VIVF  010.37 287.6 m E Sn      2011/09/25 13:21:29.4   2.4                          T   001.0        6.0  .50 Ml 3.9         4759065
RUP   010.75 315.7 m E Pn      2011/09/25 13:19:40.9  -1.0                          T                                        4762001
LASF  010.88 283.1 m E Pn      2011/09/25 13:19:45.5   1.8                          T   001.0                                4759046
SMF   011.31 296.2 m E Pn      2011/09/25 13:19:51.0   1.4                          T   001.0                                4759055
SMF   011.31 296.2 m E Sn      2011/09/25 13:21:49.7   0.3                          T   001.0       19.3  .48 Ml 4.5         4759056
LOR   011.49 299.3 m E Pn      2011/09/25 13:19:53.5   1.5 118.7  9.9               T   001.0                                4759048
LOR   011.49 299.3 m E P       2011/09/25 13:19:58.4   0.5                          T                                        4761994
LOR   011.49 299.3 m E Sn      2011/09/25 13:21:56.0   2.4                          T   001.0       18.7  .30 Ml 4.7         4759049
AVF   011.68 296.5 m E Pn      2011/09/25 13:19:55.2   0.8                          T   001.0                                4759039
SSF   011.65 297.9 m E Pn      2011/09/25 13:19:55.4   1.3                          T   001.0                                4759057
SSF   011.65 297.9 m E Sn      2011/09/25 13:21:57.8   0.3                          T                6.3  .37 Ml 4.3         4761998
BGF   011.95 294.9 m E Pn      2011/09/25 13:20:00.0   1.7                          T   001.0                                4759040
BGF   011.95 294.9 m E Sn      2011/09/25 13:22:05.0   0.3                          T                                        4761997
MTLF  012.06 279.3 m E Pn      2011/09/25 13:20:00.6   0.8                          T   001.0                                4759062
MTLF  012.06 279.3 m E Sn      2011/09/25 13:22:07.2  -0.1                          T                                        4761992
TCF   012.32 293.2 m E Pn      2011/09/25 13:20:04.4   1.1                          T                                        4762002
TCF   012.32 293.2 m E Sn      2011/09/25 13:22:14.5   0.9                          T                                        4762000
HYF   012.28 298.0 m E P       2011/09/25 13:20:08.0  -0.5                          T                                        4761991

.
