EVENT     256161
    Date      Time       Latitude Longitude    Depth    Ndef Nsta Gap    Mag1  N    Mag2  N    Mag3  N   Author         ID
       rms   OT_Error      Smajor Sminor Az        Err   mdist  Mdist     Err        Err        Err      Quality

2011/02/19 06:14:31.2     47.1094    1.5293      4.0 f   155   40 066  Ml 3.5 44  Md 3.6  3              js067245    256181

      0.83   +-  0.04        .9     .8  179.75 +-  0.0    0.77   4.61   +-0.3      +-0.1                 m i ke

FRANCE
Sta     Dist  EvAz     Phase      Date       Time     TRes  Azim  AzRes  Slow  SRes Def   SNR       Amp   Per   Mag1   Mag2       ID
HYF   000.77 077.7 m E Pg      2011/02/19 06:14:45.8   0.0                          T                                        4653916
HYF   000.77 077.7 m E Pn      2011/02/19 06:14:47.3  -0.1                          T                                        4651675
HYF   000.77 077.7 m E Sg      2011/02/19 06:14:55.4  -0.5                          T                                Md 3.7  4651667
HYF   000.77 077.7 m E Sn      2011/02/19 06:14:58.4  -0.3                          T                                        4653901
TCF   000.95 150.1 m E Pg      2011/02/19 06:14:49.6   0.6                          T                                        4653919
TCF   000.95 150.1 m E Pn      2011/02/19 06:14:50.0   0.3                          T                                        4651676
TCF   000.95 150.1 m E Sg      2011/02/19 06:15:01.2  -0.1                          T              407.1  .32 Ml 3.9 Md 3.6  4651601
BGF   001.06 120.9 m E Pg      2011/02/19 06:14:50.9  -0.2                          T                                        4653915
BGF   001.06 120.9 m E Pn      2011/02/19 06:14:51.5   0.2                          T                                        4651673
BGF   001.06 120.9 m E Sg      2011/02/19 06:15:04.9   0.1                          T              861.4  .26 Ml 4.4 Md 3.5  4651668
MFF   001.26 246.8 m E Pg      2011/02/19 06:14:54.5  -0.2                          T                                        4653913
MFF   001.26 246.8 m E P       2011/02/19 06:14:55.7   0.0                          T                                        4651671
MFF   001.26 246.8 m E Sg      2011/02/19 06:15:11.1   0.1                          T              213.1  .18 Ml 4.2         4651670
AVF   001.29 103.7 m E Pn      2011/02/19 06:14:54.7   0.4                          T                                        4651674
AVF   001.29 103.7 m E Pg      2011/02/19 06:14:55.4   0.1                          T                                        4653917
AVF   001.29 103.7 m E Sg      2011/02/19 06:15:11.8  -0.2                          T              223.7  .24 Ml 3.9         4651588
SSF   001.35 091.3 m E Pn      2011/02/19 06:14:55.6   0.4                          T                                        4651606
SSF   001.35 091.3 m E Pg      2011/02/19 06:14:56.2  -0.3                          T                                        4651677
SSF   001.35 091.3 m E Sg      2011/02/19 06:15:13.9   0.0                          T              114.6  .20 Ml 3.8         4651602
LOR   001.60 083.4 m E Pn      2011/02/19 06:14:58.9   0.4 266.1  1.0               T                                        4651605
LOR   001.60 083.4 m E Pg      2011/02/19 06:15:00.5  -0.5 266.6  1.5               T                                        4651666
LOR   001.60 083.4 m E Sg      2011/02/19 06:15:21.3  -0.3 260.2  -4.9              T              228.5  .22 Ml 4.1         4651603
SMF   001.65 105.5 m E Pn      2011/02/19 06:14:59.6   0.3                          T                                        4651619
SMF   001.65 105.5 m E Pg      2011/02/19 06:15:01.8  -0.2                          T                                        4651655
SMF   001.65 105.5 m E Sn      2011/02/19 06:15:19.7   0.0                          T                                        4653900
SMF   001.65 105.5 m E Sg      2011/02/19 06:15:23.1  -0.2                          T              134.8  .20 Ml 3.9         4651587
RJF   001.81 180.3 m E Pn      2011/02/19 06:15:01.5   0.1                          T                                        4651626
RJF   001.81 180.3 m E Pg      2011/02/19 06:15:04.7  -0.1                          T                                        4651648
RJF   001.81 180.3 m E Sn      2011/02/19 06:15:23.4   0.0                          T                                        4653905
RJF   001.81 180.3 m E Sg      2011/02/19 06:15:27.9  -0.2                          T              161.2  .22 Ml 3.7         4651580
LDF   001.86 323.8 m E Pn      2011/02/19 06:15:02.7   0.6                          T                                        4651624
LDF   001.86 323.8 m E Pg      2011/02/19 06:15:05.4  -0.3                          T                                        4651650
LDF   001.86 323.8 m E Sg      2011/02/19 06:15:28.4  -1.2                          T               74.5  .28 Ml 3.6         4651582
GRR   002.06 309.3 m E Pn      2011/02/19 06:15:04.9   0.1                          T                                        4651625
GRR   002.06 309.3 m E Pg      2011/02/19 06:15:09.0  -0.4                          T                                        4651649
GRR   002.06 309.3 m E Sn      2011/02/19 06:15:29.3  -0.1                          T                                        4653904
GRR   002.06 309.3 m E Sg      2011/02/19 06:15:35.6  -0.3                          T               69.5  .28 Ml 3.5         4651581
FLN   002.14 321.5 m E Pn      2011/02/19 06:15:06.1   0.3 142.1  2.1               T                                        4651623
FLN   002.14 321.5 m E Pg      2011/02/19 06:15:10.5  -0.4 145.5  5.5               T                                        4651651
FLN   002.14 321.5 m E Sg      2011/02/19 06:15:37.8  -0.6 144.1  4.2               T               53.5  .22 Ml 3.5         4651583
CAF   002.22 170.1 m E Pn      2011/02/19 06:15:07.1   0.1                          T                                        4651628
CAF   002.22 170.1 m E Pg      2011/02/19 06:15:12.2  -0.3                          T                                        4651646
CAF   002.22 170.1 m E Sn      2011/02/19 06:15:33.4   0.1                          T                                        4653907
CAF   002.22 170.1 m E Sg      2011/02/19 06:15:41.1   0.2                          T               39.0  .18 Ml 3.6         4651578
LFF   002.24 194.5 m E Pn      2011/02/19 06:15:07.7   0.5                          T                                        4651627
LFF   002.24 194.5 m E Pg      2011/02/19 06:15:12.5  -0.3                          T                                        4651647
LFF   002.24 194.5 m E Sn      2011/02/19 06:15:33.8   0.1                          T                                        4653906
LFF   002.24 194.5 m E Sg      2011/02/19 06:15:41.9   0.3                          T              154.0  .36 Ml 3.7         4651579
SFTF  002.61 063.9 m E Pn      2011/02/19 06:15:12.7   0.3 236.7  -9.8              T                                        4651614
SFTF  002.61 063.9 m E Pg      2011/02/19 06:15:19.8   0.1 237.4  -9.1              T                                        4651660
SFTF  002.61 063.9 m E Sn      2011/02/19 06:15:42.5  -0.2                          T                                        4653896
SFTF  002.61 063.9 m E Sg      2011/02/19 06:15:53.1  -0.2 231.5  -15.0             T               51.3  .27 Ml 3.6         4651593
MEZF  002.75 058.3 m E Pn      2011/02/19 06:15:14.5   0.2 245.4  4.5               T                                        4651613
MEZF  002.75 058.3 m E Pg      2011/02/19 06:15:21.9  -0.4 247.2  6.3               T                                        4651661
MEZF  002.75 058.3 m E Sn      2011/02/19 06:15:45.6  -0.4                          T                                        4653895
MEZF  002.75 058.3 m E Sg      2011/02/19 06:15:57.6  -0.1 240.3  -0.6              T               45.7  .32 Ml 3.5         4651594
SGMF  002.99 294.0 m E Pn      2011/02/19 06:15:18.2   0.8                          T                                        4651621
SGMF  002.99 294.0 m E Pg      2011/02/19 06:15:26.3  -0.3                          T                                        4651653
SGMF  002.99 294.0 m E Sn      2011/02/19 06:15:51.8   0.1                          T                                        4653903
SGMF  002.99 294.0 m E Sg      2011/02/19 06:16:05.0   0.0                          T               26.6  .34 Ml 3.3         4651585
PAGF  003.18 061.4 m E Pn      2011/02/19 06:15:20.3   0.2 226.9  -17.6             T                                        4651612
PAGF  003.18 061.4 m E Pg      2011/02/19 06:15:29.8  -0.3 243.0  -1.5              T                                        4651662
PAGF  003.18 061.4 m E Sn      2011/02/19 06:15:55.7  -0.5                          T                                        4653894
PAGF  003.18 061.4 m E Sg      2011/02/19 06:16:10.8  -0.1 240.1  -4.3              T               14.9  .52 Ml 2.9         4651595
VIVF  003.14 134.7 m E Pn      2011/02/19 06:15:20.4   0.7                          T                                        4651639
VIVF  003.14 134.7 m E Pg      2011/02/19 06:15:29.1  -0.4                          T                                        4651640
VIVF  003.14 134.7 m E Sg      2011/02/19 06:16:09.6  -0.3                          T               46.8  .36 Ml 3.6         4651572
THEF  003.22 068.0 m E Pn      2011/02/19 06:15:20.6   0.0                          T                                        4651615
THEF  003.22 068.0 m E Pg      2011/02/19 06:15:30.9   0.0                          T                                        4651659
THEF  003.22 068.0 m E Sn      2011/02/19 06:15:56.5  -0.6                          T                                        4653897
THEF  003.22 068.0 m E Sg      2011/02/19 06:16:12.1  -0.1                          T               91.8  .47 Ml 3.8         4651592
CABF  003.17 097.4 m E Pn      2011/02/19 06:15:20.9   0.9                          T                                        4651618
CABF  003.17 097.4 m E Pg      2011/02/19 06:15:29.8  -0.2                          T                                        4651656
CABF  003.17 097.4 m E Sg      2011/02/19 06:16:10.4  -0.3                          T               55.6  .42 Ml 3.6         4651589
QUIF  003.28 286.0 m E Pn      2011/02/19 06:15:22.3   0.8                          T                                        4651622
QUIF  003.28 286.0 m E Pg      2011/02/19 06:15:31.7  -0.3                          T                                        4651652
QUIF  003.28 286.0 m E Sg      2011/02/19 06:16:12.2  -2.0                          T               30.7  .33 Ml 3.5         4651584
HAU   003.38 072.9 m E Pn      2011/02/19 06:15:22.7  -0.2                          T                                        4651616
HAU   003.38 072.9 m E Pg      2011/02/19 06:15:33.6  -0.3                          T                                        4651658
HAU   003.38 072.9 m E Sn      2011/02/19 06:16:01.1  -0.1                          T                                        4653898
HAU   003.38 072.9 m E Sg      2011/02/19 06:16:17.0  -0.4                          T               44.0  .30 Ml 3.5         4651591
BAIF  003.45 030.1 m E Pn      2011/02/19 06:15:24.1   0.4                          T                                        4651608
BAIF  003.45 030.1 m E Pg      2011/02/19 06:15:34.3  -0.8                          T                                        4651664
BAIF  003.45 030.1 m E Sg      2011/02/19 06:16:19.1  -0.1                          T               32.5  .66 Ml 3.2         4651599
ROSF  003.47 292.5 m E Pn      2011/02/19 06:15:24.7   0.8                          T                                        4651620
ROSF  003.47 292.5 m E Pg      2011/02/19 06:15:35.1  -0.3                          T                                        4651654
ROSF  003.47 292.5 m E Sn      2011/02/19 06:16:03.5   0.4                          T                                        4653902
ROSF  003.47 292.5 m E Sg      2011/02/19 06:16:19.9   0.0                          T               23.0  .36 Ml 3.3         4651586
LASF  003.45 150.9 m E Pn      2011/02/19 06:15:24.9   1.2                          T                                        4651638
LASF  003.45 150.9 m E Pg      2011/02/19 06:15:35.0  -0.1                          T                                        4651641
LASF  003.45 150.9 m E Sg      2011/02/19 06:16:19.0  -0.3                          T               34.1  .60 Ml 3.3         4651573
HINF  003.68 077.0 m E Pn      2011/02/19 06:15:27.2   0.3                          T                                        4651617
HINF  003.68 077.0 m E Pg      2011/02/19 06:15:39.4   0.0                          T                                        4651657
HINF  003.68 077.0 m E Sn      2011/02/19 06:16:07.6  -0.6                          T                                        4653899
HINF  003.68 077.0 m E Sg      2011/02/19 06:16:26.4  -0.3                          T               21.5  .22 Ml 3.6         4651590
GIVF  003.71 034.9 m E Pn      2011/02/19 06:15:27.9   0.6                          T                                        4651607
GIVF  003.71 034.9 m E Pg      2011/02/19 06:15:39.4  -0.5                          T                                        4651665
GIVF  003.71 034.9 m E Sg      2011/02/19 06:16:27.1  -0.3                          T               41.4  .50 Ml 3.5         4651600
MTLF  003.80 172.4 m E Pn      2011/02/19 06:15:28.9   0.3                          T                                        4651637
MTLF  003.80 172.4 m E Pg      2011/02/19 06:15:41.4  -0.2                          T                                        4651642
MTLF  003.80 172.4 m E Sn      2011/02/19 06:16:10.7  -0.3                          T                                        4651565
MTLF  003.80 172.4 m E Sg      2011/02/19 06:16:30.2  -0.1                          T               14.2  .34 Ml 3.2         4651574
ORIF  003.74 124.3 m E Pn      2011/02/19 06:15:29.5   1.6                          T                                        4651634
ORIF  003.74 124.3 m E Pg      2011/02/19 06:15:40.5  -0.1                          T                                        4653912
ORIF  003.74 124.3 m E Sg      2011/02/19 06:16:28.3  -0.3                          T               30.0  .66 Ml 3.2         4651570
LPL   003.94 111.9 m E Pn      2011/02/19 06:15:31.1   0.3                          T                                        4651633
LPL   003.94 111.9 m E Pg      2011/02/19 06:15:44.3  -0.2                          T                                        4653911
LPL   003.94 111.9 m E Sg      2011/02/19 06:16:35.0  -0.1                          T                9.2  .48 Ml 2.9         4651569
CDF   004.09 069.3 m E Pn      2011/02/19 06:15:32.4  -0.2                          T                                        4651611
CDF   004.09 069.3 m E Pg      2011/02/19 06:15:46.7  -0.3                          T                                        4651663
CDF   004.09 069.3 m E Sn      2011/02/19 06:16:17.1  -1.0                          T                                        4653893
CDF   004.09 069.3 m E Sg      2011/02/19 06:16:39.1  -0.4                          T               30.6  .42 Ml 3.6         4651596
LPG   003.96 112.1 m E Pn      2011/02/19 06:15:32.6   1.4                          T                                        4651632
LPG   003.96 112.1 m E Pg      2011/02/19 06:15:44.6  -0.3                          T                                        4653910
LPG   003.96 112.1 m E Sg      2011/02/19 06:16:35.7   0.0                          T                5.1  .20 Ml 3.1         4651568
EPF   004.17 192.1 m E Pn      2011/02/19 06:15:32.9  -0.7                          T                                        4651636
EPF   004.17 192.1 m E Pg      2011/02/19 06:15:48.3   0.0                          T                                        4651643
EPF   004.17 192.1 m E Sn      2011/02/19 06:16:19.3  -0.5                          T                                        4653909
EPF   004.17 192.1 m E Sg      2011/02/19 06:16:41.8   0.0                          T               17.3  .24 Ml 3.5         4651575
SMRF  004.23 136.3 m E Pn      2011/02/19 06:15:34.6   0.1                          T                                        4651631
SMRF  004.23 136.3 m E Sg      2011/02/19 06:16:43.6  -0.2                          T                5.1  .33 Ml 2.9         4651567
MBDF  004.37 121.2 m E Pn      2011/02/19 06:15:36.3  -0.1                          T                                        4651630
MBDF  004.37 121.2 m E Sg      2011/02/19 06:16:47.9  -0.2                          T               13.7  .66 Ml 3.0         4651571
ETSF  004.46 200.1 m E Pn      2011/02/19 06:15:37.0  -0.6                          T                                        4651635
ETSF  004.46 200.1 m E Pg      2011/02/19 06:15:52.8  -1.1                          T                                        4651644
ETSF  004.46 200.1 m E Sn      2011/02/19 06:16:26.6  -0.4                          T                                        4653908
ETSF  004.46 200.1 m E Sg      2011/02/19 06:16:51.0  -0.2                          T               25.2  .50 Ml 3.5         4651576
SJPF  004.45 207.0 m E Pn      2011/02/19 06:15:37.5   0.1                          T                                        4651629
SJPF  004.45 207.0 m E Pg      2011/02/19 06:15:53.1  -0.3                          T                                        4651645
SJPF  004.45 207.0 m E Sn      2011/02/19 06:16:26.0  -0.5                          T                                        4651566
SJPF  004.45 207.0 m E Sg      2011/02/19 06:16:50.4  -0.2                          T               13.0  .32 Ml 3.4         4651577
RUP   004.51 052.8 m E Pn      2011/02/19 06:15:39.0   0.8                          T                                        4651609
RUP   004.51 052.8 m E Pg      2011/02/19 06:15:53.8  -0.9                          T                                        4653918
RUP   004.51 052.8 m E Sg      2011/02/19 06:16:52.2  -0.2                          T                                        4651598
LANF  004.61 063.7 m E Pn      2011/02/19 06:15:39.4  -0.1                          T                                        4651610
LANF  004.61 063.7 m E Pg      2011/02/19 06:15:56.6   0.1                          T                                        4651604
LANF  004.61 063.7 m E Sg      2011/02/19 06:16:55.4  -0.1                          T               32.0  .63 Ml 3.5         4651597

.
