EVENT     268253
    Date      Time       Latitude Longitude    Depth    Ndef Nsta Gap    Mag1  N    Mag2  N    Mag3  N   Author         ID
       rms   OT_Error      Smajor Sminor Az        Err   mdist  Mdist     Err        Err        Err      Quality

2012/01/07 12:58:30.2     47.1298    1.5362      3.0 f    26   10 115  Ml 1.9 12  Md 2.0  4              js067245    268273

      0.41   +-  0.09       2.0    1.2  170.50 +-  0.0    0.76   1.84   +-0.2      +-0.0                 m i ke

FRANCE
Sta     Dist  EvAz     Phase      Date       Time     TRes  Azim  AzRes  Slow  SRes Def   SNR       Amp   Per   Mag1   Mag2       ID
HYF   000.76 079.1 m E P       2012/01/07 12:58:45.8  -0.5                          T                                        4813532
HYF   000.76 079.1 m E Sg      2012/01/07 12:58:54.4  -0.2                          T                                        4813531
HYF   000.76 079.1 m E Sn      2012/01/07 12:58:58.6   0.9                          T                                        4813533
TCF   000.96 150.9 m E Pg      2012/01/07 12:58:48.7   0.4                          T                                        4812298
TCF   000.96 150.9 m E Sg      2012/01/07 12:59:01.3   0.5                          T                2.5  .23 Ml 1.9 Md 1.9  4812297
BGF   001.07 122.0 m E Pg      2012/01/07 12:58:49.8  -0.3                          T                                        4812300
BGF   001.07 122.0 m E Sn      2012/01/07 12:59:03.8  -1.0                          T                5.6  .26 Ml 2.2 Md 1.9  4812292
MFF   001.27 246.0 m E Pg      2012/01/07 12:58:53.9   0.0                          T                                        4812307
MFF   001.27 246.0 m E Sg      2012/01/07 12:59:10.1  -0.2                          T                1.9  .17 Ml 2.2         4812308
AVF   001.29 104.6 m E Pg      2012/01/07 12:58:54.4   0.1                          T                                        4812302
AVF   001.29 104.6 m E Sg      2012/01/07 12:59:10.9   0.0                          T                1.9  .24 Ml 1.8 Md 2.0  4812294
SSF   001.35 092.2 m E Pg      2012/01/07 12:58:55.3   0.0                          T                                        4812310
SSF   001.35 092.2 m E Sg      2012/01/07 12:59:13.1   0.3                          T                1.0  .19 Ml 1.8         4812296
LOR   001.59 084.2 m E Pn      2012/01/07 12:58:57.9   0.3                          T                                        4812313
LOR   001.59 084.2 m E Pg      2012/01/07 12:58:59.6  -0.2                          T                                        4812312
LOR   001.59 084.2 m E Sn      2012/01/07 12:59:16.9  -0.5                          T                                        4812311
LOR   001.59 084.2 m E Sg      2012/01/07 12:59:20.9   0.6                          T                1.6  .26 Ml 1.9         4812295
SMF   001.65 106.2 m E Pg      2012/01/07 12:59:00.9  -0.1                          T                                        4812301
SMF   001.65 106.2 m E Sg      2012/01/07 12:59:22.2  -0.1                          T                  1  .20 Ml 1.8         4812293
RJF   001.83 180.4 m E Sg      2012/01/07 12:59:27.6  -0.1                          T                2.1  .29 Ml 1.7         4812306
LDF   001.84 323.3 m E Sg      2012/01/07 12:59:28.3   0.2                          T                 .2  .17 Ml 1.3         4812309

.
EVENT     268254
    Date      Time       Latitude Longitude    Depth    Ndef Nsta Gap    Mag1  N    Mag2  N    Mag3  N   Author         ID
       rms   OT_Error      Smajor Sminor Az        Err   mdist  Mdist     Err        Err        Err      Quality

2012/01/07 19:25:55.0     44.8936    6.7583      2.0      11    6 155  Ml 1.7  2  Md 1.7  3              js067245    268274

      2.36   +-  0.35       7.1    4.7   85.17 +-  0.0    0.17   1.25   +-0.1      +-0.1                 m i ke

FRANCE
Sta     Dist  EvAz     Phase      Date       Time     TRes  Azim  AzRes  Slow  SRes Def   SNR       Amp   Per   Mag1   Mag2       ID
MBDF  000.17 176.8 m E Pg      2012/01/07 19:25:58.7   0.1                          T                                        4812321
MBDF  000.17 176.8 m E Sg      2012/01/07 19:26:01.3   0.3                          T               12.3  .30        Md 1.6  4812320
LPG   000.60 359.5 m E Pg      2012/01/07 19:26:06.6  -0.2                          T                                        4812317
LPG   000.60 359.5 m E Sg      2012/01/07 19:26:14.7   0.0                          T                1.8  .31        Md 1.7  4812318
ORIF  000.62 272.6 m E Pg      2012/01/07 19:26:06.9   0.0                          T                                        4812316
ORIF  000.62 272.6 m E Sg      2012/01/07 19:26:15.1  -0.1                          T                9.0  .30        Md 1.8  4812319
LPL   000.62 358.3 m E Sg      2012/01/07 19:26:14.5  -0.7                          T                                        4812371
SBF   001.14 154.5 m E Sg      2012/01/07 19:26:31.5   0.3                          T                3.2  .43 Ml 1.8         4812370
SMRF  001.25 223.1 m E Sg      2012/01/07 19:26:35.2   0.7                          T                1.5  .26 Ml 1.7         4812372

.
EVENT     268255
    Date      Time       Latitude Longitude    Depth    Ndef Nsta Gap    Mag1  N    Mag2  N    Mag3  N   Author         ID
       rms   OT_Error      Smajor Sminor Az        Err   mdist  Mdist     Err        Err        Err      Quality

2012/01/07 22:25:27.4     44.4693    6.6479      2.0      37    9 052  Ml 2.0  5  Md 2.1  3              js067245    268275

      0.43   +-  0.07       1.6    1.2   54.72 +-  0.0    0.27   1.46   +-0.2      +-0.1                 m i ke

FRANCE
Sta     Dist  EvAz     Phase      Date       Time     TRes  Azim  AzRes  Slow  SRes Def   SNR       Amp   Per   Mag1   Mag2       ID
MBDF  000.27 018.9 m E Pg      2012/01/07 22:25:33.0   0.1                          T                                        4812388
MBDF  000.27 018.9 m E Sg      2012/01/07 22:25:37.3   0.6                          T                7.6  .25        Md 2.0  4812380
ORIF  000.71 309.6 m E Pg      2012/01/07 22:25:40.7  -0.2                          T                                        4812389
ORIF  000.71 309.6 m E Sg      2012/01/07 22:25:50.3   0.1                          T                4.4  .26        Md 2.1  4812381
SBF   000.83 136.7 m E Pg      2012/01/07 22:25:42.9  -0.2                          T                                        4812377
SBF   000.83 136.7 m E Sg      2012/01/07 22:25:54.3   0.4                          T                6.3  .28        Md 2.1  4812376
SMRF  000.92 237.8 m E Pg      2012/01/07 22:25:44.9   0.2                          T                                        4812392
SMRF  000.92 237.8 m E Sg      2012/01/07 22:25:55.9  -0.7                          T                4.0  .33 Ml 1.9         4812393
FRF   000.91 180.0 m E Pg      2012/01/07 22:25:45.1   0.6                          T                                        4812385
FRF   000.91 180.0 m E Sg      2012/01/07 22:25:57.2   1.0                          T                6.8  .22 Ml 2.3         4812384
LPL   001.05 003.2 m E Pg      2012/01/07 22:25:46.4  -1.0                          T                                        4812387
LPL   001.05 003.2 m E Sg      2012/01/07 22:26:01.1   0.1                          T                5.7  .49 Ml 1.9         4812391
LPG   001.03 004.0 m E Pg      2012/01/07 22:25:47.3   0.2                          T                                        4812386
LPG   001.03 004.0 m E Sg      2012/01/07 22:26:01.2   0.7                          T                2.0  .28 Ml 1.7         4812373
LMR   001.14 185.1 m E Pg      2012/01/07 22:25:49.5   0.8                          T                                        4812382
LMR   001.14 185.1 m E Sg      2012/01/07 22:26:04.1   0.7                          T                4.8  .26 Ml 2.2         4812383
VIVF  001.46 286.0 m E Pg      2012/01/07 22:25:54.0  -0.7                          T                                        4812378
VIVF  001.46 286.0 m E Sg      2012/01/07 22:26:13.6   0.0                          T                                        4812390

.
EVENT     268256
    Date      Time       Latitude Longitude    Depth    Ndef Nsta Gap    Mag1  N    Mag2  N    Mag3  N   Author         ID
       rms   OT_Error      Smajor Sminor Az        Err   mdist  Mdist     Err        Err        Err      Quality

2012/01/08 02:55:59.2     47.1367    1.5082      3.0 f    28   13 116  Ml 1.9 15  Md 2.1  4              js067245    268276

      0.38   +-  0.07       1.4     .9  179.64 +-  0.0    0.78   2.25   +-0.2      +-0.1                 m i ke

FRANCE
Sta     Dist  EvAz     Phase      Date       Time     TRes  Azim  AzRes  Slow  SRes Def   SNR       Amp   Per   Mag1   Mag2       ID
HYF   000.78 079.9 m E Pg      2012/01/08 02:56:14.5   0.6                          T                                        4812435
HYF   000.78 079.9 m E Sg      2012/01/08 02:56:24.2   0.0                          T                                        4812436
TCF   000.98 150.1 m E Pg      2012/01/08 02:56:17.8   0.2                          T                                        4812418
TCF   000.98 150.1 m E Sg      2012/01/08 02:56:30.2  -0.1                          T                3.3  .21 Ml 2.0 Md 2.1  4812417
BGF   001.09 121.7 m E Pg      2012/01/08 02:56:20.1   0.6                          T                                        4812412
BGF   001.09 121.7 m E Sg      2012/01/08 02:56:33.9   0.3                          T                7.8  .26 Ml 2.3 Md 2.0  4812414
MFF   001.25 245.4 m E Pg      2012/01/08 02:56:22.3  -0.3                          T                                        4812432
MFF   001.25 245.4 m E Sg      2012/01/08 02:56:38.9   0.1                          T                2.8  .20 Ml 2.2 Md 2.2  4812433
AVF   001.31 104.7 m E Pg      2012/01/08 02:56:24.0   0.3                          T                                        4812411
AVF   001.31 104.7 m E Sg      2012/01/08 02:56:40.0  -0.6                          T                1.4  .22 Ml 1.7         4812415
SSF   001.37 092.4 m E Pg      2012/01/08 02:56:24.4  -0.3                          T                                        4812426
SSF   001.37 092.4 m E Sg      2012/01/08 02:56:42.6   0.2                          T                1.8  .25 Ml 1.9         4812416
SMF   001.67 106.2 m E Pn      2012/01/08 02:56:28.0   0.3                          T                                        4812434
SMF   001.67 106.2 m E Pg      2012/01/08 02:56:30.3  -0.1                          T                                        4812437
SMF   001.67 106.2 m E Sg      2012/01/08 02:56:51.3  -0.7                          T                1.3  .24 Ml 1.8         4812410
LOR   001.61 084.4 m E Pg      2012/01/08 02:56:28.9  -0.2                          T                                        4812427
LOR   001.61 084.4 m E Sg      2012/01/08 02:56:50.0   0.1                          T                1.8  .24 Ml 2.0         4812408
RJF   001.83 179.8 m E Pg      2012/01/08 02:56:33.2  -0.1                          T                                        4812431
RJF   001.83 179.8 m E Sg      2012/01/08 02:56:56.7  -0.2                          T                1.9  .21 Ml 1.8         4812430
LDF   001.82 323.6 m E Sg      2012/01/08 02:56:56.2  -0.4                          T                1.0  .18 Ml 1.9         4812419
CAF   002.25 169.9 m E Sn      2012/01/08 02:57:02.7   0.6                          T                 .8  .25 Ml 1.8         4812429
GRR   002.03 309.0 m E Sg      2012/01/08 02:57:03.2   0.2                          T                 .8  .20 Ml 1.7         4812428
FLN   002.11 321.3 m E Sg      2012/01/08 02:57:05.8   0.4                          T                2.4  .34 Ml 1.9         4812420

.
EVENT     268257
    Date      Time       Latitude Longitude    Depth    Ndef Nsta Gap    Mag1  N    Mag2  N    Mag3  N   Author         ID
       rms   OT_Error      Smajor Sminor Az        Err   mdist  Mdist     Err        Err        Err      Quality

2012/01/08 06:59:19.6     42.8120   13.1854      2.0      41   16 089  Ml 3.0 10                         js067245    268277

      0.80   +-  0.19       4.5    3.5   57.50 +-  0.0    0.06   7.97   +-0.5                            m i ke

CENTRAL ITALY
Sta     Dist  EvAz     Phase      Date       Time     TRes  Azim  AzRes  Slow  SRes Def   SNR       Amp   Per   Mag1   Mag2       ID
PGF   003.10 266.5 m E Pn      2012/01/08 07:00:07.9   0.3                          T                                        4812467
SBF   004.32 286.0 m E Pn      2012/01/08 07:00:24.5   0.2                          T                                        4812496
FRF   004.84 281.1 m E Pn      2012/01/08 07:00:31.0  -0.2                          T                                        4812469
FRF   004.84 281.1 m E Sn      2012/01/08 07:01:25.0   0.4                          T                1.0  .30 Ml 2.4         4812490
LMR   004.92 278.4 m E Pn      2012/01/08 07:00:32.3   0.0                          T                                        4812470
LMR   004.92 278.4 m E Sn      2012/01/08 07:01:27.1   0.6                          T                 .7  .25 Ml 2.3         4812497
MBDF  005.02 294.6 m E Pn      2012/01/08 07:00:34.7   0.7                          T                                        4812466
MBDF  005.02 294.6 m E P       2012/01/08 07:00:38.0   0.0                          T                                        4812495
SMRF  005.67 284.4 m E Pn      2012/01/08 07:00:39.4  -3.2                          T                                        4812468
LPG   005.35 302.3 m E Pn      2012/01/08 07:00:39.7   1.1                          T                                        4812472
LPL   005.37 302.4 m E Pn      2012/01/08 07:00:40.8   2.0                          T                                        4812471
LPL   005.37 302.4 m E Sn      2012/01/08 07:01:38.0   0.4                          T                1.7  .33 Ml 2.7         4812465
ORIF  005.69 294.2 m E Pn      2012/01/08 07:00:42.8  -0.1                          T                                        4812473
ORIF  005.69 294.2 m E P       2012/01/08 07:00:46.0  -1.3                          T                                        4812494
ORIF  005.69 294.2 m E Sn      2012/01/08 07:01:45.0   0.1                          T                1.4  .31 Ml 2.7         4812489
CABF  006.32 309.3 m E Pn      2012/01/08 07:00:52.5   0.9                          T                                        4812475
HINF  006.70 320.5 m E Pn      2012/01/08 07:00:56.8   0.0                          T                                        4812476
HINF  006.70 320.5 m E Sn      2012/01/08 07:02:10.9   1.7                          T                2.3  .34 Ml 3.0         4812485
HAU   007.08 319.5 m E Pn      2012/01/08 07:01:02.7   0.9                          T                                        4812478
HAU   007.08 319.5 m E Sn      2012/01/08 07:02:18.4   0.3                          T                4.9  .31 Ml 3.2         4812477
THEF  007.40 319.5 m E Pn      2012/01/08 07:01:07.4   1.2                          T               59.4 1.92 Ml 3.8         4812474
LOR   007.97 307.2 m E Pn      2012/01/08 07:01:14.0   0.2                          T                                        4812492
LOR   007.97 307.2 m E Sn      2012/01/08 07:02:39.6   0.2                          T                1.2  .33 Ml 3.0         4812491
SMF   007.68 303.1 m E Sn      2012/01/08 07:02:32.7   0.2                          T                1.3  .29 Ml 3.0         4812484
SFTF  007.86 316.1 m E Sn      2012/01/08 07:02:35.1  -1.7                          T                4.3  .36 Ml 3.5         4812493

.
EVENT     268258
    Date      Time       Latitude Longitude    Depth    Ndef Nsta Gap    Mag1  N    Mag2  N    Mag3  N   Author         ID
       rms   OT_Error      Smajor Sminor Az        Err   mdist  Mdist     Err        Err        Err      Quality

2012/01/08 18:22:45.5     47.6774    7.4678     10.0      19    8 073  Ml 1.8  6  Md 1.9  3              js067245    268278

      0.73   +-  0.07       1.5    1.1  174.51 +-  0.0    0.19   1.82   +-0.4      +-0.3                 m i ke

SWITZERLAND
Sta     Dist  EvAz     Phase      Date       Time     TRes  Azim  AzRes  Slow  SRes Def   SNR       Amp   Per   Mag1   Mag2       ID
HINF  000.44 288.8 m E Pg      2012/01/08 18:22:54.0  -0.1                          T                                        4812511
HINF  000.44 288.8 m E Sg      2012/01/08 18:22:59.8  -0.2                          T                2.7  .24        Md 1.7  4812506
HAU   000.82 293.9 m E Pg      2012/01/08 18:23:01.0  -0.1                          T                                        4812510
HAU   000.82 293.9 m E Sg      2012/01/08 18:23:12.0   0.2                          T                4.7  .24        Md 1.7  4812507
THEF  001.13 299.6 m E Pg      2012/01/08 18:23:06.7   0.0                          T                                        4812509
THEF  001.13 299.6 m E Sg      2012/01/08 18:23:21.5   0.0                          T                5.0  .19 Ml 2.3 Md 2.2  4812508
LANF  001.32 009.7 m E Pg      2012/01/08 18:23:10.2   0.0                          T                                        4812500
LANF  001.32 009.7 m E Sg      2012/01/08 18:23:27.2  -0.2                          T                1.7  .21 Ml 1.9         4812499
CABF  001.42 222.0 m E Pg      2012/01/08 18:23:12.5   0.3                          T                                        4812504
CABF  001.42 222.0 m E Sg      2012/01/08 18:23:29.4  -1.2                          T                1.3  .26 Ml 1.7         4812505
PAGF  001.46 307.6 m E Pg      2012/01/08 18:23:12.6  -0.1                          T                                        4812498
PAGF  001.46 307.6 m E Sg      2012/01/08 18:23:31.9   0.2 111.7  -14.6             T                 .2  .25 Ml 1.0         4812503
SFTF  001.72 288.8 m E Sg      2012/01/08 18:23:39.6   0.0                          T                1.7  .27 Ml 1.9         4812501
MEZF  001.82 297.9 m E Sg      2012/01/08 18:23:42.9   0.1                          T                1.1  .32 Ml 1.7         4812502

.
