EVENT     273123
    Date      Time       Latitude Longitude    Depth    Ndef Nsta Gap    Mag1  N    Mag2  N    Mag3  N   Author         ID
       rms   OT_Error      Smajor Sminor Az        Err   mdist  Mdist     Err        Err        Err      Quality

2012/04/05 12:35:03.8     47.4260    5.0919       .0 f    15    9 097  Ml 1.9  7  Md 2.1  1              js067245    273143

      0.97   +-  0.09       2.1    1.4  137.70 +-  0.0    0.78   1.35   +-0.3      +-                    m i km

FRANCE
Sta     Dist  EvAz     Phase      Date       Time     TRes  Azim  AzRes  Slow  SRes Def   SNR       Amp   Per   Mag1   Mag2       ID
SFTF  000.78 357.4 m E Pg      2012/04/05 12:35:18.5  -0.2 173.2  -4.1              T                                        4910308
SFTF  000.78 357.4 m E Sg      2012/04/05 12:35:29.1   0.0 174.3  -3.1              T              112.1 1.41        Md 2.1  4910309
LOR   000.85 259.8 m E Pg      2012/04/05 12:35:20.6   0.5  75.7  -3.2              T                                        4910313
LOR   000.85 259.8 m E Sg      2012/04/05 12:35:30.9  -0.6  82.7  3.9               T                3.4  .26                4910314
CABF  001.06 139.8 m E Pg      2012/04/05 12:35:24.0   0.0                          T                                        4910306
CABF  001.06 139.8 m E Sn      2012/04/05 12:35:39.4   0.1                          T               30.6  .88 Ml 2.4         4910307
SMF   001.16 228.1 m E Pg      2012/04/05 12:35:25.6  -0.1                          T                                        4910303
SMF   001.16 228.1 m E Sg      2012/04/05 12:35:40.7  -0.2                          T                2.8  .21 Ml 2.0         4910304
PAGF  001.21 020.4 m E Pg      2012/04/05 12:35:26.6   0.0                          T                                        4910310
PAGF  001.21 020.4 m E Sg      2012/04/05 12:35:42.6   0.1 190.3  -10.6             T                3.7  .52 Ml 1.8         4910311
AVF   001.35 242.5 m E Pg      2012/04/05 12:35:29.3   0.1                          T                                        4910302
AVF   001.35 242.5 m E Sg      2012/04/05 12:35:46.6  -0.2                          T                1.2  .41 Ml 1.4         4910300
HAU   001.03 055.2 m E Sg      2012/04/05 12:35:37.2   0.3                          T                7.3  .50 Ml 1.8         4910301
SSF   001.14 251.9 m E Sg      2012/04/05 12:35:40.0  -0.3                          T                2.3  .25 Ml 1.9         4910312
HINF  001.25 071.2 m E Sg      2012/04/05 12:35:44.1   0.2                          T                3.6  .20 Ml 2.2         4910305

.
EVENT     273126
    Date      Time       Latitude Longitude    Depth    Ndef Nsta Gap    Mag1  N    Mag2  N    Mag3  N   Author         ID
       rms   OT_Error      Smajor Sminor Az        Err   mdist  Mdist     Err        Err        Err      Quality

2012/04/05 15:15:48.5     47.3240    5.7868       .0 f    14    9 108  Ml 2.5  5  Md 2.0  2              bulletin    273146
                                                                                                         _ldg
      0.40   +-  0.12       2.6    1.7  139.15 +-  0.0    0.74   2.67   +-0.2      +-0.1                 m i km

FRANCE
Sta     Dist  EvAz     Phase      Date       Time     TRes  Azim  AzRes  Slow  SRes Def   SNR       Amp   Per   Mag1   Mag2       ID
CABF  000.74 163.8 m E Pg      2012/04/05 15:16:02.7  -0.2                          T                                        4903008
CABF  000.74 163.8 m E Sg      2012/04/05 15:16:13.7   0.9                          T               15.5  .40        Md 2.1  4902872
HAU   000.78 028.9 m E Pg      2012/04/05 15:16:02.8  -0.8                          T                                        4902870
HAU   000.78 028.9 m E Sg      2012/04/05 15:16:14.4   0.5                          T               55.6  .58        Md 2.0  4902875
HINF  000.87 055.3 m E Pg      2012/04/05 15:16:05.1  -0.2                          T                                        4902877
HINF  000.87 055.3 m E Sg      2012/04/05 15:16:17.1   0.2                          T               23.6  .35 Ml 2.6         4902876
THEF  000.92 008.7 m E Pg      2012/04/05 15:16:06.3   0.3                          T                                        4902865
THEF  000.92 008.7 m E Sg      2012/04/05 15:16:18.4   0.3                          T               19.4  .25 Ml 2.7         4902867
LOR   001.31 268.3 m E Pg      2012/04/05 15:16:13.1  -0.3                          T                                        4902873
LOR   001.31 268.3 m E Sg      2012/04/05 15:16:30.9   0.4                          T                6.0  .28 Ml 2.3         4902874
CDF   001.48 042.1 m E Sg      2012/04/05 15:16:35.0  -0.8                          T                                        4902868
SMF   001.50 243.7 m E Sg      2012/04/05 15:16:36.2   0.0                          T                7.5  .35 Ml 2.4         4902871
SSF   001.58 261.3 m E Sg      2012/04/05 15:16:38.3  -0.4                          T                7.8  .46 Ml 2.4         4902869
TCF   002.67 248.4 m E Sg      2012/04/05 15:17:13.1   0.4                          T                                        4902866

.
EVENT     273142
    Date      Time       Latitude Longitude    Depth    Ndef Nsta Gap    Mag1  N    Mag2  N    Mag3  N   Author         ID
       rms   OT_Error      Smajor Sminor Az        Err   mdist  Mdist     Err        Err        Err      Quality

2012/04/05 16:23:02.1     46.0562    7.8962      9.0 f    22    3 090  Ml 1.6  3  Md 1.5  1              js067245    273162

      0.21   +-  0.05       1.3     .8  104.78 +-  0.0    0.05   1.55   +-0.1      +-                    m i ke

SWITZERLAND
Sta     Dist  EvAz     Phase      Date       Time     TRes  Azim  AzRes  Slow  SRes Def   SNR       Amp   Per   Mag1   Mag2       ID
LPL   000.98 236.9 m E Pg      2012/04/05 16:23:20.5  -0.3                          T                                        4903024
LPL   000.98 236.9 m E Sg      2012/04/05 16:23:33.7   0.2                          T                1.5  .25 Ml 1.6 Md 1.5  4903025
LPG   000.98 235.5 m E Pg      2012/04/05 16:23:20.6  -0.3                          T                                        4903030
LPG   000.98 235.5 m E P       2012/04/05 16:23:22.4   0.1                          T                                        4903029
LPG   000.98 235.5 m E Sg      2012/04/05 16:23:33.8   0.2                          T                1.3  .27 Ml 1.5         4903028
MBDF  001.55 211.2 m E Pg      2012/04/05 16:23:31.3   0.1                          T                                        4903027
MBDF  001.55 211.2 m E Sn      2012/04/05 16:23:48.7   1.3                          T                1.4  .29 Ml 1.7         4903026

.
EVENT     273127
    Date      Time       Latitude Longitude    Depth    Ndef Nsta Gap    Mag1  N    Mag2  N    Mag3  N   Author         ID
       rms   OT_Error      Smajor Sminor Az        Err   mdist  Mdist     Err        Err        Err      Quality

2012/04/05 19:30:06.8     46.0469    7.9090      8.0 f    84   21 080  Ml 2.3 22  Md 2.5  2              bulletin    273147
                                                                                                         _ldg
      0.56   +-  0.04       1.0     .7  117.14 +-  0.0    0.04   3.55   +-0.3      +-0.1                 m i ke

SWITZERLAND
Sta     Dist  EvAz     Phase      Date       Time     TRes  Azim  AzRes  Slow  SRes Def   SNR       Amp   Per   Mag1   Mag2       ID
LPG   000.98 236.3 m E Pg      2012/04/05 19:30:24.9  -0.7                          T                                        4902893
LPG   000.98 236.3 m E Sg      2012/04/05 19:30:38.3  -0.1                          T                7.9  .18 Ml 2.4 Md 2.6  4902890
LPL   000.98 237.6 m E Pg      2012/04/05 19:30:25.0  -0.6                          T                                        4902894
LPL   000.98 237.6 m E Sg      2012/04/05 19:30:38.7   0.4                          T                9.1  .28 Ml 2.3 Md 2.4  4902891
CABF  001.38 294.7 m E Pg      2012/04/05 19:30:32.8   0.0                          T                                        4902898
CABF  001.38 294.7 m E Sg      2012/04/05 19:30:51.8   1.1                          T                8.8  .31 Ml 2.4         4902897
MBDF  001.54 211.7 m E Pn      2012/04/05 19:30:33.1  -0.1                          T                                        4902896
MBDF  001.54 211.7 m E Pg      2012/04/05 19:30:35.5  -0.4                          T                                        4910613
MBDF  001.54 211.7 m E Sg      2012/04/05 19:30:56.1   0.4                          T               15.0  .38 Ml 2.6         4903048
HINF  001.91 338.2 m E Pn      2012/04/05 19:30:37.9  -0.2                          T                                        4902899
HINF  001.91 338.2 m E Pg      2012/04/05 19:30:42.3  -0.2                          T                                        4903052
HINF  001.91 338.2 m E Sn      2012/04/05 19:31:00.9   0.0                          T                                        4903053
HINF  001.91 338.2 m E Sg      2012/04/05 19:31:07.3   0.1                          T                3.8  .23 Ml 2.4         4902900
ORIF  001.82 232.4 m E P       2012/04/05 19:30:39.1   0.1                          T                                        4902895
ORIF  001.82 232.4 m E Pg      2012/04/05 19:30:40.9   0.1                          T                                        4910612
ORIF  001.82 232.4 m E Sg      2012/04/05 19:31:04.5   0.2                          T                3.4  .32 Ml 2.2         4903047
SBF   002.21 188.9 m E Pn      2012/04/05 19:30:42.3   0.2                          T                                        4903045
SBF   002.21 188.9 m E Pg      2012/04/05 19:30:47.5  -0.4                          T                                        4903046
SBF   002.21 188.9 m E Sg      2012/04/05 19:31:15.9  -0.5                          T                9.0  .38 Ml 2.6         4903044
HAU   002.23 332.0 m E Pn      2012/04/05 19:30:42.4   0.0                          T                                        4902902
HAU   002.23 332.0 m E Pg      2012/04/05 19:30:48.3  -0.1                          T                                        4903054
HAU   002.23 332.0 m E Sg      2012/04/05 19:31:17.3   0.3                          T                8.4  .28 Ml 2.5         4902901
CDF   002.41 349.9 m E Pn      2012/04/05 19:30:45.0   0.1                          T                                        4902886
CDF   002.41 349.9 m E Pg      2012/04/05 19:30:51.7   0.0                          T                                        4903058
CDF   002.41 349.9 m E Sg      2012/04/05 19:31:21.6  -1.0                          T                2.7  .34 Ml 2.3         4902887
VIVF  002.57 243.6 m E P       2012/04/05 19:30:49.8   0.1                          T                                        4903049
VIVF  002.57 243.6 m E Pg      2012/04/05 19:30:55.0   0.4                          T                                        4903055
VIVF  002.57 243.6 m E Sg      2012/04/05 19:31:28.5   0.9                          T                1.3  .27 Ml 2.0         4903050
FRF   002.64 200.3 m E P       2012/04/05 19:30:51.6   0.9                          T                                        4902880
FRF   002.64 200.3 m E Pg      2012/04/05 19:30:55.5  -0.4                          T                                        4902892
FRF   002.64 200.3 m E Sn      2012/04/05 19:31:18.2  -0.1                          T                                        4902879
FRF   002.64 200.3 m E Sg      2012/04/05 19:31:29.8  -0.1                          T                1.7  .29 Ml 2.1         4902878
THEF  002.54 329.8 m E Pg      2012/04/05 19:30:53.7  -0.3                          T                                        4910616
THEF  002.54 329.8 m E Sg      2012/04/05 19:31:26.7  -0.1                          T                                        4902884
SMF   002.88 283.5 m E P       2012/04/05 19:30:54.6   0.5                          T                                        4910615
SMF   002.88 283.5 m E Sg      2012/04/05 19:31:37.6   0.3                          T                2.5  .22 Ml 2.4         4902881
SMRF  002.65 219.5 m E Pg      2012/04/05 19:30:56.7   0.6                          T                                        4902889
SMRF  002.65 219.5 m E Sg      2012/04/05 19:31:30.4   0.2                          T                1.2  .40 Ml 1.8         4910611
AVF   003.24 284.9 m E Pn      2012/04/05 19:30:56.9   0.9                          T                                        4902883
AVF   003.24 284.9 m E Sg      2012/04/05 19:31:48.1  -0.3                          T                 .7  .28 Ml 1.8         4902882
LMR   002.89 200.7 m E Pg      2012/04/05 19:30:59.0  -1.4                          T                                        4903056
LMR   002.89 200.7 m E Sg      2012/04/05 19:31:37.5   0.0                          T                1.5  .35 Ml 2.0         4903057
LOR   003.05 295.1 m E Pg      2012/04/05 19:31:03.4   0.0                          T                                        4910618
LOR   003.05 295.1 m E Sg      2012/04/05 19:31:43.0   0.6 127.4  15.2              T                1.4  .21 Ml 2.3         4902888
BGF   003.55 280.1 m E P       2012/04/05 19:31:03.5   0.0                          T                                        4910614
BGF   003.55 280.1 m E Sg      2012/04/05 19:31:58.4   0.4                          T                3.4  .38 Ml 2.5         4903051
SFTF  002.92 318.8 m E Sg      2012/04/05 19:31:38.2  -0.2                          T                4.2  .36 Ml 2.5         4902885
PAGF  002.92 330.2 m E Sg      2012/04/05 19:31:38.3  -0.1                          T                 .2  .18 Ml 1.5         4910617
SSF   003.20 290.1 m E Sg      2012/04/05 19:31:47.6   0.2                          T                1.6  .32 Ml 2.3         4903043

.
EVENT     273128
    Date      Time       Latitude Longitude    Depth    Ndef Nsta Gap    Mag1  N    Mag2  N    Mag3  N   Author         ID
       rms   OT_Error      Smajor Sminor Az        Err   mdist  Mdist     Err        Err        Err      Quality

2012/04/05 19:39:17.9     44.0191    7.0745      2.0      36    9 071  Ml 1.9  2  Md 2.1  3              bulletin    273148
                                                                                                         _ldg
      0.53   +-  0.07       1.3    1.2   54.65 +-  0.0    0.17   1.91   +-0.2      +-0.1                 m i ke

NORTHERN ITALY
Sta     Dist  EvAz     Phase      Date       Time     TRes  Azim  AzRes  Slow  SRes Def   SNR       Amp   Per   Mag1   Mag2       ID
SBF   000.30 120.8 m E Pg      2012/04/05 19:39:23.7  -0.2                          T                                        4902914
SBF   000.30 120.8 m E Sg      2012/04/05 19:39:28.1   0.1                          T               17.1  .28        Md 2.0  4902913
FRF   000.55 214.2 m E Pg      2012/04/05 19:39:27.8  -0.6                          T                                        4902910
FRF   000.55 214.2 m E Sg      2012/04/05 19:39:35.2  -0.5                          T                4.6  .34        Md 2.2  4902909
MBDF  000.74 343.0 m E Pg      2012/04/05 19:39:31.9  -0.1                          T                                        4903062
MBDF  000.74 343.0 m E Sg      2012/04/05 19:39:41.5  -0.2                          T                3.1  .38        Md 2.1  4903069
LMR   000.80 211.1 m E Pg      2012/04/05 19:39:32.4  -0.5                          T                                        4902911
LMR   000.80 211.1 m E Sg      2012/04/05 19:39:43.8   0.5                          T                1.8  .18                4902912
SMRF  001.08 268.2 m E Pg      2012/04/05 19:39:38.7   0.5                          T                                        4902907
SMRF  001.08 268.2 m E Sg      2012/04/05 19:39:53.2   1.0                          T                3.8  .28 Ml 2.0         4902908
ORIF  001.24 316.8 m E Pg      2012/04/05 19:39:41.2   0.0                          T                                        4902906
ORIF  001.24 316.8 m E P       2012/04/05 19:39:42.8   0.3                          T                                        4903070
ORIF  001.24 316.8 m E Sg      2012/04/05 19:39:58.3   1.0                          T                1.8  .28 Ml 1.7         4902904
LPG   001.50 351.3 m E Pg      2012/04/05 19:39:45.2  -1.0                          T                                        4902903
LPL   001.52 350.9 m E Pg      2012/04/05 19:39:45.8  -0.6                          T                                        4902905
VIVF  001.91 296.8 m E Pn      2012/04/05 19:39:50.7   0.9                          T                                        4903068
VIVF  001.91 296.8 m E Sn      2012/04/05 19:40:14.3   1.2                          T                                        4903067

.
EVENT     273143
    Date      Time       Latitude Longitude    Depth    Ndef Nsta Gap    Mag1  N    Mag2  N    Mag3  N   Author         ID
       rms   OT_Error      Smajor Sminor Az        Err   mdist  Mdist     Err        Err        Err      Quality

2012/04/05 20:00:55.9     46.0535    7.8925      9.0 f    33    7 086  Ml 1.6  7  Md 2.1  2              js067245    273163

      0.25   +-  0.05       1.0     .8  104.73 +-  0.0    0.05   2.22   +-0.1      +-0.0                 m i ke

SWITZERLAND
Sta     Dist  EvAz     Phase      Date       Time     TRes  Azim  AzRes  Slow  SRes Def   SNR       Amp   Per   Mag1   Mag2       ID
LPL   000.97 236.9 m E Pg      2012/04/05 20:01:14.3  -0.2                          T                                        4903079
LPL   000.97 236.9 m E Sg      2012/04/05 20:01:27.6   0.3                          T                1.3  .31 Ml 1.4 Md 2.1  4903076
LPG   000.97 235.6 m E Pg      2012/04/05 20:01:14.4  -0.2                          T                                        4903080
LPG   000.97 235.6 m E Sg      2012/04/05 20:01:26.7  -0.6                          T                1.1  .18 Ml 1.6 Md 2.0  4903077
CABF  001.37 294.7 m E Pg      2012/04/05 20:01:21.3  -0.3                          T                                        4903075
CABF  001.37 294.7 m E Sg      2012/04/05 20:01:39.2  -0.2                          T                  1  .27 Ml 1.5         4910623
MBDF  001.54 211.2 m E Pg      2012/04/05 20:01:25.1   0.2                          T                                        4903078
MBDF  001.54 211.2 m E Sg      2012/04/05 20:01:44.7  -0.2                          T                 .5  .18 Ml 1.5         4910620
ORIF  001.81 232.0 m E Sg      2012/04/05 20:01:53.3   0.1                          T                 .4  .25 Ml 1.4         4910619
HINF  001.90 338.4 m E Sg      2012/04/05 20:01:56.1   0.1                          T                 .8  .29 Ml 1.7         4910621
HAU   002.22 332.1 m E Sg      2012/04/05 20:02:05.9   0.1                          T                1.4  .24 Ml 1.8         4910622

.
