EVENT     262141
    Date      Time       Latitude Longitude    Depth    Ndef Nsta Gap    Mag1  N    Mag2  N    Mag3  N   Author         ID
       rms   OT_Error      Smajor Sminor Az        Err   mdist  Mdist     Err        Err        Err      Quality

2011/08/03 10:44:02.0     44.6732    4.6858       .0 f    21   10 097  Ml 2.0  8  Md 2.2  3              js067245    262141

      0.60   +-  0.07       1.3    1.3  128.42 +-  0.0    0.18   2.66   +-0.2      +-0.3                 m i km

FRANCE
Sta     Dist  EvAz     Phase      Date       Time     TRes  Azim  AzRes  Slow  SRes Def   SNR       Amp   Per   Mag1   Mag2       ID
VIVF  000.18 357.1 m E Pg      2011/08/03 10:44:06.3   0.3                          T                                        4732429
VIVF  000.18 357.1 m E Sg      2011/08/03 10:44:08.8   0.0                          T               85.5  .48        Md 2.5  4733559
LASF  000.84 225.2 m E Pg      2011/08/03 10:44:18.1  -0.1                          T                                        4732428
LASF  000.84 225.2 m E Pn      2011/08/03 10:44:19.8   0.1                          T                                        4733558
LASF  000.84 225.2 m E Sg      2011/08/03 10:44:29.2  -0.1                          T               11.7  .27        Md 2.3  4732424
ORIF  000.88 073.5 m E Pg      2011/08/03 10:44:19.2   0.1                          T                                        4732427
ORIF  000.88 073.5 m E Sg      2011/08/03 10:44:30.4  -0.3                          T                4.0  .30 Ml 1.9 Md 1.9  4732425
FRF   001.80 127.5 m E Pg      2011/08/03 10:44:35.9   0.2                          T                                        4732426
CAF   001.88 278.6 m E Pg      2011/08/03 10:44:37.2  -0.2                          T                                        4732444
CAF   001.88 278.6 m E Sg      2011/08/03 10:45:02.0   0.1                          T                2.5  .23 Ml 2.2         4732445
MTLF  002.22 234.1 m E Pn      2011/08/03 10:44:38.3  -0.2                          T                                        4732447
MTLF  002.22 234.1 m E Pg      2011/08/03 10:44:43.7   0.1                          T                                        4732448
MTLF  002.22 234.1 m E Sg      2011/08/03 10:45:12.7   0.2                          T                1.3  .23 Ml 2.0         4732446
TCF   002.38 313.7 m E Pg      2011/08/03 10:44:46.6   0.2                          T                                        4732437
TCF   002.38 313.7 m E Sg      2011/08/03 10:45:16.7  -0.5                          T                1.6  .31 Ml 2.1         4732441
LOR   002.66 347.8 m E Pg      2011/08/03 10:44:51.5  -0.1                          T                                        4732438
LOR   002.66 347.8 m E Sg      2011/08/03 10:45:26.0   0.0                          T                2.2  .28 Ml 2.3         4732439
AVF   002.31 336.7 m E Sg      2011/08/03 10:45:14.7  -0.5                          T                 .9  .28 Ml 1.8         4732436
SSF   002.53 341.4 m E Sg      2011/08/03 10:45:21.2  -0.7                          T                 .3  .17 Ml 1.7         4732440

.
EVENT     262145
    Date      Time       Latitude Longitude    Depth    Ndef Nsta Gap    Mag1  N    Mag2  N    Mag3  N   Author         ID
       rms   OT_Error      Smajor Sminor Az        Err   mdist  Mdist     Err        Err        Err      Quality

2011/08/03 17:16:51.3     43.1982    -.6597      2.0       6    3 203             Md 1.6  3              js067245    262145

      0.38   +-  0.28       7.9    3.6    5.47 +-  0.0    0.31   0.75              +-0.0                 m i ke

PYRENEES
Sta     Dist  EvAz     Phase      Date       Time     TRes  Azim  AzRes  Slow  SRes Def   SNR       Amp   Per   Mag1   Mag2       ID
ETSF  000.31 166.1 m E Pg      2011/08/03 17:16:57.7   0.2                          T                                        4732705
ETSF  000.31 166.1 m E Sg      2011/08/03 17:17:01.2  -0.4                          T                8.0  .18        Md 1.6  4732704
SJPF  000.42 258.6 m E Pg      2011/08/03 17:16:59.6   0.1                          T                                        4732700
SJPF  000.42 258.6 m E Sg      2011/08/03 17:17:04.1  -1.0                          T                3.3  .26        Md 1.6  4732703
EPF   000.75 102.6 m E Pg      2011/08/03 17:17:05.4  -0.1                          T                                        4732701
EPF   000.75 102.6 m E Sg      2011/08/03 17:17:15.1  -0.2                          T                 .3  .15        Md 1.6  4732702

.
EVENT     262144
    Date      Time       Latitude Longitude    Depth    Ndef Nsta Gap    Mag1  N    Mag2  N    Mag3  N   Author         ID
       rms   OT_Error      Smajor Sminor Az        Err   mdist  Mdist     Err        Err        Err      Quality

2011/08/03 18:49:02.7     46.6322   -2.1431      3.0 f    53   18 162  Ml 2.7 20  Md 3.0  3              js067245    262144

      0.91   +-  0.09       2.0    1.2   54.09 +-  0.0    1.38   4.16   +-0.3      +-0.0                 m i ke

BAY OF BISCAY
Sta     Dist  EvAz     Phase      Date       Time     TRes  Azim  AzRes  Slow  SRes Def   SNR       Amp   Per   Mag1   Mag2       ID
MFF   001.38 090.5 m E Pn      2011/08/03 18:49:27.0  -0.1                          T                                        4732750
MFF   001.38 090.5 m E Pg      2011/08/03 18:49:28.4   0.1                          T                                        4733064
MFF   001.38 090.5 m E Sg      2011/08/03 18:49:46.2   0.1                          T               25.5  .30 Ml 3.1 Md 3.0  4732738
QUIF  001.46 331.9 m E Pn      2011/08/03 18:49:28.6   0.4                          T                                        4732747
QUIF  001.46 331.9 m E Pg      2011/08/03 18:49:30.2   0.3                          T                                        4733067
QUIF  001.46 331.9 m E Sg      2011/08/03 18:49:49.6   0.9                          T               24.0  .20 Ml 3.1 Md 3.0  4732741
SGMF  001.65 350.3 m E Pg      2011/08/03 18:49:33.1  -0.2                          T                                        4732746
SGMF  001.65 350.3 m E Sg      2011/08/03 18:49:55.0   0.4                          T               12.8  .21 Ml 2.9 Md 3.0  4732742
ROSF  001.87 336.2 m E Pn      2011/08/03 18:49:33.6  -0.2                          T                                        4733071
ROSF  001.87 336.2 m E Pg      2011/08/03 18:49:36.9  -0.5                          T                                        4732745
ROSF  001.87 336.2 m E Sg      2011/08/03 18:50:02.5   1.0                          T                5.3  .24 Ml 2.5         4732743
GRR   001.96 025.9 m E Pn      2011/08/03 18:49:34.9  -0.1                          T                                        4733072
GRR   001.96 025.9 m E Pg      2011/08/03 18:49:39.6   0.5                          T                                        4732749
GRR   001.96 025.9 m E Sg      2011/08/03 18:50:04.3  -0.1                          T                6.4  .23 Ml 2.5         4732739
LDF   002.39 034.1 m E Pn      2011/08/03 18:49:40.8  -0.1                          T                                        4732748
LDF   002.39 034.1 m E Pg      2011/08/03 18:49:46.5  -0.6                          T                                        4733065
LDF   002.39 034.1 m E Sg      2011/08/03 18:50:17.5  -0.3                          T                3.1  .20 Ml 2.4         4732740
FLN   002.41 027.2 m E Pn      2011/08/03 18:49:41.6   0.5 210.0  1.6               T                                        4732723
FLN   002.41 027.2 m E Pg      2011/08/03 18:49:47.1  -0.2                          T                                        4733066
FLN   002.41 027.2 m E Sg      2011/08/03 18:50:17.4  -1.0 223.0  14.6              T                4.5  .28 Ml 2.3         4732722
RJF   002.88 116.2 m E Pn      2011/08/03 18:49:47.1  -0.4                          T                                        4733075
RJF   002.88 116.2 m E Pg      2011/08/03 18:49:56.5   0.5                          T                                        4732721
RJF   002.88 116.2 m E Sg      2011/08/03 18:50:32.8  -0.2                          T                6.3  .19 Ml 2.6         4732737
TCF   003.03 094.9 m E Pn      2011/08/03 18:49:50.0   0.3                          T                                        4732744
TCF   003.03 094.9 m E Pg      2011/08/03 18:49:58.5  -0.4                          T                                        4732736
TCF   003.03 094.9 m E Sn      2011/08/03 18:50:23.5  -0.8                          T                                        4732735
TCF   003.03 094.9 m E Sg      2011/08/03 18:50:36.7  -1.0                          T                7.2  .31 Ml 2.8         4732734
LFF   002.63 129.0 m E Pg      2011/08/03 18:49:51.7   0.2                          T                                        4732720
LFF   002.63 129.0 m E Sg      2011/08/03 18:50:25.1  -0.3                          T                6.5  .23 Ml 2.6         4732719
CAF   003.40 118.6 m E Pn      2011/08/03 18:49:54.4  -0.4                          T                                        4733074
CAF   003.40 118.6 m E Sn      2011/08/03 18:50:33.1  -0.1                          T                                        4732717
CAF   003.40 118.6 m E Sg      2011/08/03 18:50:49.3  -0.1                          T                3.8  .27 Ml 2.7         4732716
AVF   003.78 085.6 m E Pn      2011/08/03 18:50:00.2   0.4                          T                                        4732732
AVF   003.78 085.6 m E Sn      2011/08/03 18:50:41.9  -0.4                          T                                        4733069
AVF   003.78 085.6 m E Sg      2011/08/03 18:51:01.7   0.5                          T                1.3  .25 Ml 2.3         4732730
ETSF  003.90 162.6 m E Pn      2011/08/03 18:50:01.7   0.1                          T                                        4733073
ETSF  003.90 162.6 m E Pg      2011/08/03 18:50:14.7  -0.3                          T                                        4732715
LOR   004.16 079.0 m E Pn      2011/08/03 18:50:04.6  -0.5                          T                                        4733068
LOR   004.16 079.0 m E Sg      2011/08/03 18:51:12.9  -0.1 247.9  -15.5             T                1.9  .25 Ml 2.6         4732733
SJPF  003.58 169.2 m E Pg      2011/08/03 18:50:08.8  -0.1                          T                                        4732718
EPF   004.01 153.0 m E Pg      2011/08/03 18:50:16.6  -0.4                          T                                        4732714
EPF   004.01 153.0 m E Sn      2011/08/03 18:50:48.1   0.4                          T                                        4732713
EPF   004.01 153.0 m E Sg      2011/08/03 18:51:09.0   0.6                          T                1.2  .19 Ml 2.4         4732712
SMF   004.12 087.6 m E Pg      2011/08/03 18:50:19.8   0.8                          T                                        4732731
SMF   004.12 087.6 m E Sg      2011/08/03 18:51:11.3  -0.6                          T                1.2  .19 Ml 2.5         4732729
BGF   003.44 089.4 m E Sn      2011/08/03 18:50:34.2   0.1                          T                                        4732726
BGF   003.44 089.4 m E Sg      2011/08/03 18:50:49.6  -0.9                          T               12.0  .32 Ml 3.1         4732725

.
EVENT     262146
    Date      Time       Latitude Longitude    Depth    Ndef Nsta Gap    Mag1  N    Mag2  N    Mag3  N   Author         ID
       rms   OT_Error      Smajor Sminor Az        Err   mdist  Mdist     Err        Err        Err      Quality

2011/08/03 20:24:41.2     45.0566    7.2807      3.0 f    13    6 237  Ml 1.3  4  Md 1.4  3              js067245    262146

      0.30   +-  0.19       3.9    1.9   78.47 +-  0.0    0.49   1.81   +-0.2      +-0.0                 m i ke

NORTHERN ITALY
Sta     Dist  EvAz     Phase      Date       Time     TRes  Azim  AzRes  Slow  SRes Def   SNR       Amp   Per   Mag1   Mag2       ID
MBDF  000.49 227.9 m E Pg      2011/08/03 20:24:50.8   0.1                          T                                        4732777
MBDF  000.49 227.9 m E Sg      2011/08/03 20:24:57.3   0.1                          T                4.0  .27        Md 1.4  4732776
LPG   000.58 319.9 m E Pg      2011/08/03 20:24:52.4  -0.1                          T                                        4732779
LPG   000.58 319.9 m E Sg      2011/08/03 20:25:00.6   0.5                          T                1.6  .20        Md 1.3  4732773
LPL   000.60 320.1 m E Pg      2011/08/03 20:24:52.9   0.1                          T                                        4732778
LPL   000.60 320.1 m E Sg      2011/08/03 20:25:00.7  -0.1                          T                1.6  .16        Md 1.4  4732774
FRF   001.56 197.1 m E Pn      2011/08/03 20:25:07.9  -0.2                          T                                        4732772
FRF   001.56 197.1 m E Sn      2011/08/03 20:25:28.2   0.5                          T                 .3  .21 Ml 1.2         4732770
LMR   001.81 198.1 m E Pn      2011/08/03 20:25:11.8   0.4                          T                                        4732771
LMR   001.81 198.1 m E Sn      2011/08/03 20:25:32.8  -0.8                          T                 .4  .25 Ml 1.3         4732769
ORIF  001.00 262.6 m E Sg      2011/08/03 20:25:13.4   0.2                          T                1.7  .32 Ml 1.5         4732775

.
EVENT     262147
    Date      Time       Latitude Longitude    Depth    Ndef Nsta Gap    Mag1  N    Mag2  N    Mag3  N   Author         ID
       rms   OT_Error      Smajor Sminor Az        Err   mdist  Mdist     Err        Err        Err      Quality

2011/08/03 22:27:37.9     47.9355    6.4915     21.0      12    6 170  Ml 1.3  1  Md 1.3  2              js067245    262147

      0.37   +-  0.19       5.2    2.5   14.72 +-  1.5    0.12   1.01   +-         +-0.1                 m i ke

FRANCE
Sta     Dist  EvAz     Phase      Date       Time     TRes  Azim  AzRes  Slow  SRes Def   SNR       Amp   Per   Mag1   Mag2       ID
HAU   000.12 306.1 m E Pg      2011/08/03 22:27:42.7   0.4                          T                                        4732793
HAU   000.12 306.1 m E Sg      2011/08/03 22:27:44.9  -0.5                          T                8.1  .24        Md 1.4  4732792
HINF  000.27 115.9 m E Pg      2011/08/03 22:27:44.6   0.3                          T                                        4732788
HINF  000.27 115.9 m E Sg      2011/08/03 22:27:48.1  -0.6                          T                3.7  .18        Md 1.3  4732791
THEF  000.44 311.5 m E Pg      2011/08/03 22:27:46.9  -0.2                          T                                        4733076
THEF  000.44 311.5 m E Pn      2011/08/03 22:27:47.8   0.1                          T                                        4732787
THEF  000.44 311.5 m E Sg      2011/08/03 22:27:54.0   0.6                          T                2.2  .23                4732790
CDF   000.71 047.5 m E Pg      2011/08/03 22:27:51.4  -0.4                          T                                        4732784
CDF   000.71 047.5 m E Sg      2011/08/03 22:28:02.2   0.8                          T                 .3  .23                4732785
SFTF  001.01 286.0 m E Pg      2011/08/03 22:27:57.0  -0.1                          T                                        4732786
SFTF  001.01 286.0 m E Sg      2011/08/03 22:28:10.2  -0.3                          T                 .5  .16 Ml 1.3         4732789
PAGF  000.80 320.7 m E Sg      2011/08/03 22:28:04.1  -0.1                          T                 .1  .21                4732783

.
EVENT     262148
    Date      Time       Latitude Longitude    Depth    Ndef Nsta Gap    Mag1  N    Mag2  N    Mag3  N   Author         ID
       rms   OT_Error      Smajor Sminor Az        Err   mdist  Mdist     Err        Err        Err      Quality

2011/08/03 22:28:33.5     47.9320    6.5015     22.0 f     8    5 170  Ml 1.5  1  Md 1.3  2              js067245    262148

      0.49   +-  0.23       7.3    4.0   15.72 +-  0.0    0.13   1.02   +-         +-0.1                 m i ke

FRANCE
Sta     Dist  EvAz     Phase      Date       Time     TRes  Azim  AzRes  Slow  SRes Def   SNR       Amp   Per   Mag1   Mag2       ID
HAU   000.13 305.6 m E Pg      2011/08/03 22:28:38.4   0.2                          T                                        4732804
HAU   000.13 305.6 m E Sg      2011/08/03 22:28:40.6  -0.8                          T                2.2  .26        Md 1.2  4732805
HINF  000.26 115.9 m E Pg      2011/08/03 22:28:40.1   0.2                          T                                        4732802
HINF  000.26 115.9 m E Sg      2011/08/03 22:28:43.6  -0.7                          T                1.0  .18        Md 1.3  4732806
CDF   000.71 046.9 m E Pg      2011/08/03 22:28:47.0  -0.4                          T                                        4733077
CDF   000.71 046.9 m E Sg      2011/08/03 22:28:57.7   0.7                          T                 .4  .27                4733078
THEF  000.45 311.2 m E Sg      2011/08/03 22:28:49.8   0.4                          T                1.0  .20                4732803
SFTF  001.02 286.1 m E Sg      2011/08/03 22:29:05.8  -0.6                          T                1.4  .29 Ml 1.5         4733079

.
EVENT     262149
    Date      Time       Latitude Longitude    Depth    Ndef Nsta Gap    Mag1  N    Mag2  N    Mag3  N   Author         ID
       rms   OT_Error      Smajor Sminor Az        Err   mdist  Mdist     Err        Err        Err      Quality

2011/08/04 00:12:16.8     43.1540   -1.1099      2.0      18    3 161  Ml 1.0  1  Md 1.1  2              js067245    262149

      0.26   +-  0.09       1.9    1.0  170.69 +-  0.0    0.09   2.44   +-         +-0.3                 m i ke

PYRENEES
Sta     Dist  EvAz     Phase      Date       Time     TRes  Azim  AzRes  Slow  SRes Def   SNR       Amp   Per   Mag1   Mag2       ID
SJPF  000.09 244.2 m E Pg      2011/08/04 00:12:19.0   0.1                          T                                        4732984
SJPF  000.09 244.2 m E Sg      2011/08/04 00:12:21.0   0.7                          T                1.2  .18        Md 1.3  4732983
ETSF  000.48 122.1 m E Pg      2011/08/04 00:12:25.7  -0.3                          T                                        4733011
ETSF  000.48 122.1 m E Sg      2011/08/04 00:12:32.1  -0.2                          T                 .1  .18        Md  .9  4733012
EPF   001.07 096.1 m E Sg      2011/08/04 00:12:51.1   0.4                          T                 .4  .27 Ml 1.0         4733010

.
