EVENT     293802
    Date      Time       Latitude Longitude    Depth    Ndef Nsta Gap    Mag1  N    Mag2  N    Mag3  N   Author         ID
       rms   OT_Error      Smajor Sminor Az        Err   mdist  Mdist     Err        Err        Err      Quality

2013/03/13 22:34:51.1     43.9950    7.6008      2.0     107   23 049  Ml 2.7 20  Md 2.9  3              bulletin    293902
                                                                                                         _ldg
      0.54   +-  0.07       1.3    1.2  117.26 +-  0.0    0.03   6.05   +-0.4      +-0.1                 m i ke

NEAR SOUTH COAST OF FRANCE
Sta     Dist  EvAz     Phase      Date       Time     TRes  Azim  AzRes  Slow  SRes Def   SNR       Amp   Per   Mag1   Mag2       ID
SBF   000.18 222.3 m E Pg      2013/03/13 22:34:54.4  -0.4                          T   001.0                                5224028
SBF   000.18 222.3 m E Sg      2013/03/13 22:34:57.5   0.2                          T              439.0  .24        Md 2.9  5224032
FRF   000.82 238.2 m E Pg      2013/03/13 22:35:06.4  -0.1                          T   001.0                                5224015
FRF   000.82 238.2 m E Pn      2013/03/13 22:35:07.8  -0.2                          T                                        5224496
FRF   000.82 238.2 m E Sg      2013/03/13 22:35:17.1   0.0                          T                                        5224495
FRF   000.82 238.2 m E Sn      2013/03/13 22:35:20.1   0.1                          T   001.0       78.5  .18        Md 2.9  5224016
MBDF  000.94 321.2 m E Pg      2013/03/13 22:35:08.3  -0.7                          T                                        5224049
MBDF  000.94 321.2 m E Sg      2013/03/13 22:35:21.3   0.0                          T               59.2  .38 Ml 3.0 Md 2.7  5224050
LMR   001.03 230.5 m E Pg      2013/03/13 22:35:10.2  -0.2                          T   001.0                                5224019
LMR   001.03 230.5 m E Sg      2013/03/13 22:35:23.7  -0.1                          T                                        5224491
LMR   001.03 230.5 m E Sn      2013/03/13 22:35:25.1   0.0                          T   001.0      108.2  .28 Ml 3.4         5224020
ORIF  001.54 307.4 m E Pn      2013/03/13 22:35:18.3   0.4                          T   001.0                                5224008
ORIF  001.54 307.4 m E Pg      2013/03/13 22:35:19.6  -0.3                          T                                        5224489
ORIF  001.54 307.4 m E Sn      2013/03/13 22:35:37.4   0.0                          T               11.9  .22 Ml 2.8         5224051
SMRF  001.46 270.0 m E Pn      2013/03/13 22:35:18.4   1.5                          T   001.0                                5224010
SMRF  001.46 270.0 m E Sg      2013/03/13 22:35:37.3   0.0                          T              131.9  .36 Ml 3.6         5224494
SMRF  001.46 270.0 m E S       2013/03/13 22:35:38.8   0.1                          T   001.0      125.7  .36                5224011
LPG   001.62 338.4 m E Pn      2013/03/13 22:35:19.4   0.1                          T   001.0                                5224023
LPG   001.62 338.4 m E Pg      2013/03/13 22:35:21.5  -0.1                          T                                        5224487
LPG   001.62 338.4 m E Sn      2013/03/13 22:35:39.5  -0.1                          T   001.0        4.5  .24 Ml 2.4         5224024
LPG   001.62 338.4 m E Sg      2013/03/13 22:35:42.9   0.4                          T               11.7  .42 Ml 2.5         5224492
LPL   001.64 338.2 m E Pn      2013/03/13 22:35:19.7   0.1                          T   001.0                                5224025
LPL   001.64 338.2 m E P       2013/03/13 22:35:21.2  -0.3                          T                                        5224488
LPL   001.64 338.2 m E Sn      2013/03/13 22:35:39.3  -0.7                          T                6.7  .33 Ml 2.4         5224052
LPL   001.64 338.2 m E Sg      2013/03/13 22:35:43.4   0.3                          T               14.5  .45 Ml 2.6         5224493
PGF   001.77 144.3 m E Pn      2013/03/13 22:35:19.7  -1.4                          T   001.0                                5224026
PGF   001.77 144.3 m E Sn      2013/03/13 22:35:41.2  -1.7                          T   001.0       19.1  .34 Ml 3.1         5224027
VIVF  002.27 293.3 m E Pn      2013/03/13 22:35:28.4   0.5                          T   001.0                                5224009
VIVF  002.27 293.3 m E Sn      2013/03/13 22:35:54.6  -0.1                          T                3.8  .20 Ml 2.5         5224048
VIVF  002.27 293.3 m E Sg      2013/03/13 22:36:02.7   0.3                          T                2.9  .20 Ml 2.4         5224490
LASF  002.70 273.0 m E Pn      2013/03/13 22:35:35.2   1.5                          T   001.0                                5224017
LASF  002.70 273.0 m E Sn      2013/03/13 22:36:04.6  -0.4                          T   001.0        2.5  .23 Ml 2.4         5224018
CABF  002.83 338.3 m E Pn      2013/03/13 22:35:35.8   0.3                          T   001.0                                5224006
SMF   003.75 316.3 m E Pn      2013/03/13 22:35:48.8   0.8                          T   001.0                                5224029
SMF   003.75 316.3 m E Sn      2013/03/13 22:36:30.4   0.3                          T   001.0        2.2  .26 Ml 2.5         5224030
HINF  003.86 352.5 m E Pn      2013/03/13 22:35:50.0   0.5                          T                                        5224046
MTLF  003.96 262.4 m E Pn      2013/03/13 22:35:51.1   0.3                          T   001.0                                5224007
MTLF  003.96 262.4 m E Sn      2013/03/13 22:36:35.5   0.4                          T                1.6  .27 Ml 2.4         5224047
CAF   004.07 285.1 m E Pn      2013/03/13 22:35:52.9   0.5                          T   001.0                                5224014
AVF   004.09 314.5 m E Pn      2013/03/13 22:35:53.3   0.6                          T   001.0                                5224012
HAU   004.11 348.2 m E Pn      2013/03/13 22:35:53.4   0.5                          T                                        5224045
LOR   004.20 322.6 m E Pn      2013/03/13 22:35:54.7   0.6 142.2  2.3               T   001.0                                5224021
LOR   004.20 322.6 m E Sn      2013/03/13 22:36:42.2   1.4                          T   001.0        1.2  .24 Ml 2.4         5224022
SSF   004.20 318.3 m E Pn      2013/03/13 22:35:54.8   0.7                          T   001.0                                5224031
SSF   004.20 318.3 m E Sn      2013/03/13 22:36:41.6   0.7                          T                 .9  .30 Ml 2.3         5224044
BGF   004.22 309.0 m E Pn      2013/03/13 22:35:55.0   0.6                          T   001.0                                5224013
TCF   004.45 302.9 m E Pn      2013/03/13 22:35:58.1   0.5                          T                                        5224043
RJF   004.53 288.9 m E Pn      2013/03/13 22:35:58.5  -0.2                          T                                        5224042

.
EVENT     293840
    Date      Time       Latitude Longitude    Depth    Ndef Nsta Gap    Mag1  N    Mag2  N    Mag3  N   Author         ID
       rms   OT_Error      Smajor Sminor Az        Err   mdist  Mdist     Err        Err        Err      Quality

2013/03/13 23:14:30.5     45.7988    7.1442      3.0 f    23    4 115  Ml 1.0  2  Md 1.5  2              bulletin    293940
                                                                                                         _ldg
      0.32   +-  0.04       1.0     .6  146.72 +-  0.0    0.04   1.25   +-0.1      +-0.1                 m i ke

NORTHERN ITALY
Sta     Dist  EvAz     Phase      Date       Time     TRes  Azim  AzRes  Slow  SRes Def   SNR       Amp   Per   Mag1   Mag2       ID
LPL   000.40 225.8 m E Pg      2013/03/13 23:14:38.4  -0.1                          T                                        5224480
LPL   000.40 225.8 m E Sg      2013/03/13 23:14:44.2   0.2                          T                1.6  .27        Md 1.5  5224479
LPG   000.41 222.6 m E Pg      2013/03/13 23:14:38.6  -0.1                          T                                        5224482
LPG   000.41 222.6 m E Sg      2013/03/13 23:14:44.2   0.1                          T                  1  .17        Md 1.4  5224481
MBDF  001.10 193.9 m E Pg      2013/03/13 23:14:51.4   0.0                          T                                        5224478
MBDF  001.10 193.9 m E Sg      2013/03/13 23:15:05.7   0.0                          T                 .2  .15 Ml 1.0         5224477
ORIF  001.25 225.8 m E Pn      2013/03/13 23:14:53.5   0.2                          T                                        5224476
ORIF  001.25 225.8 m E Sn      2013/03/13 23:15:10.0   0.2                          T                 .1  .13 Ml  .9         5224475

.
EVENT     293841
    Date      Time       Latitude Longitude    Depth    Ndef Nsta Gap    Mag1  N    Mag2  N    Mag3  N   Author         ID
       rms   OT_Error      Smajor Sminor Az        Err   mdist  Mdist     Err        Err        Err      Quality

2013/03/14 02:03:32.3     44.4967    7.2232     14.5      25    7 084  Ml 1.5  5  Md 1.6  1              bulletin    293941
                                                                                                         _ldg
      0.21   +-  0.05       1.4     .8   56.01 +-  0.4    0.02   1.29   +-0.2      +-                    m i ke

NORTHERN ITALY
Sta     Dist  EvAz     Phase      Date       Time     TRes  Azim  AzRes  Slow  SRes Def   SNR       Amp   Per   Mag1   Mag2       ID
MBDF  000.40 305.7 m E Pg      2013/03/14 02:03:39.9  -0.6                          T                                        5224240
MBDF  000.40 305.7 m E Sg      2013/03/14 02:03:45.5  -0.4                          T                                Md 1.6  5224239
SBF   000.65 166.4 m E Pg      2013/03/14 02:03:44.7  -0.2                          T                                        5224246
SBF   000.65 166.4 m E Sg      2013/03/14 02:03:53.5   0.0                          T                                        5224245
FRF   001.02 204.2 m E Pn      2013/03/14 02:03:50.6   0.0                          T                                        5224248
FRF   001.02 204.2 m E Sn      2013/03/14 02:04:03.9   0.0                          T                1.5  .23 Ml 1.7         5224247
ORIF  001.05 294.2 m E Pn      2013/03/14 02:03:51.1   0.1                          T                                        5224241
ORIF  001.05 294.2 m E Pg      2013/03/14 02:03:52.3   0.2                          T                                        5224238
ORIF  001.05 294.2 m E Sn      2013/03/14 02:04:04.3  -0.2                          T                1.3  .27 Ml 1.5         5224237
LPG   001.06 341.7 m E Pn      2013/03/14 02:03:51.2  -0.2                          T                                        5224251
LPG   001.06 341.7 m E Sn      2013/03/14 02:04:04.9   0.0                          T                 .6  .26 Ml 1.2         5224250
LPL   001.08 341.3 m E Pn      2013/03/14 02:03:51.6   0.0                          T                                        5224244
LPL   001.08 341.3 m E Sn      2013/03/14 02:04:05.3  -0.1                          T                1.2  .20 Ml 1.6         5224249
SMRF  001.29 246.8 m E Pn      2013/03/14 02:03:54.4   0.0                          T                                        5224243
SMRF  001.29 246.8 m E Sn      2013/03/14 02:04:10.3   0.0                          T                1.3  .33 Ml 1.5         5224242

.
EVENT     293816
    Date      Time       Latitude Longitude    Depth    Ndef Nsta Gap    Mag1  N    Mag2  N    Mag3  N   Author         ID
       rms   OT_Error      Smajor Sminor Az        Err   mdist  Mdist     Err        Err        Err      Quality

2013/03/14 03:52:15.6     47.9498    7.8801     14.5      26    9 045  Ml 1.5  5  Md 1.5  2              bulletin    293916
                                                                                                         _ldg
      0.27   +-  0.04        .9     .9   23.49 +-  0.4    0.03   3.10   +-0.2      +-0.1                 m i ke

SWITZERLAND
Sta     Dist  EvAz     Phase      Date       Time     TRes  Azim  AzRes  Slow  SRes Def   SNR       Amp   Per   Mag1   Mag2       ID
CDF   000.61 319.1 m E Pg      2013/03/14 03:52:27.2  -0.4                          T                                        5224287
CDF   000.61 319.1 m E Sg      2013/03/14 03:52:35.3  -0.5                          T                1.1  .20        Md 1.6  5224286
HINF  000.70 259.5 m E Pg      2013/03/14 03:52:28.8  -0.4                          T                                        5224069
HINF  000.70 259.5 m E Sg      2013/03/14 03:52:38.3  -0.3                          T                 .7  .17        Md 1.4  5224068
HAU   001.03 273.7 m E Pg      2013/03/14 03:52:35.3   0.2                          T                                        5224282
HAU   001.03 273.7 m E Sg      2013/03/14 03:52:47.8  -0.8                          T                1.2  .24 Ml 1.3         5224281
PAGF  001.56 293.6 m E Pn      2013/03/14 03:52:41.4   0.1                          T                                        5224565
CABF  001.81 223.0 m E Pn      2013/03/14 03:52:45.1   0.3                          T                                        5224280
CABF  001.81 223.0 m E Sn      2013/03/14 03:53:06.4   0.3                          T                 .4  .17 Ml 1.6         5224279
SFTF  001.92 278.7 m E Pn      2013/03/14 03:52:46.2   0.0                          T                                        5224290
SFTF  001.92 278.7 m E Sn      2013/03/14 03:53:08.7   0.1                          T                                        5224289
SFTF  001.92 278.7 m E Sg      2013/03/14 03:53:16.3   0.1                          T                 .5  .20 Ml 1.6         5224288
MEZF  001.97 287.3 m E Pn      2013/03/14 03:52:47.2   0.4                          T                                        5224564
LOR   002.80 257.4 m E Pn      2013/03/14 03:52:58.3   0.1                          T                                        5224428
LOR   002.80 257.4 m E Sn      2013/03/14 03:53:30.0   0.2                          T                 .3  .26 Ml 1.4         5224427
SSF   003.10 254.9 m E Pn      2013/03/14 03:53:02.2   0.0                          T                                        5224285
SSF   003.10 254.9 m E Sn      2013/03/14 03:53:36.7   0.0                          T                                        5224284
SSF   003.10 254.9 m E Sg      2013/03/14 03:53:53.2   0.4                          T                 .4  .22 Ml 1.8         5224283

.
EVENT     293842
    Date      Time       Latitude Longitude    Depth    Ndef Nsta Gap    Mag1  N    Mag2  N    Mag3  N   Author         ID
       rms   OT_Error      Smajor Sminor Az        Err   mdist  Mdist     Err        Err        Err      Quality

2013/03/14 05:49:40.4     45.5858    7.0417      4.0 f    33    9 073  Ml 1.6  8  Md 1.5  2              bulletin    293942
                                                                                                         _ldg
      0.54   +-  0.05       1.2     .8  128.19 +-  0.0    0.15   2.28   +-0.3      +-0.1                 m i ke

NORTHERN ITALY
Sta     Dist  EvAz     Phase      Date       Time     TRes  Azim  AzRes  Slow  SRes Def   SNR       Amp   Per   Mag1   Mag2       ID
LPL   000.23 252.4 m E Pg      2013/03/14 05:49:45.3   0.0                          T                                        5224451
LPL   000.23 252.4 m E Sg      2013/03/14 05:49:48.5   0.0                          T                3.6  .23        Md 1.4  5224450
LPG   000.22 246.7 m E Pg      2013/03/14 05:49:45.5   0.2                          T                                        5224442
LPG   000.22 246.7 m E Sg      2013/03/14 05:49:48.4   0.0                          T                4.5  .19        Md 1.5  5224441
MBDF  000.88 192.7 m E Pg      2013/03/14 05:49:57.3   0.1                          T                                        5224449
MBDF  000.88 192.7 m E Sg      2013/03/14 05:50:08.7   0.1                          T                 .6  .20 Ml 1.2         5224448
ORIF  001.06 231.3 m E Pg      2013/03/14 05:50:00.2  -0.2                          T                                        5224447
ORIF  001.06 231.3 m E Sg      2013/03/14 05:50:13.6  -0.5                          T                1.2  .30 Ml 1.4         5224446
SBF   001.75 170.6 m E Pn      2013/03/14 05:50:10.4   0.5                          T                                        5224571
SBF   001.75 170.6 m E Sg      2013/03/14 05:50:35.1  -0.4                          T                2.9  .20 Ml 2.3         5224570
VIVF  001.83 247.3 m E Pn      2013/03/14 05:50:11.2   0.2                          T                                        5224569
VIVF  001.83 247.3 m E Sg      2013/03/14 05:50:37.9  -0.2                          T                 .5  .26 Ml 1.4         5224568
SMRF  001.92 213.5 m E Pn      2013/03/14 05:50:12.0  -0.2                          T                                        5224445
SMRF  001.92 213.5 m E Sn      2013/03/14 05:50:35.2  -0.1                          T                                        5224444
SMRF  001.92 213.5 m E Sg      2013/03/14 05:50:40.8  -0.1                          T                1.0  .20 Ml 1.9         5224443
FRF   002.04 188.1 m E Pn      2013/03/14 05:50:13.6  -0.2                          T                                        5224567
FRF   002.04 188.1 m E Sn      2013/03/14 05:50:38.3   0.0                          T                 .8  .25 Ml 1.8         5224566
LMR   002.28 189.8 m E Pn      2013/03/14 05:50:17.0  -0.1                          T                                        5224573
LMR   002.28 189.8 m E Sg      2013/03/14 05:50:52.0  -0.2                          T                 .3  .21 Ml 1.5         5224572

.
