EVENT     281779
    Date      Time       Latitude Longitude    Depth    Ndef Nsta Gap    Mag1  N    Mag2  N    Mag3  N   Author         ID
       rms   OT_Error      Smajor Sminor Az        Err   mdist  Mdist     Err        Err        Err      Quality

2012/08/23 19:48:03.3     44.8711   11.4079      2.0      54   19 106  Ml 2.3 15                         bulletin    281879
                                                                                                         _ldg
      0.71   +-  0.16       3.6    2.8  107.16 +-  0.0    0.24   9.28   +-0.4                            m i ke

NORTHERN ITALY
Sta     Dist  EvAz     Phase      Date       Time     TRes  Azim  AzRes  Slow  SRes Def   SNR       Amp   Per   Mag1   Mag2       ID
PGF   002.91 217.8 m E Pn      2012/08/23 19:48:49.1   0.4                          T                                        5052150
PGF   002.91 217.8 m E Sn      2012/08/23 19:49:22.4   0.2                          T                1.9  .27 Ml 2.5         5052141
SBF   003.02 251.9 m E Pn      2012/08/23 19:48:50.9   0.6                          T                                        5052138
SBF   003.02 251.9 m E Sn      2012/08/23 19:49:25.1   0.2                          T                 .9  .20 Ml 2.1         5052140
MBDF  003.30 269.1 m E Pn      2012/08/23 19:48:53.7  -0.6                          T                                        5052135
MBDF  003.30 269.1 m E Sn      2012/08/23 19:49:32.1   0.3                          T                 .6  .16 Ml 2.0         5052144
LPG   003.35 282.4 m E Pn      2012/08/23 19:48:55.5   0.5                          T                                        5052152
LPG   003.35 282.4 m E Sn      2012/08/23 19:49:33.0  -0.1                          T                1.2  .29 Ml 2.1         5052147
LPL   003.37 282.7 m E Pn      2012/08/23 19:48:58.1   2.9                          T                                        5052136
LPL   003.37 282.7 m E Sn      2012/08/23 19:49:33.5   0.1                          T                1.5  .33 Ml 2.2         5052146
FRF   003.66 250.7 m E Pn      2012/08/23 19:48:59.4   0.4                          T                                        5052151
FRF   003.66 250.7 m E Sn      2012/08/23 19:49:40.1  -0.1                          T                 .4  .21 Ml 1.9         5052148
LMR   003.85 248.2 m E Pn      2012/08/23 19:49:00.3  -1.1                          T                                        5052137
LMR   003.85 248.2 m E Sn      2012/08/23 19:49:44.3  -0.3                          T                 .6  .21 Ml 2.1         5052139
ORIF  003.93 272.6 m E Pn      2012/08/23 19:49:02.3  -0.4                          T                                        5052153
ORIF  003.93 272.6 m E Sn      2012/08/23 19:49:46.6   0.0                          T                2.1  .38 Ml 2.4         5052145
CABF  004.11 296.9 m E Pn      2012/08/23 19:49:06.2   1.0                          T                                        5052156
HINF  004.32 314.7 m E Pn      2012/08/23 19:49:08.8   0.9                          T                                        5052157
HINF  004.32 314.7 m E Sn      2012/08/23 19:49:55.9   0.1                          T                1.8  .33 Ml 2.5         5052165
CDF   004.54 322.7 m E Pn      2012/08/23 19:49:11.0  -0.1                          T                                        5052160
HAU   004.70 313.7 m E Pn      2012/08/23 19:49:13.3   0.2                          T                                        5052158
HAU   004.70 313.7 m E Sn      2012/08/23 19:50:05.1   0.2                          T                2.1  .26 Ml 2.5         5052161
VIVF  004.79 272.2 m E Pn      2012/08/23 19:49:14.2  -0.2                          T                                        5052149
VIVF  004.79 272.2 m E Sn      2012/08/23 19:50:07.3   0.2                          T                 .3  .19 Ml 2.0         5052143
LOR   005.77 297.2 m E Pn      2012/08/23 19:49:27.9   0.1                          T                                        5052159
LOR   005.77 297.2 m E Sn      2012/08/23 19:50:30.9   0.2                          T                2.0  .36 Ml 2.8         5052164
AVF   005.95 291.7 m E Pn      2012/08/23 19:49:29.2  -0.9                          T                                        5052155
SJPF  009.28 263.5 m E Pn      2012/08/23 19:50:16.0   0.6                          T                                        5052154
LASF  005.46 264.3 m E Sn      2012/08/23 19:50:23.4   0.2                          T                 .4  .20 Ml 2.2         5052142
GIVF  006.87 321.9 m E Sn      2012/08/23 19:50:56.9  -0.1                          T                2.1  .21 Ml 3.2         5052162
BAIF  007.12 319.3 m E Sn      2012/08/23 19:51:02.9   0.1                          T                 .3  .19 Ml 2.5         5052163

.
EVENT     281780
    Date      Time       Latitude Longitude    Depth    Ndef Nsta Gap    Mag1  N    Mag2  N    Mag3  N   Author         ID
       rms   OT_Error      Smajor Sminor Az        Err   mdist  Mdist     Err        Err        Err      Quality

2012/08/23 20:38:16.8     48.0750    8.3633     10.0      34    8 056  Ml 2.0  8  Md 2.0  1              bulletin    281880
                                                                                                         _ldg
      0.26   +-  0.04        .7     .6  125.22 +-  0.0    0.26   3.15   +-0.2      +-                    m i ke

GERMANY
Sta     Dist  EvAz     Phase      Date       Time     TRes  Azim  AzRes  Slow  SRes Def   SNR       Amp   Per   Mag1   Mag2       ID
CDF   000.80 295.3 m E Pg      2012/08/23 20:38:32.1   0.0                          T                                        5052171
CDF   000.80 295.3 m E Sg      2012/08/23 20:38:42.4  -0.2                          T                4.1  .24        Md 2.0  5052168
HINF  001.05 256.3 m E Pn      2012/08/23 20:38:35.8  -0.3                          T                                        5054883
HINF  001.05 256.3 m E Pg      2012/08/23 20:38:36.7   0.2                          T                                        5052169
HINF  001.05 256.3 m E Sg      2012/08/23 20:38:50.2   0.0                          T                2.1  .26 Ml 1.7         5052166
HAU   001.35 267.8 m E Pn      2012/08/23 20:38:40.2   0.0                          T                                        5054874
HAU   001.35 267.8 m E Pg      2012/08/23 20:38:42.0  -0.1                          T                                        5052170
HAU   001.35 267.8 m E Sg      2012/08/23 20:38:59.6  -0.1                          T                4.4  .34 Ml 1.9         5052167
PAGF  001.83 286.2 m E Pn      2012/08/23 20:38:46.8   0.2                          T                                        5054894
PAGF  001.83 286.2 m E Pg      2012/08/23 20:38:50.8   0.0 107.1  2.8               T                                        5054893
PAGF  001.83 286.2 m E Sn      2012/08/23 20:39:08.4   0.0                          T                                        5054892
PAGF  001.83 286.2 m E Sg      2012/08/23 20:39:14.4   0.1                          T                2.1  .18 Ml 2.2         5054891
CABF  002.13 227.4 m E Pn      2012/08/23 20:38:50.8   0.0                          T                                        5054880
CABF  002.13 227.4 m E Pg      2012/08/23 20:38:56.6   0.0                          T                                        5054879
CABF  002.13 227.4 m E Sn      2012/08/23 20:39:15.8   0.0                          T                                        5054882
CABF  002.13 227.4 m E Sg      2012/08/23 20:39:24.0   0.0                          T                1.5  .28 Ml 2.0         5054881
SFTF  002.23 274.6 m E Pn      2012/08/23 20:38:52.2   0.1                          T                                        5054886
SFTF  002.23 274.6 m E Sn      2012/08/23 20:39:18.0  -0.1                          T                                        5054885
SFTF  002.23 274.6 m E Sg      2012/08/23 20:39:27.0   0.0                          T                2.1  .23 Ml 2.2         5054884
MEZF  002.25 282.2 m E Pn      2012/08/23 20:38:52.4   0.0                          T                                        5054890
MEZF  002.25 282.2 m E Pg      2012/08/23 20:38:58.7   0.1                          T                                        5054889
MEZF  002.25 282.2 m E Sn      2012/08/23 20:39:18.5   0.0                          T                                        5054888
MEZF  002.25 282.2 m E Sg      2012/08/23 20:39:27.6  -0.1                          T                1.5  .26 Ml 2.0         5054887
LOR   003.15 256.8 m E Pg      2012/08/23 20:39:15.9   0.7  72.5  -1.0              T                                        5054878
LOR   003.15 256.8 m E Sg      2012/08/23 20:39:55.7   0.1                          T                 .4  .21 Ml 1.8         5054877

.
EVENT     281783
    Date      Time       Latitude Longitude    Depth    Ndef Nsta Gap    Mag1  N    Mag2  N    Mag3  N   Author         ID
       rms   OT_Error      Smajor Sminor Az        Err   mdist  Mdist     Err        Err        Err      Quality

2012/08/23 22:34:46.3     42.9423     .1548      2.0       8    4 190  Ml 1.2  2  Md 1.4  2              bulletin    281883
                                                                                                         _ldg
      0.15   +-  0.11       6.2     .9  169.45 +-  0.0    0.16   1.56   +-0.3      +-0.0                 m i ke

PYRENEES
Sta     Dist  EvAz     Phase      Date       Time     TRes  Azim  AzRes  Slow  SRes Def   SNR       Amp   Per   Mag1   Mag2       ID
EPF   000.16 057.0 m E Pg      2012/08/23 22:34:49.5  -0.2                          T                                        5058611
EPF   000.16 057.0 m E Sg      2012/08/23 22:34:52.4   0.4                          T                7.1  .18        Md 1.4  5058612
ETSF  000.53 265.5 m E Pg      2012/08/23 22:34:56.5   0.1                          T                                        5058609
ETSF  000.53 265.5 m E Sg      2012/08/23 22:35:03.2  -0.1                          T                2.6  .21        Md 1.5  5058610
SJPF  001.03 280.1 m E Pg      2012/08/23 22:35:05.5   0.0                          T                                        5058606
SJPF  001.03 280.1 m E Sg      2012/08/23 22:35:18.8   0.0                          T                 .3  .22 Ml 1           5058607
MTLF  001.56 074.5 m E Pg      2012/08/23 22:35:15.4   0.0                          T                                        5058605
MTLF  001.56 074.5 m E Sg      2012/08/23 22:35:35.6   0.1                          T                 .3  .17 Ml 1.4         5058608

.
EVENT     281782
    Date      Time       Latitude Longitude    Depth    Ndef Nsta Gap    Mag1  N    Mag2  N    Mag3  N   Author         ID
       rms   OT_Error      Smajor Sminor Az        Err   mdist  Mdist     Err        Err        Err      Quality

2012/08/23 22:35:12.2     47.8886    5.8795     15.0      23   11 077  Ml 1.7  5  Md 1.5  2              bulletin    281882
                                                                                                         _ldg
      0.86   +-  0.07       1.5    1.3  151.78 +-  0.0    0.34   1.86   +-0.1      +-0.1                 m i ke

FRANCE
Sta     Dist  EvAz     Phase      Date       Time     TRes  Azim  AzRes  Slow  SRes Def   SNR       Amp   Per   Mag1   Mag2       ID
HAU   000.34 069.4 m E Pg      2012/08/23 22:35:18.9  -0.4                          T                                        5058601
HAU   000.34 069.4 m E Sg      2012/08/23 22:35:23.6  -0.4                          T                2.1  .18        Md 1.6  5058602
THEF  000.35 012.7 m E Pg      2012/08/23 22:35:19.7   0.2                          T                                        5058599
THEF  000.35 012.7 m E Sg      2012/08/23 22:35:24.2  -0.2                          T                6.8  .19        Md 1.5  5058600
SFTF  000.65 299.6 m E Pg      2012/08/23 22:35:24.5  -0.2 111.5  -7.5              T                                        5058590
SFTF  000.65 299.6 m E Sg      2012/08/23 22:35:33.4   0.1                          T                3.1  .31                5058591
PAGF  000.67 351.3 m E Pg      2012/08/23 22:35:25.4   0.2 166.9  -4.2              T                                        5058613
PAGF  000.67 351.3 m E Sg      2012/08/23 22:35:34.2   0.0                          T                1.2  .28                5058614
PAGF  000.67 351.3 m E S       2012/08/23 22:35:38.2  -0.1                          T                                        5058615
HINF  000.66 095.9 m E Pn      2012/08/23 22:35:25.7   0.1                          T                                        5058619
HINF  000.66 095.9 m E P       2012/08/23 22:35:26.2   0.2                          T                                        5058618
HINF  000.66 095.9 m E Sg      2012/08/23 22:35:33.2  -0.6                          T                2.6  .23                5058597
HINF  000.66 095.9 m E Sn      2012/08/23 22:35:35.1   0.0                          T                2.7  .18                5058598
CDF   001.07 060.2 m E Pg      2012/08/23 22:35:32.9   0.3                          T                                        5058595
CDF   001.07 060.2 m E Sg      2012/08/23 22:35:46.8   0.3                          T                1.0  .29 Ml 1.5         5058596
CABF  001.29 173.6 m E Pn      2012/08/23 22:35:34.0  -0.1                          T                                        5058593
CABF  001.29 173.6 m E Pg      2012/08/23 22:35:36.5   0.0                          T                                        5058592
CABF  001.29 173.6 m E Sg      2012/08/23 22:35:53.6   0.4                          T                1.3  .19 Ml 1.8         5058594
MEZF  000.83 318.2 m E Sg      2012/08/23 22:35:38.8   0.0 146.7  9.1               T                3.1  .52                5058616
LOR   001.50 246.3 m E Pg      2012/08/23 22:35:40.4   0.0  63.8  -1.0              T                                        5058621
LOR   001.50 246.3 m E Sg      2012/08/23 22:35:59.6  -0.3  64.6  -0.3              T                1.2  .20 Ml 1.8         5058622
SSF   001.81 243.7 m E Sg      2012/08/23 22:36:09.1  -0.3                          T                 .6  .25 Ml 1.6         5058620
SMF   001.86 228.9 m E Sg      2012/08/23 22:36:10.9  -0.2                          T                 .7  .25 Ml 1.6         5058617

.
EVENT     281784
    Date      Time       Latitude Longitude    Depth    Ndef Nsta Gap    Mag1  N    Mag2  N    Mag3  N   Author         ID
       rms   OT_Error      Smajor Sminor Az        Err   mdist  Mdist     Err        Err        Err      Quality

2012/08/24 00:37:55.1     44.4901    6.7212      2.0      35    9 051  Ml 2.2  6  Md 2.3  2              bulletin    281884
                                                                                                         _ldg
      0.70   +-  0.07       1.6    1.2   65.71 +-  0.0    0.07   1.51   +-0.3      +-0.0                 m i ke

FRANCE
Sta     Dist  EvAz     Phase      Date       Time     TRes  Azim  AzRes  Slow  SRes Def   SNR       Amp   Per   Mag1   Mag2       ID
MBDF  000.24 008.6 m E Pg      2012/08/24 00:37:59.9  -0.2                          T                                        5052223
MBDF  000.24 008.6 m E Sg      2012/08/24 00:38:04.1   0.7                          T               39.8  .38        Md 2.3  5052214
ORIF  000.74 305.8 m E Pg      2012/08/24 00:38:08.3  -0.8                          T                                        5052222
ORIF  000.74 305.8 m E Sg      2012/08/24 00:38:18.7  -0.1                          T               12.2  .24        Md 2.3  5052213
SBF   000.81 140.4 m E Pg      2012/08/24 00:38:10.5   0.0                          T                                        5052216
SBF   000.81 140.4 m E Sg      2012/08/24 00:38:21.8   0.7                          T               10.9  .34                5052208
FRF   000.93 183.3 m E Pg      2012/08/24 00:38:12.4  -0.2                          T                                        5052218
FRF   000.93 183.3 m E Sg      2012/08/24 00:38:24.5  -0.2                          T                                        5058630
FRF   000.93 183.3 m E Sn      2012/08/24 00:38:27.1   0.3                          T               13.2  .20 Ml 2.6         5052209
LPG   001.01 001.2 m E Pg      2012/08/24 00:38:14.2  -0.2                          T                                        5052220
LPG   001.01 001.2 m E Sg      2012/08/24 00:38:28.0   0.5                          T                7.7  .36 Ml 2.1         5052212
SMRF  000.97 238.4 m E Pg      2012/08/24 00:38:14.3   0.9                          T                                        5052219
SMRF  000.97 238.4 m E Sg      2012/08/24 00:38:26.6   0.6                          T                9.4  .32 Ml 2.3         5052211
LPL   001.03 000.4 m E Pg      2012/08/24 00:38:14.8   0.2                          T                                        5052221
LPL   001.03 000.4 m E Sg      2012/08/24 00:38:28.0   0.0                          T                4.8  .38 Ml 1.9         5052206
LMR   001.17 187.6 m E Pn      2012/08/24 00:38:17.5   0.7                          T                                        5052217
LMR   001.17 187.6 m E Sn      2012/08/24 00:38:32.6   0.3                          T                7.7  .20 Ml 2.5         5052210
VIVF  001.51 284.8 m E Pn      2012/08/24 00:38:21.9   0.4                          T                                        5052215
VIVF  001.51 284.8 m E Sn      2012/08/24 00:38:40.9   0.3                          T                2.2  .32 Ml 1.9         5052207

.
