EVENT     294020
    Date      Time       Latitude Longitude    Depth    Ndef Nsta Gap    Mag1  N    Mag2  N    Mag3  N   Author         ID
       rms   OT_Error      Smajor Sminor Az        Err   mdist  Mdist     Err        Err        Err      Quality

2013/03/16 20:18:09.4     47.1586   11.3060      7.0 f    75   27 033  Ml 2.9  9  Md 3.0  1              bulletin    294120
                                                                                                         _ldg
      1.24   +-  0.16       3.9    3.1    2.17 +-  0.0    0.09   7.87   +-0.2      +-                    m i ke

AUSTRIA
Sta     Dist  EvAz     Phase      Date       Time     TRes  Azim  AzRes  Slow  SRes Def   SNR       Amp   Per   Mag1   Mag2       ID
CDF   002.99 296.3 m E Pn      2013/03/16 20:18:56.3   0.8                          T                                        5225924
CDF   002.99 296.3 m E Pg      2013/03/16 20:19:04.1  -0.9                          T                                        5225944
CDF   002.99 296.3 m E Sg      2013/03/16 20:19:42.1  -1.3                          T               16.8  .33 Ml 3.2 Md 3.0  5225942
LANF  002.97 309.1 m E P       2013/03/16 20:18:56.5  -1.6                          T                                        5227527
HINF  003.09 283.9 m E Pn      2013/03/16 20:18:58.1   1.3                          T                                        5225923
HINF  003.09 283.9 m E Sn      2013/03/16 20:19:32.8   1.0                          T                                        5225933
HINF  003.09 283.9 m E Sg      2013/03/16 20:19:45.2  -1.2                          T               17.5  .30 Ml 3.2         5225934
HAU   003.46 286.0 m E Pn      2013/03/16 20:19:03.3   1.5                          T                                        5225925
HAU   003.46 286.0 m E Sg      2013/03/16 20:19:56.8  -1.2                          T               17.2  .34 Ml 3.0         5225935
CABF  003.62 263.2 m E Pn      2013/03/16 20:19:05.1   1.0                          T                                        5225922
CABF  003.62 263.2 m E Pg      2013/03/16 20:19:15.5  -1.1                          T                                        5225943
CABF  003.62 263.2 m E Sn      2013/03/16 20:19:44.9   0.3                          T                                        5225932
CABF  003.62 263.2 m E Sg      2013/03/16 20:20:02.6  -0.4                          T                                        5225931
LPG   003.57 243.9 m E Pn      2013/03/16 20:19:06.5   3.0                          T                                        5225912
LPL   003.57 244.3 m E Pn      2013/03/16 20:19:06.6   3.1                          T                                        5225915
THEF  003.74 288.6 m E P       2013/03/16 20:19:07.8  -1.2                          T                                        5227532
MBDF  003.99 234.1 m E Pn      2013/03/16 20:19:10.4   1.3                          T                                        5225916
SFTF  004.36 286.2 m E Pn      2013/03/16 20:19:16.0   2.0                          T                                        5225946
SFTF  004.36 286.2 m E Sg      2013/03/16 20:20:25.9  -0.2                          T                5.5  .38 Ml 2.9         5225936
SBF   004.27 220.9 m E Pn      2013/03/16 20:19:16.1   3.2                          T                                        5225909
ORIF  004.39 241.3 m E Pn      2013/03/16 20:19:17.4   2.8                          T                                        5225914
ORIF  004.39 241.3 m E Sn      2013/03/16 20:20:04.9   1.9                          T                                        5225926
FRF   004.87 224.1 m E Pn      2013/03/16 20:19:23.9   2.9                          T                                        5225911
LOR   005.08 274.0 m E Pn      2013/03/16 20:19:24.6   0.8  99.5  11.0              T                                        5225949
LOR   005.08 274.0 m E Sg      2013/03/16 20:20:46.0  -2.4                          T                3.2  .29 Ml 2.9         5225941
SMRF  005.13 233.7 m E Pn      2013/03/16 20:19:25.3   0.8                          T                                        5225945
SMF   005.14 267.0 m E Pn      2013/03/16 20:19:25.7   1.1                          T                                        5225919
SMF   005.14 267.0 m E Sn      2013/03/16 20:20:20.6  -0.2                          T                                        5225929
SMF   005.14 267.0 m E Sg      2013/03/16 20:20:51.0   0.5                          T                                        5225930
VIVF  005.16 245.9 m E Pn      2013/03/16 20:19:25.9   0.9                          T                                        5225913
VIVF  005.16 245.9 m E Sn      2013/03/16 20:20:21.8   0.5                          T                1.1  .22 Ml 2.6         5225927
LMR   005.11 223.3 m E Pn      2013/03/16 20:19:26.5   2.4                          T                                        5225910
GIVF  005.21 306.8 m E Pn      2013/03/16 20:19:28.0   2.4                          T                                        5225947
GIVF  005.21 306.8 m E Sn      2013/03/16 20:20:23.8   1.5                          T                                        5225938
GIVF  005.21 306.8 m E Sg      2013/03/16 20:20:53.9   1.3                          T                1.9  .23 Ml 2.8         5225939
SSF   005.33 271.8 m E Pn      2013/03/16 20:19:28.6   1.5                          T                                        5225948
SSF   005.33 271.8 m E Sg      2013/03/16 20:20:56.2   0.0                          T                1.3  .27 Ml 2.7         5225940
AVF   005.46 269.0 m E Pn      2013/03/16 20:19:30.1   1.2                          T                                        5225920
BGF   005.83 267.2 m E Pn      2013/03/16 20:19:35.3   1.2                          T                                        5225918
LASF  006.07 242.2 m E Pn      2013/03/16 20:19:38.3   1.0                          T                                        5225908
LASF  006.07 242.2 m E Sn      2013/03/16 20:20:44.5   1.6                          T                                        5225928
TCF   006.31 265.4 m E Pn      2013/03/16 20:19:42.0   1.3                          T                                        5225921
CAF   006.81 254.2 m E Pn      2013/03/16 20:19:48.7   1.3                          T                                        5225917
MFF   007.87 270.1 m E Pn      2013/03/16 20:20:03.3   1.5                          T                                        5225907
MEZF  004.42 290.0 m E Sg      2013/03/16 20:20:27.3  -0.6                          T                8.5  .44 Ml 3.0         5225937

.
EVENT     294021
    Date      Time       Latitude Longitude    Depth    Ndef Nsta Gap    Mag1  N    Mag2  N    Mag3  N   Author         ID
       rms   OT_Error      Smajor Sminor Az        Err   mdist  Mdist     Err        Err        Err      Quality

2013/03/16 22:28:50.4     42.6922   -1.7590      2.0      20    3 107  Ml 1.6  2  Md 1.9  1              bulletin    294121
                                                                                                         _ldg
      0.46   +-  0.16       2.7    2.5  159.16 +-  0.0    0.15   1.88   +-0.0      +-                    m i ke

PYRENEES
Sta     Dist  EvAz     Phase      Date       Time     TRes  Azim  AzRes  Slow  SRes Def   SNR       Amp   Per   Mag1   Mag2       ID
SJPF  000.58 042.8 m E Pg      2013/03/16 22:29:01.7   0.4                          T                                        5225956
SJPF  000.58 042.8 m E Sg      2013/03/16 22:29:09.4   0.6                          T                3.7  .27        Md 1.9  5225955
ETSF  000.91 076.4 m E Pg      2013/03/16 22:29:07.9   0.4                          T                                        5225954
ETSF  000.91 076.4 m E Sg      2013/03/16 22:29:19.6   0.3                          T                1.6  .24 Ml 1.6         5225953
EPF   001.58 076.9 m E Pg      2013/03/16 22:29:19.9   0.0                          T                                        5225952
EPF   001.58 076.9 m E Sg      2013/03/16 22:29:40.6   0.4                          T                 .7  .19 Ml 1.6         5225951

.
EVENT     294091
    Date      Time       Latitude Longitude    Depth    Ndef Nsta Gap    Mag1  N    Mag2  N    Mag3  N   Author         ID
       rms   OT_Error      Smajor Sminor Az        Err   mdist  Mdist     Err        Err        Err      Quality

2013/03/17 00:35:23.3     49.9932    8.4590      3.0 f    50   11 074  Ml 2.1  7                         bulletin    294191
                                                                                                         _ldg
      0.38   +-  0.06       1.3     .8   60.52 +-  0.0    0.20   4.41   +-0.2                            m i ke

GERMANY
Sta     Dist  EvAz     Phase      Date       Time     TRes  Azim  AzRes  Slow  SRes Def   SNR       Amp   Per   Mag1   Mag2       ID
RUP   000.95 252.7 m E Pg      2013/03/17 00:35:41.5   0.3                          T                                        5227655
RUP   000.95 252.7 m E Pn      2013/03/17 00:35:41.9  -0.1                          T                                        5227656
CDF   001.76 206.6 m E Pn      2013/03/17 00:35:53.3   0.2                          T                                        5227716
CDF   001.76 206.6 m E Pg      2013/03/17 00:35:56.2   0.0                          T                                        5227694
CDF   001.76 206.6 m E Sn      2013/03/17 00:36:14.4  -0.4                          T                                        5227693
CDF   001.76 206.6 m E Sg      2013/03/17 00:36:18.6  -0.4                          T                2.3  .28 Ml 2.2         5227715
LANF  001.10 203.1 m E Sg      2013/03/17 00:35:58.7   0.6                          T                                        5227663
GIVF  002.35 274.1 m E Pn      2013/03/17 00:36:01.1   0.2                          T                                        5227714
GIVF  002.35 274.1 m E Pg      2013/03/17 00:36:06.7  -0.1                          T                                        5227692
GIVF  002.35 274.1 m E Sn      2013/03/17 00:36:28.8   0.2                          T                                        5227691
GIVF  002.35 274.1 m E Sg      2013/03/17 00:36:36.7  -0.3                          T                3.6  .24 Ml 2.5         5227713
HAU   002.43 215.7 m E Pn      2013/03/17 00:36:02.0  -0.1                          T                                        5227689
HAU   002.43 215.7 m E Pg      2013/03/17 00:36:08.5   0.1                          T                                        5227690
HAU   002.43 215.7 m E Sn      2013/03/17 00:36:30.7   0.2                          T                                        5227705
HAU   002.43 215.7 m E Sg      2013/03/17 00:36:39.3  -0.3                          T                1.3  .17 Ml 2.0         5227704
HINF  002.42 206.5 m E Pn      2013/03/17 00:36:02.3   0.3                          T                                        5227687
HINF  002.42 206.5 m E Pg      2013/03/17 00:36:08.4   0.1                          T                                        5227688
HINF  002.42 206.5 m E Sn      2013/03/17 00:36:30.4   0.0                          T                                        5227707
HINF  002.42 206.5 m E Sg      2013/03/17 00:36:39.2  -0.2                          T                1.6  .24 Ml 2.1         5227706
BAIF  002.74 273.0 m E Pn      2013/03/17 00:36:06.6   0.3                          T                                        5227720
BAIF  002.74 273.0 m E Pg      2013/03/17 00:36:13.6  -0.5                          T                                        5227719
BAIF  002.74 273.0 m E Sn      2013/03/17 00:36:37.8  -0.2                          T                                        5227718
BAIF  002.74 273.0 m E Sg      2013/03/17 00:36:49.1  -0.3                          T                2.2  .33 Ml 2.2         5227717
SFTF  002.87 232.8 m E Pn      2013/03/17 00:36:08.3   0.2                          T                                        5227703
SFTF  002.87 232.8 m E Pg      2013/03/17 00:36:16.3  -0.3                          T                                        5227702
SFTF  002.87 232.8 m E Sn      2013/03/17 00:36:40.8  -0.4                          T                                        5227701
SFTF  002.87 232.8 m E Sg      2013/03/17 00:36:53.3  -0.2                          T                1.8  .34 Ml 2.1         5227700
CABF  003.74 206.0 m E Pn      2013/03/17 00:36:20.3   0.3                          T                                        5227711
CABF  003.74 206.0 m E Pg      2013/03/17 00:36:32.0  -0.6                          T                                        5227710
CABF  003.74 206.0 m E Sn      2013/03/17 00:37:01.8  -0.1                          T                                        5227709
CABF  003.74 206.0 m E Sg      2013/03/17 00:37:20.2  -0.3                          T                                        5227708
LOR   004.09 230.0 m E Pn      2013/03/17 00:36:24.9   0.2  58.1  11.5              T                                        5227728
LOR   004.09 230.0 m E Pg      2013/03/17 00:36:38.8  -0.3                          T                                        5227727
LOR   004.09 230.0 m E Sn      2013/03/17 00:37:10.2  -0.1                          T                                        5227726
LOR   004.09 230.0 m E Sg      2013/03/17 00:37:31.3  -0.2                          T                 .4  .23 Ml 1.9         5227725
SSF   004.41 230.2 m E Pn      2013/03/17 00:36:29.0   0.0                          T                                        5227712
SSF   004.41 230.2 m E Pg      2013/03/17 00:36:44.6  -0.2                          T                                        5227724
SSF   004.41 230.2 m E Sn      2013/03/17 00:37:17.9   0.1                          T                                        5227723
SSF   004.41 230.2 m E Sg      2013/03/17 00:37:41.2  -0.2                          T                                        5227722

.
EVENT     294087
    Date      Time       Latitude Longitude    Depth    Ndef Nsta Gap    Mag1  N    Mag2  N    Mag3  N   Author         ID
       rms   OT_Error      Smajor Sminor Az        Err   mdist  Mdist     Err        Err        Err      Quality

2013/03/17 01:07:18.7     48.1244    7.6835      3.0 f    22    5 079  Ml 1.7  3  Md 1.8  3              bulletin    294187
                                                                                                         _ldg
      0.35   +-  0.05       1.2     .9    6.78 +-  0.0    0.17   1.86   +-0.2      +-0.1                 m i ke

FRANCE
Sta     Dist  EvAz     Phase      Date       Time     TRes  Azim  AzRes  Slow  SRes Def   SNR       Amp   Per   Mag1   Mag2       ID
CDF   000.40 316.8 m E Pg      2013/03/17 01:07:26.5   0.0                          T                                        5227565
CDF   000.40 316.8 m E Sg      2013/03/17 01:07:31.5  -0.3                          T                                Md 1.6  5227564
HINF  000.64 241.4 m E Pg      2013/03/17 01:07:30.9   0.0                          T                                        5227567
HINF  000.64 241.4 m E Sg      2013/03/17 01:07:39.0  -0.2                          T                1.3  .17        Md 1.9  5227566
HAU   000.90 262.9 m E Pg      2013/03/17 01:07:35.8   0.1                          T                                        5227563
HAU   000.90 262.9 m E Sg      2013/03/17 01:07:47.2  -0.3                          T                2.7  .22 Ml 1.6 Md 1.8  5227562
SFTF  001.77 273.6 m E Pn      2013/03/17 01:07:48.6   0.0                          T                                        5227575
SFTF  001.77 273.6 m E Pg      2013/03/17 01:07:51.8   0.1                          T                                        5227574
SFTF  001.77 273.6 m E Sn      2013/03/17 01:08:10.5   0.3                          T                                        5227573
SFTF  001.77 273.6 m E Sg      2013/03/17 01:08:14.3  -0.3                          T                1.1  .18 Ml 1.9         5227572
CABF  001.86 216.2 m E Pn      2013/03/17 01:07:50.1   0.2                          T                                        5227571
CABF  001.86 216.2 m E Pg      2013/03/17 01:07:53.4  -0.1                          T                                        5227570
CABF  001.86 216.2 m E Sn      2013/03/17 01:08:12.7   0.2                          T                                        5227569
CABF  001.86 216.2 m E Sg      2013/03/17 01:08:17.4  -0.1                          T                 .5  .18 Ml 1.6         5227568

.
