EVENT     261701
    Date      Time       Latitude Longitude    Depth    Ndef Nsta Gap    Mag1  N    Mag2  N    Mag3  N   Author         ID
       rms   OT_Error      Smajor Sminor Az        Err   mdist  Mdist     Err        Err        Err      Quality

2011/07/23 16:50:25.3     41.4769   12.9568     10.0 f   133   18 081  Ml 3.2  3  Md 3.1  3              js067245    261701

      0.94   +-  0.10       3.3    1.6   30.05 +-  0.0    0.24   9.16   +-0.2      +-0.0                 m i ke

SOUTHERN ITALY
Sta     Dist  EvAz     Phase      Date       Time     TRes  Azim  AzRes  Slow  SRes Def   SNR       Amp   Per   Mag1   Mag2       ID
PTF   002.84 331.4 m E P       2011/07/23 16:51:11.5  -0.4                          T                                        4726123
PGF   003.14 291.3 m E Pn      2011/07/23 16:51:14.1   1.0                          T                                        4726496
PGF   003.14 291.3 m E Sn      2011/07/23 16:51:49.7   1.3                          T               25.1  .43 Ml 3.5 Md 3.1  4726481
SBF   004.72 302.2 m E Pn      2011/07/23 16:51:35.7   1.1                          T                                        4726495
SBF   004.72 302.2 m E Sn      2011/07/23 16:52:27.3   1.2                          T                5.0  .33 Ml 3.0 Md 3.0  4726482
FRF   005.11 296.2 m E Pn      2011/07/23 16:51:40.6   0.8                          T                                        4726493
LMR   005.12 293.4 m E Pn      2011/07/23 16:51:40.6   0.7                          T                                        4726494
LMR   005.12 293.4 m E Sn      2011/07/23 16:52:37.3   1.6                          T                8.0  .46 Ml 3.2 Md 3.1  4726480
MBDF  005.57 307.7 m E Pn      2011/07/23 16:51:48.4   2.1                          T                                        4726489
LPG   006.04 313.8 m E P       2011/07/23 16:51:56.6  -0.9                          T                                        4728215
LPL   006.06 313.8 m E P       2011/07/23 16:51:57.1  -0.6                          T                                        4728214
ORIF  006.21 306.0 m E P       2011/07/23 16:51:58.9  -0.8                          T                                        4728213
VIVF  006.93 301.9 m E Pn      2011/07/23 16:52:05.8   1.1                          T                                        4726488
LASF  007.18 294.2 m E Pn      2011/07/23 16:52:07.4  -0.7                          T                                        4728212
CABF  007.13 318.4 m E Pn      2011/07/23 16:52:08.9   1.4                          T                                        4726484
CDF   008.02 331.8 m E Pn      2011/07/23 16:52:19.9   0.3                          T                                        4726483
SMF   008.35 311.3 m E Pn      2011/07/23 16:52:25.6   1.6                          T                                        4726486
CAF   008.67 297.1 m E Pn      2011/07/23 16:52:28.2  -0.1                          T                                        4728211
AVF   008.71 310.8 m E Pn      2011/07/23 16:52:29.9   1.1                          T                                        4726485
LOR   008.71 314.7 m E P       2011/07/23 16:52:33.1  -1.4 140.7  12.3              T                                        4728209
RJF   009.16 298.5 m E Pn      2011/07/23 16:52:35.7   0.7                          T                                        4728210

.
EVENT     261702
    Date      Time       Latitude Longitude    Depth    Ndef Nsta Gap    Mag1  N    Mag2  N    Mag3  N   Author         ID
       rms   OT_Error      Smajor Sminor Az        Err   mdist  Mdist     Err        Err        Err      Quality

2011/07/23 16:56:54.5     44.9816    7.1298      2.0      45   17 106  Ml 2.7 11  Md 2.6  5              js067245    261702

      0.90   +-  0.13       3.1    2.1   89.62 +-  0.0    0.17   5.27   +-0.3      +-0.1                 m i ke

NORTHERN ITALY
Sta     Dist  EvAz     Phase      Date       Time     TRes  Azim  AzRes  Slow  SRes Def   SNR       Amp   Per   Mag1   Mag2       ID
MBDF  000.36 225.2 m E Pg      2011/07/23 16:57:01.7   0.0                          T   001.0                                4725992
MBDF  000.36 225.2 m E Sg      2011/07/23 16:57:06.1  -0.4                          T               42.7  .17        Md 2.7  4726502
LPG   000.58 332.7 m E Pg      2011/07/23 16:57:05.5  -0.4                          T   001.0                                4726009
LPG   000.58 332.7 m E Sg      2011/07/23 16:57:12.6  -0.9                          T   001.0      105.6  .30        Md 2.6  4726010
LPL   000.60 332.4 m E Pg      2011/07/23 16:57:06.0  -0.2                          T   001.0                                4726011
LPL   000.60 332.4 m E Sg      2011/07/23 16:57:13.0  -1.2                          T   001.0       47.3  .23        Md 2.5  4726012
ORIF  000.89 266.4 m E Pg      2011/07/23 16:57:10.9  -0.5                          T   001.0                                4725994
ORIF  000.89 266.4 m E Pn      2011/07/23 16:57:12.9   0.4                          T   001.0                                4725995
ORIF  000.89 266.4 m E Sg      2011/07/23 16:57:22.2  -0.8                          T   001.0       42.4  .22 Ml 3.1 Md 2.5  4725996
SBF   001.14 168.8 m E Pn      2011/07/23 16:57:14.5  -1.5                          T   001.0                                4726013
SBF   001.14 168.8 m E Sg      2011/07/23 16:57:30.2  -0.5                          T   001.0       27.2  .26 Ml 2.9         4726014
FRF   001.46 193.9 m E Pn      2011/07/23 16:57:21.0   0.8                          T   001.0                                4726003
FRF   001.46 193.9 m E Pg      2011/07/23 16:57:22.0   0.2                          T   001.0                                4726004
FRF   001.46 193.9 m E Sg      2011/07/23 16:57:41.2   0.5                          T   001.0       21.0  .24 Ml 3.0         4726005
VIVF  001.75 266.8 m E Pn      2011/07/23 16:57:25.0   0.8                          T   001.0                                4725997
VIVF  001.75 266.8 m E Pg      2011/07/23 16:57:26.5  -0.6                          T   001.0                                4725998
VIVF  001.75 266.8 m E Sg      2011/07/23 16:57:48.3  -1.5                          T   001.0        6.1  .24 Ml 2.6         4725999
LMR   001.71 195.4 m E Pg      2011/07/23 16:57:26.1  -0.2                          T   001.0                                4726007
LMR   001.71 195.4 m E Sg      2011/07/23 16:57:47.1  -1.2                          T   001.0       14.0  .24 Ml 2.9         4726008
CABF  001.79 336.3 m E Pg      2011/07/23 16:57:27.0  -0.9                          T   001.0                                4725991
CABF  001.79 336.3 m E Sg      2011/07/23 16:57:51.8   0.9                          T                7.0  .34 Ml 2.5         4726499
LASF  002.51 250.0 m E Pn      2011/07/23 16:57:35.8   1.2                          T                                        4726500
LASF  002.51 250.0 m E Sn      2011/07/23 16:58:04.7   0.8                          T                1.9  .24 Ml 2.2         4726501
SMF   002.84 307.1 m E Pn      2011/07/23 16:57:39.5   0.5                          T   001.0                                4726015
SMF   002.84 307.1 m E Sg      2011/07/23 16:58:23.3  -0.3                          T   001.0        5.8  .38 Ml 2.6         4725990
HAU   003.07 350.2 m E Pn      2011/07/23 16:57:43.5   1.3                          T   001.0                                4726006
CDF   003.43 001.6 m E Pn      2011/07/23 16:57:48.1   0.9                          T   001.0                                4726001
BGF   003.39 299.3 m E Pn      2011/07/23 16:57:48.2   1.8                          T                                        4728216
CAF   003.60 270.9 m E Pn      2011/07/23 16:57:50.6   1.2                          T   001.0                                4726000
MEZF  003.80 338.7 m E Sg      2011/07/23 16:58:52.3  -1.3                          T   001.0          3  .52 Ml 2.4         4725993
EPF   005.27 250.7 m E Sg      2011/07/23 16:59:36.9  -2.7                          T   001.0        2.3  .56 Ml 2.5         4726002

.
EVENT     261742
    Date      Time       Latitude Longitude    Depth    Ndef Nsta Gap    Mag1  N    Mag2  N    Mag3  N   Author         ID
       rms   OT_Error      Smajor Sminor Az        Err   mdist  Mdist     Err        Err        Err      Quality

2011/07/23 18:50:49.2     42.3981    1.0404      2.0      69   17 034  Ml 2.8 20  Md 2.8  3              js067245    261742

      0.52   +-  0.06       1.1    1.0  135.64 +-  0.0    0.07   4.98   +-0.3      +-0.0                 m i ke

PYRENEES
Sta     Dist  EvAz     Phase      Date       Time     TRes  Azim  AzRes  Slow  SRes Def   SNR       Amp   Per   Mag1   Mag2       ID
EPF   000.82 321.0 m E Pg      2011/07/23 18:51:04.2  -0.5                          T   001.0                                4725968
EPF   000.82 321.0 m E Sg      2011/07/23 18:51:14.8  -0.5                          T   001.0       35.4  .20        Md 2.8  4725969
ETSF  001.28 293.5 m E Pn      2011/07/23 18:51:12.6   0.0                          T   001.0                                4725978
ETSF  001.28 293.5 m E Pg      2011/07/23 18:51:13.7   0.4                          T   001.0                                4725979
ETSF  001.28 293.5 m E Sn      2011/07/23 18:51:29.0  -0.3                          T   001.0       31.1  .24 Ml 3.1 Md 2.7  4725980
MTLF  001.28 042.2 m E Pg      2011/07/23 18:51:13.3   0.2                          T   001.0                                4725981
MTLF  001.28 042.2 m E Sn      2011/07/23 18:51:28.9  -0.3                          T   001.0                                4725983
MTLF  001.28 042.2 m E Sg      2011/07/23 18:51:29.5  -0.1                          T   001.0       41.5  .32 Ml 3.1 Md 2.8  4725982
SJPF  001.82 294.0 m E Pg      2011/07/23 18:51:23.4   0.4                          T   001.0                                4725984
SJPF  001.82 294.0 m E Sg      2011/07/23 18:51:46.4   0.0                          T   001.0       16.3  .26 Ml 3.0         4725985
LFF   002.55 355.2 m E Pn      2011/07/23 18:51:30.1   0.3                          T   001.0                                4725970
LFF   002.55 355.2 m E Pg      2011/07/23 18:51:36.6   0.1                          T                                        4728219
LFF   002.55 355.2 m E Sn      2011/07/23 18:51:59.5   0.0                          T   001.0       13.5  .28 Ml 2.8         4725971
LFF   002.55 355.2 m E Sg      2011/07/23 18:52:09.1  -0.2                          T               18.6  .36 Ml 2.9         4728220
CAF   002.63 016.0 m E Pn      2011/07/23 18:51:32.4   1.5                          T   001.0                                4725964
CAF   002.63 016.0 m E Pg      2011/07/23 18:51:38.3   0.2                          T   001.0                                4725965
CAF   002.63 016.0 m E Sn      2011/07/23 18:52:01.0  -0.6                          T   001.0                                4725966
CAF   002.63 016.0 m E Sg      2011/07/23 18:52:11.6  -0.4                          T   001.0        5.9  .16 Ml 2.9         4725967
RJF   002.93 006.6 m E Pn      2011/07/23 18:51:34.9   0.1                          T   001.0                                4725960
RJF   002.93 006.6 m E Pg      2011/07/23 18:51:43.4  -0.1                          T                                        4728227
RJF   002.93 006.6 m E Sn      2011/07/23 18:52:08.1  -0.4                          T   001.0                                4725961
RJF   002.93 006.6 m E Sg      2011/07/23 18:52:20.8  -0.2                          T   001.0        8.1  .24 Ml 2.6         4725962
LASF  002.65 049.9 m E Pg      2011/07/23 18:51:38.2  -0.2                          T   001.0                                4725988
LASF  002.65 049.9 m E Sg      2011/07/23 18:52:12.5  -0.1                          T   001.0       10.0  .26 Ml 2.9         4725989
VIVF  003.60 045.8 m E Pn      2011/07/23 18:51:43.9  -0.2                          T                                        4728218
VIVF  003.60 045.8 m E Pg      2011/07/23 18:51:55.9  -0.1                          T                                        4728217
VIVF  003.60 045.8 m E Sg      2011/07/23 18:52:41.5  -0.7                          T   001.0        2.7  .23 Ml 2.6         4725986
TCF   003.98 011.8 m E Sn      2011/07/23 18:52:35.1   1.4                          T   001.0        1.8  .20 Ml 2.6         4725977
TCF   003.98 011.8 m E Sg      2011/07/23 18:52:53.8  -0.1                          T                2.2  .28 Ml 2.6         4728221
LMR   004.13 075.1 m E Sn      2011/07/23 18:52:38.1   0.9                          T   001.0                                4725972
LMR   004.13 075.1 m E Sg      2011/07/23 18:52:59.2   0.6                          T   001.0         .3  .17 Ml 1.9         4725973
MFF   004.29 349.0 m E Sn      2011/07/23 18:52:40.6  -0.5                          T   001.0                                4725974
MFF   004.29 349.0 m E Sg      2011/07/23 18:53:02.7  -0.9                          T   001.0        2.9  .32 Ml 2.9         4725975
FRF   004.27 072.3 m E Sn      2011/07/23 18:52:40.9   0.1                          T   001.0       12.9  .84 Ml 2.9         4725987
BGF   004.36 016.6 m E Sn      2011/07/23 18:52:42.3  -0.4                          T                                        4728225
BGF   004.36 016.6 m E Sg      2011/07/23 18:53:06.2   0.5                          T   001.0       11.3  .35 Ml 3.2         4725963
AVF   004.69 019.8 m E Sg      2011/07/23 18:53:15.7  -0.5                          T                 .9  .22 Ml 2.4         4728222
SMF   004.69 024.3 m E Sg      2011/07/23 18:53:16.2  -0.1                          T                2.1  .32 Ml 2.6         4728223
SSF   004.98 019.8 m E Sg      2011/07/23 18:53:25.5   0.2                          T   001.0        1.6  .29 Ml 2.7         4725976

.
EVENT     261716
    Date      Time       Latitude Longitude    Depth    Ndef Nsta Gap    Mag1  N    Mag2  N    Mag3  N   Author         ID
       rms   OT_Error      Smajor Sminor Az        Err   mdist  Mdist     Err        Err        Err      Quality

2011/07/23 20:47:29.5     42.9544    -.0982     15.0       6    3 184             Md 1.3  2              js067245    261716

      0.14   +-  0.09       7.9    1.3  174.25 +-  0.0    0.33   0.84              +-0.0                 m i ke

PYRENEES
Sta     Dist  EvAz     Phase      Date       Time     TRes  Azim  AzRes  Slow  SRes Def   SNR       Amp   Per   Mag1   Mag2       ID
EPF   000.33 076.6 m E Pg      2011/07/23 20:47:36.5   0.0                          T                                        4726525
EPF   000.33 076.6 m E Sg      2011/07/23 20:47:41.2   0.0                          T                2.5  .17        Md 1.3  4726523
ETSF  000.34 260.8 m E Pg      2011/07/23 20:47:36.7   0.0                          T                                        4726526
ETSF  000.34 260.8 m E Sg      2011/07/23 20:47:41.6   0.0                          T                6.0  .22        Md 1.2  4726524
SJPF  000.84 281.3 m E Pg      2011/07/23 20:47:45.4  -0.1                          T                                        4726521
SJPF  000.84 281.3 m E Sg      2011/07/23 20:47:57.0   0.3                          T                 .5  .22                4726522

.
EVENT     261743
    Date      Time       Latitude Longitude    Depth    Ndef Nsta Gap    Mag1  N    Mag2  N    Mag3  N   Author         ID
       rms   OT_Error      Smajor Sminor Az        Err   mdist  Mdist     Err        Err        Err      Quality

2011/07/23 22:17:23.4     42.3336   -3.1325      2.0      16    3 194  Ml 1.4  3                         js067245    261743

      0.26   +-  0.14       2.4    2.2   41.07 +-  0.0    0.92   2.65   +-0.3                            m i ke

SPAIN
Sta     Dist  EvAz     Phase      Date       Time     TRes  Azim  AzRes  Slow  SRes Def   SNR       Amp   Per   Mag1   Mag2       ID
SJPF  001.61 060.4 m E Pn      2011/07/23 22:17:51.2   0.0                          T                                        4728237
SJPF  001.61 060.4 m E Pg      2011/07/23 22:17:53.7   0.3                          T                                        4728236
SJPF  001.61 060.4 m E Sn      2011/07/23 22:18:11.0  -0.2                          T                                        4728238
SJPF  001.61 060.4 m E Sg      2011/07/23 22:18:14.2   0.0                          T                  1  .24 Ml 1.7         4728239
ETSF  001.98 072.6 m E Pg      2011/07/23 22:18:00.0  -0.4                          T                                        4728233
ETSF  001.98 072.6 m E Sn      2011/07/23 22:18:20.1  -0.1                          T                 .2  .25 Ml 1.1         4728235
ETSF  001.98 072.6 m E S       2011/07/23 22:18:24.3   0.0                          T                                        4728234
EPF   002.65 073.6 m E P       2011/07/23 22:18:08.0  -0.1                          T                                        4728231
EPF   002.65 073.6 m E Pg      2011/07/23 22:18:12.6  -0.2                          T                                        4728230
EPF   002.65 073.6 m E Sg      2011/07/23 22:18:46.9   0.1                          T                 .2  .25 Ml 1.3         4728232

.
EVENT     261765
    Date      Time       Latitude Longitude    Depth    Ndef Nsta Gap    Mag1  N    Mag2  N    Mag3  N   Author         ID
       rms   OT_Error      Smajor Sminor Az        Err   mdist  Mdist     Err        Err        Err      Quality

2011/07/24 01:08:45.0     46.1927    7.2877      2.0      19   10 083  Ml 1.8  8  Md 1.8  3              js067245    261765

      0.26   +-  0.07       1.4    1.1   63.30 +-  0.0    0.14   2.59   +-0.2      +-0.0                 m i ke

SWITZERLAND
Sta     Dist  EvAz     Phase      Date       Time     TRes  Azim  AzRes  Slow  SRes Def   SNR       Amp   Per   Mag1   Mag2       ID
LPL   000.78 210.0 m E Pg      2011/07/24 01:08:59.8  -0.2                          T                                        4728254
LPL   000.78 210.0 m E Sg      2011/07/24 01:09:10.3   0.2                          T                2.1  .35        Md 1.8  4728257
LPG   000.79 208.5 m E Pg      2011/07/24 01:09:00.6   0.3                          T                                        4728255
LPG   000.79 208.5 m E Sg      2011/07/24 01:09:10.5   0.0                          T                1.8  .24        Md 1.7  4728256
CABF  000.93 297.2 m E Pg      2011/07/24 01:09:03.3   0.7                          T                                        4726845
CABF  000.93 297.2 m E Sg      2011/07/24 01:09:14.8   0.2                          T                2.0  .24 Ml 1.7 Md 1.8  4726844
SMF   002.43 282.0 m E Pg      2011/07/24 01:09:30.6   0.5                          T                                        4726840
SMF   002.43 282.0 m E Sg      2011/07/24 01:10:01.2  -0.1                          T                 .5  .21 Ml 1.7         4726842
ORIF  001.61 218.3 m E Sg      2011/07/24 01:09:36.2   0.2                          T                 .5  .27 Ml 1.4         4728258
HINF  001.65 349.8 m E Sg      2011/07/24 01:09:37.6   0.5                          T                2.2  .24 Ml 2.1         4726843
HAU   001.92 340.9 m E Sg      2011/07/24 01:09:45.8   0.2                          T                1.7  .28 Ml 1.8         4728262
VIVF  002.27 234.9 m E Sg      2011/07/24 01:09:56.4  -0.1                          T                1.3  .28 Ml 1.9         4728259
SFTF  002.53 323.5 m E Sg      2011/07/24 01:10:05.0   0.5                          T                1.4  .29 Ml 2.0         4728261
LOR   002.59 295.8 m E Sg      2011/07/24 01:10:06.7   0.3                          T                 .5  .22 Ml 1.7         4728260

.
