EVENT     291243
    Date      Time       Latitude Longitude    Depth    Ndef Nsta Gap    Mag1  N    Mag2  N    Mag3  N   Author         ID
       rms   OT_Error      Smajor Sminor Az        Err   mdist  Mdist     Err        Err        Err      Quality

2013/01/31 04:36:27.1     47.2815   11.6957     10.0      82   23 199  Ml 2.7 21                         bulletin    291343
                                                                                                         _ldg
      0.72   +-  0.13       3.0    1.4   37.86 +-  0.0    0.04   7.10   +-0.3                            m i ke

AUSTRIA
Sta     Dist  EvAz     Phase      Date       Time     TRes  Azim  AzRes  Slow  SRes Def   SNR       Amp   Per   Mag1   Mag2       ID
CDF   003.18 292.4 m E Pn      2013/01/31 04:37:15.4   0.0                          T                                        5184082
CDF   003.18 292.4 m E Pg      2013/01/31 04:37:26.2   0.0                          T                                        5184165
CDF   003.18 292.4 m E Sn      2013/01/31 04:37:50.9  -0.3                          T                                        5184134
CDF   003.18 292.4 m E Sg      2013/01/31 04:38:07.1   0.0                          T                4.5  .23 Ml 2.9         5184166
HINF  003.32 281.0 m E Pn      2013/01/31 04:37:17.3   0.0                          T                                        5184060
HINF  003.32 281.0 m E Pg      2013/01/31 04:37:28.5  -0.2                          T                                        5184161
HINF  003.32 281.0 m E Sn      2013/01/31 04:37:54.4   0.0                          T                                        5184040
HINF  003.32 281.0 m E Sg      2013/01/31 04:38:11.0  -0.4                          T                9.0  .38 Ml 2.9         5184160
HAU   003.69 283.3 m E Pn      2013/01/31 04:37:22.2   0.0                          T                                        5184059
HAU   003.69 283.3 m E Pg      2013/01/31 04:37:35.7   0.3                          T                                        5184162
HAU   003.69 283.3 m E Sn      2013/01/31 04:38:03.2   0.1                          T               14.7  .39 Ml 2.9         5184072
HAU   003.69 283.3 m E Sg      2013/01/31 04:38:22.4  -0.3                          T                                        5184163
CABF  003.90 262.1 m E Pn      2013/01/31 04:37:25.5   0.3                          T                                        5184158
CABF  003.90 262.1 m E Pg      2013/01/31 04:37:39.5   0.2                          T                                        5184159
CABF  003.90 262.1 m E Sn      2013/01/31 04:38:09.2   0.9                          T                                        5184157
CABF  003.90 262.1 m E Sg      2013/01/31 04:38:29.1  -0.3                          T                5.0  .37 Ml 2.8         5184156
LPL   003.86 244.6 m E P       2013/01/31 04:37:27.8  -0.5                          T                                        5184050
LPL   003.86 244.6 m E Pg      2013/01/31 04:37:38.6  -0.2                          T                                        5184151
LPL   003.86 244.6 m E Sn      2013/01/31 04:38:07.2  -0.4                          T                1.0  .30 Ml 2.1         5184133
LPL   003.86 244.6 m E Sg      2013/01/31 04:38:27.6  -0.8                          T                1.6  .30 Ml 2.3         5184150
LPG   003.86 244.3 m E P       2013/01/31 04:37:28.0  -0.3                          T                                        5184049
LPG   003.86 244.3 m E Sn      2013/01/31 04:38:06.7  -0.9                          T                2.3  .36 Ml 2.4         5184061
MBDF  004.28 235.1 m E P       2013/01/31 04:37:33.9  -0.2                          T                                        5184053
MBDF  004.28 235.1 m E Sn      2013/01/31 04:38:17.0  -0.4                          T                1.4  .33 Ml 2.3         5184063
SFTF  004.59 284.1 m E Pn      2013/01/31 04:37:34.4   0.0                          T                                        5184168
SFTF  004.59 284.1 m E Pg      2013/01/31 04:37:51.7  -0.2 106.2  7.1               T                                        5184144
SFTF  004.59 284.1 m E Sn      2013/01/31 04:38:24.3  -0.2                          T                                        5184169
SFTF  004.59 284.1 m E Sg      2013/01/31 04:38:51.0   0.3                          T                2.4  .34 Ml 2.6         5184143
SBF   004.54 222.7 m E P       2013/01/31 04:37:37.6  -0.1                          T                                        5184047
SBF   004.54 222.7 m E Sn      2013/01/31 04:38:23.1  -0.5                          T                3.7  .29 Ml 2.9         5184089
ORIF  004.68 241.8 m E P       2013/01/31 04:37:40.2   0.4                          T                                        5184052
ORIF  004.68 241.8 m E Pg      2013/01/31 04:37:53.4  -0.4                          T                                        5184148
ORIF  004.68 241.8 m E Sn      2013/01/31 04:38:26.7  -0.4                          T                2.6  .34 Ml 2.7         5184062
LOR   005.33 272.7 m E Pn      2013/01/31 04:37:44.7   0.0                          T                                        5184137
LOR   005.33 272.7 m E Pg      2013/01/31 04:38:05.1  -0.7  94.4  7.4               T                                        5184139
LOR   005.33 272.7 m E Sn      2013/01/31 04:38:42.2  -0.3                          T                                        5184138
LOR   005.33 272.7 m E Sg      2013/01/31 04:39:13.7  -0.4                          T                1.1  .23 Ml 2.6         5184136
PAGF  004.21 289.8 m E Pg      2013/01/31 04:37:45.0   0.0                          T                                        5184076
PAGF  004.21 289.8 m E Sn      2013/01/31 04:38:15.6   0.0                          T                                        5184074
PAGF  004.21 289.8 m E Sg      2013/01/31 04:38:38.8  -0.2                          T                5.6  .23 Ml 3.1         5184164
SMF   005.41 266.1 m E Pn      2013/01/31 04:37:45.7  -0.1                          T                                        5184056
SMF   005.41 266.1 m E Pg      2013/01/31 04:38:07.0  -0.2                          T                                        5184155
SMF   005.41 266.1 m E Sn      2013/01/31 04:38:44.3  -0.1                          T                                        5184066
SMF   005.41 266.1 m E Sg      2013/01/31 04:39:17.7   1.1                          T                 .7  .20 Ml 2.5         5184154
FRF   005.14 225.5 m E P       2013/01/31 04:37:46.2   0.0                          T                                        5184048
VIVF  005.46 246.2 m E Pn      2013/01/31 04:37:46.3   0.0                          T                                        5184051
VIVF  005.46 246.2 m E Pg      2013/01/31 04:38:07.4  -0.6                          T                                        5184147
VIVF  005.46 246.2 m E Sn      2013/01/31 04:38:44.1  -1.3                          T                1.3  .30 Ml 2.6         5184064
SSF   005.59 270.7 m E Pn      2013/01/31 04:37:48.2   0.1                          T                                        5184057
AVF   005.72 268.1 m E Pn      2013/01/31 04:37:49.7  -0.2                          T                                        5184055
SMRF  005.42 234.6 m E P       2013/01/31 04:37:49.7  -0.4                          T                                        5184149
MEZF  004.63 287.7 m E Pg      2013/01/31 04:37:52.4  -0.3                          T                                        5184142
MEZF  004.63 287.7 m E Sg      2013/01/31 04:38:51.9  -0.3                          T                2.9  .26 Ml 2.8         5184141
BGF   006.11 266.4 m E Pn      2013/01/31 04:37:55.6   0.5                          T                                        5184084
BGF   006.11 266.4 m E Sn      2013/01/31 04:39:00.6  -0.3                          T                2.9  .26 Ml 3.2         5184065
BGF   006.11 266.4 m E Sg      2013/01/31 04:39:39.2   1.1                          T                2.7  .38 Ml 3.0         5184153
TCF   006.59 264.8 m E Pn      2013/01/31 04:38:03.1   1.4                          T                                        5184068
TCF   006.59 264.8 m E Sn      2013/01/31 04:39:14.0   1.5                          T                1.3  .26 Ml 2.9         5184140
CAF   007.10 254.1 m E P       2013/01/31 04:38:12.6  -1.1                          T                                        5184135
CAF   007.10 254.1 m E Sn      2013/01/31 04:39:26.0   1.3                          T                                        5184085
CAF   007.10 254.1 m E Sg      2013/01/31 04:40:09.7   0.5                          T                 .3  .19 Ml 2.5         5184145
LASF  006.36 242.6 m E Sn      2013/01/31 04:39:08.0   1.1                          T                1.3  .38 Ml 2.7         5184088

.
EVENT     291281
    Date      Time       Latitude Longitude    Depth    Ndef Nsta Gap    Mag1  N    Mag2  N    Mag3  N   Author         ID
       rms   OT_Error      Smajor Sminor Az        Err   mdist  Mdist     Err        Err        Err      Quality

2013/01/31 07:27:58.6     44.7410    6.6116      2.0      14    6 089  Ml 1.4  2  Md 1.5  2              bulletin    291381
                                                                                                         _ldg
      0.41   +-  0.04        .8     .7   43.52 +-  0.0    0.11   1.07   +-0.1      +-0.0                 m i ke

FRANCE
Sta     Dist  EvAz     Phase      Date       Time     TRes  Azim  AzRes  Slow  SRes Def   SNR       Amp   Per   Mag1   Mag2       ID
MBDF  000.11 097.0 m E Pg      2013/01/31 07:28:01.3  -0.1                          T                                        5193762
MBDF  000.11 097.0 m E Sg      2013/01/31 07:28:03.0   0.0                          T               34.4  .78        Md 1.5  5193761
ORIF  000.55 289.1 m E Pg      2013/01/31 07:28:09.2   0.0                          T                                        5193759
ORIF  000.55 289.1 m E Sg      2013/01/31 07:28:16.4   0.0                          T                                Md 1.5  5193760
LPG   000.76 007.4 m E Pg      2013/01/31 07:28:13.4   0.1                          T                                        5193755
LPG   000.76 007.4 m E Sg      2013/01/31 07:28:23.5   0.1                          T                  1  .23                5193756
LPL   000.78 006.3 m E Pg      2013/01/31 07:28:13.6   0.0                          T                                        5193758
LPL   000.78 006.3 m E Sg      2013/01/31 07:28:23.9   0.1                          T                1.5  .30                5193757
SBF   001.06 145.7 m E Pg      2013/01/31 07:28:18.6   0.0                          T                                        5193752
SBF   001.06 145.7 m E Sg      2013/01/31 07:28:32.1  -0.2                          T                 .7  .20 Ml 1.4         5193751
SMRF  001.07 224.5 m E Pg      2013/01/31 07:28:18.6   0.0                          T                                        5193754
SMRF  001.07 224.5 m E Sg      2013/01/31 07:28:32.5   0.0                          T                 .7  .22 Ml 1.3         5193753

.
EVENT     291244
    Date      Time       Latitude Longitude    Depth    Ndef Nsta Gap    Mag1  N    Mag2  N    Mag3  N   Author         ID
       rms   OT_Error      Smajor Sminor Az        Err   mdist  Mdist     Err        Err        Err      Quality

2013/01/31 08:28:31.8     49.0886    5.3871       .0 f    11    7 137  Ml 2.2  4  Md 2.3  1              bulletin    291344
                                                                                                         _ldg
      0.66   +-  0.09       2.4    1.4   59.15 +-  0.0    0.58   1.60   +-0.1      +-                    m i km

FRANCE
Sta     Dist  EvAz     Phase      Date       Time     TRes  Azim  AzRes  Slow  SRes Def   SNR       Amp   Per   Mag1   Mag2       ID
PAGF  000.58 157.2 m E Pg      2013/01/31 08:28:42.8  -0.3 334.9  -2.5              T                                        5195343
PAGF  000.58 157.2 m E Sg      2013/01/31 08:28:51.3   0.5 344.4  6.9               T               52.1  .65        Md 2.3  5184231
SFTF  000.91 194.8 m E Pg      2013/01/31 08:28:49.3   0.1  13.0  -1.5              T                                        5184229
SFTF  000.91 194.8 m E Sg      2013/01/31 08:29:01.4   0.1                          T                8.5  .28 Ml 2.3         5184228
BAIF  001.24 322.1 m E Pg      2013/01/31 08:28:55.1   0.0                          T                                        5195345
HAU   001.26 149.1 m E Pg      2013/01/31 08:28:55.5  -0.1                          T                                        5184230
HAU   001.26 149.1 m E Sg      2013/01/31 08:29:11.8  -0.2                          T                6.4  .22 Ml 2.2         5184227
CDF   001.42 117.7 m E Pn      2013/01/31 08:28:57.5   0.0                          T                                        5184232
CDF   001.42 117.7 m E Sg      2013/01/31 08:29:17.4   0.2                          T                4.3  .32 Ml 2.2         5184226
GIVF  001.08 340.3 m E Sg      2013/01/31 08:29:06.4   0.0                          T                5.4  .34 Ml 2.1         5195344
HINF  001.60 142.0 m E Sg      2013/01/31 08:29:22.7  -0.2                          T                                        5184233

.
EVENT     291286
    Date      Time       Latitude Longitude    Depth    Ndef Nsta Gap    Mag1  N    Mag2  N    Mag3  N   Author         ID
       rms   OT_Error      Smajor Sminor Az        Err   mdist  Mdist     Err        Err        Err      Quality

2013/01/31 14:23:43.4     44.4837    7.0538      5.0 f    36    8 045  Ml 1.8  7  Md 1.8  2              bulletin    291386
                                                                                                         _ldg
      0.19   +-  0.03        .6     .4   53.26 +-  0.0    0.04   1.22   +-0.3      +-0.0                 m i ke

NORTHERN ITALY
Sta     Dist  EvAz     Phase      Date       Time     TRes  Azim  AzRes  Slow  SRes Def   SNR       Amp   Per   Mag1   Mag2       ID
MBDF  000.32 320.4 m E Pg      2013/01/31 14:23:49.8   0.0                          T                                        5184544
MBDF  000.32 320.4 m E Sg      2013/01/31 14:23:54.2   0.1                          T               11.9  .21        Md 1.9  5184543
SBF   000.68 156.0 m E Pg      2013/01/31 14:23:56.5   0.1                          T                                        5184538
SBF   000.68 156.0 m E Sg      2013/01/31 14:24:05.2   0.0                          T                2.8  .24        Md 1.8  5184537
ORIF  000.94 297.8 m E Pg      2013/01/31 14:24:01.3   0.0                          T                                        5184542
ORIF  000.94 297.8 m E Sg      2013/01/31 14:24:13.6   0.1                          T                1.3  .21 Ml 1.6         5184541
FRF   000.97 197.8 m E Pg      2013/01/31 14:24:01.7   0.0                          T                                        5193765
FRF   000.97 197.8 m E Sg      2013/01/31 14:24:14.2   0.0                          T                6.3  .22 Ml 2.3         5193766
LPG   001.04 348.2 m E Pg      2013/01/31 14:24:03.2   0.0                          T                                        5193769
LPG   001.04 348.2 m E Sg      2013/01/31 14:24:16.7   0.0                          T                1.3  .17 Ml 1.7         5193770
LPL   001.06 347.7 m E Pg      2013/01/31 14:24:03.4  -0.1                          T                                        5193771
LPL   001.06 347.7 m E Sg      2013/01/31 14:24:16.9  -0.4                          T                1.7  .22 Ml 1.7         5193772
SMRF  001.18 245.0 m E Pg      2013/01/31 14:24:05.6   0.1                          T                                        5193768
SMRF  001.18 245.0 m E Sg      2013/01/31 14:24:20.9   0.1                          T                1.2  .18 Ml 1.7         5193767
LMR   001.22 199.1 m E Pg      2013/01/31 14:24:06.2   0.0                          T                                        5184540
LMR   001.22 199.1 m E Sg      2013/01/31 14:24:21.9   0.1                          T                3.5  .22 Ml 2.1         5184539

.
EVENT     291288
    Date      Time       Latitude Longitude    Depth    Ndef Nsta Gap    Mag1  N    Mag2  N    Mag3  N   Author         ID
       rms   OT_Error      Smajor Sminor Az        Err   mdist  Mdist     Err        Err        Err      Quality

2013/01/31 16:48:12.8     36.3092   -6.0823     25.0      61   13 165  Ml 3.8 10                         bulletin    291388
                                                                                                         _ldg
      0.43   +-  0.10       2.2    1.4    9.00 +-  0.0    0.19  14.44   +-0.3                            m i ke

STRAIT OF GIBRALTAR
Sta     Dist  EvAz     Phase      Date       Time     TRes  Azim  AzRes  Slow  SRes Def   SNR       Amp   Per   Mag1   Mag2       ID
SJPF  007.76 027.4 m E Pn      2013/01/31 16:50:02.0   0.4                          T                                        5184686
SJPF  007.76 027.4 m E Sn      2013/01/31 16:51:24.1   0.7                          T                5.1  .22 Ml 3.7         5184681
ETSF  007.84 031.2 m E Pn      2013/01/31 16:50:03.2   0.4                          T                                        5184685
ETSF  007.84 031.2 m E Sn      2013/01/31 16:51:25.5   0.1                          T                3.7  .24 Ml 3.6         5184708
EPF   008.34 034.4 m E Pn      2013/01/31 16:50:09.8   0.1                          T                                        5184684
EPF   008.34 034.4 m E Sn      2013/01/31 16:51:37.6   0.3                          T                4.2  .23 Ml 3.7         5184707
LFF   010.06 028.9 m E Pn      2013/01/31 16:50:32.3  -0.6                          T                                        5193791
LFF   010.06 028.9 m E Sn      2013/01/31 16:52:18.4   0.1                          T                3.7  .33 Ml 3.6         5193792
RJF   010.67 030.3 m E Pn      2013/01/31 16:50:41.2  -0.1                          T                                        5193790
RJF   010.67 030.3 m E Sn      2013/01/31 16:52:33.0   0.0                          T                2.2  .25 Ml 3.5         5193789
QUIF  011.80 009.6 m E Pn      2013/01/31 16:50:57.6   1.0                          T                                        5193788
QUIF  011.80 009.6 m E Sn      2013/01/31 16:52:59.7  -0.2                          T                3.1  .26 Ml 4.0         5193778
ROSF  012.20 008.9 m E Pn      2013/01/31 16:51:02.3   0.2                          T                                        5193786
ROSF  012.20 008.9 m E Sn      2013/01/31 16:53:09.4   0.0                          T                4.6  .26 Ml 4.3         5193779
SGMF  012.22 011.2 m E Pn      2013/01/31 16:51:02.6   0.2                          T                                        5193787
GRR   012.67 016.1 m E Pn      2013/01/31 16:51:08.4  -0.1                          T                                        5193785
GRR   012.67 016.1 m E Sn      2013/01/31 16:53:20.7   0.0                          T                4.6  .30 Ml 4.1         5193780
LDF   013.03 017.8 m E Pn      2013/01/31 16:51:12.6  -0.9                          T                                        5193784
FLN   013.11 016.5 m E Pn      2013/01/31 16:51:14.4  -0.1                          T                                        5193783
CABF  013.74 037.7 m E Pn      2013/01/31 16:51:22.7  -0.6                          T                                        5193782
SFTF  014.44 031.2 m E Pn      2013/01/31 16:51:32.4  -0.3                          T                                        5193781

.
