EVENT     265988
    Date      Time       Latitude Longitude    Depth    Ndef Nsta Gap    Mag1  N    Mag2  N    Mag3  N   Author         ID
       rms   OT_Error      Smajor Sminor Az        Err   mdist  Mdist     Err        Err        Err      Quality

2011/11/05 11:17:52.6     39.3704    -.2531      2.0      51    5 102  Ml 2.7  4                         js067245    266008

      0.60   +-  0.11       2.7    1.5  123.17 +-  0.0    1.01   5.81   +-0.2                            m i ke

SPAIN
Sta     Dist  EvAz     Phase      Date       Time     TRes  Azim  AzRes  Slow  SRes Def   SNR       Amp   Per   Mag1   Mag2       ID
ETSF  003.53 356.3 m E Pn      2011/11/05 11:18:47.9   1.2                          T                                        4781903
ETSF  003.53 356.3 m E Pg      2011/11/05 11:18:57.4  -0.7                          T                                        4781900
ETSF  003.53 356.3 m E Sg      2011/11/05 11:19:41.4  -2.1                          T                4.9  .39 Ml 2.6         4781898
EPF   003.68 006.8 m E Pn      2011/11/05 11:18:48.6  -0.1                          T                                        4781906
EPF   003.68 006.8 m E P       2011/11/05 11:18:51.5  -0.5                          T                                        4781897
EPF   003.68 006.8 m E Pg      2011/11/05 11:19:01.0   0.1                          T                                        4781907
EPF   003.68 006.8 m E Sn      2011/11/05 11:19:30.0  -0.1                          T                                        4781905
EPF   003.68 006.8 m E Sg      2011/11/05 11:19:48.6   0.4                          T                8.2  .37 Ml 2.9         4781904
SJPF  003.81 349.2 m E Pn      2011/11/05 11:18:50.8   0.5                          T                                        4781902
SJPF  003.81 349.2 m E P       2011/11/05 11:18:52.6  -1.1                          T                                        4781896
SJPF  003.81 349.2 m E Sg      2011/11/05 11:19:51.6  -0.5                          T                3.4  .35 Ml 2.6         4783727
MTLF  004.38 024.3 m E Pg      2011/11/05 11:19:13.7   0.0                          T                                        4781899
MTLF  004.38 024.3 m E Sg      2011/11/05 11:20:09.6  -0.3                          T                3.2  .42 Ml 2.6         4781901
CAF   005.81 016.5 m E Pn      2011/11/05 11:19:17.9   0.3                          T                                        4783728

.
EVENT     266166
    Date      Time       Latitude Longitude    Depth    Ndef Nsta Gap    Mag1  N    Mag2  N    Mag3  N   Author         ID
       rms   OT_Error      Smajor Sminor Az        Err   mdist  Mdist     Err        Err        Err      Quality

2011/11/05 12:47:34.2     36.5030  -11.1982     20.0 f    67    5 285  Ml 3.3  3                         js067245    266186

      0.41   +-  0.17       3.3    2.3   57.57 +-  0.0    2.00  13.18   +-0.0                            m i ke

NORTH ATLANTIC OCEAN
Sta     Dist  EvAz     Phase      Date       Time     TRes  Azim  AzRes  Slow  SRes Def   SNR       Amp   Per   Mag1   Mag2       ID
SJPF  010.12 046.2 m E Pn      2011/11/05 12:49:56.6   0.8                          T                                        4783986
SJPF  010.12 046.2 m E Sn      2011/11/05 12:51:42.3   0.3                          T                1.1  .31 Ml 3.3         4783983
ETSF  010.39 048.8 m E Pn      2011/11/05 12:49:58.9  -0.6                          T                                        4783985
ETSF  010.39 048.8 m E Sn      2011/11/05 12:51:48.9   0.3                          T                 .8  .30 Ml 3.2         4783982
EPF   011.01 050.2 m E Pn      2011/11/05 12:50:08.7   0.7                          T                                        4783984
EPF   011.01 050.2 m E Sn      2011/11/05 12:52:03.1  -0.4                          T                 .6  .26 Ml 3.3         4783981
QUIF  012.86 025.0 m E Pn      2011/11/05 12:50:33.1   0.2                          T                                        4783987
ROSF  013.18 023.8 m E Pn      2011/11/05 12:50:37.5   0.0                          T                                        4783988

.
EVENT     266179
    Date      Time       Latitude Longitude    Depth    Ndef Nsta Gap    Mag1  N    Mag2  N    Mag3  N   Author         ID
       rms   OT_Error      Smajor Sminor Az        Err   mdist  Mdist     Err        Err        Err      Quality

2011/11/05 12:51:19.0     36.0698   -7.4448     20.0 f    61    4 218  Ml 3.0  3                         js067245    266199

      0.71   +-  0.25       5.3    2.7   27.09 +-  0.0    1.23  14.27   +-0.3                            m i ke

STRAIT OF GIBRALTAR
Sta     Dist  EvAz     Phase      Date       Time     TRes  Azim  AzRes  Slow  SRes Def   SNR       Amp   Per   Mag1   Mag2       ID
SJPF  008.51 032.4 m E Pn      2011/11/05 12:53:19.7   1.1                          T                                        4784013
SJPF  008.51 032.4 m E Sn      2011/11/05 12:54:47.7  -0.8                          T                 .3  .20 Ml 2.7         4784009
ETSF  008.65 035.9 m E Pn      2011/11/05 12:53:20.3  -0.3                          T                                        4784012
ETSF  008.65 035.9 m E Sn      2011/11/05 12:54:49.7  -2.1                          T                3.1  .54 Ml 3.3         4784008
EPF   009.19 038.5 m E Pn      2011/11/05 12:53:28.1   0.2                          T                                        4784011
EPF   009.19 038.5 m E Sn      2011/11/05 12:55:05.1   0.4                          T                 .9  .31 Ml 3.1         4784007
PGF   014.27 058.1 m E Pn      2011/11/05 12:54:37.4   0.2                          T                                        4784010

.
EVENT     265990
    Date      Time       Latitude Longitude    Depth    Ndef Nsta Gap    Mag1  N    Mag2  N    Mag3  N   Author         ID
       rms   OT_Error      Smajor Sminor Az        Err   mdist  Mdist     Err        Err        Err      Quality

2011/11/05 16:04:15.7     43.1073   -1.2906      2.0      19    3 137  Ml 1.1  1  Md 1.3  2              js067245    266010

      0.23   +-  0.07       1.2    1.1  175.43 +-  0.0    0.05   1.20   +-         +-0.2                 m i ke

PYRENEES
Sta     Dist  EvAz     Phase      Date       Time     TRes  Azim  AzRes  Slow  SRes Def   SNR       Amp   Per   Mag1   Mag2       ID
SJPF  000.05 082.9 m E Pg      2011/11/05 16:04:17.7   0.6                          T                                        4781909
SJPF  000.05 082.9 m E Sg      2011/11/05 16:04:18.7   0.8                          T                5.5  .19        Md 1.4  4781908
ETSF  000.58 111.0 m E Pg      2011/11/05 16:04:26.6  -0.1                          T                                        4784016
ETSF  000.58 111.0 m E Sg      2011/11/05 16:04:34.0  -0.3                          T                1.1  .20        Md 1.2  4784017
EPF   001.20 093.1 m E Pg      2011/11/05 16:04:38.1   0.0                          T                                        4784014
EPF   001.20 093.1 m E Sg      2011/11/05 16:04:53.9   0.3                          T                 .4  .22 Ml 1.1         4784015

.
EVENT     265991
    Date      Time       Latitude Longitude    Depth    Ndef Nsta Gap    Mag1  N    Mag2  N    Mag3  N   Author         ID
       rms   OT_Error      Smajor Sminor Az        Err   mdist  Mdist     Err        Err        Err      Quality

2011/11/05 18:08:44.7     42.3301    2.1062      2.0      25    5 039  Ml 1.9  5                         js067245    266011

      0.36   +-  0.06       1.3    1.0   10.29 +-  0.0    0.07   2.59   +-0.1                            m i ke

PYRENEES
Sta     Dist  EvAz     Phase      Date       Time     TRes  Azim  AzRes  Slow  SRes Def   SNR       Amp   Per   Mag1   Mag2       ID
MTLF  001.01 004.6 m E Pg      2011/11/05 18:09:04.0   0.2                          T                                        4781912
MTLF  001.01 004.6 m E Sg      2011/11/05 18:09:16.9   0.0                          T                2.2  .20 Ml 1.9         4781911
EPF   001.48 298.8 m E Pg      2011/11/05 18:09:12.3  -0.1                          T                                        4784022
EPF   001.48 298.8 m E Sg      2011/11/05 18:09:31.3  -0.1                          T                1.4  .22 Ml 1.8         4784023
ETSF  002.05 287.0 m E Sg      2011/11/05 18:09:48.8  -0.4                          T                1.8  .35 Ml 1.9         4784021
LASF  002.16 035.7 m E Sg      2011/11/05 18:09:52.9   0.0                          T                1.3  .26 Ml 2.0         4784020
CAF   002.59 359.3 m E Sg      2011/11/05 18:10:07.3   1.0                          T                1.0  .19 Ml 2.1         4781910

.
EVENT     266067
    Date      Time       Latitude Longitude    Depth    Ndef Nsta Gap    Mag1  N    Mag2  N    Mag3  N   Author         ID
       rms   OT_Error      Smajor Sminor Az        Err   mdist  Mdist     Err        Err        Err      Quality

2011/11/05 19:42:21.9     46.0747    7.2783      6.0 f    19    7 108  Ml 1.9  5  Md 1.8  3              js067245    266087

      0.16   +-  0.04        .8     .7  138.77 +-  0.0    0.09   2.45   +-0.2      +-0.1                 m i ke

SWITZERLAND
Sta     Dist  EvAz     Phase      Date       Time     TRes  Azim  AzRes  Slow  SRes Def   SNR       Amp   Per   Mag1   Mag2       ID
LPL   000.68 214.6 m E Pg      2011/11/05 19:42:35.0   0.0                          T                                        4781917
LPL   000.68 214.6 m E Sg      2011/11/05 19:42:43.9   0.0                          T                3.2  .27        Md 1.7  4781916
LPG   000.68 212.8 m E Pg      2011/11/05 19:42:35.2   0.0                          T                                        4781915
LPG   000.68 212.8 m E Sg      2011/11/05 19:42:44.2  -0.1                          T                4.4  .21        Md 1.7  4781914
CABF  000.98 303.5 m E P       2011/11/05 19:42:41.8  -0.4                          T                                        4781920
CABF  000.98 303.5 m E Sg      2011/11/05 19:42:53.7   0.4                          T                2.1  .23 Ml 1.8 Md 1.9  4781919
MBDF  001.39 195.0 m E Sg      2011/11/05 19:43:06.3   0.1                          T                 .8  .21 Ml 1.6         4784040
HINF  001.77 350.7 m E Sg      2011/11/05 19:43:17.5  -0.2                          T                1.2  .18 Ml 2.0         4781918
HAU   002.03 342.1 m E Sg      2011/11/05 19:43:26.0   0.0                          T                2.0  .22 Ml 1.9         4781913
SMF   002.45 284.7 m E Sg      2011/11/05 19:43:39.0   0.2                          T                  1  .20 Ml 2.0         4781921

.
EVENT     265995
    Date      Time       Latitude Longitude    Depth    Ndef Nsta Gap    Mag1  N    Mag2  N    Mag3  N   Author         ID
       rms   OT_Error      Smajor Sminor Az        Err   mdist  Mdist     Err        Err        Err      Quality

2011/11/05 21:36:34.0     51.5950   16.1643      1.0 f    58   12 066  Ml 4.0  8                         js067245    266015

      1.10   +-  0.20       5.5    2.9    8.41 +-  0.0    0.76  18.53   +-0.2                            m i sr

POLAND
Sta     Dist  EvAz     Phase      Date       Time     TRes  Azim  AzRes  Slow  SRes Def   SNR       Amp   Per   Mag1   Mag2       ID
RUP   006.09 255.4 m E Pn      2011/11/05 21:38:06.2   3.3                          T                                        4781930
RUP   006.09 255.4 m E Sg      2011/11/05 21:39:43.8  -1.0                          T                                        4784056
CDF   006.55 244.4 m E Pn      2011/11/05 21:38:11.9   2.6                          T                                        4781929
CDF   006.55 244.4 m E Sg      2011/11/05 21:39:59.3   0.1                          T               57.9  .84 Ml 4.1         4784054
HINF  007.12 241.6 m E Pn      2011/11/05 21:38:19.3   2.3                          T                                        4781926
HINF  007.12 241.6 m E Sg      2011/11/05 21:40:17.9   1.0                          T               30.5  .78 Ml 3.9         4784050
GIVF  007.34 262.7 m E Pn      2011/11/05 21:38:19.4  -0.4                          T                                        4784059
GIVF  007.34 262.7 m E Sg      2011/11/05 21:40:23.2  -0.3                          T               84.0 1.24 Ml 4.1         4784058
HAU   007.30 244.3 m E Pn      2011/11/05 21:38:20.2   0.9                          T                                        4781928
HAU   007.30 244.3 m E Pg      2011/11/05 21:38:49.5   0.6                          T                                        4781927
HAU   007.30 244.3 m E Sg      2011/11/05 21:40:22.7   0.4                          T               56.6  .99 Ml 3.8         4784051
PAGF  007.37 249.7 m E P       2011/11/05 21:38:24.0  -1.5  67.2  5.5               T                                        4781924
PAGF  007.37 249.7 m E Sg      2011/11/05 21:40:25.8   1.1                          T               23.9 1.21 Ml 3.6         4784053
SFTF  007.94 249.1 m E P       2011/11/05 21:38:28.4  -5.1                          T                                        4781925
SFTF  007.94 249.1 m E Sg      2011/11/05 21:40:43.0   0.5                          T               24.3  .79 Ml 3.9         4784052
CABF  008.28 236.9 m E Pn      2011/11/05 21:38:33.8   1.0                          T                                        4781923
CABF  008.28 236.9 m E Pg      2011/11/05 21:39:08.7   1.6                          T                                        4781922
CABF  008.28 236.9 m E Sg      2011/11/05 21:40:53.3   0.3                          T               67.8 1.11 Ml 4.3         4784049
LOR   009.11 246.4 m E Pn      2011/11/05 21:38:44.8   0.8  64.8  7.7               T                                        4781931
MBDF  009.30 226.0 m E P       2011/11/05 21:38:53.1   0.6                          T                                        4784048
LANF  005.96 247.2 m E Sg      2011/11/05 21:39:41.4   0.7                          T                                        4784055
BAIF  007.73 263.2 m E Sg      2011/11/05 21:40:35.9   0.2                          T               46.6 1.18 Ml 4.0         4784057

.
EVENT     265992
    Date      Time       Latitude Longitude    Depth    Ndef Nsta Gap    Mag1  N    Mag2  N    Mag3  N   Author         ID
       rms   OT_Error      Smajor Sminor Az        Err   mdist  Mdist     Err        Err        Err      Quality

2011/11/05 22:46:14.9     42.8613     .3289      2.0       6    4 203  Ml 1.5  2  Md 1.5  2              js067245    266012

      0.14   +-  0.15       3.6    1.5  156.97 +-  0.0    0.17   1.46   +-0.3      +-0.4                 m i ke

PYRENEES
Sta     Dist  EvAz     Phase      Date       Time     TRes  Azim  AzRes  Slow  SRes Def   SNR       Amp   Per   Mag1   Mag2       ID
EPF   000.17 002.8 m E Pg      2011/11/05 22:46:18.3  -0.2                          T                                        4781935
EPF   000.17 002.8 m E Sg      2011/11/05 22:46:21.0   0.2                          T                5.0  .18        Md 1.8  4781934
ETSF  000.65 273.6 m E Pg      2011/11/05 22:46:27.4   0.0                          T                                        4781932
ETSF  000.65 273.6 m E Sg      2011/11/05 22:46:35.8  -0.2                          T                9.6  .28        Md 1.2  4781933
SJPF  001.17 283.0 m E Sg      2011/11/05 22:46:51.8  -0.1                          T                1.5  .26 Ml 1.7         4784065
MTLF  001.46 070.2 m E Sg      2011/11/05 22:47:01.2   0.0                          T                 .4  .22 Ml 1.3         4784066

.
EVENT     266000
    Date      Time       Latitude Longitude    Depth    Ndef Nsta Gap    Mag1  N    Mag2  N    Mag3  N   Author         ID
       rms   OT_Error      Smajor Sminor Az        Err   mdist  Mdist     Err        Err        Err      Quality

2011/11/06 01:28:17.7     44.1828   10.6733     17.8      21    6 095  Ml 2.6  5                         js067245    266020

      0.26   +-  0.06       2.1    1.3  166.27 +-  0.7    0.13   4.86   +-0.1                            m i ke

NORTHERN ITALY
Sta     Dist  EvAz     Phase      Date       Time     TRes  Azim  AzRes  Slow  SRes Def   SNR       Amp   Per   Mag1   Mag2       ID
PGF   002.04 217.3 m E Pn      2011/11/06 01:28:50.6   1.0                          T                                        4782313
PGF   002.04 217.3 m E Pg      2011/11/06 01:28:55.9   0.1                          T                                        4782311
PGF   002.04 217.3 m E Sn      2011/11/06 01:29:12.9  -0.1                          T                4.4  .28 Ml 2.6         4782312
SBF   002.36 263.3 m E Pn      2011/11/06 01:28:54.2   0.4                          T                                        4782310
SBF   002.36 263.3 m E Pg      2011/11/06 01:29:01.6   0.0                          T                                        4782309
SBF   002.36 263.3 m E Sg      2011/11/06 01:29:31.4  -0.6                          T               11.4  .31 Ml 2.9         4782308
CABF  004.04 308.5 m E P       2011/11/06 01:29:20.6   0.1                          T                                        4782305
HINF  004.50 325.1 m E P       2011/11/06 01:29:26.8  -0.2                          T                                        4782307
HINF  004.50 325.1 m E Sn      2011/11/06 01:30:11.9   0.1                          T                1.8  .35 Ml 2.5         4784067
CDF   004.84 332.1 m E P       2011/11/06 01:29:31.3  -0.6                          T                                        4782304
CDF   004.84 332.1 m E Sn      2011/11/06 01:30:19.5  -0.4                          T                1.8  .34 Ml 2.7         4784069
HAU   004.86 323.3 m E P       2011/11/06 01:29:32.1   0.0                          T                                        4782306
HAU   004.86 323.3 m E Sn      2011/11/06 01:30:20.4  -0.1                          T                2.8  .31 Ml 2.6         4784068

.
